<?xml version="1.0" encoding="UTF-8"?>
<gpx version="1.1" creator="Kairos" xmlns="http://www.topografix.com/GPX/1/1">
  <trk>
    <name>sidecar-srt-87225a03c1697622</name>
    <trkseg>
      <trkpt lat="29.799365" lon="99.756588"><time>2026-05-02T22:51:47.000Z</time></trkpt>
      <trkpt lat="29.799365" lon="99.756588"><time>2026-05-02T22:51:47.016Z</time></trkpt>
      <trkpt lat="29.799365" lon="99.756588"><time>2026-05-02T22:51:47.032Z</time></trkpt>
      <trkpt lat="29.799365" lon="99.756588"><time>2026-05-02T22:51:47.049Z</time></trkpt>
      <trkpt lat="29.799365" lon="99.756588"><time>2026-05-02T22:51:47.066Z</time></trkpt>
      <trkpt lat="29.799365" lon="99.756589"><time>2026-05-02T22:51:47.082Z</time></trkpt>
      <trkpt lat="29.799365" lon="99.756589"><time>2026-05-02T22:51:47.099Z</time></trkpt>
      <trkpt lat="29.799365" lon="99.756589"><time>2026-05-02T22:51:47.116Z</time></trkpt>
      <trkpt lat="29.799365" lon="99.756589"><time>2026-05-02T22:51:47.132Z</time></trkpt>
      <trkpt lat="29.799365" lon="99.756589"><time>2026-05-02T22:51:47.149Z</time></trkpt>
      <trkpt lat="29.799365" lon="99.756589"><time>2026-05-02T22:51:47.166Z</time></trkpt>
      <trkpt lat="29.799365" lon="99.756589"><time>2026-05-02T22:51:47.182Z</time></trkpt>
      <trkpt lat="29.799365" lon="99.756589"><time>2026-05-02T22:51:47.199Z</time></trkpt>
      <trkpt lat="29.799365" lon="99.756589"><time>2026-05-02T22:51:47.216Z</time></trkpt>
      <trkpt lat="29.799365" lon="99.756589"><time>2026-05-02T22:51:47.232Z</time></trkpt>
      <trkpt lat="29.799365" lon="99.756589"><time>2026-05-02T22:51:47.249Z</time></trkpt>
      <trkpt lat="29.799365" lon="99.756589"><time>2026-05-02T22:51:47.266Z</time></trkpt>
      <trkpt lat="29.799365" lon="99.75659"><time>2026-05-02T22:51:47.282Z</time></trkpt>
      <trkpt lat="29.799365" lon="99.75659"><time>2026-05-02T22:51:47.299Z</time></trkpt>
      <trkpt lat="29.799365" lon="99.75659"><time>2026-05-02T22:51:47.316Z</time></trkpt>
      <trkpt lat="29.799365" lon="99.75659"><time>2026-05-02T22:51:47.333Z</time></trkpt>
      <trkpt lat="29.799365" lon="99.75659"><time>2026-05-02T22:51:47.349Z</time></trkpt>
      <trkpt lat="29.799365" lon="99.75659"><time>2026-05-02T22:51:47.366Z</time></trkpt>
      <trkpt lat="29.799365" lon="99.756591"><time>2026-05-02T22:51:47.383Z</time></trkpt>
      <trkpt lat="29.799365" lon="99.756591"><time>2026-05-02T22:51:47.399Z</time></trkpt>
      <trkpt lat="29.799365" lon="99.756591"><time>2026-05-02T22:51:47.416Z</time></trkpt>
      <trkpt lat="29.799365" lon="99.756591"><time>2026-05-02T22:51:47.433Z</time></trkpt>
      <trkpt lat="29.799365" lon="99.756591"><time>2026-05-02T22:51:47.449Z</time></trkpt>
      <trkpt lat="29.799365" lon="99.756591"><time>2026-05-02T22:51:47.466Z</time></trkpt>
      <trkpt lat="29.799365" lon="99.756592"><time>2026-05-02T22:51:47.483Z</time></trkpt>
      <trkpt lat="29.799365" lon="99.756592"><time>2026-05-02T22:51:47.499Z</time></trkpt>
      <trkpt lat="29.799365" lon="99.756592"><time>2026-05-02T22:51:47.516Z</time></trkpt>
      <trkpt lat="29.799365" lon="99.756592"><time>2026-05-02T22:51:47.533Z</time></trkpt>
      <trkpt lat="29.799365" lon="99.756592"><time>2026-05-02T22:51:47.549Z</time></trkpt>
      <trkpt lat="29.799365" lon="99.756592"><time>2026-05-02T22:51:47.566Z</time></trkpt>
      <trkpt lat="29.799365" lon="99.756593"><time>2026-05-02T22:51:47.583Z</time></trkpt>
      <trkpt lat="29.799365" lon="99.756593"><time>2026-05-02T22:51:47.599Z</time></trkpt>
      <trkpt lat="29.799365" lon="99.756593"><time>2026-05-02T22:51:47.616Z</time></trkpt>
      <trkpt lat="29.799365" lon="99.756593"><time>2026-05-02T22:51:47.633Z</time></trkpt>
      <trkpt lat="29.799365" lon="99.756593"><time>2026-05-02T22:51:47.650Z</time></trkpt>
      <trkpt lat="29.799365" lon="99.756593"><time>2026-05-02T22:51:47.666Z</time></trkpt>
      <trkpt lat="29.799364" lon="99.756596"><time>2026-05-02T22:51:47.683Z</time></trkpt>
      <trkpt lat="29.799364" lon="99.756596"><time>2026-05-02T22:51:47.700Z</time></trkpt>
      <trkpt lat="29.799364" lon="99.756596"><time>2026-05-02T22:51:47.716Z</time></trkpt>
      <trkpt lat="29.799364" lon="99.756596"><time>2026-05-02T22:51:47.733Z</time></trkpt>
      <trkpt lat="29.799364" lon="99.756596"><time>2026-05-02T22:51:47.750Z</time></trkpt>
      <trkpt lat="29.799364" lon="99.756596"><time>2026-05-02T22:51:47.766Z</time></trkpt>
      <trkpt lat="29.799364" lon="99.756598"><time>2026-05-02T22:51:47.783Z</time></trkpt>
      <trkpt lat="29.799364" lon="99.756598"><time>2026-05-02T22:51:47.800Z</time></trkpt>
      <trkpt lat="29.799364" lon="99.756598"><time>2026-05-02T22:51:47.816Z</time></trkpt>
      <trkpt lat="29.799364" lon="99.756598"><time>2026-05-02T22:51:47.833Z</time></trkpt>
      <trkpt lat="29.799364" lon="99.756598"><time>2026-05-02T22:51:47.850Z</time></trkpt>
      <trkpt lat="29.799364" lon="99.756598"><time>2026-05-02T22:51:47.866Z</time></trkpt>
      <trkpt lat="29.799364" lon="99.756601"><time>2026-05-02T22:51:47.883Z</time></trkpt>
      <trkpt lat="29.799364" lon="99.756601"><time>2026-05-02T22:51:47.900Z</time></trkpt>
      <trkpt lat="29.799364" lon="99.756601"><time>2026-05-02T22:51:47.916Z</time></trkpt>
      <trkpt lat="29.799364" lon="99.756601"><time>2026-05-02T22:51:47.933Z</time></trkpt>
      <trkpt lat="29.799364" lon="99.756601"><time>2026-05-02T22:51:47.950Z</time></trkpt>
      <trkpt lat="29.799364" lon="99.756601"><time>2026-05-02T22:51:47.967Z</time></trkpt>
      <trkpt lat="29.799364" lon="99.756604"><time>2026-05-02T22:51:47.983Z</time></trkpt>
      <trkpt lat="29.799364" lon="99.756604"><time>2026-05-02T22:51:48.000Z</time></trkpt>
      <trkpt lat="29.799364" lon="99.756604"><time>2026-05-02T22:51:48.017Z</time></trkpt>
      <trkpt lat="29.799364" lon="99.756604"><time>2026-05-02T22:51:48.033Z</time></trkpt>
      <trkpt lat="29.799364" lon="99.756604"><time>2026-05-02T22:51:48.050Z</time></trkpt>
      <trkpt lat="29.799364" lon="99.756604"><time>2026-05-02T22:51:48.067Z</time></trkpt>
      <trkpt lat="29.799364" lon="99.756607"><time>2026-05-02T22:51:48.083Z</time></trkpt>
      <trkpt lat="29.799364" lon="99.756607"><time>2026-05-02T22:51:48.100Z</time></trkpt>
      <trkpt lat="29.799364" lon="99.756607"><time>2026-05-02T22:51:48.117Z</time></trkpt>
      <trkpt lat="29.799364" lon="99.756607"><time>2026-05-02T22:51:48.133Z</time></trkpt>
      <trkpt lat="29.799364" lon="99.756607"><time>2026-05-02T22:51:48.150Z</time></trkpt>
      <trkpt lat="29.799364" lon="99.756607"><time>2026-05-02T22:51:48.167Z</time></trkpt>
      <trkpt lat="29.799363" lon="99.75661"><time>2026-05-02T22:51:48.183Z</time></trkpt>
      <trkpt lat="29.799363" lon="99.75661"><time>2026-05-02T22:51:48.200Z</time></trkpt>
      <trkpt lat="29.799363" lon="99.75661"><time>2026-05-02T22:51:48.217Z</time></trkpt>
    </trkseg>
  </trk>
</gpx>
