<?xml version="1.0" encoding="UTF-8"?>
<gpx version="1.1" creator="Kairos" xmlns="http://www.topografix.com/GPX/1/1">
  <trk>
    <name>sidecar-srt-0a86895421b6ab12</name>
    <trkseg>
      <trkpt lat="28.059405" lon="98.600485"><time>2026-04-28T09:55:02.000Z</time></trkpt>
      <trkpt lat="28.059405" lon="98.600485"><time>2026-04-28T09:55:02.016Z</time></trkpt>
      <trkpt lat="28.059403" lon="98.600493"><time>2026-04-28T09:55:02.032Z</time></trkpt>
      <trkpt lat="28.059403" lon="98.600493"><time>2026-04-28T09:55:02.049Z</time></trkpt>
      <trkpt lat="28.059403" lon="98.600493"><time>2026-04-28T09:55:02.066Z</time></trkpt>
      <trkpt lat="28.059403" lon="98.600493"><time>2026-04-28T09:55:02.082Z</time></trkpt>
      <trkpt lat="28.059403" lon="98.600493"><time>2026-04-28T09:55:02.099Z</time></trkpt>
      <trkpt lat="28.059403" lon="98.600493"><time>2026-04-28T09:55:02.116Z</time></trkpt>
      <trkpt lat="28.059402" lon="98.600501"><time>2026-04-28T09:55:02.132Z</time></trkpt>
      <trkpt lat="28.059402" lon="98.600501"><time>2026-04-28T09:55:02.149Z</time></trkpt>
      <trkpt lat="28.059402" lon="98.600501"><time>2026-04-28T09:55:02.166Z</time></trkpt>
      <trkpt lat="28.059402" lon="98.600501"><time>2026-04-28T09:55:02.182Z</time></trkpt>
      <trkpt lat="28.059402" lon="98.600501"><time>2026-04-28T09:55:02.199Z</time></trkpt>
      <trkpt lat="28.059402" lon="98.600501"><time>2026-04-28T09:55:02.216Z</time></trkpt>
      <trkpt lat="28.0594" lon="98.600509"><time>2026-04-28T09:55:02.232Z</time></trkpt>
      <trkpt lat="28.0594" lon="98.600509"><time>2026-04-28T09:55:02.249Z</time></trkpt>
      <trkpt lat="28.0594" lon="98.600509"><time>2026-04-28T09:55:02.266Z</time></trkpt>
      <trkpt lat="28.0594" lon="98.600509"><time>2026-04-28T09:55:02.282Z</time></trkpt>
      <trkpt lat="28.0594" lon="98.600509"><time>2026-04-28T09:55:02.299Z</time></trkpt>
      <trkpt lat="28.0594" lon="98.600509"><time>2026-04-28T09:55:02.316Z</time></trkpt>
      <trkpt lat="28.059399" lon="98.600517"><time>2026-04-28T09:55:02.333Z</time></trkpt>
      <trkpt lat="28.059399" lon="98.600517"><time>2026-04-28T09:55:02.349Z</time></trkpt>
      <trkpt lat="28.059399" lon="98.600517"><time>2026-04-28T09:55:02.366Z</time></trkpt>
      <trkpt lat="28.059399" lon="98.600517"><time>2026-04-28T09:55:02.383Z</time></trkpt>
      <trkpt lat="28.059399" lon="98.600517"><time>2026-04-28T09:55:02.399Z</time></trkpt>
      <trkpt lat="28.059399" lon="98.600517"><time>2026-04-28T09:55:02.416Z</time></trkpt>
      <trkpt lat="28.059397" lon="98.600525"><time>2026-04-28T09:55:02.433Z</time></trkpt>
      <trkpt lat="28.059397" lon="98.600525"><time>2026-04-28T09:55:02.449Z</time></trkpt>
      <trkpt lat="28.059397" lon="98.600525"><time>2026-04-28T09:55:02.466Z</time></trkpt>
      <trkpt lat="28.059397" lon="98.600525"><time>2026-04-28T09:55:02.483Z</time></trkpt>
      <trkpt lat="28.059397" lon="98.600525"><time>2026-04-28T09:55:02.499Z</time></trkpt>
      <trkpt lat="28.059397" lon="98.600525"><time>2026-04-28T09:55:02.516Z</time></trkpt>
      <trkpt lat="28.059395" lon="98.600534"><time>2026-04-28T09:55:02.533Z</time></trkpt>
      <trkpt lat="28.059395" lon="98.600534"><time>2026-04-28T09:55:02.549Z</time></trkpt>
      <trkpt lat="28.059395" lon="98.600534"><time>2026-04-28T09:55:02.566Z</time></trkpt>
      <trkpt lat="28.059395" lon="98.600534"><time>2026-04-28T09:55:02.583Z</time></trkpt>
      <trkpt lat="28.059395" lon="98.600534"><time>2026-04-28T09:55:02.599Z</time></trkpt>
      <trkpt lat="28.059395" lon="98.600534"><time>2026-04-28T09:55:02.616Z</time></trkpt>
      <trkpt lat="28.059394" lon="98.600542"><time>2026-04-28T09:55:02.633Z</time></trkpt>
      <trkpt lat="28.059394" lon="98.600542"><time>2026-04-28T09:55:02.650Z</time></trkpt>
      <trkpt lat="28.059394" lon="98.600542"><time>2026-04-28T09:55:02.666Z</time></trkpt>
      <trkpt lat="28.059394" lon="98.600542"><time>2026-04-28T09:55:02.683Z</time></trkpt>
      <trkpt lat="28.059394" lon="98.600542"><time>2026-04-28T09:55:02.700Z</time></trkpt>
      <trkpt lat="28.059394" lon="98.600542"><time>2026-04-28T09:55:02.716Z</time></trkpt>
      <trkpt lat="28.059392" lon="98.600551"><time>2026-04-28T09:55:02.733Z</time></trkpt>
      <trkpt lat="28.059392" lon="98.600551"><time>2026-04-28T09:55:02.750Z</time></trkpt>
      <trkpt lat="28.059392" lon="98.600551"><time>2026-04-28T09:55:02.766Z</time></trkpt>
      <trkpt lat="28.059392" lon="98.600551"><time>2026-04-28T09:55:02.783Z</time></trkpt>
      <trkpt lat="28.059392" lon="98.600551"><time>2026-04-28T09:55:02.800Z</time></trkpt>
      <trkpt lat="28.059392" lon="98.600551"><time>2026-04-28T09:55:02.816Z</time></trkpt>
      <trkpt lat="28.05939" lon="98.60056"><time>2026-04-28T09:55:02.833Z</time></trkpt>
      <trkpt lat="28.05939" lon="98.60056"><time>2026-04-28T09:55:02.850Z</time></trkpt>
      <trkpt lat="28.05939" lon="98.60056"><time>2026-04-28T09:55:02.866Z</time></trkpt>
      <trkpt lat="28.05939" lon="98.60056"><time>2026-04-28T09:55:02.883Z</time></trkpt>
      <trkpt lat="28.05939" lon="98.60056"><time>2026-04-28T09:55:02.900Z</time></trkpt>
      <trkpt lat="28.05939" lon="98.60056"><time>2026-04-28T09:55:02.916Z</time></trkpt>
      <trkpt lat="28.059389" lon="98.600568"><time>2026-04-28T09:55:02.933Z</time></trkpt>
      <trkpt lat="28.059389" lon="98.600568"><time>2026-04-28T09:55:02.950Z</time></trkpt>
      <trkpt lat="28.059389" lon="98.600568"><time>2026-04-28T09:55:02.967Z</time></trkpt>
      <trkpt lat="28.059389" lon="98.600568"><time>2026-04-28T09:55:02.983Z</time></trkpt>
      <trkpt lat="28.059389" lon="98.600568"><time>2026-04-28T09:55:03.000Z</time></trkpt>
      <trkpt lat="28.059389" lon="98.600568"><time>2026-04-28T09:55:03.017Z</time></trkpt>
      <trkpt lat="28.059387" lon="98.600577"><time>2026-04-28T09:55:03.033Z</time></trkpt>
      <trkpt lat="28.059387" lon="98.600577"><time>2026-04-28T09:55:03.050Z</time></trkpt>
      <trkpt lat="28.059387" lon="98.600577"><time>2026-04-28T09:55:03.067Z</time></trkpt>
      <trkpt lat="28.059387" lon="98.600577"><time>2026-04-28T09:55:03.083Z</time></trkpt>
      <trkpt lat="28.059387" lon="98.600577"><time>2026-04-28T09:55:03.100Z</time></trkpt>
      <trkpt lat="28.059387" lon="98.600577"><time>2026-04-28T09:55:03.117Z</time></trkpt>
      <trkpt lat="28.059387" lon="98.600577"><time>2026-04-28T09:55:03.133Z</time></trkpt>
      <trkpt lat="28.059385" lon="98.600586"><time>2026-04-28T09:55:03.150Z</time></trkpt>
      <trkpt lat="28.059385" lon="98.600586"><time>2026-04-28T09:55:03.167Z</time></trkpt>
      <trkpt lat="28.059385" lon="98.600586"><time>2026-04-28T09:55:03.183Z</time></trkpt>
      <trkpt lat="28.059385" lon="98.600586"><time>2026-04-28T09:55:03.200Z</time></trkpt>
      <trkpt lat="28.059385" lon="98.600586"><time>2026-04-28T09:55:03.217Z</time></trkpt>
      <trkpt lat="28.059384" lon="98.600595"><time>2026-04-28T09:55:03.233Z</time></trkpt>
      <trkpt lat="28.059384" lon="98.600595"><time>2026-04-28T09:55:03.250Z</time></trkpt>
      <trkpt lat="28.059384" lon="98.600595"><time>2026-04-28T09:55:03.267Z</time></trkpt>
      <trkpt lat="28.059384" lon="98.600595"><time>2026-04-28T09:55:03.284Z</time></trkpt>
      <trkpt lat="28.059384" lon="98.600595"><time>2026-04-28T09:55:03.300Z</time></trkpt>
      <trkpt lat="28.059384" lon="98.600595"><time>2026-04-28T09:55:03.317Z</time></trkpt>
      <trkpt lat="28.059382" lon="98.600603"><time>2026-04-28T09:55:03.334Z</time></trkpt>
      <trkpt lat="28.059382" lon="98.600603"><time>2026-04-28T09:55:03.350Z</time></trkpt>
      <trkpt lat="28.059382" lon="98.600603"><time>2026-04-28T09:55:03.367Z</time></trkpt>
      <trkpt lat="28.059382" lon="98.600603"><time>2026-04-28T09:55:03.384Z</time></trkpt>
      <trkpt lat="28.059382" lon="98.600603"><time>2026-04-28T09:55:03.400Z</time></trkpt>
      <trkpt lat="28.059382" lon="98.600603"><time>2026-04-28T09:55:03.417Z</time></trkpt>
      <trkpt lat="28.05938" lon="98.600612"><time>2026-04-28T09:55:03.434Z</time></trkpt>
      <trkpt lat="28.05938" lon="98.600612"><time>2026-04-28T09:55:03.450Z</time></trkpt>
      <trkpt lat="28.05938" lon="98.600612"><time>2026-04-28T09:55:03.467Z</time></trkpt>
      <trkpt lat="28.05938" lon="98.600612"><time>2026-04-28T09:55:03.484Z</time></trkpt>
      <trkpt lat="28.05938" lon="98.600612"><time>2026-04-28T09:55:03.500Z</time></trkpt>
      <trkpt lat="28.05938" lon="98.600612"><time>2026-04-28T09:55:03.517Z</time></trkpt>
      <trkpt lat="28.059379" lon="98.600621"><time>2026-04-28T09:55:03.534Z</time></trkpt>
      <trkpt lat="28.059379" lon="98.600621"><time>2026-04-28T09:55:03.550Z</time></trkpt>
      <trkpt lat="28.059379" lon="98.600621"><time>2026-04-28T09:55:03.567Z</time></trkpt>
      <trkpt lat="28.059379" lon="98.600621"><time>2026-04-28T09:55:03.584Z</time></trkpt>
      <trkpt lat="28.059379" lon="98.600621"><time>2026-04-28T09:55:03.601Z</time></trkpt>
      <trkpt lat="28.059379" lon="98.600621"><time>2026-04-28T09:55:03.617Z</time></trkpt>
      <trkpt lat="28.059377" lon="98.60063"><time>2026-04-28T09:55:03.634Z</time></trkpt>
      <trkpt lat="28.059377" lon="98.60063"><time>2026-04-28T09:55:03.651Z</time></trkpt>
      <trkpt lat="28.059377" lon="98.60063"><time>2026-04-28T09:55:03.667Z</time></trkpt>
      <trkpt lat="28.059377" lon="98.60063"><time>2026-04-28T09:55:03.684Z</time></trkpt>
      <trkpt lat="28.059377" lon="98.60063"><time>2026-04-28T09:55:03.701Z</time></trkpt>
      <trkpt lat="28.059377" lon="98.60063"><time>2026-04-28T09:55:03.717Z</time></trkpt>
      <trkpt lat="28.059376" lon="98.600639"><time>2026-04-28T09:55:03.734Z</time></trkpt>
      <trkpt lat="28.059376" lon="98.600639"><time>2026-04-28T09:55:03.751Z</time></trkpt>
      <trkpt lat="28.059376" lon="98.600639"><time>2026-04-28T09:55:03.767Z</time></trkpt>
      <trkpt lat="28.059376" lon="98.600639"><time>2026-04-28T09:55:03.784Z</time></trkpt>
      <trkpt lat="28.059376" lon="98.600639"><time>2026-04-28T09:55:03.801Z</time></trkpt>
      <trkpt lat="28.059376" lon="98.600639"><time>2026-04-28T09:55:03.817Z</time></trkpt>
      <trkpt lat="28.059374" lon="98.600648"><time>2026-04-28T09:55:03.834Z</time></trkpt>
      <trkpt lat="28.059374" lon="98.600648"><time>2026-04-28T09:55:03.851Z</time></trkpt>
      <trkpt lat="28.059374" lon="98.600648"><time>2026-04-28T09:55:03.867Z</time></trkpt>
      <trkpt lat="28.059374" lon="98.600648"><time>2026-04-28T09:55:03.884Z</time></trkpt>
      <trkpt lat="28.059374" lon="98.600648"><time>2026-04-28T09:55:03.901Z</time></trkpt>
      <trkpt lat="28.059374" lon="98.600648"><time>2026-04-28T09:55:03.918Z</time></trkpt>
      <trkpt lat="28.059372" lon="98.600657"><time>2026-04-28T09:55:03.934Z</time></trkpt>
      <trkpt lat="28.059372" lon="98.600657"><time>2026-04-28T09:55:03.951Z</time></trkpt>
      <trkpt lat="28.059372" lon="98.600657"><time>2026-04-28T09:55:03.968Z</time></trkpt>
      <trkpt lat="28.059372" lon="98.600657"><time>2026-04-28T09:55:03.984Z</time></trkpt>
      <trkpt lat="28.059372" lon="98.600657"><time>2026-04-28T09:55:04.001Z</time></trkpt>
      <trkpt lat="28.059372" lon="98.600657"><time>2026-04-28T09:55:04.018Z</time></trkpt>
      <trkpt lat="28.059371" lon="98.600666"><time>2026-04-28T09:55:04.034Z</time></trkpt>
      <trkpt lat="28.059371" lon="98.600666"><time>2026-04-28T09:55:04.051Z</time></trkpt>
      <trkpt lat="28.059371" lon="98.600666"><time>2026-04-28T09:55:04.068Z</time></trkpt>
      <trkpt lat="28.059371" lon="98.600666"><time>2026-04-28T09:55:04.084Z</time></trkpt>
      <trkpt lat="28.059371" lon="98.600666"><time>2026-04-28T09:55:04.101Z</time></trkpt>
      <trkpt lat="28.059371" lon="98.600666"><time>2026-04-28T09:55:04.118Z</time></trkpt>
      <trkpt lat="28.059369" lon="98.600675"><time>2026-04-28T09:55:04.134Z</time></trkpt>
      <trkpt lat="28.059369" lon="98.600675"><time>2026-04-28T09:55:04.151Z</time></trkpt>
      <trkpt lat="28.059369" lon="98.600675"><time>2026-04-28T09:55:04.168Z</time></trkpt>
      <trkpt lat="28.059369" lon="98.600675"><time>2026-04-28T09:55:04.184Z</time></trkpt>
      <trkpt lat="28.059369" lon="98.600675"><time>2026-04-28T09:55:04.201Z</time></trkpt>
      <trkpt lat="28.059369" lon="98.600675"><time>2026-04-28T09:55:04.218Z</time></trkpt>
      <trkpt lat="28.059368" lon="98.600685"><time>2026-04-28T09:55:04.234Z</time></trkpt>
      <trkpt lat="28.059368" lon="98.600685"><time>2026-04-28T09:55:04.251Z</time></trkpt>
      <trkpt lat="28.059368" lon="98.600685"><time>2026-04-28T09:55:04.268Z</time></trkpt>
      <trkpt lat="28.059368" lon="98.600685"><time>2026-04-28T09:55:04.285Z</time></trkpt>
      <trkpt lat="28.059368" lon="98.600685"><time>2026-04-28T09:55:04.301Z</time></trkpt>
      <trkpt lat="28.059368" lon="98.600685"><time>2026-04-28T09:55:04.318Z</time></trkpt>
      <trkpt lat="28.059366" lon="98.600693"><time>2026-04-28T09:55:04.335Z</time></trkpt>
      <trkpt lat="28.059366" lon="98.600693"><time>2026-04-28T09:55:04.351Z</time></trkpt>
      <trkpt lat="28.059366" lon="98.600693"><time>2026-04-28T09:55:04.368Z</time></trkpt>
      <trkpt lat="28.059366" lon="98.600693"><time>2026-04-28T09:55:04.385Z</time></trkpt>
      <trkpt lat="28.059366" lon="98.600693"><time>2026-04-28T09:55:04.401Z</time></trkpt>
      <trkpt lat="28.059366" lon="98.600693"><time>2026-04-28T09:55:04.418Z</time></trkpt>
      <trkpt lat="28.059364" lon="98.600702"><time>2026-04-28T09:55:04.435Z</time></trkpt>
      <trkpt lat="28.059364" lon="98.600702"><time>2026-04-28T09:55:04.451Z</time></trkpt>
      <trkpt lat="28.059364" lon="98.600702"><time>2026-04-28T09:55:04.468Z</time></trkpt>
      <trkpt lat="28.059364" lon="98.600702"><time>2026-04-28T09:55:04.485Z</time></trkpt>
      <trkpt lat="28.059364" lon="98.600702"><time>2026-04-28T09:55:04.501Z</time></trkpt>
      <trkpt lat="28.059364" lon="98.600702"><time>2026-04-28T09:55:04.518Z</time></trkpt>
      <trkpt lat="28.059363" lon="98.600712"><time>2026-04-28T09:55:04.535Z</time></trkpt>
      <trkpt lat="28.059363" lon="98.600712"><time>2026-04-28T09:55:04.551Z</time></trkpt>
      <trkpt lat="28.059363" lon="98.600712"><time>2026-04-28T09:55:04.568Z</time></trkpt>
      <trkpt lat="28.059363" lon="98.600712"><time>2026-04-28T09:55:04.585Z</time></trkpt>
      <trkpt lat="28.059363" lon="98.600712"><time>2026-04-28T09:55:04.602Z</time></trkpt>
      <trkpt lat="28.059363" lon="98.600712"><time>2026-04-28T09:55:04.618Z</time></trkpt>
      <trkpt lat="28.059361" lon="98.600721"><time>2026-04-28T09:55:04.635Z</time></trkpt>
      <trkpt lat="28.059361" lon="98.600721"><time>2026-04-28T09:55:04.652Z</time></trkpt>
      <trkpt lat="28.059361" lon="98.600721"><time>2026-04-28T09:55:04.668Z</time></trkpt>
      <trkpt lat="28.059361" lon="98.600721"><time>2026-04-28T09:55:04.685Z</time></trkpt>
      <trkpt lat="28.059361" lon="98.600721"><time>2026-04-28T09:55:04.702Z</time></trkpt>
      <trkpt lat="28.059361" lon="98.600721"><time>2026-04-28T09:55:04.718Z</time></trkpt>
      <trkpt lat="28.05936" lon="98.600731"><time>2026-04-28T09:55:04.735Z</time></trkpt>
      <trkpt lat="28.05936" lon="98.600731"><time>2026-04-28T09:55:04.752Z</time></trkpt>
      <trkpt lat="28.05936" lon="98.600731"><time>2026-04-28T09:55:04.768Z</time></trkpt>
      <trkpt lat="28.05936" lon="98.600731"><time>2026-04-28T09:55:04.785Z</time></trkpt>
      <trkpt lat="28.05936" lon="98.600731"><time>2026-04-28T09:55:04.802Z</time></trkpt>
      <trkpt lat="28.05936" lon="98.600731"><time>2026-04-28T09:55:04.818Z</time></trkpt>
      <trkpt lat="28.059358" lon="98.60074"><time>2026-04-28T09:55:04.835Z</time></trkpt>
      <trkpt lat="28.059358" lon="98.60074"><time>2026-04-28T09:55:04.852Z</time></trkpt>
      <trkpt lat="28.059358" lon="98.60074"><time>2026-04-28T09:55:04.868Z</time></trkpt>
      <trkpt lat="28.059358" lon="98.60074"><time>2026-04-28T09:55:04.885Z</time></trkpt>
      <trkpt lat="28.059358" lon="98.60074"><time>2026-04-28T09:55:04.902Z</time></trkpt>
      <trkpt lat="28.059358" lon="98.60074"><time>2026-04-28T09:55:04.919Z</time></trkpt>
      <trkpt lat="28.059356" lon="98.600749"><time>2026-04-28T09:55:04.935Z</time></trkpt>
      <trkpt lat="28.059356" lon="98.600749"><time>2026-04-28T09:55:04.952Z</time></trkpt>
      <trkpt lat="28.059356" lon="98.600749"><time>2026-04-28T09:55:04.969Z</time></trkpt>
      <trkpt lat="28.059356" lon="98.600749"><time>2026-04-28T09:55:04.985Z</time></trkpt>
      <trkpt lat="28.059356" lon="98.600749"><time>2026-04-28T09:55:05.002Z</time></trkpt>
      <trkpt lat="28.059356" lon="98.600749"><time>2026-04-28T09:55:05.019Z</time></trkpt>
      <trkpt lat="28.059354" lon="98.600758"><time>2026-04-28T09:55:05.035Z</time></trkpt>
      <trkpt lat="28.059354" lon="98.600758"><time>2026-04-28T09:55:05.052Z</time></trkpt>
      <trkpt lat="28.059354" lon="98.600758"><time>2026-04-28T09:55:05.069Z</time></trkpt>
      <trkpt lat="28.059354" lon="98.600758"><time>2026-04-28T09:55:05.085Z</time></trkpt>
      <trkpt lat="28.059354" lon="98.600758"><time>2026-04-28T09:55:05.102Z</time></trkpt>
      <trkpt lat="28.059354" lon="98.600758"><time>2026-04-28T09:55:05.119Z</time></trkpt>
      <trkpt lat="28.059353" lon="98.600768"><time>2026-04-28T09:55:05.135Z</time></trkpt>
      <trkpt lat="28.059353" lon="98.600768"><time>2026-04-28T09:55:05.152Z</time></trkpt>
      <trkpt lat="28.059353" lon="98.600768"><time>2026-04-28T09:55:05.169Z</time></trkpt>
      <trkpt lat="28.059353" lon="98.600768"><time>2026-04-28T09:55:05.185Z</time></trkpt>
      <trkpt lat="28.059353" lon="98.600768"><time>2026-04-28T09:55:05.202Z</time></trkpt>
      <trkpt lat="28.059353" lon="98.600768"><time>2026-04-28T09:55:05.219Z</time></trkpt>
      <trkpt lat="28.059351" lon="98.600777"><time>2026-04-28T09:55:05.236Z</time></trkpt>
      <trkpt lat="28.059351" lon="98.600777"><time>2026-04-28T09:55:05.252Z</time></trkpt>
      <trkpt lat="28.059351" lon="98.600777"><time>2026-04-28T09:55:05.269Z</time></trkpt>
      <trkpt lat="28.059351" lon="98.600777"><time>2026-04-28T09:55:05.286Z</time></trkpt>
      <trkpt lat="28.059351" lon="98.600777"><time>2026-04-28T09:55:05.302Z</time></trkpt>
      <trkpt lat="28.059351" lon="98.600777"><time>2026-04-28T09:55:05.319Z</time></trkpt>
      <trkpt lat="28.059349" lon="98.600787"><time>2026-04-28T09:55:05.336Z</time></trkpt>
      <trkpt lat="28.059349" lon="98.600787"><time>2026-04-28T09:55:05.352Z</time></trkpt>
      <trkpt lat="28.059349" lon="98.600787"><time>2026-04-28T09:55:05.369Z</time></trkpt>
      <trkpt lat="28.059349" lon="98.600787"><time>2026-04-28T09:55:05.386Z</time></trkpt>
      <trkpt lat="28.059349" lon="98.600787"><time>2026-04-28T09:55:05.402Z</time></trkpt>
      <trkpt lat="28.059349" lon="98.600787"><time>2026-04-28T09:55:05.419Z</time></trkpt>
      <trkpt lat="28.059348" lon="98.600795"><time>2026-04-28T09:55:05.436Z</time></trkpt>
      <trkpt lat="28.059348" lon="98.600795"><time>2026-04-28T09:55:05.452Z</time></trkpt>
      <trkpt lat="28.059348" lon="98.600795"><time>2026-04-28T09:55:05.469Z</time></trkpt>
      <trkpt lat="28.059348" lon="98.600795"><time>2026-04-28T09:55:05.486Z</time></trkpt>
      <trkpt lat="28.059348" lon="98.600795"><time>2026-04-28T09:55:05.502Z</time></trkpt>
      <trkpt lat="28.059348" lon="98.600795"><time>2026-04-28T09:55:05.519Z</time></trkpt>
      <trkpt lat="28.059346" lon="98.600805"><time>2026-04-28T09:55:05.536Z</time></trkpt>
      <trkpt lat="28.059346" lon="98.600805"><time>2026-04-28T09:55:05.553Z</time></trkpt>
      <trkpt lat="28.059346" lon="98.600805"><time>2026-04-28T09:55:05.569Z</time></trkpt>
      <trkpt lat="28.059346" lon="98.600805"><time>2026-04-28T09:55:05.586Z</time></trkpt>
      <trkpt lat="28.059346" lon="98.600805"><time>2026-04-28T09:55:05.603Z</time></trkpt>
      <trkpt lat="28.059346" lon="98.600805"><time>2026-04-28T09:55:05.619Z</time></trkpt>
      <trkpt lat="28.059344" lon="98.600815"><time>2026-04-28T09:55:05.636Z</time></trkpt>
      <trkpt lat="28.059344" lon="98.600815"><time>2026-04-28T09:55:05.653Z</time></trkpt>
      <trkpt lat="28.059344" lon="98.600815"><time>2026-04-28T09:55:05.669Z</time></trkpt>
      <trkpt lat="28.059344" lon="98.600815"><time>2026-04-28T09:55:05.686Z</time></trkpt>
      <trkpt lat="28.059344" lon="98.600815"><time>2026-04-28T09:55:05.703Z</time></trkpt>
      <trkpt lat="28.059344" lon="98.600815"><time>2026-04-28T09:55:05.719Z</time></trkpt>
      <trkpt lat="28.059342" lon="98.600824"><time>2026-04-28T09:55:05.736Z</time></trkpt>
      <trkpt lat="28.059342" lon="98.600824"><time>2026-04-28T09:55:05.753Z</time></trkpt>
      <trkpt lat="28.059342" lon="98.600824"><time>2026-04-28T09:55:05.769Z</time></trkpt>
      <trkpt lat="28.059342" lon="98.600824"><time>2026-04-28T09:55:05.786Z</time></trkpt>
      <trkpt lat="28.059342" lon="98.600824"><time>2026-04-28T09:55:05.803Z</time></trkpt>
      <trkpt lat="28.059342" lon="98.600824"><time>2026-04-28T09:55:05.819Z</time></trkpt>
      <trkpt lat="28.059344" lon="98.600835"><time>2026-04-28T09:55:05.836Z</time></trkpt>
      <trkpt lat="28.059344" lon="98.600835"><time>2026-04-28T09:55:05.853Z</time></trkpt>
      <trkpt lat="28.059344" lon="98.600835"><time>2026-04-28T09:55:05.870Z</time></trkpt>
      <trkpt lat="28.059344" lon="98.600835"><time>2026-04-28T09:55:05.886Z</time></trkpt>
      <trkpt lat="28.059344" lon="98.600835"><time>2026-04-28T09:55:05.903Z</time></trkpt>
      <trkpt lat="28.059344" lon="98.600835"><time>2026-04-28T09:55:05.920Z</time></trkpt>
      <trkpt lat="28.059343" lon="98.600844"><time>2026-04-28T09:55:05.936Z</time></trkpt>
      <trkpt lat="28.059343" lon="98.600844"><time>2026-04-28T09:55:05.953Z</time></trkpt>
      <trkpt lat="28.059343" lon="98.600844"><time>2026-04-28T09:55:05.970Z</time></trkpt>
      <trkpt lat="28.059343" lon="98.600844"><time>2026-04-28T09:55:05.986Z</time></trkpt>
      <trkpt lat="28.059343" lon="98.600844"><time>2026-04-28T09:55:06.003Z</time></trkpt>
      <trkpt lat="28.059343" lon="98.600844"><time>2026-04-28T09:55:06.020Z</time></trkpt>
      <trkpt lat="28.059341" lon="98.600854"><time>2026-04-28T09:55:06.036Z</time></trkpt>
      <trkpt lat="28.059341" lon="98.600854"><time>2026-04-28T09:55:06.053Z</time></trkpt>
      <trkpt lat="28.059341" lon="98.600854"><time>2026-04-28T09:55:06.070Z</time></trkpt>
      <trkpt lat="28.059341" lon="98.600854"><time>2026-04-28T09:55:06.086Z</time></trkpt>
      <trkpt lat="28.059341" lon="98.600854"><time>2026-04-28T09:55:06.103Z</time></trkpt>
      <trkpt lat="28.059341" lon="98.600854"><time>2026-04-28T09:55:06.120Z</time></trkpt>
      <trkpt lat="28.059339" lon="98.600863"><time>2026-04-28T09:55:06.136Z</time></trkpt>
      <trkpt lat="28.059339" lon="98.600863"><time>2026-04-28T09:55:06.153Z</time></trkpt>
      <trkpt lat="28.059339" lon="98.600863"><time>2026-04-28T09:55:06.170Z</time></trkpt>
      <trkpt lat="28.059339" lon="98.600863"><time>2026-04-28T09:55:06.187Z</time></trkpt>
      <trkpt lat="28.059339" lon="98.600863"><time>2026-04-28T09:55:06.203Z</time></trkpt>
      <trkpt lat="28.059339" lon="98.600863"><time>2026-04-28T09:55:06.220Z</time></trkpt>
      <trkpt lat="28.059337" lon="98.600873"><time>2026-04-28T09:55:06.237Z</time></trkpt>
      <trkpt lat="28.059337" lon="98.600873"><time>2026-04-28T09:55:06.253Z</time></trkpt>
      <trkpt lat="28.059337" lon="98.600873"><time>2026-04-28T09:55:06.270Z</time></trkpt>
      <trkpt lat="28.059337" lon="98.600873"><time>2026-04-28T09:55:06.287Z</time></trkpt>
      <trkpt lat="28.059337" lon="98.600873"><time>2026-04-28T09:55:06.303Z</time></trkpt>
      <trkpt lat="28.059337" lon="98.600873"><time>2026-04-28T09:55:06.320Z</time></trkpt>
      <trkpt lat="28.059335" lon="98.600882"><time>2026-04-28T09:55:06.337Z</time></trkpt>
      <trkpt lat="28.059335" lon="98.600882"><time>2026-04-28T09:55:06.353Z</time></trkpt>
      <trkpt lat="28.059335" lon="98.600882"><time>2026-04-28T09:55:06.370Z</time></trkpt>
      <trkpt lat="28.059335" lon="98.600882"><time>2026-04-28T09:55:06.387Z</time></trkpt>
      <trkpt lat="28.059335" lon="98.600882"><time>2026-04-28T09:55:06.403Z</time></trkpt>
      <trkpt lat="28.059335" lon="98.600882"><time>2026-04-28T09:55:06.420Z</time></trkpt>
      <trkpt lat="28.059333" lon="98.600892"><time>2026-04-28T09:55:06.437Z</time></trkpt>
      <trkpt lat="28.059333" lon="98.600892"><time>2026-04-28T09:55:06.453Z</time></trkpt>
      <trkpt lat="28.059333" lon="98.600892"><time>2026-04-28T09:55:06.470Z</time></trkpt>
      <trkpt lat="28.059333" lon="98.600892"><time>2026-04-28T09:55:06.487Z</time></trkpt>
      <trkpt lat="28.059333" lon="98.600892"><time>2026-04-28T09:55:06.504Z</time></trkpt>
      <trkpt lat="28.059333" lon="98.600892"><time>2026-04-28T09:55:06.520Z</time></trkpt>
      <trkpt lat="28.059331" lon="98.600902"><time>2026-04-28T09:55:06.537Z</time></trkpt>
      <trkpt lat="28.059331" lon="98.600902"><time>2026-04-28T09:55:06.554Z</time></trkpt>
      <trkpt lat="28.059331" lon="98.600902"><time>2026-04-28T09:55:06.570Z</time></trkpt>
      <trkpt lat="28.059331" lon="98.600902"><time>2026-04-28T09:55:06.587Z</time></trkpt>
      <trkpt lat="28.059331" lon="98.600902"><time>2026-04-28T09:55:06.604Z</time></trkpt>
      <trkpt lat="28.059331" lon="98.600902"><time>2026-04-28T09:55:06.620Z</time></trkpt>
      <trkpt lat="28.059329" lon="98.600912"><time>2026-04-28T09:55:06.637Z</time></trkpt>
      <trkpt lat="28.059329" lon="98.600912"><time>2026-04-28T09:55:06.654Z</time></trkpt>
      <trkpt lat="28.059329" lon="98.600912"><time>2026-04-28T09:55:06.670Z</time></trkpt>
      <trkpt lat="28.059329" lon="98.600912"><time>2026-04-28T09:55:06.687Z</time></trkpt>
      <trkpt lat="28.059329" lon="98.600912"><time>2026-04-28T09:55:06.704Z</time></trkpt>
      <trkpt lat="28.059329" lon="98.600912"><time>2026-04-28T09:55:06.720Z</time></trkpt>
      <trkpt lat="28.059327" lon="98.600921"><time>2026-04-28T09:55:06.737Z</time></trkpt>
      <trkpt lat="28.059327" lon="98.600921"><time>2026-04-28T09:55:06.754Z</time></trkpt>
      <trkpt lat="28.059327" lon="98.600921"><time>2026-04-28T09:55:06.770Z</time></trkpt>
      <trkpt lat="28.059327" lon="98.600921"><time>2026-04-28T09:55:06.787Z</time></trkpt>
      <trkpt lat="28.059327" lon="98.600921"><time>2026-04-28T09:55:06.804Z</time></trkpt>
      <trkpt lat="28.059327" lon="98.600921"><time>2026-04-28T09:55:06.821Z</time></trkpt>
      <trkpt lat="28.059326" lon="98.600931"><time>2026-04-28T09:55:06.837Z</time></trkpt>
      <trkpt lat="28.059326" lon="98.600931"><time>2026-04-28T09:55:06.854Z</time></trkpt>
      <trkpt lat="28.059326" lon="98.600931"><time>2026-04-28T09:55:06.871Z</time></trkpt>
      <trkpt lat="28.059326" lon="98.600931"><time>2026-04-28T09:55:06.887Z</time></trkpt>
      <trkpt lat="28.059326" lon="98.600931"><time>2026-04-28T09:55:06.904Z</time></trkpt>
      <trkpt lat="28.059326" lon="98.600931"><time>2026-04-28T09:55:06.921Z</time></trkpt>
      <trkpt lat="28.059324" lon="98.600941"><time>2026-04-28T09:55:06.937Z</time></trkpt>
      <trkpt lat="28.059324" lon="98.600941"><time>2026-04-28T09:55:06.954Z</time></trkpt>
      <trkpt lat="28.059324" lon="98.600941"><time>2026-04-28T09:55:06.971Z</time></trkpt>
      <trkpt lat="28.059324" lon="98.600941"><time>2026-04-28T09:55:06.987Z</time></trkpt>
      <trkpt lat="28.059324" lon="98.600941"><time>2026-04-28T09:55:07.004Z</time></trkpt>
      <trkpt lat="28.059324" lon="98.600941"><time>2026-04-28T09:55:07.021Z</time></trkpt>
      <trkpt lat="28.059322" lon="98.60095"><time>2026-04-28T09:55:07.037Z</time></trkpt>
      <trkpt lat="28.059322" lon="98.60095"><time>2026-04-28T09:55:07.054Z</time></trkpt>
      <trkpt lat="28.059322" lon="98.60095"><time>2026-04-28T09:55:07.071Z</time></trkpt>
      <trkpt lat="28.059322" lon="98.60095"><time>2026-04-28T09:55:07.087Z</time></trkpt>
      <trkpt lat="28.059322" lon="98.60095"><time>2026-04-28T09:55:07.104Z</time></trkpt>
      <trkpt lat="28.059322" lon="98.60095"><time>2026-04-28T09:55:07.121Z</time></trkpt>
      <trkpt lat="28.05932" lon="98.60096"><time>2026-04-28T09:55:07.138Z</time></trkpt>
      <trkpt lat="28.05932" lon="98.60096"><time>2026-04-28T09:55:07.154Z</time></trkpt>
      <trkpt lat="28.05932" lon="98.60096"><time>2026-04-28T09:55:07.171Z</time></trkpt>
      <trkpt lat="28.05932" lon="98.60096"><time>2026-04-28T09:55:07.188Z</time></trkpt>
      <trkpt lat="28.05932" lon="98.60096"><time>2026-04-28T09:55:07.204Z</time></trkpt>
      <trkpt lat="28.05932" lon="98.60096"><time>2026-04-28T09:55:07.221Z</time></trkpt>
      <trkpt lat="28.059318" lon="98.60097"><time>2026-04-28T09:55:07.238Z</time></trkpt>
      <trkpt lat="28.059318" lon="98.60097"><time>2026-04-28T09:55:07.254Z</time></trkpt>
      <trkpt lat="28.059318" lon="98.60097"><time>2026-04-28T09:55:07.271Z</time></trkpt>
      <trkpt lat="28.059318" lon="98.60097"><time>2026-04-28T09:55:07.288Z</time></trkpt>
      <trkpt lat="28.059318" lon="98.60097"><time>2026-04-28T09:55:07.304Z</time></trkpt>
      <trkpt lat="28.059318" lon="98.60097"><time>2026-04-28T09:55:07.321Z</time></trkpt>
      <trkpt lat="28.059316" lon="98.60098"><time>2026-04-28T09:55:07.338Z</time></trkpt>
      <trkpt lat="28.059316" lon="98.60098"><time>2026-04-28T09:55:07.354Z</time></trkpt>
      <trkpt lat="28.059316" lon="98.60098"><time>2026-04-28T09:55:07.371Z</time></trkpt>
      <trkpt lat="28.059316" lon="98.60098"><time>2026-04-28T09:55:07.388Z</time></trkpt>
      <trkpt lat="28.059316" lon="98.60098"><time>2026-04-28T09:55:07.404Z</time></trkpt>
      <trkpt lat="28.059316" lon="98.60098"><time>2026-04-28T09:55:07.421Z</time></trkpt>
      <trkpt lat="28.059314" lon="98.60099"><time>2026-04-28T09:55:07.438Z</time></trkpt>
      <trkpt lat="28.059314" lon="98.60099"><time>2026-04-28T09:55:07.455Z</time></trkpt>
      <trkpt lat="28.059314" lon="98.60099"><time>2026-04-28T09:55:07.471Z</time></trkpt>
      <trkpt lat="28.059314" lon="98.60099"><time>2026-04-28T09:55:07.488Z</time></trkpt>
      <trkpt lat="28.059314" lon="98.60099"><time>2026-04-28T09:55:07.505Z</time></trkpt>
      <trkpt lat="28.059314" lon="98.60099"><time>2026-04-28T09:55:07.521Z</time></trkpt>
      <trkpt lat="28.059312" lon="98.600999"><time>2026-04-28T09:55:07.538Z</time></trkpt>
      <trkpt lat="28.059312" lon="98.600999"><time>2026-04-28T09:55:07.555Z</time></trkpt>
      <trkpt lat="28.059312" lon="98.600999"><time>2026-04-28T09:55:07.571Z</time></trkpt>
      <trkpt lat="28.059312" lon="98.600999"><time>2026-04-28T09:55:07.588Z</time></trkpt>
      <trkpt lat="28.059312" lon="98.600999"><time>2026-04-28T09:55:07.605Z</time></trkpt>
      <trkpt lat="28.059312" lon="98.600999"><time>2026-04-28T09:55:07.621Z</time></trkpt>
      <trkpt lat="28.059311" lon="98.601009"><time>2026-04-28T09:55:07.638Z</time></trkpt>
      <trkpt lat="28.059311" lon="98.601009"><time>2026-04-28T09:55:07.655Z</time></trkpt>
      <trkpt lat="28.059311" lon="98.601009"><time>2026-04-28T09:55:07.671Z</time></trkpt>
      <trkpt lat="28.059311" lon="98.601009"><time>2026-04-28T09:55:07.688Z</time></trkpt>
      <trkpt lat="28.059311" lon="98.601009"><time>2026-04-28T09:55:07.705Z</time></trkpt>
      <trkpt lat="28.059311" lon="98.601009"><time>2026-04-28T09:55:07.721Z</time></trkpt>
      <trkpt lat="28.059309" lon="98.601019"><time>2026-04-28T09:55:07.738Z</time></trkpt>
      <trkpt lat="28.059309" lon="98.601019"><time>2026-04-28T09:55:07.755Z</time></trkpt>
      <trkpt lat="28.059309" lon="98.601019"><time>2026-04-28T09:55:07.772Z</time></trkpt>
      <trkpt lat="28.059309" lon="98.601019"><time>2026-04-28T09:55:07.788Z</time></trkpt>
      <trkpt lat="28.059309" lon="98.601019"><time>2026-04-28T09:55:07.805Z</time></trkpt>
      <trkpt lat="28.059309" lon="98.601019"><time>2026-04-28T09:55:07.822Z</time></trkpt>
      <trkpt lat="28.059307" lon="98.601029"><time>2026-04-28T09:55:07.838Z</time></trkpt>
      <trkpt lat="28.059307" lon="98.601029"><time>2026-04-28T09:55:07.855Z</time></trkpt>
      <trkpt lat="28.059307" lon="98.601029"><time>2026-04-28T09:55:07.872Z</time></trkpt>
      <trkpt lat="28.059307" lon="98.601029"><time>2026-04-28T09:55:07.888Z</time></trkpt>
      <trkpt lat="28.059307" lon="98.601029"><time>2026-04-28T09:55:07.905Z</time></trkpt>
      <trkpt lat="28.059307" lon="98.601029"><time>2026-04-28T09:55:07.922Z</time></trkpt>
      <trkpt lat="28.059305" lon="98.601039"><time>2026-04-28T09:55:07.938Z</time></trkpt>
      <trkpt lat="28.059305" lon="98.601039"><time>2026-04-28T09:55:07.955Z</time></trkpt>
      <trkpt lat="28.059305" lon="98.601039"><time>2026-04-28T09:55:07.972Z</time></trkpt>
      <trkpt lat="28.059305" lon="98.601039"><time>2026-04-28T09:55:07.988Z</time></trkpt>
      <trkpt lat="28.059305" lon="98.601039"><time>2026-04-28T09:55:08.005Z</time></trkpt>
      <trkpt lat="28.059305" lon="98.601039"><time>2026-04-28T09:55:08.022Z</time></trkpt>
      <trkpt lat="28.059303" lon="98.601048"><time>2026-04-28T09:55:08.038Z</time></trkpt>
      <trkpt lat="28.059303" lon="98.601048"><time>2026-04-28T09:55:08.055Z</time></trkpt>
      <trkpt lat="28.059303" lon="98.601048"><time>2026-04-28T09:55:08.072Z</time></trkpt>
      <trkpt lat="28.059303" lon="98.601048"><time>2026-04-28T09:55:08.089Z</time></trkpt>
      <trkpt lat="28.059303" lon="98.601048"><time>2026-04-28T09:55:08.105Z</time></trkpt>
      <trkpt lat="28.059303" lon="98.601048"><time>2026-04-28T09:55:08.122Z</time></trkpt>
      <trkpt lat="28.059301" lon="98.601058"><time>2026-04-28T09:55:08.139Z</time></trkpt>
      <trkpt lat="28.059301" lon="98.601058"><time>2026-04-28T09:55:08.155Z</time></trkpt>
      <trkpt lat="28.059301" lon="98.601058"><time>2026-04-28T09:55:08.172Z</time></trkpt>
      <trkpt lat="28.059301" lon="98.601058"><time>2026-04-28T09:55:08.189Z</time></trkpt>
      <trkpt lat="28.059301" lon="98.601058"><time>2026-04-28T09:55:08.205Z</time></trkpt>
      <trkpt lat="28.059301" lon="98.601058"><time>2026-04-28T09:55:08.222Z</time></trkpt>
      <trkpt lat="28.0593" lon="98.601067"><time>2026-04-28T09:55:08.239Z</time></trkpt>
      <trkpt lat="28.0593" lon="98.601067"><time>2026-04-28T09:55:08.255Z</time></trkpt>
      <trkpt lat="28.0593" lon="98.601067"><time>2026-04-28T09:55:08.272Z</time></trkpt>
      <trkpt lat="28.0593" lon="98.601067"><time>2026-04-28T09:55:08.289Z</time></trkpt>
      <trkpt lat="28.0593" lon="98.601067"><time>2026-04-28T09:55:08.305Z</time></trkpt>
      <trkpt lat="28.0593" lon="98.601067"><time>2026-04-28T09:55:08.322Z</time></trkpt>
      <trkpt lat="28.059298" lon="98.601078"><time>2026-04-28T09:55:08.339Z</time></trkpt>
      <trkpt lat="28.059298" lon="98.601078"><time>2026-04-28T09:55:08.355Z</time></trkpt>
      <trkpt lat="28.059298" lon="98.601078"><time>2026-04-28T09:55:08.372Z</time></trkpt>
      <trkpt lat="28.059298" lon="98.601078"><time>2026-04-28T09:55:08.389Z</time></trkpt>
      <trkpt lat="28.059298" lon="98.601078"><time>2026-04-28T09:55:08.406Z</time></trkpt>
      <trkpt lat="28.059298" lon="98.601078"><time>2026-04-28T09:55:08.422Z</time></trkpt>
      <trkpt lat="28.059296" lon="98.601087"><time>2026-04-28T09:55:08.439Z</time></trkpt>
      <trkpt lat="28.059296" lon="98.601087"><time>2026-04-28T09:55:08.456Z</time></trkpt>
      <trkpt lat="28.059296" lon="98.601087"><time>2026-04-28T09:55:08.472Z</time></trkpt>
      <trkpt lat="28.059296" lon="98.601087"><time>2026-04-28T09:55:08.489Z</time></trkpt>
      <trkpt lat="28.059296" lon="98.601087"><time>2026-04-28T09:55:08.506Z</time></trkpt>
      <trkpt lat="28.059296" lon="98.601087"><time>2026-04-28T09:55:08.522Z</time></trkpt>
      <trkpt lat="28.059295" lon="98.601097"><time>2026-04-28T09:55:08.539Z</time></trkpt>
      <trkpt lat="28.059295" lon="98.601097"><time>2026-04-28T09:55:08.556Z</time></trkpt>
      <trkpt lat="28.059295" lon="98.601097"><time>2026-04-28T09:55:08.572Z</time></trkpt>
      <trkpt lat="28.059295" lon="98.601097"><time>2026-04-28T09:55:08.589Z</time></trkpt>
      <trkpt lat="28.059295" lon="98.601097"><time>2026-04-28T09:55:08.606Z</time></trkpt>
      <trkpt lat="28.059295" lon="98.601097"><time>2026-04-28T09:55:08.622Z</time></trkpt>
      <trkpt lat="28.059293" lon="98.601107"><time>2026-04-28T09:55:08.639Z</time></trkpt>
      <trkpt lat="28.059293" lon="98.601107"><time>2026-04-28T09:55:08.656Z</time></trkpt>
      <trkpt lat="28.059293" lon="98.601107"><time>2026-04-28T09:55:08.672Z</time></trkpt>
      <trkpt lat="28.059293" lon="98.601107"><time>2026-04-28T09:55:08.689Z</time></trkpt>
      <trkpt lat="28.059293" lon="98.601107"><time>2026-04-28T09:55:08.706Z</time></trkpt>
      <trkpt lat="28.059293" lon="98.601107"><time>2026-04-28T09:55:08.723Z</time></trkpt>
      <trkpt lat="28.059291" lon="98.601117"><time>2026-04-28T09:55:08.739Z</time></trkpt>
      <trkpt lat="28.059291" lon="98.601117"><time>2026-04-28T09:55:08.756Z</time></trkpt>
      <trkpt lat="28.059291" lon="98.601117"><time>2026-04-28T09:55:08.773Z</time></trkpt>
      <trkpt lat="28.059291" lon="98.601117"><time>2026-04-28T09:55:08.789Z</time></trkpt>
      <trkpt lat="28.059291" lon="98.601117"><time>2026-04-28T09:55:08.806Z</time></trkpt>
      <trkpt lat="28.059291" lon="98.601117"><time>2026-04-28T09:55:08.823Z</time></trkpt>
      <trkpt lat="28.059289" lon="98.601127"><time>2026-04-28T09:55:08.839Z</time></trkpt>
      <trkpt lat="28.059289" lon="98.601127"><time>2026-04-28T09:55:08.856Z</time></trkpt>
      <trkpt lat="28.059289" lon="98.601127"><time>2026-04-28T09:55:08.873Z</time></trkpt>
      <trkpt lat="28.059289" lon="98.601127"><time>2026-04-28T09:55:08.889Z</time></trkpt>
      <trkpt lat="28.059289" lon="98.601127"><time>2026-04-28T09:55:08.906Z</time></trkpt>
      <trkpt lat="28.059289" lon="98.601127"><time>2026-04-28T09:55:08.923Z</time></trkpt>
      <trkpt lat="28.059287" lon="98.601137"><time>2026-04-28T09:55:08.939Z</time></trkpt>
      <trkpt lat="28.059287" lon="98.601137"><time>2026-04-28T09:55:08.956Z</time></trkpt>
      <trkpt lat="28.059287" lon="98.601137"><time>2026-04-28T09:55:08.973Z</time></trkpt>
      <trkpt lat="28.059287" lon="98.601137"><time>2026-04-28T09:55:08.989Z</time></trkpt>
      <trkpt lat="28.059287" lon="98.601137"><time>2026-04-28T09:55:09.006Z</time></trkpt>
      <trkpt lat="28.059287" lon="98.601137"><time>2026-04-28T09:55:09.023Z</time></trkpt>
      <trkpt lat="28.059285" lon="98.601146"><time>2026-04-28T09:55:09.040Z</time></trkpt>
      <trkpt lat="28.059285" lon="98.601146"><time>2026-04-28T09:55:09.056Z</time></trkpt>
      <trkpt lat="28.059285" lon="98.601146"><time>2026-04-28T09:55:09.073Z</time></trkpt>
      <trkpt lat="28.059285" lon="98.601146"><time>2026-04-28T09:55:09.090Z</time></trkpt>
      <trkpt lat="28.059285" lon="98.601146"><time>2026-04-28T09:55:09.106Z</time></trkpt>
      <trkpt lat="28.059285" lon="98.601146"><time>2026-04-28T09:55:09.123Z</time></trkpt>
      <trkpt lat="28.059283" lon="98.601156"><time>2026-04-28T09:55:09.140Z</time></trkpt>
      <trkpt lat="28.059283" lon="98.601156"><time>2026-04-28T09:55:09.156Z</time></trkpt>
      <trkpt lat="28.059283" lon="98.601156"><time>2026-04-28T09:55:09.173Z</time></trkpt>
      <trkpt lat="28.059283" lon="98.601156"><time>2026-04-28T09:55:09.190Z</time></trkpt>
      <trkpt lat="28.059283" lon="98.601156"><time>2026-04-28T09:55:09.206Z</time></trkpt>
      <trkpt lat="28.059283" lon="98.601156"><time>2026-04-28T09:55:09.223Z</time></trkpt>
      <trkpt lat="28.059281" lon="98.601166"><time>2026-04-28T09:55:09.240Z</time></trkpt>
      <trkpt lat="28.059281" lon="98.601166"><time>2026-04-28T09:55:09.256Z</time></trkpt>
      <trkpt lat="28.059281" lon="98.601166"><time>2026-04-28T09:55:09.273Z</time></trkpt>
      <trkpt lat="28.059281" lon="98.601166"><time>2026-04-28T09:55:09.290Z</time></trkpt>
      <trkpt lat="28.059281" lon="98.601166"><time>2026-04-28T09:55:09.306Z</time></trkpt>
      <trkpt lat="28.059281" lon="98.601166"><time>2026-04-28T09:55:09.323Z</time></trkpt>
      <trkpt lat="28.05928" lon="98.601176"><time>2026-04-28T09:55:09.340Z</time></trkpt>
      <trkpt lat="28.05928" lon="98.601176"><time>2026-04-28T09:55:09.357Z</time></trkpt>
      <trkpt lat="28.05928" lon="98.601176"><time>2026-04-28T09:55:09.373Z</time></trkpt>
      <trkpt lat="28.05928" lon="98.601176"><time>2026-04-28T09:55:09.390Z</time></trkpt>
      <trkpt lat="28.05928" lon="98.601176"><time>2026-04-28T09:55:09.407Z</time></trkpt>
      <trkpt lat="28.05928" lon="98.601176"><time>2026-04-28T09:55:09.423Z</time></trkpt>
      <trkpt lat="28.059278" lon="98.601185"><time>2026-04-28T09:55:09.440Z</time></trkpt>
      <trkpt lat="28.059278" lon="98.601185"><time>2026-04-28T09:55:09.457Z</time></trkpt>
      <trkpt lat="28.059278" lon="98.601185"><time>2026-04-28T09:55:09.473Z</time></trkpt>
      <trkpt lat="28.059278" lon="98.601185"><time>2026-04-28T09:55:09.490Z</time></trkpt>
      <trkpt lat="28.059278" lon="98.601185"><time>2026-04-28T09:55:09.507Z</time></trkpt>
      <trkpt lat="28.059278" lon="98.601185"><time>2026-04-28T09:55:09.523Z</time></trkpt>
      <trkpt lat="28.059276" lon="98.601195"><time>2026-04-28T09:55:09.540Z</time></trkpt>
      <trkpt lat="28.059276" lon="98.601195"><time>2026-04-28T09:55:09.557Z</time></trkpt>
      <trkpt lat="28.059276" lon="98.601195"><time>2026-04-28T09:55:09.573Z</time></trkpt>
      <trkpt lat="28.059276" lon="98.601195"><time>2026-04-28T09:55:09.590Z</time></trkpt>
      <trkpt lat="28.059276" lon="98.601195"><time>2026-04-28T09:55:09.607Z</time></trkpt>
      <trkpt lat="28.059276" lon="98.601195"><time>2026-04-28T09:55:09.623Z</time></trkpt>
      <trkpt lat="28.059274" lon="98.601205"><time>2026-04-28T09:55:09.640Z</time></trkpt>
      <trkpt lat="28.059274" lon="98.601205"><time>2026-04-28T09:55:09.657Z</time></trkpt>
      <trkpt lat="28.059274" lon="98.601205"><time>2026-04-28T09:55:09.674Z</time></trkpt>
      <trkpt lat="28.059274" lon="98.601205"><time>2026-04-28T09:55:09.690Z</time></trkpt>
      <trkpt lat="28.059274" lon="98.601205"><time>2026-04-28T09:55:09.707Z</time></trkpt>
      <trkpt lat="28.059274" lon="98.601205"><time>2026-04-28T09:55:09.724Z</time></trkpt>
      <trkpt lat="28.059272" lon="98.601216"><time>2026-04-28T09:55:09.740Z</time></trkpt>
      <trkpt lat="28.059272" lon="98.601216"><time>2026-04-28T09:55:09.757Z</time></trkpt>
      <trkpt lat="28.059272" lon="98.601216"><time>2026-04-28T09:55:09.774Z</time></trkpt>
      <trkpt lat="28.059272" lon="98.601216"><time>2026-04-28T09:55:09.790Z</time></trkpt>
      <trkpt lat="28.059272" lon="98.601216"><time>2026-04-28T09:55:09.807Z</time></trkpt>
      <trkpt lat="28.059272" lon="98.601216"><time>2026-04-28T09:55:09.824Z</time></trkpt>
      <trkpt lat="28.05927" lon="98.601226"><time>2026-04-28T09:55:09.840Z</time></trkpt>
      <trkpt lat="28.05927" lon="98.601226"><time>2026-04-28T09:55:09.857Z</time></trkpt>
      <trkpt lat="28.05927" lon="98.601226"><time>2026-04-28T09:55:09.874Z</time></trkpt>
      <trkpt lat="28.05927" lon="98.601226"><time>2026-04-28T09:55:09.890Z</time></trkpt>
      <trkpt lat="28.05927" lon="98.601226"><time>2026-04-28T09:55:09.907Z</time></trkpt>
      <trkpt lat="28.05927" lon="98.601226"><time>2026-04-28T09:55:09.924Z</time></trkpt>
      <trkpt lat="28.059268" lon="98.601236"><time>2026-04-28T09:55:09.940Z</time></trkpt>
      <trkpt lat="28.059268" lon="98.601236"><time>2026-04-28T09:55:09.957Z</time></trkpt>
      <trkpt lat="28.059268" lon="98.601236"><time>2026-04-28T09:55:09.974Z</time></trkpt>
      <trkpt lat="28.059268" lon="98.601236"><time>2026-04-28T09:55:09.991Z</time></trkpt>
      <trkpt lat="28.059268" lon="98.601236"><time>2026-04-28T09:55:10.007Z</time></trkpt>
      <trkpt lat="28.059268" lon="98.601236"><time>2026-04-28T09:55:10.024Z</time></trkpt>
      <trkpt lat="28.059266" lon="98.601246"><time>2026-04-28T09:55:10.041Z</time></trkpt>
      <trkpt lat="28.059266" lon="98.601246"><time>2026-04-28T09:55:10.057Z</time></trkpt>
      <trkpt lat="28.059266" lon="98.601246"><time>2026-04-28T09:55:10.074Z</time></trkpt>
      <trkpt lat="28.059266" lon="98.601246"><time>2026-04-28T09:55:10.091Z</time></trkpt>
      <trkpt lat="28.059266" lon="98.601246"><time>2026-04-28T09:55:10.107Z</time></trkpt>
      <trkpt lat="28.059266" lon="98.601246"><time>2026-04-28T09:55:10.124Z</time></trkpt>
      <trkpt lat="28.059264" lon="98.601255"><time>2026-04-28T09:55:10.141Z</time></trkpt>
      <trkpt lat="28.059264" lon="98.601255"><time>2026-04-28T09:55:10.157Z</time></trkpt>
      <trkpt lat="28.059264" lon="98.601255"><time>2026-04-28T09:55:10.174Z</time></trkpt>
      <trkpt lat="28.059264" lon="98.601255"><time>2026-04-28T09:55:10.191Z</time></trkpt>
      <trkpt lat="28.059264" lon="98.601255"><time>2026-04-28T09:55:10.207Z</time></trkpt>
      <trkpt lat="28.059264" lon="98.601255"><time>2026-04-28T09:55:10.224Z</time></trkpt>
      <trkpt lat="28.059262" lon="98.601265"><time>2026-04-28T09:55:10.241Z</time></trkpt>
      <trkpt lat="28.059262" lon="98.601265"><time>2026-04-28T09:55:10.257Z</time></trkpt>
      <trkpt lat="28.059262" lon="98.601265"><time>2026-04-28T09:55:10.274Z</time></trkpt>
      <trkpt lat="28.059262" lon="98.601265"><time>2026-04-28T09:55:10.291Z</time></trkpt>
    </trkseg>
  </trk>
</gpx>
