<?xml version="1.0" encoding="UTF-8"?>
<gpx version="1.1" creator="Kairos" xmlns="http://www.topografix.com/GPX/1/1">
  <trk>
    <name>sidecar-srt-fa1990b31c880941</name>
    <trkseg>
      <trkpt lat="29.516998" lon="101.721363"><time>2026-05-04T09:47:33.000Z</time></trkpt>
      <trkpt lat="29.516998" lon="101.721363"><time>2026-05-04T09:47:33.016Z</time></trkpt>
      <trkpt lat="29.516998" lon="101.721363"><time>2026-05-04T09:47:33.032Z</time></trkpt>
      <trkpt lat="29.516998" lon="101.721363"><time>2026-05-04T09:47:33.049Z</time></trkpt>
      <trkpt lat="29.516998" lon="101.721363"><time>2026-05-04T09:47:33.066Z</time></trkpt>
      <trkpt lat="29.516998" lon="101.721363"><time>2026-05-04T09:47:33.082Z</time></trkpt>
      <trkpt lat="29.516998" lon="101.721363"><time>2026-05-04T09:47:33.099Z</time></trkpt>
      <trkpt lat="29.516998" lon="101.721363"><time>2026-05-04T09:47:33.116Z</time></trkpt>
      <trkpt lat="29.516998" lon="101.721363"><time>2026-05-04T09:47:33.132Z</time></trkpt>
      <trkpt lat="29.516998" lon="101.721363"><time>2026-05-04T09:47:33.149Z</time></trkpt>
      <trkpt lat="29.516998" lon="101.721363"><time>2026-05-04T09:47:33.166Z</time></trkpt>
      <trkpt lat="29.516998" lon="101.721363"><time>2026-05-04T09:47:33.182Z</time></trkpt>
      <trkpt lat="29.516998" lon="101.721363"><time>2026-05-04T09:47:33.199Z</time></trkpt>
      <trkpt lat="29.516998" lon="101.721363"><time>2026-05-04T09:47:33.216Z</time></trkpt>
      <trkpt lat="29.516998" lon="101.721363"><time>2026-05-04T09:47:33.232Z</time></trkpt>
      <trkpt lat="29.516998" lon="101.721363"><time>2026-05-04T09:47:33.249Z</time></trkpt>
      <trkpt lat="29.516998" lon="101.721363"><time>2026-05-04T09:47:33.266Z</time></trkpt>
      <trkpt lat="29.516998" lon="101.721363"><time>2026-05-04T09:47:33.282Z</time></trkpt>
      <trkpt lat="29.516998" lon="101.721363"><time>2026-05-04T09:47:33.299Z</time></trkpt>
      <trkpt lat="29.516998" lon="101.721363"><time>2026-05-04T09:47:33.316Z</time></trkpt>
      <trkpt lat="29.516998" lon="101.721363"><time>2026-05-04T09:47:33.333Z</time></trkpt>
      <trkpt lat="29.516998" lon="101.721363"><time>2026-05-04T09:47:33.349Z</time></trkpt>
      <trkpt lat="29.516998" lon="101.721363"><time>2026-05-04T09:47:33.366Z</time></trkpt>
      <trkpt lat="29.516998" lon="101.721363"><time>2026-05-04T09:47:33.383Z</time></trkpt>
      <trkpt lat="29.516998" lon="101.721363"><time>2026-05-04T09:47:33.399Z</time></trkpt>
      <trkpt lat="29.516998" lon="101.721363"><time>2026-05-04T09:47:33.416Z</time></trkpt>
      <trkpt lat="29.516998" lon="101.721363"><time>2026-05-04T09:47:33.433Z</time></trkpt>
      <trkpt lat="29.516998" lon="101.721363"><time>2026-05-04T09:47:33.449Z</time></trkpt>
      <trkpt lat="29.516998" lon="101.721363"><time>2026-05-04T09:47:33.466Z</time></trkpt>
      <trkpt lat="29.516998" lon="101.721363"><time>2026-05-04T09:47:33.483Z</time></trkpt>
      <trkpt lat="29.516998" lon="101.721363"><time>2026-05-04T09:47:33.499Z</time></trkpt>
      <trkpt lat="29.516998" lon="101.721363"><time>2026-05-04T09:47:33.516Z</time></trkpt>
      <trkpt lat="29.516998" lon="101.721363"><time>2026-05-04T09:47:33.533Z</time></trkpt>
      <trkpt lat="29.516998" lon="101.721363"><time>2026-05-04T09:47:33.549Z</time></trkpt>
      <trkpt lat="29.516998" lon="101.721363"><time>2026-05-04T09:47:33.566Z</time></trkpt>
      <trkpt lat="29.516999" lon="101.721363"><time>2026-05-04T09:47:33.583Z</time></trkpt>
      <trkpt lat="29.516999" lon="101.721363"><time>2026-05-04T09:47:33.599Z</time></trkpt>
      <trkpt lat="29.516999" lon="101.721363"><time>2026-05-04T09:47:33.616Z</time></trkpt>
      <trkpt lat="29.516999" lon="101.721363"><time>2026-05-04T09:47:33.633Z</time></trkpt>
      <trkpt lat="29.516999" lon="101.721363"><time>2026-05-04T09:47:33.650Z</time></trkpt>
      <trkpt lat="29.516999" lon="101.721363"><time>2026-05-04T09:47:33.666Z</time></trkpt>
      <trkpt lat="29.516999" lon="101.721363"><time>2026-05-04T09:47:33.683Z</time></trkpt>
      <trkpt lat="29.516999" lon="101.721363"><time>2026-05-04T09:47:33.700Z</time></trkpt>
      <trkpt lat="29.516999" lon="101.721363"><time>2026-05-04T09:47:33.716Z</time></trkpt>
      <trkpt lat="29.516999" lon="101.721363"><time>2026-05-04T09:47:33.733Z</time></trkpt>
      <trkpt lat="29.516999" lon="101.721363"><time>2026-05-04T09:47:33.750Z</time></trkpt>
      <trkpt lat="29.516999" lon="101.721363"><time>2026-05-04T09:47:33.766Z</time></trkpt>
      <trkpt lat="29.516999" lon="101.721363"><time>2026-05-04T09:47:33.783Z</time></trkpt>
      <trkpt lat="29.516999" lon="101.721363"><time>2026-05-04T09:47:33.800Z</time></trkpt>
      <trkpt lat="29.516999" lon="101.721363"><time>2026-05-04T09:47:33.816Z</time></trkpt>
      <trkpt lat="29.516999" lon="101.721363"><time>2026-05-04T09:47:33.833Z</time></trkpt>
      <trkpt lat="29.516999" lon="101.721363"><time>2026-05-04T09:47:33.850Z</time></trkpt>
      <trkpt lat="29.516999" lon="101.721363"><time>2026-05-04T09:47:33.866Z</time></trkpt>
      <trkpt lat="29.516999" lon="101.721363"><time>2026-05-04T09:47:33.883Z</time></trkpt>
      <trkpt lat="29.516999" lon="101.721363"><time>2026-05-04T09:47:33.900Z</time></trkpt>
      <trkpt lat="29.516999" lon="101.721363"><time>2026-05-04T09:47:33.916Z</time></trkpt>
      <trkpt lat="29.516999" lon="101.721363"><time>2026-05-04T09:47:33.933Z</time></trkpt>
      <trkpt lat="29.516999" lon="101.721363"><time>2026-05-04T09:47:33.950Z</time></trkpt>
      <trkpt lat="29.516999" lon="101.721363"><time>2026-05-04T09:47:33.967Z</time></trkpt>
      <trkpt lat="29.516999" lon="101.721363"><time>2026-05-04T09:47:33.983Z</time></trkpt>
      <trkpt lat="29.516999" lon="101.721363"><time>2026-05-04T09:47:34.000Z</time></trkpt>
      <trkpt lat="29.516999" lon="101.721363"><time>2026-05-04T09:47:34.017Z</time></trkpt>
      <trkpt lat="29.516999" lon="101.721363"><time>2026-05-04T09:47:34.033Z</time></trkpt>
      <trkpt lat="29.516999" lon="101.721363"><time>2026-05-04T09:47:34.050Z</time></trkpt>
      <trkpt lat="29.516999" lon="101.721363"><time>2026-05-04T09:47:34.067Z</time></trkpt>
      <trkpt lat="29.516999" lon="101.721363"><time>2026-05-04T09:47:34.083Z</time></trkpt>
      <trkpt lat="29.516999" lon="101.721363"><time>2026-05-04T09:47:34.100Z</time></trkpt>
      <trkpt lat="29.516999" lon="101.721363"><time>2026-05-04T09:47:34.117Z</time></trkpt>
      <trkpt lat="29.516999" lon="101.721363"><time>2026-05-04T09:47:34.133Z</time></trkpt>
      <trkpt lat="29.516999" lon="101.721363"><time>2026-05-04T09:47:34.150Z</time></trkpt>
      <trkpt lat="29.516999" lon="101.721363"><time>2026-05-04T09:47:34.167Z</time></trkpt>
      <trkpt lat="29.516999" lon="101.721363"><time>2026-05-04T09:47:34.183Z</time></trkpt>
      <trkpt lat="29.516999" lon="101.721363"><time>2026-05-04T09:47:34.200Z</time></trkpt>
      <trkpt lat="29.516999" lon="101.721363"><time>2026-05-04T09:47:34.217Z</time></trkpt>
      <trkpt lat="29.516999" lon="101.721363"><time>2026-05-04T09:47:34.233Z</time></trkpt>
    </trkseg>
  </trk>
</gpx>
