<?xml version="1.0" encoding="UTF-8"?>
<gpx version="1.1" creator="Kairos" xmlns="http://www.topografix.com/GPX/1/1">
  <trk>
    <name>sidecar-srt-e22c9817e03d06e8</name>
    <trkseg>
      <trkpt lat="24.987073" lon="104.921108"><time>2026-04-25T09:00:56.000Z</time></trkpt>
      <trkpt lat="24.987073" lon="104.921108"><time>2026-04-25T09:00:56.016Z</time></trkpt>
      <trkpt lat="24.987074" lon="104.921108"><time>2026-04-25T09:00:56.032Z</time></trkpt>
      <trkpt lat="24.987074" lon="104.921108"><time>2026-04-25T09:00:56.049Z</time></trkpt>
      <trkpt lat="24.987074" lon="104.921108"><time>2026-04-25T09:00:56.066Z</time></trkpt>
      <trkpt lat="24.987074" lon="104.921108"><time>2026-04-25T09:00:56.082Z</time></trkpt>
      <trkpt lat="24.987074" lon="104.921108"><time>2026-04-25T09:00:56.099Z</time></trkpt>
      <trkpt lat="24.987074" lon="104.921108"><time>2026-04-25T09:00:56.116Z</time></trkpt>
      <trkpt lat="24.987074" lon="104.921108"><time>2026-04-25T09:00:56.132Z</time></trkpt>
      <trkpt lat="24.987074" lon="104.921108"><time>2026-04-25T09:00:56.149Z</time></trkpt>
      <trkpt lat="24.987074" lon="104.921108"><time>2026-04-25T09:00:56.166Z</time></trkpt>
      <trkpt lat="24.987074" lon="104.921108"><time>2026-04-25T09:00:56.182Z</time></trkpt>
      <trkpt lat="24.987074" lon="104.921108"><time>2026-04-25T09:00:56.199Z</time></trkpt>
      <trkpt lat="24.987074" lon="104.921108"><time>2026-04-25T09:00:56.216Z</time></trkpt>
      <trkpt lat="24.987074" lon="104.921108"><time>2026-04-25T09:00:56.232Z</time></trkpt>
      <trkpt lat="24.987074" lon="104.921108"><time>2026-04-25T09:00:56.249Z</time></trkpt>
      <trkpt lat="24.987074" lon="104.921108"><time>2026-04-25T09:00:56.266Z</time></trkpt>
      <trkpt lat="24.987074" lon="104.921108"><time>2026-04-25T09:00:56.282Z</time></trkpt>
      <trkpt lat="24.987074" lon="104.921108"><time>2026-04-25T09:00:56.299Z</time></trkpt>
      <trkpt lat="24.987074" lon="104.921108"><time>2026-04-25T09:00:56.316Z</time></trkpt>
      <trkpt lat="24.987074" lon="104.921108"><time>2026-04-25T09:00:56.333Z</time></trkpt>
      <trkpt lat="24.987074" lon="104.921108"><time>2026-04-25T09:00:56.349Z</time></trkpt>
      <trkpt lat="24.987074" lon="104.921108"><time>2026-04-25T09:00:56.366Z</time></trkpt>
      <trkpt lat="24.987074" lon="104.921108"><time>2026-04-25T09:00:56.383Z</time></trkpt>
      <trkpt lat="24.987074" lon="104.921108"><time>2026-04-25T09:00:56.399Z</time></trkpt>
      <trkpt lat="24.987074" lon="104.921108"><time>2026-04-25T09:00:56.416Z</time></trkpt>
      <trkpt lat="24.987074" lon="104.921108"><time>2026-04-25T09:00:56.433Z</time></trkpt>
      <trkpt lat="24.987074" lon="104.921108"><time>2026-04-25T09:00:56.449Z</time></trkpt>
      <trkpt lat="24.987074" lon="104.921108"><time>2026-04-25T09:00:56.466Z</time></trkpt>
      <trkpt lat="24.987074" lon="104.921108"><time>2026-04-25T09:00:56.483Z</time></trkpt>
      <trkpt lat="24.987074" lon="104.921108"><time>2026-04-25T09:00:56.499Z</time></trkpt>
      <trkpt lat="24.987074" lon="104.921108"><time>2026-04-25T09:00:56.516Z</time></trkpt>
      <trkpt lat="24.987074" lon="104.921108"><time>2026-04-25T09:00:56.533Z</time></trkpt>
      <trkpt lat="24.987074" lon="104.921108"><time>2026-04-25T09:00:56.549Z</time></trkpt>
      <trkpt lat="24.987074" lon="104.921108"><time>2026-04-25T09:00:56.566Z</time></trkpt>
      <trkpt lat="24.987074" lon="104.921108"><time>2026-04-25T09:00:56.583Z</time></trkpt>
      <trkpt lat="24.987074" lon="104.921108"><time>2026-04-25T09:00:56.599Z</time></trkpt>
      <trkpt lat="24.987074" lon="104.921108"><time>2026-04-25T09:00:56.616Z</time></trkpt>
      <trkpt lat="24.987074" lon="104.921108"><time>2026-04-25T09:00:56.633Z</time></trkpt>
      <trkpt lat="24.987074" lon="104.921108"><time>2026-04-25T09:00:56.650Z</time></trkpt>
      <trkpt lat="24.987074" lon="104.921108"><time>2026-04-25T09:00:56.666Z</time></trkpt>
      <trkpt lat="24.987074" lon="104.921108"><time>2026-04-25T09:00:56.683Z</time></trkpt>
      <trkpt lat="24.987074" lon="104.921108"><time>2026-04-25T09:00:56.700Z</time></trkpt>
      <trkpt lat="24.987074" lon="104.921108"><time>2026-04-25T09:00:56.716Z</time></trkpt>
      <trkpt lat="24.987075" lon="104.921108"><time>2026-04-25T09:00:56.733Z</time></trkpt>
      <trkpt lat="24.987075" lon="104.921108"><time>2026-04-25T09:00:56.750Z</time></trkpt>
      <trkpt lat="24.987075" lon="104.921108"><time>2026-04-25T09:00:56.766Z</time></trkpt>
      <trkpt lat="24.987075" lon="104.921108"><time>2026-04-25T09:00:56.783Z</time></trkpt>
      <trkpt lat="24.987075" lon="104.921108"><time>2026-04-25T09:00:56.800Z</time></trkpt>
      <trkpt lat="24.987075" lon="104.921108"><time>2026-04-25T09:00:56.816Z</time></trkpt>
      <trkpt lat="24.987076" lon="104.921108"><time>2026-04-25T09:00:56.833Z</time></trkpt>
      <trkpt lat="24.987076" lon="104.921108"><time>2026-04-25T09:00:56.850Z</time></trkpt>
      <trkpt lat="24.987076" lon="104.921108"><time>2026-04-25T09:00:56.866Z</time></trkpt>
      <trkpt lat="24.987076" lon="104.921108"><time>2026-04-25T09:00:56.883Z</time></trkpt>
      <trkpt lat="24.987076" lon="104.921108"><time>2026-04-25T09:00:56.900Z</time></trkpt>
      <trkpt lat="24.987076" lon="104.921108"><time>2026-04-25T09:00:56.916Z</time></trkpt>
      <trkpt lat="24.987078" lon="104.921107"><time>2026-04-25T09:00:56.933Z</time></trkpt>
      <trkpt lat="24.987078" lon="104.921107"><time>2026-04-25T09:00:56.950Z</time></trkpt>
      <trkpt lat="24.987078" lon="104.921107"><time>2026-04-25T09:00:56.966Z</time></trkpt>
      <trkpt lat="24.987078" lon="104.921107"><time>2026-04-25T09:00:56.983Z</time></trkpt>
      <trkpt lat="24.987078" lon="104.921107"><time>2026-04-25T09:00:57.000Z</time></trkpt>
      <trkpt lat="24.987078" lon="104.921107"><time>2026-04-25T09:00:57.017Z</time></trkpt>
      <trkpt lat="24.987081" lon="104.921107"><time>2026-04-25T09:00:57.033Z</time></trkpt>
      <trkpt lat="24.987081" lon="104.921107"><time>2026-04-25T09:00:57.050Z</time></trkpt>
      <trkpt lat="24.987081" lon="104.921107"><time>2026-04-25T09:00:57.067Z</time></trkpt>
      <trkpt lat="24.987081" lon="104.921107"><time>2026-04-25T09:00:57.083Z</time></trkpt>
      <trkpt lat="24.987081" lon="104.921107"><time>2026-04-25T09:00:57.100Z</time></trkpt>
      <trkpt lat="24.987081" lon="104.921107"><time>2026-04-25T09:00:57.117Z</time></trkpt>
      <trkpt lat="24.987084" lon="104.921106"><time>2026-04-25T09:00:57.133Z</time></trkpt>
      <trkpt lat="24.987084" lon="104.921106"><time>2026-04-25T09:00:57.150Z</time></trkpt>
      <trkpt lat="24.987084" lon="104.921106"><time>2026-04-25T09:00:57.167Z</time></trkpt>
      <trkpt lat="24.987084" lon="104.921106"><time>2026-04-25T09:00:57.183Z</time></trkpt>
      <trkpt lat="24.987084" lon="104.921106"><time>2026-04-25T09:00:57.200Z</time></trkpt>
      <trkpt lat="24.987084" lon="104.921106"><time>2026-04-25T09:00:57.217Z</time></trkpt>
      <trkpt lat="24.987088" lon="104.921106"><time>2026-04-25T09:00:57.233Z</time></trkpt>
      <trkpt lat="24.987088" lon="104.921106"><time>2026-04-25T09:00:57.250Z</time></trkpt>
      <trkpt lat="24.987088" lon="104.921106"><time>2026-04-25T09:00:57.267Z</time></trkpt>
      <trkpt lat="24.987088" lon="104.921106"><time>2026-04-25T09:00:57.283Z</time></trkpt>
      <trkpt lat="24.987088" lon="104.921106"><time>2026-04-25T09:00:57.300Z</time></trkpt>
      <trkpt lat="24.987088" lon="104.921106"><time>2026-04-25T09:00:57.317Z</time></trkpt>
      <trkpt lat="24.987093" lon="104.921105"><time>2026-04-25T09:00:57.334Z</time></trkpt>
      <trkpt lat="24.987093" lon="104.921105"><time>2026-04-25T09:00:57.350Z</time></trkpt>
      <trkpt lat="24.987093" lon="104.921105"><time>2026-04-25T09:00:57.367Z</time></trkpt>
      <trkpt lat="24.987093" lon="104.921105"><time>2026-04-25T09:00:57.384Z</time></trkpt>
      <trkpt lat="24.987093" lon="104.921105"><time>2026-04-25T09:00:57.400Z</time></trkpt>
      <trkpt lat="24.987093" lon="104.921105"><time>2026-04-25T09:00:57.417Z</time></trkpt>
      <trkpt lat="24.987098" lon="104.921104"><time>2026-04-25T09:00:57.434Z</time></trkpt>
      <trkpt lat="24.987098" lon="104.921104"><time>2026-04-25T09:00:57.450Z</time></trkpt>
      <trkpt lat="24.987098" lon="104.921104"><time>2026-04-25T09:00:57.467Z</time></trkpt>
      <trkpt lat="24.987098" lon="104.921104"><time>2026-04-25T09:00:57.484Z</time></trkpt>
      <trkpt lat="24.987098" lon="104.921104"><time>2026-04-25T09:00:57.500Z</time></trkpt>
      <trkpt lat="24.987098" lon="104.921104"><time>2026-04-25T09:00:57.517Z</time></trkpt>
      <trkpt lat="24.987105" lon="104.921102"><time>2026-04-25T09:00:57.534Z</time></trkpt>
      <trkpt lat="24.987105" lon="104.921102"><time>2026-04-25T09:00:57.550Z</time></trkpt>
      <trkpt lat="24.987105" lon="104.921102"><time>2026-04-25T09:00:57.567Z</time></trkpt>
      <trkpt lat="24.987105" lon="104.921102"><time>2026-04-25T09:00:57.584Z</time></trkpt>
      <trkpt lat="24.987105" lon="104.921102"><time>2026-04-25T09:00:57.600Z</time></trkpt>
      <trkpt lat="24.987105" lon="104.921102"><time>2026-04-25T09:00:57.617Z</time></trkpt>
      <trkpt lat="24.987112" lon="104.921101"><time>2026-04-25T09:00:57.634Z</time></trkpt>
      <trkpt lat="24.987112" lon="104.921101"><time>2026-04-25T09:00:57.651Z</time></trkpt>
      <trkpt lat="24.987112" lon="104.921101"><time>2026-04-25T09:00:57.667Z</time></trkpt>
      <trkpt lat="24.987112" lon="104.921101"><time>2026-04-25T09:00:57.684Z</time></trkpt>
      <trkpt lat="24.987112" lon="104.921101"><time>2026-04-25T09:00:57.701Z</time></trkpt>
      <trkpt lat="24.987112" lon="104.921101"><time>2026-04-25T09:00:57.717Z</time></trkpt>
      <trkpt lat="24.98712" lon="104.9211"><time>2026-04-25T09:00:57.734Z</time></trkpt>
      <trkpt lat="24.98712" lon="104.9211"><time>2026-04-25T09:00:57.751Z</time></trkpt>
      <trkpt lat="24.98712" lon="104.9211"><time>2026-04-25T09:00:57.767Z</time></trkpt>
      <trkpt lat="24.98712" lon="104.9211"><time>2026-04-25T09:00:57.784Z</time></trkpt>
      <trkpt lat="24.98712" lon="104.9211"><time>2026-04-25T09:00:57.801Z</time></trkpt>
      <trkpt lat="24.98712" lon="104.9211"><time>2026-04-25T09:00:57.817Z</time></trkpt>
      <trkpt lat="24.987127" lon="104.921099"><time>2026-04-25T09:00:57.834Z</time></trkpt>
      <trkpt lat="24.987127" lon="104.921099"><time>2026-04-25T09:00:57.851Z</time></trkpt>
      <trkpt lat="24.987127" lon="104.921099"><time>2026-04-25T09:00:57.867Z</time></trkpt>
      <trkpt lat="24.987127" lon="104.921099"><time>2026-04-25T09:00:57.884Z</time></trkpt>
      <trkpt lat="24.987127" lon="104.921099"><time>2026-04-25T09:00:57.901Z</time></trkpt>
      <trkpt lat="24.987127" lon="104.921099"><time>2026-04-25T09:00:57.917Z</time></trkpt>
      <trkpt lat="24.987137" lon="104.921097"><time>2026-04-25T09:00:57.934Z</time></trkpt>
      <trkpt lat="24.987137" lon="104.921097"><time>2026-04-25T09:00:57.951Z</time></trkpt>
      <trkpt lat="24.987137" lon="104.921097"><time>2026-04-25T09:00:57.968Z</time></trkpt>
      <trkpt lat="24.987137" lon="104.921097"><time>2026-04-25T09:00:57.984Z</time></trkpt>
      <trkpt lat="24.987137" lon="104.921097"><time>2026-04-25T09:00:58.001Z</time></trkpt>
      <trkpt lat="24.987137" lon="104.921097"><time>2026-04-25T09:00:58.018Z</time></trkpt>
      <trkpt lat="24.987144" lon="104.921095"><time>2026-04-25T09:00:58.034Z</time></trkpt>
      <trkpt lat="24.987144" lon="104.921095"><time>2026-04-25T09:00:58.051Z</time></trkpt>
      <trkpt lat="24.987144" lon="104.921095"><time>2026-04-25T09:00:58.068Z</time></trkpt>
      <trkpt lat="24.987144" lon="104.921095"><time>2026-04-25T09:00:58.084Z</time></trkpt>
      <trkpt lat="24.987144" lon="104.921095"><time>2026-04-25T09:00:58.101Z</time></trkpt>
      <trkpt lat="24.987144" lon="104.921095"><time>2026-04-25T09:00:58.118Z</time></trkpt>
      <trkpt lat="24.987154" lon="104.921093"><time>2026-04-25T09:00:58.134Z</time></trkpt>
      <trkpt lat="24.987154" lon="104.921093"><time>2026-04-25T09:00:58.151Z</time></trkpt>
      <trkpt lat="24.987154" lon="104.921093"><time>2026-04-25T09:00:58.168Z</time></trkpt>
      <trkpt lat="24.987154" lon="104.921093"><time>2026-04-25T09:00:58.184Z</time></trkpt>
      <trkpt lat="24.987154" lon="104.921093"><time>2026-04-25T09:00:58.201Z</time></trkpt>
      <trkpt lat="24.987154" lon="104.921093"><time>2026-04-25T09:00:58.218Z</time></trkpt>
      <trkpt lat="24.987162" lon="104.921092"><time>2026-04-25T09:00:58.234Z</time></trkpt>
      <trkpt lat="24.987162" lon="104.921092"><time>2026-04-25T09:00:58.251Z</time></trkpt>
      <trkpt lat="24.987162" lon="104.921092"><time>2026-04-25T09:00:58.268Z</time></trkpt>
      <trkpt lat="24.987162" lon="104.921092"><time>2026-04-25T09:00:58.285Z</time></trkpt>
      <trkpt lat="24.987162" lon="104.921092"><time>2026-04-25T09:00:58.301Z</time></trkpt>
      <trkpt lat="24.987162" lon="104.921092"><time>2026-04-25T09:00:58.318Z</time></trkpt>
      <trkpt lat="24.987172" lon="104.92109"><time>2026-04-25T09:00:58.335Z</time></trkpt>
      <trkpt lat="24.987172" lon="104.92109"><time>2026-04-25T09:00:58.351Z</time></trkpt>
      <trkpt lat="24.987172" lon="104.92109"><time>2026-04-25T09:00:58.368Z</time></trkpt>
      <trkpt lat="24.987172" lon="104.92109"><time>2026-04-25T09:00:58.385Z</time></trkpt>
      <trkpt lat="24.987172" lon="104.92109"><time>2026-04-25T09:00:58.401Z</time></trkpt>
      <trkpt lat="24.987172" lon="104.92109"><time>2026-04-25T09:00:58.418Z</time></trkpt>
      <trkpt lat="24.987182" lon="104.921088"><time>2026-04-25T09:00:58.435Z</time></trkpt>
      <trkpt lat="24.987182" lon="104.921088"><time>2026-04-25T09:00:58.451Z</time></trkpt>
      <trkpt lat="24.987182" lon="104.921088"><time>2026-04-25T09:00:58.468Z</time></trkpt>
      <trkpt lat="24.987182" lon="104.921088"><time>2026-04-25T09:00:58.485Z</time></trkpt>
      <trkpt lat="24.987182" lon="104.921088"><time>2026-04-25T09:00:58.501Z</time></trkpt>
      <trkpt lat="24.987182" lon="104.921088"><time>2026-04-25T09:00:58.518Z</time></trkpt>
      <trkpt lat="24.987192" lon="104.921086"><time>2026-04-25T09:00:58.535Z</time></trkpt>
      <trkpt lat="24.987192" lon="104.921086"><time>2026-04-25T09:00:58.551Z</time></trkpt>
      <trkpt lat="24.987192" lon="104.921086"><time>2026-04-25T09:00:58.568Z</time></trkpt>
      <trkpt lat="24.987192" lon="104.921086"><time>2026-04-25T09:00:58.585Z</time></trkpt>
      <trkpt lat="24.987192" lon="104.921086"><time>2026-04-25T09:00:58.602Z</time></trkpt>
      <trkpt lat="24.987192" lon="104.921086"><time>2026-04-25T09:00:58.618Z</time></trkpt>
      <trkpt lat="24.987202" lon="104.921084"><time>2026-04-25T09:00:58.635Z</time></trkpt>
      <trkpt lat="24.987202" lon="104.921084"><time>2026-04-25T09:00:58.652Z</time></trkpt>
      <trkpt lat="24.987202" lon="104.921084"><time>2026-04-25T09:00:58.668Z</time></trkpt>
      <trkpt lat="24.987202" lon="104.921084"><time>2026-04-25T09:00:58.685Z</time></trkpt>
      <trkpt lat="24.987202" lon="104.921084"><time>2026-04-25T09:00:58.702Z</time></trkpt>
      <trkpt lat="24.987202" lon="104.921084"><time>2026-04-25T09:00:58.718Z</time></trkpt>
      <trkpt lat="24.987214" lon="104.921082"><time>2026-04-25T09:00:58.735Z</time></trkpt>
      <trkpt lat="24.987214" lon="104.921082"><time>2026-04-25T09:00:58.752Z</time></trkpt>
      <trkpt lat="24.987214" lon="104.921082"><time>2026-04-25T09:00:58.768Z</time></trkpt>
      <trkpt lat="24.987214" lon="104.921082"><time>2026-04-25T09:00:58.785Z</time></trkpt>
      <trkpt lat="24.987214" lon="104.921082"><time>2026-04-25T09:00:58.802Z</time></trkpt>
      <trkpt lat="24.987214" lon="104.921082"><time>2026-04-25T09:00:58.818Z</time></trkpt>
      <trkpt lat="24.987225" lon="104.92108"><time>2026-04-25T09:00:58.835Z</time></trkpt>
      <trkpt lat="24.987225" lon="104.92108"><time>2026-04-25T09:00:58.852Z</time></trkpt>
      <trkpt lat="24.987225" lon="104.92108"><time>2026-04-25T09:00:58.868Z</time></trkpt>
      <trkpt lat="24.987225" lon="104.92108"><time>2026-04-25T09:00:58.885Z</time></trkpt>
      <trkpt lat="24.987225" lon="104.92108"><time>2026-04-25T09:00:58.902Z</time></trkpt>
      <trkpt lat="24.987225" lon="104.92108"><time>2026-04-25T09:00:58.919Z</time></trkpt>
      <trkpt lat="24.987238" lon="104.921077"><time>2026-04-25T09:00:58.935Z</time></trkpt>
      <trkpt lat="24.987238" lon="104.921077"><time>2026-04-25T09:00:58.952Z</time></trkpt>
      <trkpt lat="24.987238" lon="104.921077"><time>2026-04-25T09:00:58.969Z</time></trkpt>
      <trkpt lat="24.987238" lon="104.921077"><time>2026-04-25T09:00:58.985Z</time></trkpt>
      <trkpt lat="24.987238" lon="104.921077"><time>2026-04-25T09:00:59.002Z</time></trkpt>
      <trkpt lat="24.987238" lon="104.921077"><time>2026-04-25T09:00:59.019Z</time></trkpt>
      <trkpt lat="24.987249" lon="104.921075"><time>2026-04-25T09:00:59.035Z</time></trkpt>
      <trkpt lat="24.987249" lon="104.921075"><time>2026-04-25T09:00:59.052Z</time></trkpt>
      <trkpt lat="24.987249" lon="104.921075"><time>2026-04-25T09:00:59.069Z</time></trkpt>
      <trkpt lat="24.987249" lon="104.921075"><time>2026-04-25T09:00:59.085Z</time></trkpt>
      <trkpt lat="24.987249" lon="104.921075"><time>2026-04-25T09:00:59.102Z</time></trkpt>
      <trkpt lat="24.987249" lon="104.921075"><time>2026-04-25T09:00:59.119Z</time></trkpt>
      <trkpt lat="24.987263" lon="104.921072"><time>2026-04-25T09:00:59.135Z</time></trkpt>
      <trkpt lat="24.987263" lon="104.921072"><time>2026-04-25T09:00:59.152Z</time></trkpt>
      <trkpt lat="24.987263" lon="104.921072"><time>2026-04-25T09:00:59.169Z</time></trkpt>
      <trkpt lat="24.987263" lon="104.921072"><time>2026-04-25T09:00:59.185Z</time></trkpt>
      <trkpt lat="24.987263" lon="104.921072"><time>2026-04-25T09:00:59.202Z</time></trkpt>
      <trkpt lat="24.987263" lon="104.921072"><time>2026-04-25T09:00:59.219Z</time></trkpt>
      <trkpt lat="24.987275" lon="104.921071"><time>2026-04-25T09:00:59.236Z</time></trkpt>
      <trkpt lat="24.987275" lon="104.921071"><time>2026-04-25T09:00:59.252Z</time></trkpt>
      <trkpt lat="24.987275" lon="104.921071"><time>2026-04-25T09:00:59.269Z</time></trkpt>
      <trkpt lat="24.987275" lon="104.921071"><time>2026-04-25T09:00:59.286Z</time></trkpt>
      <trkpt lat="24.987275" lon="104.921071"><time>2026-04-25T09:00:59.302Z</time></trkpt>
      <trkpt lat="24.987275" lon="104.921071"><time>2026-04-25T09:00:59.319Z</time></trkpt>
      <trkpt lat="24.987289" lon="104.921068"><time>2026-04-25T09:00:59.336Z</time></trkpt>
      <trkpt lat="24.987289" lon="104.921068"><time>2026-04-25T09:00:59.352Z</time></trkpt>
      <trkpt lat="24.987289" lon="104.921068"><time>2026-04-25T09:00:59.369Z</time></trkpt>
      <trkpt lat="24.987289" lon="104.921068"><time>2026-04-25T09:00:59.386Z</time></trkpt>
      <trkpt lat="24.987289" lon="104.921068"><time>2026-04-25T09:00:59.402Z</time></trkpt>
      <trkpt lat="24.987289" lon="104.921068"><time>2026-04-25T09:00:59.419Z</time></trkpt>
      <trkpt lat="24.987301" lon="104.921066"><time>2026-04-25T09:00:59.436Z</time></trkpt>
      <trkpt lat="24.987301" lon="104.921066"><time>2026-04-25T09:00:59.452Z</time></trkpt>
      <trkpt lat="24.987301" lon="104.921066"><time>2026-04-25T09:00:59.469Z</time></trkpt>
      <trkpt lat="24.987301" lon="104.921066"><time>2026-04-25T09:00:59.486Z</time></trkpt>
      <trkpt lat="24.987301" lon="104.921066"><time>2026-04-25T09:00:59.502Z</time></trkpt>
      <trkpt lat="24.987301" lon="104.921066"><time>2026-04-25T09:00:59.519Z</time></trkpt>
      <trkpt lat="24.987316" lon="104.921063"><time>2026-04-25T09:00:59.536Z</time></trkpt>
      <trkpt lat="24.987316" lon="104.921063"><time>2026-04-25T09:00:59.553Z</time></trkpt>
      <trkpt lat="24.987316" lon="104.921063"><time>2026-04-25T09:00:59.569Z</time></trkpt>
      <trkpt lat="24.987316" lon="104.921063"><time>2026-04-25T09:00:59.586Z</time></trkpt>
      <trkpt lat="24.987316" lon="104.921063"><time>2026-04-25T09:00:59.603Z</time></trkpt>
      <trkpt lat="24.987316" lon="104.921063"><time>2026-04-25T09:00:59.619Z</time></trkpt>
      <trkpt lat="24.987329" lon="104.92106"><time>2026-04-25T09:00:59.636Z</time></trkpt>
      <trkpt lat="24.987329" lon="104.92106"><time>2026-04-25T09:00:59.653Z</time></trkpt>
      <trkpt lat="24.987329" lon="104.92106"><time>2026-04-25T09:00:59.669Z</time></trkpt>
      <trkpt lat="24.987329" lon="104.92106"><time>2026-04-25T09:00:59.686Z</time></trkpt>
      <trkpt lat="24.987329" lon="104.92106"><time>2026-04-25T09:00:59.703Z</time></trkpt>
      <trkpt lat="24.987329" lon="104.92106"><time>2026-04-25T09:00:59.719Z</time></trkpt>
      <trkpt lat="24.987344" lon="104.921058"><time>2026-04-25T09:00:59.736Z</time></trkpt>
      <trkpt lat="24.987344" lon="104.921058"><time>2026-04-25T09:00:59.753Z</time></trkpt>
      <trkpt lat="24.987344" lon="104.921058"><time>2026-04-25T09:00:59.769Z</time></trkpt>
      <trkpt lat="24.987344" lon="104.921058"><time>2026-04-25T09:00:59.786Z</time></trkpt>
      <trkpt lat="24.987344" lon="104.921058"><time>2026-04-25T09:00:59.803Z</time></trkpt>
      <trkpt lat="24.987344" lon="104.921058"><time>2026-04-25T09:00:59.819Z</time></trkpt>
      <trkpt lat="24.987357" lon="104.921056"><time>2026-04-25T09:00:59.836Z</time></trkpt>
      <trkpt lat="24.987357" lon="104.921056"><time>2026-04-25T09:00:59.853Z</time></trkpt>
      <trkpt lat="24.987357" lon="104.921056"><time>2026-04-25T09:00:59.870Z</time></trkpt>
      <trkpt lat="24.987357" lon="104.921056"><time>2026-04-25T09:00:59.886Z</time></trkpt>
      <trkpt lat="24.987357" lon="104.921056"><time>2026-04-25T09:00:59.903Z</time></trkpt>
      <trkpt lat="24.987357" lon="104.921056"><time>2026-04-25T09:00:59.920Z</time></trkpt>
      <trkpt lat="24.987373" lon="104.921053"><time>2026-04-25T09:00:59.936Z</time></trkpt>
      <trkpt lat="24.987373" lon="104.921053"><time>2026-04-25T09:00:59.953Z</time></trkpt>
      <trkpt lat="24.987373" lon="104.921053"><time>2026-04-25T09:00:59.970Z</time></trkpt>
      <trkpt lat="24.987373" lon="104.921053"><time>2026-04-25T09:00:59.986Z</time></trkpt>
      <trkpt lat="24.987373" lon="104.921053"><time>2026-04-25T09:01:00.003Z</time></trkpt>
      <trkpt lat="24.987373" lon="104.921053"><time>2026-04-25T09:01:00.020Z</time></trkpt>
      <trkpt lat="24.987388" lon="104.92105"><time>2026-04-25T09:01:00.036Z</time></trkpt>
      <trkpt lat="24.987388" lon="104.92105"><time>2026-04-25T09:01:00.053Z</time></trkpt>
      <trkpt lat="24.987388" lon="104.92105"><time>2026-04-25T09:01:00.070Z</time></trkpt>
      <trkpt lat="24.987388" lon="104.92105"><time>2026-04-25T09:01:00.086Z</time></trkpt>
      <trkpt lat="24.987388" lon="104.92105"><time>2026-04-25T09:01:00.103Z</time></trkpt>
      <trkpt lat="24.987388" lon="104.92105"><time>2026-04-25T09:01:00.120Z</time></trkpt>
      <trkpt lat="24.987403" lon="104.921047"><time>2026-04-25T09:01:00.136Z</time></trkpt>
      <trkpt lat="24.987403" lon="104.921047"><time>2026-04-25T09:01:00.153Z</time></trkpt>
      <trkpt lat="24.987403" lon="104.921047"><time>2026-04-25T09:01:00.170Z</time></trkpt>
      <trkpt lat="24.987403" lon="104.921047"><time>2026-04-25T09:01:00.187Z</time></trkpt>
      <trkpt lat="24.987403" lon="104.921047"><time>2026-04-25T09:01:00.203Z</time></trkpt>
      <trkpt lat="24.987403" lon="104.921047"><time>2026-04-25T09:01:00.220Z</time></trkpt>
      <trkpt lat="24.987417" lon="104.921045"><time>2026-04-25T09:01:00.237Z</time></trkpt>
      <trkpt lat="24.987417" lon="104.921045"><time>2026-04-25T09:01:00.253Z</time></trkpt>
      <trkpt lat="24.987417" lon="104.921045"><time>2026-04-25T09:01:00.270Z</time></trkpt>
      <trkpt lat="24.987417" lon="104.921045"><time>2026-04-25T09:01:00.287Z</time></trkpt>
      <trkpt lat="24.987417" lon="104.921045"><time>2026-04-25T09:01:00.303Z</time></trkpt>
      <trkpt lat="24.987417" lon="104.921045"><time>2026-04-25T09:01:00.320Z</time></trkpt>
      <trkpt lat="24.987434" lon="104.921042"><time>2026-04-25T09:01:00.337Z</time></trkpt>
      <trkpt lat="24.987434" lon="104.921042"><time>2026-04-25T09:01:00.353Z</time></trkpt>
      <trkpt lat="24.987434" lon="104.921042"><time>2026-04-25T09:01:00.370Z</time></trkpt>
      <trkpt lat="24.987434" lon="104.921042"><time>2026-04-25T09:01:00.387Z</time></trkpt>
      <trkpt lat="24.987434" lon="104.921042"><time>2026-04-25T09:01:00.403Z</time></trkpt>
      <trkpt lat="24.987434" lon="104.921042"><time>2026-04-25T09:01:00.420Z</time></trkpt>
      <trkpt lat="24.987448" lon="104.92104"><time>2026-04-25T09:01:00.437Z</time></trkpt>
      <trkpt lat="24.987448" lon="104.92104"><time>2026-04-25T09:01:00.453Z</time></trkpt>
      <trkpt lat="24.987448" lon="104.92104"><time>2026-04-25T09:01:00.470Z</time></trkpt>
      <trkpt lat="24.987448" lon="104.92104"><time>2026-04-25T09:01:00.487Z</time></trkpt>
      <trkpt lat="24.987448" lon="104.92104"><time>2026-04-25T09:01:00.504Z</time></trkpt>
      <trkpt lat="24.987448" lon="104.92104"><time>2026-04-25T09:01:00.520Z</time></trkpt>
      <trkpt lat="24.987466" lon="104.921036"><time>2026-04-25T09:01:00.537Z</time></trkpt>
      <trkpt lat="24.987466" lon="104.921036"><time>2026-04-25T09:01:00.554Z</time></trkpt>
      <trkpt lat="24.987466" lon="104.921036"><time>2026-04-25T09:01:00.570Z</time></trkpt>
      <trkpt lat="24.987466" lon="104.921036"><time>2026-04-25T09:01:00.587Z</time></trkpt>
      <trkpt lat="24.987466" lon="104.921036"><time>2026-04-25T09:01:00.604Z</time></trkpt>
      <trkpt lat="24.987466" lon="104.921036"><time>2026-04-25T09:01:00.620Z</time></trkpt>
      <trkpt lat="24.98748" lon="104.921034"><time>2026-04-25T09:01:00.637Z</time></trkpt>
      <trkpt lat="24.98748" lon="104.921034"><time>2026-04-25T09:01:00.654Z</time></trkpt>
      <trkpt lat="24.98748" lon="104.921034"><time>2026-04-25T09:01:00.670Z</time></trkpt>
      <trkpt lat="24.98748" lon="104.921034"><time>2026-04-25T09:01:00.687Z</time></trkpt>
      <trkpt lat="24.98748" lon="104.921034"><time>2026-04-25T09:01:00.704Z</time></trkpt>
      <trkpt lat="24.98748" lon="104.921034"><time>2026-04-25T09:01:00.720Z</time></trkpt>
      <trkpt lat="24.987498" lon="104.921031"><time>2026-04-25T09:01:00.737Z</time></trkpt>
      <trkpt lat="24.987498" lon="104.921031"><time>2026-04-25T09:01:00.754Z</time></trkpt>
      <trkpt lat="24.987498" lon="104.921031"><time>2026-04-25T09:01:00.770Z</time></trkpt>
      <trkpt lat="24.987498" lon="104.921031"><time>2026-04-25T09:01:00.787Z</time></trkpt>
      <trkpt lat="24.987498" lon="104.921031"><time>2026-04-25T09:01:00.804Z</time></trkpt>
      <trkpt lat="24.987498" lon="104.921031"><time>2026-04-25T09:01:00.821Z</time></trkpt>
      <trkpt lat="24.987513" lon="104.921028"><time>2026-04-25T09:01:00.837Z</time></trkpt>
      <trkpt lat="24.987513" lon="104.921028"><time>2026-04-25T09:01:00.854Z</time></trkpt>
      <trkpt lat="24.987513" lon="104.921028"><time>2026-04-25T09:01:00.871Z</time></trkpt>
      <trkpt lat="24.987513" lon="104.921028"><time>2026-04-25T09:01:00.887Z</time></trkpt>
      <trkpt lat="24.987513" lon="104.921028"><time>2026-04-25T09:01:00.904Z</time></trkpt>
      <trkpt lat="24.987513" lon="104.921028"><time>2026-04-25T09:01:00.921Z</time></trkpt>
      <trkpt lat="24.987531" lon="104.921025"><time>2026-04-25T09:01:00.937Z</time></trkpt>
      <trkpt lat="24.987531" lon="104.921025"><time>2026-04-25T09:01:00.954Z</time></trkpt>
      <trkpt lat="24.987531" lon="104.921025"><time>2026-04-25T09:01:00.971Z</time></trkpt>
      <trkpt lat="24.987531" lon="104.921025"><time>2026-04-25T09:01:00.987Z</time></trkpt>
      <trkpt lat="24.987531" lon="104.921025"><time>2026-04-25T09:01:01.004Z</time></trkpt>
      <trkpt lat="24.987531" lon="104.921025"><time>2026-04-25T09:01:01.021Z</time></trkpt>
      <trkpt lat="24.987547" lon="104.921022"><time>2026-04-25T09:01:01.037Z</time></trkpt>
      <trkpt lat="24.987547" lon="104.921022"><time>2026-04-25T09:01:01.054Z</time></trkpt>
      <trkpt lat="24.987547" lon="104.921022"><time>2026-04-25T09:01:01.071Z</time></trkpt>
      <trkpt lat="24.987547" lon="104.921022"><time>2026-04-25T09:01:01.087Z</time></trkpt>
      <trkpt lat="24.987547" lon="104.921022"><time>2026-04-25T09:01:01.104Z</time></trkpt>
      <trkpt lat="24.987547" lon="104.921022"><time>2026-04-25T09:01:01.121Z</time></trkpt>
      <trkpt lat="24.987564" lon="104.921019"><time>2026-04-25T09:01:01.138Z</time></trkpt>
      <trkpt lat="24.987564" lon="104.921019"><time>2026-04-25T09:01:01.154Z</time></trkpt>
      <trkpt lat="24.987564" lon="104.921019"><time>2026-04-25T09:01:01.171Z</time></trkpt>
      <trkpt lat="24.987564" lon="104.921019"><time>2026-04-25T09:01:01.188Z</time></trkpt>
      <trkpt lat="24.987564" lon="104.921019"><time>2026-04-25T09:01:01.204Z</time></trkpt>
      <trkpt lat="24.987564" lon="104.921019"><time>2026-04-25T09:01:01.221Z</time></trkpt>
      <trkpt lat="24.987579" lon="104.921017"><time>2026-04-25T09:01:01.238Z</time></trkpt>
      <trkpt lat="24.987579" lon="104.921017"><time>2026-04-25T09:01:01.254Z</time></trkpt>
      <trkpt lat="24.987579" lon="104.921017"><time>2026-04-25T09:01:01.271Z</time></trkpt>
      <trkpt lat="24.987579" lon="104.921017"><time>2026-04-25T09:01:01.288Z</time></trkpt>
      <trkpt lat="24.987579" lon="104.921017"><time>2026-04-25T09:01:01.304Z</time></trkpt>
      <trkpt lat="24.987579" lon="104.921017"><time>2026-04-25T09:01:01.321Z</time></trkpt>
      <trkpt lat="24.987597" lon="104.921013"><time>2026-04-25T09:01:01.338Z</time></trkpt>
      <trkpt lat="24.987597" lon="104.921013"><time>2026-04-25T09:01:01.354Z</time></trkpt>
      <trkpt lat="24.987597" lon="104.921013"><time>2026-04-25T09:01:01.371Z</time></trkpt>
      <trkpt lat="24.987597" lon="104.921013"><time>2026-04-25T09:01:01.388Z</time></trkpt>
      <trkpt lat="24.987597" lon="104.921013"><time>2026-04-25T09:01:01.404Z</time></trkpt>
      <trkpt lat="24.987597" lon="104.921013"><time>2026-04-25T09:01:01.421Z</time></trkpt>
      <trkpt lat="24.987612" lon="104.921011"><time>2026-04-25T09:01:01.438Z</time></trkpt>
      <trkpt lat="24.987612" lon="104.921011"><time>2026-04-25T09:01:01.455Z</time></trkpt>
      <trkpt lat="24.987612" lon="104.921011"><time>2026-04-25T09:01:01.471Z</time></trkpt>
      <trkpt lat="24.987612" lon="104.921011"><time>2026-04-25T09:01:01.488Z</time></trkpt>
      <trkpt lat="24.987612" lon="104.921011"><time>2026-04-25T09:01:01.505Z</time></trkpt>
      <trkpt lat="24.987612" lon="104.921011"><time>2026-04-25T09:01:01.521Z</time></trkpt>
      <trkpt lat="24.98763" lon="104.921008"><time>2026-04-25T09:01:01.538Z</time></trkpt>
      <trkpt lat="24.98763" lon="104.921008"><time>2026-04-25T09:01:01.555Z</time></trkpt>
      <trkpt lat="24.98763" lon="104.921008"><time>2026-04-25T09:01:01.571Z</time></trkpt>
      <trkpt lat="24.98763" lon="104.921008"><time>2026-04-25T09:01:01.588Z</time></trkpt>
      <trkpt lat="24.98763" lon="104.921008"><time>2026-04-25T09:01:01.605Z</time></trkpt>
      <trkpt lat="24.98763" lon="104.921008"><time>2026-04-25T09:01:01.621Z</time></trkpt>
      <trkpt lat="24.987647" lon="104.921005"><time>2026-04-25T09:01:01.638Z</time></trkpt>
      <trkpt lat="24.987647" lon="104.921005"><time>2026-04-25T09:01:01.655Z</time></trkpt>
      <trkpt lat="24.987647" lon="104.921005"><time>2026-04-25T09:01:01.671Z</time></trkpt>
      <trkpt lat="24.987647" lon="104.921005"><time>2026-04-25T09:01:01.688Z</time></trkpt>
      <trkpt lat="24.987647" lon="104.921005"><time>2026-04-25T09:01:01.705Z</time></trkpt>
      <trkpt lat="24.987647" lon="104.921005"><time>2026-04-25T09:01:01.721Z</time></trkpt>
      <trkpt lat="24.987665" lon="104.921002"><time>2026-04-25T09:01:01.738Z</time></trkpt>
      <trkpt lat="24.987665" lon="104.921002"><time>2026-04-25T09:01:01.755Z</time></trkpt>
      <trkpt lat="24.987665" lon="104.921002"><time>2026-04-25T09:01:01.772Z</time></trkpt>
      <trkpt lat="24.987665" lon="104.921002"><time>2026-04-25T09:01:01.788Z</time></trkpt>
      <trkpt lat="24.987665" lon="104.921002"><time>2026-04-25T09:01:01.805Z</time></trkpt>
      <trkpt lat="24.987665" lon="104.921002"><time>2026-04-25T09:01:01.822Z</time></trkpt>
      <trkpt lat="24.98768" lon="104.920999"><time>2026-04-25T09:01:01.838Z</time></trkpt>
      <trkpt lat="24.98768" lon="104.920999"><time>2026-04-25T09:01:01.855Z</time></trkpt>
      <trkpt lat="24.98768" lon="104.920999"><time>2026-04-25T09:01:01.872Z</time></trkpt>
      <trkpt lat="24.98768" lon="104.920999"><time>2026-04-25T09:01:01.888Z</time></trkpt>
      <trkpt lat="24.98768" lon="104.920999"><time>2026-04-25T09:01:01.905Z</time></trkpt>
      <trkpt lat="24.98768" lon="104.920999"><time>2026-04-25T09:01:01.922Z</time></trkpt>
      <trkpt lat="24.987699" lon="104.920995"><time>2026-04-25T09:01:01.938Z</time></trkpt>
      <trkpt lat="24.987699" lon="104.920995"><time>2026-04-25T09:01:01.955Z</time></trkpt>
      <trkpt lat="24.987699" lon="104.920995"><time>2026-04-25T09:01:01.972Z</time></trkpt>
      <trkpt lat="24.987699" lon="104.920995"><time>2026-04-25T09:01:01.988Z</time></trkpt>
      <trkpt lat="24.987699" lon="104.920995"><time>2026-04-25T09:01:02.005Z</time></trkpt>
      <trkpt lat="24.987699" lon="104.920995"><time>2026-04-25T09:01:02.022Z</time></trkpt>
      <trkpt lat="24.987717" lon="104.920992"><time>2026-04-25T09:01:02.038Z</time></trkpt>
      <trkpt lat="24.987717" lon="104.920992"><time>2026-04-25T09:01:02.055Z</time></trkpt>
      <trkpt lat="24.987717" lon="104.920992"><time>2026-04-25T09:01:02.072Z</time></trkpt>
      <trkpt lat="24.987717" lon="104.920992"><time>2026-04-25T09:01:02.089Z</time></trkpt>
      <trkpt lat="24.987717" lon="104.920992"><time>2026-04-25T09:01:02.105Z</time></trkpt>
      <trkpt lat="24.987717" lon="104.920992"><time>2026-04-25T09:01:02.122Z</time></trkpt>
      <trkpt lat="24.987734" lon="104.920989"><time>2026-04-25T09:01:02.139Z</time></trkpt>
      <trkpt lat="24.987734" lon="104.920989"><time>2026-04-25T09:01:02.155Z</time></trkpt>
      <trkpt lat="24.987734" lon="104.920989"><time>2026-04-25T09:01:02.172Z</time></trkpt>
      <trkpt lat="24.987734" lon="104.920989"><time>2026-04-25T09:01:02.189Z</time></trkpt>
      <trkpt lat="24.987734" lon="104.920989"><time>2026-04-25T09:01:02.205Z</time></trkpt>
      <trkpt lat="24.987734" lon="104.920989"><time>2026-04-25T09:01:02.222Z</time></trkpt>
      <trkpt lat="24.98775" lon="104.920986"><time>2026-04-25T09:01:02.239Z</time></trkpt>
      <trkpt lat="24.98775" lon="104.920986"><time>2026-04-25T09:01:02.255Z</time></trkpt>
      <trkpt lat="24.98775" lon="104.920986"><time>2026-04-25T09:01:02.272Z</time></trkpt>
      <trkpt lat="24.98775" lon="104.920986"><time>2026-04-25T09:01:02.289Z</time></trkpt>
      <trkpt lat="24.98775" lon="104.920986"><time>2026-04-25T09:01:02.305Z</time></trkpt>
      <trkpt lat="24.98775" lon="104.920986"><time>2026-04-25T09:01:02.322Z</time></trkpt>
      <trkpt lat="24.98777" lon="104.920982"><time>2026-04-25T09:01:02.339Z</time></trkpt>
      <trkpt lat="24.98777" lon="104.920982"><time>2026-04-25T09:01:02.355Z</time></trkpt>
      <trkpt lat="24.98777" lon="104.920982"><time>2026-04-25T09:01:02.372Z</time></trkpt>
      <trkpt lat="24.98777" lon="104.920982"><time>2026-04-25T09:01:02.389Z</time></trkpt>
      <trkpt lat="24.98777" lon="104.920982"><time>2026-04-25T09:01:02.406Z</time></trkpt>
      <trkpt lat="24.98777" lon="104.920982"><time>2026-04-25T09:01:02.422Z</time></trkpt>
      <trkpt lat="24.987788" lon="104.920979"><time>2026-04-25T09:01:02.439Z</time></trkpt>
      <trkpt lat="24.987788" lon="104.920979"><time>2026-04-25T09:01:02.456Z</time></trkpt>
      <trkpt lat="24.987788" lon="104.920979"><time>2026-04-25T09:01:02.472Z</time></trkpt>
      <trkpt lat="24.987788" lon="104.920979"><time>2026-04-25T09:01:02.489Z</time></trkpt>
      <trkpt lat="24.987788" lon="104.920979"><time>2026-04-25T09:01:02.506Z</time></trkpt>
      <trkpt lat="24.987788" lon="104.920979"><time>2026-04-25T09:01:02.522Z</time></trkpt>
      <trkpt lat="24.987808" lon="104.920976"><time>2026-04-25T09:01:02.539Z</time></trkpt>
      <trkpt lat="24.987808" lon="104.920976"><time>2026-04-25T09:01:02.556Z</time></trkpt>
      <trkpt lat="24.987808" lon="104.920976"><time>2026-04-25T09:01:02.572Z</time></trkpt>
      <trkpt lat="24.987808" lon="104.920976"><time>2026-04-25T09:01:02.589Z</time></trkpt>
      <trkpt lat="24.987808" lon="104.920976"><time>2026-04-25T09:01:02.606Z</time></trkpt>
      <trkpt lat="24.987808" lon="104.920976"><time>2026-04-25T09:01:02.622Z</time></trkpt>
      <trkpt lat="24.987825" lon="104.920972"><time>2026-04-25T09:01:02.639Z</time></trkpt>
      <trkpt lat="24.987825" lon="104.920972"><time>2026-04-25T09:01:02.656Z</time></trkpt>
      <trkpt lat="24.987825" lon="104.920972"><time>2026-04-25T09:01:02.672Z</time></trkpt>
      <trkpt lat="24.987825" lon="104.920972"><time>2026-04-25T09:01:02.689Z</time></trkpt>
      <trkpt lat="24.987825" lon="104.920972"><time>2026-04-25T09:01:02.706Z</time></trkpt>
      <trkpt lat="24.987825" lon="104.920972"><time>2026-04-25T09:01:02.723Z</time></trkpt>
      <trkpt lat="24.987845" lon="104.920969"><time>2026-04-25T09:01:02.739Z</time></trkpt>
      <trkpt lat="24.987845" lon="104.920969"><time>2026-04-25T09:01:02.756Z</time></trkpt>
      <trkpt lat="24.987845" lon="104.920969"><time>2026-04-25T09:01:02.773Z</time></trkpt>
      <trkpt lat="24.987845" lon="104.920969"><time>2026-04-25T09:01:02.789Z</time></trkpt>
      <trkpt lat="24.987845" lon="104.920969"><time>2026-04-25T09:01:02.806Z</time></trkpt>
      <trkpt lat="24.987845" lon="104.920969"><time>2026-04-25T09:01:02.823Z</time></trkpt>
      <trkpt lat="24.987862" lon="104.920966"><time>2026-04-25T09:01:02.839Z</time></trkpt>
      <trkpt lat="24.987862" lon="104.920966"><time>2026-04-25T09:01:02.856Z</time></trkpt>
      <trkpt lat="24.987862" lon="104.920966"><time>2026-04-25T09:01:02.873Z</time></trkpt>
      <trkpt lat="24.987862" lon="104.920966"><time>2026-04-25T09:01:02.889Z</time></trkpt>
      <trkpt lat="24.987862" lon="104.920966"><time>2026-04-25T09:01:02.906Z</time></trkpt>
      <trkpt lat="24.987862" lon="104.920966"><time>2026-04-25T09:01:02.923Z</time></trkpt>
      <trkpt lat="24.987883" lon="104.920962"><time>2026-04-25T09:01:02.939Z</time></trkpt>
      <trkpt lat="24.987883" lon="104.920962"><time>2026-04-25T09:01:02.956Z</time></trkpt>
      <trkpt lat="24.987883" lon="104.920962"><time>2026-04-25T09:01:02.973Z</time></trkpt>
      <trkpt lat="24.987883" lon="104.920962"><time>2026-04-25T09:01:02.989Z</time></trkpt>
      <trkpt lat="24.987883" lon="104.920962"><time>2026-04-25T09:01:03.006Z</time></trkpt>
      <trkpt lat="24.987883" lon="104.920962"><time>2026-04-25T09:01:03.023Z</time></trkpt>
      <trkpt lat="24.987903" lon="104.920958"><time>2026-04-25T09:01:03.040Z</time></trkpt>
      <trkpt lat="24.987903" lon="104.920958"><time>2026-04-25T09:01:03.056Z</time></trkpt>
      <trkpt lat="24.987903" lon="104.920958"><time>2026-04-25T09:01:03.073Z</time></trkpt>
      <trkpt lat="24.987903" lon="104.920958"><time>2026-04-25T09:01:03.090Z</time></trkpt>
      <trkpt lat="24.987903" lon="104.920958"><time>2026-04-25T09:01:03.106Z</time></trkpt>
      <trkpt lat="24.987903" lon="104.920958"><time>2026-04-25T09:01:03.123Z</time></trkpt>
      <trkpt lat="24.987922" lon="104.920955"><time>2026-04-25T09:01:03.140Z</time></trkpt>
      <trkpt lat="24.987922" lon="104.920955"><time>2026-04-25T09:01:03.156Z</time></trkpt>
      <trkpt lat="24.987922" lon="104.920955"><time>2026-04-25T09:01:03.173Z</time></trkpt>
      <trkpt lat="24.987922" lon="104.920955"><time>2026-04-25T09:01:03.190Z</time></trkpt>
      <trkpt lat="24.987922" lon="104.920955"><time>2026-04-25T09:01:03.206Z</time></trkpt>
      <trkpt lat="24.987922" lon="104.920955"><time>2026-04-25T09:01:03.223Z</time></trkpt>
      <trkpt lat="24.98794" lon="104.920951"><time>2026-04-25T09:01:03.240Z</time></trkpt>
      <trkpt lat="24.98794" lon="104.920951"><time>2026-04-25T09:01:03.256Z</time></trkpt>
      <trkpt lat="24.98794" lon="104.920951"><time>2026-04-25T09:01:03.273Z</time></trkpt>
      <trkpt lat="24.98794" lon="104.920951"><time>2026-04-25T09:01:03.290Z</time></trkpt>
      <trkpt lat="24.98794" lon="104.920951"><time>2026-04-25T09:01:03.306Z</time></trkpt>
      <trkpt lat="24.98794" lon="104.920951"><time>2026-04-25T09:01:03.323Z</time></trkpt>
      <trkpt lat="24.987962" lon="104.920947"><time>2026-04-25T09:01:03.340Z</time></trkpt>
      <trkpt lat="24.987962" lon="104.920947"><time>2026-04-25T09:01:03.356Z</time></trkpt>
      <trkpt lat="24.987962" lon="104.920947"><time>2026-04-25T09:01:03.373Z</time></trkpt>
      <trkpt lat="24.987962" lon="104.920947"><time>2026-04-25T09:01:03.390Z</time></trkpt>
      <trkpt lat="24.987962" lon="104.920947"><time>2026-04-25T09:01:03.407Z</time></trkpt>
      <trkpt lat="24.987962" lon="104.920947"><time>2026-04-25T09:01:03.423Z</time></trkpt>
      <trkpt lat="24.98798" lon="104.920944"><time>2026-04-25T09:01:03.440Z</time></trkpt>
      <trkpt lat="24.98798" lon="104.920944"><time>2026-04-25T09:01:03.457Z</time></trkpt>
      <trkpt lat="24.98798" lon="104.920944"><time>2026-04-25T09:01:03.473Z</time></trkpt>
      <trkpt lat="24.98798" lon="104.920944"><time>2026-04-25T09:01:03.490Z</time></trkpt>
      <trkpt lat="24.98798" lon="104.920944"><time>2026-04-25T09:01:03.507Z</time></trkpt>
      <trkpt lat="24.98798" lon="104.920944"><time>2026-04-25T09:01:03.523Z</time></trkpt>
      <trkpt lat="24.988002" lon="104.92094"><time>2026-04-25T09:01:03.540Z</time></trkpt>
      <trkpt lat="24.988002" lon="104.92094"><time>2026-04-25T09:01:03.557Z</time></trkpt>
      <trkpt lat="24.988002" lon="104.92094"><time>2026-04-25T09:01:03.573Z</time></trkpt>
      <trkpt lat="24.988002" lon="104.92094"><time>2026-04-25T09:01:03.590Z</time></trkpt>
      <trkpt lat="24.988002" lon="104.92094"><time>2026-04-25T09:01:03.607Z</time></trkpt>
      <trkpt lat="24.988002" lon="104.92094"><time>2026-04-25T09:01:03.623Z</time></trkpt>
      <trkpt lat="24.988021" lon="104.920937"><time>2026-04-25T09:01:03.640Z</time></trkpt>
      <trkpt lat="24.988021" lon="104.920937"><time>2026-04-25T09:01:03.657Z</time></trkpt>
      <trkpt lat="24.988021" lon="104.920937"><time>2026-04-25T09:01:03.673Z</time></trkpt>
      <trkpt lat="24.988021" lon="104.920937"><time>2026-04-25T09:01:03.690Z</time></trkpt>
      <trkpt lat="24.988021" lon="104.920937"><time>2026-04-25T09:01:03.707Z</time></trkpt>
      <trkpt lat="24.988021" lon="104.920937"><time>2026-04-25T09:01:03.724Z</time></trkpt>
      <trkpt lat="24.988042" lon="104.920933"><time>2026-04-25T09:01:03.740Z</time></trkpt>
      <trkpt lat="24.988042" lon="104.920933"><time>2026-04-25T09:01:03.757Z</time></trkpt>
      <trkpt lat="24.988042" lon="104.920933"><time>2026-04-25T09:01:03.774Z</time></trkpt>
      <trkpt lat="24.988042" lon="104.920933"><time>2026-04-25T09:01:03.790Z</time></trkpt>
      <trkpt lat="24.988042" lon="104.920933"><time>2026-04-25T09:01:03.807Z</time></trkpt>
      <trkpt lat="24.988042" lon="104.920933"><time>2026-04-25T09:01:03.824Z</time></trkpt>
      <trkpt lat="24.98806" lon="104.92093"><time>2026-04-25T09:01:03.840Z</time></trkpt>
      <trkpt lat="24.98806" lon="104.92093"><time>2026-04-25T09:01:03.857Z</time></trkpt>
      <trkpt lat="24.98806" lon="104.92093"><time>2026-04-25T09:01:03.874Z</time></trkpt>
      <trkpt lat="24.98806" lon="104.92093"><time>2026-04-25T09:01:03.890Z</time></trkpt>
      <trkpt lat="24.98806" lon="104.92093"><time>2026-04-25T09:01:03.907Z</time></trkpt>
      <trkpt lat="24.98806" lon="104.92093"><time>2026-04-25T09:01:03.924Z</time></trkpt>
      <trkpt lat="24.988082" lon="104.920926"><time>2026-04-25T09:01:03.940Z</time></trkpt>
      <trkpt lat="24.988082" lon="104.920926"><time>2026-04-25T09:01:03.957Z</time></trkpt>
      <trkpt lat="24.988082" lon="104.920926"><time>2026-04-25T09:01:03.974Z</time></trkpt>
      <trkpt lat="24.988082" lon="104.920926"><time>2026-04-25T09:01:03.990Z</time></trkpt>
      <trkpt lat="24.988082" lon="104.920926"><time>2026-04-25T09:01:04.007Z</time></trkpt>
      <trkpt lat="24.988082" lon="104.920926"><time>2026-04-25T09:01:04.024Z</time></trkpt>
      <trkpt lat="24.988103" lon="104.920922"><time>2026-04-25T09:01:04.041Z</time></trkpt>
      <trkpt lat="24.988103" lon="104.920922"><time>2026-04-25T09:01:04.057Z</time></trkpt>
      <trkpt lat="24.988103" lon="104.920922"><time>2026-04-25T09:01:04.074Z</time></trkpt>
      <trkpt lat="24.988103" lon="104.920922"><time>2026-04-25T09:01:04.091Z</time></trkpt>
      <trkpt lat="24.988103" lon="104.920922"><time>2026-04-25T09:01:04.107Z</time></trkpt>
      <trkpt lat="24.988103" lon="104.920922"><time>2026-04-25T09:01:04.124Z</time></trkpt>
      <trkpt lat="24.988123" lon="104.920918"><time>2026-04-25T09:01:04.141Z</time></trkpt>
      <trkpt lat="24.988123" lon="104.920918"><time>2026-04-25T09:01:04.157Z</time></trkpt>
      <trkpt lat="24.988123" lon="104.920918"><time>2026-04-25T09:01:04.174Z</time></trkpt>
      <trkpt lat="24.988123" lon="104.920918"><time>2026-04-25T09:01:04.191Z</time></trkpt>
      <trkpt lat="24.988123" lon="104.920918"><time>2026-04-25T09:01:04.207Z</time></trkpt>
      <trkpt lat="24.988123" lon="104.920918"><time>2026-04-25T09:01:04.224Z</time></trkpt>
      <trkpt lat="24.988142" lon="104.920915"><time>2026-04-25T09:01:04.241Z</time></trkpt>
      <trkpt lat="24.988142" lon="104.920915"><time>2026-04-25T09:01:04.257Z</time></trkpt>
      <trkpt lat="24.988142" lon="104.920915"><time>2026-04-25T09:01:04.274Z</time></trkpt>
      <trkpt lat="24.988142" lon="104.920915"><time>2026-04-25T09:01:04.291Z</time></trkpt>
      <trkpt lat="24.988142" lon="104.920915"><time>2026-04-25T09:01:04.307Z</time></trkpt>
      <trkpt lat="24.988142" lon="104.920915"><time>2026-04-25T09:01:04.324Z</time></trkpt>
      <trkpt lat="24.988164" lon="104.920911"><time>2026-04-25T09:01:04.341Z</time></trkpt>
      <trkpt lat="24.988164" lon="104.920911"><time>2026-04-25T09:01:04.358Z</time></trkpt>
      <trkpt lat="24.988164" lon="104.920911"><time>2026-04-25T09:01:04.374Z</time></trkpt>
      <trkpt lat="24.988164" lon="104.920911"><time>2026-04-25T09:01:04.391Z</time></trkpt>
      <trkpt lat="24.988164" lon="104.920911"><time>2026-04-25T09:01:04.408Z</time></trkpt>
      <trkpt lat="24.988164" lon="104.920911"><time>2026-04-25T09:01:04.424Z</time></trkpt>
      <trkpt lat="24.988182" lon="104.920907"><time>2026-04-25T09:01:04.441Z</time></trkpt>
      <trkpt lat="24.988182" lon="104.920907"><time>2026-04-25T09:01:04.458Z</time></trkpt>
      <trkpt lat="24.988182" lon="104.920907"><time>2026-04-25T09:01:04.474Z</time></trkpt>
      <trkpt lat="24.988182" lon="104.920907"><time>2026-04-25T09:01:04.491Z</time></trkpt>
      <trkpt lat="24.988182" lon="104.920907"><time>2026-04-25T09:01:04.508Z</time></trkpt>
      <trkpt lat="24.988182" lon="104.920907"><time>2026-04-25T09:01:04.524Z</time></trkpt>
      <trkpt lat="24.988206" lon="104.920903"><time>2026-04-25T09:01:04.541Z</time></trkpt>
      <trkpt lat="24.988206" lon="104.920903"><time>2026-04-25T09:01:04.558Z</time></trkpt>
      <trkpt lat="24.988206" lon="104.920903"><time>2026-04-25T09:01:04.574Z</time></trkpt>
      <trkpt lat="24.988206" lon="104.920903"><time>2026-04-25T09:01:04.591Z</time></trkpt>
      <trkpt lat="24.988206" lon="104.920903"><time>2026-04-25T09:01:04.608Z</time></trkpt>
      <trkpt lat="24.988206" lon="104.920903"><time>2026-04-25T09:01:04.624Z</time></trkpt>
      <trkpt lat="24.988224" lon="104.920899"><time>2026-04-25T09:01:04.641Z</time></trkpt>
      <trkpt lat="24.988224" lon="104.920899"><time>2026-04-25T09:01:04.658Z</time></trkpt>
      <trkpt lat="24.988224" lon="104.920899"><time>2026-04-25T09:01:04.675Z</time></trkpt>
      <trkpt lat="24.988224" lon="104.920899"><time>2026-04-25T09:01:04.691Z</time></trkpt>
      <trkpt lat="24.988224" lon="104.920899"><time>2026-04-25T09:01:04.708Z</time></trkpt>
      <trkpt lat="24.988224" lon="104.920899"><time>2026-04-25T09:01:04.725Z</time></trkpt>
      <trkpt lat="24.988247" lon="104.920895"><time>2026-04-25T09:01:04.741Z</time></trkpt>
      <trkpt lat="24.988247" lon="104.920895"><time>2026-04-25T09:01:04.758Z</time></trkpt>
      <trkpt lat="24.988247" lon="104.920895"><time>2026-04-25T09:01:04.775Z</time></trkpt>
      <trkpt lat="24.988247" lon="104.920895"><time>2026-04-25T09:01:04.791Z</time></trkpt>
      <trkpt lat="24.988247" lon="104.920895"><time>2026-04-25T09:01:04.808Z</time></trkpt>
      <trkpt lat="24.988247" lon="104.920895"><time>2026-04-25T09:01:04.825Z</time></trkpt>
      <trkpt lat="24.988265" lon="104.920892"><time>2026-04-25T09:01:04.841Z</time></trkpt>
      <trkpt lat="24.988265" lon="104.920892"><time>2026-04-25T09:01:04.858Z</time></trkpt>
      <trkpt lat="24.988265" lon="104.920892"><time>2026-04-25T09:01:04.875Z</time></trkpt>
      <trkpt lat="24.988265" lon="104.920892"><time>2026-04-25T09:01:04.891Z</time></trkpt>
      <trkpt lat="24.988265" lon="104.920892"><time>2026-04-25T09:01:04.908Z</time></trkpt>
      <trkpt lat="24.988265" lon="104.920892"><time>2026-04-25T09:01:04.925Z</time></trkpt>
      <trkpt lat="24.988289" lon="104.920887"><time>2026-04-25T09:01:04.941Z</time></trkpt>
      <trkpt lat="24.988289" lon="104.920887"><time>2026-04-25T09:01:04.958Z</time></trkpt>
      <trkpt lat="24.988289" lon="104.920887"><time>2026-04-25T09:01:04.975Z</time></trkpt>
      <trkpt lat="24.988289" lon="104.920887"><time>2026-04-25T09:01:04.992Z</time></trkpt>
      <trkpt lat="24.988289" lon="104.920887"><time>2026-04-25T09:01:05.008Z</time></trkpt>
      <trkpt lat="24.988289" lon="104.920887"><time>2026-04-25T09:01:05.025Z</time></trkpt>
      <trkpt lat="24.98831" lon="104.920884"><time>2026-04-25T09:01:05.042Z</time></trkpt>
      <trkpt lat="24.98831" lon="104.920884"><time>2026-04-25T09:01:05.058Z</time></trkpt>
      <trkpt lat="24.98831" lon="104.920884"><time>2026-04-25T09:01:05.075Z</time></trkpt>
      <trkpt lat="24.98831" lon="104.920884"><time>2026-04-25T09:01:05.092Z</time></trkpt>
      <trkpt lat="24.98831" lon="104.920884"><time>2026-04-25T09:01:05.108Z</time></trkpt>
      <trkpt lat="24.98831" lon="104.920884"><time>2026-04-25T09:01:05.125Z</time></trkpt>
      <trkpt lat="24.988331" lon="104.92088"><time>2026-04-25T09:01:05.142Z</time></trkpt>
      <trkpt lat="24.988331" lon="104.92088"><time>2026-04-25T09:01:05.158Z</time></trkpt>
      <trkpt lat="24.988331" lon="104.92088"><time>2026-04-25T09:01:05.175Z</time></trkpt>
      <trkpt lat="24.988331" lon="104.92088"><time>2026-04-25T09:01:05.192Z</time></trkpt>
      <trkpt lat="24.988331" lon="104.92088"><time>2026-04-25T09:01:05.208Z</time></trkpt>
      <trkpt lat="24.988331" lon="104.92088"><time>2026-04-25T09:01:05.225Z</time></trkpt>
      <trkpt lat="24.98835" lon="104.920876"><time>2026-04-25T09:01:05.242Z</time></trkpt>
      <trkpt lat="24.98835" lon="104.920876"><time>2026-04-25T09:01:05.258Z</time></trkpt>
      <trkpt lat="24.98835" lon="104.920876"><time>2026-04-25T09:01:05.275Z</time></trkpt>
      <trkpt lat="24.98835" lon="104.920876"><time>2026-04-25T09:01:05.292Z</time></trkpt>
      <trkpt lat="24.98835" lon="104.920876"><time>2026-04-25T09:01:05.309Z</time></trkpt>
      <trkpt lat="24.98835" lon="104.920876"><time>2026-04-25T09:01:05.325Z</time></trkpt>
      <trkpt lat="24.988373" lon="104.920872"><time>2026-04-25T09:01:05.342Z</time></trkpt>
      <trkpt lat="24.988373" lon="104.920872"><time>2026-04-25T09:01:05.359Z</time></trkpt>
      <trkpt lat="24.988373" lon="104.920872"><time>2026-04-25T09:01:05.375Z</time></trkpt>
      <trkpt lat="24.988373" lon="104.920872"><time>2026-04-25T09:01:05.392Z</time></trkpt>
      <trkpt lat="24.988373" lon="104.920872"><time>2026-04-25T09:01:05.409Z</time></trkpt>
      <trkpt lat="24.988373" lon="104.920872"><time>2026-04-25T09:01:05.425Z</time></trkpt>
      <trkpt lat="24.988391" lon="104.920868"><time>2026-04-25T09:01:05.442Z</time></trkpt>
      <trkpt lat="24.988391" lon="104.920868"><time>2026-04-25T09:01:05.459Z</time></trkpt>
      <trkpt lat="24.988391" lon="104.920868"><time>2026-04-25T09:01:05.475Z</time></trkpt>
      <trkpt lat="24.988391" lon="104.920868"><time>2026-04-25T09:01:05.492Z</time></trkpt>
      <trkpt lat="24.988391" lon="104.920868"><time>2026-04-25T09:01:05.509Z</time></trkpt>
      <trkpt lat="24.988391" lon="104.920868"><time>2026-04-25T09:01:05.525Z</time></trkpt>
      <trkpt lat="24.988404" lon="104.92088"><time>2026-04-25T09:01:05.542Z</time></trkpt>
      <trkpt lat="24.988404" lon="104.92088"><time>2026-04-25T09:01:05.559Z</time></trkpt>
      <trkpt lat="24.988404" lon="104.92088"><time>2026-04-25T09:01:05.575Z</time></trkpt>
      <trkpt lat="24.988404" lon="104.92088"><time>2026-04-25T09:01:05.592Z</time></trkpt>
      <trkpt lat="24.988404" lon="104.92088"><time>2026-04-25T09:01:05.609Z</time></trkpt>
      <trkpt lat="24.988404" lon="104.92088"><time>2026-04-25T09:01:05.626Z</time></trkpt>
      <trkpt lat="24.988423" lon="104.920876"><time>2026-04-25T09:01:05.642Z</time></trkpt>
      <trkpt lat="24.988423" lon="104.920876"><time>2026-04-25T09:01:05.659Z</time></trkpt>
      <trkpt lat="24.988423" lon="104.920876"><time>2026-04-25T09:01:05.676Z</time></trkpt>
      <trkpt lat="24.988423" lon="104.920876"><time>2026-04-25T09:01:05.692Z</time></trkpt>
      <trkpt lat="24.988423" lon="104.920876"><time>2026-04-25T09:01:05.709Z</time></trkpt>
      <trkpt lat="24.988423" lon="104.920876"><time>2026-04-25T09:01:05.726Z</time></trkpt>
      <trkpt lat="24.988447" lon="104.920873"><time>2026-04-25T09:01:05.742Z</time></trkpt>
      <trkpt lat="24.988447" lon="104.920873"><time>2026-04-25T09:01:05.759Z</time></trkpt>
      <trkpt lat="24.988447" lon="104.920873"><time>2026-04-25T09:01:05.776Z</time></trkpt>
      <trkpt lat="24.988447" lon="104.920873"><time>2026-04-25T09:01:05.792Z</time></trkpt>
      <trkpt lat="24.988447" lon="104.920873"><time>2026-04-25T09:01:05.809Z</time></trkpt>
      <trkpt lat="24.988447" lon="104.920873"><time>2026-04-25T09:01:05.826Z</time></trkpt>
      <trkpt lat="24.988466" lon="104.920869"><time>2026-04-25T09:01:05.842Z</time></trkpt>
      <trkpt lat="24.988466" lon="104.920869"><time>2026-04-25T09:01:05.859Z</time></trkpt>
      <trkpt lat="24.988466" lon="104.920869"><time>2026-04-25T09:01:05.876Z</time></trkpt>
      <trkpt lat="24.988466" lon="104.920869"><time>2026-04-25T09:01:05.892Z</time></trkpt>
      <trkpt lat="24.988466" lon="104.920869"><time>2026-04-25T09:01:05.909Z</time></trkpt>
      <trkpt lat="24.988466" lon="104.920869"><time>2026-04-25T09:01:05.926Z</time></trkpt>
      <trkpt lat="24.988489" lon="104.920866"><time>2026-04-25T09:01:05.943Z</time></trkpt>
      <trkpt lat="24.988489" lon="104.920866"><time>2026-04-25T09:01:05.959Z</time></trkpt>
      <trkpt lat="24.988489" lon="104.920866"><time>2026-04-25T09:01:05.976Z</time></trkpt>
      <trkpt lat="24.988489" lon="104.920866"><time>2026-04-25T09:01:05.993Z</time></trkpt>
      <trkpt lat="24.988489" lon="104.920866"><time>2026-04-25T09:01:06.009Z</time></trkpt>
      <trkpt lat="24.988489" lon="104.920866"><time>2026-04-25T09:01:06.026Z</time></trkpt>
      <trkpt lat="24.988511" lon="104.920862"><time>2026-04-25T09:01:06.043Z</time></trkpt>
      <trkpt lat="24.988511" lon="104.920862"><time>2026-04-25T09:01:06.059Z</time></trkpt>
      <trkpt lat="24.988511" lon="104.920862"><time>2026-04-25T09:01:06.076Z</time></trkpt>
      <trkpt lat="24.988511" lon="104.920862"><time>2026-04-25T09:01:06.093Z</time></trkpt>
      <trkpt lat="24.988511" lon="104.920862"><time>2026-04-25T09:01:06.109Z</time></trkpt>
      <trkpt lat="24.988511" lon="104.920862"><time>2026-04-25T09:01:06.126Z</time></trkpt>
      <trkpt lat="24.988532" lon="104.920858"><time>2026-04-25T09:01:06.143Z</time></trkpt>
      <trkpt lat="24.988532" lon="104.920858"><time>2026-04-25T09:01:06.159Z</time></trkpt>
      <trkpt lat="24.988532" lon="104.920858"><time>2026-04-25T09:01:06.176Z</time></trkpt>
      <trkpt lat="24.988532" lon="104.920858"><time>2026-04-25T09:01:06.193Z</time></trkpt>
      <trkpt lat="24.988532" lon="104.920858"><time>2026-04-25T09:01:06.209Z</time></trkpt>
      <trkpt lat="24.988532" lon="104.920858"><time>2026-04-25T09:01:06.226Z</time></trkpt>
      <trkpt lat="24.988552" lon="104.920855"><time>2026-04-25T09:01:06.243Z</time></trkpt>
      <trkpt lat="24.988552" lon="104.920855"><time>2026-04-25T09:01:06.260Z</time></trkpt>
      <trkpt lat="24.988552" lon="104.920855"><time>2026-04-25T09:01:06.276Z</time></trkpt>
      <trkpt lat="24.988552" lon="104.920855"><time>2026-04-25T09:01:06.293Z</time></trkpt>
      <trkpt lat="24.988552" lon="104.920855"><time>2026-04-25T09:01:06.310Z</time></trkpt>
      <trkpt lat="24.988552" lon="104.920855"><time>2026-04-25T09:01:06.326Z</time></trkpt>
      <trkpt lat="24.988575" lon="104.920851"><time>2026-04-25T09:01:06.343Z</time></trkpt>
      <trkpt lat="24.988575" lon="104.920851"><time>2026-04-25T09:01:06.360Z</time></trkpt>
      <trkpt lat="24.988575" lon="104.920851"><time>2026-04-25T09:01:06.376Z</time></trkpt>
      <trkpt lat="24.988575" lon="104.920851"><time>2026-04-25T09:01:06.393Z</time></trkpt>
      <trkpt lat="24.988575" lon="104.920851"><time>2026-04-25T09:01:06.410Z</time></trkpt>
      <trkpt lat="24.988575" lon="104.920851"><time>2026-04-25T09:01:06.426Z</time></trkpt>
      <trkpt lat="24.988596" lon="104.920848"><time>2026-04-25T09:01:06.443Z</time></trkpt>
      <trkpt lat="24.988596" lon="104.920848"><time>2026-04-25T09:01:06.460Z</time></trkpt>
      <trkpt lat="24.988596" lon="104.920848"><time>2026-04-25T09:01:06.476Z</time></trkpt>
      <trkpt lat="24.988596" lon="104.920848"><time>2026-04-25T09:01:06.493Z</time></trkpt>
      <trkpt lat="24.988596" lon="104.920848"><time>2026-04-25T09:01:06.510Z</time></trkpt>
      <trkpt lat="24.988596" lon="104.920848"><time>2026-04-25T09:01:06.526Z</time></trkpt>
      <trkpt lat="24.988619" lon="104.920844"><time>2026-04-25T09:01:06.543Z</time></trkpt>
      <trkpt lat="24.988619" lon="104.920844"><time>2026-04-25T09:01:06.560Z</time></trkpt>
      <trkpt lat="24.988619" lon="104.920844"><time>2026-04-25T09:01:06.577Z</time></trkpt>
      <trkpt lat="24.988619" lon="104.920844"><time>2026-04-25T09:01:06.593Z</time></trkpt>
      <trkpt lat="24.988619" lon="104.920844"><time>2026-04-25T09:01:06.610Z</time></trkpt>
      <trkpt lat="24.988619" lon="104.920844"><time>2026-04-25T09:01:06.627Z</time></trkpt>
      <trkpt lat="24.988638" lon="104.920841"><time>2026-04-25T09:01:06.643Z</time></trkpt>
      <trkpt lat="24.988638" lon="104.920841"><time>2026-04-25T09:01:06.660Z</time></trkpt>
      <trkpt lat="24.988638" lon="104.920841"><time>2026-04-25T09:01:06.677Z</time></trkpt>
      <trkpt lat="24.988638" lon="104.920841"><time>2026-04-25T09:01:06.693Z</time></trkpt>
      <trkpt lat="24.988638" lon="104.920841"><time>2026-04-25T09:01:06.710Z</time></trkpt>
      <trkpt lat="24.988638" lon="104.920841"><time>2026-04-25T09:01:06.727Z</time></trkpt>
      <trkpt lat="24.988662" lon="104.920837"><time>2026-04-25T09:01:06.743Z</time></trkpt>
      <trkpt lat="24.988662" lon="104.920837"><time>2026-04-25T09:01:06.760Z</time></trkpt>
      <trkpt lat="24.988662" lon="104.920837"><time>2026-04-25T09:01:06.777Z</time></trkpt>
      <trkpt lat="24.988662" lon="104.920837"><time>2026-04-25T09:01:06.793Z</time></trkpt>
      <trkpt lat="24.988662" lon="104.920837"><time>2026-04-25T09:01:06.810Z</time></trkpt>
      <trkpt lat="24.988662" lon="104.920837"><time>2026-04-25T09:01:06.827Z</time></trkpt>
      <trkpt lat="24.988682" lon="104.920834"><time>2026-04-25T09:01:06.843Z</time></trkpt>
      <trkpt lat="24.988682" lon="104.920834"><time>2026-04-25T09:01:06.860Z</time></trkpt>
      <trkpt lat="24.988682" lon="104.920834"><time>2026-04-25T09:01:06.877Z</time></trkpt>
      <trkpt lat="24.988682" lon="104.920834"><time>2026-04-25T09:01:06.894Z</time></trkpt>
      <trkpt lat="24.988682" lon="104.920834"><time>2026-04-25T09:01:06.910Z</time></trkpt>
      <trkpt lat="24.988682" lon="104.920834"><time>2026-04-25T09:01:06.927Z</time></trkpt>
      <trkpt lat="24.988706" lon="104.92083"><time>2026-04-25T09:01:06.944Z</time></trkpt>
      <trkpt lat="24.988706" lon="104.92083"><time>2026-04-25T09:01:06.960Z</time></trkpt>
      <trkpt lat="24.988706" lon="104.92083"><time>2026-04-25T09:01:06.977Z</time></trkpt>
      <trkpt lat="24.988706" lon="104.92083"><time>2026-04-25T09:01:06.994Z</time></trkpt>
      <trkpt lat="24.988706" lon="104.92083"><time>2026-04-25T09:01:07.010Z</time></trkpt>
      <trkpt lat="24.988706" lon="104.92083"><time>2026-04-25T09:01:07.027Z</time></trkpt>
      <trkpt lat="24.988727" lon="104.920826"><time>2026-04-25T09:01:07.044Z</time></trkpt>
      <trkpt lat="24.988727" lon="104.920826"><time>2026-04-25T09:01:07.060Z</time></trkpt>
      <trkpt lat="24.988727" lon="104.920826"><time>2026-04-25T09:01:07.077Z</time></trkpt>
      <trkpt lat="24.988727" lon="104.920826"><time>2026-04-25T09:01:07.094Z</time></trkpt>
      <trkpt lat="24.988727" lon="104.920826"><time>2026-04-25T09:01:07.110Z</time></trkpt>
      <trkpt lat="24.988727" lon="104.920826"><time>2026-04-25T09:01:07.127Z</time></trkpt>
      <trkpt lat="24.988749" lon="104.920823"><time>2026-04-25T09:01:07.144Z</time></trkpt>
      <trkpt lat="24.988749" lon="104.920823"><time>2026-04-25T09:01:07.160Z</time></trkpt>
      <trkpt lat="24.988749" lon="104.920823"><time>2026-04-25T09:01:07.177Z</time></trkpt>
      <trkpt lat="24.988749" lon="104.920823"><time>2026-04-25T09:01:07.194Z</time></trkpt>
      <trkpt lat="24.988749" lon="104.920823"><time>2026-04-25T09:01:07.211Z</time></trkpt>
      <trkpt lat="24.988749" lon="104.920823"><time>2026-04-25T09:01:07.227Z</time></trkpt>
      <trkpt lat="24.988771" lon="104.920819"><time>2026-04-25T09:01:07.244Z</time></trkpt>
      <trkpt lat="24.988771" lon="104.920819"><time>2026-04-25T09:01:07.261Z</time></trkpt>
      <trkpt lat="24.988771" lon="104.920819"><time>2026-04-25T09:01:07.277Z</time></trkpt>
      <trkpt lat="24.988771" lon="104.920819"><time>2026-04-25T09:01:07.294Z</time></trkpt>
      <trkpt lat="24.988771" lon="104.920819"><time>2026-04-25T09:01:07.311Z</time></trkpt>
      <trkpt lat="24.988771" lon="104.920819"><time>2026-04-25T09:01:07.327Z</time></trkpt>
      <trkpt lat="24.988792" lon="104.920815"><time>2026-04-25T09:01:07.344Z</time></trkpt>
      <trkpt lat="24.988792" lon="104.920815"><time>2026-04-25T09:01:07.361Z</time></trkpt>
      <trkpt lat="24.988792" lon="104.920815"><time>2026-04-25T09:01:07.377Z</time></trkpt>
      <trkpt lat="24.988792" lon="104.920815"><time>2026-04-25T09:01:07.394Z</time></trkpt>
      <trkpt lat="24.988792" lon="104.920815"><time>2026-04-25T09:01:07.411Z</time></trkpt>
      <trkpt lat="24.988792" lon="104.920815"><time>2026-04-25T09:01:07.427Z</time></trkpt>
      <trkpt lat="24.988813" lon="104.9208"><time>2026-04-25T09:01:07.444Z</time></trkpt>
      <trkpt lat="24.988813" lon="104.9208"><time>2026-04-25T09:01:07.461Z</time></trkpt>
      <trkpt lat="24.988813" lon="104.9208"><time>2026-04-25T09:01:07.477Z</time></trkpt>
      <trkpt lat="24.988813" lon="104.9208"><time>2026-04-25T09:01:07.494Z</time></trkpt>
      <trkpt lat="24.988813" lon="104.9208"><time>2026-04-25T09:01:07.511Z</time></trkpt>
      <trkpt lat="24.988813" lon="104.9208"><time>2026-04-25T09:01:07.528Z</time></trkpt>
      <trkpt lat="24.988835" lon="104.920796"><time>2026-04-25T09:01:07.544Z</time></trkpt>
      <trkpt lat="24.988835" lon="104.920796"><time>2026-04-25T09:01:07.561Z</time></trkpt>
      <trkpt lat="24.988835" lon="104.920796"><time>2026-04-25T09:01:07.578Z</time></trkpt>
      <trkpt lat="24.988835" lon="104.920796"><time>2026-04-25T09:01:07.594Z</time></trkpt>
      <trkpt lat="24.988835" lon="104.920796"><time>2026-04-25T09:01:07.611Z</time></trkpt>
      <trkpt lat="24.988835" lon="104.920796"><time>2026-04-25T09:01:07.628Z</time></trkpt>
      <trkpt lat="24.988857" lon="104.920792"><time>2026-04-25T09:01:07.644Z</time></trkpt>
      <trkpt lat="24.988857" lon="104.920792"><time>2026-04-25T09:01:07.661Z</time></trkpt>
      <trkpt lat="24.988857" lon="104.920792"><time>2026-04-25T09:01:07.678Z</time></trkpt>
      <trkpt lat="24.988857" lon="104.920792"><time>2026-04-25T09:01:07.694Z</time></trkpt>
      <trkpt lat="24.988857" lon="104.920792"><time>2026-04-25T09:01:07.711Z</time></trkpt>
      <trkpt lat="24.988857" lon="104.920792"><time>2026-04-25T09:01:07.728Z</time></trkpt>
      <trkpt lat="24.988878" lon="104.920788"><time>2026-04-25T09:01:07.744Z</time></trkpt>
      <trkpt lat="24.988878" lon="104.920788"><time>2026-04-25T09:01:07.761Z</time></trkpt>
      <trkpt lat="24.988878" lon="104.920788"><time>2026-04-25T09:01:07.778Z</time></trkpt>
      <trkpt lat="24.988878" lon="104.920788"><time>2026-04-25T09:01:07.794Z</time></trkpt>
      <trkpt lat="24.988878" lon="104.920788"><time>2026-04-25T09:01:07.811Z</time></trkpt>
      <trkpt lat="24.988878" lon="104.920788"><time>2026-04-25T09:01:07.828Z</time></trkpt>
      <trkpt lat="24.9889" lon="104.920784"><time>2026-04-25T09:01:07.845Z</time></trkpt>
      <trkpt lat="24.9889" lon="104.920784"><time>2026-04-25T09:01:07.861Z</time></trkpt>
      <trkpt lat="24.9889" lon="104.920784"><time>2026-04-25T09:01:07.878Z</time></trkpt>
      <trkpt lat="24.9889" lon="104.920784"><time>2026-04-25T09:01:07.895Z</time></trkpt>
      <trkpt lat="24.9889" lon="104.920784"><time>2026-04-25T09:01:07.911Z</time></trkpt>
      <trkpt lat="24.9889" lon="104.920784"><time>2026-04-25T09:01:07.928Z</time></trkpt>
      <trkpt lat="24.988922" lon="104.92078"><time>2026-04-25T09:01:07.945Z</time></trkpt>
      <trkpt lat="24.988922" lon="104.92078"><time>2026-04-25T09:01:07.961Z</time></trkpt>
      <trkpt lat="24.988922" lon="104.92078"><time>2026-04-25T09:01:07.978Z</time></trkpt>
      <trkpt lat="24.988922" lon="104.92078"><time>2026-04-25T09:01:07.995Z</time></trkpt>
      <trkpt lat="24.988922" lon="104.92078"><time>2026-04-25T09:01:08.011Z</time></trkpt>
      <trkpt lat="24.988922" lon="104.92078"><time>2026-04-25T09:01:08.028Z</time></trkpt>
      <trkpt lat="24.988944" lon="104.920776"><time>2026-04-25T09:01:08.045Z</time></trkpt>
      <trkpt lat="24.988944" lon="104.920776"><time>2026-04-25T09:01:08.061Z</time></trkpt>
      <trkpt lat="24.988944" lon="104.920776"><time>2026-04-25T09:01:08.078Z</time></trkpt>
      <trkpt lat="24.988944" lon="104.920776"><time>2026-04-25T09:01:08.095Z</time></trkpt>
      <trkpt lat="24.988944" lon="104.920776"><time>2026-04-25T09:01:08.111Z</time></trkpt>
      <trkpt lat="24.988944" lon="104.920776"><time>2026-04-25T09:01:08.128Z</time></trkpt>
      <trkpt lat="24.988966" lon="104.920773"><time>2026-04-25T09:01:08.145Z</time></trkpt>
      <trkpt lat="24.988966" lon="104.920773"><time>2026-04-25T09:01:08.162Z</time></trkpt>
      <trkpt lat="24.988966" lon="104.920773"><time>2026-04-25T09:01:08.178Z</time></trkpt>
      <trkpt lat="24.988966" lon="104.920773"><time>2026-04-25T09:01:08.195Z</time></trkpt>
      <trkpt lat="24.988966" lon="104.920773"><time>2026-04-25T09:01:08.212Z</time></trkpt>
      <trkpt lat="24.988966" lon="104.920773"><time>2026-04-25T09:01:08.228Z</time></trkpt>
      <trkpt lat="24.988988" lon="104.920769"><time>2026-04-25T09:01:08.245Z</time></trkpt>
      <trkpt lat="24.988988" lon="104.920769"><time>2026-04-25T09:01:08.262Z</time></trkpt>
      <trkpt lat="24.988988" lon="104.920769"><time>2026-04-25T09:01:08.278Z</time></trkpt>
      <trkpt lat="24.988988" lon="104.920769"><time>2026-04-25T09:01:08.295Z</time></trkpt>
      <trkpt lat="24.988988" lon="104.920769"><time>2026-04-25T09:01:08.312Z</time></trkpt>
      <trkpt lat="24.988988" lon="104.920769"><time>2026-04-25T09:01:08.328Z</time></trkpt>
      <trkpt lat="24.98901" lon="104.920765"><time>2026-04-25T09:01:08.345Z</time></trkpt>
      <trkpt lat="24.98901" lon="104.920765"><time>2026-04-25T09:01:08.362Z</time></trkpt>
      <trkpt lat="24.98901" lon="104.920765"><time>2026-04-25T09:01:08.378Z</time></trkpt>
      <trkpt lat="24.98901" lon="104.920765"><time>2026-04-25T09:01:08.395Z</time></trkpt>
      <trkpt lat="24.98901" lon="104.920765"><time>2026-04-25T09:01:08.412Z</time></trkpt>
      <trkpt lat="24.98901" lon="104.920765"><time>2026-04-25T09:01:08.428Z</time></trkpt>
      <trkpt lat="24.98903" lon="104.920761"><time>2026-04-25T09:01:08.445Z</time></trkpt>
      <trkpt lat="24.98903" lon="104.920761"><time>2026-04-25T09:01:08.462Z</time></trkpt>
      <trkpt lat="24.98903" lon="104.920761"><time>2026-04-25T09:01:08.479Z</time></trkpt>
      <trkpt lat="24.98903" lon="104.920761"><time>2026-04-25T09:01:08.495Z</time></trkpt>
      <trkpt lat="24.98903" lon="104.920761"><time>2026-04-25T09:01:08.512Z</time></trkpt>
      <trkpt lat="24.98903" lon="104.920761"><time>2026-04-25T09:01:08.529Z</time></trkpt>
      <trkpt lat="24.989053" lon="104.920757"><time>2026-04-25T09:01:08.545Z</time></trkpt>
      <trkpt lat="24.989053" lon="104.920757"><time>2026-04-25T09:01:08.562Z</time></trkpt>
      <trkpt lat="24.989053" lon="104.920757"><time>2026-04-25T09:01:08.579Z</time></trkpt>
      <trkpt lat="24.989053" lon="104.920757"><time>2026-04-25T09:01:08.595Z</time></trkpt>
      <trkpt lat="24.989053" lon="104.920757"><time>2026-04-25T09:01:08.612Z</time></trkpt>
      <trkpt lat="24.989053" lon="104.920757"><time>2026-04-25T09:01:08.629Z</time></trkpt>
      <trkpt lat="24.989075" lon="104.920753"><time>2026-04-25T09:01:08.645Z</time></trkpt>
      <trkpt lat="24.989075" lon="104.920753"><time>2026-04-25T09:01:08.662Z</time></trkpt>
      <trkpt lat="24.989075" lon="104.920753"><time>2026-04-25T09:01:08.679Z</time></trkpt>
      <trkpt lat="24.989075" lon="104.920753"><time>2026-04-25T09:01:08.695Z</time></trkpt>
      <trkpt lat="24.989075" lon="104.920753"><time>2026-04-25T09:01:08.712Z</time></trkpt>
      <trkpt lat="24.989075" lon="104.920753"><time>2026-04-25T09:01:08.729Z</time></trkpt>
      <trkpt lat="24.989097" lon="104.920749"><time>2026-04-25T09:01:08.745Z</time></trkpt>
      <trkpt lat="24.989097" lon="104.920749"><time>2026-04-25T09:01:08.762Z</time></trkpt>
      <trkpt lat="24.989097" lon="104.920749"><time>2026-04-25T09:01:08.779Z</time></trkpt>
      <trkpt lat="24.989097" lon="104.920749"><time>2026-04-25T09:01:08.796Z</time></trkpt>
      <trkpt lat="24.989097" lon="104.920749"><time>2026-04-25T09:01:08.812Z</time></trkpt>
      <trkpt lat="24.989097" lon="104.920749"><time>2026-04-25T09:01:08.829Z</time></trkpt>
      <trkpt lat="24.989119" lon="104.920745"><time>2026-04-25T09:01:08.846Z</time></trkpt>
      <trkpt lat="24.989119" lon="104.920745"><time>2026-04-25T09:01:08.862Z</time></trkpt>
      <trkpt lat="24.989119" lon="104.920745"><time>2026-04-25T09:01:08.879Z</time></trkpt>
      <trkpt lat="24.989119" lon="104.920745"><time>2026-04-25T09:01:08.896Z</time></trkpt>
      <trkpt lat="24.989119" lon="104.920745"><time>2026-04-25T09:01:08.912Z</time></trkpt>
      <trkpt lat="24.989119" lon="104.920745"><time>2026-04-25T09:01:08.929Z</time></trkpt>
      <trkpt lat="24.989141" lon="104.920741"><time>2026-04-25T09:01:08.946Z</time></trkpt>
      <trkpt lat="24.989141" lon="104.920741"><time>2026-04-25T09:01:08.962Z</time></trkpt>
      <trkpt lat="24.989141" lon="104.920741"><time>2026-04-25T09:01:08.979Z</time></trkpt>
      <trkpt lat="24.989141" lon="104.920741"><time>2026-04-25T09:01:08.996Z</time></trkpt>
      <trkpt lat="24.989141" lon="104.920741"><time>2026-04-25T09:01:09.012Z</time></trkpt>
      <trkpt lat="24.989141" lon="104.920741"><time>2026-04-25T09:01:09.029Z</time></trkpt>
      <trkpt lat="24.989163" lon="104.920737"><time>2026-04-25T09:01:09.046Z</time></trkpt>
      <trkpt lat="24.989163" lon="104.920737"><time>2026-04-25T09:01:09.062Z</time></trkpt>
      <trkpt lat="24.989163" lon="104.920737"><time>2026-04-25T09:01:09.079Z</time></trkpt>
      <trkpt lat="24.989163" lon="104.920737"><time>2026-04-25T09:01:09.096Z</time></trkpt>
      <trkpt lat="24.989163" lon="104.920737"><time>2026-04-25T09:01:09.113Z</time></trkpt>
      <trkpt lat="24.989163" lon="104.920737"><time>2026-04-25T09:01:09.129Z</time></trkpt>
      <trkpt lat="24.989185" lon="104.920733"><time>2026-04-25T09:01:09.146Z</time></trkpt>
      <trkpt lat="24.989185" lon="104.920733"><time>2026-04-25T09:01:09.163Z</time></trkpt>
      <trkpt lat="24.989185" lon="104.920733"><time>2026-04-25T09:01:09.179Z</time></trkpt>
      <trkpt lat="24.989185" lon="104.920733"><time>2026-04-25T09:01:09.196Z</time></trkpt>
      <trkpt lat="24.989185" lon="104.920733"><time>2026-04-25T09:01:09.213Z</time></trkpt>
      <trkpt lat="24.989185" lon="104.920733"><time>2026-04-25T09:01:09.229Z</time></trkpt>
      <trkpt lat="24.989207" lon="104.920729"><time>2026-04-25T09:01:09.246Z</time></trkpt>
      <trkpt lat="24.989207" lon="104.920729"><time>2026-04-25T09:01:09.263Z</time></trkpt>
      <trkpt lat="24.989207" lon="104.920729"><time>2026-04-25T09:01:09.279Z</time></trkpt>
      <trkpt lat="24.989207" lon="104.920729"><time>2026-04-25T09:01:09.296Z</time></trkpt>
      <trkpt lat="24.989207" lon="104.920729"><time>2026-04-25T09:01:09.313Z</time></trkpt>
      <trkpt lat="24.989207" lon="104.920729"><time>2026-04-25T09:01:09.329Z</time></trkpt>
      <trkpt lat="24.989229" lon="104.920725"><time>2026-04-25T09:01:09.346Z</time></trkpt>
      <trkpt lat="24.989229" lon="104.920725"><time>2026-04-25T09:01:09.363Z</time></trkpt>
      <trkpt lat="24.989229" lon="104.920725"><time>2026-04-25T09:01:09.379Z</time></trkpt>
      <trkpt lat="24.989229" lon="104.920725"><time>2026-04-25T09:01:09.396Z</time></trkpt>
      <trkpt lat="24.989229" lon="104.920725"><time>2026-04-25T09:01:09.413Z</time></trkpt>
      <trkpt lat="24.989229" lon="104.920725"><time>2026-04-25T09:01:09.430Z</time></trkpt>
      <trkpt lat="24.989249" lon="104.920715"><time>2026-04-25T09:01:09.446Z</time></trkpt>
      <trkpt lat="24.989249" lon="104.920715"><time>2026-04-25T09:01:09.463Z</time></trkpt>
      <trkpt lat="24.989249" lon="104.920715"><time>2026-04-25T09:01:09.480Z</time></trkpt>
      <trkpt lat="24.989249" lon="104.920715"><time>2026-04-25T09:01:09.496Z</time></trkpt>
      <trkpt lat="24.989249" lon="104.920715"><time>2026-04-25T09:01:09.513Z</time></trkpt>
      <trkpt lat="24.989249" lon="104.920715"><time>2026-04-25T09:01:09.530Z</time></trkpt>
      <trkpt lat="24.989273" lon="104.920711"><time>2026-04-25T09:01:09.546Z</time></trkpt>
      <trkpt lat="24.989273" lon="104.920711"><time>2026-04-25T09:01:09.563Z</time></trkpt>
      <trkpt lat="24.989273" lon="104.920711"><time>2026-04-25T09:01:09.580Z</time></trkpt>
      <trkpt lat="24.989273" lon="104.920711"><time>2026-04-25T09:01:09.596Z</time></trkpt>
      <trkpt lat="24.989273" lon="104.920711"><time>2026-04-25T09:01:09.613Z</time></trkpt>
      <trkpt lat="24.989273" lon="104.920711"><time>2026-04-25T09:01:09.630Z</time></trkpt>
      <trkpt lat="24.989295" lon="104.920707"><time>2026-04-25T09:01:09.646Z</time></trkpt>
      <trkpt lat="24.989295" lon="104.920707"><time>2026-04-25T09:01:09.663Z</time></trkpt>
      <trkpt lat="24.989295" lon="104.920707"><time>2026-04-25T09:01:09.680Z</time></trkpt>
      <trkpt lat="24.989295" lon="104.920707"><time>2026-04-25T09:01:09.696Z</time></trkpt>
      <trkpt lat="24.989295" lon="104.920707"><time>2026-04-25T09:01:09.713Z</time></trkpt>
      <trkpt lat="24.989295" lon="104.920707"><time>2026-04-25T09:01:09.730Z</time></trkpt>
      <trkpt lat="24.989317" lon="104.920703"><time>2026-04-25T09:01:09.747Z</time></trkpt>
      <trkpt lat="24.989317" lon="104.920703"><time>2026-04-25T09:01:09.763Z</time></trkpt>
      <trkpt lat="24.989317" lon="104.920703"><time>2026-04-25T09:01:09.780Z</time></trkpt>
      <trkpt lat="24.989317" lon="104.920703"><time>2026-04-25T09:01:09.797Z</time></trkpt>
      <trkpt lat="24.989317" lon="104.920703"><time>2026-04-25T09:01:09.813Z</time></trkpt>
      <trkpt lat="24.989317" lon="104.920703"><time>2026-04-25T09:01:09.830Z</time></trkpt>
      <trkpt lat="24.989339" lon="104.920699"><time>2026-04-25T09:01:09.847Z</time></trkpt>
      <trkpt lat="24.989339" lon="104.920699"><time>2026-04-25T09:01:09.863Z</time></trkpt>
      <trkpt lat="24.989339" lon="104.920699"><time>2026-04-25T09:01:09.880Z</time></trkpt>
      <trkpt lat="24.989339" lon="104.920699"><time>2026-04-25T09:01:09.897Z</time></trkpt>
      <trkpt lat="24.989339" lon="104.920699"><time>2026-04-25T09:01:09.913Z</time></trkpt>
      <trkpt lat="24.989339" lon="104.920699"><time>2026-04-25T09:01:09.930Z</time></trkpt>
      <trkpt lat="24.989361" lon="104.920695"><time>2026-04-25T09:01:09.947Z</time></trkpt>
      <trkpt lat="24.989361" lon="104.920695"><time>2026-04-25T09:01:09.963Z</time></trkpt>
      <trkpt lat="24.989361" lon="104.920695"><time>2026-04-25T09:01:09.980Z</time></trkpt>
      <trkpt lat="24.989361" lon="104.920695"><time>2026-04-25T09:01:09.997Z</time></trkpt>
      <trkpt lat="24.989361" lon="104.920695"><time>2026-04-25T09:01:10.013Z</time></trkpt>
      <trkpt lat="24.989361" lon="104.920695"><time>2026-04-25T09:01:10.030Z</time></trkpt>
      <trkpt lat="24.989383" lon="104.920691"><time>2026-04-25T09:01:10.047Z</time></trkpt>
      <trkpt lat="24.989383" lon="104.920691"><time>2026-04-25T09:01:10.063Z</time></trkpt>
      <trkpt lat="24.989383" lon="104.920691"><time>2026-04-25T09:01:10.080Z</time></trkpt>
      <trkpt lat="24.989383" lon="104.920691"><time>2026-04-25T09:01:10.097Z</time></trkpt>
      <trkpt lat="24.989383" lon="104.920691"><time>2026-04-25T09:01:10.114Z</time></trkpt>
      <trkpt lat="24.989405" lon="104.920687"><time>2026-04-25T09:01:10.130Z</time></trkpt>
      <trkpt lat="24.989405" lon="104.920687"><time>2026-04-25T09:01:10.147Z</time></trkpt>
      <trkpt lat="24.989405" lon="104.920687"><time>2026-04-25T09:01:10.164Z</time></trkpt>
      <trkpt lat="24.989405" lon="104.920687"><time>2026-04-25T09:01:10.180Z</time></trkpt>
      <trkpt lat="24.989405" lon="104.920687"><time>2026-04-25T09:01:10.197Z</time></trkpt>
      <trkpt lat="24.989405" lon="104.920687"><time>2026-04-25T09:01:10.214Z</time></trkpt>
      <trkpt lat="24.989427" lon="104.920683"><time>2026-04-25T09:01:10.230Z</time></trkpt>
      <trkpt lat="24.989427" lon="104.920683"><time>2026-04-25T09:01:10.247Z</time></trkpt>
      <trkpt lat="24.989427" lon="104.920683"><time>2026-04-25T09:01:10.264Z</time></trkpt>
      <trkpt lat="24.989427" lon="104.920683"><time>2026-04-25T09:01:10.280Z</time></trkpt>
      <trkpt lat="24.989427" lon="104.920683"><time>2026-04-25T09:01:10.297Z</time></trkpt>
      <trkpt lat="24.989427" lon="104.920683"><time>2026-04-25T09:01:10.314Z</time></trkpt>
      <trkpt lat="24.989427" lon="104.920683"><time>2026-04-25T09:01:10.330Z</time></trkpt>
      <trkpt lat="24.989449" lon="104.920679"><time>2026-04-25T09:01:10.347Z</time></trkpt>
      <trkpt lat="24.989449" lon="104.920679"><time>2026-04-25T09:01:10.364Z</time></trkpt>
      <trkpt lat="24.989449" lon="104.920679"><time>2026-04-25T09:01:10.380Z</time></trkpt>
      <trkpt lat="24.989449" lon="104.920679"><time>2026-04-25T09:01:10.397Z</time></trkpt>
      <trkpt lat="24.989449" lon="104.920679"><time>2026-04-25T09:01:10.414Z</time></trkpt>
      <trkpt lat="24.989472" lon="104.920675"><time>2026-04-25T09:01:10.431Z</time></trkpt>
      <trkpt lat="24.989472" lon="104.920675"><time>2026-04-25T09:01:10.447Z</time></trkpt>
      <trkpt lat="24.989472" lon="104.920675"><time>2026-04-25T09:01:10.464Z</time></trkpt>
      <trkpt lat="24.989472" lon="104.920675"><time>2026-04-25T09:01:10.481Z</time></trkpt>
      <trkpt lat="24.989472" lon="104.920675"><time>2026-04-25T09:01:10.497Z</time></trkpt>
      <trkpt lat="24.989472" lon="104.920675"><time>2026-04-25T09:01:10.514Z</time></trkpt>
      <trkpt lat="24.989494" lon="104.920671"><time>2026-04-25T09:01:10.531Z</time></trkpt>
      <trkpt lat="24.989494" lon="104.920671"><time>2026-04-25T09:01:10.547Z</time></trkpt>
      <trkpt lat="24.989494" lon="104.920671"><time>2026-04-25T09:01:10.564Z</time></trkpt>
      <trkpt lat="24.989494" lon="104.920671"><time>2026-04-25T09:01:10.581Z</time></trkpt>
      <trkpt lat="24.989494" lon="104.920671"><time>2026-04-25T09:01:10.597Z</time></trkpt>
      <trkpt lat="24.989494" lon="104.920671"><time>2026-04-25T09:01:10.614Z</time></trkpt>
      <trkpt lat="24.989516" lon="104.920667"><time>2026-04-25T09:01:10.631Z</time></trkpt>
      <trkpt lat="24.989516" lon="104.920667"><time>2026-04-25T09:01:10.647Z</time></trkpt>
      <trkpt lat="24.989516" lon="104.920667"><time>2026-04-25T09:01:10.664Z</time></trkpt>
      <trkpt lat="24.989516" lon="104.920667"><time>2026-04-25T09:01:10.681Z</time></trkpt>
      <trkpt lat="24.989516" lon="104.920667"><time>2026-04-25T09:01:10.697Z</time></trkpt>
      <trkpt lat="24.989516" lon="104.920667"><time>2026-04-25T09:01:10.714Z</time></trkpt>
      <trkpt lat="24.989538" lon="104.920663"><time>2026-04-25T09:01:10.731Z</time></trkpt>
      <trkpt lat="24.989538" lon="104.920663"><time>2026-04-25T09:01:10.748Z</time></trkpt>
      <trkpt lat="24.989538" lon="104.920663"><time>2026-04-25T09:01:10.764Z</time></trkpt>
      <trkpt lat="24.989538" lon="104.920663"><time>2026-04-25T09:01:10.781Z</time></trkpt>
      <trkpt lat="24.989538" lon="104.920663"><time>2026-04-25T09:01:10.798Z</time></trkpt>
      <trkpt lat="24.989538" lon="104.920663"><time>2026-04-25T09:01:10.814Z</time></trkpt>
      <trkpt lat="24.98956" lon="104.920659"><time>2026-04-25T09:01:10.831Z</time></trkpt>
      <trkpt lat="24.98956" lon="104.920659"><time>2026-04-25T09:01:10.848Z</time></trkpt>
      <trkpt lat="24.98956" lon="104.920659"><time>2026-04-25T09:01:10.864Z</time></trkpt>
      <trkpt lat="24.98956" lon="104.920659"><time>2026-04-25T09:01:10.881Z</time></trkpt>
      <trkpt lat="24.98956" lon="104.920659"><time>2026-04-25T09:01:10.898Z</time></trkpt>
      <trkpt lat="24.98956" lon="104.920659"><time>2026-04-25T09:01:10.914Z</time></trkpt>
      <trkpt lat="24.989582" lon="104.920655"><time>2026-04-25T09:01:10.931Z</time></trkpt>
      <trkpt lat="24.989582" lon="104.920655"><time>2026-04-25T09:01:10.948Z</time></trkpt>
      <trkpt lat="24.989582" lon="104.920655"><time>2026-04-25T09:01:10.964Z</time></trkpt>
      <trkpt lat="24.989582" lon="104.920655"><time>2026-04-25T09:01:10.981Z</time></trkpt>
      <trkpt lat="24.989582" lon="104.920655"><time>2026-04-25T09:01:10.998Z</time></trkpt>
      <trkpt lat="24.989582" lon="104.920655"><time>2026-04-25T09:01:11.014Z</time></trkpt>
      <trkpt lat="24.989582" lon="104.920655"><time>2026-04-25T09:01:11.031Z</time></trkpt>
      <trkpt lat="24.989604" lon="104.920651"><time>2026-04-25T09:01:11.048Z</time></trkpt>
      <trkpt lat="24.989604" lon="104.920651"><time>2026-04-25T09:01:11.065Z</time></trkpt>
      <trkpt lat="24.989604" lon="104.920651"><time>2026-04-25T09:01:11.081Z</time></trkpt>
      <trkpt lat="24.989604" lon="104.920651"><time>2026-04-25T09:01:11.098Z</time></trkpt>
      <trkpt lat="24.989604" lon="104.920651"><time>2026-04-25T09:01:11.115Z</time></trkpt>
      <trkpt lat="24.989626" lon="104.920647"><time>2026-04-25T09:01:11.131Z</time></trkpt>
      <trkpt lat="24.989626" lon="104.920647"><time>2026-04-25T09:01:11.148Z</time></trkpt>
      <trkpt lat="24.989626" lon="104.920647"><time>2026-04-25T09:01:11.165Z</time></trkpt>
      <trkpt lat="24.989626" lon="104.920647"><time>2026-04-25T09:01:11.181Z</time></trkpt>
      <trkpt lat="24.989626" lon="104.920647"><time>2026-04-25T09:01:11.198Z</time></trkpt>
      <trkpt lat="24.989626" lon="104.920647"><time>2026-04-25T09:01:11.215Z</time></trkpt>
      <trkpt lat="24.989649" lon="104.920643"><time>2026-04-25T09:01:11.231Z</time></trkpt>
      <trkpt lat="24.989649" lon="104.920643"><time>2026-04-25T09:01:11.248Z</time></trkpt>
      <trkpt lat="24.989649" lon="104.920643"><time>2026-04-25T09:01:11.265Z</time></trkpt>
      <trkpt lat="24.989649" lon="104.920643"><time>2026-04-25T09:01:11.281Z</time></trkpt>
      <trkpt lat="24.989649" lon="104.920643"><time>2026-04-25T09:01:11.298Z</time></trkpt>
      <trkpt lat="24.989649" lon="104.920643"><time>2026-04-25T09:01:11.315Z</time></trkpt>
      <trkpt lat="24.989671" lon="104.920639"><time>2026-04-25T09:01:11.331Z</time></trkpt>
      <trkpt lat="24.989671" lon="104.920639"><time>2026-04-25T09:01:11.348Z</time></trkpt>
      <trkpt lat="24.989671" lon="104.920639"><time>2026-04-25T09:01:11.365Z</time></trkpt>
      <trkpt lat="24.989671" lon="104.920639"><time>2026-04-25T09:01:11.382Z</time></trkpt>
      <trkpt lat="24.989671" lon="104.920639"><time>2026-04-25T09:01:11.398Z</time></trkpt>
      <trkpt lat="24.989671" lon="104.920639"><time>2026-04-25T09:01:11.415Z</time></trkpt>
      <trkpt lat="24.989693" lon="104.920635"><time>2026-04-25T09:01:11.432Z</time></trkpt>
      <trkpt lat="24.989693" lon="104.920635"><time>2026-04-25T09:01:11.448Z</time></trkpt>
      <trkpt lat="24.989693" lon="104.920635"><time>2026-04-25T09:01:11.465Z</time></trkpt>
      <trkpt lat="24.989693" lon="104.920635"><time>2026-04-25T09:01:11.482Z</time></trkpt>
      <trkpt lat="24.989693" lon="104.920635"><time>2026-04-25T09:01:11.498Z</time></trkpt>
      <trkpt lat="24.989693" lon="104.920635"><time>2026-04-25T09:01:11.515Z</time></trkpt>
      <trkpt lat="24.989715" lon="104.920631"><time>2026-04-25T09:01:11.532Z</time></trkpt>
      <trkpt lat="24.989715" lon="104.920631"><time>2026-04-25T09:01:11.548Z</time></trkpt>
      <trkpt lat="24.989715" lon="104.920631"><time>2026-04-25T09:01:11.565Z</time></trkpt>
      <trkpt lat="24.989715" lon="104.920631"><time>2026-04-25T09:01:11.582Z</time></trkpt>
      <trkpt lat="24.989715" lon="104.920631"><time>2026-04-25T09:01:11.598Z</time></trkpt>
      <trkpt lat="24.989715" lon="104.920631"><time>2026-04-25T09:01:11.615Z</time></trkpt>
      <trkpt lat="24.989737" lon="104.920627"><time>2026-04-25T09:01:11.632Z</time></trkpt>
      <trkpt lat="24.989737" lon="104.920627"><time>2026-04-25T09:01:11.648Z</time></trkpt>
      <trkpt lat="24.989737" lon="104.920627"><time>2026-04-25T09:01:11.665Z</time></trkpt>
      <trkpt lat="24.989737" lon="104.920627"><time>2026-04-25T09:01:11.682Z</time></trkpt>
      <trkpt lat="24.989737" lon="104.920627"><time>2026-04-25T09:01:11.699Z</time></trkpt>
      <trkpt lat="24.989737" lon="104.920627"><time>2026-04-25T09:01:11.715Z</time></trkpt>
      <trkpt lat="24.98976" lon="104.920622"><time>2026-04-25T09:01:11.732Z</time></trkpt>
      <trkpt lat="24.98976" lon="104.920622"><time>2026-04-25T09:01:11.749Z</time></trkpt>
      <trkpt lat="24.98976" lon="104.920622"><time>2026-04-25T09:01:11.765Z</time></trkpt>
      <trkpt lat="24.98976" lon="104.920622"><time>2026-04-25T09:01:11.782Z</time></trkpt>
      <trkpt lat="24.98976" lon="104.920622"><time>2026-04-25T09:01:11.799Z</time></trkpt>
      <trkpt lat="24.98976" lon="104.920622"><time>2026-04-25T09:01:11.815Z</time></trkpt>
      <trkpt lat="24.989782" lon="104.920618"><time>2026-04-25T09:01:11.832Z</time></trkpt>
      <trkpt lat="24.989782" lon="104.920618"><time>2026-04-25T09:01:11.849Z</time></trkpt>
      <trkpt lat="24.989782" lon="104.920618"><time>2026-04-25T09:01:11.865Z</time></trkpt>
      <trkpt lat="24.989782" lon="104.920618"><time>2026-04-25T09:01:11.882Z</time></trkpt>
      <trkpt lat="24.989782" lon="104.920618"><time>2026-04-25T09:01:11.899Z</time></trkpt>
      <trkpt lat="24.989782" lon="104.920618"><time>2026-04-25T09:01:11.915Z</time></trkpt>
      <trkpt lat="24.989804" lon="104.920614"><time>2026-04-25T09:01:11.932Z</time></trkpt>
      <trkpt lat="24.989804" lon="104.920614"><time>2026-04-25T09:01:11.949Z</time></trkpt>
      <trkpt lat="24.989804" lon="104.920614"><time>2026-04-25T09:01:11.965Z</time></trkpt>
      <trkpt lat="24.989804" lon="104.920614"><time>2026-04-25T09:01:11.982Z</time></trkpt>
      <trkpt lat="24.989804" lon="104.920614"><time>2026-04-25T09:01:11.999Z</time></trkpt>
      <trkpt lat="24.989804" lon="104.920614"><time>2026-04-25T09:01:12.016Z</time></trkpt>
      <trkpt lat="24.989826" lon="104.92061"><time>2026-04-25T09:01:12.032Z</time></trkpt>
      <trkpt lat="24.989826" lon="104.92061"><time>2026-04-25T09:01:12.049Z</time></trkpt>
      <trkpt lat="24.989826" lon="104.92061"><time>2026-04-25T09:01:12.066Z</time></trkpt>
      <trkpt lat="24.989826" lon="104.92061"><time>2026-04-25T09:01:12.082Z</time></trkpt>
      <trkpt lat="24.989826" lon="104.92061"><time>2026-04-25T09:01:12.099Z</time></trkpt>
      <trkpt lat="24.989826" lon="104.92061"><time>2026-04-25T09:01:12.116Z</time></trkpt>
      <trkpt lat="24.989848" lon="104.920606"><time>2026-04-25T09:01:12.132Z</time></trkpt>
      <trkpt lat="24.989848" lon="104.920606"><time>2026-04-25T09:01:12.149Z</time></trkpt>
      <trkpt lat="24.989848" lon="104.920606"><time>2026-04-25T09:01:12.166Z</time></trkpt>
      <trkpt lat="24.989848" lon="104.920606"><time>2026-04-25T09:01:12.182Z</time></trkpt>
      <trkpt lat="24.989848" lon="104.920606"><time>2026-04-25T09:01:12.199Z</time></trkpt>
      <trkpt lat="24.989848" lon="104.920606"><time>2026-04-25T09:01:12.216Z</time></trkpt>
      <trkpt lat="24.98987" lon="104.920596"><time>2026-04-25T09:01:12.232Z</time></trkpt>
      <trkpt lat="24.98987" lon="104.920596"><time>2026-04-25T09:01:12.249Z</time></trkpt>
      <trkpt lat="24.98987" lon="104.920596"><time>2026-04-25T09:01:12.266Z</time></trkpt>
      <trkpt lat="24.98987" lon="104.920596"><time>2026-04-25T09:01:12.282Z</time></trkpt>
      <trkpt lat="24.98987" lon="104.920596"><time>2026-04-25T09:01:12.299Z</time></trkpt>
      <trkpt lat="24.98987" lon="104.920596"><time>2026-04-25T09:01:12.316Z</time></trkpt>
      <trkpt lat="24.989893" lon="104.920592"><time>2026-04-25T09:01:12.333Z</time></trkpt>
      <trkpt lat="24.989893" lon="104.920592"><time>2026-04-25T09:01:12.349Z</time></trkpt>
      <trkpt lat="24.989893" lon="104.920592"><time>2026-04-25T09:01:12.366Z</time></trkpt>
      <trkpt lat="24.989893" lon="104.920592"><time>2026-04-25T09:01:12.383Z</time></trkpt>
      <trkpt lat="24.989893" lon="104.920592"><time>2026-04-25T09:01:12.399Z</time></trkpt>
      <trkpt lat="24.989893" lon="104.920592"><time>2026-04-25T09:01:12.416Z</time></trkpt>
      <trkpt lat="24.989915" lon="104.920588"><time>2026-04-25T09:01:12.433Z</time></trkpt>
      <trkpt lat="24.989915" lon="104.920588"><time>2026-04-25T09:01:12.449Z</time></trkpt>
    </trkseg>
  </trk>
</gpx>
