<?xml version="1.0" encoding="UTF-8"?>
<gpx version="1.1" creator="Kairos" xmlns="http://www.topografix.com/GPX/1/1">
  <trk>
    <name>sidecar-srt-9e231e8ec487f98c</name>
    <trkseg>
      <trkpt lat="26.288964" lon="98.871507"><time>2026-04-27T10:22:46.000Z</time></trkpt>
      <trkpt lat="26.288964" lon="98.871507"><time>2026-04-27T10:22:46.016Z</time></trkpt>
      <trkpt lat="26.288964" lon="98.871507"><time>2026-04-27T10:22:46.032Z</time></trkpt>
      <trkpt lat="26.288965" lon="98.871509"><time>2026-04-27T10:22:46.049Z</time></trkpt>
      <trkpt lat="26.288965" lon="98.871509"><time>2026-04-27T10:22:46.066Z</time></trkpt>
      <trkpt lat="26.288965" lon="98.871509"><time>2026-04-27T10:22:46.082Z</time></trkpt>
      <trkpt lat="26.288965" lon="98.871509"><time>2026-04-27T10:22:46.099Z</time></trkpt>
      <trkpt lat="26.288965" lon="98.871509"><time>2026-04-27T10:22:46.116Z</time></trkpt>
      <trkpt lat="26.288965" lon="98.871509"><time>2026-04-27T10:22:46.132Z</time></trkpt>
      <trkpt lat="26.288966" lon="98.87151"><time>2026-04-27T10:22:46.149Z</time></trkpt>
      <trkpt lat="26.288966" lon="98.87151"><time>2026-04-27T10:22:46.166Z</time></trkpt>
      <trkpt lat="26.288966" lon="98.87151"><time>2026-04-27T10:22:46.182Z</time></trkpt>
      <trkpt lat="26.288966" lon="98.87151"><time>2026-04-27T10:22:46.199Z</time></trkpt>
      <trkpt lat="26.288966" lon="98.87151"><time>2026-04-27T10:22:46.216Z</time></trkpt>
      <trkpt lat="26.288966" lon="98.87151"><time>2026-04-27T10:22:46.232Z</time></trkpt>
      <trkpt lat="26.288967" lon="98.871511"><time>2026-04-27T10:22:46.249Z</time></trkpt>
      <trkpt lat="26.288967" lon="98.871511"><time>2026-04-27T10:22:46.266Z</time></trkpt>
      <trkpt lat="26.288967" lon="98.871511"><time>2026-04-27T10:22:46.282Z</time></trkpt>
      <trkpt lat="26.288967" lon="98.871511"><time>2026-04-27T10:22:46.299Z</time></trkpt>
      <trkpt lat="26.288967" lon="98.871511"><time>2026-04-27T10:22:46.316Z</time></trkpt>
      <trkpt lat="26.288967" lon="98.871511"><time>2026-04-27T10:22:46.332Z</time></trkpt>
      <trkpt lat="26.288967" lon="98.871511"><time>2026-04-27T10:22:46.349Z</time></trkpt>
      <trkpt lat="26.288967" lon="98.871511"><time>2026-04-27T10:22:46.366Z</time></trkpt>
      <trkpt lat="26.288967" lon="98.871511"><time>2026-04-27T10:22:46.383Z</time></trkpt>
      <trkpt lat="26.288967" lon="98.871511"><time>2026-04-27T10:22:46.399Z</time></trkpt>
      <trkpt lat="26.288967" lon="98.871511"><time>2026-04-27T10:22:46.416Z</time></trkpt>
      <trkpt lat="26.288967" lon="98.871511"><time>2026-04-27T10:22:46.433Z</time></trkpt>
      <trkpt lat="26.288968" lon="98.871512"><time>2026-04-27T10:22:46.449Z</time></trkpt>
      <trkpt lat="26.288968" lon="98.871512"><time>2026-04-27T10:22:46.466Z</time></trkpt>
      <trkpt lat="26.288968" lon="98.871512"><time>2026-04-27T10:22:46.483Z</time></trkpt>
      <trkpt lat="26.288968" lon="98.871512"><time>2026-04-27T10:22:46.499Z</time></trkpt>
      <trkpt lat="26.288968" lon="98.871512"><time>2026-04-27T10:22:46.516Z</time></trkpt>
      <trkpt lat="26.288968" lon="98.871512"><time>2026-04-27T10:22:46.533Z</time></trkpt>
      <trkpt lat="26.288968" lon="98.871512"><time>2026-04-27T10:22:46.549Z</time></trkpt>
      <trkpt lat="26.288968" lon="98.871512"><time>2026-04-27T10:22:46.566Z</time></trkpt>
      <trkpt lat="26.288968" lon="98.871512"><time>2026-04-27T10:22:46.583Z</time></trkpt>
      <trkpt lat="26.288968" lon="98.871512"><time>2026-04-27T10:22:46.599Z</time></trkpt>
      <trkpt lat="26.288968" lon="98.871512"><time>2026-04-27T10:22:46.616Z</time></trkpt>
      <trkpt lat="26.288968" lon="98.871512"><time>2026-04-27T10:22:46.633Z</time></trkpt>
      <trkpt lat="26.288967" lon="98.871512"><time>2026-04-27T10:22:46.649Z</time></trkpt>
      <trkpt lat="26.288967" lon="98.871512"><time>2026-04-27T10:22:46.666Z</time></trkpt>
      <trkpt lat="26.288967" lon="98.871512"><time>2026-04-27T10:22:46.683Z</time></trkpt>
      <trkpt lat="26.288967" lon="98.871512"><time>2026-04-27T10:22:46.700Z</time></trkpt>
      <trkpt lat="26.288967" lon="98.871512"><time>2026-04-27T10:22:46.716Z</time></trkpt>
      <trkpt lat="26.288967" lon="98.871512"><time>2026-04-27T10:22:46.733Z</time></trkpt>
      <trkpt lat="26.288967" lon="98.871512"><time>2026-04-27T10:22:46.750Z</time></trkpt>
      <trkpt lat="26.288967" lon="98.871512"><time>2026-04-27T10:22:46.766Z</time></trkpt>
      <trkpt lat="26.288967" lon="98.871512"><time>2026-04-27T10:22:46.783Z</time></trkpt>
      <trkpt lat="26.288967" lon="98.871512"><time>2026-04-27T10:22:46.800Z</time></trkpt>
      <trkpt lat="26.288967" lon="98.871512"><time>2026-04-27T10:22:46.816Z</time></trkpt>
      <trkpt lat="26.288967" lon="98.871512"><time>2026-04-27T10:22:46.833Z</time></trkpt>
      <trkpt lat="26.288966" lon="98.871512"><time>2026-04-27T10:22:46.850Z</time></trkpt>
      <trkpt lat="26.288966" lon="98.871512"><time>2026-04-27T10:22:46.866Z</time></trkpt>
      <trkpt lat="26.288966" lon="98.871512"><time>2026-04-27T10:22:46.883Z</time></trkpt>
      <trkpt lat="26.288966" lon="98.871512"><time>2026-04-27T10:22:46.900Z</time></trkpt>
      <trkpt lat="26.288966" lon="98.871512"><time>2026-04-27T10:22:46.916Z</time></trkpt>
      <trkpt lat="26.288966" lon="98.871512"><time>2026-04-27T10:22:46.933Z</time></trkpt>
      <trkpt lat="26.288965" lon="98.871511"><time>2026-04-27T10:22:46.950Z</time></trkpt>
      <trkpt lat="26.288965" lon="98.871511"><time>2026-04-27T10:22:46.966Z</time></trkpt>
      <trkpt lat="26.288965" lon="98.871511"><time>2026-04-27T10:22:46.983Z</time></trkpt>
      <trkpt lat="26.288965" lon="98.871511"><time>2026-04-27T10:22:47.000Z</time></trkpt>
      <trkpt lat="26.288965" lon="98.871511"><time>2026-04-27T10:22:47.017Z</time></trkpt>
      <trkpt lat="26.288965" lon="98.871511"><time>2026-04-27T10:22:47.033Z</time></trkpt>
      <trkpt lat="26.288964" lon="98.87151"><time>2026-04-27T10:22:47.050Z</time></trkpt>
      <trkpt lat="26.288964" lon="98.87151"><time>2026-04-27T10:22:47.067Z</time></trkpt>
      <trkpt lat="26.288964" lon="98.87151"><time>2026-04-27T10:22:47.083Z</time></trkpt>
      <trkpt lat="26.288964" lon="98.87151"><time>2026-04-27T10:22:47.100Z</time></trkpt>
      <trkpt lat="26.288964" lon="98.87151"><time>2026-04-27T10:22:47.117Z</time></trkpt>
      <trkpt lat="26.288964" lon="98.87151"><time>2026-04-27T10:22:47.133Z</time></trkpt>
      <trkpt lat="26.288962" lon="98.871509"><time>2026-04-27T10:22:47.150Z</time></trkpt>
      <trkpt lat="26.288962" lon="98.871509"><time>2026-04-27T10:22:47.167Z</time></trkpt>
      <trkpt lat="26.288962" lon="98.871509"><time>2026-04-27T10:22:47.183Z</time></trkpt>
      <trkpt lat="26.288962" lon="98.871509"><time>2026-04-27T10:22:47.200Z</time></trkpt>
      <trkpt lat="26.288962" lon="98.871509"><time>2026-04-27T10:22:47.217Z</time></trkpt>
      <trkpt lat="26.288962" lon="98.871509"><time>2026-04-27T10:22:47.233Z</time></trkpt>
      <trkpt lat="26.288961" lon="98.871508"><time>2026-04-27T10:22:47.250Z</time></trkpt>
      <trkpt lat="26.288961" lon="98.871508"><time>2026-04-27T10:22:47.267Z</time></trkpt>
      <trkpt lat="26.288961" lon="98.871508"><time>2026-04-27T10:22:47.283Z</time></trkpt>
      <trkpt lat="26.288961" lon="98.871508"><time>2026-04-27T10:22:47.300Z</time></trkpt>
      <trkpt lat="26.288961" lon="98.871508"><time>2026-04-27T10:22:47.317Z</time></trkpt>
      <trkpt lat="26.288961" lon="98.871508"><time>2026-04-27T10:22:47.334Z</time></trkpt>
      <trkpt lat="26.288959" lon="98.871507"><time>2026-04-27T10:22:47.350Z</time></trkpt>
      <trkpt lat="26.288959" lon="98.871507"><time>2026-04-27T10:22:47.367Z</time></trkpt>
      <trkpt lat="26.288959" lon="98.871507"><time>2026-04-27T10:22:47.384Z</time></trkpt>
      <trkpt lat="26.288959" lon="98.871507"><time>2026-04-27T10:22:47.400Z</time></trkpt>
      <trkpt lat="26.288959" lon="98.871507"><time>2026-04-27T10:22:47.417Z</time></trkpt>
      <trkpt lat="26.288959" lon="98.871507"><time>2026-04-27T10:22:47.434Z</time></trkpt>
      <trkpt lat="26.288957" lon="98.871505"><time>2026-04-27T10:22:47.450Z</time></trkpt>
      <trkpt lat="26.288957" lon="98.871505"><time>2026-04-27T10:22:47.467Z</time></trkpt>
      <trkpt lat="26.288957" lon="98.871505"><time>2026-04-27T10:22:47.484Z</time></trkpt>
      <trkpt lat="26.288957" lon="98.871505"><time>2026-04-27T10:22:47.500Z</time></trkpt>
      <trkpt lat="26.288957" lon="98.871505"><time>2026-04-27T10:22:47.517Z</time></trkpt>
      <trkpt lat="26.288957" lon="98.871505"><time>2026-04-27T10:22:47.534Z</time></trkpt>
      <trkpt lat="26.288955" lon="98.871503"><time>2026-04-27T10:22:47.550Z</time></trkpt>
      <trkpt lat="26.288955" lon="98.871503"><time>2026-04-27T10:22:47.567Z</time></trkpt>
      <trkpt lat="26.288955" lon="98.871503"><time>2026-04-27T10:22:47.584Z</time></trkpt>
      <trkpt lat="26.288955" lon="98.871503"><time>2026-04-27T10:22:47.600Z</time></trkpt>
      <trkpt lat="26.288955" lon="98.871503"><time>2026-04-27T10:22:47.617Z</time></trkpt>
      <trkpt lat="26.288955" lon="98.871503"><time>2026-04-27T10:22:47.634Z</time></trkpt>
      <trkpt lat="26.288953" lon="98.871502"><time>2026-04-27T10:22:47.651Z</time></trkpt>
      <trkpt lat="26.288953" lon="98.871502"><time>2026-04-27T10:22:47.667Z</time></trkpt>
      <trkpt lat="26.288953" lon="98.871502"><time>2026-04-27T10:22:47.684Z</time></trkpt>
      <trkpt lat="26.288953" lon="98.871502"><time>2026-04-27T10:22:47.701Z</time></trkpt>
      <trkpt lat="26.288953" lon="98.871502"><time>2026-04-27T10:22:47.717Z</time></trkpt>
      <trkpt lat="26.288953" lon="98.871502"><time>2026-04-27T10:22:47.734Z</time></trkpt>
      <trkpt lat="26.288951" lon="98.8715"><time>2026-04-27T10:22:47.751Z</time></trkpt>
      <trkpt lat="26.288951" lon="98.8715"><time>2026-04-27T10:22:47.767Z</time></trkpt>
      <trkpt lat="26.288951" lon="98.8715"><time>2026-04-27T10:22:47.784Z</time></trkpt>
      <trkpt lat="26.288951" lon="98.8715"><time>2026-04-27T10:22:47.801Z</time></trkpt>
      <trkpt lat="26.288951" lon="98.8715"><time>2026-04-27T10:22:47.817Z</time></trkpt>
      <trkpt lat="26.288951" lon="98.8715"><time>2026-04-27T10:22:47.834Z</time></trkpt>
      <trkpt lat="26.288948" lon="98.871498"><time>2026-04-27T10:22:47.851Z</time></trkpt>
      <trkpt lat="26.288948" lon="98.871498"><time>2026-04-27T10:22:47.867Z</time></trkpt>
      <trkpt lat="26.288948" lon="98.871498"><time>2026-04-27T10:22:47.884Z</time></trkpt>
      <trkpt lat="26.288948" lon="98.871498"><time>2026-04-27T10:22:47.901Z</time></trkpt>
      <trkpt lat="26.288948" lon="98.871498"><time>2026-04-27T10:22:47.917Z</time></trkpt>
      <trkpt lat="26.288948" lon="98.871498"><time>2026-04-27T10:22:47.934Z</time></trkpt>
      <trkpt lat="26.288946" lon="98.871495"><time>2026-04-27T10:22:47.951Z</time></trkpt>
      <trkpt lat="26.288946" lon="98.871495"><time>2026-04-27T10:22:47.968Z</time></trkpt>
      <trkpt lat="26.288946" lon="98.871495"><time>2026-04-27T10:22:47.984Z</time></trkpt>
      <trkpt lat="26.288946" lon="98.871495"><time>2026-04-27T10:22:48.001Z</time></trkpt>
      <trkpt lat="26.288946" lon="98.871495"><time>2026-04-27T10:22:48.018Z</time></trkpt>
      <trkpt lat="26.288946" lon="98.871495"><time>2026-04-27T10:22:48.034Z</time></trkpt>
      <trkpt lat="26.288943" lon="98.871493"><time>2026-04-27T10:22:48.051Z</time></trkpt>
      <trkpt lat="26.288943" lon="98.871493"><time>2026-04-27T10:22:48.068Z</time></trkpt>
      <trkpt lat="26.288943" lon="98.871493"><time>2026-04-27T10:22:48.084Z</time></trkpt>
      <trkpt lat="26.288943" lon="98.871493"><time>2026-04-27T10:22:48.101Z</time></trkpt>
      <trkpt lat="26.288943" lon="98.871493"><time>2026-04-27T10:22:48.118Z</time></trkpt>
      <trkpt lat="26.288943" lon="98.871493"><time>2026-04-27T10:22:48.134Z</time></trkpt>
      <trkpt lat="26.288941" lon="98.87149"><time>2026-04-27T10:22:48.151Z</time></trkpt>
      <trkpt lat="26.288941" lon="98.87149"><time>2026-04-27T10:22:48.168Z</time></trkpt>
      <trkpt lat="26.288941" lon="98.87149"><time>2026-04-27T10:22:48.184Z</time></trkpt>
      <trkpt lat="26.288941" lon="98.87149"><time>2026-04-27T10:22:48.201Z</time></trkpt>
      <trkpt lat="26.288941" lon="98.87149"><time>2026-04-27T10:22:48.218Z</time></trkpt>
      <trkpt lat="26.288941" lon="98.87149"><time>2026-04-27T10:22:48.234Z</time></trkpt>
      <trkpt lat="26.288938" lon="98.871487"><time>2026-04-27T10:22:48.251Z</time></trkpt>
      <trkpt lat="26.288938" lon="98.871487"><time>2026-04-27T10:22:48.268Z</time></trkpt>
      <trkpt lat="26.288938" lon="98.871487"><time>2026-04-27T10:22:48.285Z</time></trkpt>
      <trkpt lat="26.288938" lon="98.871487"><time>2026-04-27T10:22:48.301Z</time></trkpt>
      <trkpt lat="26.288938" lon="98.871487"><time>2026-04-27T10:22:48.318Z</time></trkpt>
      <trkpt lat="26.288938" lon="98.871487"><time>2026-04-27T10:22:48.335Z</time></trkpt>
      <trkpt lat="26.288935" lon="98.871484"><time>2026-04-27T10:22:48.351Z</time></trkpt>
      <trkpt lat="26.288935" lon="98.871484"><time>2026-04-27T10:22:48.368Z</time></trkpt>
      <trkpt lat="26.288935" lon="98.871484"><time>2026-04-27T10:22:48.385Z</time></trkpt>
      <trkpt lat="26.288935" lon="98.871484"><time>2026-04-27T10:22:48.401Z</time></trkpt>
      <trkpt lat="26.288935" lon="98.871484"><time>2026-04-27T10:22:48.418Z</time></trkpt>
      <trkpt lat="26.288935" lon="98.871484"><time>2026-04-27T10:22:48.435Z</time></trkpt>
      <trkpt lat="26.288932" lon="98.871481"><time>2026-04-27T10:22:48.451Z</time></trkpt>
      <trkpt lat="26.288932" lon="98.871481"><time>2026-04-27T10:22:48.468Z</time></trkpt>
      <trkpt lat="26.288932" lon="98.871481"><time>2026-04-27T10:22:48.485Z</time></trkpt>
      <trkpt lat="26.288932" lon="98.871481"><time>2026-04-27T10:22:48.501Z</time></trkpt>
      <trkpt lat="26.288932" lon="98.871481"><time>2026-04-27T10:22:48.518Z</time></trkpt>
      <trkpt lat="26.288932" lon="98.871481"><time>2026-04-27T10:22:48.535Z</time></trkpt>
      <trkpt lat="26.288929" lon="98.871478"><time>2026-04-27T10:22:48.551Z</time></trkpt>
      <trkpt lat="26.288929" lon="98.871478"><time>2026-04-27T10:22:48.568Z</time></trkpt>
      <trkpt lat="26.288929" lon="98.871478"><time>2026-04-27T10:22:48.585Z</time></trkpt>
      <trkpt lat="26.288929" lon="98.871478"><time>2026-04-27T10:22:48.602Z</time></trkpt>
      <trkpt lat="26.288929" lon="98.871478"><time>2026-04-27T10:22:48.618Z</time></trkpt>
      <trkpt lat="26.288929" lon="98.871478"><time>2026-04-27T10:22:48.635Z</time></trkpt>
      <trkpt lat="26.288925" lon="98.871475"><time>2026-04-27T10:22:48.652Z</time></trkpt>
      <trkpt lat="26.288925" lon="98.871475"><time>2026-04-27T10:22:48.668Z</time></trkpt>
      <trkpt lat="26.288925" lon="98.871475"><time>2026-04-27T10:22:48.685Z</time></trkpt>
      <trkpt lat="26.288925" lon="98.871475"><time>2026-04-27T10:22:48.702Z</time></trkpt>
      <trkpt lat="26.288925" lon="98.871475"><time>2026-04-27T10:22:48.718Z</time></trkpt>
      <trkpt lat="26.288925" lon="98.871475"><time>2026-04-27T10:22:48.735Z</time></trkpt>
      <trkpt lat="26.288922" lon="98.871471"><time>2026-04-27T10:22:48.752Z</time></trkpt>
      <trkpt lat="26.288922" lon="98.871471"><time>2026-04-27T10:22:48.768Z</time></trkpt>
      <trkpt lat="26.288922" lon="98.871471"><time>2026-04-27T10:22:48.785Z</time></trkpt>
      <trkpt lat="26.288922" lon="98.871471"><time>2026-04-27T10:22:48.802Z</time></trkpt>
      <trkpt lat="26.288922" lon="98.871471"><time>2026-04-27T10:22:48.818Z</time></trkpt>
      <trkpt lat="26.288922" lon="98.871471"><time>2026-04-27T10:22:48.835Z</time></trkpt>
      <trkpt lat="26.288918" lon="98.871467"><time>2026-04-27T10:22:48.852Z</time></trkpt>
      <trkpt lat="26.288918" lon="98.871467"><time>2026-04-27T10:22:48.868Z</time></trkpt>
      <trkpt lat="26.288918" lon="98.871467"><time>2026-04-27T10:22:48.885Z</time></trkpt>
      <trkpt lat="26.288918" lon="98.871467"><time>2026-04-27T10:22:48.902Z</time></trkpt>
      <trkpt lat="26.288918" lon="98.871467"><time>2026-04-27T10:22:48.919Z</time></trkpt>
      <trkpt lat="26.288918" lon="98.871467"><time>2026-04-27T10:22:48.935Z</time></trkpt>
      <trkpt lat="26.288915" lon="98.871463"><time>2026-04-27T10:22:48.952Z</time></trkpt>
      <trkpt lat="26.288915" lon="98.871463"><time>2026-04-27T10:22:48.969Z</time></trkpt>
      <trkpt lat="26.288915" lon="98.871463"><time>2026-04-27T10:22:48.985Z</time></trkpt>
      <trkpt lat="26.288915" lon="98.871463"><time>2026-04-27T10:22:49.002Z</time></trkpt>
      <trkpt lat="26.288915" lon="98.871463"><time>2026-04-27T10:22:49.019Z</time></trkpt>
      <trkpt lat="26.288915" lon="98.871463"><time>2026-04-27T10:22:49.035Z</time></trkpt>
      <trkpt lat="26.288911" lon="98.871459"><time>2026-04-27T10:22:49.052Z</time></trkpt>
      <trkpt lat="26.288911" lon="98.871459"><time>2026-04-27T10:22:49.069Z</time></trkpt>
      <trkpt lat="26.288911" lon="98.871459"><time>2026-04-27T10:22:49.085Z</time></trkpt>
      <trkpt lat="26.288911" lon="98.871459"><time>2026-04-27T10:22:49.102Z</time></trkpt>
      <trkpt lat="26.288911" lon="98.871459"><time>2026-04-27T10:22:49.119Z</time></trkpt>
      <trkpt lat="26.288911" lon="98.871459"><time>2026-04-27T10:22:49.135Z</time></trkpt>
      <trkpt lat="26.288907" lon="98.871455"><time>2026-04-27T10:22:49.152Z</time></trkpt>
      <trkpt lat="26.288907" lon="98.871455"><time>2026-04-27T10:22:49.169Z</time></trkpt>
      <trkpt lat="26.288907" lon="98.871455"><time>2026-04-27T10:22:49.185Z</time></trkpt>
      <trkpt lat="26.288907" lon="98.871455"><time>2026-04-27T10:22:49.202Z</time></trkpt>
      <trkpt lat="26.288907" lon="98.871455"><time>2026-04-27T10:22:49.219Z</time></trkpt>
      <trkpt lat="26.288907" lon="98.871455"><time>2026-04-27T10:22:49.236Z</time></trkpt>
      <trkpt lat="26.288903" lon="98.871451"><time>2026-04-27T10:22:49.252Z</time></trkpt>
      <trkpt lat="26.288903" lon="98.871451"><time>2026-04-27T10:22:49.269Z</time></trkpt>
      <trkpt lat="26.288903" lon="98.871451"><time>2026-04-27T10:22:49.286Z</time></trkpt>
      <trkpt lat="26.288903" lon="98.871451"><time>2026-04-27T10:22:49.302Z</time></trkpt>
      <trkpt lat="26.288903" lon="98.871451"><time>2026-04-27T10:22:49.319Z</time></trkpt>
      <trkpt lat="26.288903" lon="98.871451"><time>2026-04-27T10:22:49.336Z</time></trkpt>
      <trkpt lat="26.288899" lon="98.871447"><time>2026-04-27T10:22:49.352Z</time></trkpt>
      <trkpt lat="26.288899" lon="98.871447"><time>2026-04-27T10:22:49.369Z</time></trkpt>
      <trkpt lat="26.288899" lon="98.871447"><time>2026-04-27T10:22:49.386Z</time></trkpt>
      <trkpt lat="26.288899" lon="98.871447"><time>2026-04-27T10:22:49.402Z</time></trkpt>
      <trkpt lat="26.288899" lon="98.871447"><time>2026-04-27T10:22:49.419Z</time></trkpt>
      <trkpt lat="26.288899" lon="98.871447"><time>2026-04-27T10:22:49.436Z</time></trkpt>
      <trkpt lat="26.288895" lon="98.871442"><time>2026-04-27T10:22:49.452Z</time></trkpt>
      <trkpt lat="26.288895" lon="98.871442"><time>2026-04-27T10:22:49.469Z</time></trkpt>
      <trkpt lat="26.288895" lon="98.871442"><time>2026-04-27T10:22:49.486Z</time></trkpt>
      <trkpt lat="26.288895" lon="98.871442"><time>2026-04-27T10:22:49.502Z</time></trkpt>
      <trkpt lat="26.288895" lon="98.871442"><time>2026-04-27T10:22:49.519Z</time></trkpt>
      <trkpt lat="26.288895" lon="98.871442"><time>2026-04-27T10:22:49.536Z</time></trkpt>
      <trkpt lat="26.288891" lon="98.871438"><time>2026-04-27T10:22:49.553Z</time></trkpt>
      <trkpt lat="26.288891" lon="98.871438"><time>2026-04-27T10:22:49.569Z</time></trkpt>
      <trkpt lat="26.288891" lon="98.871438"><time>2026-04-27T10:22:49.586Z</time></trkpt>
      <trkpt lat="26.288891" lon="98.871438"><time>2026-04-27T10:22:49.603Z</time></trkpt>
      <trkpt lat="26.288891" lon="98.871438"><time>2026-04-27T10:22:49.619Z</time></trkpt>
      <trkpt lat="26.288891" lon="98.871438"><time>2026-04-27T10:22:49.636Z</time></trkpt>
      <trkpt lat="26.288886" lon="98.871433"><time>2026-04-27T10:22:49.653Z</time></trkpt>
      <trkpt lat="26.288886" lon="98.871433"><time>2026-04-27T10:22:49.669Z</time></trkpt>
      <trkpt lat="26.288886" lon="98.871433"><time>2026-04-27T10:22:49.686Z</time></trkpt>
      <trkpt lat="26.288886" lon="98.871433"><time>2026-04-27T10:22:49.703Z</time></trkpt>
      <trkpt lat="26.288886" lon="98.871433"><time>2026-04-27T10:22:49.719Z</time></trkpt>
      <trkpt lat="26.288886" lon="98.871433"><time>2026-04-27T10:22:49.736Z</time></trkpt>
      <trkpt lat="26.288882" lon="98.871428"><time>2026-04-27T10:22:49.753Z</time></trkpt>
      <trkpt lat="26.288882" lon="98.871428"><time>2026-04-27T10:22:49.769Z</time></trkpt>
      <trkpt lat="26.288882" lon="98.871428"><time>2026-04-27T10:22:49.786Z</time></trkpt>
      <trkpt lat="26.288882" lon="98.871428"><time>2026-04-27T10:22:49.803Z</time></trkpt>
      <trkpt lat="26.288882" lon="98.871428"><time>2026-04-27T10:22:49.819Z</time></trkpt>
      <trkpt lat="26.288882" lon="98.871428"><time>2026-04-27T10:22:49.836Z</time></trkpt>
      <trkpt lat="26.288878" lon="98.871423"><time>2026-04-27T10:22:49.853Z</time></trkpt>
      <trkpt lat="26.288878" lon="98.871423"><time>2026-04-27T10:22:49.870Z</time></trkpt>
      <trkpt lat="26.288878" lon="98.871423"><time>2026-04-27T10:22:49.886Z</time></trkpt>
      <trkpt lat="26.288878" lon="98.871423"><time>2026-04-27T10:22:49.903Z</time></trkpt>
      <trkpt lat="26.288878" lon="98.871423"><time>2026-04-27T10:22:49.920Z</time></trkpt>
      <trkpt lat="26.288878" lon="98.871423"><time>2026-04-27T10:22:49.936Z</time></trkpt>
      <trkpt lat="26.288874" lon="98.871418"><time>2026-04-27T10:22:49.953Z</time></trkpt>
      <trkpt lat="26.288874" lon="98.871418"><time>2026-04-27T10:22:49.970Z</time></trkpt>
      <trkpt lat="26.288874" lon="98.871418"><time>2026-04-27T10:22:49.986Z</time></trkpt>
      <trkpt lat="26.288874" lon="98.871418"><time>2026-04-27T10:22:50.003Z</time></trkpt>
      <trkpt lat="26.288874" lon="98.871418"><time>2026-04-27T10:22:50.020Z</time></trkpt>
      <trkpt lat="26.288874" lon="98.871418"><time>2026-04-27T10:22:50.036Z</time></trkpt>
      <trkpt lat="26.288869" lon="98.871413"><time>2026-04-27T10:22:50.053Z</time></trkpt>
      <trkpt lat="26.288869" lon="98.871413"><time>2026-04-27T10:22:50.070Z</time></trkpt>
      <trkpt lat="26.288869" lon="98.871413"><time>2026-04-27T10:22:50.086Z</time></trkpt>
      <trkpt lat="26.288869" lon="98.871413"><time>2026-04-27T10:22:50.103Z</time></trkpt>
      <trkpt lat="26.288869" lon="98.871413"><time>2026-04-27T10:22:50.120Z</time></trkpt>
      <trkpt lat="26.288869" lon="98.871413"><time>2026-04-27T10:22:50.136Z</time></trkpt>
      <trkpt lat="26.288865" lon="98.871407"><time>2026-04-27T10:22:50.153Z</time></trkpt>
      <trkpt lat="26.288865" lon="98.871407"><time>2026-04-27T10:22:50.170Z</time></trkpt>
      <trkpt lat="26.288865" lon="98.871407"><time>2026-04-27T10:22:50.187Z</time></trkpt>
      <trkpt lat="26.288865" lon="98.871407"><time>2026-04-27T10:22:50.203Z</time></trkpt>
      <trkpt lat="26.288865" lon="98.871407"><time>2026-04-27T10:22:50.220Z</time></trkpt>
      <trkpt lat="26.288865" lon="98.871407"><time>2026-04-27T10:22:50.237Z</time></trkpt>
      <trkpt lat="26.288861" lon="98.8714"><time>2026-04-27T10:22:50.253Z</time></trkpt>
      <trkpt lat="26.288861" lon="98.8714"><time>2026-04-27T10:22:50.270Z</time></trkpt>
      <trkpt lat="26.288861" lon="98.8714"><time>2026-04-27T10:22:50.287Z</time></trkpt>
      <trkpt lat="26.288861" lon="98.8714"><time>2026-04-27T10:22:50.303Z</time></trkpt>
      <trkpt lat="26.288861" lon="98.8714"><time>2026-04-27T10:22:50.320Z</time></trkpt>
      <trkpt lat="26.288861" lon="98.8714"><time>2026-04-27T10:22:50.337Z</time></trkpt>
      <trkpt lat="26.288857" lon="98.871394"><time>2026-04-27T10:22:50.353Z</time></trkpt>
      <trkpt lat="26.288857" lon="98.871394"><time>2026-04-27T10:22:50.370Z</time></trkpt>
      <trkpt lat="26.288857" lon="98.871394"><time>2026-04-27T10:22:50.387Z</time></trkpt>
      <trkpt lat="26.288857" lon="98.871394"><time>2026-04-27T10:22:50.403Z</time></trkpt>
      <trkpt lat="26.288857" lon="98.871394"><time>2026-04-27T10:22:50.420Z</time></trkpt>
      <trkpt lat="26.288857" lon="98.871394"><time>2026-04-27T10:22:50.437Z</time></trkpt>
      <trkpt lat="26.288852" lon="98.871388"><time>2026-04-27T10:22:50.453Z</time></trkpt>
      <trkpt lat="26.288852" lon="98.871388"><time>2026-04-27T10:22:50.470Z</time></trkpt>
      <trkpt lat="26.288852" lon="98.871388"><time>2026-04-27T10:22:50.487Z</time></trkpt>
      <trkpt lat="26.288852" lon="98.871388"><time>2026-04-27T10:22:50.504Z</time></trkpt>
      <trkpt lat="26.288852" lon="98.871388"><time>2026-04-27T10:22:50.520Z</time></trkpt>
      <trkpt lat="26.288852" lon="98.871388"><time>2026-04-27T10:22:50.537Z</time></trkpt>
      <trkpt lat="26.288848" lon="98.871382"><time>2026-04-27T10:22:50.554Z</time></trkpt>
      <trkpt lat="26.288848" lon="98.871382"><time>2026-04-27T10:22:50.570Z</time></trkpt>
      <trkpt lat="26.288848" lon="98.871382"><time>2026-04-27T10:22:50.587Z</time></trkpt>
      <trkpt lat="26.288848" lon="98.871382"><time>2026-04-27T10:22:50.604Z</time></trkpt>
      <trkpt lat="26.288848" lon="98.871382"><time>2026-04-27T10:22:50.620Z</time></trkpt>
      <trkpt lat="26.288848" lon="98.871382"><time>2026-04-27T10:22:50.637Z</time></trkpt>
      <trkpt lat="26.288844" lon="98.871376"><time>2026-04-27T10:22:50.654Z</time></trkpt>
      <trkpt lat="26.288844" lon="98.871376"><time>2026-04-27T10:22:50.670Z</time></trkpt>
      <trkpt lat="26.288844" lon="98.871376"><time>2026-04-27T10:22:50.687Z</time></trkpt>
      <trkpt lat="26.288844" lon="98.871376"><time>2026-04-27T10:22:50.704Z</time></trkpt>
      <trkpt lat="26.288844" lon="98.871376"><time>2026-04-27T10:22:50.720Z</time></trkpt>
      <trkpt lat="26.288844" lon="98.871376"><time>2026-04-27T10:22:50.737Z</time></trkpt>
      <trkpt lat="26.288839" lon="98.87137"><time>2026-04-27T10:22:50.754Z</time></trkpt>
      <trkpt lat="26.288839" lon="98.87137"><time>2026-04-27T10:22:50.770Z</time></trkpt>
      <trkpt lat="26.288839" lon="98.87137"><time>2026-04-27T10:22:50.787Z</time></trkpt>
      <trkpt lat="26.288839" lon="98.87137"><time>2026-04-27T10:22:50.804Z</time></trkpt>
      <trkpt lat="26.288839" lon="98.87137"><time>2026-04-27T10:22:50.821Z</time></trkpt>
      <trkpt lat="26.288839" lon="98.87137"><time>2026-04-27T10:22:50.837Z</time></trkpt>
      <trkpt lat="26.288834" lon="98.871364"><time>2026-04-27T10:22:50.854Z</time></trkpt>
      <trkpt lat="26.288834" lon="98.871364"><time>2026-04-27T10:22:50.871Z</time></trkpt>
      <trkpt lat="26.288834" lon="98.871364"><time>2026-04-27T10:22:50.887Z</time></trkpt>
      <trkpt lat="26.288834" lon="98.871364"><time>2026-04-27T10:22:50.904Z</time></trkpt>
      <trkpt lat="26.288834" lon="98.871364"><time>2026-04-27T10:22:50.921Z</time></trkpt>
      <trkpt lat="26.288834" lon="98.871364"><time>2026-04-27T10:22:50.937Z</time></trkpt>
      <trkpt lat="26.28883" lon="98.871359"><time>2026-04-27T10:22:50.954Z</time></trkpt>
      <trkpt lat="26.28883" lon="98.871359"><time>2026-04-27T10:22:50.971Z</time></trkpt>
      <trkpt lat="26.28883" lon="98.871359"><time>2026-04-27T10:22:50.987Z</time></trkpt>
      <trkpt lat="26.28883" lon="98.871359"><time>2026-04-27T10:22:51.004Z</time></trkpt>
      <trkpt lat="26.28883" lon="98.871359"><time>2026-04-27T10:22:51.021Z</time></trkpt>
      <trkpt lat="26.28883" lon="98.871359"><time>2026-04-27T10:22:51.037Z</time></trkpt>
      <trkpt lat="26.288825" lon="98.871353"><time>2026-04-27T10:22:51.054Z</time></trkpt>
      <trkpt lat="26.288825" lon="98.871353"><time>2026-04-27T10:22:51.071Z</time></trkpt>
      <trkpt lat="26.288825" lon="98.871353"><time>2026-04-27T10:22:51.087Z</time></trkpt>
      <trkpt lat="26.288825" lon="98.871353"><time>2026-04-27T10:22:51.104Z</time></trkpt>
      <trkpt lat="26.288825" lon="98.871353"><time>2026-04-27T10:22:51.121Z</time></trkpt>
      <trkpt lat="26.288825" lon="98.871353"><time>2026-04-27T10:22:51.138Z</time></trkpt>
      <trkpt lat="26.288819" lon="98.871347"><time>2026-04-27T10:22:51.154Z</time></trkpt>
      <trkpt lat="26.288819" lon="98.871347"><time>2026-04-27T10:22:51.171Z</time></trkpt>
      <trkpt lat="26.288819" lon="98.871347"><time>2026-04-27T10:22:51.188Z</time></trkpt>
      <trkpt lat="26.288819" lon="98.871347"><time>2026-04-27T10:22:51.204Z</time></trkpt>
      <trkpt lat="26.288819" lon="98.871347"><time>2026-04-27T10:22:51.221Z</time></trkpt>
      <trkpt lat="26.288819" lon="98.871347"><time>2026-04-27T10:22:51.238Z</time></trkpt>
      <trkpt lat="26.288814" lon="98.871341"><time>2026-04-27T10:22:51.254Z</time></trkpt>
      <trkpt lat="26.288814" lon="98.871341"><time>2026-04-27T10:22:51.271Z</time></trkpt>
      <trkpt lat="26.288814" lon="98.871341"><time>2026-04-27T10:22:51.288Z</time></trkpt>
      <trkpt lat="26.288814" lon="98.871341"><time>2026-04-27T10:22:51.304Z</time></trkpt>
      <trkpt lat="26.288814" lon="98.871341"><time>2026-04-27T10:22:51.321Z</time></trkpt>
      <trkpt lat="26.288814" lon="98.871341"><time>2026-04-27T10:22:51.338Z</time></trkpt>
      <trkpt lat="26.288809" lon="98.871335"><time>2026-04-27T10:22:51.354Z</time></trkpt>
      <trkpt lat="26.288809" lon="98.871335"><time>2026-04-27T10:22:51.371Z</time></trkpt>
      <trkpt lat="26.288809" lon="98.871335"><time>2026-04-27T10:22:51.388Z</time></trkpt>
      <trkpt lat="26.288809" lon="98.871335"><time>2026-04-27T10:22:51.404Z</time></trkpt>
      <trkpt lat="26.288809" lon="98.871335"><time>2026-04-27T10:22:51.421Z</time></trkpt>
      <trkpt lat="26.288809" lon="98.871335"><time>2026-04-27T10:22:51.438Z</time></trkpt>
      <trkpt lat="26.288805" lon="98.871328"><time>2026-04-27T10:22:51.455Z</time></trkpt>
      <trkpt lat="26.288805" lon="98.871328"><time>2026-04-27T10:22:51.471Z</time></trkpt>
      <trkpt lat="26.288805" lon="98.871328"><time>2026-04-27T10:22:51.488Z</time></trkpt>
      <trkpt lat="26.288805" lon="98.871328"><time>2026-04-27T10:22:51.505Z</time></trkpt>
      <trkpt lat="26.288805" lon="98.871328"><time>2026-04-27T10:22:51.521Z</time></trkpt>
      <trkpt lat="26.288805" lon="98.871328"><time>2026-04-27T10:22:51.538Z</time></trkpt>
      <trkpt lat="26.288801" lon="98.871321"><time>2026-04-27T10:22:51.555Z</time></trkpt>
      <trkpt lat="26.288801" lon="98.871321"><time>2026-04-27T10:22:51.571Z</time></trkpt>
      <trkpt lat="26.288801" lon="98.871321"><time>2026-04-27T10:22:51.588Z</time></trkpt>
      <trkpt lat="26.288801" lon="98.871321"><time>2026-04-27T10:22:51.605Z</time></trkpt>
      <trkpt lat="26.288801" lon="98.871321"><time>2026-04-27T10:22:51.621Z</time></trkpt>
      <trkpt lat="26.288801" lon="98.871321"><time>2026-04-27T10:22:51.638Z</time></trkpt>
      <trkpt lat="26.288796" lon="98.871315"><time>2026-04-27T10:22:51.655Z</time></trkpt>
      <trkpt lat="26.288796" lon="98.871315"><time>2026-04-27T10:22:51.671Z</time></trkpt>
      <trkpt lat="26.288796" lon="98.871315"><time>2026-04-27T10:22:51.688Z</time></trkpt>
      <trkpt lat="26.288796" lon="98.871315"><time>2026-04-27T10:22:51.705Z</time></trkpt>
      <trkpt lat="26.288796" lon="98.871315"><time>2026-04-27T10:22:51.721Z</time></trkpt>
      <trkpt lat="26.288791" lon="98.871308"><time>2026-04-27T10:22:51.738Z</time></trkpt>
      <trkpt lat="26.288791" lon="98.871308"><time>2026-04-27T10:22:51.755Z</time></trkpt>
      <trkpt lat="26.288791" lon="98.871308"><time>2026-04-27T10:22:51.772Z</time></trkpt>
      <trkpt lat="26.288791" lon="98.871308"><time>2026-04-27T10:22:51.788Z</time></trkpt>
      <trkpt lat="26.288791" lon="98.871308"><time>2026-04-27T10:22:51.805Z</time></trkpt>
      <trkpt lat="26.288791" lon="98.871308"><time>2026-04-27T10:22:51.822Z</time></trkpt>
      <trkpt lat="26.288791" lon="98.871308"><time>2026-04-27T10:22:51.838Z</time></trkpt>
      <trkpt lat="26.288786" lon="98.871302"><time>2026-04-27T10:22:51.855Z</time></trkpt>
      <trkpt lat="26.288786" lon="98.871302"><time>2026-04-27T10:22:51.872Z</time></trkpt>
      <trkpt lat="26.288786" lon="98.871302"><time>2026-04-27T10:22:51.888Z</time></trkpt>
      <trkpt lat="26.288786" lon="98.871302"><time>2026-04-27T10:22:51.905Z</time></trkpt>
      <trkpt lat="26.288786" lon="98.871302"><time>2026-04-27T10:22:51.922Z</time></trkpt>
      <trkpt lat="26.288786" lon="98.871302"><time>2026-04-27T10:22:51.938Z</time></trkpt>
      <trkpt lat="26.288781" lon="98.871295"><time>2026-04-27T10:22:51.955Z</time></trkpt>
      <trkpt lat="26.288781" lon="98.871295"><time>2026-04-27T10:22:51.972Z</time></trkpt>
      <trkpt lat="26.288781" lon="98.871295"><time>2026-04-27T10:22:51.988Z</time></trkpt>
      <trkpt lat="26.288781" lon="98.871295"><time>2026-04-27T10:22:52.005Z</time></trkpt>
      <trkpt lat="26.288781" lon="98.871295"><time>2026-04-27T10:22:52.022Z</time></trkpt>
      <trkpt lat="26.288776" lon="98.871289"><time>2026-04-27T10:22:52.038Z</time></trkpt>
      <trkpt lat="26.288776" lon="98.871289"><time>2026-04-27T10:22:52.055Z</time></trkpt>
      <trkpt lat="26.288776" lon="98.871289"><time>2026-04-27T10:22:52.072Z</time></trkpt>
      <trkpt lat="26.288776" lon="98.871289"><time>2026-04-27T10:22:52.089Z</time></trkpt>
      <trkpt lat="26.288776" lon="98.871289"><time>2026-04-27T10:22:52.105Z</time></trkpt>
      <trkpt lat="26.288776" lon="98.871289"><time>2026-04-27T10:22:52.122Z</time></trkpt>
      <trkpt lat="26.288776" lon="98.871289"><time>2026-04-27T10:22:52.139Z</time></trkpt>
      <trkpt lat="26.288772" lon="98.871282"><time>2026-04-27T10:22:52.155Z</time></trkpt>
      <trkpt lat="26.288772" lon="98.871282"><time>2026-04-27T10:22:52.172Z</time></trkpt>
      <trkpt lat="26.288772" lon="98.871282"><time>2026-04-27T10:22:52.189Z</time></trkpt>
      <trkpt lat="26.288772" lon="98.871282"><time>2026-04-27T10:22:52.205Z</time></trkpt>
      <trkpt lat="26.288772" lon="98.871282"><time>2026-04-27T10:22:52.222Z</time></trkpt>
      <trkpt lat="26.288767" lon="98.871275"><time>2026-04-27T10:22:52.239Z</time></trkpt>
      <trkpt lat="26.288767" lon="98.871275"><time>2026-04-27T10:22:52.255Z</time></trkpt>
      <trkpt lat="26.288767" lon="98.871275"><time>2026-04-27T10:22:52.272Z</time></trkpt>
      <trkpt lat="26.288767" lon="98.871275"><time>2026-04-27T10:22:52.289Z</time></trkpt>
      <trkpt lat="26.288767" lon="98.871275"><time>2026-04-27T10:22:52.305Z</time></trkpt>
      <trkpt lat="26.288767" lon="98.871275"><time>2026-04-27T10:22:52.322Z</time></trkpt>
      <trkpt lat="26.288762" lon="98.871268"><time>2026-04-27T10:22:52.339Z</time></trkpt>
      <trkpt lat="26.288762" lon="98.871268"><time>2026-04-27T10:22:52.355Z</time></trkpt>
      <trkpt lat="26.288762" lon="98.871268"><time>2026-04-27T10:22:52.372Z</time></trkpt>
      <trkpt lat="26.288762" lon="98.871268"><time>2026-04-27T10:22:52.389Z</time></trkpt>
      <trkpt lat="26.288762" lon="98.871268"><time>2026-04-27T10:22:52.406Z</time></trkpt>
      <trkpt lat="26.288762" lon="98.871268"><time>2026-04-27T10:22:52.422Z</time></trkpt>
      <trkpt lat="26.288757" lon="98.871261"><time>2026-04-27T10:22:52.439Z</time></trkpt>
      <trkpt lat="26.288757" lon="98.871261"><time>2026-04-27T10:22:52.456Z</time></trkpt>
      <trkpt lat="26.288757" lon="98.871261"><time>2026-04-27T10:22:52.472Z</time></trkpt>
      <trkpt lat="26.288757" lon="98.871261"><time>2026-04-27T10:22:52.489Z</time></trkpt>
      <trkpt lat="26.288757" lon="98.871261"><time>2026-04-27T10:22:52.506Z</time></trkpt>
      <trkpt lat="26.288757" lon="98.871261"><time>2026-04-27T10:22:52.522Z</time></trkpt>
      <trkpt lat="26.288752" lon="98.871255"><time>2026-04-27T10:22:52.539Z</time></trkpt>
      <trkpt lat="26.288752" lon="98.871255"><time>2026-04-27T10:22:52.556Z</time></trkpt>
      <trkpt lat="26.288752" lon="98.871255"><time>2026-04-27T10:22:52.572Z</time></trkpt>
      <trkpt lat="26.288752" lon="98.871255"><time>2026-04-27T10:22:52.589Z</time></trkpt>
      <trkpt lat="26.288752" lon="98.871255"><time>2026-04-27T10:22:52.606Z</time></trkpt>
      <trkpt lat="26.288752" lon="98.871255"><time>2026-04-27T10:22:52.622Z</time></trkpt>
      <trkpt lat="26.288747" lon="98.871248"><time>2026-04-27T10:22:52.639Z</time></trkpt>
      <trkpt lat="26.288747" lon="98.871248"><time>2026-04-27T10:22:52.656Z</time></trkpt>
      <trkpt lat="26.288747" lon="98.871248"><time>2026-04-27T10:22:52.672Z</time></trkpt>
      <trkpt lat="26.288747" lon="98.871248"><time>2026-04-27T10:22:52.689Z</time></trkpt>
      <trkpt lat="26.288747" lon="98.871248"><time>2026-04-27T10:22:52.706Z</time></trkpt>
      <trkpt lat="26.288747" lon="98.871248"><time>2026-04-27T10:22:52.722Z</time></trkpt>
      <trkpt lat="26.288742" lon="98.871242"><time>2026-04-27T10:22:52.739Z</time></trkpt>
      <trkpt lat="26.288742" lon="98.871242"><time>2026-04-27T10:22:52.756Z</time></trkpt>
      <trkpt lat="26.288742" lon="98.871242"><time>2026-04-27T10:22:52.773Z</time></trkpt>
      <trkpt lat="26.288742" lon="98.871242"><time>2026-04-27T10:22:52.789Z</time></trkpt>
      <trkpt lat="26.288742" lon="98.871242"><time>2026-04-27T10:22:52.806Z</time></trkpt>
      <trkpt lat="26.288742" lon="98.871242"><time>2026-04-27T10:22:52.823Z</time></trkpt>
      <trkpt lat="26.288737" lon="98.871235"><time>2026-04-27T10:22:52.839Z</time></trkpt>
      <trkpt lat="26.288737" lon="98.871235"><time>2026-04-27T10:22:52.856Z</time></trkpt>
      <trkpt lat="26.288737" lon="98.871235"><time>2026-04-27T10:22:52.873Z</time></trkpt>
      <trkpt lat="26.288737" lon="98.871235"><time>2026-04-27T10:22:52.889Z</time></trkpt>
      <trkpt lat="26.288737" lon="98.871235"><time>2026-04-27T10:22:52.906Z</time></trkpt>
      <trkpt lat="26.288737" lon="98.871235"><time>2026-04-27T10:22:52.923Z</time></trkpt>
      <trkpt lat="26.288731" lon="98.871228"><time>2026-04-27T10:22:52.939Z</time></trkpt>
      <trkpt lat="26.288731" lon="98.871228"><time>2026-04-27T10:22:52.956Z</time></trkpt>
      <trkpt lat="26.288731" lon="98.871228"><time>2026-04-27T10:22:52.973Z</time></trkpt>
      <trkpt lat="26.288731" lon="98.871228"><time>2026-04-27T10:22:52.989Z</time></trkpt>
      <trkpt lat="26.288731" lon="98.871228"><time>2026-04-27T10:22:53.006Z</time></trkpt>
      <trkpt lat="26.288731" lon="98.871228"><time>2026-04-27T10:22:53.023Z</time></trkpt>
      <trkpt lat="26.288726" lon="98.871221"><time>2026-04-27T10:22:53.039Z</time></trkpt>
      <trkpt lat="26.288726" lon="98.871221"><time>2026-04-27T10:22:53.056Z</time></trkpt>
      <trkpt lat="26.288726" lon="98.871221"><time>2026-04-27T10:22:53.073Z</time></trkpt>
      <trkpt lat="26.288726" lon="98.871221"><time>2026-04-27T10:22:53.090Z</time></trkpt>
      <trkpt lat="26.288726" lon="98.871221"><time>2026-04-27T10:22:53.106Z</time></trkpt>
      <trkpt lat="26.288726" lon="98.871221"><time>2026-04-27T10:22:53.123Z</time></trkpt>
      <trkpt lat="26.288721" lon="98.871214"><time>2026-04-27T10:22:53.140Z</time></trkpt>
      <trkpt lat="26.288721" lon="98.871214"><time>2026-04-27T10:22:53.156Z</time></trkpt>
      <trkpt lat="26.288721" lon="98.871214"><time>2026-04-27T10:22:53.173Z</time></trkpt>
      <trkpt lat="26.288721" lon="98.871214"><time>2026-04-27T10:22:53.190Z</time></trkpt>
      <trkpt lat="26.288721" lon="98.871214"><time>2026-04-27T10:22:53.206Z</time></trkpt>
      <trkpt lat="26.288721" lon="98.871214"><time>2026-04-27T10:22:53.223Z</time></trkpt>
      <trkpt lat="26.288715" lon="98.871208"><time>2026-04-27T10:22:53.240Z</time></trkpt>
      <trkpt lat="26.288715" lon="98.871208"><time>2026-04-27T10:22:53.256Z</time></trkpt>
      <trkpt lat="26.288715" lon="98.871208"><time>2026-04-27T10:22:53.273Z</time></trkpt>
      <trkpt lat="26.288715" lon="98.871208"><time>2026-04-27T10:22:53.290Z</time></trkpt>
      <trkpt lat="26.288715" lon="98.871208"><time>2026-04-27T10:22:53.306Z</time></trkpt>
      <trkpt lat="26.288715" lon="98.871208"><time>2026-04-27T10:22:53.323Z</time></trkpt>
      <trkpt lat="26.28871" lon="98.871201"><time>2026-04-27T10:22:53.340Z</time></trkpt>
      <trkpt lat="26.28871" lon="98.871201"><time>2026-04-27T10:22:53.356Z</time></trkpt>
      <trkpt lat="26.28871" lon="98.871201"><time>2026-04-27T10:22:53.373Z</time></trkpt>
      <trkpt lat="26.28871" lon="98.871201"><time>2026-04-27T10:22:53.390Z</time></trkpt>
      <trkpt lat="26.28871" lon="98.871201"><time>2026-04-27T10:22:53.407Z</time></trkpt>
      <trkpt lat="26.28871" lon="98.871201"><time>2026-04-27T10:22:53.423Z</time></trkpt>
      <trkpt lat="26.288704" lon="98.871194"><time>2026-04-27T10:22:53.440Z</time></trkpt>
      <trkpt lat="26.288704" lon="98.871194"><time>2026-04-27T10:22:53.457Z</time></trkpt>
      <trkpt lat="26.288704" lon="98.871194"><time>2026-04-27T10:22:53.473Z</time></trkpt>
      <trkpt lat="26.288704" lon="98.871194"><time>2026-04-27T10:22:53.490Z</time></trkpt>
      <trkpt lat="26.288704" lon="98.871194"><time>2026-04-27T10:22:53.507Z</time></trkpt>
      <trkpt lat="26.288704" lon="98.871194"><time>2026-04-27T10:22:53.523Z</time></trkpt>
      <trkpt lat="26.288699" lon="98.871187"><time>2026-04-27T10:22:53.540Z</time></trkpt>
      <trkpt lat="26.288699" lon="98.871187"><time>2026-04-27T10:22:53.557Z</time></trkpt>
      <trkpt lat="26.288699" lon="98.871187"><time>2026-04-27T10:22:53.573Z</time></trkpt>
      <trkpt lat="26.288699" lon="98.871187"><time>2026-04-27T10:22:53.590Z</time></trkpt>
      <trkpt lat="26.288699" lon="98.871187"><time>2026-04-27T10:22:53.607Z</time></trkpt>
      <trkpt lat="26.288699" lon="98.871187"><time>2026-04-27T10:22:53.623Z</time></trkpt>
      <trkpt lat="26.288694" lon="98.87118"><time>2026-04-27T10:22:53.640Z</time></trkpt>
      <trkpt lat="26.288694" lon="98.87118"><time>2026-04-27T10:22:53.657Z</time></trkpt>
      <trkpt lat="26.288694" lon="98.87118"><time>2026-04-27T10:22:53.673Z</time></trkpt>
      <trkpt lat="26.288694" lon="98.87118"><time>2026-04-27T10:22:53.690Z</time></trkpt>
      <trkpt lat="26.288694" lon="98.87118"><time>2026-04-27T10:22:53.707Z</time></trkpt>
      <trkpt lat="26.288694" lon="98.87118"><time>2026-04-27T10:22:53.724Z</time></trkpt>
      <trkpt lat="26.288688" lon="98.871173"><time>2026-04-27T10:22:53.740Z</time></trkpt>
      <trkpt lat="26.288688" lon="98.871173"><time>2026-04-27T10:22:53.757Z</time></trkpt>
      <trkpt lat="26.288688" lon="98.871173"><time>2026-04-27T10:22:53.774Z</time></trkpt>
      <trkpt lat="26.288688" lon="98.871173"><time>2026-04-27T10:22:53.790Z</time></trkpt>
      <trkpt lat="26.288688" lon="98.871173"><time>2026-04-27T10:22:53.807Z</time></trkpt>
      <trkpt lat="26.288688" lon="98.871173"><time>2026-04-27T10:22:53.824Z</time></trkpt>
      <trkpt lat="26.288683" lon="98.871166"><time>2026-04-27T10:22:53.840Z</time></trkpt>
      <trkpt lat="26.288683" lon="98.871166"><time>2026-04-27T10:22:53.857Z</time></trkpt>
      <trkpt lat="26.288683" lon="98.871166"><time>2026-04-27T10:22:53.874Z</time></trkpt>
      <trkpt lat="26.288683" lon="98.871166"><time>2026-04-27T10:22:53.890Z</time></trkpt>
      <trkpt lat="26.288683" lon="98.871166"><time>2026-04-27T10:22:53.907Z</time></trkpt>
      <trkpt lat="26.288683" lon="98.871166"><time>2026-04-27T10:22:53.924Z</time></trkpt>
      <trkpt lat="26.288677" lon="98.871159"><time>2026-04-27T10:22:53.940Z</time></trkpt>
      <trkpt lat="26.288677" lon="98.871159"><time>2026-04-27T10:22:53.957Z</time></trkpt>
      <trkpt lat="26.288677" lon="98.871159"><time>2026-04-27T10:22:53.974Z</time></trkpt>
      <trkpt lat="26.288677" lon="98.871159"><time>2026-04-27T10:22:53.990Z</time></trkpt>
      <trkpt lat="26.288677" lon="98.871159"><time>2026-04-27T10:22:54.007Z</time></trkpt>
      <trkpt lat="26.288677" lon="98.871159"><time>2026-04-27T10:22:54.024Z</time></trkpt>
      <trkpt lat="26.288672" lon="98.871151"><time>2026-04-27T10:22:54.041Z</time></trkpt>
      <trkpt lat="26.288672" lon="98.871151"><time>2026-04-27T10:22:54.057Z</time></trkpt>
      <trkpt lat="26.288672" lon="98.871151"><time>2026-04-27T10:22:54.074Z</time></trkpt>
      <trkpt lat="26.288672" lon="98.871151"><time>2026-04-27T10:22:54.091Z</time></trkpt>
      <trkpt lat="26.288672" lon="98.871151"><time>2026-04-27T10:22:54.107Z</time></trkpt>
      <trkpt lat="26.288672" lon="98.871151"><time>2026-04-27T10:22:54.124Z</time></trkpt>
      <trkpt lat="26.288667" lon="98.871144"><time>2026-04-27T10:22:54.141Z</time></trkpt>
      <trkpt lat="26.288667" lon="98.871144"><time>2026-04-27T10:22:54.157Z</time></trkpt>
      <trkpt lat="26.288667" lon="98.871144"><time>2026-04-27T10:22:54.174Z</time></trkpt>
      <trkpt lat="26.288667" lon="98.871144"><time>2026-04-27T10:22:54.191Z</time></trkpt>
      <trkpt lat="26.288667" lon="98.871144"><time>2026-04-27T10:22:54.207Z</time></trkpt>
      <trkpt lat="26.288667" lon="98.871144"><time>2026-04-27T10:22:54.224Z</time></trkpt>
      <trkpt lat="26.288662" lon="98.871137"><time>2026-04-27T10:22:54.241Z</time></trkpt>
      <trkpt lat="26.288662" lon="98.871137"><time>2026-04-27T10:22:54.257Z</time></trkpt>
      <trkpt lat="26.288662" lon="98.871137"><time>2026-04-27T10:22:54.274Z</time></trkpt>
      <trkpt lat="26.288662" lon="98.871137"><time>2026-04-27T10:22:54.291Z</time></trkpt>
      <trkpt lat="26.288662" lon="98.871137"><time>2026-04-27T10:22:54.307Z</time></trkpt>
      <trkpt lat="26.288662" lon="98.871137"><time>2026-04-27T10:22:54.324Z</time></trkpt>
      <trkpt lat="26.288656" lon="98.871129"><time>2026-04-27T10:22:54.341Z</time></trkpt>
      <trkpt lat="26.288656" lon="98.871129"><time>2026-04-27T10:22:54.358Z</time></trkpt>
      <trkpt lat="26.288656" lon="98.871129"><time>2026-04-27T10:22:54.374Z</time></trkpt>
      <trkpt lat="26.288656" lon="98.871129"><time>2026-04-27T10:22:54.391Z</time></trkpt>
      <trkpt lat="26.288656" lon="98.871129"><time>2026-04-27T10:22:54.408Z</time></trkpt>
      <trkpt lat="26.288656" lon="98.871129"><time>2026-04-27T10:22:54.424Z</time></trkpt>
      <trkpt lat="26.288651" lon="98.871122"><time>2026-04-27T10:22:54.441Z</time></trkpt>
      <trkpt lat="26.288651" lon="98.871122"><time>2026-04-27T10:22:54.458Z</time></trkpt>
      <trkpt lat="26.288651" lon="98.871122"><time>2026-04-27T10:22:54.474Z</time></trkpt>
      <trkpt lat="26.288651" lon="98.871122"><time>2026-04-27T10:22:54.491Z</time></trkpt>
      <trkpt lat="26.288651" lon="98.871122"><time>2026-04-27T10:22:54.508Z</time></trkpt>
      <trkpt lat="26.288651" lon="98.871122"><time>2026-04-27T10:22:54.524Z</time></trkpt>
      <trkpt lat="26.288646" lon="98.871115"><time>2026-04-27T10:22:54.541Z</time></trkpt>
      <trkpt lat="26.288646" lon="98.871115"><time>2026-04-27T10:22:54.558Z</time></trkpt>
      <trkpt lat="26.288646" lon="98.871115"><time>2026-04-27T10:22:54.574Z</time></trkpt>
      <trkpt lat="26.288646" lon="98.871115"><time>2026-04-27T10:22:54.591Z</time></trkpt>
      <trkpt lat="26.288646" lon="98.871115"><time>2026-04-27T10:22:54.608Z</time></trkpt>
      <trkpt lat="26.288646" lon="98.871115"><time>2026-04-27T10:22:54.624Z</time></trkpt>
      <trkpt lat="26.288641" lon="98.871107"><time>2026-04-27T10:22:54.641Z</time></trkpt>
      <trkpt lat="26.288641" lon="98.871107"><time>2026-04-27T10:22:54.658Z</time></trkpt>
      <trkpt lat="26.288641" lon="98.871107"><time>2026-04-27T10:22:54.675Z</time></trkpt>
      <trkpt lat="26.288641" lon="98.871107"><time>2026-04-27T10:22:54.691Z</time></trkpt>
      <trkpt lat="26.288641" lon="98.871107"><time>2026-04-27T10:22:54.708Z</time></trkpt>
      <trkpt lat="26.288641" lon="98.871107"><time>2026-04-27T10:22:54.725Z</time></trkpt>
      <trkpt lat="26.288636" lon="98.871099"><time>2026-04-27T10:22:54.741Z</time></trkpt>
      <trkpt lat="26.288636" lon="98.871099"><time>2026-04-27T10:22:54.758Z</time></trkpt>
      <trkpt lat="26.288636" lon="98.871099"><time>2026-04-27T10:22:54.775Z</time></trkpt>
      <trkpt lat="26.288636" lon="98.871099"><time>2026-04-27T10:22:54.791Z</time></trkpt>
      <trkpt lat="26.288636" lon="98.871099"><time>2026-04-27T10:22:54.808Z</time></trkpt>
      <trkpt lat="26.288636" lon="98.871099"><time>2026-04-27T10:22:54.825Z</time></trkpt>
      <trkpt lat="26.28863" lon="98.871092"><time>2026-04-27T10:22:54.841Z</time></trkpt>
      <trkpt lat="26.28863" lon="98.871092"><time>2026-04-27T10:22:54.858Z</time></trkpt>
      <trkpt lat="26.28863" lon="98.871092"><time>2026-04-27T10:22:54.875Z</time></trkpt>
      <trkpt lat="26.28863" lon="98.871092"><time>2026-04-27T10:22:54.891Z</time></trkpt>
      <trkpt lat="26.28863" lon="98.871092"><time>2026-04-27T10:22:54.908Z</time></trkpt>
      <trkpt lat="26.28863" lon="98.871092"><time>2026-04-27T10:22:54.925Z</time></trkpt>
      <trkpt lat="26.288626" lon="98.871085"><time>2026-04-27T10:22:54.941Z</time></trkpt>
      <trkpt lat="26.288626" lon="98.871085"><time>2026-04-27T10:22:54.958Z</time></trkpt>
      <trkpt lat="26.288626" lon="98.871085"><time>2026-04-27T10:22:54.975Z</time></trkpt>
      <trkpt lat="26.288626" lon="98.871085"><time>2026-04-27T10:22:54.992Z</time></trkpt>
      <trkpt lat="26.288626" lon="98.871085"><time>2026-04-27T10:22:55.008Z</time></trkpt>
      <trkpt lat="26.288626" lon="98.871085"><time>2026-04-27T10:22:55.025Z</time></trkpt>
      <trkpt lat="26.288621" lon="98.871077"><time>2026-04-27T10:22:55.042Z</time></trkpt>
      <trkpt lat="26.288621" lon="98.871077"><time>2026-04-27T10:22:55.058Z</time></trkpt>
      <trkpt lat="26.288621" lon="98.871077"><time>2026-04-27T10:22:55.075Z</time></trkpt>
      <trkpt lat="26.288621" lon="98.871077"><time>2026-04-27T10:22:55.092Z</time></trkpt>
      <trkpt lat="26.288621" lon="98.871077"><time>2026-04-27T10:22:55.108Z</time></trkpt>
      <trkpt lat="26.288621" lon="98.871077"><time>2026-04-27T10:22:55.125Z</time></trkpt>
      <trkpt lat="26.288617" lon="98.871071"><time>2026-04-27T10:22:55.142Z</time></trkpt>
      <trkpt lat="26.288617" lon="98.871071"><time>2026-04-27T10:22:55.158Z</time></trkpt>
      <trkpt lat="26.288617" lon="98.871071"><time>2026-04-27T10:22:55.175Z</time></trkpt>
      <trkpt lat="26.288617" lon="98.871071"><time>2026-04-27T10:22:55.192Z</time></trkpt>
      <trkpt lat="26.288617" lon="98.871071"><time>2026-04-27T10:22:55.208Z</time></trkpt>
      <trkpt lat="26.288617" lon="98.871071"><time>2026-04-27T10:22:55.225Z</time></trkpt>
      <trkpt lat="26.288613" lon="98.871065"><time>2026-04-27T10:22:55.242Z</time></trkpt>
      <trkpt lat="26.288613" lon="98.871065"><time>2026-04-27T10:22:55.258Z</time></trkpt>
      <trkpt lat="26.288613" lon="98.871065"><time>2026-04-27T10:22:55.275Z</time></trkpt>
      <trkpt lat="26.288613" lon="98.871065"><time>2026-04-27T10:22:55.292Z</time></trkpt>
      <trkpt lat="26.288613" lon="98.871065"><time>2026-04-27T10:22:55.309Z</time></trkpt>
      <trkpt lat="26.288613" lon="98.871065"><time>2026-04-27T10:22:55.325Z</time></trkpt>
      <trkpt lat="26.288609" lon="98.871059"><time>2026-04-27T10:22:55.342Z</time></trkpt>
      <trkpt lat="26.288609" lon="98.871059"><time>2026-04-27T10:22:55.359Z</time></trkpt>
      <trkpt lat="26.288609" lon="98.871059"><time>2026-04-27T10:22:55.375Z</time></trkpt>
      <trkpt lat="26.288609" lon="98.871059"><time>2026-04-27T10:22:55.392Z</time></trkpt>
      <trkpt lat="26.288609" lon="98.871059"><time>2026-04-27T10:22:55.409Z</time></trkpt>
      <trkpt lat="26.288609" lon="98.871059"><time>2026-04-27T10:22:55.425Z</time></trkpt>
      <trkpt lat="26.288606" lon="98.871054"><time>2026-04-27T10:22:55.442Z</time></trkpt>
      <trkpt lat="26.288606" lon="98.871054"><time>2026-04-27T10:22:55.459Z</time></trkpt>
      <trkpt lat="26.288606" lon="98.871054"><time>2026-04-27T10:22:55.475Z</time></trkpt>
      <trkpt lat="26.288606" lon="98.871054"><time>2026-04-27T10:22:55.492Z</time></trkpt>
      <trkpt lat="26.288606" lon="98.871054"><time>2026-04-27T10:22:55.509Z</time></trkpt>
      <trkpt lat="26.288606" lon="98.871054"><time>2026-04-27T10:22:55.525Z</time></trkpt>
      <trkpt lat="26.288603" lon="98.87105"><time>2026-04-27T10:22:55.542Z</time></trkpt>
      <trkpt lat="26.288603" lon="98.87105"><time>2026-04-27T10:22:55.559Z</time></trkpt>
      <trkpt lat="26.288603" lon="98.87105"><time>2026-04-27T10:22:55.575Z</time></trkpt>
      <trkpt lat="26.288603" lon="98.87105"><time>2026-04-27T10:22:55.592Z</time></trkpt>
      <trkpt lat="26.288603" lon="98.87105"><time>2026-04-27T10:22:55.609Z</time></trkpt>
      <trkpt lat="26.288603" lon="98.87105"><time>2026-04-27T10:22:55.626Z</time></trkpt>
      <trkpt lat="26.288601" lon="98.871046"><time>2026-04-27T10:22:55.642Z</time></trkpt>
      <trkpt lat="26.288601" lon="98.871046"><time>2026-04-27T10:22:55.659Z</time></trkpt>
      <trkpt lat="26.288601" lon="98.871046"><time>2026-04-27T10:22:55.676Z</time></trkpt>
      <trkpt lat="26.288601" lon="98.871046"><time>2026-04-27T10:22:55.692Z</time></trkpt>
      <trkpt lat="26.288601" lon="98.871046"><time>2026-04-27T10:22:55.709Z</time></trkpt>
      <trkpt lat="26.288601" lon="98.871046"><time>2026-04-27T10:22:55.726Z</time></trkpt>
      <trkpt lat="26.288599" lon="98.871042"><time>2026-04-27T10:22:55.742Z</time></trkpt>
      <trkpt lat="26.288599" lon="98.871042"><time>2026-04-27T10:22:55.759Z</time></trkpt>
      <trkpt lat="26.288599" lon="98.871042"><time>2026-04-27T10:22:55.776Z</time></trkpt>
      <trkpt lat="26.288599" lon="98.871042"><time>2026-04-27T10:22:55.792Z</time></trkpt>
      <trkpt lat="26.288599" lon="98.871042"><time>2026-04-27T10:22:55.809Z</time></trkpt>
      <trkpt lat="26.288599" lon="98.871042"><time>2026-04-27T10:22:55.826Z</time></trkpt>
      <trkpt lat="26.2886" lon="98.871037"><time>2026-04-27T10:22:55.842Z</time></trkpt>
      <trkpt lat="26.2886" lon="98.871037"><time>2026-04-27T10:22:55.859Z</time></trkpt>
      <trkpt lat="26.2886" lon="98.871037"><time>2026-04-27T10:22:55.876Z</time></trkpt>
      <trkpt lat="26.2886" lon="98.871037"><time>2026-04-27T10:22:55.892Z</time></trkpt>
      <trkpt lat="26.2886" lon="98.871037"><time>2026-04-27T10:22:55.909Z</time></trkpt>
      <trkpt lat="26.2886" lon="98.871037"><time>2026-04-27T10:22:55.926Z</time></trkpt>
      <trkpt lat="26.288599" lon="98.871034"><time>2026-04-27T10:22:55.943Z</time></trkpt>
      <trkpt lat="26.288599" lon="98.871034"><time>2026-04-27T10:22:55.959Z</time></trkpt>
      <trkpt lat="26.288599" lon="98.871034"><time>2026-04-27T10:22:55.976Z</time></trkpt>
      <trkpt lat="26.288599" lon="98.871034"><time>2026-04-27T10:22:55.993Z</time></trkpt>
      <trkpt lat="26.288599" lon="98.871034"><time>2026-04-27T10:22:56.009Z</time></trkpt>
      <trkpt lat="26.288599" lon="98.871034"><time>2026-04-27T10:22:56.026Z</time></trkpt>
      <trkpt lat="26.288599" lon="98.871031"><time>2026-04-27T10:22:56.043Z</time></trkpt>
      <trkpt lat="26.288599" lon="98.871031"><time>2026-04-27T10:22:56.059Z</time></trkpt>
      <trkpt lat="26.288599" lon="98.871031"><time>2026-04-27T10:22:56.076Z</time></trkpt>
      <trkpt lat="26.288599" lon="98.871031"><time>2026-04-27T10:22:56.093Z</time></trkpt>
      <trkpt lat="26.288599" lon="98.871031"><time>2026-04-27T10:22:56.109Z</time></trkpt>
      <trkpt lat="26.288599" lon="98.871031"><time>2026-04-27T10:22:56.126Z</time></trkpt>
      <trkpt lat="26.288599" lon="98.871029"><time>2026-04-27T10:22:56.143Z</time></trkpt>
      <trkpt lat="26.288599" lon="98.871029"><time>2026-04-27T10:22:56.159Z</time></trkpt>
      <trkpt lat="26.288599" lon="98.871029"><time>2026-04-27T10:22:56.176Z</time></trkpt>
      <trkpt lat="26.288599" lon="98.871029"><time>2026-04-27T10:22:56.193Z</time></trkpt>
      <trkpt lat="26.288599" lon="98.871029"><time>2026-04-27T10:22:56.209Z</time></trkpt>
      <trkpt lat="26.288599" lon="98.871029"><time>2026-04-27T10:22:56.226Z</time></trkpt>
      <trkpt lat="26.288598" lon="98.871028"><time>2026-04-27T10:22:56.243Z</time></trkpt>
      <trkpt lat="26.288598" lon="98.871028"><time>2026-04-27T10:22:56.260Z</time></trkpt>
      <trkpt lat="26.288598" lon="98.871028"><time>2026-04-27T10:22:56.276Z</time></trkpt>
      <trkpt lat="26.288598" lon="98.871028"><time>2026-04-27T10:22:56.293Z</time></trkpt>
      <trkpt lat="26.288598" lon="98.871028"><time>2026-04-27T10:22:56.310Z</time></trkpt>
      <trkpt lat="26.288598" lon="98.871028"><time>2026-04-27T10:22:56.326Z</time></trkpt>
      <trkpt lat="26.288589" lon="98.871038"><time>2026-04-27T10:22:56.343Z</time></trkpt>
      <trkpt lat="26.288589" lon="98.871038"><time>2026-04-27T10:22:56.360Z</time></trkpt>
      <trkpt lat="26.288589" lon="98.871038"><time>2026-04-27T10:22:56.376Z</time></trkpt>
      <trkpt lat="26.288589" lon="98.871038"><time>2026-04-27T10:22:56.393Z</time></trkpt>
      <trkpt lat="26.288589" lon="98.871038"><time>2026-04-27T10:22:56.410Z</time></trkpt>
      <trkpt lat="26.288589" lon="98.871038"><time>2026-04-27T10:22:56.426Z</time></trkpt>
      <trkpt lat="26.288589" lon="98.871037"><time>2026-04-27T10:22:56.443Z</time></trkpt>
      <trkpt lat="26.288589" lon="98.871037"><time>2026-04-27T10:22:56.460Z</time></trkpt>
      <trkpt lat="26.288589" lon="98.871037"><time>2026-04-27T10:22:56.476Z</time></trkpt>
      <trkpt lat="26.288589" lon="98.871037"><time>2026-04-27T10:22:56.493Z</time></trkpt>
      <trkpt lat="26.288589" lon="98.871037"><time>2026-04-27T10:22:56.510Z</time></trkpt>
      <trkpt lat="26.288589" lon="98.871037"><time>2026-04-27T10:22:56.526Z</time></trkpt>
      <trkpt lat="26.288589" lon="98.871036"><time>2026-04-27T10:22:56.543Z</time></trkpt>
      <trkpt lat="26.288589" lon="98.871036"><time>2026-04-27T10:22:56.560Z</time></trkpt>
      <trkpt lat="26.288589" lon="98.871036"><time>2026-04-27T10:22:56.577Z</time></trkpt>
      <trkpt lat="26.288589" lon="98.871036"><time>2026-04-27T10:22:56.593Z</time></trkpt>
      <trkpt lat="26.288589" lon="98.871036"><time>2026-04-27T10:22:56.610Z</time></trkpt>
      <trkpt lat="26.288589" lon="98.871036"><time>2026-04-27T10:22:56.627Z</time></trkpt>
      <trkpt lat="26.288589" lon="98.871035"><time>2026-04-27T10:22:56.643Z</time></trkpt>
      <trkpt lat="26.288589" lon="98.871035"><time>2026-04-27T10:22:56.660Z</time></trkpt>
      <trkpt lat="26.288589" lon="98.871035"><time>2026-04-27T10:22:56.677Z</time></trkpt>
      <trkpt lat="26.288589" lon="98.871035"><time>2026-04-27T10:22:56.693Z</time></trkpt>
      <trkpt lat="26.288589" lon="98.871035"><time>2026-04-27T10:22:56.710Z</time></trkpt>
      <trkpt lat="26.288589" lon="98.871035"><time>2026-04-27T10:22:56.727Z</time></trkpt>
      <trkpt lat="26.28859" lon="98.871034"><time>2026-04-27T10:22:56.743Z</time></trkpt>
      <trkpt lat="26.28859" lon="98.871034"><time>2026-04-27T10:22:56.760Z</time></trkpt>
      <trkpt lat="26.28859" lon="98.871034"><time>2026-04-27T10:22:56.777Z</time></trkpt>
      <trkpt lat="26.28859" lon="98.871034"><time>2026-04-27T10:22:56.793Z</time></trkpt>
      <trkpt lat="26.28859" lon="98.871034"><time>2026-04-27T10:22:56.810Z</time></trkpt>
      <trkpt lat="26.28859" lon="98.871034"><time>2026-04-27T10:22:56.827Z</time></trkpt>
      <trkpt lat="26.28859" lon="98.871033"><time>2026-04-27T10:22:56.843Z</time></trkpt>
      <trkpt lat="26.28859" lon="98.871033"><time>2026-04-27T10:22:56.860Z</time></trkpt>
      <trkpt lat="26.28859" lon="98.871033"><time>2026-04-27T10:22:56.877Z</time></trkpt>
      <trkpt lat="26.28859" lon="98.871033"><time>2026-04-27T10:22:56.894Z</time></trkpt>
      <trkpt lat="26.28859" lon="98.871033"><time>2026-04-27T10:22:56.910Z</time></trkpt>
      <trkpt lat="26.28859" lon="98.871033"><time>2026-04-27T10:22:56.927Z</time></trkpt>
      <trkpt lat="26.28859" lon="98.871033"><time>2026-04-27T10:22:56.944Z</time></trkpt>
      <trkpt lat="26.28859" lon="98.871033"><time>2026-04-27T10:22:56.960Z</time></trkpt>
      <trkpt lat="26.28859" lon="98.871033"><time>2026-04-27T10:22:56.977Z</time></trkpt>
      <trkpt lat="26.28859" lon="98.871033"><time>2026-04-27T10:22:56.994Z</time></trkpt>
      <trkpt lat="26.28859" lon="98.871033"><time>2026-04-27T10:22:57.010Z</time></trkpt>
      <trkpt lat="26.28859" lon="98.871033"><time>2026-04-27T10:22:57.027Z</time></trkpt>
      <trkpt lat="26.28859" lon="98.871032"><time>2026-04-27T10:22:57.044Z</time></trkpt>
      <trkpt lat="26.28859" lon="98.871032"><time>2026-04-27T10:22:57.060Z</time></trkpt>
      <trkpt lat="26.28859" lon="98.871032"><time>2026-04-27T10:22:57.077Z</time></trkpt>
      <trkpt lat="26.28859" lon="98.871032"><time>2026-04-27T10:22:57.094Z</time></trkpt>
      <trkpt lat="26.28859" lon="98.871032"><time>2026-04-27T10:22:57.110Z</time></trkpt>
      <trkpt lat="26.28859" lon="98.871032"><time>2026-04-27T10:22:57.127Z</time></trkpt>
      <trkpt lat="26.288591" lon="98.871031"><time>2026-04-27T10:22:57.144Z</time></trkpt>
      <trkpt lat="26.288591" lon="98.871031"><time>2026-04-27T10:22:57.160Z</time></trkpt>
      <trkpt lat="26.288591" lon="98.871031"><time>2026-04-27T10:22:57.177Z</time></trkpt>
      <trkpt lat="26.288591" lon="98.871031"><time>2026-04-27T10:22:57.194Z</time></trkpt>
      <trkpt lat="26.288591" lon="98.871031"><time>2026-04-27T10:22:57.211Z</time></trkpt>
      <trkpt lat="26.288591" lon="98.871031"><time>2026-04-27T10:22:57.227Z</time></trkpt>
      <trkpt lat="26.288592" lon="98.87103"><time>2026-04-27T10:22:57.244Z</time></trkpt>
      <trkpt lat="26.288592" lon="98.87103"><time>2026-04-27T10:22:57.261Z</time></trkpt>
      <trkpt lat="26.288592" lon="98.87103"><time>2026-04-27T10:22:57.277Z</time></trkpt>
      <trkpt lat="26.288592" lon="98.87103"><time>2026-04-27T10:22:57.294Z</time></trkpt>
      <trkpt lat="26.288592" lon="98.87103"><time>2026-04-27T10:22:57.311Z</time></trkpt>
      <trkpt lat="26.288592" lon="98.87103"><time>2026-04-27T10:22:57.327Z</time></trkpt>
      <trkpt lat="26.288593" lon="98.871029"><time>2026-04-27T10:22:57.344Z</time></trkpt>
      <trkpt lat="26.288593" lon="98.871029"><time>2026-04-27T10:22:57.361Z</time></trkpt>
      <trkpt lat="26.288593" lon="98.871029"><time>2026-04-27T10:22:57.377Z</time></trkpt>
      <trkpt lat="26.288593" lon="98.871029"><time>2026-04-27T10:22:57.394Z</time></trkpt>
      <trkpt lat="26.288593" lon="98.871029"><time>2026-04-27T10:22:57.411Z</time></trkpt>
      <trkpt lat="26.288593" lon="98.871029"><time>2026-04-27T10:22:57.427Z</time></trkpt>
      <trkpt lat="26.288594" lon="98.871028"><time>2026-04-27T10:22:57.444Z</time></trkpt>
      <trkpt lat="26.288594" lon="98.871028"><time>2026-04-27T10:22:57.461Z</time></trkpt>
      <trkpt lat="26.288594" lon="98.871028"><time>2026-04-27T10:22:57.477Z</time></trkpt>
      <trkpt lat="26.288594" lon="98.871028"><time>2026-04-27T10:22:57.494Z</time></trkpt>
      <trkpt lat="26.288594" lon="98.871028"><time>2026-04-27T10:22:57.511Z</time></trkpt>
      <trkpt lat="26.288594" lon="98.871028"><time>2026-04-27T10:22:57.528Z</time></trkpt>
      <trkpt lat="26.288596" lon="98.871027"><time>2026-04-27T10:22:57.544Z</time></trkpt>
      <trkpt lat="26.288596" lon="98.871027"><time>2026-04-27T10:22:57.561Z</time></trkpt>
      <trkpt lat="26.288596" lon="98.871027"><time>2026-04-27T10:22:57.578Z</time></trkpt>
      <trkpt lat="26.288596" lon="98.871027"><time>2026-04-27T10:22:57.594Z</time></trkpt>
      <trkpt lat="26.288596" lon="98.871027"><time>2026-04-27T10:22:57.611Z</time></trkpt>
      <trkpt lat="26.288596" lon="98.871027"><time>2026-04-27T10:22:57.628Z</time></trkpt>
      <trkpt lat="26.288598" lon="98.871025"><time>2026-04-27T10:22:57.644Z</time></trkpt>
      <trkpt lat="26.288598" lon="98.871025"><time>2026-04-27T10:22:57.661Z</time></trkpt>
      <trkpt lat="26.288598" lon="98.871025"><time>2026-04-27T10:22:57.678Z</time></trkpt>
      <trkpt lat="26.288598" lon="98.871025"><time>2026-04-27T10:22:57.694Z</time></trkpt>
      <trkpt lat="26.288598" lon="98.871025"><time>2026-04-27T10:22:57.711Z</time></trkpt>
      <trkpt lat="26.288598" lon="98.871025"><time>2026-04-27T10:22:57.728Z</time></trkpt>
      <trkpt lat="26.2886" lon="98.871024"><time>2026-04-27T10:22:57.744Z</time></trkpt>
      <trkpt lat="26.2886" lon="98.871024"><time>2026-04-27T10:22:57.761Z</time></trkpt>
      <trkpt lat="26.2886" lon="98.871024"><time>2026-04-27T10:22:57.778Z</time></trkpt>
      <trkpt lat="26.2886" lon="98.871024"><time>2026-04-27T10:22:57.794Z</time></trkpt>
      <trkpt lat="26.2886" lon="98.871024"><time>2026-04-27T10:22:57.811Z</time></trkpt>
      <trkpt lat="26.2886" lon="98.871024"><time>2026-04-27T10:22:57.828Z</time></trkpt>
      <trkpt lat="26.288602" lon="98.871022"><time>2026-04-27T10:22:57.845Z</time></trkpt>
      <trkpt lat="26.288602" lon="98.871022"><time>2026-04-27T10:22:57.861Z</time></trkpt>
      <trkpt lat="26.288602" lon="98.871022"><time>2026-04-27T10:22:57.878Z</time></trkpt>
      <trkpt lat="26.288602" lon="98.871022"><time>2026-04-27T10:22:57.895Z</time></trkpt>
      <trkpt lat="26.288602" lon="98.871022"><time>2026-04-27T10:22:57.911Z</time></trkpt>
      <trkpt lat="26.288602" lon="98.871022"><time>2026-04-27T10:22:57.928Z</time></trkpt>
      <trkpt lat="26.288604" lon="98.87102"><time>2026-04-27T10:22:57.945Z</time></trkpt>
      <trkpt lat="26.288604" lon="98.87102"><time>2026-04-27T10:22:57.961Z</time></trkpt>
      <trkpt lat="26.288604" lon="98.87102"><time>2026-04-27T10:22:57.978Z</time></trkpt>
      <trkpt lat="26.288604" lon="98.87102"><time>2026-04-27T10:22:57.995Z</time></trkpt>
      <trkpt lat="26.288604" lon="98.87102"><time>2026-04-27T10:22:58.011Z</time></trkpt>
      <trkpt lat="26.288604" lon="98.87102"><time>2026-04-27T10:22:58.028Z</time></trkpt>
      <trkpt lat="26.288607" lon="98.871018"><time>2026-04-27T10:22:58.045Z</time></trkpt>
      <trkpt lat="26.288607" lon="98.871018"><time>2026-04-27T10:22:58.061Z</time></trkpt>
      <trkpt lat="26.288607" lon="98.871018"><time>2026-04-27T10:22:58.078Z</time></trkpt>
      <trkpt lat="26.288607" lon="98.871018"><time>2026-04-27T10:22:58.095Z</time></trkpt>
      <trkpt lat="26.288607" lon="98.871018"><time>2026-04-27T10:22:58.111Z</time></trkpt>
      <trkpt lat="26.288607" lon="98.871018"><time>2026-04-27T10:22:58.128Z</time></trkpt>
      <trkpt lat="26.28861" lon="98.871015"><time>2026-04-27T10:22:58.145Z</time></trkpt>
      <trkpt lat="26.28861" lon="98.871015"><time>2026-04-27T10:22:58.162Z</time></trkpt>
      <trkpt lat="26.28861" lon="98.871015"><time>2026-04-27T10:22:58.178Z</time></trkpt>
      <trkpt lat="26.28861" lon="98.871015"><time>2026-04-27T10:22:58.195Z</time></trkpt>
      <trkpt lat="26.28861" lon="98.871015"><time>2026-04-27T10:22:58.212Z</time></trkpt>
      <trkpt lat="26.28861" lon="98.871015"><time>2026-04-27T10:22:58.228Z</time></trkpt>
      <trkpt lat="26.288613" lon="98.871013"><time>2026-04-27T10:22:58.245Z</time></trkpt>
      <trkpt lat="26.288613" lon="98.871013"><time>2026-04-27T10:22:58.262Z</time></trkpt>
      <trkpt lat="26.288613" lon="98.871013"><time>2026-04-27T10:22:58.278Z</time></trkpt>
      <trkpt lat="26.288613" lon="98.871013"><time>2026-04-27T10:22:58.295Z</time></trkpt>
      <trkpt lat="26.288613" lon="98.871013"><time>2026-04-27T10:22:58.312Z</time></trkpt>
      <trkpt lat="26.288613" lon="98.871013"><time>2026-04-27T10:22:58.328Z</time></trkpt>
      <trkpt lat="26.288615" lon="98.87101"><time>2026-04-27T10:22:58.345Z</time></trkpt>
      <trkpt lat="26.288615" lon="98.87101"><time>2026-04-27T10:22:58.362Z</time></trkpt>
      <trkpt lat="26.288615" lon="98.87101"><time>2026-04-27T10:22:58.378Z</time></trkpt>
      <trkpt lat="26.288615" lon="98.87101"><time>2026-04-27T10:22:58.395Z</time></trkpt>
      <trkpt lat="26.288615" lon="98.87101"><time>2026-04-27T10:22:58.412Z</time></trkpt>
      <trkpt lat="26.288615" lon="98.87101"><time>2026-04-27T10:22:58.428Z</time></trkpt>
    </trkseg>
  </trk>
</gpx>
