<?xml version="1.0" encoding="UTF-8"?>
<gpx version="1.1" creator="Kairos" xmlns="http://www.topografix.com/GPX/1/1">
  <trk>
    <name>sidecar-srt-0420c3093c51d3f3</name>
    <trkseg>
      <trkpt lat="29.799356" lon="99.756562"><time>2026-05-02T22:52:11.000Z</time></trkpt>
      <trkpt lat="29.799356" lon="99.756562"><time>2026-05-02T22:52:11.016Z</time></trkpt>
      <trkpt lat="29.799356" lon="99.756562"><time>2026-05-02T22:52:11.032Z</time></trkpt>
      <trkpt lat="29.799356" lon="99.756562"><time>2026-05-02T22:52:11.049Z</time></trkpt>
      <trkpt lat="29.799356" lon="99.756562"><time>2026-05-02T22:52:11.066Z</time></trkpt>
      <trkpt lat="29.799356" lon="99.756562"><time>2026-05-02T22:52:11.082Z</time></trkpt>
      <trkpt lat="29.799356" lon="99.756562"><time>2026-05-02T22:52:11.099Z</time></trkpt>
      <trkpt lat="29.799356" lon="99.756562"><time>2026-05-02T22:52:11.116Z</time></trkpt>
      <trkpt lat="29.799356" lon="99.756562"><time>2026-05-02T22:52:11.132Z</time></trkpt>
      <trkpt lat="29.799356" lon="99.756562"><time>2026-05-02T22:52:11.149Z</time></trkpt>
      <trkpt lat="29.799356" lon="99.756562"><time>2026-05-02T22:52:11.166Z</time></trkpt>
      <trkpt lat="29.799356" lon="99.756562"><time>2026-05-02T22:52:11.182Z</time></trkpt>
      <trkpt lat="29.799356" lon="99.756562"><time>2026-05-02T22:52:11.199Z</time></trkpt>
      <trkpt lat="29.799356" lon="99.756562"><time>2026-05-02T22:52:11.216Z</time></trkpt>
      <trkpt lat="29.799355" lon="99.756562"><time>2026-05-02T22:52:11.232Z</time></trkpt>
      <trkpt lat="29.799355" lon="99.756562"><time>2026-05-02T22:52:11.249Z</time></trkpt>
      <trkpt lat="29.799355" lon="99.756562"><time>2026-05-02T22:52:11.266Z</time></trkpt>
      <trkpt lat="29.799355" lon="99.756562"><time>2026-05-02T22:52:11.282Z</time></trkpt>
      <trkpt lat="29.799355" lon="99.756562"><time>2026-05-02T22:52:11.299Z</time></trkpt>
      <trkpt lat="29.799355" lon="99.756562"><time>2026-05-02T22:52:11.316Z</time></trkpt>
      <trkpt lat="29.799355" lon="99.756563"><time>2026-05-02T22:52:11.333Z</time></trkpt>
      <trkpt lat="29.799355" lon="99.756563"><time>2026-05-02T22:52:11.349Z</time></trkpt>
      <trkpt lat="29.799355" lon="99.756563"><time>2026-05-02T22:52:11.366Z</time></trkpt>
      <trkpt lat="29.799355" lon="99.756563"><time>2026-05-02T22:52:11.383Z</time></trkpt>
      <trkpt lat="29.799355" lon="99.756563"><time>2026-05-02T22:52:11.399Z</time></trkpt>
      <trkpt lat="29.799355" lon="99.756563"><time>2026-05-02T22:52:11.416Z</time></trkpt>
      <trkpt lat="29.799355" lon="99.756564"><time>2026-05-02T22:52:11.433Z</time></trkpt>
      <trkpt lat="29.799355" lon="99.756564"><time>2026-05-02T22:52:11.449Z</time></trkpt>
      <trkpt lat="29.799355" lon="99.756564"><time>2026-05-02T22:52:11.466Z</time></trkpt>
      <trkpt lat="29.799355" lon="99.756564"><time>2026-05-02T22:52:11.483Z</time></trkpt>
      <trkpt lat="29.799355" lon="99.756564"><time>2026-05-02T22:52:11.499Z</time></trkpt>
      <trkpt lat="29.799355" lon="99.756564"><time>2026-05-02T22:52:11.516Z</time></trkpt>
      <trkpt lat="29.799355" lon="99.756565"><time>2026-05-02T22:52:11.533Z</time></trkpt>
      <trkpt lat="29.799355" lon="99.756565"><time>2026-05-02T22:52:11.549Z</time></trkpt>
      <trkpt lat="29.799355" lon="99.756565"><time>2026-05-02T22:52:11.566Z</time></trkpt>
      <trkpt lat="29.799355" lon="99.756565"><time>2026-05-02T22:52:11.583Z</time></trkpt>
      <trkpt lat="29.799355" lon="99.756565"><time>2026-05-02T22:52:11.599Z</time></trkpt>
      <trkpt lat="29.799355" lon="99.756565"><time>2026-05-02T22:52:11.616Z</time></trkpt>
      <trkpt lat="29.799355" lon="99.756567"><time>2026-05-02T22:52:11.633Z</time></trkpt>
      <trkpt lat="29.799355" lon="99.756567"><time>2026-05-02T22:52:11.650Z</time></trkpt>
      <trkpt lat="29.799355" lon="99.756567"><time>2026-05-02T22:52:11.666Z</time></trkpt>
      <trkpt lat="29.799355" lon="99.756567"><time>2026-05-02T22:52:11.683Z</time></trkpt>
      <trkpt lat="29.799355" lon="99.756567"><time>2026-05-02T22:52:11.700Z</time></trkpt>
      <trkpt lat="29.799355" lon="99.756567"><time>2026-05-02T22:52:11.716Z</time></trkpt>
      <trkpt lat="29.799354" lon="99.756569"><time>2026-05-02T22:52:11.733Z</time></trkpt>
      <trkpt lat="29.799354" lon="99.756569"><time>2026-05-02T22:52:11.750Z</time></trkpt>
      <trkpt lat="29.799354" lon="99.756569"><time>2026-05-02T22:52:11.766Z</time></trkpt>
      <trkpt lat="29.799354" lon="99.756569"><time>2026-05-02T22:52:11.783Z</time></trkpt>
      <trkpt lat="29.799354" lon="99.756569"><time>2026-05-02T22:52:11.800Z</time></trkpt>
      <trkpt lat="29.799354" lon="99.756569"><time>2026-05-02T22:52:11.816Z</time></trkpt>
      <trkpt lat="29.799354" lon="99.756571"><time>2026-05-02T22:52:11.833Z</time></trkpt>
      <trkpt lat="29.799354" lon="99.756571"><time>2026-05-02T22:52:11.850Z</time></trkpt>
      <trkpt lat="29.799354" lon="99.756571"><time>2026-05-02T22:52:11.866Z</time></trkpt>
      <trkpt lat="29.799354" lon="99.756571"><time>2026-05-02T22:52:11.883Z</time></trkpt>
      <trkpt lat="29.799354" lon="99.756571"><time>2026-05-02T22:52:11.900Z</time></trkpt>
      <trkpt lat="29.799354" lon="99.756571"><time>2026-05-02T22:52:11.916Z</time></trkpt>
      <trkpt lat="29.799353" lon="99.756574"><time>2026-05-02T22:52:11.933Z</time></trkpt>
      <trkpt lat="29.799353" lon="99.756574"><time>2026-05-02T22:52:11.950Z</time></trkpt>
      <trkpt lat="29.799353" lon="99.756574"><time>2026-05-02T22:52:11.967Z</time></trkpt>
      <trkpt lat="29.799353" lon="99.756574"><time>2026-05-02T22:52:11.983Z</time></trkpt>
      <trkpt lat="29.799353" lon="99.756574"><time>2026-05-02T22:52:12.000Z</time></trkpt>
      <trkpt lat="29.799353" lon="99.756574"><time>2026-05-02T22:52:12.017Z</time></trkpt>
      <trkpt lat="29.799353" lon="99.756576"><time>2026-05-02T22:52:12.033Z</time></trkpt>
      <trkpt lat="29.799353" lon="99.756576"><time>2026-05-02T22:52:12.050Z</time></trkpt>
      <trkpt lat="29.799353" lon="99.756576"><time>2026-05-02T22:52:12.067Z</time></trkpt>
      <trkpt lat="29.799353" lon="99.756576"><time>2026-05-02T22:52:12.083Z</time></trkpt>
      <trkpt lat="29.799353" lon="99.756576"><time>2026-05-02T22:52:12.100Z</time></trkpt>
      <trkpt lat="29.799353" lon="99.756576"><time>2026-05-02T22:52:12.117Z</time></trkpt>
      <trkpt lat="29.799352" lon="99.75658"><time>2026-05-02T22:52:12.133Z</time></trkpt>
      <trkpt lat="29.799352" lon="99.75658"><time>2026-05-02T22:52:12.150Z</time></trkpt>
      <trkpt lat="29.799352" lon="99.75658"><time>2026-05-02T22:52:12.167Z</time></trkpt>
      <trkpt lat="29.799352" lon="99.75658"><time>2026-05-02T22:52:12.183Z</time></trkpt>
      <trkpt lat="29.799352" lon="99.75658"><time>2026-05-02T22:52:12.200Z</time></trkpt>
      <trkpt lat="29.799352" lon="99.75658"><time>2026-05-02T22:52:12.217Z</time></trkpt>
      <trkpt lat="29.799351" lon="99.756583"><time>2026-05-02T22:52:12.233Z</time></trkpt>
      <trkpt lat="29.799351" lon="99.756583"><time>2026-05-02T22:52:12.250Z</time></trkpt>
      <trkpt lat="29.799351" lon="99.756583"><time>2026-05-02T22:52:12.267Z</time></trkpt>
      <trkpt lat="29.799351" lon="99.756583"><time>2026-05-02T22:52:12.283Z</time></trkpt>
      <trkpt lat="29.799351" lon="99.756583"><time>2026-05-02T22:52:12.300Z</time></trkpt>
      <trkpt lat="29.799351" lon="99.756583"><time>2026-05-02T22:52:12.317Z</time></trkpt>
      <trkpt lat="29.79935" lon="99.756587"><time>2026-05-02T22:52:12.334Z</time></trkpt>
      <trkpt lat="29.79935" lon="99.756587"><time>2026-05-02T22:52:12.350Z</time></trkpt>
      <trkpt lat="29.79935" lon="99.756587"><time>2026-05-02T22:52:12.367Z</time></trkpt>
      <trkpt lat="29.79935" lon="99.756587"><time>2026-05-02T22:52:12.384Z</time></trkpt>
      <trkpt lat="29.79935" lon="99.756587"><time>2026-05-02T22:52:12.400Z</time></trkpt>
      <trkpt lat="29.79935" lon="99.756587"><time>2026-05-02T22:52:12.417Z</time></trkpt>
      <trkpt lat="29.799349" lon="99.756591"><time>2026-05-02T22:52:12.434Z</time></trkpt>
      <trkpt lat="29.799349" lon="99.756591"><time>2026-05-02T22:52:12.450Z</time></trkpt>
      <trkpt lat="29.799349" lon="99.756591"><time>2026-05-02T22:52:12.467Z</time></trkpt>
      <trkpt lat="29.799349" lon="99.756591"><time>2026-05-02T22:52:12.484Z</time></trkpt>
      <trkpt lat="29.799349" lon="99.756591"><time>2026-05-02T22:52:12.500Z</time></trkpt>
      <trkpt lat="29.799349" lon="99.756591"><time>2026-05-02T22:52:12.517Z</time></trkpt>
      <trkpt lat="29.799348" lon="99.756596"><time>2026-05-02T22:52:12.534Z</time></trkpt>
      <trkpt lat="29.799348" lon="99.756596"><time>2026-05-02T22:52:12.550Z</time></trkpt>
      <trkpt lat="29.799348" lon="99.756596"><time>2026-05-02T22:52:12.567Z</time></trkpt>
      <trkpt lat="29.799348" lon="99.756596"><time>2026-05-02T22:52:12.584Z</time></trkpt>
      <trkpt lat="29.799348" lon="99.756596"><time>2026-05-02T22:52:12.600Z</time></trkpt>
      <trkpt lat="29.799348" lon="99.756596"><time>2026-05-02T22:52:12.617Z</time></trkpt>
      <trkpt lat="29.799347" lon="99.756601"><time>2026-05-02T22:52:12.634Z</time></trkpt>
      <trkpt lat="29.799347" lon="99.756601"><time>2026-05-02T22:52:12.651Z</time></trkpt>
      <trkpt lat="29.799347" lon="99.756601"><time>2026-05-02T22:52:12.667Z</time></trkpt>
      <trkpt lat="29.799347" lon="99.756601"><time>2026-05-02T22:52:12.684Z</time></trkpt>
      <trkpt lat="29.799347" lon="99.756601"><time>2026-05-02T22:52:12.701Z</time></trkpt>
      <trkpt lat="29.799347" lon="99.756601"><time>2026-05-02T22:52:12.717Z</time></trkpt>
      <trkpt lat="29.799346" lon="99.756606"><time>2026-05-02T22:52:12.734Z</time></trkpt>
      <trkpt lat="29.799346" lon="99.756606"><time>2026-05-02T22:52:12.751Z</time></trkpt>
      <trkpt lat="29.799346" lon="99.756606"><time>2026-05-02T22:52:12.767Z</time></trkpt>
      <trkpt lat="29.799346" lon="99.756606"><time>2026-05-02T22:52:12.784Z</time></trkpt>
      <trkpt lat="29.799346" lon="99.756606"><time>2026-05-02T22:52:12.801Z</time></trkpt>
      <trkpt lat="29.799346" lon="99.756606"><time>2026-05-02T22:52:12.817Z</time></trkpt>
      <trkpt lat="29.799345" lon="99.756611"><time>2026-05-02T22:52:12.834Z</time></trkpt>
      <trkpt lat="29.799345" lon="99.756611"><time>2026-05-02T22:52:12.851Z</time></trkpt>
      <trkpt lat="29.799345" lon="99.756611"><time>2026-05-02T22:52:12.867Z</time></trkpt>
      <trkpt lat="29.799345" lon="99.756611"><time>2026-05-02T22:52:12.884Z</time></trkpt>
      <trkpt lat="29.799345" lon="99.756611"><time>2026-05-02T22:52:12.901Z</time></trkpt>
      <trkpt lat="29.799345" lon="99.756611"><time>2026-05-02T22:52:12.917Z</time></trkpt>
      <trkpt lat="29.799344" lon="99.756617"><time>2026-05-02T22:52:12.934Z</time></trkpt>
      <trkpt lat="29.799344" lon="99.756617"><time>2026-05-02T22:52:12.951Z</time></trkpt>
      <trkpt lat="29.799344" lon="99.756617"><time>2026-05-02T22:52:12.968Z</time></trkpt>
      <trkpt lat="29.799344" lon="99.756617"><time>2026-05-02T22:52:12.984Z</time></trkpt>
      <trkpt lat="29.799344" lon="99.756617"><time>2026-05-02T22:52:13.001Z</time></trkpt>
      <trkpt lat="29.799344" lon="99.756617"><time>2026-05-02T22:52:13.018Z</time></trkpt>
      <trkpt lat="29.799343" lon="99.756623"><time>2026-05-02T22:52:13.034Z</time></trkpt>
      <trkpt lat="29.799343" lon="99.756623"><time>2026-05-02T22:52:13.051Z</time></trkpt>
      <trkpt lat="29.799343" lon="99.756623"><time>2026-05-02T22:52:13.068Z</time></trkpt>
      <trkpt lat="29.799343" lon="99.756623"><time>2026-05-02T22:52:13.084Z</time></trkpt>
      <trkpt lat="29.799343" lon="99.756623"><time>2026-05-02T22:52:13.101Z</time></trkpt>
      <trkpt lat="29.799343" lon="99.756623"><time>2026-05-02T22:52:13.118Z</time></trkpt>
      <trkpt lat="29.799341" lon="99.75663"><time>2026-05-02T22:52:13.134Z</time></trkpt>
      <trkpt lat="29.799341" lon="99.75663"><time>2026-05-02T22:52:13.151Z</time></trkpt>
      <trkpt lat="29.799341" lon="99.75663"><time>2026-05-02T22:52:13.168Z</time></trkpt>
      <trkpt lat="29.799341" lon="99.75663"><time>2026-05-02T22:52:13.184Z</time></trkpt>
      <trkpt lat="29.799341" lon="99.75663"><time>2026-05-02T22:52:13.201Z</time></trkpt>
      <trkpt lat="29.799341" lon="99.75663"><time>2026-05-02T22:52:13.218Z</time></trkpt>
      <trkpt lat="29.79934" lon="99.756636"><time>2026-05-02T22:52:13.234Z</time></trkpt>
      <trkpt lat="29.79934" lon="99.756636"><time>2026-05-02T22:52:13.251Z</time></trkpt>
      <trkpt lat="29.79934" lon="99.756636"><time>2026-05-02T22:52:13.268Z</time></trkpt>
      <trkpt lat="29.79934" lon="99.756636"><time>2026-05-02T22:52:13.285Z</time></trkpt>
      <trkpt lat="29.79934" lon="99.756636"><time>2026-05-02T22:52:13.301Z</time></trkpt>
      <trkpt lat="29.79934" lon="99.756636"><time>2026-05-02T22:52:13.318Z</time></trkpt>
      <trkpt lat="29.799338" lon="99.756643"><time>2026-05-02T22:52:13.335Z</time></trkpt>
      <trkpt lat="29.799338" lon="99.756643"><time>2026-05-02T22:52:13.351Z</time></trkpt>
      <trkpt lat="29.799338" lon="99.756643"><time>2026-05-02T22:52:13.368Z</time></trkpt>
      <trkpt lat="29.799338" lon="99.756643"><time>2026-05-02T22:52:13.385Z</time></trkpt>
      <trkpt lat="29.799338" lon="99.756643"><time>2026-05-02T22:52:13.401Z</time></trkpt>
      <trkpt lat="29.799338" lon="99.756643"><time>2026-05-02T22:52:13.418Z</time></trkpt>
      <trkpt lat="29.799337" lon="99.756649"><time>2026-05-02T22:52:13.435Z</time></trkpt>
      <trkpt lat="29.799337" lon="99.756649"><time>2026-05-02T22:52:13.451Z</time></trkpt>
      <trkpt lat="29.799337" lon="99.756649"><time>2026-05-02T22:52:13.468Z</time></trkpt>
      <trkpt lat="29.799337" lon="99.756649"><time>2026-05-02T22:52:13.485Z</time></trkpt>
      <trkpt lat="29.799337" lon="99.756649"><time>2026-05-02T22:52:13.501Z</time></trkpt>
      <trkpt lat="29.799337" lon="99.756649"><time>2026-05-02T22:52:13.518Z</time></trkpt>
      <trkpt lat="29.799335" lon="99.756656"><time>2026-05-02T22:52:13.535Z</time></trkpt>
      <trkpt lat="29.799335" lon="99.756656"><time>2026-05-02T22:52:13.551Z</time></trkpt>
      <trkpt lat="29.799335" lon="99.756656"><time>2026-05-02T22:52:13.568Z</time></trkpt>
      <trkpt lat="29.799335" lon="99.756656"><time>2026-05-02T22:52:13.585Z</time></trkpt>
      <trkpt lat="29.799335" lon="99.756656"><time>2026-05-02T22:52:13.602Z</time></trkpt>
      <trkpt lat="29.799335" lon="99.756656"><time>2026-05-02T22:52:13.618Z</time></trkpt>
      <trkpt lat="29.799334" lon="99.756662"><time>2026-05-02T22:52:13.635Z</time></trkpt>
      <trkpt lat="29.799334" lon="99.756662"><time>2026-05-02T22:52:13.652Z</time></trkpt>
      <trkpt lat="29.799334" lon="99.756662"><time>2026-05-02T22:52:13.668Z</time></trkpt>
      <trkpt lat="29.799334" lon="99.756662"><time>2026-05-02T22:52:13.685Z</time></trkpt>
      <trkpt lat="29.799334" lon="99.756662"><time>2026-05-02T22:52:13.702Z</time></trkpt>
      <trkpt lat="29.799334" lon="99.756662"><time>2026-05-02T22:52:13.718Z</time></trkpt>
      <trkpt lat="29.799332" lon="99.756669"><time>2026-05-02T22:52:13.735Z</time></trkpt>
      <trkpt lat="29.799332" lon="99.756669"><time>2026-05-02T22:52:13.752Z</time></trkpt>
      <trkpt lat="29.799332" lon="99.756669"><time>2026-05-02T22:52:13.768Z</time></trkpt>
      <trkpt lat="29.799332" lon="99.756669"><time>2026-05-02T22:52:13.785Z</time></trkpt>
      <trkpt lat="29.799332" lon="99.756669"><time>2026-05-02T22:52:13.802Z</time></trkpt>
      <trkpt lat="29.799332" lon="99.756669"><time>2026-05-02T22:52:13.818Z</time></trkpt>
      <trkpt lat="29.799331" lon="99.756675"><time>2026-05-02T22:52:13.835Z</time></trkpt>
      <trkpt lat="29.799331" lon="99.756675"><time>2026-05-02T22:52:13.852Z</time></trkpt>
      <trkpt lat="29.799331" lon="99.756675"><time>2026-05-02T22:52:13.868Z</time></trkpt>
      <trkpt lat="29.799331" lon="99.756675"><time>2026-05-02T22:52:13.885Z</time></trkpt>
      <trkpt lat="29.799331" lon="99.756675"><time>2026-05-02T22:52:13.902Z</time></trkpt>
      <trkpt lat="29.799331" lon="99.756675"><time>2026-05-02T22:52:13.919Z</time></trkpt>
      <trkpt lat="29.79933" lon="99.756682"><time>2026-05-02T22:52:13.935Z</time></trkpt>
      <trkpt lat="29.79933" lon="99.756682"><time>2026-05-02T22:52:13.952Z</time></trkpt>
      <trkpt lat="29.79933" lon="99.756682"><time>2026-05-02T22:52:13.969Z</time></trkpt>
      <trkpt lat="29.79933" lon="99.756682"><time>2026-05-02T22:52:13.985Z</time></trkpt>
      <trkpt lat="29.79933" lon="99.756682"><time>2026-05-02T22:52:14.002Z</time></trkpt>
      <trkpt lat="29.79933" lon="99.756682"><time>2026-05-02T22:52:14.019Z</time></trkpt>
      <trkpt lat="29.799328" lon="99.756688"><time>2026-05-02T22:52:14.035Z</time></trkpt>
      <trkpt lat="29.799328" lon="99.756688"><time>2026-05-02T22:52:14.052Z</time></trkpt>
      <trkpt lat="29.799328" lon="99.756688"><time>2026-05-02T22:52:14.069Z</time></trkpt>
      <trkpt lat="29.799328" lon="99.756688"><time>2026-05-02T22:52:14.085Z</time></trkpt>
      <trkpt lat="29.799328" lon="99.756688"><time>2026-05-02T22:52:14.102Z</time></trkpt>
      <trkpt lat="29.799328" lon="99.756688"><time>2026-05-02T22:52:14.119Z</time></trkpt>
      <trkpt lat="29.799327" lon="99.756694"><time>2026-05-02T22:52:14.135Z</time></trkpt>
      <trkpt lat="29.799327" lon="99.756694"><time>2026-05-02T22:52:14.152Z</time></trkpt>
      <trkpt lat="29.799327" lon="99.756694"><time>2026-05-02T22:52:14.169Z</time></trkpt>
      <trkpt lat="29.799327" lon="99.756694"><time>2026-05-02T22:52:14.185Z</time></trkpt>
      <trkpt lat="29.799327" lon="99.756694"><time>2026-05-02T22:52:14.202Z</time></trkpt>
      <trkpt lat="29.799327" lon="99.756694"><time>2026-05-02T22:52:14.219Z</time></trkpt>
      <trkpt lat="29.799326" lon="99.7567"><time>2026-05-02T22:52:14.236Z</time></trkpt>
      <trkpt lat="29.799326" lon="99.7567"><time>2026-05-02T22:52:14.252Z</time></trkpt>
      <trkpt lat="29.799326" lon="99.7567"><time>2026-05-02T22:52:14.269Z</time></trkpt>
      <trkpt lat="29.799326" lon="99.7567"><time>2026-05-02T22:52:14.286Z</time></trkpt>
      <trkpt lat="29.799326" lon="99.7567"><time>2026-05-02T22:52:14.302Z</time></trkpt>
      <trkpt lat="29.799326" lon="99.7567"><time>2026-05-02T22:52:14.319Z</time></trkpt>
      <trkpt lat="29.799324" lon="99.756707"><time>2026-05-02T22:52:14.336Z</time></trkpt>
      <trkpt lat="29.799324" lon="99.756707"><time>2026-05-02T22:52:14.352Z</time></trkpt>
      <trkpt lat="29.799324" lon="99.756707"><time>2026-05-02T22:52:14.369Z</time></trkpt>
      <trkpt lat="29.799324" lon="99.756707"><time>2026-05-02T22:52:14.386Z</time></trkpt>
      <trkpt lat="29.799324" lon="99.756707"><time>2026-05-02T22:52:14.402Z</time></trkpt>
      <trkpt lat="29.799324" lon="99.756707"><time>2026-05-02T22:52:14.419Z</time></trkpt>
      <trkpt lat="29.799323" lon="99.756713"><time>2026-05-02T22:52:14.436Z</time></trkpt>
      <trkpt lat="29.799323" lon="99.756713"><time>2026-05-02T22:52:14.452Z</time></trkpt>
      <trkpt lat="29.799323" lon="99.756713"><time>2026-05-02T22:52:14.469Z</time></trkpt>
      <trkpt lat="29.799323" lon="99.756713"><time>2026-05-02T22:52:14.486Z</time></trkpt>
      <trkpt lat="29.799323" lon="99.756713"><time>2026-05-02T22:52:14.502Z</time></trkpt>
      <trkpt lat="29.799323" lon="99.756713"><time>2026-05-02T22:52:14.519Z</time></trkpt>
      <trkpt lat="29.799322" lon="99.756719"><time>2026-05-02T22:52:14.536Z</time></trkpt>
      <trkpt lat="29.799322" lon="99.756719"><time>2026-05-02T22:52:14.553Z</time></trkpt>
      <trkpt lat="29.799322" lon="99.756719"><time>2026-05-02T22:52:14.569Z</time></trkpt>
      <trkpt lat="29.799322" lon="99.756719"><time>2026-05-02T22:52:14.586Z</time></trkpt>
      <trkpt lat="29.799322" lon="99.756719"><time>2026-05-02T22:52:14.603Z</time></trkpt>
      <trkpt lat="29.799322" lon="99.756719"><time>2026-05-02T22:52:14.619Z</time></trkpt>
      <trkpt lat="29.79932" lon="99.756725"><time>2026-05-02T22:52:14.636Z</time></trkpt>
      <trkpt lat="29.79932" lon="99.756725"><time>2026-05-02T22:52:14.653Z</time></trkpt>
      <trkpt lat="29.79932" lon="99.756725"><time>2026-05-02T22:52:14.669Z</time></trkpt>
      <trkpt lat="29.79932" lon="99.756725"><time>2026-05-02T22:52:14.686Z</time></trkpt>
      <trkpt lat="29.79932" lon="99.756725"><time>2026-05-02T22:52:14.703Z</time></trkpt>
      <trkpt lat="29.79932" lon="99.756725"><time>2026-05-02T22:52:14.719Z</time></trkpt>
      <trkpt lat="29.799319" lon="99.756732"><time>2026-05-02T22:52:14.736Z</time></trkpt>
      <trkpt lat="29.799319" lon="99.756732"><time>2026-05-02T22:52:14.753Z</time></trkpt>
      <trkpt lat="29.799319" lon="99.756732"><time>2026-05-02T22:52:14.769Z</time></trkpt>
      <trkpt lat="29.799319" lon="99.756732"><time>2026-05-02T22:52:14.786Z</time></trkpt>
      <trkpt lat="29.799319" lon="99.756732"><time>2026-05-02T22:52:14.803Z</time></trkpt>
      <trkpt lat="29.799319" lon="99.756732"><time>2026-05-02T22:52:14.819Z</time></trkpt>
      <trkpt lat="29.799318" lon="99.756737"><time>2026-05-02T22:52:14.836Z</time></trkpt>
      <trkpt lat="29.799318" lon="99.756737"><time>2026-05-02T22:52:14.853Z</time></trkpt>
      <trkpt lat="29.799318" lon="99.756737"><time>2026-05-02T22:52:14.870Z</time></trkpt>
      <trkpt lat="29.799318" lon="99.756737"><time>2026-05-02T22:52:14.886Z</time></trkpt>
      <trkpt lat="29.799318" lon="99.756737"><time>2026-05-02T22:52:14.903Z</time></trkpt>
      <trkpt lat="29.799318" lon="99.756737"><time>2026-05-02T22:52:14.920Z</time></trkpt>
      <trkpt lat="29.799316" lon="99.756744"><time>2026-05-02T22:52:14.936Z</time></trkpt>
      <trkpt lat="29.799316" lon="99.756744"><time>2026-05-02T22:52:14.953Z</time></trkpt>
      <trkpt lat="29.799316" lon="99.756744"><time>2026-05-02T22:52:14.970Z</time></trkpt>
      <trkpt lat="29.799316" lon="99.756744"><time>2026-05-02T22:52:14.986Z</time></trkpt>
      <trkpt lat="29.799316" lon="99.756744"><time>2026-05-02T22:52:15.003Z</time></trkpt>
      <trkpt lat="29.799316" lon="99.756744"><time>2026-05-02T22:52:15.020Z</time></trkpt>
      <trkpt lat="29.799315" lon="99.756749"><time>2026-05-02T22:52:15.036Z</time></trkpt>
      <trkpt lat="29.799315" lon="99.756749"><time>2026-05-02T22:52:15.053Z</time></trkpt>
      <trkpt lat="29.799315" lon="99.756749"><time>2026-05-02T22:52:15.070Z</time></trkpt>
      <trkpt lat="29.799315" lon="99.756749"><time>2026-05-02T22:52:15.086Z</time></trkpt>
      <trkpt lat="29.799315" lon="99.756749"><time>2026-05-02T22:52:15.103Z</time></trkpt>
      <trkpt lat="29.799315" lon="99.756749"><time>2026-05-02T22:52:15.120Z</time></trkpt>
      <trkpt lat="29.799314" lon="99.756756"><time>2026-05-02T22:52:15.136Z</time></trkpt>
      <trkpt lat="29.799314" lon="99.756756"><time>2026-05-02T22:52:15.153Z</time></trkpt>
      <trkpt lat="29.799314" lon="99.756756"><time>2026-05-02T22:52:15.170Z</time></trkpt>
      <trkpt lat="29.799314" lon="99.756756"><time>2026-05-02T22:52:15.187Z</time></trkpt>
      <trkpt lat="29.799314" lon="99.756756"><time>2026-05-02T22:52:15.203Z</time></trkpt>
      <trkpt lat="29.799314" lon="99.756756"><time>2026-05-02T22:52:15.220Z</time></trkpt>
      <trkpt lat="29.799312" lon="99.756762"><time>2026-05-02T22:52:15.237Z</time></trkpt>
      <trkpt lat="29.799312" lon="99.756762"><time>2026-05-02T22:52:15.253Z</time></trkpt>
      <trkpt lat="29.799312" lon="99.756762"><time>2026-05-02T22:52:15.270Z</time></trkpt>
      <trkpt lat="29.799312" lon="99.756762"><time>2026-05-02T22:52:15.287Z</time></trkpt>
      <trkpt lat="29.799312" lon="99.756762"><time>2026-05-02T22:52:15.303Z</time></trkpt>
      <trkpt lat="29.799312" lon="99.756762"><time>2026-05-02T22:52:15.320Z</time></trkpt>
      <trkpt lat="29.799311" lon="99.756768"><time>2026-05-02T22:52:15.337Z</time></trkpt>
      <trkpt lat="29.799311" lon="99.756768"><time>2026-05-02T22:52:15.353Z</time></trkpt>
      <trkpt lat="29.799311" lon="99.756768"><time>2026-05-02T22:52:15.370Z</time></trkpt>
      <trkpt lat="29.799311" lon="99.756768"><time>2026-05-02T22:52:15.387Z</time></trkpt>
      <trkpt lat="29.799311" lon="99.756768"><time>2026-05-02T22:52:15.403Z</time></trkpt>
      <trkpt lat="29.799311" lon="99.756768"><time>2026-05-02T22:52:15.420Z</time></trkpt>
      <trkpt lat="29.799309" lon="99.756774"><time>2026-05-02T22:52:15.437Z</time></trkpt>
      <trkpt lat="29.799309" lon="99.756774"><time>2026-05-02T22:52:15.453Z</time></trkpt>
      <trkpt lat="29.799309" lon="99.756774"><time>2026-05-02T22:52:15.470Z</time></trkpt>
      <trkpt lat="29.799309" lon="99.756774"><time>2026-05-02T22:52:15.487Z</time></trkpt>
      <trkpt lat="29.799309" lon="99.756774"><time>2026-05-02T22:52:15.504Z</time></trkpt>
      <trkpt lat="29.799309" lon="99.756774"><time>2026-05-02T22:52:15.520Z</time></trkpt>
      <trkpt lat="29.799308" lon="99.756781"><time>2026-05-02T22:52:15.537Z</time></trkpt>
      <trkpt lat="29.799308" lon="99.756781"><time>2026-05-02T22:52:15.554Z</time></trkpt>
      <trkpt lat="29.799308" lon="99.756781"><time>2026-05-02T22:52:15.570Z</time></trkpt>
      <trkpt lat="29.799308" lon="99.756781"><time>2026-05-02T22:52:15.587Z</time></trkpt>
      <trkpt lat="29.799308" lon="99.756781"><time>2026-05-02T22:52:15.604Z</time></trkpt>
      <trkpt lat="29.799308" lon="99.756781"><time>2026-05-02T22:52:15.620Z</time></trkpt>
      <trkpt lat="29.799307" lon="99.756786"><time>2026-05-02T22:52:15.637Z</time></trkpt>
      <trkpt lat="29.799307" lon="99.756786"><time>2026-05-02T22:52:15.654Z</time></trkpt>
      <trkpt lat="29.799307" lon="99.756786"><time>2026-05-02T22:52:15.670Z</time></trkpt>
      <trkpt lat="29.799307" lon="99.756786"><time>2026-05-02T22:52:15.687Z</time></trkpt>
      <trkpt lat="29.799307" lon="99.756786"><time>2026-05-02T22:52:15.704Z</time></trkpt>
      <trkpt lat="29.799307" lon="99.756786"><time>2026-05-02T22:52:15.720Z</time></trkpt>
      <trkpt lat="29.799305" lon="99.756793"><time>2026-05-02T22:52:15.737Z</time></trkpt>
      <trkpt lat="29.799305" lon="99.756793"><time>2026-05-02T22:52:15.754Z</time></trkpt>
      <trkpt lat="29.799305" lon="99.756793"><time>2026-05-02T22:52:15.770Z</time></trkpt>
      <trkpt lat="29.799305" lon="99.756793"><time>2026-05-02T22:52:15.787Z</time></trkpt>
      <trkpt lat="29.799305" lon="99.756793"><time>2026-05-02T22:52:15.804Z</time></trkpt>
      <trkpt lat="29.799305" lon="99.756793"><time>2026-05-02T22:52:15.821Z</time></trkpt>
      <trkpt lat="29.799304" lon="99.756799"><time>2026-05-02T22:52:15.837Z</time></trkpt>
      <trkpt lat="29.799304" lon="99.756799"><time>2026-05-02T22:52:15.854Z</time></trkpt>
      <trkpt lat="29.799304" lon="99.756799"><time>2026-05-02T22:52:15.871Z</time></trkpt>
      <trkpt lat="29.799304" lon="99.756799"><time>2026-05-02T22:52:15.887Z</time></trkpt>
      <trkpt lat="29.799304" lon="99.756799"><time>2026-05-02T22:52:15.904Z</time></trkpt>
      <trkpt lat="29.799304" lon="99.756799"><time>2026-05-02T22:52:15.921Z</time></trkpt>
      <trkpt lat="29.799303" lon="99.756805"><time>2026-05-02T22:52:15.937Z</time></trkpt>
      <trkpt lat="29.799303" lon="99.756805"><time>2026-05-02T22:52:15.954Z</time></trkpt>
      <trkpt lat="29.799303" lon="99.756805"><time>2026-05-02T22:52:15.971Z</time></trkpt>
      <trkpt lat="29.799303" lon="99.756805"><time>2026-05-02T22:52:15.987Z</time></trkpt>
      <trkpt lat="29.799303" lon="99.756805"><time>2026-05-02T22:52:16.004Z</time></trkpt>
      <trkpt lat="29.799303" lon="99.756805"><time>2026-05-02T22:52:16.021Z</time></trkpt>
      <trkpt lat="29.799301" lon="99.756811"><time>2026-05-02T22:52:16.037Z</time></trkpt>
      <trkpt lat="29.799301" lon="99.756811"><time>2026-05-02T22:52:16.054Z</time></trkpt>
      <trkpt lat="29.799301" lon="99.756811"><time>2026-05-02T22:52:16.071Z</time></trkpt>
      <trkpt lat="29.799301" lon="99.756811"><time>2026-05-02T22:52:16.087Z</time></trkpt>
      <trkpt lat="29.799301" lon="99.756811"><time>2026-05-02T22:52:16.104Z</time></trkpt>
      <trkpt lat="29.799301" lon="99.756811"><time>2026-05-02T22:52:16.121Z</time></trkpt>
      <trkpt lat="29.7993" lon="99.756818"><time>2026-05-02T22:52:16.138Z</time></trkpt>
      <trkpt lat="29.7993" lon="99.756818"><time>2026-05-02T22:52:16.154Z</time></trkpt>
      <trkpt lat="29.7993" lon="99.756818"><time>2026-05-02T22:52:16.171Z</time></trkpt>
      <trkpt lat="29.7993" lon="99.756818"><time>2026-05-02T22:52:16.188Z</time></trkpt>
      <trkpt lat="29.7993" lon="99.756818"><time>2026-05-02T22:52:16.204Z</time></trkpt>
      <trkpt lat="29.7993" lon="99.756818"><time>2026-05-02T22:52:16.221Z</time></trkpt>
      <trkpt lat="29.799299" lon="99.756823"><time>2026-05-02T22:52:16.238Z</time></trkpt>
      <trkpt lat="29.799299" lon="99.756823"><time>2026-05-02T22:52:16.254Z</time></trkpt>
      <trkpt lat="29.799299" lon="99.756823"><time>2026-05-02T22:52:16.271Z</time></trkpt>
      <trkpt lat="29.799299" lon="99.756823"><time>2026-05-02T22:52:16.288Z</time></trkpt>
      <trkpt lat="29.799299" lon="99.756823"><time>2026-05-02T22:52:16.304Z</time></trkpt>
      <trkpt lat="29.799299" lon="99.756823"><time>2026-05-02T22:52:16.321Z</time></trkpt>
      <trkpt lat="29.799297" lon="99.75683"><time>2026-05-02T22:52:16.338Z</time></trkpt>
      <trkpt lat="29.799297" lon="99.75683"><time>2026-05-02T22:52:16.354Z</time></trkpt>
      <trkpt lat="29.799297" lon="99.75683"><time>2026-05-02T22:52:16.371Z</time></trkpt>
      <trkpt lat="29.799297" lon="99.75683"><time>2026-05-02T22:52:16.388Z</time></trkpt>
      <trkpt lat="29.799297" lon="99.75683"><time>2026-05-02T22:52:16.404Z</time></trkpt>
      <trkpt lat="29.799297" lon="99.75683"><time>2026-05-02T22:52:16.421Z</time></trkpt>
      <trkpt lat="29.799296" lon="99.756835"><time>2026-05-02T22:52:16.438Z</time></trkpt>
      <trkpt lat="29.799296" lon="99.756835"><time>2026-05-02T22:52:16.455Z</time></trkpt>
      <trkpt lat="29.799296" lon="99.756835"><time>2026-05-02T22:52:16.471Z</time></trkpt>
      <trkpt lat="29.799296" lon="99.756835"><time>2026-05-02T22:52:16.488Z</time></trkpt>
      <trkpt lat="29.799296" lon="99.756835"><time>2026-05-02T22:52:16.505Z</time></trkpt>
      <trkpt lat="29.799296" lon="99.756835"><time>2026-05-02T22:52:16.521Z</time></trkpt>
      <trkpt lat="29.799295" lon="99.756842"><time>2026-05-02T22:52:16.538Z</time></trkpt>
      <trkpt lat="29.799295" lon="99.756842"><time>2026-05-02T22:52:16.555Z</time></trkpt>
      <trkpt lat="29.799295" lon="99.756842"><time>2026-05-02T22:52:16.571Z</time></trkpt>
      <trkpt lat="29.799295" lon="99.756842"><time>2026-05-02T22:52:16.588Z</time></trkpt>
      <trkpt lat="29.799295" lon="99.756842"><time>2026-05-02T22:52:16.605Z</time></trkpt>
      <trkpt lat="29.799295" lon="99.756842"><time>2026-05-02T22:52:16.621Z</time></trkpt>
      <trkpt lat="29.799293" lon="99.756848"><time>2026-05-02T22:52:16.638Z</time></trkpt>
      <trkpt lat="29.799293" lon="99.756848"><time>2026-05-02T22:52:16.655Z</time></trkpt>
      <trkpt lat="29.799293" lon="99.756848"><time>2026-05-02T22:52:16.671Z</time></trkpt>
      <trkpt lat="29.799293" lon="99.756848"><time>2026-05-02T22:52:16.688Z</time></trkpt>
      <trkpt lat="29.799293" lon="99.756848"><time>2026-05-02T22:52:16.705Z</time></trkpt>
      <trkpt lat="29.799293" lon="99.756848"><time>2026-05-02T22:52:16.721Z</time></trkpt>
      <trkpt lat="29.799292" lon="99.756855"><time>2026-05-02T22:52:16.738Z</time></trkpt>
      <trkpt lat="29.799292" lon="99.756855"><time>2026-05-02T22:52:16.755Z</time></trkpt>
      <trkpt lat="29.799292" lon="99.756855"><time>2026-05-02T22:52:16.772Z</time></trkpt>
      <trkpt lat="29.799292" lon="99.756855"><time>2026-05-02T22:52:16.788Z</time></trkpt>
      <trkpt lat="29.799292" lon="99.756855"><time>2026-05-02T22:52:16.805Z</time></trkpt>
      <trkpt lat="29.799292" lon="99.756855"><time>2026-05-02T22:52:16.822Z</time></trkpt>
      <trkpt lat="29.799291" lon="99.75686"><time>2026-05-02T22:52:16.838Z</time></trkpt>
      <trkpt lat="29.799291" lon="99.75686"><time>2026-05-02T22:52:16.855Z</time></trkpt>
      <trkpt lat="29.799291" lon="99.75686"><time>2026-05-02T22:52:16.872Z</time></trkpt>
      <trkpt lat="29.799291" lon="99.75686"><time>2026-05-02T22:52:16.888Z</time></trkpt>
      <trkpt lat="29.799291" lon="99.75686"><time>2026-05-02T22:52:16.905Z</time></trkpt>
      <trkpt lat="29.799291" lon="99.75686"><time>2026-05-02T22:52:16.922Z</time></trkpt>
      <trkpt lat="29.799289" lon="99.756867"><time>2026-05-02T22:52:16.938Z</time></trkpt>
      <trkpt lat="29.799289" lon="99.756867"><time>2026-05-02T22:52:16.955Z</time></trkpt>
      <trkpt lat="29.799289" lon="99.756867"><time>2026-05-02T22:52:16.972Z</time></trkpt>
      <trkpt lat="29.799289" lon="99.756867"><time>2026-05-02T22:52:16.988Z</time></trkpt>
      <trkpt lat="29.799289" lon="99.756867"><time>2026-05-02T22:52:17.005Z</time></trkpt>
      <trkpt lat="29.799289" lon="99.756867"><time>2026-05-02T22:52:17.022Z</time></trkpt>
      <trkpt lat="29.799288" lon="99.756873"><time>2026-05-02T22:52:17.038Z</time></trkpt>
      <trkpt lat="29.799288" lon="99.756873"><time>2026-05-02T22:52:17.055Z</time></trkpt>
      <trkpt lat="29.799288" lon="99.756873"><time>2026-05-02T22:52:17.072Z</time></trkpt>
      <trkpt lat="29.799288" lon="99.756873"><time>2026-05-02T22:52:17.089Z</time></trkpt>
      <trkpt lat="29.799288" lon="99.756873"><time>2026-05-02T22:52:17.105Z</time></trkpt>
      <trkpt lat="29.799288" lon="99.756873"><time>2026-05-02T22:52:17.122Z</time></trkpt>
      <trkpt lat="29.799287" lon="99.756879"><time>2026-05-02T22:52:17.139Z</time></trkpt>
      <trkpt lat="29.799287" lon="99.756879"><time>2026-05-02T22:52:17.155Z</time></trkpt>
      <trkpt lat="29.799287" lon="99.756879"><time>2026-05-02T22:52:17.172Z</time></trkpt>
      <trkpt lat="29.799287" lon="99.756879"><time>2026-05-02T22:52:17.189Z</time></trkpt>
      <trkpt lat="29.799287" lon="99.756879"><time>2026-05-02T22:52:17.205Z</time></trkpt>
      <trkpt lat="29.799287" lon="99.756879"><time>2026-05-02T22:52:17.222Z</time></trkpt>
      <trkpt lat="29.799286" lon="99.756885"><time>2026-05-02T22:52:17.239Z</time></trkpt>
      <trkpt lat="29.799286" lon="99.756885"><time>2026-05-02T22:52:17.255Z</time></trkpt>
      <trkpt lat="29.799286" lon="99.756885"><time>2026-05-02T22:52:17.272Z</time></trkpt>
      <trkpt lat="29.799286" lon="99.756885"><time>2026-05-02T22:52:17.289Z</time></trkpt>
      <trkpt lat="29.799286" lon="99.756885"><time>2026-05-02T22:52:17.305Z</time></trkpt>
      <trkpt lat="29.799286" lon="99.756885"><time>2026-05-02T22:52:17.322Z</time></trkpt>
      <trkpt lat="29.799284" lon="99.756891"><time>2026-05-02T22:52:17.339Z</time></trkpt>
      <trkpt lat="29.799284" lon="99.756891"><time>2026-05-02T22:52:17.355Z</time></trkpt>
      <trkpt lat="29.799284" lon="99.756891"><time>2026-05-02T22:52:17.372Z</time></trkpt>
      <trkpt lat="29.799284" lon="99.756891"><time>2026-05-02T22:52:17.389Z</time></trkpt>
      <trkpt lat="29.799284" lon="99.756891"><time>2026-05-02T22:52:17.406Z</time></trkpt>
      <trkpt lat="29.799284" lon="99.756891"><time>2026-05-02T22:52:17.422Z</time></trkpt>
      <trkpt lat="29.799283" lon="99.756896"><time>2026-05-02T22:52:17.439Z</time></trkpt>
      <trkpt lat="29.799283" lon="99.756896"><time>2026-05-02T22:52:17.456Z</time></trkpt>
      <trkpt lat="29.799283" lon="99.756896"><time>2026-05-02T22:52:17.472Z</time></trkpt>
      <trkpt lat="29.799283" lon="99.756896"><time>2026-05-02T22:52:17.489Z</time></trkpt>
      <trkpt lat="29.799283" lon="99.756896"><time>2026-05-02T22:52:17.506Z</time></trkpt>
      <trkpt lat="29.799283" lon="99.756896"><time>2026-05-02T22:52:17.522Z</time></trkpt>
      <trkpt lat="29.799281" lon="99.756902"><time>2026-05-02T22:52:17.539Z</time></trkpt>
      <trkpt lat="29.799281" lon="99.756902"><time>2026-05-02T22:52:17.556Z</time></trkpt>
      <trkpt lat="29.799281" lon="99.756902"><time>2026-05-02T22:52:17.572Z</time></trkpt>
      <trkpt lat="29.799281" lon="99.756902"><time>2026-05-02T22:52:17.589Z</time></trkpt>
      <trkpt lat="29.799281" lon="99.756902"><time>2026-05-02T22:52:17.606Z</time></trkpt>
      <trkpt lat="29.799281" lon="99.756902"><time>2026-05-02T22:52:17.622Z</time></trkpt>
      <trkpt lat="29.79928" lon="99.756908"><time>2026-05-02T22:52:17.639Z</time></trkpt>
      <trkpt lat="29.79928" lon="99.756908"><time>2026-05-02T22:52:17.656Z</time></trkpt>
      <trkpt lat="29.79928" lon="99.756908"><time>2026-05-02T22:52:17.672Z</time></trkpt>
      <trkpt lat="29.79928" lon="99.756908"><time>2026-05-02T22:52:17.689Z</time></trkpt>
      <trkpt lat="29.79928" lon="99.756908"><time>2026-05-02T22:52:17.706Z</time></trkpt>
      <trkpt lat="29.79928" lon="99.756908"><time>2026-05-02T22:52:17.723Z</time></trkpt>
      <trkpt lat="29.799276" lon="99.75691"><time>2026-05-02T22:52:17.739Z</time></trkpt>
      <trkpt lat="29.799276" lon="99.75691"><time>2026-05-02T22:52:17.756Z</time></trkpt>
      <trkpt lat="29.799276" lon="99.75691"><time>2026-05-02T22:52:17.773Z</time></trkpt>
      <trkpt lat="29.799276" lon="99.75691"><time>2026-05-02T22:52:17.789Z</time></trkpt>
      <trkpt lat="29.799276" lon="99.75691"><time>2026-05-02T22:52:17.806Z</time></trkpt>
      <trkpt lat="29.799276" lon="99.75691"><time>2026-05-02T22:52:17.823Z</time></trkpt>
      <trkpt lat="29.799275" lon="99.756916"><time>2026-05-02T22:52:17.839Z</time></trkpt>
      <trkpt lat="29.799275" lon="99.756916"><time>2026-05-02T22:52:17.856Z</time></trkpt>
      <trkpt lat="29.799275" lon="99.756916"><time>2026-05-02T22:52:17.873Z</time></trkpt>
      <trkpt lat="29.799275" lon="99.756916"><time>2026-05-02T22:52:17.889Z</time></trkpt>
      <trkpt lat="29.799275" lon="99.756916"><time>2026-05-02T22:52:17.906Z</time></trkpt>
      <trkpt lat="29.799275" lon="99.756916"><time>2026-05-02T22:52:17.923Z</time></trkpt>
      <trkpt lat="29.799274" lon="99.756921"><time>2026-05-02T22:52:17.939Z</time></trkpt>
      <trkpt lat="29.799274" lon="99.756921"><time>2026-05-02T22:52:17.956Z</time></trkpt>
      <trkpt lat="29.799274" lon="99.756921"><time>2026-05-02T22:52:17.973Z</time></trkpt>
      <trkpt lat="29.799274" lon="99.756921"><time>2026-05-02T22:52:17.989Z</time></trkpt>
      <trkpt lat="29.799274" lon="99.756921"><time>2026-05-02T22:52:18.006Z</time></trkpt>
      <trkpt lat="29.799274" lon="99.756921"><time>2026-05-02T22:52:18.023Z</time></trkpt>
      <trkpt lat="29.799273" lon="99.756926"><time>2026-05-02T22:52:18.040Z</time></trkpt>
      <trkpt lat="29.799273" lon="99.756926"><time>2026-05-02T22:52:18.056Z</time></trkpt>
      <trkpt lat="29.799273" lon="99.756926"><time>2026-05-02T22:52:18.073Z</time></trkpt>
      <trkpt lat="29.799273" lon="99.756926"><time>2026-05-02T22:52:18.090Z</time></trkpt>
      <trkpt lat="29.799273" lon="99.756926"><time>2026-05-02T22:52:18.106Z</time></trkpt>
      <trkpt lat="29.799273" lon="99.756926"><time>2026-05-02T22:52:18.123Z</time></trkpt>
      <trkpt lat="29.799271" lon="99.756931"><time>2026-05-02T22:52:18.140Z</time></trkpt>
      <trkpt lat="29.799271" lon="99.756931"><time>2026-05-02T22:52:18.156Z</time></trkpt>
      <trkpt lat="29.799271" lon="99.756931"><time>2026-05-02T22:52:18.173Z</time></trkpt>
      <trkpt lat="29.799271" lon="99.756931"><time>2026-05-02T22:52:18.190Z</time></trkpt>
      <trkpt lat="29.799271" lon="99.756931"><time>2026-05-02T22:52:18.206Z</time></trkpt>
      <trkpt lat="29.799271" lon="99.756931"><time>2026-05-02T22:52:18.223Z</time></trkpt>
      <trkpt lat="29.79927" lon="99.756936"><time>2026-05-02T22:52:18.240Z</time></trkpt>
      <trkpt lat="29.79927" lon="99.756936"><time>2026-05-02T22:52:18.256Z</time></trkpt>
      <trkpt lat="29.79927" lon="99.756936"><time>2026-05-02T22:52:18.273Z</time></trkpt>
      <trkpt lat="29.79927" lon="99.756936"><time>2026-05-02T22:52:18.290Z</time></trkpt>
      <trkpt lat="29.79927" lon="99.756936"><time>2026-05-02T22:52:18.306Z</time></trkpt>
      <trkpt lat="29.79927" lon="99.756936"><time>2026-05-02T22:52:18.323Z</time></trkpt>
      <trkpt lat="29.799269" lon="99.756941"><time>2026-05-02T22:52:18.340Z</time></trkpt>
      <trkpt lat="29.799269" lon="99.756941"><time>2026-05-02T22:52:18.357Z</time></trkpt>
      <trkpt lat="29.799269" lon="99.756941"><time>2026-05-02T22:52:18.373Z</time></trkpt>
      <trkpt lat="29.799269" lon="99.756941"><time>2026-05-02T22:52:18.390Z</time></trkpt>
      <trkpt lat="29.799269" lon="99.756941"><time>2026-05-02T22:52:18.407Z</time></trkpt>
      <trkpt lat="29.799269" lon="99.756941"><time>2026-05-02T22:52:18.423Z</time></trkpt>
      <trkpt lat="29.799268" lon="99.756946"><time>2026-05-02T22:52:18.440Z</time></trkpt>
      <trkpt lat="29.799268" lon="99.756946"><time>2026-05-02T22:52:18.457Z</time></trkpt>
      <trkpt lat="29.799268" lon="99.756946"><time>2026-05-02T22:52:18.473Z</time></trkpt>
      <trkpt lat="29.799268" lon="99.756946"><time>2026-05-02T22:52:18.490Z</time></trkpt>
      <trkpt lat="29.799268" lon="99.756946"><time>2026-05-02T22:52:18.507Z</time></trkpt>
      <trkpt lat="29.799268" lon="99.756946"><time>2026-05-02T22:52:18.523Z</time></trkpt>
      <trkpt lat="29.799267" lon="99.75695"><time>2026-05-02T22:52:18.540Z</time></trkpt>
      <trkpt lat="29.799267" lon="99.75695"><time>2026-05-02T22:52:18.557Z</time></trkpt>
      <trkpt lat="29.799267" lon="99.75695"><time>2026-05-02T22:52:18.573Z</time></trkpt>
      <trkpt lat="29.799267" lon="99.75695"><time>2026-05-02T22:52:18.590Z</time></trkpt>
      <trkpt lat="29.799267" lon="99.75695"><time>2026-05-02T22:52:18.607Z</time></trkpt>
      <trkpt lat="29.799267" lon="99.75695"><time>2026-05-02T22:52:18.623Z</time></trkpt>
      <trkpt lat="29.799266" lon="99.756955"><time>2026-05-02T22:52:18.640Z</time></trkpt>
      <trkpt lat="29.799266" lon="99.756955"><time>2026-05-02T22:52:18.657Z</time></trkpt>
      <trkpt lat="29.799266" lon="99.756955"><time>2026-05-02T22:52:18.674Z</time></trkpt>
      <trkpt lat="29.799266" lon="99.756955"><time>2026-05-02T22:52:18.690Z</time></trkpt>
      <trkpt lat="29.799266" lon="99.756955"><time>2026-05-02T22:52:18.707Z</time></trkpt>
      <trkpt lat="29.799266" lon="99.756955"><time>2026-05-02T22:52:18.724Z</time></trkpt>
      <trkpt lat="29.799265" lon="99.756959"><time>2026-05-02T22:52:18.740Z</time></trkpt>
      <trkpt lat="29.799265" lon="99.756959"><time>2026-05-02T22:52:18.757Z</time></trkpt>
      <trkpt lat="29.799265" lon="99.756959"><time>2026-05-02T22:52:18.774Z</time></trkpt>
      <trkpt lat="29.799265" lon="99.756959"><time>2026-05-02T22:52:18.790Z</time></trkpt>
      <trkpt lat="29.799265" lon="99.756959"><time>2026-05-02T22:52:18.807Z</time></trkpt>
      <trkpt lat="29.799265" lon="99.756959"><time>2026-05-02T22:52:18.824Z</time></trkpt>
      <trkpt lat="29.799264" lon="99.756963"><time>2026-05-02T22:52:18.840Z</time></trkpt>
      <trkpt lat="29.799264" lon="99.756963"><time>2026-05-02T22:52:18.857Z</time></trkpt>
      <trkpt lat="29.799264" lon="99.756963"><time>2026-05-02T22:52:18.874Z</time></trkpt>
      <trkpt lat="29.799264" lon="99.756963"><time>2026-05-02T22:52:18.890Z</time></trkpt>
      <trkpt lat="29.799264" lon="99.756963"><time>2026-05-02T22:52:18.907Z</time></trkpt>
      <trkpt lat="29.799264" lon="99.756963"><time>2026-05-02T22:52:18.924Z</time></trkpt>
      <trkpt lat="29.799263" lon="99.756967"><time>2026-05-02T22:52:18.940Z</time></trkpt>
      <trkpt lat="29.799263" lon="99.756967"><time>2026-05-02T22:52:18.957Z</time></trkpt>
      <trkpt lat="29.799263" lon="99.756967"><time>2026-05-02T22:52:18.974Z</time></trkpt>
      <trkpt lat="29.799263" lon="99.756967"><time>2026-05-02T22:52:18.990Z</time></trkpt>
      <trkpt lat="29.799263" lon="99.756967"><time>2026-05-02T22:52:19.007Z</time></trkpt>
      <trkpt lat="29.799263" lon="99.756967"><time>2026-05-02T22:52:19.024Z</time></trkpt>
      <trkpt lat="29.799262" lon="99.756971"><time>2026-05-02T22:52:19.041Z</time></trkpt>
      <trkpt lat="29.799262" lon="99.756971"><time>2026-05-02T22:52:19.057Z</time></trkpt>
      <trkpt lat="29.799262" lon="99.756971"><time>2026-05-02T22:52:19.074Z</time></trkpt>
      <trkpt lat="29.799262" lon="99.756971"><time>2026-05-02T22:52:19.091Z</time></trkpt>
      <trkpt lat="29.799262" lon="99.756971"><time>2026-05-02T22:52:19.107Z</time></trkpt>
      <trkpt lat="29.799262" lon="99.756971"><time>2026-05-02T22:52:19.124Z</time></trkpt>
      <trkpt lat="29.799261" lon="99.756975"><time>2026-05-02T22:52:19.141Z</time></trkpt>
      <trkpt lat="29.799261" lon="99.756975"><time>2026-05-02T22:52:19.157Z</time></trkpt>
      <trkpt lat="29.799261" lon="99.756975"><time>2026-05-02T22:52:19.174Z</time></trkpt>
      <trkpt lat="29.799261" lon="99.756975"><time>2026-05-02T22:52:19.191Z</time></trkpt>
      <trkpt lat="29.799261" lon="99.756975"><time>2026-05-02T22:52:19.207Z</time></trkpt>
      <trkpt lat="29.799261" lon="99.756975"><time>2026-05-02T22:52:19.224Z</time></trkpt>
      <trkpt lat="29.79926" lon="99.756979"><time>2026-05-02T22:52:19.241Z</time></trkpt>
      <trkpt lat="29.79926" lon="99.756979"><time>2026-05-02T22:52:19.257Z</time></trkpt>
      <trkpt lat="29.79926" lon="99.756979"><time>2026-05-02T22:52:19.274Z</time></trkpt>
      <trkpt lat="29.79926" lon="99.756979"><time>2026-05-02T22:52:19.291Z</time></trkpt>
      <trkpt lat="29.79926" lon="99.756979"><time>2026-05-02T22:52:19.307Z</time></trkpt>
      <trkpt lat="29.79926" lon="99.756979"><time>2026-05-02T22:52:19.324Z</time></trkpt>
      <trkpt lat="29.799259" lon="99.756983"><time>2026-05-02T22:52:19.341Z</time></trkpt>
      <trkpt lat="29.799259" lon="99.756983"><time>2026-05-02T22:52:19.358Z</time></trkpt>
      <trkpt lat="29.799259" lon="99.756983"><time>2026-05-02T22:52:19.374Z</time></trkpt>
      <trkpt lat="29.799259" lon="99.756983"><time>2026-05-02T22:52:19.391Z</time></trkpt>
      <trkpt lat="29.799259" lon="99.756983"><time>2026-05-02T22:52:19.408Z</time></trkpt>
      <trkpt lat="29.799259" lon="99.756983"><time>2026-05-02T22:52:19.424Z</time></trkpt>
      <trkpt lat="29.799259" lon="99.756986"><time>2026-05-02T22:52:19.441Z</time></trkpt>
      <trkpt lat="29.799259" lon="99.756986"><time>2026-05-02T22:52:19.458Z</time></trkpt>
      <trkpt lat="29.799259" lon="99.756986"><time>2026-05-02T22:52:19.474Z</time></trkpt>
      <trkpt lat="29.799259" lon="99.756986"><time>2026-05-02T22:52:19.491Z</time></trkpt>
      <trkpt lat="29.799259" lon="99.756986"><time>2026-05-02T22:52:19.508Z</time></trkpt>
      <trkpt lat="29.799259" lon="99.756986"><time>2026-05-02T22:52:19.524Z</time></trkpt>
      <trkpt lat="29.799258" lon="99.75699"><time>2026-05-02T22:52:19.541Z</time></trkpt>
      <trkpt lat="29.799258" lon="99.75699"><time>2026-05-02T22:52:19.558Z</time></trkpt>
      <trkpt lat="29.799258" lon="99.75699"><time>2026-05-02T22:52:19.574Z</time></trkpt>
      <trkpt lat="29.799258" lon="99.75699"><time>2026-05-02T22:52:19.591Z</time></trkpt>
      <trkpt lat="29.799258" lon="99.75699"><time>2026-05-02T22:52:19.608Z</time></trkpt>
      <trkpt lat="29.799258" lon="99.75699"><time>2026-05-02T22:52:19.624Z</time></trkpt>
      <trkpt lat="29.799257" lon="99.756993"><time>2026-05-02T22:52:19.641Z</time></trkpt>
      <trkpt lat="29.799257" lon="99.756993"><time>2026-05-02T22:52:19.658Z</time></trkpt>
      <trkpt lat="29.799257" lon="99.756993"><time>2026-05-02T22:52:19.675Z</time></trkpt>
      <trkpt lat="29.799257" lon="99.756993"><time>2026-05-02T22:52:19.691Z</time></trkpt>
      <trkpt lat="29.799257" lon="99.756993"><time>2026-05-02T22:52:19.708Z</time></trkpt>
      <trkpt lat="29.799257" lon="99.756993"><time>2026-05-02T22:52:19.725Z</time></trkpt>
      <trkpt lat="29.799256" lon="99.756997"><time>2026-05-02T22:52:19.741Z</time></trkpt>
      <trkpt lat="29.799256" lon="99.756997"><time>2026-05-02T22:52:19.758Z</time></trkpt>
      <trkpt lat="29.799256" lon="99.756997"><time>2026-05-02T22:52:19.775Z</time></trkpt>
      <trkpt lat="29.799256" lon="99.756997"><time>2026-05-02T22:52:19.791Z</time></trkpt>
      <trkpt lat="29.799256" lon="99.756997"><time>2026-05-02T22:52:19.808Z</time></trkpt>
      <trkpt lat="29.799256" lon="99.756997"><time>2026-05-02T22:52:19.825Z</time></trkpt>
      <trkpt lat="29.799256" lon="99.757"><time>2026-05-02T22:52:19.841Z</time></trkpt>
      <trkpt lat="29.799256" lon="99.757"><time>2026-05-02T22:52:19.858Z</time></trkpt>
      <trkpt lat="29.799256" lon="99.757"><time>2026-05-02T22:52:19.875Z</time></trkpt>
      <trkpt lat="29.799256" lon="99.757"><time>2026-05-02T22:52:19.891Z</time></trkpt>
      <trkpt lat="29.799256" lon="99.757"><time>2026-05-02T22:52:19.908Z</time></trkpt>
      <trkpt lat="29.799256" lon="99.757"><time>2026-05-02T22:52:19.925Z</time></trkpt>
      <trkpt lat="29.799255" lon="99.757003"><time>2026-05-02T22:52:19.941Z</time></trkpt>
      <trkpt lat="29.799255" lon="99.757003"><time>2026-05-02T22:52:19.958Z</time></trkpt>
      <trkpt lat="29.799255" lon="99.757003"><time>2026-05-02T22:52:19.975Z</time></trkpt>
      <trkpt lat="29.799255" lon="99.757003"><time>2026-05-02T22:52:19.992Z</time></trkpt>
      <trkpt lat="29.799255" lon="99.757003"><time>2026-05-02T22:52:20.008Z</time></trkpt>
      <trkpt lat="29.799255" lon="99.757003"><time>2026-05-02T22:52:20.025Z</time></trkpt>
      <trkpt lat="29.799255" lon="99.757006"><time>2026-05-02T22:52:20.042Z</time></trkpt>
      <trkpt lat="29.799255" lon="99.757006"><time>2026-05-02T22:52:20.058Z</time></trkpt>
      <trkpt lat="29.799255" lon="99.757006"><time>2026-05-02T22:52:20.075Z</time></trkpt>
      <trkpt lat="29.799255" lon="99.757006"><time>2026-05-02T22:52:20.092Z</time></trkpt>
      <trkpt lat="29.799255" lon="99.757006"><time>2026-05-02T22:52:20.108Z</time></trkpt>
      <trkpt lat="29.799255" lon="99.757006"><time>2026-05-02T22:52:20.125Z</time></trkpt>
      <trkpt lat="29.799254" lon="99.757008"><time>2026-05-02T22:52:20.142Z</time></trkpt>
      <trkpt lat="29.799254" lon="99.757008"><time>2026-05-02T22:52:20.158Z</time></trkpt>
      <trkpt lat="29.799254" lon="99.757008"><time>2026-05-02T22:52:20.175Z</time></trkpt>
      <trkpt lat="29.799254" lon="99.757008"><time>2026-05-02T22:52:20.192Z</time></trkpt>
      <trkpt lat="29.799254" lon="99.757008"><time>2026-05-02T22:52:20.208Z</time></trkpt>
      <trkpt lat="29.799254" lon="99.757008"><time>2026-05-02T22:52:20.225Z</time></trkpt>
      <trkpt lat="29.799253" lon="99.757011"><time>2026-05-02T22:52:20.242Z</time></trkpt>
      <trkpt lat="29.799253" lon="99.757011"><time>2026-05-02T22:52:20.258Z</time></trkpt>
      <trkpt lat="29.799253" lon="99.757011"><time>2026-05-02T22:52:20.275Z</time></trkpt>
      <trkpt lat="29.799253" lon="99.757011"><time>2026-05-02T22:52:20.292Z</time></trkpt>
      <trkpt lat="29.799253" lon="99.757011"><time>2026-05-02T22:52:20.309Z</time></trkpt>
      <trkpt lat="29.799253" lon="99.757011"><time>2026-05-02T22:52:20.325Z</time></trkpt>
      <trkpt lat="29.799253" lon="99.757013"><time>2026-05-02T22:52:20.342Z</time></trkpt>
      <trkpt lat="29.799253" lon="99.757013"><time>2026-05-02T22:52:20.359Z</time></trkpt>
      <trkpt lat="29.799253" lon="99.757013"><time>2026-05-02T22:52:20.375Z</time></trkpt>
      <trkpt lat="29.799253" lon="99.757013"><time>2026-05-02T22:52:20.392Z</time></trkpt>
      <trkpt lat="29.799253" lon="99.757013"><time>2026-05-02T22:52:20.409Z</time></trkpt>
      <trkpt lat="29.799253" lon="99.757013"><time>2026-05-02T22:52:20.425Z</time></trkpt>
      <trkpt lat="29.799252" lon="99.757016"><time>2026-05-02T22:52:20.442Z</time></trkpt>
      <trkpt lat="29.799252" lon="99.757016"><time>2026-05-02T22:52:20.459Z</time></trkpt>
      <trkpt lat="29.799252" lon="99.757016"><time>2026-05-02T22:52:20.475Z</time></trkpt>
      <trkpt lat="29.799252" lon="99.757016"><time>2026-05-02T22:52:20.492Z</time></trkpt>
      <trkpt lat="29.799252" lon="99.757016"><time>2026-05-02T22:52:20.509Z</time></trkpt>
      <trkpt lat="29.799252" lon="99.757016"><time>2026-05-02T22:52:20.525Z</time></trkpt>
      <trkpt lat="29.799252" lon="99.757018"><time>2026-05-02T22:52:20.542Z</time></trkpt>
      <trkpt lat="29.799252" lon="99.757018"><time>2026-05-02T22:52:20.559Z</time></trkpt>
      <trkpt lat="29.799252" lon="99.757018"><time>2026-05-02T22:52:20.575Z</time></trkpt>
      <trkpt lat="29.799252" lon="99.757018"><time>2026-05-02T22:52:20.592Z</time></trkpt>
      <trkpt lat="29.799252" lon="99.757018"><time>2026-05-02T22:52:20.609Z</time></trkpt>
      <trkpt lat="29.799252" lon="99.757018"><time>2026-05-02T22:52:20.626Z</time></trkpt>
      <trkpt lat="29.799251" lon="99.757019"><time>2026-05-02T22:52:20.642Z</time></trkpt>
      <trkpt lat="29.799251" lon="99.757019"><time>2026-05-02T22:52:20.659Z</time></trkpt>
      <trkpt lat="29.799251" lon="99.757019"><time>2026-05-02T22:52:20.676Z</time></trkpt>
      <trkpt lat="29.799251" lon="99.757019"><time>2026-05-02T22:52:20.692Z</time></trkpt>
      <trkpt lat="29.799251" lon="99.757019"><time>2026-05-02T22:52:20.709Z</time></trkpt>
      <trkpt lat="29.799251" lon="99.757019"><time>2026-05-02T22:52:20.726Z</time></trkpt>
      <trkpt lat="29.799251" lon="99.757021"><time>2026-05-02T22:52:20.742Z</time></trkpt>
      <trkpt lat="29.799251" lon="99.757021"><time>2026-05-02T22:52:20.759Z</time></trkpt>
      <trkpt lat="29.799251" lon="99.757021"><time>2026-05-02T22:52:20.776Z</time></trkpt>
      <trkpt lat="29.799251" lon="99.757021"><time>2026-05-02T22:52:20.792Z</time></trkpt>
      <trkpt lat="29.799251" lon="99.757021"><time>2026-05-02T22:52:20.809Z</time></trkpt>
      <trkpt lat="29.799251" lon="99.757021"><time>2026-05-02T22:52:20.826Z</time></trkpt>
      <trkpt lat="29.79925" lon="99.757023"><time>2026-05-02T22:52:20.842Z</time></trkpt>
      <trkpt lat="29.79925" lon="99.757023"><time>2026-05-02T22:52:20.859Z</time></trkpt>
      <trkpt lat="29.79925" lon="99.757023"><time>2026-05-02T22:52:20.876Z</time></trkpt>
      <trkpt lat="29.79925" lon="99.757023"><time>2026-05-02T22:52:20.892Z</time></trkpt>
      <trkpt lat="29.79925" lon="99.757023"><time>2026-05-02T22:52:20.909Z</time></trkpt>
      <trkpt lat="29.79925" lon="99.757023"><time>2026-05-02T22:52:20.926Z</time></trkpt>
      <trkpt lat="29.79925" lon="99.757024"><time>2026-05-02T22:52:20.943Z</time></trkpt>
      <trkpt lat="29.79925" lon="99.757024"><time>2026-05-02T22:52:20.959Z</time></trkpt>
      <trkpt lat="29.79925" lon="99.757024"><time>2026-05-02T22:52:20.976Z</time></trkpt>
      <trkpt lat="29.79925" lon="99.757024"><time>2026-05-02T22:52:20.993Z</time></trkpt>
      <trkpt lat="29.79925" lon="99.757024"><time>2026-05-02T22:52:21.009Z</time></trkpt>
      <trkpt lat="29.79925" lon="99.757024"><time>2026-05-02T22:52:21.026Z</time></trkpt>
      <trkpt lat="29.79925" lon="99.757025"><time>2026-05-02T22:52:21.043Z</time></trkpt>
      <trkpt lat="29.79925" lon="99.757025"><time>2026-05-02T22:52:21.059Z</time></trkpt>
      <trkpt lat="29.79925" lon="99.757025"><time>2026-05-02T22:52:21.076Z</time></trkpt>
      <trkpt lat="29.79925" lon="99.757025"><time>2026-05-02T22:52:21.093Z</time></trkpt>
      <trkpt lat="29.79925" lon="99.757025"><time>2026-05-02T22:52:21.109Z</time></trkpt>
      <trkpt lat="29.79925" lon="99.757025"><time>2026-05-02T22:52:21.126Z</time></trkpt>
      <trkpt lat="29.79925" lon="99.757026"><time>2026-05-02T22:52:21.143Z</time></trkpt>
      <trkpt lat="29.79925" lon="99.757026"><time>2026-05-02T22:52:21.159Z</time></trkpt>
      <trkpt lat="29.79925" lon="99.757026"><time>2026-05-02T22:52:21.176Z</time></trkpt>
      <trkpt lat="29.79925" lon="99.757026"><time>2026-05-02T22:52:21.193Z</time></trkpt>
      <trkpt lat="29.79925" lon="99.757026"><time>2026-05-02T22:52:21.209Z</time></trkpt>
      <trkpt lat="29.79925" lon="99.757026"><time>2026-05-02T22:52:21.226Z</time></trkpt>
      <trkpt lat="29.799249" lon="99.757027"><time>2026-05-02T22:52:21.243Z</time></trkpt>
      <trkpt lat="29.799249" lon="99.757027"><time>2026-05-02T22:52:21.260Z</time></trkpt>
      <trkpt lat="29.799249" lon="99.757027"><time>2026-05-02T22:52:21.276Z</time></trkpt>
      <trkpt lat="29.799249" lon="99.757027"><time>2026-05-02T22:52:21.293Z</time></trkpt>
      <trkpt lat="29.799249" lon="99.757027"><time>2026-05-02T22:52:21.310Z</time></trkpt>
      <trkpt lat="29.799249" lon="99.757027"><time>2026-05-02T22:52:21.326Z</time></trkpt>
      <trkpt lat="29.799249" lon="99.757029"><time>2026-05-02T22:52:21.343Z</time></trkpt>
      <trkpt lat="29.799249" lon="99.757029"><time>2026-05-02T22:52:21.360Z</time></trkpt>
      <trkpt lat="29.799249" lon="99.757029"><time>2026-05-02T22:52:21.376Z</time></trkpt>
      <trkpt lat="29.799249" lon="99.757029"><time>2026-05-02T22:52:21.393Z</time></trkpt>
      <trkpt lat="29.799249" lon="99.757029"><time>2026-05-02T22:52:21.410Z</time></trkpt>
      <trkpt lat="29.799249" lon="99.757029"><time>2026-05-02T22:52:21.426Z</time></trkpt>
      <trkpt lat="29.799249" lon="99.757029"><time>2026-05-02T22:52:21.443Z</time></trkpt>
      <trkpt lat="29.799249" lon="99.757029"><time>2026-05-02T22:52:21.460Z</time></trkpt>
      <trkpt lat="29.799249" lon="99.757029"><time>2026-05-02T22:52:21.476Z</time></trkpt>
      <trkpt lat="29.799249" lon="99.757029"><time>2026-05-02T22:52:21.493Z</time></trkpt>
      <trkpt lat="29.799249" lon="99.757029"><time>2026-05-02T22:52:21.510Z</time></trkpt>
      <trkpt lat="29.799249" lon="99.757029"><time>2026-05-02T22:52:21.526Z</time></trkpt>
      <trkpt lat="29.799249" lon="99.75703"><time>2026-05-02T22:52:21.543Z</time></trkpt>
      <trkpt lat="29.799249" lon="99.75703"><time>2026-05-02T22:52:21.560Z</time></trkpt>
      <trkpt lat="29.799249" lon="99.75703"><time>2026-05-02T22:52:21.577Z</time></trkpt>
      <trkpt lat="29.799249" lon="99.75703"><time>2026-05-02T22:52:21.593Z</time></trkpt>
      <trkpt lat="29.799249" lon="99.75703"><time>2026-05-02T22:52:21.610Z</time></trkpt>
      <trkpt lat="29.799249" lon="99.75703"><time>2026-05-02T22:52:21.627Z</time></trkpt>
      <trkpt lat="29.799249" lon="99.757031"><time>2026-05-02T22:52:21.643Z</time></trkpt>
      <trkpt lat="29.799249" lon="99.757031"><time>2026-05-02T22:52:21.660Z</time></trkpt>
      <trkpt lat="29.799249" lon="99.757031"><time>2026-05-02T22:52:21.677Z</time></trkpt>
      <trkpt lat="29.799249" lon="99.757031"><time>2026-05-02T22:52:21.693Z</time></trkpt>
      <trkpt lat="29.799249" lon="99.757031"><time>2026-05-02T22:52:21.710Z</time></trkpt>
      <trkpt lat="29.799249" lon="99.757031"><time>2026-05-02T22:52:21.727Z</time></trkpt>
      <trkpt lat="29.799248" lon="99.757032"><time>2026-05-02T22:52:21.743Z</time></trkpt>
      <trkpt lat="29.799248" lon="99.757032"><time>2026-05-02T22:52:21.760Z</time></trkpt>
      <trkpt lat="29.799248" lon="99.757032"><time>2026-05-02T22:52:21.777Z</time></trkpt>
      <trkpt lat="29.799248" lon="99.757032"><time>2026-05-02T22:52:21.793Z</time></trkpt>
      <trkpt lat="29.799248" lon="99.757032"><time>2026-05-02T22:52:21.810Z</time></trkpt>
      <trkpt lat="29.799248" lon="99.757032"><time>2026-05-02T22:52:21.827Z</time></trkpt>
      <trkpt lat="29.799248" lon="99.757033"><time>2026-05-02T22:52:21.843Z</time></trkpt>
      <trkpt lat="29.799248" lon="99.757033"><time>2026-05-02T22:52:21.860Z</time></trkpt>
      <trkpt lat="29.799248" lon="99.757033"><time>2026-05-02T22:52:21.877Z</time></trkpt>
      <trkpt lat="29.799248" lon="99.757033"><time>2026-05-02T22:52:21.894Z</time></trkpt>
      <trkpt lat="29.799248" lon="99.757033"><time>2026-05-02T22:52:21.910Z</time></trkpt>
      <trkpt lat="29.799248" lon="99.757033"><time>2026-05-02T22:52:21.927Z</time></trkpt>
      <trkpt lat="29.799248" lon="99.757033"><time>2026-05-02T22:52:21.944Z</time></trkpt>
      <trkpt lat="29.799248" lon="99.757033"><time>2026-05-02T22:52:21.960Z</time></trkpt>
      <trkpt lat="29.799248" lon="99.757033"><time>2026-05-02T22:52:21.977Z</time></trkpt>
      <trkpt lat="29.799248" lon="99.757033"><time>2026-05-02T22:52:21.994Z</time></trkpt>
      <trkpt lat="29.799248" lon="99.757033"><time>2026-05-02T22:52:22.010Z</time></trkpt>
      <trkpt lat="29.799248" lon="99.757033"><time>2026-05-02T22:52:22.027Z</time></trkpt>
      <trkpt lat="29.799248" lon="99.757034"><time>2026-05-02T22:52:22.044Z</time></trkpt>
      <trkpt lat="29.799248" lon="99.757034"><time>2026-05-02T22:52:22.060Z</time></trkpt>
      <trkpt lat="29.799248" lon="99.757034"><time>2026-05-02T22:52:22.077Z</time></trkpt>
      <trkpt lat="29.799248" lon="99.757034"><time>2026-05-02T22:52:22.094Z</time></trkpt>
      <trkpt lat="29.799248" lon="99.757034"><time>2026-05-02T22:52:22.110Z</time></trkpt>
      <trkpt lat="29.799248" lon="99.757034"><time>2026-05-02T22:52:22.127Z</time></trkpt>
      <trkpt lat="29.799248" lon="99.757035"><time>2026-05-02T22:52:22.144Z</time></trkpt>
      <trkpt lat="29.799248" lon="99.757035"><time>2026-05-02T22:52:22.160Z</time></trkpt>
      <trkpt lat="29.799248" lon="99.757035"><time>2026-05-02T22:52:22.177Z</time></trkpt>
      <trkpt lat="29.799248" lon="99.757035"><time>2026-05-02T22:52:22.194Z</time></trkpt>
      <trkpt lat="29.799248" lon="99.757035"><time>2026-05-02T22:52:22.211Z</time></trkpt>
      <trkpt lat="29.799248" lon="99.757035"><time>2026-05-02T22:52:22.227Z</time></trkpt>
      <trkpt lat="29.799247" lon="99.757035"><time>2026-05-02T22:52:22.244Z</time></trkpt>
      <trkpt lat="29.799247" lon="99.757035"><time>2026-05-02T22:52:22.261Z</time></trkpt>
      <trkpt lat="29.799247" lon="99.757035"><time>2026-05-02T22:52:22.277Z</time></trkpt>
      <trkpt lat="29.799247" lon="99.757035"><time>2026-05-02T22:52:22.294Z</time></trkpt>
      <trkpt lat="29.799247" lon="99.757035"><time>2026-05-02T22:52:22.311Z</time></trkpt>
      <trkpt lat="29.799247" lon="99.757035"><time>2026-05-02T22:52:22.327Z</time></trkpt>
      <trkpt lat="29.799247" lon="99.757036"><time>2026-05-02T22:52:22.344Z</time></trkpt>
      <trkpt lat="29.799247" lon="99.757036"><time>2026-05-02T22:52:22.361Z</time></trkpt>
      <trkpt lat="29.799247" lon="99.757036"><time>2026-05-02T22:52:22.377Z</time></trkpt>
      <trkpt lat="29.799247" lon="99.757036"><time>2026-05-02T22:52:22.394Z</time></trkpt>
      <trkpt lat="29.799247" lon="99.757036"><time>2026-05-02T22:52:22.411Z</time></trkpt>
      <trkpt lat="29.799247" lon="99.757036"><time>2026-05-02T22:52:22.427Z</time></trkpt>
      <trkpt lat="29.799247" lon="99.757036"><time>2026-05-02T22:52:22.444Z</time></trkpt>
      <trkpt lat="29.799247" lon="99.757036"><time>2026-05-02T22:52:22.461Z</time></trkpt>
      <trkpt lat="29.799247" lon="99.757036"><time>2026-05-02T22:52:22.477Z</time></trkpt>
      <trkpt lat="29.799247" lon="99.757036"><time>2026-05-02T22:52:22.494Z</time></trkpt>
      <trkpt lat="29.799247" lon="99.757036"><time>2026-05-02T22:52:22.511Z</time></trkpt>
      <trkpt lat="29.799247" lon="99.757036"><time>2026-05-02T22:52:22.528Z</time></trkpt>
      <trkpt lat="29.799247" lon="99.757037"><time>2026-05-02T22:52:22.544Z</time></trkpt>
      <trkpt lat="29.799247" lon="99.757037"><time>2026-05-02T22:52:22.561Z</time></trkpt>
      <trkpt lat="29.799247" lon="99.757037"><time>2026-05-02T22:52:22.578Z</time></trkpt>
      <trkpt lat="29.799247" lon="99.757037"><time>2026-05-02T22:52:22.594Z</time></trkpt>
      <trkpt lat="29.799247" lon="99.757037"><time>2026-05-02T22:52:22.611Z</time></trkpt>
    </trkseg>
  </trk>
</gpx>
