<?xml version="1.0" encoding="UTF-8"?>
<gpx version="1.1" creator="Kairos" xmlns="http://www.topografix.com/GPX/1/1">
  <trk>
    <name>sidecar-srt-095ecc1018010ddd</name>
    <trkseg>
      <trkpt lat="24.583129" lon="102.949313"><time>2026-04-26T11:03:56.000Z</time></trkpt>
      <trkpt lat="24.583129" lon="102.949312"><time>2026-04-26T11:03:56.016Z</time></trkpt>
      <trkpt lat="24.583129" lon="102.949312"><time>2026-04-26T11:03:56.032Z</time></trkpt>
      <trkpt lat="24.583129" lon="102.949312"><time>2026-04-26T11:03:56.049Z</time></trkpt>
      <trkpt lat="24.583129" lon="102.949312"><time>2026-04-26T11:03:56.066Z</time></trkpt>
      <trkpt lat="24.583129" lon="102.949312"><time>2026-04-26T11:03:56.082Z</time></trkpt>
      <trkpt lat="24.583129" lon="102.949312"><time>2026-04-26T11:03:56.099Z</time></trkpt>
      <trkpt lat="24.583129" lon="102.949312"><time>2026-04-26T11:03:56.116Z</time></trkpt>
      <trkpt lat="24.583129" lon="102.949312"><time>2026-04-26T11:03:56.132Z</time></trkpt>
      <trkpt lat="24.583129" lon="102.949312"><time>2026-04-26T11:03:56.149Z</time></trkpt>
      <trkpt lat="24.583129" lon="102.949312"><time>2026-04-26T11:03:56.166Z</time></trkpt>
      <trkpt lat="24.583129" lon="102.949312"><time>2026-04-26T11:03:56.182Z</time></trkpt>
      <trkpt lat="24.583129" lon="102.949312"><time>2026-04-26T11:03:56.199Z</time></trkpt>
      <trkpt lat="24.583129" lon="102.949312"><time>2026-04-26T11:03:56.216Z</time></trkpt>
      <trkpt lat="24.583129" lon="102.949312"><time>2026-04-26T11:03:56.232Z</time></trkpt>
      <trkpt lat="24.583129" lon="102.949312"><time>2026-04-26T11:03:56.249Z</time></trkpt>
      <trkpt lat="24.583129" lon="102.949312"><time>2026-04-26T11:03:56.266Z</time></trkpt>
      <trkpt lat="24.583129" lon="102.949312"><time>2026-04-26T11:03:56.282Z</time></trkpt>
      <trkpt lat="24.583129" lon="102.949312"><time>2026-04-26T11:03:56.299Z</time></trkpt>
      <trkpt lat="24.583129" lon="102.949312"><time>2026-04-26T11:03:56.316Z</time></trkpt>
      <trkpt lat="24.583129" lon="102.949312"><time>2026-04-26T11:03:56.333Z</time></trkpt>
      <trkpt lat="24.583129" lon="102.949312"><time>2026-04-26T11:03:56.349Z</time></trkpt>
      <trkpt lat="24.583129" lon="102.949312"><time>2026-04-26T11:03:56.366Z</time></trkpt>
      <trkpt lat="24.583129" lon="102.949312"><time>2026-04-26T11:03:56.383Z</time></trkpt>
      <trkpt lat="24.583129" lon="102.949312"><time>2026-04-26T11:03:56.399Z</time></trkpt>
      <trkpt lat="24.583129" lon="102.949312"><time>2026-04-26T11:03:56.416Z</time></trkpt>
      <trkpt lat="24.583129" lon="102.949312"><time>2026-04-26T11:03:56.433Z</time></trkpt>
      <trkpt lat="24.583129" lon="102.949312"><time>2026-04-26T11:03:56.449Z</time></trkpt>
      <trkpt lat="24.583129" lon="102.949312"><time>2026-04-26T11:03:56.466Z</time></trkpt>
      <trkpt lat="24.583129" lon="102.949312"><time>2026-04-26T11:03:56.483Z</time></trkpt>
      <trkpt lat="24.583129" lon="102.949312"><time>2026-04-26T11:03:56.499Z</time></trkpt>
      <trkpt lat="24.583129" lon="102.949312"><time>2026-04-26T11:03:56.516Z</time></trkpt>
      <trkpt lat="24.583129" lon="102.949312"><time>2026-04-26T11:03:56.533Z</time></trkpt>
      <trkpt lat="24.583129" lon="102.949312"><time>2026-04-26T11:03:56.549Z</time></trkpt>
      <trkpt lat="24.583129" lon="102.949312"><time>2026-04-26T11:03:56.566Z</time></trkpt>
      <trkpt lat="24.583129" lon="102.949312"><time>2026-04-26T11:03:56.583Z</time></trkpt>
      <trkpt lat="24.58313" lon="102.949311"><time>2026-04-26T11:03:56.599Z</time></trkpt>
      <trkpt lat="24.58313" lon="102.949311"><time>2026-04-26T11:03:56.616Z</time></trkpt>
      <trkpt lat="24.58313" lon="102.949311"><time>2026-04-26T11:03:56.633Z</time></trkpt>
      <trkpt lat="24.58313" lon="102.949311"><time>2026-04-26T11:03:56.650Z</time></trkpt>
      <trkpt lat="24.58313" lon="102.949311"><time>2026-04-26T11:03:56.666Z</time></trkpt>
      <trkpt lat="24.58313" lon="102.949311"><time>2026-04-26T11:03:56.683Z</time></trkpt>
      <trkpt lat="24.583131" lon="102.949311"><time>2026-04-26T11:03:56.700Z</time></trkpt>
      <trkpt lat="24.583131" lon="102.949311"><time>2026-04-26T11:03:56.716Z</time></trkpt>
      <trkpt lat="24.583131" lon="102.949311"><time>2026-04-26T11:03:56.733Z</time></trkpt>
      <trkpt lat="24.583131" lon="102.949311"><time>2026-04-26T11:03:56.750Z</time></trkpt>
      <trkpt lat="24.583131" lon="102.949311"><time>2026-04-26T11:03:56.766Z</time></trkpt>
      <trkpt lat="24.583131" lon="102.949311"><time>2026-04-26T11:03:56.783Z</time></trkpt>
      <trkpt lat="24.583132" lon="102.94931"><time>2026-04-26T11:03:56.800Z</time></trkpt>
      <trkpt lat="24.583132" lon="102.94931"><time>2026-04-26T11:03:56.816Z</time></trkpt>
      <trkpt lat="24.583132" lon="102.94931"><time>2026-04-26T11:03:56.833Z</time></trkpt>
      <trkpt lat="24.583132" lon="102.94931"><time>2026-04-26T11:03:56.850Z</time></trkpt>
      <trkpt lat="24.583132" lon="102.94931"><time>2026-04-26T11:03:56.866Z</time></trkpt>
      <trkpt lat="24.583132" lon="102.94931"><time>2026-04-26T11:03:56.883Z</time></trkpt>
      <trkpt lat="24.583133" lon="102.949309"><time>2026-04-26T11:03:56.900Z</time></trkpt>
      <trkpt lat="24.583133" lon="102.949309"><time>2026-04-26T11:03:56.916Z</time></trkpt>
      <trkpt lat="24.583133" lon="102.949309"><time>2026-04-26T11:03:56.933Z</time></trkpt>
      <trkpt lat="24.583133" lon="102.949309"><time>2026-04-26T11:03:56.950Z</time></trkpt>
      <trkpt lat="24.583133" lon="102.949309"><time>2026-04-26T11:03:56.967Z</time></trkpt>
      <trkpt lat="24.583133" lon="102.949309"><time>2026-04-26T11:03:56.983Z</time></trkpt>
      <trkpt lat="24.583135" lon="102.949308"><time>2026-04-26T11:03:57.000Z</time></trkpt>
      <trkpt lat="24.583135" lon="102.949308"><time>2026-04-26T11:03:57.017Z</time></trkpt>
      <trkpt lat="24.583135" lon="102.949308"><time>2026-04-26T11:03:57.033Z</time></trkpt>
      <trkpt lat="24.583135" lon="102.949308"><time>2026-04-26T11:03:57.050Z</time></trkpt>
      <trkpt lat="24.583135" lon="102.949308"><time>2026-04-26T11:03:57.067Z</time></trkpt>
      <trkpt lat="24.583135" lon="102.949308"><time>2026-04-26T11:03:57.083Z</time></trkpt>
      <trkpt lat="24.583137" lon="102.949307"><time>2026-04-26T11:03:57.100Z</time></trkpt>
      <trkpt lat="24.583137" lon="102.949307"><time>2026-04-26T11:03:57.117Z</time></trkpt>
      <trkpt lat="24.583137" lon="102.949307"><time>2026-04-26T11:03:57.133Z</time></trkpt>
      <trkpt lat="24.583137" lon="102.949307"><time>2026-04-26T11:03:57.150Z</time></trkpt>
      <trkpt lat="24.583137" lon="102.949307"><time>2026-04-26T11:03:57.167Z</time></trkpt>
      <trkpt lat="24.583137" lon="102.949307"><time>2026-04-26T11:03:57.183Z</time></trkpt>
      <trkpt lat="24.583139" lon="102.949305"><time>2026-04-26T11:03:57.200Z</time></trkpt>
      <trkpt lat="24.583139" lon="102.949305"><time>2026-04-26T11:03:57.217Z</time></trkpt>
      <trkpt lat="24.583139" lon="102.949305"><time>2026-04-26T11:03:57.233Z</time></trkpt>
      <trkpt lat="24.583139" lon="102.949305"><time>2026-04-26T11:03:57.250Z</time></trkpt>
      <trkpt lat="24.583139" lon="102.949305"><time>2026-04-26T11:03:57.267Z</time></trkpt>
      <trkpt lat="24.583139" lon="102.949305"><time>2026-04-26T11:03:57.283Z</time></trkpt>
      <trkpt lat="24.583142" lon="102.949303"><time>2026-04-26T11:03:57.300Z</time></trkpt>
      <trkpt lat="24.583142" lon="102.949303"><time>2026-04-26T11:03:57.317Z</time></trkpt>
      <trkpt lat="24.583142" lon="102.949303"><time>2026-04-26T11:03:57.334Z</time></trkpt>
      <trkpt lat="24.583142" lon="102.949303"><time>2026-04-26T11:03:57.350Z</time></trkpt>
      <trkpt lat="24.583142" lon="102.949303"><time>2026-04-26T11:03:57.367Z</time></trkpt>
      <trkpt lat="24.583142" lon="102.949303"><time>2026-04-26T11:03:57.384Z</time></trkpt>
      <trkpt lat="24.583144" lon="102.949302"><time>2026-04-26T11:03:57.400Z</time></trkpt>
      <trkpt lat="24.583144" lon="102.949302"><time>2026-04-26T11:03:57.417Z</time></trkpt>
      <trkpt lat="24.583144" lon="102.949302"><time>2026-04-26T11:03:57.434Z</time></trkpt>
      <trkpt lat="24.583144" lon="102.949302"><time>2026-04-26T11:03:57.450Z</time></trkpt>
      <trkpt lat="24.583144" lon="102.949302"><time>2026-04-26T11:03:57.467Z</time></trkpt>
      <trkpt lat="24.583144" lon="102.949302"><time>2026-04-26T11:03:57.484Z</time></trkpt>
      <trkpt lat="24.583148" lon="102.9493"><time>2026-04-26T11:03:57.500Z</time></trkpt>
      <trkpt lat="24.583148" lon="102.9493"><time>2026-04-26T11:03:57.517Z</time></trkpt>
      <trkpt lat="24.583148" lon="102.9493"><time>2026-04-26T11:03:57.534Z</time></trkpt>
      <trkpt lat="24.583148" lon="102.9493"><time>2026-04-26T11:03:57.550Z</time></trkpt>
      <trkpt lat="24.583148" lon="102.9493"><time>2026-04-26T11:03:57.567Z</time></trkpt>
      <trkpt lat="24.583148" lon="102.9493"><time>2026-04-26T11:03:57.584Z</time></trkpt>
      <trkpt lat="24.58315" lon="102.949298"><time>2026-04-26T11:03:57.600Z</time></trkpt>
      <trkpt lat="24.58315" lon="102.949298"><time>2026-04-26T11:03:57.617Z</time></trkpt>
      <trkpt lat="24.58315" lon="102.949298"><time>2026-04-26T11:03:57.634Z</time></trkpt>
      <trkpt lat="24.58315" lon="102.949298"><time>2026-04-26T11:03:57.651Z</time></trkpt>
      <trkpt lat="24.58315" lon="102.949298"><time>2026-04-26T11:03:57.667Z</time></trkpt>
      <trkpt lat="24.58315" lon="102.949298"><time>2026-04-26T11:03:57.684Z</time></trkpt>
      <trkpt lat="24.583154" lon="102.949295"><time>2026-04-26T11:03:57.701Z</time></trkpt>
      <trkpt lat="24.583154" lon="102.949295"><time>2026-04-26T11:03:57.717Z</time></trkpt>
      <trkpt lat="24.583154" lon="102.949295"><time>2026-04-26T11:03:57.734Z</time></trkpt>
      <trkpt lat="24.583154" lon="102.949295"><time>2026-04-26T11:03:57.751Z</time></trkpt>
      <trkpt lat="24.583154" lon="102.949295"><time>2026-04-26T11:03:57.767Z</time></trkpt>
      <trkpt lat="24.583154" lon="102.949295"><time>2026-04-26T11:03:57.784Z</time></trkpt>
      <trkpt lat="24.583157" lon="102.949294"><time>2026-04-26T11:03:57.801Z</time></trkpt>
      <trkpt lat="24.583157" lon="102.949294"><time>2026-04-26T11:03:57.817Z</time></trkpt>
      <trkpt lat="24.583157" lon="102.949294"><time>2026-04-26T11:03:57.834Z</time></trkpt>
      <trkpt lat="24.583157" lon="102.949294"><time>2026-04-26T11:03:57.851Z</time></trkpt>
      <trkpt lat="24.583157" lon="102.949294"><time>2026-04-26T11:03:57.867Z</time></trkpt>
      <trkpt lat="24.583157" lon="102.949294"><time>2026-04-26T11:03:57.884Z</time></trkpt>
      <trkpt lat="24.583161" lon="102.949291"><time>2026-04-26T11:03:57.901Z</time></trkpt>
      <trkpt lat="24.583161" lon="102.949291"><time>2026-04-26T11:03:57.917Z</time></trkpt>
      <trkpt lat="24.583161" lon="102.949291"><time>2026-04-26T11:03:57.934Z</time></trkpt>
      <trkpt lat="24.583161" lon="102.949291"><time>2026-04-26T11:03:57.951Z</time></trkpt>
      <trkpt lat="24.583161" lon="102.949291"><time>2026-04-26T11:03:57.968Z</time></trkpt>
      <trkpt lat="24.583161" lon="102.949291"><time>2026-04-26T11:03:57.984Z</time></trkpt>
      <trkpt lat="24.583165" lon="102.949288"><time>2026-04-26T11:03:58.001Z</time></trkpt>
      <trkpt lat="24.583165" lon="102.949288"><time>2026-04-26T11:03:58.018Z</time></trkpt>
      <trkpt lat="24.583165" lon="102.949288"><time>2026-04-26T11:03:58.034Z</time></trkpt>
      <trkpt lat="24.583165" lon="102.949288"><time>2026-04-26T11:03:58.051Z</time></trkpt>
      <trkpt lat="24.583165" lon="102.949288"><time>2026-04-26T11:03:58.068Z</time></trkpt>
      <trkpt lat="24.583165" lon="102.949288"><time>2026-04-26T11:03:58.084Z</time></trkpt>
      <trkpt lat="24.583169" lon="102.949286"><time>2026-04-26T11:03:58.101Z</time></trkpt>
      <trkpt lat="24.583169" lon="102.949286"><time>2026-04-26T11:03:58.118Z</time></trkpt>
      <trkpt lat="24.583169" lon="102.949286"><time>2026-04-26T11:03:58.134Z</time></trkpt>
      <trkpt lat="24.583169" lon="102.949286"><time>2026-04-26T11:03:58.151Z</time></trkpt>
      <trkpt lat="24.583169" lon="102.949286"><time>2026-04-26T11:03:58.168Z</time></trkpt>
      <trkpt lat="24.583169" lon="102.949286"><time>2026-04-26T11:03:58.184Z</time></trkpt>
      <trkpt lat="24.583173" lon="102.949283"><time>2026-04-26T11:03:58.201Z</time></trkpt>
      <trkpt lat="24.583173" lon="102.949283"><time>2026-04-26T11:03:58.218Z</time></trkpt>
      <trkpt lat="24.583173" lon="102.949283"><time>2026-04-26T11:03:58.234Z</time></trkpt>
      <trkpt lat="24.583173" lon="102.949283"><time>2026-04-26T11:03:58.251Z</time></trkpt>
      <trkpt lat="24.583173" lon="102.949283"><time>2026-04-26T11:03:58.268Z</time></trkpt>
      <trkpt lat="24.583173" lon="102.949283"><time>2026-04-26T11:03:58.285Z</time></trkpt>
      <trkpt lat="24.583177" lon="102.94928"><time>2026-04-26T11:03:58.301Z</time></trkpt>
      <trkpt lat="24.583177" lon="102.94928"><time>2026-04-26T11:03:58.318Z</time></trkpt>
      <trkpt lat="24.583177" lon="102.94928"><time>2026-04-26T11:03:58.335Z</time></trkpt>
      <trkpt lat="24.583177" lon="102.94928"><time>2026-04-26T11:03:58.351Z</time></trkpt>
      <trkpt lat="24.583177" lon="102.94928"><time>2026-04-26T11:03:58.368Z</time></trkpt>
      <trkpt lat="24.583177" lon="102.94928"><time>2026-04-26T11:03:58.385Z</time></trkpt>
      <trkpt lat="24.583181" lon="102.949278"><time>2026-04-26T11:03:58.401Z</time></trkpt>
      <trkpt lat="24.583181" lon="102.949278"><time>2026-04-26T11:03:58.418Z</time></trkpt>
      <trkpt lat="24.583181" lon="102.949278"><time>2026-04-26T11:03:58.435Z</time></trkpt>
      <trkpt lat="24.583181" lon="102.949278"><time>2026-04-26T11:03:58.451Z</time></trkpt>
      <trkpt lat="24.583181" lon="102.949278"><time>2026-04-26T11:03:58.468Z</time></trkpt>
      <trkpt lat="24.583181" lon="102.949278"><time>2026-04-26T11:03:58.485Z</time></trkpt>
      <trkpt lat="24.583186" lon="102.949275"><time>2026-04-26T11:03:58.501Z</time></trkpt>
      <trkpt lat="24.583186" lon="102.949275"><time>2026-04-26T11:03:58.518Z</time></trkpt>
      <trkpt lat="24.583186" lon="102.949275"><time>2026-04-26T11:03:58.535Z</time></trkpt>
      <trkpt lat="24.583186" lon="102.949275"><time>2026-04-26T11:03:58.551Z</time></trkpt>
      <trkpt lat="24.583186" lon="102.949275"><time>2026-04-26T11:03:58.568Z</time></trkpt>
      <trkpt lat="24.583186" lon="102.949275"><time>2026-04-26T11:03:58.585Z</time></trkpt>
      <trkpt lat="24.58319" lon="102.949272"><time>2026-04-26T11:03:58.602Z</time></trkpt>
      <trkpt lat="24.58319" lon="102.949272"><time>2026-04-26T11:03:58.618Z</time></trkpt>
      <trkpt lat="24.58319" lon="102.949272"><time>2026-04-26T11:03:58.635Z</time></trkpt>
      <trkpt lat="24.58319" lon="102.949272"><time>2026-04-26T11:03:58.652Z</time></trkpt>
      <trkpt lat="24.58319" lon="102.949272"><time>2026-04-26T11:03:58.668Z</time></trkpt>
      <trkpt lat="24.58319" lon="102.949272"><time>2026-04-26T11:03:58.685Z</time></trkpt>
      <trkpt lat="24.583195" lon="102.949269"><time>2026-04-26T11:03:58.702Z</time></trkpt>
      <trkpt lat="24.583195" lon="102.949269"><time>2026-04-26T11:03:58.718Z</time></trkpt>
      <trkpt lat="24.583195" lon="102.949269"><time>2026-04-26T11:03:58.735Z</time></trkpt>
      <trkpt lat="24.583195" lon="102.949269"><time>2026-04-26T11:03:58.752Z</time></trkpt>
      <trkpt lat="24.583195" lon="102.949269"><time>2026-04-26T11:03:58.768Z</time></trkpt>
      <trkpt lat="24.583195" lon="102.949269"><time>2026-04-26T11:03:58.785Z</time></trkpt>
      <trkpt lat="24.5832" lon="102.949266"><time>2026-04-26T11:03:58.802Z</time></trkpt>
      <trkpt lat="24.5832" lon="102.949266"><time>2026-04-26T11:03:58.818Z</time></trkpt>
      <trkpt lat="24.5832" lon="102.949266"><time>2026-04-26T11:03:58.835Z</time></trkpt>
      <trkpt lat="24.5832" lon="102.949266"><time>2026-04-26T11:03:58.852Z</time></trkpt>
      <trkpt lat="24.5832" lon="102.949266"><time>2026-04-26T11:03:58.868Z</time></trkpt>
      <trkpt lat="24.5832" lon="102.949266"><time>2026-04-26T11:03:58.885Z</time></trkpt>
      <trkpt lat="24.583205" lon="102.949262"><time>2026-04-26T11:03:58.902Z</time></trkpt>
      <trkpt lat="24.583205" lon="102.949262"><time>2026-04-26T11:03:58.919Z</time></trkpt>
      <trkpt lat="24.583205" lon="102.949262"><time>2026-04-26T11:03:58.935Z</time></trkpt>
      <trkpt lat="24.583205" lon="102.949262"><time>2026-04-26T11:03:58.952Z</time></trkpt>
      <trkpt lat="24.583205" lon="102.949262"><time>2026-04-26T11:03:58.969Z</time></trkpt>
      <trkpt lat="24.583205" lon="102.949262"><time>2026-04-26T11:03:58.985Z</time></trkpt>
      <trkpt lat="24.58321" lon="102.949259"><time>2026-04-26T11:03:59.002Z</time></trkpt>
      <trkpt lat="24.58321" lon="102.949259"><time>2026-04-26T11:03:59.019Z</time></trkpt>
      <trkpt lat="24.58321" lon="102.949259"><time>2026-04-26T11:03:59.035Z</time></trkpt>
      <trkpt lat="24.58321" lon="102.949259"><time>2026-04-26T11:03:59.052Z</time></trkpt>
      <trkpt lat="24.58321" lon="102.949259"><time>2026-04-26T11:03:59.069Z</time></trkpt>
      <trkpt lat="24.58321" lon="102.949259"><time>2026-04-26T11:03:59.085Z</time></trkpt>
      <trkpt lat="24.583216" lon="102.949256"><time>2026-04-26T11:03:59.102Z</time></trkpt>
      <trkpt lat="24.583216" lon="102.949256"><time>2026-04-26T11:03:59.119Z</time></trkpt>
      <trkpt lat="24.583216" lon="102.949256"><time>2026-04-26T11:03:59.135Z</time></trkpt>
      <trkpt lat="24.583216" lon="102.949256"><time>2026-04-26T11:03:59.152Z</time></trkpt>
      <trkpt lat="24.583216" lon="102.949256"><time>2026-04-26T11:03:59.169Z</time></trkpt>
      <trkpt lat="24.583216" lon="102.949256"><time>2026-04-26T11:03:59.185Z</time></trkpt>
      <trkpt lat="24.583221" lon="102.949253"><time>2026-04-26T11:03:59.202Z</time></trkpt>
      <trkpt lat="24.583221" lon="102.949253"><time>2026-04-26T11:03:59.219Z</time></trkpt>
      <trkpt lat="24.583221" lon="102.949253"><time>2026-04-26T11:03:59.236Z</time></trkpt>
      <trkpt lat="24.583221" lon="102.949253"><time>2026-04-26T11:03:59.252Z</time></trkpt>
      <trkpt lat="24.583221" lon="102.949253"><time>2026-04-26T11:03:59.269Z</time></trkpt>
      <trkpt lat="24.583221" lon="102.949253"><time>2026-04-26T11:03:59.286Z</time></trkpt>
      <trkpt lat="24.583226" lon="102.949249"><time>2026-04-26T11:03:59.302Z</time></trkpt>
      <trkpt lat="24.583226" lon="102.949249"><time>2026-04-26T11:03:59.319Z</time></trkpt>
      <trkpt lat="24.583226" lon="102.949249"><time>2026-04-26T11:03:59.336Z</time></trkpt>
      <trkpt lat="24.583226" lon="102.949249"><time>2026-04-26T11:03:59.352Z</time></trkpt>
      <trkpt lat="24.583226" lon="102.949249"><time>2026-04-26T11:03:59.369Z</time></trkpt>
      <trkpt lat="24.583226" lon="102.949249"><time>2026-04-26T11:03:59.386Z</time></trkpt>
      <trkpt lat="24.583231" lon="102.949246"><time>2026-04-26T11:03:59.402Z</time></trkpt>
      <trkpt lat="24.583231" lon="102.949246"><time>2026-04-26T11:03:59.419Z</time></trkpt>
      <trkpt lat="24.583231" lon="102.949246"><time>2026-04-26T11:03:59.436Z</time></trkpt>
      <trkpt lat="24.583231" lon="102.949246"><time>2026-04-26T11:03:59.452Z</time></trkpt>
      <trkpt lat="24.583231" lon="102.949246"><time>2026-04-26T11:03:59.469Z</time></trkpt>
      <trkpt lat="24.583231" lon="102.949246"><time>2026-04-26T11:03:59.486Z</time></trkpt>
      <trkpt lat="24.583238" lon="102.949242"><time>2026-04-26T11:03:59.502Z</time></trkpt>
      <trkpt lat="24.583238" lon="102.949242"><time>2026-04-26T11:03:59.519Z</time></trkpt>
      <trkpt lat="24.583238" lon="102.949242"><time>2026-04-26T11:03:59.536Z</time></trkpt>
      <trkpt lat="24.583238" lon="102.949242"><time>2026-04-26T11:03:59.553Z</time></trkpt>
      <trkpt lat="24.583238" lon="102.949242"><time>2026-04-26T11:03:59.569Z</time></trkpt>
      <trkpt lat="24.583238" lon="102.949242"><time>2026-04-26T11:03:59.586Z</time></trkpt>
      <trkpt lat="24.583243" lon="102.949239"><time>2026-04-26T11:03:59.603Z</time></trkpt>
      <trkpt lat="24.583243" lon="102.949239"><time>2026-04-26T11:03:59.619Z</time></trkpt>
      <trkpt lat="24.583243" lon="102.949239"><time>2026-04-26T11:03:59.636Z</time></trkpt>
      <trkpt lat="24.583243" lon="102.949239"><time>2026-04-26T11:03:59.653Z</time></trkpt>
      <trkpt lat="24.583243" lon="102.949239"><time>2026-04-26T11:03:59.669Z</time></trkpt>
      <trkpt lat="24.583243" lon="102.949239"><time>2026-04-26T11:03:59.686Z</time></trkpt>
      <trkpt lat="24.583249" lon="102.949235"><time>2026-04-26T11:03:59.703Z</time></trkpt>
      <trkpt lat="24.583249" lon="102.949235"><time>2026-04-26T11:03:59.719Z</time></trkpt>
      <trkpt lat="24.583249" lon="102.949235"><time>2026-04-26T11:03:59.736Z</time></trkpt>
      <trkpt lat="24.583249" lon="102.949235"><time>2026-04-26T11:03:59.753Z</time></trkpt>
      <trkpt lat="24.583249" lon="102.949235"><time>2026-04-26T11:03:59.769Z</time></trkpt>
      <trkpt lat="24.583249" lon="102.949235"><time>2026-04-26T11:03:59.786Z</time></trkpt>
      <trkpt lat="24.583255" lon="102.949231"><time>2026-04-26T11:03:59.803Z</time></trkpt>
      <trkpt lat="24.583255" lon="102.949231"><time>2026-04-26T11:03:59.819Z</time></trkpt>
      <trkpt lat="24.583255" lon="102.949231"><time>2026-04-26T11:03:59.836Z</time></trkpt>
      <trkpt lat="24.583255" lon="102.949231"><time>2026-04-26T11:03:59.853Z</time></trkpt>
      <trkpt lat="24.583255" lon="102.949231"><time>2026-04-26T11:03:59.870Z</time></trkpt>
      <trkpt lat="24.583255" lon="102.949231"><time>2026-04-26T11:03:59.886Z</time></trkpt>
      <trkpt lat="24.583261" lon="102.949227"><time>2026-04-26T11:03:59.903Z</time></trkpt>
      <trkpt lat="24.583261" lon="102.949227"><time>2026-04-26T11:03:59.920Z</time></trkpt>
      <trkpt lat="24.583261" lon="102.949227"><time>2026-04-26T11:03:59.936Z</time></trkpt>
      <trkpt lat="24.583261" lon="102.949227"><time>2026-04-26T11:03:59.953Z</time></trkpt>
      <trkpt lat="24.583261" lon="102.949227"><time>2026-04-26T11:03:59.970Z</time></trkpt>
      <trkpt lat="24.583261" lon="102.949227"><time>2026-04-26T11:03:59.986Z</time></trkpt>
      <trkpt lat="24.583266" lon="102.949224"><time>2026-04-26T11:04:00.003Z</time></trkpt>
      <trkpt lat="24.583266" lon="102.949224"><time>2026-04-26T11:04:00.020Z</time></trkpt>
      <trkpt lat="24.583266" lon="102.949224"><time>2026-04-26T11:04:00.036Z</time></trkpt>
      <trkpt lat="24.583266" lon="102.949224"><time>2026-04-26T11:04:00.053Z</time></trkpt>
      <trkpt lat="24.583266" lon="102.949224"><time>2026-04-26T11:04:00.070Z</time></trkpt>
      <trkpt lat="24.583266" lon="102.949224"><time>2026-04-26T11:04:00.086Z</time></trkpt>
      <trkpt lat="24.583273" lon="102.94922"><time>2026-04-26T11:04:00.103Z</time></trkpt>
      <trkpt lat="24.583273" lon="102.94922"><time>2026-04-26T11:04:00.120Z</time></trkpt>
      <trkpt lat="24.583273" lon="102.94922"><time>2026-04-26T11:04:00.136Z</time></trkpt>
      <trkpt lat="24.583273" lon="102.94922"><time>2026-04-26T11:04:00.153Z</time></trkpt>
      <trkpt lat="24.583273" lon="102.94922"><time>2026-04-26T11:04:00.170Z</time></trkpt>
      <trkpt lat="24.583273" lon="102.94922"><time>2026-04-26T11:04:00.187Z</time></trkpt>
      <trkpt lat="24.583279" lon="102.949216"><time>2026-04-26T11:04:00.203Z</time></trkpt>
      <trkpt lat="24.583279" lon="102.949216"><time>2026-04-26T11:04:00.220Z</time></trkpt>
      <trkpt lat="24.583279" lon="102.949216"><time>2026-04-26T11:04:00.237Z</time></trkpt>
      <trkpt lat="24.583279" lon="102.949216"><time>2026-04-26T11:04:00.253Z</time></trkpt>
      <trkpt lat="24.583279" lon="102.949216"><time>2026-04-26T11:04:00.270Z</time></trkpt>
      <trkpt lat="24.583279" lon="102.949216"><time>2026-04-26T11:04:00.287Z</time></trkpt>
      <trkpt lat="24.583285" lon="102.949212"><time>2026-04-26T11:04:00.303Z</time></trkpt>
      <trkpt lat="24.583285" lon="102.949212"><time>2026-04-26T11:04:00.320Z</time></trkpt>
      <trkpt lat="24.583285" lon="102.949212"><time>2026-04-26T11:04:00.337Z</time></trkpt>
      <trkpt lat="24.583285" lon="102.949212"><time>2026-04-26T11:04:00.353Z</time></trkpt>
      <trkpt lat="24.583285" lon="102.949212"><time>2026-04-26T11:04:00.370Z</time></trkpt>
      <trkpt lat="24.583285" lon="102.949212"><time>2026-04-26T11:04:00.387Z</time></trkpt>
      <trkpt lat="24.583291" lon="102.949209"><time>2026-04-26T11:04:00.403Z</time></trkpt>
      <trkpt lat="24.583291" lon="102.949209"><time>2026-04-26T11:04:00.420Z</time></trkpt>
      <trkpt lat="24.583291" lon="102.949209"><time>2026-04-26T11:04:00.437Z</time></trkpt>
      <trkpt lat="24.583291" lon="102.949209"><time>2026-04-26T11:04:00.453Z</time></trkpt>
      <trkpt lat="24.583291" lon="102.949209"><time>2026-04-26T11:04:00.470Z</time></trkpt>
      <trkpt lat="24.583291" lon="102.949209"><time>2026-04-26T11:04:00.487Z</time></trkpt>
      <trkpt lat="24.583298" lon="102.949204"><time>2026-04-26T11:04:00.504Z</time></trkpt>
      <trkpt lat="24.583298" lon="102.949204"><time>2026-04-26T11:04:00.520Z</time></trkpt>
      <trkpt lat="24.583298" lon="102.949204"><time>2026-04-26T11:04:00.537Z</time></trkpt>
      <trkpt lat="24.583298" lon="102.949204"><time>2026-04-26T11:04:00.554Z</time></trkpt>
      <trkpt lat="24.583298" lon="102.949204"><time>2026-04-26T11:04:00.570Z</time></trkpt>
      <trkpt lat="24.583298" lon="102.949204"><time>2026-04-26T11:04:00.587Z</time></trkpt>
      <trkpt lat="24.583304" lon="102.949201"><time>2026-04-26T11:04:00.604Z</time></trkpt>
      <trkpt lat="24.583304" lon="102.949201"><time>2026-04-26T11:04:00.620Z</time></trkpt>
      <trkpt lat="24.583304" lon="102.949201"><time>2026-04-26T11:04:00.637Z</time></trkpt>
      <trkpt lat="24.583304" lon="102.949201"><time>2026-04-26T11:04:00.654Z</time></trkpt>
      <trkpt lat="24.583304" lon="102.949201"><time>2026-04-26T11:04:00.670Z</time></trkpt>
      <trkpt lat="24.583304" lon="102.949201"><time>2026-04-26T11:04:00.687Z</time></trkpt>
      <trkpt lat="24.583311" lon="102.949197"><time>2026-04-26T11:04:00.704Z</time></trkpt>
      <trkpt lat="24.583311" lon="102.949197"><time>2026-04-26T11:04:00.720Z</time></trkpt>
      <trkpt lat="24.583311" lon="102.949197"><time>2026-04-26T11:04:00.737Z</time></trkpt>
      <trkpt lat="24.583311" lon="102.949197"><time>2026-04-26T11:04:00.754Z</time></trkpt>
      <trkpt lat="24.583311" lon="102.949197"><time>2026-04-26T11:04:00.770Z</time></trkpt>
      <trkpt lat="24.583311" lon="102.949197"><time>2026-04-26T11:04:00.787Z</time></trkpt>
      <trkpt lat="24.583317" lon="102.949193"><time>2026-04-26T11:04:00.804Z</time></trkpt>
      <trkpt lat="24.583317" lon="102.949193"><time>2026-04-26T11:04:00.821Z</time></trkpt>
      <trkpt lat="24.583317" lon="102.949193"><time>2026-04-26T11:04:00.837Z</time></trkpt>
      <trkpt lat="24.583317" lon="102.949193"><time>2026-04-26T11:04:00.854Z</time></trkpt>
      <trkpt lat="24.583317" lon="102.949193"><time>2026-04-26T11:04:00.871Z</time></trkpt>
      <trkpt lat="24.583317" lon="102.949193"><time>2026-04-26T11:04:00.887Z</time></trkpt>
      <trkpt lat="24.583324" lon="102.949188"><time>2026-04-26T11:04:00.904Z</time></trkpt>
      <trkpt lat="24.583324" lon="102.949188"><time>2026-04-26T11:04:00.921Z</time></trkpt>
      <trkpt lat="24.583324" lon="102.949188"><time>2026-04-26T11:04:00.937Z</time></trkpt>
      <trkpt lat="24.583324" lon="102.949188"><time>2026-04-26T11:04:00.954Z</time></trkpt>
      <trkpt lat="24.583324" lon="102.949188"><time>2026-04-26T11:04:00.971Z</time></trkpt>
      <trkpt lat="24.583324" lon="102.949188"><time>2026-04-26T11:04:00.987Z</time></trkpt>
      <trkpt lat="24.58333" lon="102.949185"><time>2026-04-26T11:04:01.004Z</time></trkpt>
      <trkpt lat="24.58333" lon="102.949185"><time>2026-04-26T11:04:01.021Z</time></trkpt>
      <trkpt lat="24.58333" lon="102.949185"><time>2026-04-26T11:04:01.037Z</time></trkpt>
      <trkpt lat="24.58333" lon="102.949185"><time>2026-04-26T11:04:01.054Z</time></trkpt>
      <trkpt lat="24.58333" lon="102.949185"><time>2026-04-26T11:04:01.071Z</time></trkpt>
      <trkpt lat="24.58333" lon="102.949185"><time>2026-04-26T11:04:01.087Z</time></trkpt>
      <trkpt lat="24.583337" lon="102.94918"><time>2026-04-26T11:04:01.104Z</time></trkpt>
      <trkpt lat="24.583337" lon="102.94918"><time>2026-04-26T11:04:01.121Z</time></trkpt>
      <trkpt lat="24.583337" lon="102.94918"><time>2026-04-26T11:04:01.138Z</time></trkpt>
      <trkpt lat="24.583337" lon="102.94918"><time>2026-04-26T11:04:01.154Z</time></trkpt>
      <trkpt lat="24.583337" lon="102.94918"><time>2026-04-26T11:04:01.171Z</time></trkpt>
      <trkpt lat="24.583337" lon="102.94918"><time>2026-04-26T11:04:01.188Z</time></trkpt>
      <trkpt lat="24.583343" lon="102.949177"><time>2026-04-26T11:04:01.204Z</time></trkpt>
      <trkpt lat="24.583343" lon="102.949177"><time>2026-04-26T11:04:01.221Z</time></trkpt>
      <trkpt lat="24.583343" lon="102.949177"><time>2026-04-26T11:04:01.238Z</time></trkpt>
      <trkpt lat="24.583343" lon="102.949177"><time>2026-04-26T11:04:01.254Z</time></trkpt>
      <trkpt lat="24.583343" lon="102.949177"><time>2026-04-26T11:04:01.271Z</time></trkpt>
      <trkpt lat="24.583343" lon="102.949177"><time>2026-04-26T11:04:01.288Z</time></trkpt>
      <trkpt lat="24.583351" lon="102.949172"><time>2026-04-26T11:04:01.304Z</time></trkpt>
      <trkpt lat="24.583351" lon="102.949172"><time>2026-04-26T11:04:01.321Z</time></trkpt>
      <trkpt lat="24.583351" lon="102.949172"><time>2026-04-26T11:04:01.338Z</time></trkpt>
      <trkpt lat="24.583351" lon="102.949172"><time>2026-04-26T11:04:01.354Z</time></trkpt>
      <trkpt lat="24.583351" lon="102.949172"><time>2026-04-26T11:04:01.371Z</time></trkpt>
      <trkpt lat="24.583351" lon="102.949172"><time>2026-04-26T11:04:01.388Z</time></trkpt>
      <trkpt lat="24.583357" lon="102.949168"><time>2026-04-26T11:04:01.404Z</time></trkpt>
      <trkpt lat="24.583357" lon="102.949168"><time>2026-04-26T11:04:01.421Z</time></trkpt>
      <trkpt lat="24.583357" lon="102.949168"><time>2026-04-26T11:04:01.438Z</time></trkpt>
      <trkpt lat="24.583357" lon="102.949168"><time>2026-04-26T11:04:01.455Z</time></trkpt>
      <trkpt lat="24.583357" lon="102.949168"><time>2026-04-26T11:04:01.471Z</time></trkpt>
      <trkpt lat="24.583357" lon="102.949168"><time>2026-04-26T11:04:01.488Z</time></trkpt>
      <trkpt lat="24.583365" lon="102.949164"><time>2026-04-26T11:04:01.505Z</time></trkpt>
      <trkpt lat="24.583365" lon="102.949164"><time>2026-04-26T11:04:01.521Z</time></trkpt>
      <trkpt lat="24.583365" lon="102.949164"><time>2026-04-26T11:04:01.538Z</time></trkpt>
      <trkpt lat="24.583365" lon="102.949164"><time>2026-04-26T11:04:01.555Z</time></trkpt>
      <trkpt lat="24.583365" lon="102.949164"><time>2026-04-26T11:04:01.571Z</time></trkpt>
      <trkpt lat="24.583365" lon="102.949164"><time>2026-04-26T11:04:01.588Z</time></trkpt>
      <trkpt lat="24.583371" lon="102.94916"><time>2026-04-26T11:04:01.605Z</time></trkpt>
      <trkpt lat="24.583371" lon="102.94916"><time>2026-04-26T11:04:01.621Z</time></trkpt>
      <trkpt lat="24.583371" lon="102.94916"><time>2026-04-26T11:04:01.638Z</time></trkpt>
      <trkpt lat="24.583371" lon="102.94916"><time>2026-04-26T11:04:01.655Z</time></trkpt>
      <trkpt lat="24.583371" lon="102.94916"><time>2026-04-26T11:04:01.671Z</time></trkpt>
      <trkpt lat="24.583371" lon="102.94916"><time>2026-04-26T11:04:01.688Z</time></trkpt>
      <trkpt lat="24.583378" lon="102.949156"><time>2026-04-26T11:04:01.705Z</time></trkpt>
      <trkpt lat="24.583378" lon="102.949156"><time>2026-04-26T11:04:01.721Z</time></trkpt>
      <trkpt lat="24.583378" lon="102.949156"><time>2026-04-26T11:04:01.738Z</time></trkpt>
      <trkpt lat="24.583378" lon="102.949156"><time>2026-04-26T11:04:01.755Z</time></trkpt>
      <trkpt lat="24.583378" lon="102.949156"><time>2026-04-26T11:04:01.772Z</time></trkpt>
      <trkpt lat="24.583378" lon="102.949156"><time>2026-04-26T11:04:01.788Z</time></trkpt>
      <trkpt lat="24.583385" lon="102.949152"><time>2026-04-26T11:04:01.805Z</time></trkpt>
      <trkpt lat="24.583385" lon="102.949152"><time>2026-04-26T11:04:01.822Z</time></trkpt>
      <trkpt lat="24.583385" lon="102.949152"><time>2026-04-26T11:04:01.838Z</time></trkpt>
      <trkpt lat="24.583385" lon="102.949152"><time>2026-04-26T11:04:01.855Z</time></trkpt>
      <trkpt lat="24.583385" lon="102.949152"><time>2026-04-26T11:04:01.872Z</time></trkpt>
      <trkpt lat="24.583385" lon="102.949152"><time>2026-04-26T11:04:01.888Z</time></trkpt>
      <trkpt lat="24.583393" lon="102.949147"><time>2026-04-26T11:04:01.905Z</time></trkpt>
      <trkpt lat="24.583393" lon="102.949147"><time>2026-04-26T11:04:01.922Z</time></trkpt>
      <trkpt lat="24.583393" lon="102.949147"><time>2026-04-26T11:04:01.938Z</time></trkpt>
      <trkpt lat="24.583393" lon="102.949147"><time>2026-04-26T11:04:01.955Z</time></trkpt>
      <trkpt lat="24.583393" lon="102.949147"><time>2026-04-26T11:04:01.972Z</time></trkpt>
      <trkpt lat="24.583393" lon="102.949147"><time>2026-04-26T11:04:01.988Z</time></trkpt>
      <trkpt lat="24.583399" lon="102.949143"><time>2026-04-26T11:04:02.005Z</time></trkpt>
      <trkpt lat="24.583399" lon="102.949143"><time>2026-04-26T11:04:02.022Z</time></trkpt>
      <trkpt lat="24.583399" lon="102.949143"><time>2026-04-26T11:04:02.038Z</time></trkpt>
      <trkpt lat="24.583399" lon="102.949143"><time>2026-04-26T11:04:02.055Z</time></trkpt>
      <trkpt lat="24.583399" lon="102.949143"><time>2026-04-26T11:04:02.072Z</time></trkpt>
      <trkpt lat="24.583399" lon="102.949143"><time>2026-04-26T11:04:02.089Z</time></trkpt>
      <trkpt lat="24.583407" lon="102.949139"><time>2026-04-26T11:04:02.105Z</time></trkpt>
      <trkpt lat="24.583407" lon="102.949139"><time>2026-04-26T11:04:02.122Z</time></trkpt>
      <trkpt lat="24.583407" lon="102.949139"><time>2026-04-26T11:04:02.139Z</time></trkpt>
      <trkpt lat="24.583407" lon="102.949139"><time>2026-04-26T11:04:02.155Z</time></trkpt>
      <trkpt lat="24.583407" lon="102.949139"><time>2026-04-26T11:04:02.172Z</time></trkpt>
      <trkpt lat="24.583407" lon="102.949139"><time>2026-04-26T11:04:02.189Z</time></trkpt>
      <trkpt lat="24.583414" lon="102.949135"><time>2026-04-26T11:04:02.205Z</time></trkpt>
      <trkpt lat="24.583414" lon="102.949135"><time>2026-04-26T11:04:02.222Z</time></trkpt>
      <trkpt lat="24.583414" lon="102.949135"><time>2026-04-26T11:04:02.239Z</time></trkpt>
      <trkpt lat="24.583414" lon="102.949135"><time>2026-04-26T11:04:02.255Z</time></trkpt>
      <trkpt lat="24.583414" lon="102.949135"><time>2026-04-26T11:04:02.272Z</time></trkpt>
      <trkpt lat="24.583414" lon="102.949135"><time>2026-04-26T11:04:02.289Z</time></trkpt>
      <trkpt lat="24.583422" lon="102.94913"><time>2026-04-26T11:04:02.305Z</time></trkpt>
      <trkpt lat="24.583422" lon="102.94913"><time>2026-04-26T11:04:02.322Z</time></trkpt>
      <trkpt lat="24.583422" lon="102.94913"><time>2026-04-26T11:04:02.339Z</time></trkpt>
      <trkpt lat="24.583422" lon="102.94913"><time>2026-04-26T11:04:02.355Z</time></trkpt>
      <trkpt lat="24.583422" lon="102.94913"><time>2026-04-26T11:04:02.372Z</time></trkpt>
      <trkpt lat="24.583422" lon="102.94913"><time>2026-04-26T11:04:02.389Z</time></trkpt>
      <trkpt lat="24.583428" lon="102.949127"><time>2026-04-26T11:04:02.406Z</time></trkpt>
      <trkpt lat="24.583428" lon="102.949127"><time>2026-04-26T11:04:02.422Z</time></trkpt>
      <trkpt lat="24.583428" lon="102.949127"><time>2026-04-26T11:04:02.439Z</time></trkpt>
      <trkpt lat="24.583428" lon="102.949127"><time>2026-04-26T11:04:02.456Z</time></trkpt>
      <trkpt lat="24.583428" lon="102.949127"><time>2026-04-26T11:04:02.472Z</time></trkpt>
      <trkpt lat="24.583428" lon="102.949127"><time>2026-04-26T11:04:02.489Z</time></trkpt>
      <trkpt lat="24.583436" lon="102.949122"><time>2026-04-26T11:04:02.506Z</time></trkpt>
      <trkpt lat="24.583436" lon="102.949122"><time>2026-04-26T11:04:02.522Z</time></trkpt>
      <trkpt lat="24.583436" lon="102.949122"><time>2026-04-26T11:04:02.539Z</time></trkpt>
      <trkpt lat="24.583436" lon="102.949122"><time>2026-04-26T11:04:02.556Z</time></trkpt>
      <trkpt lat="24.583436" lon="102.949122"><time>2026-04-26T11:04:02.572Z</time></trkpt>
      <trkpt lat="24.583436" lon="102.949122"><time>2026-04-26T11:04:02.589Z</time></trkpt>
      <trkpt lat="24.583443" lon="102.949118"><time>2026-04-26T11:04:02.606Z</time></trkpt>
      <trkpt lat="24.583443" lon="102.949118"><time>2026-04-26T11:04:02.622Z</time></trkpt>
      <trkpt lat="24.583443" lon="102.949118"><time>2026-04-26T11:04:02.639Z</time></trkpt>
      <trkpt lat="24.583443" lon="102.949118"><time>2026-04-26T11:04:02.656Z</time></trkpt>
      <trkpt lat="24.583443" lon="102.949118"><time>2026-04-26T11:04:02.672Z</time></trkpt>
      <trkpt lat="24.583443" lon="102.949118"><time>2026-04-26T11:04:02.689Z</time></trkpt>
      <trkpt lat="24.583451" lon="102.949114"><time>2026-04-26T11:04:02.706Z</time></trkpt>
      <trkpt lat="24.583451" lon="102.949114"><time>2026-04-26T11:04:02.723Z</time></trkpt>
      <trkpt lat="24.583451" lon="102.949114"><time>2026-04-26T11:04:02.739Z</time></trkpt>
      <trkpt lat="24.583451" lon="102.949114"><time>2026-04-26T11:04:02.756Z</time></trkpt>
      <trkpt lat="24.583451" lon="102.949114"><time>2026-04-26T11:04:02.773Z</time></trkpt>
      <trkpt lat="24.583451" lon="102.949114"><time>2026-04-26T11:04:02.789Z</time></trkpt>
      <trkpt lat="24.583458" lon="102.94911"><time>2026-04-26T11:04:02.806Z</time></trkpt>
      <trkpt lat="24.583458" lon="102.94911"><time>2026-04-26T11:04:02.823Z</time></trkpt>
      <trkpt lat="24.583458" lon="102.94911"><time>2026-04-26T11:04:02.839Z</time></trkpt>
      <trkpt lat="24.583458" lon="102.94911"><time>2026-04-26T11:04:02.856Z</time></trkpt>
      <trkpt lat="24.583458" lon="102.94911"><time>2026-04-26T11:04:02.873Z</time></trkpt>
      <trkpt lat="24.583458" lon="102.94911"><time>2026-04-26T11:04:02.889Z</time></trkpt>
      <trkpt lat="24.583466" lon="102.949105"><time>2026-04-26T11:04:02.906Z</time></trkpt>
      <trkpt lat="24.583466" lon="102.949105"><time>2026-04-26T11:04:02.923Z</time></trkpt>
      <trkpt lat="24.583466" lon="102.949105"><time>2026-04-26T11:04:02.939Z</time></trkpt>
      <trkpt lat="24.583466" lon="102.949105"><time>2026-04-26T11:04:02.956Z</time></trkpt>
      <trkpt lat="24.583466" lon="102.949105"><time>2026-04-26T11:04:02.973Z</time></trkpt>
      <trkpt lat="24.583466" lon="102.949105"><time>2026-04-26T11:04:02.989Z</time></trkpt>
      <trkpt lat="24.583472" lon="102.949102"><time>2026-04-26T11:04:03.006Z</time></trkpt>
      <trkpt lat="24.583472" lon="102.949102"><time>2026-04-26T11:04:03.023Z</time></trkpt>
      <trkpt lat="24.583472" lon="102.949102"><time>2026-04-26T11:04:03.040Z</time></trkpt>
      <trkpt lat="24.583472" lon="102.949102"><time>2026-04-26T11:04:03.056Z</time></trkpt>
      <trkpt lat="24.583472" lon="102.949102"><time>2026-04-26T11:04:03.073Z</time></trkpt>
      <trkpt lat="24.583472" lon="102.949102"><time>2026-04-26T11:04:03.090Z</time></trkpt>
      <trkpt lat="24.583481" lon="102.949097"><time>2026-04-26T11:04:03.106Z</time></trkpt>
      <trkpt lat="24.583481" lon="102.949097"><time>2026-04-26T11:04:03.123Z</time></trkpt>
      <trkpt lat="24.583481" lon="102.949097"><time>2026-04-26T11:04:03.140Z</time></trkpt>
      <trkpt lat="24.583481" lon="102.949097"><time>2026-04-26T11:04:03.156Z</time></trkpt>
      <trkpt lat="24.583481" lon="102.949097"><time>2026-04-26T11:04:03.173Z</time></trkpt>
      <trkpt lat="24.583481" lon="102.949097"><time>2026-04-26T11:04:03.190Z</time></trkpt>
      <trkpt lat="24.583487" lon="102.949093"><time>2026-04-26T11:04:03.206Z</time></trkpt>
      <trkpt lat="24.583487" lon="102.949093"><time>2026-04-26T11:04:03.223Z</time></trkpt>
      <trkpt lat="24.583487" lon="102.949093"><time>2026-04-26T11:04:03.240Z</time></trkpt>
      <trkpt lat="24.583487" lon="102.949093"><time>2026-04-26T11:04:03.256Z</time></trkpt>
      <trkpt lat="24.583487" lon="102.949093"><time>2026-04-26T11:04:03.273Z</time></trkpt>
      <trkpt lat="24.583487" lon="102.949093"><time>2026-04-26T11:04:03.290Z</time></trkpt>
      <trkpt lat="24.583496" lon="102.949088"><time>2026-04-26T11:04:03.306Z</time></trkpt>
      <trkpt lat="24.583496" lon="102.949088"><time>2026-04-26T11:04:03.323Z</time></trkpt>
      <trkpt lat="24.583496" lon="102.949088"><time>2026-04-26T11:04:03.340Z</time></trkpt>
      <trkpt lat="24.583496" lon="102.949088"><time>2026-04-26T11:04:03.357Z</time></trkpt>
      <trkpt lat="24.583496" lon="102.949088"><time>2026-04-26T11:04:03.373Z</time></trkpt>
      <trkpt lat="24.583496" lon="102.949088"><time>2026-04-26T11:04:03.390Z</time></trkpt>
      <trkpt lat="24.583502" lon="102.949085"><time>2026-04-26T11:04:03.407Z</time></trkpt>
      <trkpt lat="24.583502" lon="102.949085"><time>2026-04-26T11:04:03.423Z</time></trkpt>
      <trkpt lat="24.583502" lon="102.949085"><time>2026-04-26T11:04:03.440Z</time></trkpt>
      <trkpt lat="24.583502" lon="102.949085"><time>2026-04-26T11:04:03.457Z</time></trkpt>
      <trkpt lat="24.583502" lon="102.949085"><time>2026-04-26T11:04:03.473Z</time></trkpt>
      <trkpt lat="24.583502" lon="102.949085"><time>2026-04-26T11:04:03.490Z</time></trkpt>
      <trkpt lat="24.583511" lon="102.94908"><time>2026-04-26T11:04:03.507Z</time></trkpt>
      <trkpt lat="24.583511" lon="102.94908"><time>2026-04-26T11:04:03.523Z</time></trkpt>
      <trkpt lat="24.583511" lon="102.94908"><time>2026-04-26T11:04:03.540Z</time></trkpt>
      <trkpt lat="24.583511" lon="102.94908"><time>2026-04-26T11:04:03.557Z</time></trkpt>
      <trkpt lat="24.583511" lon="102.94908"><time>2026-04-26T11:04:03.573Z</time></trkpt>
      <trkpt lat="24.583511" lon="102.94908"><time>2026-04-26T11:04:03.590Z</time></trkpt>
      <trkpt lat="24.583518" lon="102.949076"><time>2026-04-26T11:04:03.607Z</time></trkpt>
      <trkpt lat="24.583518" lon="102.949076"><time>2026-04-26T11:04:03.623Z</time></trkpt>
      <trkpt lat="24.583518" lon="102.949076"><time>2026-04-26T11:04:03.640Z</time></trkpt>
      <trkpt lat="24.583518" lon="102.949076"><time>2026-04-26T11:04:03.657Z</time></trkpt>
      <trkpt lat="24.583518" lon="102.949076"><time>2026-04-26T11:04:03.674Z</time></trkpt>
      <trkpt lat="24.583518" lon="102.949076"><time>2026-04-26T11:04:03.690Z</time></trkpt>
      <trkpt lat="24.583526" lon="102.949072"><time>2026-04-26T11:04:03.707Z</time></trkpt>
      <trkpt lat="24.583526" lon="102.949072"><time>2026-04-26T11:04:03.724Z</time></trkpt>
      <trkpt lat="24.583526" lon="102.949072"><time>2026-04-26T11:04:03.740Z</time></trkpt>
      <trkpt lat="24.583526" lon="102.949072"><time>2026-04-26T11:04:03.757Z</time></trkpt>
      <trkpt lat="24.583526" lon="102.949072"><time>2026-04-26T11:04:03.774Z</time></trkpt>
      <trkpt lat="24.583526" lon="102.949072"><time>2026-04-26T11:04:03.790Z</time></trkpt>
      <trkpt lat="24.583533" lon="102.949068"><time>2026-04-26T11:04:03.807Z</time></trkpt>
      <trkpt lat="24.583533" lon="102.949068"><time>2026-04-26T11:04:03.824Z</time></trkpt>
      <trkpt lat="24.583533" lon="102.949068"><time>2026-04-26T11:04:03.840Z</time></trkpt>
      <trkpt lat="24.583533" lon="102.949068"><time>2026-04-26T11:04:03.857Z</time></trkpt>
      <trkpt lat="24.583533" lon="102.949068"><time>2026-04-26T11:04:03.874Z</time></trkpt>
      <trkpt lat="24.583533" lon="102.949068"><time>2026-04-26T11:04:03.890Z</time></trkpt>
      <trkpt lat="24.583541" lon="102.949063"><time>2026-04-26T11:04:03.907Z</time></trkpt>
      <trkpt lat="24.583541" lon="102.949063"><time>2026-04-26T11:04:03.924Z</time></trkpt>
      <trkpt lat="24.583541" lon="102.949063"><time>2026-04-26T11:04:03.940Z</time></trkpt>
      <trkpt lat="24.583541" lon="102.949063"><time>2026-04-26T11:04:03.957Z</time></trkpt>
      <trkpt lat="24.583541" lon="102.949063"><time>2026-04-26T11:04:03.974Z</time></trkpt>
      <trkpt lat="24.583541" lon="102.949063"><time>2026-04-26T11:04:03.990Z</time></trkpt>
      <trkpt lat="24.583548" lon="102.949059"><time>2026-04-26T11:04:04.007Z</time></trkpt>
      <trkpt lat="24.583548" lon="102.949059"><time>2026-04-26T11:04:04.024Z</time></trkpt>
      <trkpt lat="24.583548" lon="102.949059"><time>2026-04-26T11:04:04.041Z</time></trkpt>
      <trkpt lat="24.583548" lon="102.949059"><time>2026-04-26T11:04:04.057Z</time></trkpt>
      <trkpt lat="24.583548" lon="102.949059"><time>2026-04-26T11:04:04.074Z</time></trkpt>
      <trkpt lat="24.583548" lon="102.949059"><time>2026-04-26T11:04:04.091Z</time></trkpt>
      <trkpt lat="24.583556" lon="102.949055"><time>2026-04-26T11:04:04.107Z</time></trkpt>
      <trkpt lat="24.583556" lon="102.949055"><time>2026-04-26T11:04:04.124Z</time></trkpt>
      <trkpt lat="24.583556" lon="102.949055"><time>2026-04-26T11:04:04.141Z</time></trkpt>
      <trkpt lat="24.583556" lon="102.949055"><time>2026-04-26T11:04:04.157Z</time></trkpt>
      <trkpt lat="24.583556" lon="102.949055"><time>2026-04-26T11:04:04.174Z</time></trkpt>
      <trkpt lat="24.583556" lon="102.949055"><time>2026-04-26T11:04:04.191Z</time></trkpt>
      <trkpt lat="24.583563" lon="102.949051"><time>2026-04-26T11:04:04.207Z</time></trkpt>
      <trkpt lat="24.583563" lon="102.949051"><time>2026-04-26T11:04:04.224Z</time></trkpt>
      <trkpt lat="24.583563" lon="102.949051"><time>2026-04-26T11:04:04.241Z</time></trkpt>
      <trkpt lat="24.583563" lon="102.949051"><time>2026-04-26T11:04:04.257Z</time></trkpt>
      <trkpt lat="24.583563" lon="102.949051"><time>2026-04-26T11:04:04.274Z</time></trkpt>
      <trkpt lat="24.583563" lon="102.949051"><time>2026-04-26T11:04:04.291Z</time></trkpt>
      <trkpt lat="24.583572" lon="102.949046"><time>2026-04-26T11:04:04.307Z</time></trkpt>
      <trkpt lat="24.583572" lon="102.949046"><time>2026-04-26T11:04:04.324Z</time></trkpt>
      <trkpt lat="24.583572" lon="102.949046"><time>2026-04-26T11:04:04.341Z</time></trkpt>
      <trkpt lat="24.583572" lon="102.949046"><time>2026-04-26T11:04:04.358Z</time></trkpt>
      <trkpt lat="24.583572" lon="102.949046"><time>2026-04-26T11:04:04.374Z</time></trkpt>
      <trkpt lat="24.583572" lon="102.949046"><time>2026-04-26T11:04:04.391Z</time></trkpt>
      <trkpt lat="24.583579" lon="102.949043"><time>2026-04-26T11:04:04.408Z</time></trkpt>
      <trkpt lat="24.583579" lon="102.949043"><time>2026-04-26T11:04:04.424Z</time></trkpt>
      <trkpt lat="24.583579" lon="102.949043"><time>2026-04-26T11:04:04.441Z</time></trkpt>
      <trkpt lat="24.583579" lon="102.949043"><time>2026-04-26T11:04:04.458Z</time></trkpt>
      <trkpt lat="24.583579" lon="102.949043"><time>2026-04-26T11:04:04.474Z</time></trkpt>
      <trkpt lat="24.583579" lon="102.949043"><time>2026-04-26T11:04:04.491Z</time></trkpt>
      <trkpt lat="24.583587" lon="102.949038"><time>2026-04-26T11:04:04.508Z</time></trkpt>
      <trkpt lat="24.583587" lon="102.949038"><time>2026-04-26T11:04:04.524Z</time></trkpt>
      <trkpt lat="24.583587" lon="102.949038"><time>2026-04-26T11:04:04.541Z</time></trkpt>
      <trkpt lat="24.583587" lon="102.949038"><time>2026-04-26T11:04:04.558Z</time></trkpt>
      <trkpt lat="24.583587" lon="102.949038"><time>2026-04-26T11:04:04.574Z</time></trkpt>
      <trkpt lat="24.583587" lon="102.949038"><time>2026-04-26T11:04:04.591Z</time></trkpt>
      <trkpt lat="24.583595" lon="102.949034"><time>2026-04-26T11:04:04.608Z</time></trkpt>
      <trkpt lat="24.583595" lon="102.949034"><time>2026-04-26T11:04:04.624Z</time></trkpt>
      <trkpt lat="24.583595" lon="102.949034"><time>2026-04-26T11:04:04.641Z</time></trkpt>
      <trkpt lat="24.583595" lon="102.949034"><time>2026-04-26T11:04:04.658Z</time></trkpt>
      <trkpt lat="24.583595" lon="102.949034"><time>2026-04-26T11:04:04.675Z</time></trkpt>
      <trkpt lat="24.583595" lon="102.949034"><time>2026-04-26T11:04:04.691Z</time></trkpt>
      <trkpt lat="24.583603" lon="102.94903"><time>2026-04-26T11:04:04.708Z</time></trkpt>
      <trkpt lat="24.583603" lon="102.94903"><time>2026-04-26T11:04:04.725Z</time></trkpt>
      <trkpt lat="24.583603" lon="102.94903"><time>2026-04-26T11:04:04.741Z</time></trkpt>
      <trkpt lat="24.583603" lon="102.94903"><time>2026-04-26T11:04:04.758Z</time></trkpt>
      <trkpt lat="24.583603" lon="102.94903"><time>2026-04-26T11:04:04.775Z</time></trkpt>
      <trkpt lat="24.583603" lon="102.94903"><time>2026-04-26T11:04:04.791Z</time></trkpt>
      <trkpt lat="24.58361" lon="102.949026"><time>2026-04-26T11:04:04.808Z</time></trkpt>
      <trkpt lat="24.58361" lon="102.949026"><time>2026-04-26T11:04:04.825Z</time></trkpt>
      <trkpt lat="24.58361" lon="102.949026"><time>2026-04-26T11:04:04.841Z</time></trkpt>
      <trkpt lat="24.58361" lon="102.949026"><time>2026-04-26T11:04:04.858Z</time></trkpt>
      <trkpt lat="24.58361" lon="102.949026"><time>2026-04-26T11:04:04.875Z</time></trkpt>
      <trkpt lat="24.58361" lon="102.949026"><time>2026-04-26T11:04:04.891Z</time></trkpt>
      <trkpt lat="24.583619" lon="102.949021"><time>2026-04-26T11:04:04.908Z</time></trkpt>
      <trkpt lat="24.583619" lon="102.949021"><time>2026-04-26T11:04:04.925Z</time></trkpt>
      <trkpt lat="24.583619" lon="102.949021"><time>2026-04-26T11:04:04.941Z</time></trkpt>
      <trkpt lat="24.583619" lon="102.949021"><time>2026-04-26T11:04:04.958Z</time></trkpt>
      <trkpt lat="24.583619" lon="102.949021"><time>2026-04-26T11:04:04.975Z</time></trkpt>
      <trkpt lat="24.583619" lon="102.949021"><time>2026-04-26T11:04:04.992Z</time></trkpt>
      <trkpt lat="24.583626" lon="102.949018"><time>2026-04-26T11:04:05.008Z</time></trkpt>
      <trkpt lat="24.583626" lon="102.949018"><time>2026-04-26T11:04:05.025Z</time></trkpt>
      <trkpt lat="24.583626" lon="102.949018"><time>2026-04-26T11:04:05.042Z</time></trkpt>
      <trkpt lat="24.583626" lon="102.949018"><time>2026-04-26T11:04:05.058Z</time></trkpt>
      <trkpt lat="24.583626" lon="102.949018"><time>2026-04-26T11:04:05.075Z</time></trkpt>
      <trkpt lat="24.583626" lon="102.949018"><time>2026-04-26T11:04:05.092Z</time></trkpt>
      <trkpt lat="24.583635" lon="102.949014"><time>2026-04-26T11:04:05.108Z</time></trkpt>
      <trkpt lat="24.583635" lon="102.949014"><time>2026-04-26T11:04:05.125Z</time></trkpt>
      <trkpt lat="24.583635" lon="102.949014"><time>2026-04-26T11:04:05.142Z</time></trkpt>
      <trkpt lat="24.583635" lon="102.949014"><time>2026-04-26T11:04:05.158Z</time></trkpt>
      <trkpt lat="24.583635" lon="102.949014"><time>2026-04-26T11:04:05.175Z</time></trkpt>
      <trkpt lat="24.583635" lon="102.949014"><time>2026-04-26T11:04:05.192Z</time></trkpt>
      <trkpt lat="24.583643" lon="102.94901"><time>2026-04-26T11:04:05.208Z</time></trkpt>
      <trkpt lat="24.583643" lon="102.94901"><time>2026-04-26T11:04:05.225Z</time></trkpt>
      <trkpt lat="24.583643" lon="102.94901"><time>2026-04-26T11:04:05.242Z</time></trkpt>
      <trkpt lat="24.583643" lon="102.94901"><time>2026-04-26T11:04:05.258Z</time></trkpt>
      <trkpt lat="24.583643" lon="102.94901"><time>2026-04-26T11:04:05.275Z</time></trkpt>
      <trkpt lat="24.583643" lon="102.94901"><time>2026-04-26T11:04:05.292Z</time></trkpt>
      <trkpt lat="24.58365" lon="102.949006"><time>2026-04-26T11:04:05.309Z</time></trkpt>
      <trkpt lat="24.58365" lon="102.949006"><time>2026-04-26T11:04:05.325Z</time></trkpt>
      <trkpt lat="24.58365" lon="102.949006"><time>2026-04-26T11:04:05.342Z</time></trkpt>
      <trkpt lat="24.58365" lon="102.949006"><time>2026-04-26T11:04:05.359Z</time></trkpt>
      <trkpt lat="24.58365" lon="102.949006"><time>2026-04-26T11:04:05.375Z</time></trkpt>
      <trkpt lat="24.58365" lon="102.949006"><time>2026-04-26T11:04:05.392Z</time></trkpt>
      <trkpt lat="24.583658" lon="102.949002"><time>2026-04-26T11:04:05.409Z</time></trkpt>
      <trkpt lat="24.583658" lon="102.949002"><time>2026-04-26T11:04:05.425Z</time></trkpt>
      <trkpt lat="24.583658" lon="102.949002"><time>2026-04-26T11:04:05.442Z</time></trkpt>
      <trkpt lat="24.583658" lon="102.949002"><time>2026-04-26T11:04:05.459Z</time></trkpt>
      <trkpt lat="24.583658" lon="102.949002"><time>2026-04-26T11:04:05.475Z</time></trkpt>
      <trkpt lat="24.583658" lon="102.949002"><time>2026-04-26T11:04:05.492Z</time></trkpt>
      <trkpt lat="24.583667" lon="102.948998"><time>2026-04-26T11:04:05.509Z</time></trkpt>
      <trkpt lat="24.583667" lon="102.948998"><time>2026-04-26T11:04:05.525Z</time></trkpt>
      <trkpt lat="24.583667" lon="102.948998"><time>2026-04-26T11:04:05.542Z</time></trkpt>
      <trkpt lat="24.583667" lon="102.948998"><time>2026-04-26T11:04:05.559Z</time></trkpt>
      <trkpt lat="24.583667" lon="102.948998"><time>2026-04-26T11:04:05.575Z</time></trkpt>
      <trkpt lat="24.583667" lon="102.948998"><time>2026-04-26T11:04:05.592Z</time></trkpt>
      <trkpt lat="24.583674" lon="102.948994"><time>2026-04-26T11:04:05.609Z</time></trkpt>
      <trkpt lat="24.583674" lon="102.948994"><time>2026-04-26T11:04:05.626Z</time></trkpt>
      <trkpt lat="24.583674" lon="102.948994"><time>2026-04-26T11:04:05.642Z</time></trkpt>
      <trkpt lat="24.583674" lon="102.948994"><time>2026-04-26T11:04:05.659Z</time></trkpt>
      <trkpt lat="24.583674" lon="102.948994"><time>2026-04-26T11:04:05.676Z</time></trkpt>
      <trkpt lat="24.583674" lon="102.948994"><time>2026-04-26T11:04:05.692Z</time></trkpt>
      <trkpt lat="24.583683" lon="102.948989"><time>2026-04-26T11:04:05.709Z</time></trkpt>
      <trkpt lat="24.583683" lon="102.948989"><time>2026-04-26T11:04:05.726Z</time></trkpt>
      <trkpt lat="24.583683" lon="102.948989"><time>2026-04-26T11:04:05.742Z</time></trkpt>
      <trkpt lat="24.583683" lon="102.948989"><time>2026-04-26T11:04:05.759Z</time></trkpt>
      <trkpt lat="24.583683" lon="102.948989"><time>2026-04-26T11:04:05.776Z</time></trkpt>
      <trkpt lat="24.583683" lon="102.948989"><time>2026-04-26T11:04:05.792Z</time></trkpt>
      <trkpt lat="24.58369" lon="102.948985"><time>2026-04-26T11:04:05.809Z</time></trkpt>
      <trkpt lat="24.58369" lon="102.948985"><time>2026-04-26T11:04:05.826Z</time></trkpt>
      <trkpt lat="24.58369" lon="102.948985"><time>2026-04-26T11:04:05.842Z</time></trkpt>
      <trkpt lat="24.58369" lon="102.948985"><time>2026-04-26T11:04:05.859Z</time></trkpt>
      <trkpt lat="24.58369" lon="102.948985"><time>2026-04-26T11:04:05.876Z</time></trkpt>
      <trkpt lat="24.58369" lon="102.948985"><time>2026-04-26T11:04:05.892Z</time></trkpt>
      <trkpt lat="24.583699" lon="102.948981"><time>2026-04-26T11:04:05.909Z</time></trkpt>
      <trkpt lat="24.583699" lon="102.948981"><time>2026-04-26T11:04:05.926Z</time></trkpt>
      <trkpt lat="24.583699" lon="102.948981"><time>2026-04-26T11:04:05.943Z</time></trkpt>
      <trkpt lat="24.583699" lon="102.948981"><time>2026-04-26T11:04:05.959Z</time></trkpt>
      <trkpt lat="24.583699" lon="102.948981"><time>2026-04-26T11:04:05.976Z</time></trkpt>
      <trkpt lat="24.583699" lon="102.948981"><time>2026-04-26T11:04:05.993Z</time></trkpt>
      <trkpt lat="24.583706" lon="102.948978"><time>2026-04-26T11:04:06.009Z</time></trkpt>
      <trkpt lat="24.583706" lon="102.948978"><time>2026-04-26T11:04:06.026Z</time></trkpt>
      <trkpt lat="24.583706" lon="102.948978"><time>2026-04-26T11:04:06.043Z</time></trkpt>
      <trkpt lat="24.583706" lon="102.948978"><time>2026-04-26T11:04:06.059Z</time></trkpt>
      <trkpt lat="24.583706" lon="102.948978"><time>2026-04-26T11:04:06.076Z</time></trkpt>
      <trkpt lat="24.583706" lon="102.948978"><time>2026-04-26T11:04:06.093Z</time></trkpt>
      <trkpt lat="24.583715" lon="102.948973"><time>2026-04-26T11:04:06.109Z</time></trkpt>
      <trkpt lat="24.583715" lon="102.948973"><time>2026-04-26T11:04:06.126Z</time></trkpt>
      <trkpt lat="24.583715" lon="102.948973"><time>2026-04-26T11:04:06.143Z</time></trkpt>
      <trkpt lat="24.583715" lon="102.948973"><time>2026-04-26T11:04:06.159Z</time></trkpt>
      <trkpt lat="24.583715" lon="102.948973"><time>2026-04-26T11:04:06.176Z</time></trkpt>
      <trkpt lat="24.583715" lon="102.948973"><time>2026-04-26T11:04:06.193Z</time></trkpt>
      <trkpt lat="24.583723" lon="102.948969"><time>2026-04-26T11:04:06.209Z</time></trkpt>
      <trkpt lat="24.583723" lon="102.948969"><time>2026-04-26T11:04:06.226Z</time></trkpt>
      <trkpt lat="24.583723" lon="102.948969"><time>2026-04-26T11:04:06.243Z</time></trkpt>
      <trkpt lat="24.583723" lon="102.948969"><time>2026-04-26T11:04:06.260Z</time></trkpt>
      <trkpt lat="24.583723" lon="102.948969"><time>2026-04-26T11:04:06.276Z</time></trkpt>
      <trkpt lat="24.583723" lon="102.948969"><time>2026-04-26T11:04:06.293Z</time></trkpt>
      <trkpt lat="24.583731" lon="102.948965"><time>2026-04-26T11:04:06.310Z</time></trkpt>
      <trkpt lat="24.583731" lon="102.948965"><time>2026-04-26T11:04:06.326Z</time></trkpt>
      <trkpt lat="24.583731" lon="102.948965"><time>2026-04-26T11:04:06.343Z</time></trkpt>
      <trkpt lat="24.583731" lon="102.948965"><time>2026-04-26T11:04:06.360Z</time></trkpt>
      <trkpt lat="24.583731" lon="102.948965"><time>2026-04-26T11:04:06.376Z</time></trkpt>
      <trkpt lat="24.583731" lon="102.948965"><time>2026-04-26T11:04:06.393Z</time></trkpt>
      <trkpt lat="24.583738" lon="102.948962"><time>2026-04-26T11:04:06.410Z</time></trkpt>
      <trkpt lat="24.583738" lon="102.948962"><time>2026-04-26T11:04:06.426Z</time></trkpt>
      <trkpt lat="24.583738" lon="102.948962"><time>2026-04-26T11:04:06.443Z</time></trkpt>
      <trkpt lat="24.583738" lon="102.948962"><time>2026-04-26T11:04:06.460Z</time></trkpt>
      <trkpt lat="24.583738" lon="102.948962"><time>2026-04-26T11:04:06.476Z</time></trkpt>
      <trkpt lat="24.583738" lon="102.948962"><time>2026-04-26T11:04:06.493Z</time></trkpt>
      <trkpt lat="24.583747" lon="102.948957"><time>2026-04-26T11:04:06.510Z</time></trkpt>
      <trkpt lat="24.583747" lon="102.948957"><time>2026-04-26T11:04:06.526Z</time></trkpt>
      <trkpt lat="24.583747" lon="102.948957"><time>2026-04-26T11:04:06.543Z</time></trkpt>
      <trkpt lat="24.583747" lon="102.948957"><time>2026-04-26T11:04:06.560Z</time></trkpt>
      <trkpt lat="24.583747" lon="102.948957"><time>2026-04-26T11:04:06.577Z</time></trkpt>
      <trkpt lat="24.583747" lon="102.948957"><time>2026-04-26T11:04:06.593Z</time></trkpt>
      <trkpt lat="24.583755" lon="102.948954"><time>2026-04-26T11:04:06.610Z</time></trkpt>
      <trkpt lat="24.583755" lon="102.948954"><time>2026-04-26T11:04:06.627Z</time></trkpt>
      <trkpt lat="24.583755" lon="102.948954"><time>2026-04-26T11:04:06.643Z</time></trkpt>
      <trkpt lat="24.583755" lon="102.948954"><time>2026-04-26T11:04:06.660Z</time></trkpt>
      <trkpt lat="24.583755" lon="102.948954"><time>2026-04-26T11:04:06.677Z</time></trkpt>
      <trkpt lat="24.583755" lon="102.948954"><time>2026-04-26T11:04:06.693Z</time></trkpt>
      <trkpt lat="24.583764" lon="102.94895"><time>2026-04-26T11:04:06.710Z</time></trkpt>
      <trkpt lat="24.583764" lon="102.94895"><time>2026-04-26T11:04:06.727Z</time></trkpt>
      <trkpt lat="24.583764" lon="102.94895"><time>2026-04-26T11:04:06.743Z</time></trkpt>
      <trkpt lat="24.583764" lon="102.94895"><time>2026-04-26T11:04:06.760Z</time></trkpt>
      <trkpt lat="24.583764" lon="102.94895"><time>2026-04-26T11:04:06.777Z</time></trkpt>
      <trkpt lat="24.583764" lon="102.94895"><time>2026-04-26T11:04:06.793Z</time></trkpt>
      <trkpt lat="24.583771" lon="102.948946"><time>2026-04-26T11:04:06.810Z</time></trkpt>
      <trkpt lat="24.583771" lon="102.948946"><time>2026-04-26T11:04:06.827Z</time></trkpt>
      <trkpt lat="24.583771" lon="102.948946"><time>2026-04-26T11:04:06.843Z</time></trkpt>
      <trkpt lat="24.583771" lon="102.948946"><time>2026-04-26T11:04:06.860Z</time></trkpt>
      <trkpt lat="24.583771" lon="102.948946"><time>2026-04-26T11:04:06.877Z</time></trkpt>
      <trkpt lat="24.583771" lon="102.948946"><time>2026-04-26T11:04:06.894Z</time></trkpt>
      <trkpt lat="24.58378" lon="102.948942"><time>2026-04-26T11:04:06.910Z</time></trkpt>
      <trkpt lat="24.58378" lon="102.948942"><time>2026-04-26T11:04:06.927Z</time></trkpt>
      <trkpt lat="24.58378" lon="102.948942"><time>2026-04-26T11:04:06.944Z</time></trkpt>
      <trkpt lat="24.58378" lon="102.948942"><time>2026-04-26T11:04:06.960Z</time></trkpt>
      <trkpt lat="24.58378" lon="102.948942"><time>2026-04-26T11:04:06.977Z</time></trkpt>
      <trkpt lat="24.58378" lon="102.948942"><time>2026-04-26T11:04:06.994Z</time></trkpt>
      <trkpt lat="24.583788" lon="102.948938"><time>2026-04-26T11:04:07.010Z</time></trkpt>
      <trkpt lat="24.583788" lon="102.948938"><time>2026-04-26T11:04:07.027Z</time></trkpt>
      <trkpt lat="24.583788" lon="102.948938"><time>2026-04-26T11:04:07.044Z</time></trkpt>
      <trkpt lat="24.583788" lon="102.948938"><time>2026-04-26T11:04:07.060Z</time></trkpt>
      <trkpt lat="24.583788" lon="102.948938"><time>2026-04-26T11:04:07.077Z</time></trkpt>
      <trkpt lat="24.583788" lon="102.948938"><time>2026-04-26T11:04:07.094Z</time></trkpt>
      <trkpt lat="24.583796" lon="102.948934"><time>2026-04-26T11:04:07.110Z</time></trkpt>
      <trkpt lat="24.583796" lon="102.948934"><time>2026-04-26T11:04:07.127Z</time></trkpt>
      <trkpt lat="24.583796" lon="102.948934"><time>2026-04-26T11:04:07.144Z</time></trkpt>
      <trkpt lat="24.583796" lon="102.948934"><time>2026-04-26T11:04:07.160Z</time></trkpt>
      <trkpt lat="24.583796" lon="102.948934"><time>2026-04-26T11:04:07.177Z</time></trkpt>
      <trkpt lat="24.583796" lon="102.948934"><time>2026-04-26T11:04:07.194Z</time></trkpt>
      <trkpt lat="24.583804" lon="102.94893"><time>2026-04-26T11:04:07.211Z</time></trkpt>
      <trkpt lat="24.583804" lon="102.94893"><time>2026-04-26T11:04:07.227Z</time></trkpt>
      <trkpt lat="24.583804" lon="102.94893"><time>2026-04-26T11:04:07.244Z</time></trkpt>
      <trkpt lat="24.583804" lon="102.94893"><time>2026-04-26T11:04:07.261Z</time></trkpt>
      <trkpt lat="24.583804" lon="102.94893"><time>2026-04-26T11:04:07.277Z</time></trkpt>
      <trkpt lat="24.583804" lon="102.94893"><time>2026-04-26T11:04:07.294Z</time></trkpt>
      <trkpt lat="24.583813" lon="102.948926"><time>2026-04-26T11:04:07.311Z</time></trkpt>
      <trkpt lat="24.583813" lon="102.948926"><time>2026-04-26T11:04:07.327Z</time></trkpt>
      <trkpt lat="24.583813" lon="102.948926"><time>2026-04-26T11:04:07.344Z</time></trkpt>
      <trkpt lat="24.583813" lon="102.948926"><time>2026-04-26T11:04:07.361Z</time></trkpt>
      <trkpt lat="24.583813" lon="102.948926"><time>2026-04-26T11:04:07.377Z</time></trkpt>
      <trkpt lat="24.583813" lon="102.948926"><time>2026-04-26T11:04:07.394Z</time></trkpt>
      <trkpt lat="24.58382" lon="102.948923"><time>2026-04-26T11:04:07.411Z</time></trkpt>
      <trkpt lat="24.58382" lon="102.948923"><time>2026-04-26T11:04:07.427Z</time></trkpt>
      <trkpt lat="24.58382" lon="102.948923"><time>2026-04-26T11:04:07.444Z</time></trkpt>
      <trkpt lat="24.58382" lon="102.948923"><time>2026-04-26T11:04:07.461Z</time></trkpt>
      <trkpt lat="24.58382" lon="102.948923"><time>2026-04-26T11:04:07.477Z</time></trkpt>
      <trkpt lat="24.58382" lon="102.948923"><time>2026-04-26T11:04:07.494Z</time></trkpt>
      <trkpt lat="24.583829" lon="102.948918"><time>2026-04-26T11:04:07.511Z</time></trkpt>
      <trkpt lat="24.583829" lon="102.948918"><time>2026-04-26T11:04:07.528Z</time></trkpt>
      <trkpt lat="24.583829" lon="102.948918"><time>2026-04-26T11:04:07.544Z</time></trkpt>
      <trkpt lat="24.583829" lon="102.948918"><time>2026-04-26T11:04:07.561Z</time></trkpt>
      <trkpt lat="24.583829" lon="102.948918"><time>2026-04-26T11:04:07.578Z</time></trkpt>
      <trkpt lat="24.583829" lon="102.948918"><time>2026-04-26T11:04:07.594Z</time></trkpt>
      <trkpt lat="24.583837" lon="102.948914"><time>2026-04-26T11:04:07.611Z</time></trkpt>
      <trkpt lat="24.583837" lon="102.948914"><time>2026-04-26T11:04:07.628Z</time></trkpt>
      <trkpt lat="24.583837" lon="102.948914"><time>2026-04-26T11:04:07.644Z</time></trkpt>
      <trkpt lat="24.583837" lon="102.948914"><time>2026-04-26T11:04:07.661Z</time></trkpt>
      <trkpt lat="24.583837" lon="102.948914"><time>2026-04-26T11:04:07.678Z</time></trkpt>
      <trkpt lat="24.583837" lon="102.948914"><time>2026-04-26T11:04:07.694Z</time></trkpt>
      <trkpt lat="24.583846" lon="102.948911"><time>2026-04-26T11:04:07.711Z</time></trkpt>
      <trkpt lat="24.583846" lon="102.948911"><time>2026-04-26T11:04:07.728Z</time></trkpt>
      <trkpt lat="24.583846" lon="102.948911"><time>2026-04-26T11:04:07.744Z</time></trkpt>
      <trkpt lat="24.583846" lon="102.948911"><time>2026-04-26T11:04:07.761Z</time></trkpt>
      <trkpt lat="24.583846" lon="102.948911"><time>2026-04-26T11:04:07.778Z</time></trkpt>
      <trkpt lat="24.583846" lon="102.948911"><time>2026-04-26T11:04:07.794Z</time></trkpt>
      <trkpt lat="24.583853" lon="102.948907"><time>2026-04-26T11:04:07.811Z</time></trkpt>
      <trkpt lat="24.583853" lon="102.948907"><time>2026-04-26T11:04:07.828Z</time></trkpt>
      <trkpt lat="24.583853" lon="102.948907"><time>2026-04-26T11:04:07.845Z</time></trkpt>
      <trkpt lat="24.583853" lon="102.948907"><time>2026-04-26T11:04:07.861Z</time></trkpt>
      <trkpt lat="24.583853" lon="102.948907"><time>2026-04-26T11:04:07.878Z</time></trkpt>
      <trkpt lat="24.583853" lon="102.948907"><time>2026-04-26T11:04:07.895Z</time></trkpt>
      <trkpt lat="24.583862" lon="102.948903"><time>2026-04-26T11:04:07.911Z</time></trkpt>
      <trkpt lat="24.583862" lon="102.948903"><time>2026-04-26T11:04:07.928Z</time></trkpt>
      <trkpt lat="24.583862" lon="102.948903"><time>2026-04-26T11:04:07.945Z</time></trkpt>
      <trkpt lat="24.583862" lon="102.948903"><time>2026-04-26T11:04:07.961Z</time></trkpt>
      <trkpt lat="24.583862" lon="102.948903"><time>2026-04-26T11:04:07.978Z</time></trkpt>
      <trkpt lat="24.583862" lon="102.948903"><time>2026-04-26T11:04:07.995Z</time></trkpt>
      <trkpt lat="24.58387" lon="102.948899"><time>2026-04-26T11:04:08.011Z</time></trkpt>
      <trkpt lat="24.58387" lon="102.948899"><time>2026-04-26T11:04:08.028Z</time></trkpt>
      <trkpt lat="24.58387" lon="102.948899"><time>2026-04-26T11:04:08.045Z</time></trkpt>
      <trkpt lat="24.58387" lon="102.948899"><time>2026-04-26T11:04:08.061Z</time></trkpt>
      <trkpt lat="24.58387" lon="102.948899"><time>2026-04-26T11:04:08.078Z</time></trkpt>
      <trkpt lat="24.58387" lon="102.948899"><time>2026-04-26T11:04:08.095Z</time></trkpt>
      <trkpt lat="24.583879" lon="102.948895"><time>2026-04-26T11:04:08.111Z</time></trkpt>
      <trkpt lat="24.583879" lon="102.948895"><time>2026-04-26T11:04:08.128Z</time></trkpt>
      <trkpt lat="24.583879" lon="102.948895"><time>2026-04-26T11:04:08.145Z</time></trkpt>
      <trkpt lat="24.583879" lon="102.948895"><time>2026-04-26T11:04:08.162Z</time></trkpt>
      <trkpt lat="24.583879" lon="102.948895"><time>2026-04-26T11:04:08.178Z</time></trkpt>
      <trkpt lat="24.583879" lon="102.948895"><time>2026-04-26T11:04:08.195Z</time></trkpt>
      <trkpt lat="24.583887" lon="102.948892"><time>2026-04-26T11:04:08.212Z</time></trkpt>
      <trkpt lat="24.583887" lon="102.948892"><time>2026-04-26T11:04:08.228Z</time></trkpt>
      <trkpt lat="24.583887" lon="102.948892"><time>2026-04-26T11:04:08.245Z</time></trkpt>
      <trkpt lat="24.583887" lon="102.948892"><time>2026-04-26T11:04:08.262Z</time></trkpt>
      <trkpt lat="24.583887" lon="102.948892"><time>2026-04-26T11:04:08.278Z</time></trkpt>
      <trkpt lat="24.583887" lon="102.948892"><time>2026-04-26T11:04:08.295Z</time></trkpt>
      <trkpt lat="24.583895" lon="102.948887"><time>2026-04-26T11:04:08.312Z</time></trkpt>
      <trkpt lat="24.583895" lon="102.948887"><time>2026-04-26T11:04:08.328Z</time></trkpt>
      <trkpt lat="24.583895" lon="102.948887"><time>2026-04-26T11:04:08.345Z</time></trkpt>
      <trkpt lat="24.583895" lon="102.948887"><time>2026-04-26T11:04:08.362Z</time></trkpt>
      <trkpt lat="24.583895" lon="102.948887"><time>2026-04-26T11:04:08.378Z</time></trkpt>
      <trkpt lat="24.583895" lon="102.948887"><time>2026-04-26T11:04:08.395Z</time></trkpt>
      <trkpt lat="24.583903" lon="102.948884"><time>2026-04-26T11:04:08.412Z</time></trkpt>
      <trkpt lat="24.583903" lon="102.948884"><time>2026-04-26T11:04:08.428Z</time></trkpt>
      <trkpt lat="24.583903" lon="102.948884"><time>2026-04-26T11:04:08.445Z</time></trkpt>
      <trkpt lat="24.583903" lon="102.948884"><time>2026-04-26T11:04:08.462Z</time></trkpt>
      <trkpt lat="24.583903" lon="102.948884"><time>2026-04-26T11:04:08.479Z</time></trkpt>
      <trkpt lat="24.583903" lon="102.948884"><time>2026-04-26T11:04:08.495Z</time></trkpt>
      <trkpt lat="24.583912" lon="102.94888"><time>2026-04-26T11:04:08.512Z</time></trkpt>
      <trkpt lat="24.583912" lon="102.94888"><time>2026-04-26T11:04:08.529Z</time></trkpt>
      <trkpt lat="24.583912" lon="102.94888"><time>2026-04-26T11:04:08.545Z</time></trkpt>
      <trkpt lat="24.583912" lon="102.94888"><time>2026-04-26T11:04:08.562Z</time></trkpt>
      <trkpt lat="24.583912" lon="102.94888"><time>2026-04-26T11:04:08.579Z</time></trkpt>
      <trkpt lat="24.583912" lon="102.94888"><time>2026-04-26T11:04:08.595Z</time></trkpt>
      <trkpt lat="24.583919" lon="102.948877"><time>2026-04-26T11:04:08.612Z</time></trkpt>
      <trkpt lat="24.583919" lon="102.948877"><time>2026-04-26T11:04:08.629Z</time></trkpt>
      <trkpt lat="24.583919" lon="102.948877"><time>2026-04-26T11:04:08.645Z</time></trkpt>
      <trkpt lat="24.583919" lon="102.948877"><time>2026-04-26T11:04:08.662Z</time></trkpt>
      <trkpt lat="24.583919" lon="102.948877"><time>2026-04-26T11:04:08.679Z</time></trkpt>
      <trkpt lat="24.583919" lon="102.948877"><time>2026-04-26T11:04:08.695Z</time></trkpt>
      <trkpt lat="24.583928" lon="102.948872"><time>2026-04-26T11:04:08.712Z</time></trkpt>
      <trkpt lat="24.583928" lon="102.948872"><time>2026-04-26T11:04:08.729Z</time></trkpt>
      <trkpt lat="24.583928" lon="102.948872"><time>2026-04-26T11:04:08.745Z</time></trkpt>
      <trkpt lat="24.583928" lon="102.948872"><time>2026-04-26T11:04:08.762Z</time></trkpt>
      <trkpt lat="24.583928" lon="102.948872"><time>2026-04-26T11:04:08.779Z</time></trkpt>
      <trkpt lat="24.583928" lon="102.948872"><time>2026-04-26T11:04:08.796Z</time></trkpt>
      <trkpt lat="24.583937" lon="102.948869"><time>2026-04-26T11:04:08.812Z</time></trkpt>
      <trkpt lat="24.583937" lon="102.948869"><time>2026-04-26T11:04:08.829Z</time></trkpt>
      <trkpt lat="24.583937" lon="102.948869"><time>2026-04-26T11:04:08.846Z</time></trkpt>
      <trkpt lat="24.583937" lon="102.948869"><time>2026-04-26T11:04:08.862Z</time></trkpt>
      <trkpt lat="24.583937" lon="102.948869"><time>2026-04-26T11:04:08.879Z</time></trkpt>
      <trkpt lat="24.583937" lon="102.948869"><time>2026-04-26T11:04:08.896Z</time></trkpt>
      <trkpt lat="24.583945" lon="102.948865"><time>2026-04-26T11:04:08.912Z</time></trkpt>
      <trkpt lat="24.583945" lon="102.948865"><time>2026-04-26T11:04:08.929Z</time></trkpt>
      <trkpt lat="24.583945" lon="102.948865"><time>2026-04-26T11:04:08.946Z</time></trkpt>
      <trkpt lat="24.583945" lon="102.948865"><time>2026-04-26T11:04:08.962Z</time></trkpt>
      <trkpt lat="24.583945" lon="102.948865"><time>2026-04-26T11:04:08.979Z</time></trkpt>
      <trkpt lat="24.583945" lon="102.948865"><time>2026-04-26T11:04:08.996Z</time></trkpt>
      <trkpt lat="24.583953" lon="102.948861"><time>2026-04-26T11:04:09.012Z</time></trkpt>
      <trkpt lat="24.583953" lon="102.948861"><time>2026-04-26T11:04:09.029Z</time></trkpt>
      <trkpt lat="24.583953" lon="102.948861"><time>2026-04-26T11:04:09.046Z</time></trkpt>
      <trkpt lat="24.583953" lon="102.948861"><time>2026-04-26T11:04:09.062Z</time></trkpt>
      <trkpt lat="24.583953" lon="102.948861"><time>2026-04-26T11:04:09.079Z</time></trkpt>
      <trkpt lat="24.583953" lon="102.948861"><time>2026-04-26T11:04:09.096Z</time></trkpt>
      <trkpt lat="24.583962" lon="102.948857"><time>2026-04-26T11:04:09.113Z</time></trkpt>
      <trkpt lat="24.583962" lon="102.948857"><time>2026-04-26T11:04:09.129Z</time></trkpt>
      <trkpt lat="24.583962" lon="102.948857"><time>2026-04-26T11:04:09.146Z</time></trkpt>
      <trkpt lat="24.583962" lon="102.948857"><time>2026-04-26T11:04:09.163Z</time></trkpt>
      <trkpt lat="24.583962" lon="102.948857"><time>2026-04-26T11:04:09.179Z</time></trkpt>
      <trkpt lat="24.583962" lon="102.948857"><time>2026-04-26T11:04:09.196Z</time></trkpt>
      <trkpt lat="24.583969" lon="102.948854"><time>2026-04-26T11:04:09.213Z</time></trkpt>
      <trkpt lat="24.583969" lon="102.948854"><time>2026-04-26T11:04:09.229Z</time></trkpt>
      <trkpt lat="24.583969" lon="102.948854"><time>2026-04-26T11:04:09.246Z</time></trkpt>
      <trkpt lat="24.583969" lon="102.948854"><time>2026-04-26T11:04:09.263Z</time></trkpt>
      <trkpt lat="24.583969" lon="102.948854"><time>2026-04-26T11:04:09.279Z</time></trkpt>
      <trkpt lat="24.583969" lon="102.948854"><time>2026-04-26T11:04:09.296Z</time></trkpt>
      <trkpt lat="24.583979" lon="102.94885"><time>2026-04-26T11:04:09.313Z</time></trkpt>
      <trkpt lat="24.583979" lon="102.94885"><time>2026-04-26T11:04:09.329Z</time></trkpt>
      <trkpt lat="24.583979" lon="102.94885"><time>2026-04-26T11:04:09.346Z</time></trkpt>
      <trkpt lat="24.583979" lon="102.94885"><time>2026-04-26T11:04:09.363Z</time></trkpt>
      <trkpt lat="24.583979" lon="102.94885"><time>2026-04-26T11:04:09.379Z</time></trkpt>
      <trkpt lat="24.583979" lon="102.94885"><time>2026-04-26T11:04:09.396Z</time></trkpt>
      <trkpt lat="24.583987" lon="102.948846"><time>2026-04-26T11:04:09.413Z</time></trkpt>
      <trkpt lat="24.583987" lon="102.948846"><time>2026-04-26T11:04:09.430Z</time></trkpt>
      <trkpt lat="24.583987" lon="102.948846"><time>2026-04-26T11:04:09.446Z</time></trkpt>
      <trkpt lat="24.583987" lon="102.948846"><time>2026-04-26T11:04:09.463Z</time></trkpt>
      <trkpt lat="24.583987" lon="102.948846"><time>2026-04-26T11:04:09.480Z</time></trkpt>
      <trkpt lat="24.583987" lon="102.948846"><time>2026-04-26T11:04:09.496Z</time></trkpt>
      <trkpt lat="24.583995" lon="102.948842"><time>2026-04-26T11:04:09.513Z</time></trkpt>
      <trkpt lat="24.583995" lon="102.948842"><time>2026-04-26T11:04:09.530Z</time></trkpt>
      <trkpt lat="24.583995" lon="102.948842"><time>2026-04-26T11:04:09.546Z</time></trkpt>
      <trkpt lat="24.583995" lon="102.948842"><time>2026-04-26T11:04:09.563Z</time></trkpt>
      <trkpt lat="24.583995" lon="102.948842"><time>2026-04-26T11:04:09.580Z</time></trkpt>
      <trkpt lat="24.583995" lon="102.948842"><time>2026-04-26T11:04:09.596Z</time></trkpt>
      <trkpt lat="24.584003" lon="102.948839"><time>2026-04-26T11:04:09.613Z</time></trkpt>
      <trkpt lat="24.584003" lon="102.948839"><time>2026-04-26T11:04:09.630Z</time></trkpt>
      <trkpt lat="24.584003" lon="102.948839"><time>2026-04-26T11:04:09.646Z</time></trkpt>
      <trkpt lat="24.584003" lon="102.948839"><time>2026-04-26T11:04:09.663Z</time></trkpt>
      <trkpt lat="24.584003" lon="102.948839"><time>2026-04-26T11:04:09.680Z</time></trkpt>
      <trkpt lat="24.584003" lon="102.948839"><time>2026-04-26T11:04:09.696Z</time></trkpt>
      <trkpt lat="24.584012" lon="102.948835"><time>2026-04-26T11:04:09.713Z</time></trkpt>
      <trkpt lat="24.584012" lon="102.948835"><time>2026-04-26T11:04:09.730Z</time></trkpt>
      <trkpt lat="24.584012" lon="102.948835"><time>2026-04-26T11:04:09.747Z</time></trkpt>
      <trkpt lat="24.584012" lon="102.948835"><time>2026-04-26T11:04:09.763Z</time></trkpt>
      <trkpt lat="24.584012" lon="102.948835"><time>2026-04-26T11:04:09.780Z</time></trkpt>
      <trkpt lat="24.584012" lon="102.948835"><time>2026-04-26T11:04:09.797Z</time></trkpt>
      <trkpt lat="24.58402" lon="102.948832"><time>2026-04-26T11:04:09.813Z</time></trkpt>
      <trkpt lat="24.58402" lon="102.948832"><time>2026-04-26T11:04:09.830Z</time></trkpt>
      <trkpt lat="24.58402" lon="102.948832"><time>2026-04-26T11:04:09.847Z</time></trkpt>
      <trkpt lat="24.58402" lon="102.948832"><time>2026-04-26T11:04:09.863Z</time></trkpt>
      <trkpt lat="24.58402" lon="102.948832"><time>2026-04-26T11:04:09.880Z</time></trkpt>
      <trkpt lat="24.58402" lon="102.948832"><time>2026-04-26T11:04:09.897Z</time></trkpt>
      <trkpt lat="24.584029" lon="102.948828"><time>2026-04-26T11:04:09.913Z</time></trkpt>
      <trkpt lat="24.584029" lon="102.948828"><time>2026-04-26T11:04:09.930Z</time></trkpt>
      <trkpt lat="24.584029" lon="102.948828"><time>2026-04-26T11:04:09.947Z</time></trkpt>
      <trkpt lat="24.584029" lon="102.948828"><time>2026-04-26T11:04:09.963Z</time></trkpt>
      <trkpt lat="24.584029" lon="102.948828"><time>2026-04-26T11:04:09.980Z</time></trkpt>
      <trkpt lat="24.584029" lon="102.948828"><time>2026-04-26T11:04:09.997Z</time></trkpt>
      <trkpt lat="24.584037" lon="102.948824"><time>2026-04-26T11:04:10.013Z</time></trkpt>
      <trkpt lat="24.584037" lon="102.948824"><time>2026-04-26T11:04:10.030Z</time></trkpt>
      <trkpt lat="24.584037" lon="102.948824"><time>2026-04-26T11:04:10.047Z</time></trkpt>
      <trkpt lat="24.584037" lon="102.948824"><time>2026-04-26T11:04:10.064Z</time></trkpt>
      <trkpt lat="24.584037" lon="102.948824"><time>2026-04-26T11:04:10.080Z</time></trkpt>
      <trkpt lat="24.584037" lon="102.948824"><time>2026-04-26T11:04:10.097Z</time></trkpt>
      <trkpt lat="24.584046" lon="102.948821"><time>2026-04-26T11:04:10.114Z</time></trkpt>
      <trkpt lat="24.584046" lon="102.948821"><time>2026-04-26T11:04:10.130Z</time></trkpt>
      <trkpt lat="24.584046" lon="102.948821"><time>2026-04-26T11:04:10.147Z</time></trkpt>
      <trkpt lat="24.584046" lon="102.948821"><time>2026-04-26T11:04:10.164Z</time></trkpt>
      <trkpt lat="24.584046" lon="102.948821"><time>2026-04-26T11:04:10.180Z</time></trkpt>
      <trkpt lat="24.584046" lon="102.948821"><time>2026-04-26T11:04:10.197Z</time></trkpt>
      <trkpt lat="24.584053" lon="102.948817"><time>2026-04-26T11:04:10.214Z</time></trkpt>
      <trkpt lat="24.584053" lon="102.948817"><time>2026-04-26T11:04:10.230Z</time></trkpt>
      <trkpt lat="24.584053" lon="102.948817"><time>2026-04-26T11:04:10.247Z</time></trkpt>
      <trkpt lat="24.584053" lon="102.948817"><time>2026-04-26T11:04:10.264Z</time></trkpt>
      <trkpt lat="24.584053" lon="102.948817"><time>2026-04-26T11:04:10.280Z</time></trkpt>
      <trkpt lat="24.584053" lon="102.948817"><time>2026-04-26T11:04:10.297Z</time></trkpt>
      <trkpt lat="24.584063" lon="102.948813"><time>2026-04-26T11:04:10.314Z</time></trkpt>
      <trkpt lat="24.584063" lon="102.948813"><time>2026-04-26T11:04:10.330Z</time></trkpt>
      <trkpt lat="24.584063" lon="102.948813"><time>2026-04-26T11:04:10.347Z</time></trkpt>
      <trkpt lat="24.584063" lon="102.948813"><time>2026-04-26T11:04:10.364Z</time></trkpt>
      <trkpt lat="24.584063" lon="102.948813"><time>2026-04-26T11:04:10.380Z</time></trkpt>
      <trkpt lat="24.584063" lon="102.948813"><time>2026-04-26T11:04:10.397Z</time></trkpt>
      <trkpt lat="24.58407" lon="102.94881"><time>2026-04-26T11:04:10.414Z</time></trkpt>
      <trkpt lat="24.58407" lon="102.94881"><time>2026-04-26T11:04:10.431Z</time></trkpt>
      <trkpt lat="24.58407" lon="102.94881"><time>2026-04-26T11:04:10.447Z</time></trkpt>
      <trkpt lat="24.58407" lon="102.94881"><time>2026-04-26T11:04:10.464Z</time></trkpt>
      <trkpt lat="24.58407" lon="102.94881"><time>2026-04-26T11:04:10.481Z</time></trkpt>
      <trkpt lat="24.58407" lon="102.94881"><time>2026-04-26T11:04:10.497Z</time></trkpt>
      <trkpt lat="24.584079" lon="102.948807"><time>2026-04-26T11:04:10.514Z</time></trkpt>
      <trkpt lat="24.584079" lon="102.948807"><time>2026-04-26T11:04:10.531Z</time></trkpt>
      <trkpt lat="24.584079" lon="102.948807"><time>2026-04-26T11:04:10.547Z</time></trkpt>
      <trkpt lat="24.584079" lon="102.948807"><time>2026-04-26T11:04:10.564Z</time></trkpt>
      <trkpt lat="24.584079" lon="102.948807"><time>2026-04-26T11:04:10.581Z</time></trkpt>
      <trkpt lat="24.584079" lon="102.948807"><time>2026-04-26T11:04:10.597Z</time></trkpt>
      <trkpt lat="24.584087" lon="102.948803"><time>2026-04-26T11:04:10.614Z</time></trkpt>
      <trkpt lat="24.584087" lon="102.948803"><time>2026-04-26T11:04:10.631Z</time></trkpt>
      <trkpt lat="24.584087" lon="102.948803"><time>2026-04-26T11:04:10.647Z</time></trkpt>
      <trkpt lat="24.584087" lon="102.948803"><time>2026-04-26T11:04:10.664Z</time></trkpt>
      <trkpt lat="24.584087" lon="102.948803"><time>2026-04-26T11:04:10.681Z</time></trkpt>
      <trkpt lat="24.584087" lon="102.948803"><time>2026-04-26T11:04:10.697Z</time></trkpt>
      <trkpt lat="24.584096" lon="102.9488"><time>2026-04-26T11:04:10.714Z</time></trkpt>
      <trkpt lat="24.584096" lon="102.9488"><time>2026-04-26T11:04:10.731Z</time></trkpt>
      <trkpt lat="24.584096" lon="102.9488"><time>2026-04-26T11:04:10.748Z</time></trkpt>
      <trkpt lat="24.584096" lon="102.9488"><time>2026-04-26T11:04:10.764Z</time></trkpt>
      <trkpt lat="24.584096" lon="102.9488"><time>2026-04-26T11:04:10.781Z</time></trkpt>
      <trkpt lat="24.584096" lon="102.9488"><time>2026-04-26T11:04:10.798Z</time></trkpt>
      <trkpt lat="24.584103" lon="102.948796"><time>2026-04-26T11:04:10.814Z</time></trkpt>
      <trkpt lat="24.584103" lon="102.948796"><time>2026-04-26T11:04:10.831Z</time></trkpt>
      <trkpt lat="24.584103" lon="102.948796"><time>2026-04-26T11:04:10.848Z</time></trkpt>
      <trkpt lat="24.584103" lon="102.948796"><time>2026-04-26T11:04:10.864Z</time></trkpt>
    </trkseg>
  </trk>
</gpx>
