<?xml version="1.0" encoding="UTF-8"?>
<gpx version="1.1" creator="Kairos" xmlns="http://www.topografix.com/GPX/1/1">
  <trk>
    <name>sidecar-srt-dce49d343617207a</name>
    <trkseg>
      <trkpt lat="28.018974" lon="98.631137"><time>2026-04-28T11:32:46.000Z</time></trkpt>
      <trkpt lat="28.018974" lon="98.631137"><time>2026-04-28T11:32:46.016Z</time></trkpt>
      <trkpt lat="28.018974" lon="98.631137"><time>2026-04-28T11:32:46.032Z</time></trkpt>
      <trkpt lat="28.018974" lon="98.631137"><time>2026-04-28T11:32:46.049Z</time></trkpt>
      <trkpt lat="28.018974" lon="98.631137"><time>2026-04-28T11:32:46.066Z</time></trkpt>
      <trkpt lat="28.018974" lon="98.631137"><time>2026-04-28T11:32:46.082Z</time></trkpt>
      <trkpt lat="28.018974" lon="98.631137"><time>2026-04-28T11:32:46.099Z</time></trkpt>
      <trkpt lat="28.018974" lon="98.631137"><time>2026-04-28T11:32:46.116Z</time></trkpt>
      <trkpt lat="28.018974" lon="98.631137"><time>2026-04-28T11:32:46.132Z</time></trkpt>
      <trkpt lat="28.018974" lon="98.631137"><time>2026-04-28T11:32:46.149Z</time></trkpt>
      <trkpt lat="28.018974" lon="98.631137"><time>2026-04-28T11:32:46.166Z</time></trkpt>
      <trkpt lat="28.018974" lon="98.631137"><time>2026-04-28T11:32:46.182Z</time></trkpt>
      <trkpt lat="28.018974" lon="98.631137"><time>2026-04-28T11:32:46.199Z</time></trkpt>
      <trkpt lat="28.018974" lon="98.631137"><time>2026-04-28T11:32:46.216Z</time></trkpt>
      <trkpt lat="28.018974" lon="98.631137"><time>2026-04-28T11:32:46.232Z</time></trkpt>
      <trkpt lat="28.018974" lon="98.631137"><time>2026-04-28T11:32:46.249Z</time></trkpt>
      <trkpt lat="28.018973" lon="98.631137"><time>2026-04-28T11:32:46.266Z</time></trkpt>
      <trkpt lat="28.018973" lon="98.631137"><time>2026-04-28T11:32:46.282Z</time></trkpt>
      <trkpt lat="28.018973" lon="98.631137"><time>2026-04-28T11:32:46.299Z</time></trkpt>
      <trkpt lat="28.018973" lon="98.631137"><time>2026-04-28T11:32:46.316Z</time></trkpt>
      <trkpt lat="28.018973" lon="98.631137"><time>2026-04-28T11:32:46.333Z</time></trkpt>
      <trkpt lat="28.018973" lon="98.631137"><time>2026-04-28T11:32:46.349Z</time></trkpt>
      <trkpt lat="28.018973" lon="98.631137"><time>2026-04-28T11:32:46.366Z</time></trkpt>
      <trkpt lat="28.018973" lon="98.631137"><time>2026-04-28T11:32:46.383Z</time></trkpt>
      <trkpt lat="28.018973" lon="98.631137"><time>2026-04-28T11:32:46.399Z</time></trkpt>
      <trkpt lat="28.018973" lon="98.631137"><time>2026-04-28T11:32:46.416Z</time></trkpt>
      <trkpt lat="28.018973" lon="98.631137"><time>2026-04-28T11:32:46.433Z</time></trkpt>
      <trkpt lat="28.018973" lon="98.631137"><time>2026-04-28T11:32:46.449Z</time></trkpt>
      <trkpt lat="28.018972" lon="98.631137"><time>2026-04-28T11:32:46.466Z</time></trkpt>
      <trkpt lat="28.018972" lon="98.631137"><time>2026-04-28T11:32:46.483Z</time></trkpt>
      <trkpt lat="28.018972" lon="98.631137"><time>2026-04-28T11:32:46.499Z</time></trkpt>
      <trkpt lat="28.018972" lon="98.631137"><time>2026-04-28T11:32:46.516Z</time></trkpt>
      <trkpt lat="28.018972" lon="98.631137"><time>2026-04-28T11:32:46.533Z</time></trkpt>
      <trkpt lat="28.018972" lon="98.631137"><time>2026-04-28T11:32:46.549Z</time></trkpt>
      <trkpt lat="28.018971" lon="98.631137"><time>2026-04-28T11:32:46.566Z</time></trkpt>
      <trkpt lat="28.018971" lon="98.631137"><time>2026-04-28T11:32:46.583Z</time></trkpt>
      <trkpt lat="28.018971" lon="98.631137"><time>2026-04-28T11:32:46.599Z</time></trkpt>
      <trkpt lat="28.018971" lon="98.631137"><time>2026-04-28T11:32:46.616Z</time></trkpt>
      <trkpt lat="28.018971" lon="98.631137"><time>2026-04-28T11:32:46.633Z</time></trkpt>
      <trkpt lat="28.018971" lon="98.631137"><time>2026-04-28T11:32:46.650Z</time></trkpt>
      <trkpt lat="28.018969" lon="98.631137"><time>2026-04-28T11:32:46.666Z</time></trkpt>
      <trkpt lat="28.018969" lon="98.631137"><time>2026-04-28T11:32:46.683Z</time></trkpt>
      <trkpt lat="28.018969" lon="98.631137"><time>2026-04-28T11:32:46.700Z</time></trkpt>
      <trkpt lat="28.018969" lon="98.631137"><time>2026-04-28T11:32:46.716Z</time></trkpt>
      <trkpt lat="28.018969" lon="98.631137"><time>2026-04-28T11:32:46.733Z</time></trkpt>
      <trkpt lat="28.018969" lon="98.631137"><time>2026-04-28T11:32:46.750Z</time></trkpt>
      <trkpt lat="28.018967" lon="98.631136"><time>2026-04-28T11:32:46.766Z</time></trkpt>
      <trkpt lat="28.018967" lon="98.631136"><time>2026-04-28T11:32:46.783Z</time></trkpt>
      <trkpt lat="28.018967" lon="98.631136"><time>2026-04-28T11:32:46.800Z</time></trkpt>
      <trkpt lat="28.018967" lon="98.631136"><time>2026-04-28T11:32:46.816Z</time></trkpt>
      <trkpt lat="28.018967" lon="98.631136"><time>2026-04-28T11:32:46.833Z</time></trkpt>
      <trkpt lat="28.018967" lon="98.631136"><time>2026-04-28T11:32:46.850Z</time></trkpt>
      <trkpt lat="28.018965" lon="98.631136"><time>2026-04-28T11:32:46.866Z</time></trkpt>
      <trkpt lat="28.018965" lon="98.631136"><time>2026-04-28T11:32:46.883Z</time></trkpt>
      <trkpt lat="28.018965" lon="98.631136"><time>2026-04-28T11:32:46.900Z</time></trkpt>
      <trkpt lat="28.018965" lon="98.631136"><time>2026-04-28T11:32:46.916Z</time></trkpt>
      <trkpt lat="28.018965" lon="98.631136"><time>2026-04-28T11:32:46.933Z</time></trkpt>
      <trkpt lat="28.018965" lon="98.631136"><time>2026-04-28T11:32:46.950Z</time></trkpt>
      <trkpt lat="28.018963" lon="98.631136"><time>2026-04-28T11:32:46.967Z</time></trkpt>
      <trkpt lat="28.018963" lon="98.631136"><time>2026-04-28T11:32:46.983Z</time></trkpt>
      <trkpt lat="28.018963" lon="98.631136"><time>2026-04-28T11:32:47.000Z</time></trkpt>
      <trkpt lat="28.018963" lon="98.631136"><time>2026-04-28T11:32:47.017Z</time></trkpt>
      <trkpt lat="28.018963" lon="98.631136"><time>2026-04-28T11:32:47.033Z</time></trkpt>
      <trkpt lat="28.018963" lon="98.631136"><time>2026-04-28T11:32:47.050Z</time></trkpt>
      <trkpt lat="28.018961" lon="98.631135"><time>2026-04-28T11:32:47.067Z</time></trkpt>
      <trkpt lat="28.018961" lon="98.631135"><time>2026-04-28T11:32:47.083Z</time></trkpt>
      <trkpt lat="28.018961" lon="98.631135"><time>2026-04-28T11:32:47.100Z</time></trkpt>
      <trkpt lat="28.018961" lon="98.631135"><time>2026-04-28T11:32:47.117Z</time></trkpt>
      <trkpt lat="28.018961" lon="98.631135"><time>2026-04-28T11:32:47.133Z</time></trkpt>
      <trkpt lat="28.018961" lon="98.631135"><time>2026-04-28T11:32:47.150Z</time></trkpt>
      <trkpt lat="28.018958" lon="98.631135"><time>2026-04-28T11:32:47.167Z</time></trkpt>
      <trkpt lat="28.018958" lon="98.631135"><time>2026-04-28T11:32:47.183Z</time></trkpt>
      <trkpt lat="28.018958" lon="98.631135"><time>2026-04-28T11:32:47.200Z</time></trkpt>
      <trkpt lat="28.018958" lon="98.631135"><time>2026-04-28T11:32:47.217Z</time></trkpt>
      <trkpt lat="28.018958" lon="98.631135"><time>2026-04-28T11:32:47.233Z</time></trkpt>
      <trkpt lat="28.018958" lon="98.631135"><time>2026-04-28T11:32:47.250Z</time></trkpt>
      <trkpt lat="28.018954" lon="98.631135"><time>2026-04-28T11:32:47.267Z</time></trkpt>
      <trkpt lat="28.018954" lon="98.631135"><time>2026-04-28T11:32:47.283Z</time></trkpt>
      <trkpt lat="28.018954" lon="98.631135"><time>2026-04-28T11:32:47.300Z</time></trkpt>
      <trkpt lat="28.018954" lon="98.631135"><time>2026-04-28T11:32:47.317Z</time></trkpt>
      <trkpt lat="28.018954" lon="98.631135"><time>2026-04-28T11:32:47.334Z</time></trkpt>
      <trkpt lat="28.018954" lon="98.631135"><time>2026-04-28T11:32:47.350Z</time></trkpt>
      <trkpt lat="28.018951" lon="98.631134"><time>2026-04-28T11:32:47.367Z</time></trkpt>
      <trkpt lat="28.018951" lon="98.631134"><time>2026-04-28T11:32:47.384Z</time></trkpt>
      <trkpt lat="28.018951" lon="98.631134"><time>2026-04-28T11:32:47.400Z</time></trkpt>
      <trkpt lat="28.018951" lon="98.631134"><time>2026-04-28T11:32:47.417Z</time></trkpt>
      <trkpt lat="28.018951" lon="98.631134"><time>2026-04-28T11:32:47.434Z</time></trkpt>
      <trkpt lat="28.018951" lon="98.631134"><time>2026-04-28T11:32:47.450Z</time></trkpt>
      <trkpt lat="28.018947" lon="98.631134"><time>2026-04-28T11:32:47.467Z</time></trkpt>
      <trkpt lat="28.018947" lon="98.631134"><time>2026-04-28T11:32:47.484Z</time></trkpt>
      <trkpt lat="28.018947" lon="98.631134"><time>2026-04-28T11:32:47.500Z</time></trkpt>
      <trkpt lat="28.018947" lon="98.631134"><time>2026-04-28T11:32:47.517Z</time></trkpt>
      <trkpt lat="28.018947" lon="98.631134"><time>2026-04-28T11:32:47.534Z</time></trkpt>
      <trkpt lat="28.018947" lon="98.631134"><time>2026-04-28T11:32:47.550Z</time></trkpt>
      <trkpt lat="28.018944" lon="98.631134"><time>2026-04-28T11:32:47.567Z</time></trkpt>
      <trkpt lat="28.018944" lon="98.631134"><time>2026-04-28T11:32:47.584Z</time></trkpt>
      <trkpt lat="28.018944" lon="98.631134"><time>2026-04-28T11:32:47.600Z</time></trkpt>
      <trkpt lat="28.018944" lon="98.631134"><time>2026-04-28T11:32:47.617Z</time></trkpt>
      <trkpt lat="28.018944" lon="98.631134"><time>2026-04-28T11:32:47.634Z</time></trkpt>
      <trkpt lat="28.018944" lon="98.631134"><time>2026-04-28T11:32:47.651Z</time></trkpt>
      <trkpt lat="28.01894" lon="98.631133"><time>2026-04-28T11:32:47.667Z</time></trkpt>
      <trkpt lat="28.01894" lon="98.631133"><time>2026-04-28T11:32:47.684Z</time></trkpt>
      <trkpt lat="28.01894" lon="98.631133"><time>2026-04-28T11:32:47.701Z</time></trkpt>
      <trkpt lat="28.01894" lon="98.631133"><time>2026-04-28T11:32:47.717Z</time></trkpt>
      <trkpt lat="28.01894" lon="98.631133"><time>2026-04-28T11:32:47.734Z</time></trkpt>
      <trkpt lat="28.01894" lon="98.631133"><time>2026-04-28T11:32:47.751Z</time></trkpt>
      <trkpt lat="28.018935" lon="98.631133"><time>2026-04-28T11:32:47.767Z</time></trkpt>
      <trkpt lat="28.018935" lon="98.631133"><time>2026-04-28T11:32:47.784Z</time></trkpt>
      <trkpt lat="28.018935" lon="98.631133"><time>2026-04-28T11:32:47.801Z</time></trkpt>
      <trkpt lat="28.018935" lon="98.631133"><time>2026-04-28T11:32:47.817Z</time></trkpt>
      <trkpt lat="28.018935" lon="98.631133"><time>2026-04-28T11:32:47.834Z</time></trkpt>
      <trkpt lat="28.018935" lon="98.631133"><time>2026-04-28T11:32:47.851Z</time></trkpt>
      <trkpt lat="28.018931" lon="98.631132"><time>2026-04-28T11:32:47.867Z</time></trkpt>
      <trkpt lat="28.018931" lon="98.631132"><time>2026-04-28T11:32:47.884Z</time></trkpt>
      <trkpt lat="28.018931" lon="98.631132"><time>2026-04-28T11:32:47.901Z</time></trkpt>
      <trkpt lat="28.018931" lon="98.631132"><time>2026-04-28T11:32:47.917Z</time></trkpt>
      <trkpt lat="28.018931" lon="98.631132"><time>2026-04-28T11:32:47.934Z</time></trkpt>
      <trkpt lat="28.018931" lon="98.631132"><time>2026-04-28T11:32:47.951Z</time></trkpt>
      <trkpt lat="28.018926" lon="98.631132"><time>2026-04-28T11:32:47.968Z</time></trkpt>
      <trkpt lat="28.018926" lon="98.631132"><time>2026-04-28T11:32:47.984Z</time></trkpt>
      <trkpt lat="28.018926" lon="98.631132"><time>2026-04-28T11:32:48.001Z</time></trkpt>
      <trkpt lat="28.018926" lon="98.631132"><time>2026-04-28T11:32:48.018Z</time></trkpt>
      <trkpt lat="28.018926" lon="98.631132"><time>2026-04-28T11:32:48.034Z</time></trkpt>
      <trkpt lat="28.018926" lon="98.631132"><time>2026-04-28T11:32:48.051Z</time></trkpt>
      <trkpt lat="28.018921" lon="98.631132"><time>2026-04-28T11:32:48.068Z</time></trkpt>
      <trkpt lat="28.018921" lon="98.631132"><time>2026-04-28T11:32:48.084Z</time></trkpt>
      <trkpt lat="28.018921" lon="98.631132"><time>2026-04-28T11:32:48.101Z</time></trkpt>
      <trkpt lat="28.018921" lon="98.631132"><time>2026-04-28T11:32:48.118Z</time></trkpt>
      <trkpt lat="28.018921" lon="98.631132"><time>2026-04-28T11:32:48.134Z</time></trkpt>
      <trkpt lat="28.018921" lon="98.631132"><time>2026-04-28T11:32:48.151Z</time></trkpt>
      <trkpt lat="28.018917" lon="98.631131"><time>2026-04-28T11:32:48.168Z</time></trkpt>
      <trkpt lat="28.018917" lon="98.631131"><time>2026-04-28T11:32:48.184Z</time></trkpt>
      <trkpt lat="28.018917" lon="98.631131"><time>2026-04-28T11:32:48.201Z</time></trkpt>
      <trkpt lat="28.018917" lon="98.631131"><time>2026-04-28T11:32:48.218Z</time></trkpt>
      <trkpt lat="28.018917" lon="98.631131"><time>2026-04-28T11:32:48.234Z</time></trkpt>
      <trkpt lat="28.018917" lon="98.631131"><time>2026-04-28T11:32:48.251Z</time></trkpt>
      <trkpt lat="28.018911" lon="98.631131"><time>2026-04-28T11:32:48.268Z</time></trkpt>
      <trkpt lat="28.018911" lon="98.631131"><time>2026-04-28T11:32:48.285Z</time></trkpt>
      <trkpt lat="28.018911" lon="98.631131"><time>2026-04-28T11:32:48.301Z</time></trkpt>
      <trkpt lat="28.018911" lon="98.631131"><time>2026-04-28T11:32:48.318Z</time></trkpt>
      <trkpt lat="28.018911" lon="98.631131"><time>2026-04-28T11:32:48.335Z</time></trkpt>
      <trkpt lat="28.018911" lon="98.631131"><time>2026-04-28T11:32:48.351Z</time></trkpt>
      <trkpt lat="28.018906" lon="98.63113"><time>2026-04-28T11:32:48.368Z</time></trkpt>
      <trkpt lat="28.018906" lon="98.63113"><time>2026-04-28T11:32:48.385Z</time></trkpt>
      <trkpt lat="28.018906" lon="98.63113"><time>2026-04-28T11:32:48.401Z</time></trkpt>
      <trkpt lat="28.018906" lon="98.63113"><time>2026-04-28T11:32:48.418Z</time></trkpt>
      <trkpt lat="28.018906" lon="98.63113"><time>2026-04-28T11:32:48.435Z</time></trkpt>
      <trkpt lat="28.018906" lon="98.63113"><time>2026-04-28T11:32:48.451Z</time></trkpt>
      <trkpt lat="28.018901" lon="98.63113"><time>2026-04-28T11:32:48.468Z</time></trkpt>
      <trkpt lat="28.018901" lon="98.63113"><time>2026-04-28T11:32:48.485Z</time></trkpt>
      <trkpt lat="28.018901" lon="98.63113"><time>2026-04-28T11:32:48.501Z</time></trkpt>
      <trkpt lat="28.018901" lon="98.63113"><time>2026-04-28T11:32:48.518Z</time></trkpt>
      <trkpt lat="28.018901" lon="98.63113"><time>2026-04-28T11:32:48.535Z</time></trkpt>
      <trkpt lat="28.018901" lon="98.63113"><time>2026-04-28T11:32:48.551Z</time></trkpt>
      <trkpt lat="28.018895" lon="98.631129"><time>2026-04-28T11:32:48.568Z</time></trkpt>
      <trkpt lat="28.018895" lon="98.631129"><time>2026-04-28T11:32:48.585Z</time></trkpt>
      <trkpt lat="28.018895" lon="98.631129"><time>2026-04-28T11:32:48.602Z</time></trkpt>
      <trkpt lat="28.018895" lon="98.631129"><time>2026-04-28T11:32:48.618Z</time></trkpt>
      <trkpt lat="28.018895" lon="98.631129"><time>2026-04-28T11:32:48.635Z</time></trkpt>
      <trkpt lat="28.018895" lon="98.631129"><time>2026-04-28T11:32:48.652Z</time></trkpt>
      <trkpt lat="28.01889" lon="98.631129"><time>2026-04-28T11:32:48.668Z</time></trkpt>
      <trkpt lat="28.01889" lon="98.631129"><time>2026-04-28T11:32:48.685Z</time></trkpt>
      <trkpt lat="28.01889" lon="98.631129"><time>2026-04-28T11:32:48.702Z</time></trkpt>
      <trkpt lat="28.01889" lon="98.631129"><time>2026-04-28T11:32:48.718Z</time></trkpt>
      <trkpt lat="28.01889" lon="98.631129"><time>2026-04-28T11:32:48.735Z</time></trkpt>
      <trkpt lat="28.01889" lon="98.631129"><time>2026-04-28T11:32:48.752Z</time></trkpt>
      <trkpt lat="28.018884" lon="98.631128"><time>2026-04-28T11:32:48.768Z</time></trkpt>
      <trkpt lat="28.018884" lon="98.631128"><time>2026-04-28T11:32:48.785Z</time></trkpt>
      <trkpt lat="28.018884" lon="98.631128"><time>2026-04-28T11:32:48.802Z</time></trkpt>
      <trkpt lat="28.018884" lon="98.631128"><time>2026-04-28T11:32:48.818Z</time></trkpt>
      <trkpt lat="28.018884" lon="98.631128"><time>2026-04-28T11:32:48.835Z</time></trkpt>
      <trkpt lat="28.018884" lon="98.631128"><time>2026-04-28T11:32:48.852Z</time></trkpt>
      <trkpt lat="28.018878" lon="98.631128"><time>2026-04-28T11:32:48.868Z</time></trkpt>
      <trkpt lat="28.018878" lon="98.631128"><time>2026-04-28T11:32:48.885Z</time></trkpt>
      <trkpt lat="28.018878" lon="98.631128"><time>2026-04-28T11:32:48.902Z</time></trkpt>
      <trkpt lat="28.018878" lon="98.631128"><time>2026-04-28T11:32:48.919Z</time></trkpt>
      <trkpt lat="28.018878" lon="98.631128"><time>2026-04-28T11:32:48.935Z</time></trkpt>
      <trkpt lat="28.018878" lon="98.631128"><time>2026-04-28T11:32:48.952Z</time></trkpt>
      <trkpt lat="28.018872" lon="98.631127"><time>2026-04-28T11:32:48.969Z</time></trkpt>
      <trkpt lat="28.018872" lon="98.631127"><time>2026-04-28T11:32:48.985Z</time></trkpt>
      <trkpt lat="28.018872" lon="98.631127"><time>2026-04-28T11:32:49.002Z</time></trkpt>
      <trkpt lat="28.018872" lon="98.631127"><time>2026-04-28T11:32:49.019Z</time></trkpt>
      <trkpt lat="28.018872" lon="98.631127"><time>2026-04-28T11:32:49.035Z</time></trkpt>
      <trkpt lat="28.018872" lon="98.631127"><time>2026-04-28T11:32:49.052Z</time></trkpt>
      <trkpt lat="28.018866" lon="98.631127"><time>2026-04-28T11:32:49.069Z</time></trkpt>
      <trkpt lat="28.018866" lon="98.631127"><time>2026-04-28T11:32:49.085Z</time></trkpt>
      <trkpt lat="28.018866" lon="98.631127"><time>2026-04-28T11:32:49.102Z</time></trkpt>
      <trkpt lat="28.018866" lon="98.631127"><time>2026-04-28T11:32:49.119Z</time></trkpt>
      <trkpt lat="28.018866" lon="98.631127"><time>2026-04-28T11:32:49.135Z</time></trkpt>
      <trkpt lat="28.018866" lon="98.631127"><time>2026-04-28T11:32:49.152Z</time></trkpt>
      <trkpt lat="28.01886" lon="98.631126"><time>2026-04-28T11:32:49.169Z</time></trkpt>
      <trkpt lat="28.01886" lon="98.631126"><time>2026-04-28T11:32:49.185Z</time></trkpt>
      <trkpt lat="28.01886" lon="98.631126"><time>2026-04-28T11:32:49.202Z</time></trkpt>
      <trkpt lat="28.01886" lon="98.631126"><time>2026-04-28T11:32:49.219Z</time></trkpt>
      <trkpt lat="28.01886" lon="98.631126"><time>2026-04-28T11:32:49.236Z</time></trkpt>
      <trkpt lat="28.01886" lon="98.631126"><time>2026-04-28T11:32:49.252Z</time></trkpt>
      <trkpt lat="28.018853" lon="98.631125"><time>2026-04-28T11:32:49.269Z</time></trkpt>
      <trkpt lat="28.018853" lon="98.631125"><time>2026-04-28T11:32:49.286Z</time></trkpt>
      <trkpt lat="28.018853" lon="98.631125"><time>2026-04-28T11:32:49.302Z</time></trkpt>
      <trkpt lat="28.018853" lon="98.631125"><time>2026-04-28T11:32:49.319Z</time></trkpt>
      <trkpt lat="28.018853" lon="98.631125"><time>2026-04-28T11:32:49.336Z</time></trkpt>
      <trkpt lat="28.018853" lon="98.631125"><time>2026-04-28T11:32:49.352Z</time></trkpt>
      <trkpt lat="28.018847" lon="98.631125"><time>2026-04-28T11:32:49.369Z</time></trkpt>
      <trkpt lat="28.018847" lon="98.631125"><time>2026-04-28T11:32:49.386Z</time></trkpt>
      <trkpt lat="28.018847" lon="98.631125"><time>2026-04-28T11:32:49.402Z</time></trkpt>
      <trkpt lat="28.018847" lon="98.631125"><time>2026-04-28T11:32:49.419Z</time></trkpt>
      <trkpt lat="28.018847" lon="98.631125"><time>2026-04-28T11:32:49.436Z</time></trkpt>
      <trkpt lat="28.018847" lon="98.631125"><time>2026-04-28T11:32:49.452Z</time></trkpt>
      <trkpt lat="28.01884" lon="98.631124"><time>2026-04-28T11:32:49.469Z</time></trkpt>
      <trkpt lat="28.01884" lon="98.631124"><time>2026-04-28T11:32:49.486Z</time></trkpt>
      <trkpt lat="28.01884" lon="98.631124"><time>2026-04-28T11:32:49.502Z</time></trkpt>
      <trkpt lat="28.01884" lon="98.631124"><time>2026-04-28T11:32:49.519Z</time></trkpt>
      <trkpt lat="28.01884" lon="98.631124"><time>2026-04-28T11:32:49.536Z</time></trkpt>
      <trkpt lat="28.01884" lon="98.631124"><time>2026-04-28T11:32:49.553Z</time></trkpt>
      <trkpt lat="28.018834" lon="98.631123"><time>2026-04-28T11:32:49.569Z</time></trkpt>
      <trkpt lat="28.018834" lon="98.631123"><time>2026-04-28T11:32:49.586Z</time></trkpt>
      <trkpt lat="28.018834" lon="98.631123"><time>2026-04-28T11:32:49.603Z</time></trkpt>
      <trkpt lat="28.018834" lon="98.631123"><time>2026-04-28T11:32:49.619Z</time></trkpt>
      <trkpt lat="28.018834" lon="98.631123"><time>2026-04-28T11:32:49.636Z</time></trkpt>
      <trkpt lat="28.018834" lon="98.631123"><time>2026-04-28T11:32:49.653Z</time></trkpt>
      <trkpt lat="28.018827" lon="98.631123"><time>2026-04-28T11:32:49.669Z</time></trkpt>
      <trkpt lat="28.018827" lon="98.631123"><time>2026-04-28T11:32:49.686Z</time></trkpt>
      <trkpt lat="28.018827" lon="98.631123"><time>2026-04-28T11:32:49.703Z</time></trkpt>
      <trkpt lat="28.018827" lon="98.631123"><time>2026-04-28T11:32:49.719Z</time></trkpt>
      <trkpt lat="28.018827" lon="98.631123"><time>2026-04-28T11:32:49.736Z</time></trkpt>
      <trkpt lat="28.018827" lon="98.631123"><time>2026-04-28T11:32:49.753Z</time></trkpt>
      <trkpt lat="28.018821" lon="98.631122"><time>2026-04-28T11:32:49.769Z</time></trkpt>
      <trkpt lat="28.018821" lon="98.631122"><time>2026-04-28T11:32:49.786Z</time></trkpt>
      <trkpt lat="28.018821" lon="98.631122"><time>2026-04-28T11:32:49.803Z</time></trkpt>
      <trkpt lat="28.018821" lon="98.631122"><time>2026-04-28T11:32:49.819Z</time></trkpt>
      <trkpt lat="28.018821" lon="98.631122"><time>2026-04-28T11:32:49.836Z</time></trkpt>
      <trkpt lat="28.018821" lon="98.631122"><time>2026-04-28T11:32:49.853Z</time></trkpt>
      <trkpt lat="28.018814" lon="98.631121"><time>2026-04-28T11:32:49.870Z</time></trkpt>
      <trkpt lat="28.018814" lon="98.631121"><time>2026-04-28T11:32:49.886Z</time></trkpt>
      <trkpt lat="28.018814" lon="98.631121"><time>2026-04-28T11:32:49.903Z</time></trkpt>
      <trkpt lat="28.018814" lon="98.631121"><time>2026-04-28T11:32:49.920Z</time></trkpt>
      <trkpt lat="28.018814" lon="98.631121"><time>2026-04-28T11:32:49.936Z</time></trkpt>
      <trkpt lat="28.018814" lon="98.631121"><time>2026-04-28T11:32:49.953Z</time></trkpt>
      <trkpt lat="28.018807" lon="98.631121"><time>2026-04-28T11:32:49.970Z</time></trkpt>
      <trkpt lat="28.018807" lon="98.631121"><time>2026-04-28T11:32:49.986Z</time></trkpt>
      <trkpt lat="28.018807" lon="98.631121"><time>2026-04-28T11:32:50.003Z</time></trkpt>
      <trkpt lat="28.018807" lon="98.631121"><time>2026-04-28T11:32:50.020Z</time></trkpt>
      <trkpt lat="28.018807" lon="98.631121"><time>2026-04-28T11:32:50.036Z</time></trkpt>
      <trkpt lat="28.018807" lon="98.631121"><time>2026-04-28T11:32:50.053Z</time></trkpt>
      <trkpt lat="28.0188" lon="98.63112"><time>2026-04-28T11:32:50.070Z</time></trkpt>
      <trkpt lat="28.0188" lon="98.63112"><time>2026-04-28T11:32:50.086Z</time></trkpt>
      <trkpt lat="28.0188" lon="98.63112"><time>2026-04-28T11:32:50.103Z</time></trkpt>
      <trkpt lat="28.0188" lon="98.63112"><time>2026-04-28T11:32:50.120Z</time></trkpt>
      <trkpt lat="28.0188" lon="98.63112"><time>2026-04-28T11:32:50.136Z</time></trkpt>
      <trkpt lat="28.0188" lon="98.63112"><time>2026-04-28T11:32:50.153Z</time></trkpt>
      <trkpt lat="28.018792" lon="98.63112"><time>2026-04-28T11:32:50.170Z</time></trkpt>
      <trkpt lat="28.018792" lon="98.63112"><time>2026-04-28T11:32:50.187Z</time></trkpt>
      <trkpt lat="28.018792" lon="98.63112"><time>2026-04-28T11:32:50.203Z</time></trkpt>
      <trkpt lat="28.018792" lon="98.63112"><time>2026-04-28T11:32:50.220Z</time></trkpt>
      <trkpt lat="28.018792" lon="98.63112"><time>2026-04-28T11:32:50.237Z</time></trkpt>
      <trkpt lat="28.018792" lon="98.63112"><time>2026-04-28T11:32:50.253Z</time></trkpt>
      <trkpt lat="28.018785" lon="98.631119"><time>2026-04-28T11:32:50.270Z</time></trkpt>
      <trkpt lat="28.018785" lon="98.631119"><time>2026-04-28T11:32:50.287Z</time></trkpt>
      <trkpt lat="28.018785" lon="98.631119"><time>2026-04-28T11:32:50.303Z</time></trkpt>
      <trkpt lat="28.018785" lon="98.631119"><time>2026-04-28T11:32:50.320Z</time></trkpt>
      <trkpt lat="28.018785" lon="98.631119"><time>2026-04-28T11:32:50.337Z</time></trkpt>
      <trkpt lat="28.018785" lon="98.631119"><time>2026-04-28T11:32:50.353Z</time></trkpt>
      <trkpt lat="28.018778" lon="98.631118"><time>2026-04-28T11:32:50.370Z</time></trkpt>
      <trkpt lat="28.018778" lon="98.631118"><time>2026-04-28T11:32:50.387Z</time></trkpt>
      <trkpt lat="28.018778" lon="98.631118"><time>2026-04-28T11:32:50.403Z</time></trkpt>
      <trkpt lat="28.018778" lon="98.631118"><time>2026-04-28T11:32:50.420Z</time></trkpt>
      <trkpt lat="28.018778" lon="98.631118"><time>2026-04-28T11:32:50.437Z</time></trkpt>
      <trkpt lat="28.018778" lon="98.631118"><time>2026-04-28T11:32:50.453Z</time></trkpt>
      <trkpt lat="28.018771" lon="98.631118"><time>2026-04-28T11:32:50.470Z</time></trkpt>
      <trkpt lat="28.018771" lon="98.631118"><time>2026-04-28T11:32:50.487Z</time></trkpt>
      <trkpt lat="28.018771" lon="98.631118"><time>2026-04-28T11:32:50.504Z</time></trkpt>
      <trkpt lat="28.018771" lon="98.631118"><time>2026-04-28T11:32:50.520Z</time></trkpt>
      <trkpt lat="28.018771" lon="98.631118"><time>2026-04-28T11:32:50.537Z</time></trkpt>
      <trkpt lat="28.018771" lon="98.631118"><time>2026-04-28T11:32:50.554Z</time></trkpt>
      <trkpt lat="28.018764" lon="98.631117"><time>2026-04-28T11:32:50.570Z</time></trkpt>
      <trkpt lat="28.018764" lon="98.631117"><time>2026-04-28T11:32:50.587Z</time></trkpt>
      <trkpt lat="28.018764" lon="98.631117"><time>2026-04-28T11:32:50.604Z</time></trkpt>
      <trkpt lat="28.018764" lon="98.631117"><time>2026-04-28T11:32:50.620Z</time></trkpt>
      <trkpt lat="28.018764" lon="98.631117"><time>2026-04-28T11:32:50.637Z</time></trkpt>
      <trkpt lat="28.018764" lon="98.631117"><time>2026-04-28T11:32:50.654Z</time></trkpt>
      <trkpt lat="28.018756" lon="98.631116"><time>2026-04-28T11:32:50.670Z</time></trkpt>
      <trkpt lat="28.018756" lon="98.631116"><time>2026-04-28T11:32:50.687Z</time></trkpt>
      <trkpt lat="28.018756" lon="98.631116"><time>2026-04-28T11:32:50.704Z</time></trkpt>
      <trkpt lat="28.018756" lon="98.631116"><time>2026-04-28T11:32:50.720Z</time></trkpt>
      <trkpt lat="28.018756" lon="98.631116"><time>2026-04-28T11:32:50.737Z</time></trkpt>
      <trkpt lat="28.018756" lon="98.631116"><time>2026-04-28T11:32:50.754Z</time></trkpt>
      <trkpt lat="28.018749" lon="98.631116"><time>2026-04-28T11:32:50.770Z</time></trkpt>
      <trkpt lat="28.018749" lon="98.631116"><time>2026-04-28T11:32:50.787Z</time></trkpt>
      <trkpt lat="28.018749" lon="98.631116"><time>2026-04-28T11:32:50.804Z</time></trkpt>
      <trkpt lat="28.018749" lon="98.631116"><time>2026-04-28T11:32:50.821Z</time></trkpt>
      <trkpt lat="28.018749" lon="98.631116"><time>2026-04-28T11:32:50.837Z</time></trkpt>
      <trkpt lat="28.018749" lon="98.631116"><time>2026-04-28T11:32:50.854Z</time></trkpt>
      <trkpt lat="28.018741" lon="98.631115"><time>2026-04-28T11:32:50.871Z</time></trkpt>
      <trkpt lat="28.018741" lon="98.631115"><time>2026-04-28T11:32:50.887Z</time></trkpt>
      <trkpt lat="28.018741" lon="98.631115"><time>2026-04-28T11:32:50.904Z</time></trkpt>
      <trkpt lat="28.018741" lon="98.631115"><time>2026-04-28T11:32:50.921Z</time></trkpt>
      <trkpt lat="28.018741" lon="98.631115"><time>2026-04-28T11:32:50.937Z</time></trkpt>
      <trkpt lat="28.018741" lon="98.631115"><time>2026-04-28T11:32:50.954Z</time></trkpt>
      <trkpt lat="28.018734" lon="98.631114"><time>2026-04-28T11:32:50.971Z</time></trkpt>
      <trkpt lat="28.018734" lon="98.631114"><time>2026-04-28T11:32:50.987Z</time></trkpt>
      <trkpt lat="28.018734" lon="98.631114"><time>2026-04-28T11:32:51.004Z</time></trkpt>
      <trkpt lat="28.018734" lon="98.631114"><time>2026-04-28T11:32:51.021Z</time></trkpt>
      <trkpt lat="28.018734" lon="98.631114"><time>2026-04-28T11:32:51.037Z</time></trkpt>
      <trkpt lat="28.018734" lon="98.631114"><time>2026-04-28T11:32:51.054Z</time></trkpt>
      <trkpt lat="28.018726" lon="98.631114"><time>2026-04-28T11:32:51.071Z</time></trkpt>
      <trkpt lat="28.018726" lon="98.631114"><time>2026-04-28T11:32:51.087Z</time></trkpt>
      <trkpt lat="28.018726" lon="98.631114"><time>2026-04-28T11:32:51.104Z</time></trkpt>
      <trkpt lat="28.018726" lon="98.631114"><time>2026-04-28T11:32:51.121Z</time></trkpt>
      <trkpt lat="28.018726" lon="98.631114"><time>2026-04-28T11:32:51.138Z</time></trkpt>
      <trkpt lat="28.018726" lon="98.631114"><time>2026-04-28T11:32:51.154Z</time></trkpt>
      <trkpt lat="28.018719" lon="98.631113"><time>2026-04-28T11:32:51.171Z</time></trkpt>
      <trkpt lat="28.018719" lon="98.631113"><time>2026-04-28T11:32:51.188Z</time></trkpt>
      <trkpt lat="28.018719" lon="98.631113"><time>2026-04-28T11:32:51.204Z</time></trkpt>
      <trkpt lat="28.018719" lon="98.631113"><time>2026-04-28T11:32:51.221Z</time></trkpt>
      <trkpt lat="28.018719" lon="98.631113"><time>2026-04-28T11:32:51.238Z</time></trkpt>
      <trkpt lat="28.018719" lon="98.631113"><time>2026-04-28T11:32:51.254Z</time></trkpt>
      <trkpt lat="28.018711" lon="98.631113"><time>2026-04-28T11:32:51.271Z</time></trkpt>
      <trkpt lat="28.018711" lon="98.631113"><time>2026-04-28T11:32:51.288Z</time></trkpt>
      <trkpt lat="28.018711" lon="98.631113"><time>2026-04-28T11:32:51.304Z</time></trkpt>
      <trkpt lat="28.018711" lon="98.631113"><time>2026-04-28T11:32:51.321Z</time></trkpt>
      <trkpt lat="28.018711" lon="98.631113"><time>2026-04-28T11:32:51.338Z</time></trkpt>
      <trkpt lat="28.018711" lon="98.631113"><time>2026-04-28T11:32:51.354Z</time></trkpt>
      <trkpt lat="28.018703" lon="98.631112"><time>2026-04-28T11:32:51.371Z</time></trkpt>
      <trkpt lat="28.018703" lon="98.631112"><time>2026-04-28T11:32:51.388Z</time></trkpt>
      <trkpt lat="28.018703" lon="98.631112"><time>2026-04-28T11:32:51.404Z</time></trkpt>
      <trkpt lat="28.018703" lon="98.631112"><time>2026-04-28T11:32:51.421Z</time></trkpt>
      <trkpt lat="28.018703" lon="98.631112"><time>2026-04-28T11:32:51.438Z</time></trkpt>
      <trkpt lat="28.018703" lon="98.631112"><time>2026-04-28T11:32:51.455Z</time></trkpt>
      <trkpt lat="28.018695" lon="98.631111"><time>2026-04-28T11:32:51.471Z</time></trkpt>
      <trkpt lat="28.018695" lon="98.631111"><time>2026-04-28T11:32:51.488Z</time></trkpt>
      <trkpt lat="28.018695" lon="98.631111"><time>2026-04-28T11:32:51.505Z</time></trkpt>
      <trkpt lat="28.018695" lon="98.631111"><time>2026-04-28T11:32:51.521Z</time></trkpt>
      <trkpt lat="28.018695" lon="98.631111"><time>2026-04-28T11:32:51.538Z</time></trkpt>
      <trkpt lat="28.018695" lon="98.631111"><time>2026-04-28T11:32:51.555Z</time></trkpt>
      <trkpt lat="28.018687" lon="98.631111"><time>2026-04-28T11:32:51.571Z</time></trkpt>
      <trkpt lat="28.018687" lon="98.631111"><time>2026-04-28T11:32:51.588Z</time></trkpt>
      <trkpt lat="28.018687" lon="98.631111"><time>2026-04-28T11:32:51.605Z</time></trkpt>
      <trkpt lat="28.018687" lon="98.631111"><time>2026-04-28T11:32:51.621Z</time></trkpt>
      <trkpt lat="28.018687" lon="98.631111"><time>2026-04-28T11:32:51.638Z</time></trkpt>
      <trkpt lat="28.018687" lon="98.631111"><time>2026-04-28T11:32:51.655Z</time></trkpt>
      <trkpt lat="28.01868" lon="98.63111"><time>2026-04-28T11:32:51.671Z</time></trkpt>
      <trkpt lat="28.01868" lon="98.63111"><time>2026-04-28T11:32:51.688Z</time></trkpt>
      <trkpt lat="28.01868" lon="98.63111"><time>2026-04-28T11:32:51.705Z</time></trkpt>
      <trkpt lat="28.01868" lon="98.63111"><time>2026-04-28T11:32:51.721Z</time></trkpt>
      <trkpt lat="28.01868" lon="98.63111"><time>2026-04-28T11:32:51.738Z</time></trkpt>
      <trkpt lat="28.01868" lon="98.63111"><time>2026-04-28T11:32:51.755Z</time></trkpt>
      <trkpt lat="28.018672" lon="98.631109"><time>2026-04-28T11:32:51.772Z</time></trkpt>
      <trkpt lat="28.018672" lon="98.631109"><time>2026-04-28T11:32:51.788Z</time></trkpt>
      <trkpt lat="28.018672" lon="98.631109"><time>2026-04-28T11:32:51.805Z</time></trkpt>
      <trkpt lat="28.018672" lon="98.631109"><time>2026-04-28T11:32:51.822Z</time></trkpt>
      <trkpt lat="28.018672" lon="98.631109"><time>2026-04-28T11:32:51.838Z</time></trkpt>
      <trkpt lat="28.018672" lon="98.631109"><time>2026-04-28T11:32:51.855Z</time></trkpt>
      <trkpt lat="28.018664" lon="98.631109"><time>2026-04-28T11:32:51.872Z</time></trkpt>
      <trkpt lat="28.018664" lon="98.631109"><time>2026-04-28T11:32:51.888Z</time></trkpt>
      <trkpt lat="28.018664" lon="98.631109"><time>2026-04-28T11:32:51.905Z</time></trkpt>
      <trkpt lat="28.018664" lon="98.631109"><time>2026-04-28T11:32:51.922Z</time></trkpt>
      <trkpt lat="28.018664" lon="98.631109"><time>2026-04-28T11:32:51.938Z</time></trkpt>
      <trkpt lat="28.018664" lon="98.631109"><time>2026-04-28T11:32:51.955Z</time></trkpt>
      <trkpt lat="28.018656" lon="98.631108"><time>2026-04-28T11:32:51.972Z</time></trkpt>
      <trkpt lat="28.018656" lon="98.631108"><time>2026-04-28T11:32:51.988Z</time></trkpt>
      <trkpt lat="28.018656" lon="98.631108"><time>2026-04-28T11:32:52.005Z</time></trkpt>
      <trkpt lat="28.018656" lon="98.631108"><time>2026-04-28T11:32:52.022Z</time></trkpt>
      <trkpt lat="28.018656" lon="98.631108"><time>2026-04-28T11:32:52.038Z</time></trkpt>
      <trkpt lat="28.018656" lon="98.631108"><time>2026-04-28T11:32:52.055Z</time></trkpt>
      <trkpt lat="28.018648" lon="98.631108"><time>2026-04-28T11:32:52.072Z</time></trkpt>
      <trkpt lat="28.018648" lon="98.631108"><time>2026-04-28T11:32:52.089Z</time></trkpt>
      <trkpt lat="28.018648" lon="98.631108"><time>2026-04-28T11:32:52.105Z</time></trkpt>
      <trkpt lat="28.018648" lon="98.631108"><time>2026-04-28T11:32:52.122Z</time></trkpt>
      <trkpt lat="28.018648" lon="98.631108"><time>2026-04-28T11:32:52.139Z</time></trkpt>
      <trkpt lat="28.018648" lon="98.631108"><time>2026-04-28T11:32:52.155Z</time></trkpt>
      <trkpt lat="28.018639" lon="98.631107"><time>2026-04-28T11:32:52.172Z</time></trkpt>
      <trkpt lat="28.018639" lon="98.631107"><time>2026-04-28T11:32:52.189Z</time></trkpt>
      <trkpt lat="28.018639" lon="98.631107"><time>2026-04-28T11:32:52.205Z</time></trkpt>
      <trkpt lat="28.018639" lon="98.631107"><time>2026-04-28T11:32:52.222Z</time></trkpt>
      <trkpt lat="28.018639" lon="98.631107"><time>2026-04-28T11:32:52.239Z</time></trkpt>
      <trkpt lat="28.018631" lon="98.631107"><time>2026-04-28T11:32:52.255Z</time></trkpt>
      <trkpt lat="28.018631" lon="98.631107"><time>2026-04-28T11:32:52.272Z</time></trkpt>
      <trkpt lat="28.018631" lon="98.631107"><time>2026-04-28T11:32:52.289Z</time></trkpt>
      <trkpt lat="28.018631" lon="98.631107"><time>2026-04-28T11:32:52.305Z</time></trkpt>
      <trkpt lat="28.018631" lon="98.631107"><time>2026-04-28T11:32:52.322Z</time></trkpt>
      <trkpt lat="28.018631" lon="98.631107"><time>2026-04-28T11:32:52.339Z</time></trkpt>
      <trkpt lat="28.018623" lon="98.631106"><time>2026-04-28T11:32:52.355Z</time></trkpt>
      <trkpt lat="28.018623" lon="98.631106"><time>2026-04-28T11:32:52.372Z</time></trkpt>
      <trkpt lat="28.018623" lon="98.631106"><time>2026-04-28T11:32:52.389Z</time></trkpt>
      <trkpt lat="28.018623" lon="98.631106"><time>2026-04-28T11:32:52.406Z</time></trkpt>
      <trkpt lat="28.018623" lon="98.631106"><time>2026-04-28T11:32:52.422Z</time></trkpt>
      <trkpt lat="28.018623" lon="98.631106"><time>2026-04-28T11:32:52.439Z</time></trkpt>
      <trkpt lat="28.018615" lon="98.631105"><time>2026-04-28T11:32:52.456Z</time></trkpt>
      <trkpt lat="28.018615" lon="98.631105"><time>2026-04-28T11:32:52.472Z</time></trkpt>
      <trkpt lat="28.018615" lon="98.631105"><time>2026-04-28T11:32:52.489Z</time></trkpt>
      <trkpt lat="28.018615" lon="98.631105"><time>2026-04-28T11:32:52.506Z</time></trkpt>
      <trkpt lat="28.018615" lon="98.631105"><time>2026-04-28T11:32:52.522Z</time></trkpt>
      <trkpt lat="28.018615" lon="98.631105"><time>2026-04-28T11:32:52.539Z</time></trkpt>
      <trkpt lat="28.018606" lon="98.631104"><time>2026-04-28T11:32:52.556Z</time></trkpt>
      <trkpt lat="28.018606" lon="98.631104"><time>2026-04-28T11:32:52.572Z</time></trkpt>
      <trkpt lat="28.018606" lon="98.631104"><time>2026-04-28T11:32:52.589Z</time></trkpt>
      <trkpt lat="28.018606" lon="98.631104"><time>2026-04-28T11:32:52.606Z</time></trkpt>
      <trkpt lat="28.018606" lon="98.631104"><time>2026-04-28T11:32:52.622Z</time></trkpt>
      <trkpt lat="28.018606" lon="98.631104"><time>2026-04-28T11:32:52.639Z</time></trkpt>
      <trkpt lat="28.018598" lon="98.631104"><time>2026-04-28T11:32:52.656Z</time></trkpt>
      <trkpt lat="28.018598" lon="98.631104"><time>2026-04-28T11:32:52.672Z</time></trkpt>
      <trkpt lat="28.018598" lon="98.631104"><time>2026-04-28T11:32:52.689Z</time></trkpt>
      <trkpt lat="28.018598" lon="98.631104"><time>2026-04-28T11:32:52.706Z</time></trkpt>
      <trkpt lat="28.018598" lon="98.631104"><time>2026-04-28T11:32:52.723Z</time></trkpt>
      <trkpt lat="28.018598" lon="98.631104"><time>2026-04-28T11:32:52.739Z</time></trkpt>
      <trkpt lat="28.01859" lon="98.631103"><time>2026-04-28T11:32:52.756Z</time></trkpt>
      <trkpt lat="28.01859" lon="98.631103"><time>2026-04-28T11:32:52.773Z</time></trkpt>
      <trkpt lat="28.01859" lon="98.631103"><time>2026-04-28T11:32:52.789Z</time></trkpt>
      <trkpt lat="28.01859" lon="98.631103"><time>2026-04-28T11:32:52.806Z</time></trkpt>
      <trkpt lat="28.01859" lon="98.631103"><time>2026-04-28T11:32:52.823Z</time></trkpt>
      <trkpt lat="28.01859" lon="98.631103"><time>2026-04-28T11:32:52.839Z</time></trkpt>
      <trkpt lat="28.01859" lon="98.631103"><time>2026-04-28T11:32:52.856Z</time></trkpt>
      <trkpt lat="28.018582" lon="98.631102"><time>2026-04-28T11:32:52.873Z</time></trkpt>
      <trkpt lat="28.018582" lon="98.631102"><time>2026-04-28T11:32:52.889Z</time></trkpt>
      <trkpt lat="28.018582" lon="98.631102"><time>2026-04-28T11:32:52.906Z</time></trkpt>
      <trkpt lat="28.018582" lon="98.631102"><time>2026-04-28T11:32:52.923Z</time></trkpt>
      <trkpt lat="28.018582" lon="98.631102"><time>2026-04-28T11:32:52.939Z</time></trkpt>
      <trkpt lat="28.018573" lon="98.631102"><time>2026-04-28T11:32:52.956Z</time></trkpt>
      <trkpt lat="28.018573" lon="98.631102"><time>2026-04-28T11:32:52.973Z</time></trkpt>
      <trkpt lat="28.018573" lon="98.631102"><time>2026-04-28T11:32:52.989Z</time></trkpt>
      <trkpt lat="28.018573" lon="98.631102"><time>2026-04-28T11:32:53.006Z</time></trkpt>
      <trkpt lat="28.018573" lon="98.631102"><time>2026-04-28T11:32:53.023Z</time></trkpt>
      <trkpt lat="28.018573" lon="98.631102"><time>2026-04-28T11:32:53.040Z</time></trkpt>
      <trkpt lat="28.018565" lon="98.631101"><time>2026-04-28T11:32:53.056Z</time></trkpt>
      <trkpt lat="28.018565" lon="98.631101"><time>2026-04-28T11:32:53.073Z</time></trkpt>
      <trkpt lat="28.018565" lon="98.631101"><time>2026-04-28T11:32:53.090Z</time></trkpt>
      <trkpt lat="28.018565" lon="98.631101"><time>2026-04-28T11:32:53.106Z</time></trkpt>
      <trkpt lat="28.018565" lon="98.631101"><time>2026-04-28T11:32:53.123Z</time></trkpt>
      <trkpt lat="28.018565" lon="98.631101"><time>2026-04-28T11:32:53.140Z</time></trkpt>
      <trkpt lat="28.018556" lon="98.6311"><time>2026-04-28T11:32:53.156Z</time></trkpt>
      <trkpt lat="28.018556" lon="98.6311"><time>2026-04-28T11:32:53.173Z</time></trkpt>
      <trkpt lat="28.018556" lon="98.6311"><time>2026-04-28T11:32:53.190Z</time></trkpt>
      <trkpt lat="28.018556" lon="98.6311"><time>2026-04-28T11:32:53.206Z</time></trkpt>
      <trkpt lat="28.018556" lon="98.6311"><time>2026-04-28T11:32:53.223Z</time></trkpt>
      <trkpt lat="28.018556" lon="98.6311"><time>2026-04-28T11:32:53.240Z</time></trkpt>
      <trkpt lat="28.018548" lon="98.6311"><time>2026-04-28T11:32:53.256Z</time></trkpt>
      <trkpt lat="28.018548" lon="98.6311"><time>2026-04-28T11:32:53.273Z</time></trkpt>
      <trkpt lat="28.018548" lon="98.6311"><time>2026-04-28T11:32:53.290Z</time></trkpt>
      <trkpt lat="28.018548" lon="98.6311"><time>2026-04-28T11:32:53.306Z</time></trkpt>
      <trkpt lat="28.018548" lon="98.6311"><time>2026-04-28T11:32:53.323Z</time></trkpt>
      <trkpt lat="28.018548" lon="98.6311"><time>2026-04-28T11:32:53.340Z</time></trkpt>
      <trkpt lat="28.01854" lon="98.631099"><time>2026-04-28T11:32:53.357Z</time></trkpt>
      <trkpt lat="28.01854" lon="98.631099"><time>2026-04-28T11:32:53.373Z</time></trkpt>
      <trkpt lat="28.01854" lon="98.631099"><time>2026-04-28T11:32:53.390Z</time></trkpt>
      <trkpt lat="28.01854" lon="98.631099"><time>2026-04-28T11:32:53.407Z</time></trkpt>
      <trkpt lat="28.01854" lon="98.631099"><time>2026-04-28T11:32:53.423Z</time></trkpt>
      <trkpt lat="28.01854" lon="98.631099"><time>2026-04-28T11:32:53.440Z</time></trkpt>
      <trkpt lat="28.018531" lon="98.631098"><time>2026-04-28T11:32:53.457Z</time></trkpt>
      <trkpt lat="28.018531" lon="98.631098"><time>2026-04-28T11:32:53.473Z</time></trkpt>
      <trkpt lat="28.018531" lon="98.631098"><time>2026-04-28T11:32:53.490Z</time></trkpt>
      <trkpt lat="28.018531" lon="98.631098"><time>2026-04-28T11:32:53.507Z</time></trkpt>
      <trkpt lat="28.018531" lon="98.631098"><time>2026-04-28T11:32:53.523Z</time></trkpt>
      <trkpt lat="28.018531" lon="98.631098"><time>2026-04-28T11:32:53.540Z</time></trkpt>
      <trkpt lat="28.018523" lon="98.631097"><time>2026-04-28T11:32:53.557Z</time></trkpt>
      <trkpt lat="28.018523" lon="98.631097"><time>2026-04-28T11:32:53.573Z</time></trkpt>
      <trkpt lat="28.018523" lon="98.631097"><time>2026-04-28T11:32:53.590Z</time></trkpt>
      <trkpt lat="28.018523" lon="98.631097"><time>2026-04-28T11:32:53.607Z</time></trkpt>
      <trkpt lat="28.018523" lon="98.631097"><time>2026-04-28T11:32:53.623Z</time></trkpt>
      <trkpt lat="28.018523" lon="98.631097"><time>2026-04-28T11:32:53.640Z</time></trkpt>
      <trkpt lat="28.018514" lon="98.631097"><time>2026-04-28T11:32:53.657Z</time></trkpt>
      <trkpt lat="28.018514" lon="98.631097"><time>2026-04-28T11:32:53.673Z</time></trkpt>
      <trkpt lat="28.018514" lon="98.631097"><time>2026-04-28T11:32:53.690Z</time></trkpt>
      <trkpt lat="28.018514" lon="98.631097"><time>2026-04-28T11:32:53.707Z</time></trkpt>
      <trkpt lat="28.018514" lon="98.631097"><time>2026-04-28T11:32:53.724Z</time></trkpt>
      <trkpt lat="28.018514" lon="98.631097"><time>2026-04-28T11:32:53.740Z</time></trkpt>
      <trkpt lat="28.018506" lon="98.631096"><time>2026-04-28T11:32:53.757Z</time></trkpt>
      <trkpt lat="28.018506" lon="98.631096"><time>2026-04-28T11:32:53.774Z</time></trkpt>
      <trkpt lat="28.018506" lon="98.631096"><time>2026-04-28T11:32:53.790Z</time></trkpt>
      <trkpt lat="28.018506" lon="98.631096"><time>2026-04-28T11:32:53.807Z</time></trkpt>
      <trkpt lat="28.018506" lon="98.631096"><time>2026-04-28T11:32:53.824Z</time></trkpt>
      <trkpt lat="28.018506" lon="98.631096"><time>2026-04-28T11:32:53.840Z</time></trkpt>
      <trkpt lat="28.018497" lon="98.631095"><time>2026-04-28T11:32:53.857Z</time></trkpt>
      <trkpt lat="28.018497" lon="98.631095"><time>2026-04-28T11:32:53.874Z</time></trkpt>
      <trkpt lat="28.018497" lon="98.631095"><time>2026-04-28T11:32:53.890Z</time></trkpt>
      <trkpt lat="28.018497" lon="98.631095"><time>2026-04-28T11:32:53.907Z</time></trkpt>
      <trkpt lat="28.018497" lon="98.631095"><time>2026-04-28T11:32:53.924Z</time></trkpt>
      <trkpt lat="28.018497" lon="98.631095"><time>2026-04-28T11:32:53.940Z</time></trkpt>
      <trkpt lat="28.018489" lon="98.631094"><time>2026-04-28T11:32:53.957Z</time></trkpt>
      <trkpt lat="28.018489" lon="98.631094"><time>2026-04-28T11:32:53.974Z</time></trkpt>
      <trkpt lat="28.018489" lon="98.631094"><time>2026-04-28T11:32:53.990Z</time></trkpt>
      <trkpt lat="28.018489" lon="98.631094"><time>2026-04-28T11:32:54.007Z</time></trkpt>
      <trkpt lat="28.018489" lon="98.631094"><time>2026-04-28T11:32:54.024Z</time></trkpt>
      <trkpt lat="28.018489" lon="98.631094"><time>2026-04-28T11:32:54.041Z</time></trkpt>
      <trkpt lat="28.01848" lon="98.631094"><time>2026-04-28T11:32:54.057Z</time></trkpt>
      <trkpt lat="28.01848" lon="98.631094"><time>2026-04-28T11:32:54.074Z</time></trkpt>
      <trkpt lat="28.01848" lon="98.631094"><time>2026-04-28T11:32:54.091Z</time></trkpt>
      <trkpt lat="28.01848" lon="98.631094"><time>2026-04-28T11:32:54.107Z</time></trkpt>
      <trkpt lat="28.01848" lon="98.631094"><time>2026-04-28T11:32:54.124Z</time></trkpt>
      <trkpt lat="28.01848" lon="98.631094"><time>2026-04-28T11:32:54.141Z</time></trkpt>
      <trkpt lat="28.018471" lon="98.631093"><time>2026-04-28T11:32:54.157Z</time></trkpt>
      <trkpt lat="28.018471" lon="98.631093"><time>2026-04-28T11:32:54.174Z</time></trkpt>
      <trkpt lat="28.018471" lon="98.631093"><time>2026-04-28T11:32:54.191Z</time></trkpt>
      <trkpt lat="28.018471" lon="98.631093"><time>2026-04-28T11:32:54.207Z</time></trkpt>
      <trkpt lat="28.018471" lon="98.631093"><time>2026-04-28T11:32:54.224Z</time></trkpt>
      <trkpt lat="28.018471" lon="98.631093"><time>2026-04-28T11:32:54.241Z</time></trkpt>
      <trkpt lat="28.018463" lon="98.631092"><time>2026-04-28T11:32:54.257Z</time></trkpt>
      <trkpt lat="28.018463" lon="98.631092"><time>2026-04-28T11:32:54.274Z</time></trkpt>
      <trkpt lat="28.018463" lon="98.631092"><time>2026-04-28T11:32:54.291Z</time></trkpt>
      <trkpt lat="28.018463" lon="98.631092"><time>2026-04-28T11:32:54.307Z</time></trkpt>
      <trkpt lat="28.018463" lon="98.631092"><time>2026-04-28T11:32:54.324Z</time></trkpt>
      <trkpt lat="28.018463" lon="98.631092"><time>2026-04-28T11:32:54.341Z</time></trkpt>
      <trkpt lat="28.018454" lon="98.631091"><time>2026-04-28T11:32:54.358Z</time></trkpt>
      <trkpt lat="28.018454" lon="98.631091"><time>2026-04-28T11:32:54.374Z</time></trkpt>
      <trkpt lat="28.018454" lon="98.631091"><time>2026-04-28T11:32:54.391Z</time></trkpt>
      <trkpt lat="28.018454" lon="98.631091"><time>2026-04-28T11:32:54.408Z</time></trkpt>
      <trkpt lat="28.018454" lon="98.631091"><time>2026-04-28T11:32:54.424Z</time></trkpt>
      <trkpt lat="28.018454" lon="98.631091"><time>2026-04-28T11:32:54.441Z</time></trkpt>
      <trkpt lat="28.018446" lon="98.631091"><time>2026-04-28T11:32:54.458Z</time></trkpt>
      <trkpt lat="28.018446" lon="98.631091"><time>2026-04-28T11:32:54.474Z</time></trkpt>
      <trkpt lat="28.018446" lon="98.631091"><time>2026-04-28T11:32:54.491Z</time></trkpt>
      <trkpt lat="28.018446" lon="98.631091"><time>2026-04-28T11:32:54.508Z</time></trkpt>
      <trkpt lat="28.018446" lon="98.631091"><time>2026-04-28T11:32:54.524Z</time></trkpt>
      <trkpt lat="28.018446" lon="98.631091"><time>2026-04-28T11:32:54.541Z</time></trkpt>
      <trkpt lat="28.018437" lon="98.63109"><time>2026-04-28T11:32:54.558Z</time></trkpt>
      <trkpt lat="28.018437" lon="98.63109"><time>2026-04-28T11:32:54.574Z</time></trkpt>
      <trkpt lat="28.018437" lon="98.63109"><time>2026-04-28T11:32:54.591Z</time></trkpt>
      <trkpt lat="28.018437" lon="98.63109"><time>2026-04-28T11:32:54.608Z</time></trkpt>
      <trkpt lat="28.018437" lon="98.63109"><time>2026-04-28T11:32:54.624Z</time></trkpt>
      <trkpt lat="28.018437" lon="98.63109"><time>2026-04-28T11:32:54.641Z</time></trkpt>
      <trkpt lat="28.018428" lon="98.631089"><time>2026-04-28T11:32:54.658Z</time></trkpt>
      <trkpt lat="28.018428" lon="98.631089"><time>2026-04-28T11:32:54.675Z</time></trkpt>
      <trkpt lat="28.018428" lon="98.631089"><time>2026-04-28T11:32:54.691Z</time></trkpt>
      <trkpt lat="28.018428" lon="98.631089"><time>2026-04-28T11:32:54.708Z</time></trkpt>
      <trkpt lat="28.018428" lon="98.631089"><time>2026-04-28T11:32:54.725Z</time></trkpt>
      <trkpt lat="28.018428" lon="98.631089"><time>2026-04-28T11:32:54.741Z</time></trkpt>
      <trkpt lat="28.01842" lon="98.631088"><time>2026-04-28T11:32:54.758Z</time></trkpt>
      <trkpt lat="28.01842" lon="98.631088"><time>2026-04-28T11:32:54.775Z</time></trkpt>
      <trkpt lat="28.01842" lon="98.631088"><time>2026-04-28T11:32:54.791Z</time></trkpt>
      <trkpt lat="28.01842" lon="98.631088"><time>2026-04-28T11:32:54.808Z</time></trkpt>
      <trkpt lat="28.01842" lon="98.631088"><time>2026-04-28T11:32:54.825Z</time></trkpt>
      <trkpt lat="28.01842" lon="98.631088"><time>2026-04-28T11:32:54.841Z</time></trkpt>
      <trkpt lat="28.018411" lon="98.631088"><time>2026-04-28T11:32:54.858Z</time></trkpt>
      <trkpt lat="28.018411" lon="98.631088"><time>2026-04-28T11:32:54.875Z</time></trkpt>
      <trkpt lat="28.018411" lon="98.631088"><time>2026-04-28T11:32:54.891Z</time></trkpt>
      <trkpt lat="28.018411" lon="98.631088"><time>2026-04-28T11:32:54.908Z</time></trkpt>
      <trkpt lat="28.018411" lon="98.631088"><time>2026-04-28T11:32:54.925Z</time></trkpt>
      <trkpt lat="28.018411" lon="98.631088"><time>2026-04-28T11:32:54.941Z</time></trkpt>
      <trkpt lat="28.018402" lon="98.631087"><time>2026-04-28T11:32:54.958Z</time></trkpt>
      <trkpt lat="28.018402" lon="98.631087"><time>2026-04-28T11:32:54.975Z</time></trkpt>
      <trkpt lat="28.018402" lon="98.631087"><time>2026-04-28T11:32:54.992Z</time></trkpt>
      <trkpt lat="28.018402" lon="98.631087"><time>2026-04-28T11:32:55.008Z</time></trkpt>
      <trkpt lat="28.018402" lon="98.631087"><time>2026-04-28T11:32:55.025Z</time></trkpt>
      <trkpt lat="28.018402" lon="98.631087"><time>2026-04-28T11:32:55.042Z</time></trkpt>
      <trkpt lat="28.018394" lon="98.631086"><time>2026-04-28T11:32:55.058Z</time></trkpt>
      <trkpt lat="28.018394" lon="98.631086"><time>2026-04-28T11:32:55.075Z</time></trkpt>
      <trkpt lat="28.018394" lon="98.631086"><time>2026-04-28T11:32:55.092Z</time></trkpt>
      <trkpt lat="28.018394" lon="98.631086"><time>2026-04-28T11:32:55.108Z</time></trkpt>
      <trkpt lat="28.018394" lon="98.631086"><time>2026-04-28T11:32:55.125Z</time></trkpt>
      <trkpt lat="28.018394" lon="98.631086"><time>2026-04-28T11:32:55.142Z</time></trkpt>
      <trkpt lat="28.018385" lon="98.631085"><time>2026-04-28T11:32:55.158Z</time></trkpt>
      <trkpt lat="28.018385" lon="98.631085"><time>2026-04-28T11:32:55.175Z</time></trkpt>
      <trkpt lat="28.018385" lon="98.631085"><time>2026-04-28T11:32:55.192Z</time></trkpt>
      <trkpt lat="28.018385" lon="98.631085"><time>2026-04-28T11:32:55.208Z</time></trkpt>
      <trkpt lat="28.018385" lon="98.631085"><time>2026-04-28T11:32:55.225Z</time></trkpt>
      <trkpt lat="28.018385" lon="98.631085"><time>2026-04-28T11:32:55.242Z</time></trkpt>
      <trkpt lat="28.018376" lon="98.631085"><time>2026-04-28T11:32:55.258Z</time></trkpt>
      <trkpt lat="28.018376" lon="98.631085"><time>2026-04-28T11:32:55.275Z</time></trkpt>
      <trkpt lat="28.018376" lon="98.631085"><time>2026-04-28T11:32:55.292Z</time></trkpt>
      <trkpt lat="28.018376" lon="98.631085"><time>2026-04-28T11:32:55.309Z</time></trkpt>
      <trkpt lat="28.018376" lon="98.631085"><time>2026-04-28T11:32:55.325Z</time></trkpt>
      <trkpt lat="28.018376" lon="98.631085"><time>2026-04-28T11:32:55.342Z</time></trkpt>
      <trkpt lat="28.018367" lon="98.631084"><time>2026-04-28T11:32:55.359Z</time></trkpt>
      <trkpt lat="28.018367" lon="98.631084"><time>2026-04-28T11:32:55.375Z</time></trkpt>
      <trkpt lat="28.018367" lon="98.631084"><time>2026-04-28T11:32:55.392Z</time></trkpt>
      <trkpt lat="28.018367" lon="98.631084"><time>2026-04-28T11:32:55.409Z</time></trkpt>
      <trkpt lat="28.018367" lon="98.631084"><time>2026-04-28T11:32:55.425Z</time></trkpt>
      <trkpt lat="28.018367" lon="98.631084"><time>2026-04-28T11:32:55.442Z</time></trkpt>
      <trkpt lat="28.018359" lon="98.631083"><time>2026-04-28T11:32:55.459Z</time></trkpt>
      <trkpt lat="28.018359" lon="98.631083"><time>2026-04-28T11:32:55.475Z</time></trkpt>
      <trkpt lat="28.018359" lon="98.631083"><time>2026-04-28T11:32:55.492Z</time></trkpt>
      <trkpt lat="28.018359" lon="98.631083"><time>2026-04-28T11:32:55.509Z</time></trkpt>
      <trkpt lat="28.018359" lon="98.631083"><time>2026-04-28T11:32:55.525Z</time></trkpt>
      <trkpt lat="28.018359" lon="98.631083"><time>2026-04-28T11:32:55.542Z</time></trkpt>
      <trkpt lat="28.01835" lon="98.631082"><time>2026-04-28T11:32:55.559Z</time></trkpt>
      <trkpt lat="28.01835" lon="98.631082"><time>2026-04-28T11:32:55.575Z</time></trkpt>
      <trkpt lat="28.01835" lon="98.631082"><time>2026-04-28T11:32:55.592Z</time></trkpt>
      <trkpt lat="28.01835" lon="98.631082"><time>2026-04-28T11:32:55.609Z</time></trkpt>
      <trkpt lat="28.01835" lon="98.631082"><time>2026-04-28T11:32:55.626Z</time></trkpt>
      <trkpt lat="28.01835" lon="98.631082"><time>2026-04-28T11:32:55.642Z</time></trkpt>
      <trkpt lat="28.018341" lon="98.631081"><time>2026-04-28T11:32:55.659Z</time></trkpt>
      <trkpt lat="28.018341" lon="98.631081"><time>2026-04-28T11:32:55.676Z</time></trkpt>
      <trkpt lat="28.018341" lon="98.631081"><time>2026-04-28T11:32:55.692Z</time></trkpt>
      <trkpt lat="28.018341" lon="98.631081"><time>2026-04-28T11:32:55.709Z</time></trkpt>
      <trkpt lat="28.018341" lon="98.631081"><time>2026-04-28T11:32:55.726Z</time></trkpt>
      <trkpt lat="28.018341" lon="98.631081"><time>2026-04-28T11:32:55.742Z</time></trkpt>
      <trkpt lat="28.018333" lon="98.63108"><time>2026-04-28T11:32:55.759Z</time></trkpt>
      <trkpt lat="28.018333" lon="98.63108"><time>2026-04-28T11:32:55.776Z</time></trkpt>
      <trkpt lat="28.018333" lon="98.63108"><time>2026-04-28T11:32:55.792Z</time></trkpt>
      <trkpt lat="28.018333" lon="98.63108"><time>2026-04-28T11:32:55.809Z</time></trkpt>
      <trkpt lat="28.018333" lon="98.63108"><time>2026-04-28T11:32:55.826Z</time></trkpt>
      <trkpt lat="28.018333" lon="98.63108"><time>2026-04-28T11:32:55.842Z</time></trkpt>
      <trkpt lat="28.018324" lon="98.631079"><time>2026-04-28T11:32:55.859Z</time></trkpt>
      <trkpt lat="28.018324" lon="98.631079"><time>2026-04-28T11:32:55.876Z</time></trkpt>
      <trkpt lat="28.018324" lon="98.631079"><time>2026-04-28T11:32:55.892Z</time></trkpt>
      <trkpt lat="28.018324" lon="98.631079"><time>2026-04-28T11:32:55.909Z</time></trkpt>
      <trkpt lat="28.018324" lon="98.631079"><time>2026-04-28T11:32:55.926Z</time></trkpt>
      <trkpt lat="28.018324" lon="98.631079"><time>2026-04-28T11:32:55.943Z</time></trkpt>
      <trkpt lat="28.018315" lon="98.631079"><time>2026-04-28T11:32:55.959Z</time></trkpt>
      <trkpt lat="28.018315" lon="98.631079"><time>2026-04-28T11:32:55.976Z</time></trkpt>
      <trkpt lat="28.018315" lon="98.631079"><time>2026-04-28T11:32:55.993Z</time></trkpt>
      <trkpt lat="28.018315" lon="98.631079"><time>2026-04-28T11:32:56.009Z</time></trkpt>
      <trkpt lat="28.018315" lon="98.631079"><time>2026-04-28T11:32:56.026Z</time></trkpt>
      <trkpt lat="28.018315" lon="98.631079"><time>2026-04-28T11:32:56.043Z</time></trkpt>
      <trkpt lat="28.018306" lon="98.631078"><time>2026-04-28T11:32:56.059Z</time></trkpt>
      <trkpt lat="28.018306" lon="98.631078"><time>2026-04-28T11:32:56.076Z</time></trkpt>
      <trkpt lat="28.018306" lon="98.631078"><time>2026-04-28T11:32:56.093Z</time></trkpt>
      <trkpt lat="28.018306" lon="98.631078"><time>2026-04-28T11:32:56.109Z</time></trkpt>
      <trkpt lat="28.018306" lon="98.631078"><time>2026-04-28T11:32:56.126Z</time></trkpt>
      <trkpt lat="28.018306" lon="98.631078"><time>2026-04-28T11:32:56.143Z</time></trkpt>
      <trkpt lat="28.018298" lon="98.631077"><time>2026-04-28T11:32:56.159Z</time></trkpt>
      <trkpt lat="28.018298" lon="98.631077"><time>2026-04-28T11:32:56.176Z</time></trkpt>
      <trkpt lat="28.018298" lon="98.631077"><time>2026-04-28T11:32:56.193Z</time></trkpt>
      <trkpt lat="28.018298" lon="98.631077"><time>2026-04-28T11:32:56.209Z</time></trkpt>
      <trkpt lat="28.018298" lon="98.631077"><time>2026-04-28T11:32:56.226Z</time></trkpt>
      <trkpt lat="28.018298" lon="98.631077"><time>2026-04-28T11:32:56.243Z</time></trkpt>
      <trkpt lat="28.018289" lon="98.631076"><time>2026-04-28T11:32:56.260Z</time></trkpt>
      <trkpt lat="28.018289" lon="98.631076"><time>2026-04-28T11:32:56.276Z</time></trkpt>
      <trkpt lat="28.018289" lon="98.631076"><time>2026-04-28T11:32:56.293Z</time></trkpt>
      <trkpt lat="28.018289" lon="98.631076"><time>2026-04-28T11:32:56.310Z</time></trkpt>
      <trkpt lat="28.018289" lon="98.631076"><time>2026-04-28T11:32:56.326Z</time></trkpt>
      <trkpt lat="28.018289" lon="98.631076"><time>2026-04-28T11:32:56.343Z</time></trkpt>
      <trkpt lat="28.01828" lon="98.631075"><time>2026-04-28T11:32:56.360Z</time></trkpt>
      <trkpt lat="28.01828" lon="98.631075"><time>2026-04-28T11:32:56.376Z</time></trkpt>
      <trkpt lat="28.01828" lon="98.631075"><time>2026-04-28T11:32:56.393Z</time></trkpt>
      <trkpt lat="28.01828" lon="98.631075"><time>2026-04-28T11:32:56.410Z</time></trkpt>
      <trkpt lat="28.01828" lon="98.631075"><time>2026-04-28T11:32:56.426Z</time></trkpt>
      <trkpt lat="28.01828" lon="98.631075"><time>2026-04-28T11:32:56.443Z</time></trkpt>
      <trkpt lat="28.018271" lon="98.631075"><time>2026-04-28T11:32:56.460Z</time></trkpt>
      <trkpt lat="28.018271" lon="98.631075"><time>2026-04-28T11:32:56.476Z</time></trkpt>
      <trkpt lat="28.018271" lon="98.631075"><time>2026-04-28T11:32:56.493Z</time></trkpt>
      <trkpt lat="28.018271" lon="98.631075"><time>2026-04-28T11:32:56.510Z</time></trkpt>
      <trkpt lat="28.018271" lon="98.631075"><time>2026-04-28T11:32:56.526Z</time></trkpt>
      <trkpt lat="28.018271" lon="98.631075"><time>2026-04-28T11:32:56.543Z</time></trkpt>
      <trkpt lat="28.018262" lon="98.631074"><time>2026-04-28T11:32:56.560Z</time></trkpt>
      <trkpt lat="28.018262" lon="98.631074"><time>2026-04-28T11:32:56.577Z</time></trkpt>
      <trkpt lat="28.018262" lon="98.631074"><time>2026-04-28T11:32:56.593Z</time></trkpt>
      <trkpt lat="28.018262" lon="98.631074"><time>2026-04-28T11:32:56.610Z</time></trkpt>
      <trkpt lat="28.018262" lon="98.631074"><time>2026-04-28T11:32:56.627Z</time></trkpt>
      <trkpt lat="28.018262" lon="98.631074"><time>2026-04-28T11:32:56.643Z</time></trkpt>
      <trkpt lat="28.018253" lon="98.631073"><time>2026-04-28T11:32:56.660Z</time></trkpt>
      <trkpt lat="28.018253" lon="98.631073"><time>2026-04-28T11:32:56.677Z</time></trkpt>
      <trkpt lat="28.018253" lon="98.631073"><time>2026-04-28T11:32:56.693Z</time></trkpt>
      <trkpt lat="28.018253" lon="98.631073"><time>2026-04-28T11:32:56.710Z</time></trkpt>
      <trkpt lat="28.018253" lon="98.631073"><time>2026-04-28T11:32:56.727Z</time></trkpt>
      <trkpt lat="28.018253" lon="98.631073"><time>2026-04-28T11:32:56.743Z</time></trkpt>
      <trkpt lat="28.018244" lon="98.631072"><time>2026-04-28T11:32:56.760Z</time></trkpt>
      <trkpt lat="28.018244" lon="98.631072"><time>2026-04-28T11:32:56.777Z</time></trkpt>
      <trkpt lat="28.018244" lon="98.631072"><time>2026-04-28T11:32:56.793Z</time></trkpt>
      <trkpt lat="28.018244" lon="98.631072"><time>2026-04-28T11:32:56.810Z</time></trkpt>
      <trkpt lat="28.018244" lon="98.631072"><time>2026-04-28T11:32:56.827Z</time></trkpt>
      <trkpt lat="28.018244" lon="98.631072"><time>2026-04-28T11:32:56.843Z</time></trkpt>
      <trkpt lat="28.018235" lon="98.631071"><time>2026-04-28T11:32:56.860Z</time></trkpt>
      <trkpt lat="28.018235" lon="98.631071"><time>2026-04-28T11:32:56.877Z</time></trkpt>
      <trkpt lat="28.018235" lon="98.631071"><time>2026-04-28T11:32:56.894Z</time></trkpt>
      <trkpt lat="28.018235" lon="98.631071"><time>2026-04-28T11:32:56.910Z</time></trkpt>
      <trkpt lat="28.018235" lon="98.631071"><time>2026-04-28T11:32:56.927Z</time></trkpt>
      <trkpt lat="28.018235" lon="98.631071"><time>2026-04-28T11:32:56.944Z</time></trkpt>
      <trkpt lat="28.018226" lon="98.631071"><time>2026-04-28T11:32:56.960Z</time></trkpt>
      <trkpt lat="28.018226" lon="98.631071"><time>2026-04-28T11:32:56.977Z</time></trkpt>
      <trkpt lat="28.018226" lon="98.631071"><time>2026-04-28T11:32:56.994Z</time></trkpt>
      <trkpt lat="28.018226" lon="98.631071"><time>2026-04-28T11:32:57.010Z</time></trkpt>
      <trkpt lat="28.018226" lon="98.631071"><time>2026-04-28T11:32:57.027Z</time></trkpt>
      <trkpt lat="28.018226" lon="98.631071"><time>2026-04-28T11:32:57.044Z</time></trkpt>
      <trkpt lat="28.018217" lon="98.63107"><time>2026-04-28T11:32:57.060Z</time></trkpt>
      <trkpt lat="28.018217" lon="98.63107"><time>2026-04-28T11:32:57.077Z</time></trkpt>
      <trkpt lat="28.018217" lon="98.63107"><time>2026-04-28T11:32:57.094Z</time></trkpt>
      <trkpt lat="28.018217" lon="98.63107"><time>2026-04-28T11:32:57.110Z</time></trkpt>
      <trkpt lat="28.018217" lon="98.63107"><time>2026-04-28T11:32:57.127Z</time></trkpt>
      <trkpt lat="28.018217" lon="98.63107"><time>2026-04-28T11:32:57.144Z</time></trkpt>
      <trkpt lat="28.018208" lon="98.631069"><time>2026-04-28T11:32:57.160Z</time></trkpt>
      <trkpt lat="28.018208" lon="98.631069"><time>2026-04-28T11:32:57.177Z</time></trkpt>
      <trkpt lat="28.018208" lon="98.631069"><time>2026-04-28T11:32:57.194Z</time></trkpt>
      <trkpt lat="28.018208" lon="98.631069"><time>2026-04-28T11:32:57.211Z</time></trkpt>
      <trkpt lat="28.018208" lon="98.631069"><time>2026-04-28T11:32:57.227Z</time></trkpt>
      <trkpt lat="28.018208" lon="98.631069"><time>2026-04-28T11:32:57.244Z</time></trkpt>
      <trkpt lat="28.018199" lon="98.631068"><time>2026-04-28T11:32:57.261Z</time></trkpt>
      <trkpt lat="28.018199" lon="98.631068"><time>2026-04-28T11:32:57.277Z</time></trkpt>
      <trkpt lat="28.018199" lon="98.631068"><time>2026-04-28T11:32:57.294Z</time></trkpt>
      <trkpt lat="28.018199" lon="98.631068"><time>2026-04-28T11:32:57.311Z</time></trkpt>
      <trkpt lat="28.018199" lon="98.631068"><time>2026-04-28T11:32:57.327Z</time></trkpt>
      <trkpt lat="28.018199" lon="98.631068"><time>2026-04-28T11:32:57.344Z</time></trkpt>
      <trkpt lat="28.01819" lon="98.631068"><time>2026-04-28T11:32:57.361Z</time></trkpt>
      <trkpt lat="28.01819" lon="98.631068"><time>2026-04-28T11:32:57.377Z</time></trkpt>
      <trkpt lat="28.01819" lon="98.631068"><time>2026-04-28T11:32:57.394Z</time></trkpt>
      <trkpt lat="28.01819" lon="98.631068"><time>2026-04-28T11:32:57.411Z</time></trkpt>
      <trkpt lat="28.01819" lon="98.631068"><time>2026-04-28T11:32:57.427Z</time></trkpt>
      <trkpt lat="28.01819" lon="98.631068"><time>2026-04-28T11:32:57.444Z</time></trkpt>
      <trkpt lat="28.018181" lon="98.631067"><time>2026-04-28T11:32:57.461Z</time></trkpt>
      <trkpt lat="28.018181" lon="98.631067"><time>2026-04-28T11:32:57.477Z</time></trkpt>
      <trkpt lat="28.018181" lon="98.631067"><time>2026-04-28T11:32:57.494Z</time></trkpt>
      <trkpt lat="28.018181" lon="98.631067"><time>2026-04-28T11:32:57.511Z</time></trkpt>
      <trkpt lat="28.018181" lon="98.631067"><time>2026-04-28T11:32:57.528Z</time></trkpt>
      <trkpt lat="28.018181" lon="98.631067"><time>2026-04-28T11:32:57.544Z</time></trkpt>
      <trkpt lat="28.018172" lon="98.631066"><time>2026-04-28T11:32:57.561Z</time></trkpt>
      <trkpt lat="28.018172" lon="98.631066"><time>2026-04-28T11:32:57.578Z</time></trkpt>
      <trkpt lat="28.018172" lon="98.631066"><time>2026-04-28T11:32:57.594Z</time></trkpt>
      <trkpt lat="28.018172" lon="98.631066"><time>2026-04-28T11:32:57.611Z</time></trkpt>
      <trkpt lat="28.018172" lon="98.631066"><time>2026-04-28T11:32:57.628Z</time></trkpt>
      <trkpt lat="28.018172" lon="98.631066"><time>2026-04-28T11:32:57.644Z</time></trkpt>
      <trkpt lat="28.018164" lon="98.631065"><time>2026-04-28T11:32:57.661Z</time></trkpt>
      <trkpt lat="28.018164" lon="98.631065"><time>2026-04-28T11:32:57.678Z</time></trkpt>
      <trkpt lat="28.018164" lon="98.631065"><time>2026-04-28T11:32:57.694Z</time></trkpt>
      <trkpt lat="28.018164" lon="98.631065"><time>2026-04-28T11:32:57.711Z</time></trkpt>
      <trkpt lat="28.018164" lon="98.631065"><time>2026-04-28T11:32:57.728Z</time></trkpt>
      <trkpt lat="28.018164" lon="98.631065"><time>2026-04-28T11:32:57.744Z</time></trkpt>
      <trkpt lat="28.018155" lon="98.631065"><time>2026-04-28T11:32:57.761Z</time></trkpt>
      <trkpt lat="28.018155" lon="98.631065"><time>2026-04-28T11:32:57.778Z</time></trkpt>
      <trkpt lat="28.018155" lon="98.631065"><time>2026-04-28T11:32:57.794Z</time></trkpt>
      <trkpt lat="28.018155" lon="98.631065"><time>2026-04-28T11:32:57.811Z</time></trkpt>
      <trkpt lat="28.018155" lon="98.631065"><time>2026-04-28T11:32:57.828Z</time></trkpt>
      <trkpt lat="28.018155" lon="98.631065"><time>2026-04-28T11:32:57.845Z</time></trkpt>
      <trkpt lat="28.018146" lon="98.631064"><time>2026-04-28T11:32:57.861Z</time></trkpt>
      <trkpt lat="28.018146" lon="98.631064"><time>2026-04-28T11:32:57.878Z</time></trkpt>
      <trkpt lat="28.018146" lon="98.631064"><time>2026-04-28T11:32:57.895Z</time></trkpt>
      <trkpt lat="28.018146" lon="98.631064"><time>2026-04-28T11:32:57.911Z</time></trkpt>
      <trkpt lat="28.018146" lon="98.631064"><time>2026-04-28T11:32:57.928Z</time></trkpt>
      <trkpt lat="28.018146" lon="98.631064"><time>2026-04-28T11:32:57.945Z</time></trkpt>
      <trkpt lat="28.018137" lon="98.631062"><time>2026-04-28T11:32:57.961Z</time></trkpt>
      <trkpt lat="28.018137" lon="98.631062"><time>2026-04-28T11:32:57.978Z</time></trkpt>
      <trkpt lat="28.018137" lon="98.631062"><time>2026-04-28T11:32:57.995Z</time></trkpt>
      <trkpt lat="28.018137" lon="98.631062"><time>2026-04-28T11:32:58.011Z</time></trkpt>
      <trkpt lat="28.018137" lon="98.631062"><time>2026-04-28T11:32:58.028Z</time></trkpt>
      <trkpt lat="28.018137" lon="98.631062"><time>2026-04-28T11:32:58.045Z</time></trkpt>
      <trkpt lat="28.018129" lon="98.631061"><time>2026-04-28T11:32:58.061Z</time></trkpt>
      <trkpt lat="28.018129" lon="98.631061"><time>2026-04-28T11:32:58.078Z</time></trkpt>
      <trkpt lat="28.018129" lon="98.631061"><time>2026-04-28T11:32:58.095Z</time></trkpt>
      <trkpt lat="28.018129" lon="98.631061"><time>2026-04-28T11:32:58.111Z</time></trkpt>
      <trkpt lat="28.018129" lon="98.631061"><time>2026-04-28T11:32:58.128Z</time></trkpt>
      <trkpt lat="28.018129" lon="98.631061"><time>2026-04-28T11:32:58.145Z</time></trkpt>
      <trkpt lat="28.018122" lon="98.631059"><time>2026-04-28T11:32:58.162Z</time></trkpt>
      <trkpt lat="28.018122" lon="98.631059"><time>2026-04-28T11:32:58.178Z</time></trkpt>
      <trkpt lat="28.018122" lon="98.631059"><time>2026-04-28T11:32:58.195Z</time></trkpt>
      <trkpt lat="28.018122" lon="98.631059"><time>2026-04-28T11:32:58.212Z</time></trkpt>
      <trkpt lat="28.018122" lon="98.631059"><time>2026-04-28T11:32:58.228Z</time></trkpt>
      <trkpt lat="28.018122" lon="98.631059"><time>2026-04-28T11:32:58.245Z</time></trkpt>
      <trkpt lat="28.018115" lon="98.631057"><time>2026-04-28T11:32:58.262Z</time></trkpt>
      <trkpt lat="28.018115" lon="98.631057"><time>2026-04-28T11:32:58.278Z</time></trkpt>
      <trkpt lat="28.018115" lon="98.631057"><time>2026-04-28T11:32:58.295Z</time></trkpt>
      <trkpt lat="28.018115" lon="98.631057"><time>2026-04-28T11:32:58.312Z</time></trkpt>
      <trkpt lat="28.018115" lon="98.631057"><time>2026-04-28T11:32:58.328Z</time></trkpt>
      <trkpt lat="28.018115" lon="98.631057"><time>2026-04-28T11:32:58.345Z</time></trkpt>
      <trkpt lat="28.018109" lon="98.631055"><time>2026-04-28T11:32:58.362Z</time></trkpt>
      <trkpt lat="28.018109" lon="98.631055"><time>2026-04-28T11:32:58.378Z</time></trkpt>
      <trkpt lat="28.018109" lon="98.631055"><time>2026-04-28T11:32:58.395Z</time></trkpt>
      <trkpt lat="28.018109" lon="98.631055"><time>2026-04-28T11:32:58.412Z</time></trkpt>
      <trkpt lat="28.018109" lon="98.631055"><time>2026-04-28T11:32:58.428Z</time></trkpt>
      <trkpt lat="28.018109" lon="98.631055"><time>2026-04-28T11:32:58.445Z</time></trkpt>
      <trkpt lat="28.018103" lon="98.631053"><time>2026-04-28T11:32:58.462Z</time></trkpt>
      <trkpt lat="28.018103" lon="98.631053"><time>2026-04-28T11:32:58.479Z</time></trkpt>
      <trkpt lat="28.018103" lon="98.631053"><time>2026-04-28T11:32:58.495Z</time></trkpt>
      <trkpt lat="28.018103" lon="98.631053"><time>2026-04-28T11:32:58.512Z</time></trkpt>
      <trkpt lat="28.018103" lon="98.631053"><time>2026-04-28T11:32:58.529Z</time></trkpt>
      <trkpt lat="28.018103" lon="98.631053"><time>2026-04-28T11:32:58.545Z</time></trkpt>
      <trkpt lat="28.018098" lon="98.63105"><time>2026-04-28T11:32:58.562Z</time></trkpt>
      <trkpt lat="28.018098" lon="98.63105"><time>2026-04-28T11:32:58.579Z</time></trkpt>
      <trkpt lat="28.018098" lon="98.63105"><time>2026-04-28T11:32:58.595Z</time></trkpt>
      <trkpt lat="28.018098" lon="98.63105"><time>2026-04-28T11:32:58.612Z</time></trkpt>
      <trkpt lat="28.018098" lon="98.63105"><time>2026-04-28T11:32:58.629Z</time></trkpt>
      <trkpt lat="28.018098" lon="98.63105"><time>2026-04-28T11:32:58.645Z</time></trkpt>
      <trkpt lat="28.018094" lon="98.631047"><time>2026-04-28T11:32:58.662Z</time></trkpt>
      <trkpt lat="28.018094" lon="98.631047"><time>2026-04-28T11:32:58.679Z</time></trkpt>
      <trkpt lat="28.018094" lon="98.631047"><time>2026-04-28T11:32:58.695Z</time></trkpt>
      <trkpt lat="28.018094" lon="98.631047"><time>2026-04-28T11:32:58.712Z</time></trkpt>
      <trkpt lat="28.018094" lon="98.631047"><time>2026-04-28T11:32:58.729Z</time></trkpt>
      <trkpt lat="28.018094" lon="98.631047"><time>2026-04-28T11:32:58.745Z</time></trkpt>
      <trkpt lat="28.01809" lon="98.631045"><time>2026-04-28T11:32:58.762Z</time></trkpt>
      <trkpt lat="28.01809" lon="98.631045"><time>2026-04-28T11:32:58.779Z</time></trkpt>
      <trkpt lat="28.01809" lon="98.631045"><time>2026-04-28T11:32:58.796Z</time></trkpt>
      <trkpt lat="28.01809" lon="98.631045"><time>2026-04-28T11:32:58.812Z</time></trkpt>
      <trkpt lat="28.01809" lon="98.631045"><time>2026-04-28T11:32:58.829Z</time></trkpt>
      <trkpt lat="28.01809" lon="98.631045"><time>2026-04-28T11:32:58.846Z</time></trkpt>
      <trkpt lat="28.018087" lon="98.631042"><time>2026-04-28T11:32:58.862Z</time></trkpt>
      <trkpt lat="28.018087" lon="98.631042"><time>2026-04-28T11:32:58.879Z</time></trkpt>
      <trkpt lat="28.018087" lon="98.631042"><time>2026-04-28T11:32:58.896Z</time></trkpt>
      <trkpt lat="28.018087" lon="98.631042"><time>2026-04-28T11:32:58.912Z</time></trkpt>
      <trkpt lat="28.018087" lon="98.631042"><time>2026-04-28T11:32:58.929Z</time></trkpt>
      <trkpt lat="28.018087" lon="98.631042"><time>2026-04-28T11:32:58.946Z</time></trkpt>
      <trkpt lat="28.018084" lon="98.63104"><time>2026-04-28T11:32:58.962Z</time></trkpt>
      <trkpt lat="28.018084" lon="98.63104"><time>2026-04-28T11:32:58.979Z</time></trkpt>
      <trkpt lat="28.018084" lon="98.63104"><time>2026-04-28T11:32:58.996Z</time></trkpt>
      <trkpt lat="28.018084" lon="98.63104"><time>2026-04-28T11:32:59.012Z</time></trkpt>
      <trkpt lat="28.018084" lon="98.63104"><time>2026-04-28T11:32:59.029Z</time></trkpt>
      <trkpt lat="28.018084" lon="98.63104"><time>2026-04-28T11:32:59.046Z</time></trkpt>
      <trkpt lat="28.018082" lon="98.631039"><time>2026-04-28T11:32:59.062Z</time></trkpt>
      <trkpt lat="28.018082" lon="98.631039"><time>2026-04-28T11:32:59.079Z</time></trkpt>
      <trkpt lat="28.018082" lon="98.631039"><time>2026-04-28T11:32:59.096Z</time></trkpt>
      <trkpt lat="28.018082" lon="98.631039"><time>2026-04-28T11:32:59.113Z</time></trkpt>
      <trkpt lat="28.018082" lon="98.631039"><time>2026-04-28T11:32:59.129Z</time></trkpt>
      <trkpt lat="28.018082" lon="98.631039"><time>2026-04-28T11:32:59.146Z</time></trkpt>
      <trkpt lat="28.01808" lon="98.631037"><time>2026-04-28T11:32:59.163Z</time></trkpt>
      <trkpt lat="28.01808" lon="98.631037"><time>2026-04-28T11:32:59.179Z</time></trkpt>
      <trkpt lat="28.01808" lon="98.631037"><time>2026-04-28T11:32:59.196Z</time></trkpt>
      <trkpt lat="28.01808" lon="98.631037"><time>2026-04-28T11:32:59.213Z</time></trkpt>
      <trkpt lat="28.01808" lon="98.631037"><time>2026-04-28T11:32:59.229Z</time></trkpt>
      <trkpt lat="28.01808" lon="98.631037"><time>2026-04-28T11:32:59.246Z</time></trkpt>
      <trkpt lat="28.018079" lon="98.631036"><time>2026-04-28T11:32:59.263Z</time></trkpt>
      <trkpt lat="28.018079" lon="98.631036"><time>2026-04-28T11:32:59.279Z</time></trkpt>
      <trkpt lat="28.018079" lon="98.631036"><time>2026-04-28T11:32:59.296Z</time></trkpt>
      <trkpt lat="28.018079" lon="98.631036"><time>2026-04-28T11:32:59.313Z</time></trkpt>
      <trkpt lat="28.018079" lon="98.631036"><time>2026-04-28T11:32:59.329Z</time></trkpt>
      <trkpt lat="28.018079" lon="98.631036"><time>2026-04-28T11:32:59.346Z</time></trkpt>
      <trkpt lat="28.018078" lon="98.631035"><time>2026-04-28T11:32:59.363Z</time></trkpt>
      <trkpt lat="28.018078" lon="98.631035"><time>2026-04-28T11:32:59.379Z</time></trkpt>
      <trkpt lat="28.018078" lon="98.631035"><time>2026-04-28T11:32:59.396Z</time></trkpt>
      <trkpt lat="28.018078" lon="98.631035"><time>2026-04-28T11:32:59.413Z</time></trkpt>
      <trkpt lat="28.018078" lon="98.631035"><time>2026-04-28T11:32:59.430Z</time></trkpt>
      <trkpt lat="28.018078" lon="98.631035"><time>2026-04-28T11:32:59.446Z</time></trkpt>
      <trkpt lat="28.018078" lon="98.631034"><time>2026-04-28T11:32:59.463Z</time></trkpt>
      <trkpt lat="28.018078" lon="98.631034"><time>2026-04-28T11:32:59.480Z</time></trkpt>
      <trkpt lat="28.018078" lon="98.631034"><time>2026-04-28T11:32:59.496Z</time></trkpt>
      <trkpt lat="28.018078" lon="98.631034"><time>2026-04-28T11:32:59.513Z</time></trkpt>
      <trkpt lat="28.018078" lon="98.631034"><time>2026-04-28T11:32:59.530Z</time></trkpt>
      <trkpt lat="28.018078" lon="98.631034"><time>2026-04-28T11:32:59.546Z</time></trkpt>
      <trkpt lat="28.018077" lon="98.631034"><time>2026-04-28T11:32:59.563Z</time></trkpt>
      <trkpt lat="28.018077" lon="98.631034"><time>2026-04-28T11:32:59.580Z</time></trkpt>
      <trkpt lat="28.018077" lon="98.631034"><time>2026-04-28T11:32:59.596Z</time></trkpt>
      <trkpt lat="28.018077" lon="98.631034"><time>2026-04-28T11:32:59.613Z</time></trkpt>
      <trkpt lat="28.018077" lon="98.631034"><time>2026-04-28T11:32:59.630Z</time></trkpt>
      <trkpt lat="28.018077" lon="98.631034"><time>2026-04-28T11:32:59.646Z</time></trkpt>
      <trkpt lat="28.018077" lon="98.631034"><time>2026-04-28T11:32:59.663Z</time></trkpt>
      <trkpt lat="28.018077" lon="98.631034"><time>2026-04-28T11:32:59.680Z</time></trkpt>
      <trkpt lat="28.018077" lon="98.631034"><time>2026-04-28T11:32:59.696Z</time></trkpt>
      <trkpt lat="28.018077" lon="98.631034"><time>2026-04-28T11:32:59.713Z</time></trkpt>
      <trkpt lat="28.018077" lon="98.631034"><time>2026-04-28T11:32:59.730Z</time></trkpt>
      <trkpt lat="28.018077" lon="98.631034"><time>2026-04-28T11:32:59.747Z</time></trkpt>
      <trkpt lat="28.018077" lon="98.631034"><time>2026-04-28T11:32:59.763Z</time></trkpt>
      <trkpt lat="28.018077" lon="98.631034"><time>2026-04-28T11:32:59.780Z</time></trkpt>
      <trkpt lat="28.018077" lon="98.631034"><time>2026-04-28T11:32:59.797Z</time></trkpt>
      <trkpt lat="28.018077" lon="98.631034"><time>2026-04-28T11:32:59.813Z</time></trkpt>
      <trkpt lat="28.018077" lon="98.631034"><time>2026-04-28T11:32:59.830Z</time></trkpt>
      <trkpt lat="28.018077" lon="98.631034"><time>2026-04-28T11:32:59.847Z</time></trkpt>
      <trkpt lat="28.018077" lon="98.631034"><time>2026-04-28T11:32:59.863Z</time></trkpt>
      <trkpt lat="28.018077" lon="98.631034"><time>2026-04-28T11:32:59.880Z</time></trkpt>
      <trkpt lat="28.018077" lon="98.631034"><time>2026-04-28T11:32:59.897Z</time></trkpt>
      <trkpt lat="28.018077" lon="98.631034"><time>2026-04-28T11:32:59.913Z</time></trkpt>
      <trkpt lat="28.018077" lon="98.631034"><time>2026-04-28T11:32:59.930Z</time></trkpt>
      <trkpt lat="28.018077" lon="98.631034"><time>2026-04-28T11:32:59.947Z</time></trkpt>
      <trkpt lat="28.018077" lon="98.631034"><time>2026-04-28T11:32:59.963Z</time></trkpt>
      <trkpt lat="28.018077" lon="98.631034"><time>2026-04-28T11:32:59.980Z</time></trkpt>
      <trkpt lat="28.018077" lon="98.631034"><time>2026-04-28T11:32:59.997Z</time></trkpt>
      <trkpt lat="28.018077" lon="98.631034"><time>2026-04-28T11:33:00.013Z</time></trkpt>
      <trkpt lat="28.018077" lon="98.631034"><time>2026-04-28T11:33:00.030Z</time></trkpt>
      <trkpt lat="28.018077" lon="98.631034"><time>2026-04-28T11:33:00.047Z</time></trkpt>
      <trkpt lat="28.018076" lon="98.631034"><time>2026-04-28T11:33:00.064Z</time></trkpt>
      <trkpt lat="28.018076" lon="98.631034"><time>2026-04-28T11:33:00.080Z</time></trkpt>
      <trkpt lat="28.018076" lon="98.631034"><time>2026-04-28T11:33:00.097Z</time></trkpt>
      <trkpt lat="28.018076" lon="98.631034"><time>2026-04-28T11:33:00.114Z</time></trkpt>
      <trkpt lat="28.018076" lon="98.631034"><time>2026-04-28T11:33:00.130Z</time></trkpt>
      <trkpt lat="28.018076" lon="98.631034"><time>2026-04-28T11:33:00.147Z</time></trkpt>
      <trkpt lat="28.018076" lon="98.631034"><time>2026-04-28T11:33:00.164Z</time></trkpt>
      <trkpt lat="28.018076" lon="98.631034"><time>2026-04-28T11:33:00.180Z</time></trkpt>
      <trkpt lat="28.018076" lon="98.631034"><time>2026-04-28T11:33:00.197Z</time></trkpt>
      <trkpt lat="28.018076" lon="98.631034"><time>2026-04-28T11:33:00.214Z</time></trkpt>
      <trkpt lat="28.018076" lon="98.631034"><time>2026-04-28T11:33:00.230Z</time></trkpt>
      <trkpt lat="28.018076" lon="98.631034"><time>2026-04-28T11:33:00.247Z</time></trkpt>
      <trkpt lat="28.018076" lon="98.631034"><time>2026-04-28T11:33:00.264Z</time></trkpt>
      <trkpt lat="28.018076" lon="98.631034"><time>2026-04-28T11:33:00.280Z</time></trkpt>
      <trkpt lat="28.018076" lon="98.631034"><time>2026-04-28T11:33:00.297Z</time></trkpt>
      <trkpt lat="28.018076" lon="98.631034"><time>2026-04-28T11:33:00.314Z</time></trkpt>
      <trkpt lat="28.018076" lon="98.631034"><time>2026-04-28T11:33:00.330Z</time></trkpt>
      <trkpt lat="28.018076" lon="98.631034"><time>2026-04-28T11:33:00.347Z</time></trkpt>
      <trkpt lat="28.018076" lon="98.631033"><time>2026-04-28T11:33:00.364Z</time></trkpt>
      <trkpt lat="28.018076" lon="98.631033"><time>2026-04-28T11:33:00.380Z</time></trkpt>
      <trkpt lat="28.018076" lon="98.631033"><time>2026-04-28T11:33:00.397Z</time></trkpt>
      <trkpt lat="28.018076" lon="98.631033"><time>2026-04-28T11:33:00.414Z</time></trkpt>
      <trkpt lat="28.018076" lon="98.631033"><time>2026-04-28T11:33:00.431Z</time></trkpt>
      <trkpt lat="28.018076" lon="98.631033"><time>2026-04-28T11:33:00.447Z</time></trkpt>
      <trkpt lat="28.018076" lon="98.631033"><time>2026-04-28T11:33:00.464Z</time></trkpt>
      <trkpt lat="28.018076" lon="98.631033"><time>2026-04-28T11:33:00.481Z</time></trkpt>
      <trkpt lat="28.018076" lon="98.631033"><time>2026-04-28T11:33:00.497Z</time></trkpt>
      <trkpt lat="28.018076" lon="98.631033"><time>2026-04-28T11:33:00.514Z</time></trkpt>
      <trkpt lat="28.018076" lon="98.631033"><time>2026-04-28T11:33:00.531Z</time></trkpt>
      <trkpt lat="28.018076" lon="98.631033"><time>2026-04-28T11:33:00.547Z</time></trkpt>
      <trkpt lat="28.018076" lon="98.631033"><time>2026-04-28T11:33:00.564Z</time></trkpt>
      <trkpt lat="28.018076" lon="98.631033"><time>2026-04-28T11:33:00.581Z</time></trkpt>
      <trkpt lat="28.018076" lon="98.631033"><time>2026-04-28T11:33:00.597Z</time></trkpt>
      <trkpt lat="28.018076" lon="98.631033"><time>2026-04-28T11:33:00.614Z</time></trkpt>
      <trkpt lat="28.018076" lon="98.631033"><time>2026-04-28T11:33:00.631Z</time></trkpt>
      <trkpt lat="28.018076" lon="98.631033"><time>2026-04-28T11:33:00.647Z</time></trkpt>
      <trkpt lat="28.018076" lon="98.631033"><time>2026-04-28T11:33:00.664Z</time></trkpt>
      <trkpt lat="28.018076" lon="98.631033"><time>2026-04-28T11:33:00.681Z</time></trkpt>
      <trkpt lat="28.018076" lon="98.631033"><time>2026-04-28T11:33:00.697Z</time></trkpt>
      <trkpt lat="28.018076" lon="98.631033"><time>2026-04-28T11:33:00.714Z</time></trkpt>
      <trkpt lat="28.018076" lon="98.631033"><time>2026-04-28T11:33:00.731Z</time></trkpt>
      <trkpt lat="28.018076" lon="98.631033"><time>2026-04-28T11:33:00.748Z</time></trkpt>
      <trkpt lat="28.018075" lon="98.631033"><time>2026-04-28T11:33:00.764Z</time></trkpt>
      <trkpt lat="28.018075" lon="98.631033"><time>2026-04-28T11:33:00.781Z</time></trkpt>
      <trkpt lat="28.018075" lon="98.631033"><time>2026-04-28T11:33:00.798Z</time></trkpt>
      <trkpt lat="28.018075" lon="98.631033"><time>2026-04-28T11:33:00.814Z</time></trkpt>
      <trkpt lat="28.018075" lon="98.631033"><time>2026-04-28T11:33:00.831Z</time></trkpt>
      <trkpt lat="28.018075" lon="98.631033"><time>2026-04-28T11:33:00.848Z</time></trkpt>
      <trkpt lat="28.018075" lon="98.631033"><time>2026-04-28T11:33:00.864Z</time></trkpt>
      <trkpt lat="28.018075" lon="98.631033"><time>2026-04-28T11:33:00.881Z</time></trkpt>
      <trkpt lat="28.018075" lon="98.631033"><time>2026-04-28T11:33:00.898Z</time></trkpt>
      <trkpt lat="28.018075" lon="98.631033"><time>2026-04-28T11:33:00.914Z</time></trkpt>
      <trkpt lat="28.018075" lon="98.631033"><time>2026-04-28T11:33:00.931Z</time></trkpt>
      <trkpt lat="28.018075" lon="98.631033"><time>2026-04-28T11:33:00.948Z</time></trkpt>
      <trkpt lat="28.018075" lon="98.631033"><time>2026-04-28T11:33:00.964Z</time></trkpt>
      <trkpt lat="28.018075" lon="98.631033"><time>2026-04-28T11:33:00.981Z</time></trkpt>
      <trkpt lat="28.018075" lon="98.631033"><time>2026-04-28T11:33:00.998Z</time></trkpt>
      <trkpt lat="28.018075" lon="98.631033"><time>2026-04-28T11:33:01.014Z</time></trkpt>
      <trkpt lat="28.018075" lon="98.631033"><time>2026-04-28T11:33:01.031Z</time></trkpt>
      <trkpt lat="28.018075" lon="98.631033"><time>2026-04-28T11:33:01.048Z</time></trkpt>
      <trkpt lat="28.018075" lon="98.631033"><time>2026-04-28T11:33:01.065Z</time></trkpt>
      <trkpt lat="28.018075" lon="98.631033"><time>2026-04-28T11:33:01.081Z</time></trkpt>
      <trkpt lat="28.018075" lon="98.631033"><time>2026-04-28T11:33:01.098Z</time></trkpt>
      <trkpt lat="28.018075" lon="98.631033"><time>2026-04-28T11:33:01.115Z</time></trkpt>
      <trkpt lat="28.018075" lon="98.631033"><time>2026-04-28T11:33:01.131Z</time></trkpt>
      <trkpt lat="28.018075" lon="98.631033"><time>2026-04-28T11:33:01.148Z</time></trkpt>
      <trkpt lat="28.018075" lon="98.631033"><time>2026-04-28T11:33:01.165Z</time></trkpt>
      <trkpt lat="28.018075" lon="98.631033"><time>2026-04-28T11:33:01.181Z</time></trkpt>
      <trkpt lat="28.018075" lon="98.631033"><time>2026-04-28T11:33:01.198Z</time></trkpt>
      <trkpt lat="28.018075" lon="98.631033"><time>2026-04-28T11:33:01.215Z</time></trkpt>
      <trkpt lat="28.018075" lon="98.631033"><time>2026-04-28T11:33:01.231Z</time></trkpt>
      <trkpt lat="28.018075" lon="98.631033"><time>2026-04-28T11:33:01.248Z</time></trkpt>
      <trkpt lat="28.018075" lon="98.631033"><time>2026-04-28T11:33:01.265Z</time></trkpt>
      <trkpt lat="28.018075" lon="98.631033"><time>2026-04-28T11:33:01.281Z</time></trkpt>
      <trkpt lat="28.018075" lon="98.631033"><time>2026-04-28T11:33:01.298Z</time></trkpt>
      <trkpt lat="28.018075" lon="98.631033"><time>2026-04-28T11:33:01.315Z</time></trkpt>
      <trkpt lat="28.018075" lon="98.631033"><time>2026-04-28T11:33:01.331Z</time></trkpt>
      <trkpt lat="28.018075" lon="98.631033"><time>2026-04-28T11:33:01.348Z</time></trkpt>
    </trkseg>
  </trk>
</gpx>
