<?xml version="1.0" encoding="UTF-8"?>
<gpx version="1.1" creator="Kairos" xmlns="http://www.topografix.com/GPX/1/1">
  <trk>
    <name>sidecar-srt-c2c53dceef078154</name>
    <trkseg>
      <trkpt lat="29.518055" lon="101.721229"><time>2026-05-03T22:08:08.000Z</time></trkpt>
      <trkpt lat="29.518055" lon="101.721229"><time>2026-05-03T22:08:08.016Z</time></trkpt>
      <trkpt lat="29.518055" lon="101.721229"><time>2026-05-03T22:08:08.032Z</time></trkpt>
      <trkpt lat="29.518055" lon="101.721229"><time>2026-05-03T22:08:08.049Z</time></trkpt>
      <trkpt lat="29.518055" lon="101.721229"><time>2026-05-03T22:08:08.066Z</time></trkpt>
      <trkpt lat="29.518055" lon="101.721229"><time>2026-05-03T22:08:08.082Z</time></trkpt>
      <trkpt lat="29.518055" lon="101.721229"><time>2026-05-03T22:08:08.099Z</time></trkpt>
      <trkpt lat="29.518055" lon="101.721229"><time>2026-05-03T22:08:08.116Z</time></trkpt>
      <trkpt lat="29.518055" lon="101.721229"><time>2026-05-03T22:08:08.132Z</time></trkpt>
      <trkpt lat="29.518055" lon="101.721229"><time>2026-05-03T22:08:08.149Z</time></trkpt>
      <trkpt lat="29.518055" lon="101.721229"><time>2026-05-03T22:08:08.166Z</time></trkpt>
      <trkpt lat="29.518055" lon="101.721229"><time>2026-05-03T22:08:08.182Z</time></trkpt>
      <trkpt lat="29.518055" lon="101.721229"><time>2026-05-03T22:08:08.199Z</time></trkpt>
      <trkpt lat="29.518055" lon="101.721229"><time>2026-05-03T22:08:08.216Z</time></trkpt>
      <trkpt lat="29.518055" lon="101.721229"><time>2026-05-03T22:08:08.232Z</time></trkpt>
      <trkpt lat="29.518055" lon="101.721229"><time>2026-05-03T22:08:08.249Z</time></trkpt>
      <trkpt lat="29.518055" lon="101.721229"><time>2026-05-03T22:08:08.266Z</time></trkpt>
      <trkpt lat="29.518055" lon="101.721229"><time>2026-05-03T22:08:08.282Z</time></trkpt>
      <trkpt lat="29.518055" lon="101.721229"><time>2026-05-03T22:08:08.299Z</time></trkpt>
      <trkpt lat="29.518055" lon="101.721229"><time>2026-05-03T22:08:08.316Z</time></trkpt>
      <trkpt lat="29.518055" lon="101.721229"><time>2026-05-03T22:08:08.333Z</time></trkpt>
      <trkpt lat="29.518055" lon="101.721229"><time>2026-05-03T22:08:08.349Z</time></trkpt>
      <trkpt lat="29.518055" lon="101.721229"><time>2026-05-03T22:08:08.366Z</time></trkpt>
      <trkpt lat="29.518055" lon="101.721229"><time>2026-05-03T22:08:08.383Z</time></trkpt>
      <trkpt lat="29.518055" lon="101.721229"><time>2026-05-03T22:08:08.399Z</time></trkpt>
      <trkpt lat="29.518055" lon="101.721229"><time>2026-05-03T22:08:08.416Z</time></trkpt>
      <trkpt lat="29.518055" lon="101.721229"><time>2026-05-03T22:08:08.433Z</time></trkpt>
      <trkpt lat="29.518055" lon="101.721229"><time>2026-05-03T22:08:08.449Z</time></trkpt>
      <trkpt lat="29.518055" lon="101.721229"><time>2026-05-03T22:08:08.466Z</time></trkpt>
      <trkpt lat="29.518055" lon="101.721229"><time>2026-05-03T22:08:08.483Z</time></trkpt>
      <trkpt lat="29.518055" lon="101.721229"><time>2026-05-03T22:08:08.499Z</time></trkpt>
      <trkpt lat="29.518055" lon="101.721229"><time>2026-05-03T22:08:08.516Z</time></trkpt>
      <trkpt lat="29.518055" lon="101.721229"><time>2026-05-03T22:08:08.533Z</time></trkpt>
      <trkpt lat="29.518055" lon="101.721229"><time>2026-05-03T22:08:08.549Z</time></trkpt>
      <trkpt lat="29.518056" lon="101.721229"><time>2026-05-03T22:08:08.566Z</time></trkpt>
      <trkpt lat="29.518056" lon="101.721229"><time>2026-05-03T22:08:08.583Z</time></trkpt>
      <trkpt lat="29.518056" lon="101.721229"><time>2026-05-03T22:08:08.599Z</time></trkpt>
      <trkpt lat="29.518056" lon="101.721229"><time>2026-05-03T22:08:08.616Z</time></trkpt>
      <trkpt lat="29.518056" lon="101.721229"><time>2026-05-03T22:08:08.633Z</time></trkpt>
      <trkpt lat="29.518056" lon="101.721229"><time>2026-05-03T22:08:08.650Z</time></trkpt>
      <trkpt lat="29.518056" lon="101.721229"><time>2026-05-03T22:08:08.666Z</time></trkpt>
      <trkpt lat="29.518056" lon="101.721229"><time>2026-05-03T22:08:08.683Z</time></trkpt>
      <trkpt lat="29.518056" lon="101.721229"><time>2026-05-03T22:08:08.700Z</time></trkpt>
      <trkpt lat="29.518056" lon="101.721229"><time>2026-05-03T22:08:08.716Z</time></trkpt>
      <trkpt lat="29.518056" lon="101.721229"><time>2026-05-03T22:08:08.733Z</time></trkpt>
      <trkpt lat="29.518056" lon="101.721229"><time>2026-05-03T22:08:08.750Z</time></trkpt>
      <trkpt lat="29.518056" lon="101.721229"><time>2026-05-03T22:08:08.766Z</time></trkpt>
      <trkpt lat="29.518056" lon="101.721229"><time>2026-05-03T22:08:08.783Z</time></trkpt>
      <trkpt lat="29.518056" lon="101.721229"><time>2026-05-03T22:08:08.800Z</time></trkpt>
      <trkpt lat="29.518056" lon="101.721229"><time>2026-05-03T22:08:08.816Z</time></trkpt>
      <trkpt lat="29.518056" lon="101.721229"><time>2026-05-03T22:08:08.833Z</time></trkpt>
      <trkpt lat="29.518056" lon="101.721229"><time>2026-05-03T22:08:08.850Z</time></trkpt>
      <trkpt lat="29.518056" lon="101.721229"><time>2026-05-03T22:08:08.866Z</time></trkpt>
      <trkpt lat="29.518056" lon="101.721229"><time>2026-05-03T22:08:08.883Z</time></trkpt>
      <trkpt lat="29.518056" lon="101.721229"><time>2026-05-03T22:08:08.900Z</time></trkpt>
      <trkpt lat="29.518056" lon="101.721229"><time>2026-05-03T22:08:08.916Z</time></trkpt>
      <trkpt lat="29.518056" lon="101.721229"><time>2026-05-03T22:08:08.933Z</time></trkpt>
      <trkpt lat="29.518056" lon="101.721229"><time>2026-05-03T22:08:08.950Z</time></trkpt>
      <trkpt lat="29.518055" lon="101.721229"><time>2026-05-03T22:08:08.967Z</time></trkpt>
      <trkpt lat="29.518055" lon="101.721229"><time>2026-05-03T22:08:08.983Z</time></trkpt>
      <trkpt lat="29.518055" lon="101.721229"><time>2026-05-03T22:08:09.000Z</time></trkpt>
      <trkpt lat="29.518055" lon="101.721229"><time>2026-05-03T22:08:09.017Z</time></trkpt>
      <trkpt lat="29.518055" lon="101.721229"><time>2026-05-03T22:08:09.033Z</time></trkpt>
      <trkpt lat="29.518055" lon="101.721229"><time>2026-05-03T22:08:09.050Z</time></trkpt>
      <trkpt lat="29.518055" lon="101.721229"><time>2026-05-03T22:08:09.067Z</time></trkpt>
      <trkpt lat="29.518055" lon="101.721229"><time>2026-05-03T22:08:09.083Z</time></trkpt>
      <trkpt lat="29.518055" lon="101.721229"><time>2026-05-03T22:08:09.100Z</time></trkpt>
      <trkpt lat="29.518055" lon="101.721229"><time>2026-05-03T22:08:09.117Z</time></trkpt>
      <trkpt lat="29.518055" lon="101.721229"><time>2026-05-03T22:08:09.133Z</time></trkpt>
      <trkpt lat="29.518055" lon="101.721229"><time>2026-05-03T22:08:09.150Z</time></trkpt>
      <trkpt lat="29.518055" lon="101.721229"><time>2026-05-03T22:08:09.167Z</time></trkpt>
      <trkpt lat="29.518055" lon="101.721229"><time>2026-05-03T22:08:09.183Z</time></trkpt>
      <trkpt lat="29.518055" lon="101.721229"><time>2026-05-03T22:08:09.200Z</time></trkpt>
      <trkpt lat="29.518055" lon="101.721229"><time>2026-05-03T22:08:09.217Z</time></trkpt>
      <trkpt lat="29.518055" lon="101.721229"><time>2026-05-03T22:08:09.233Z</time></trkpt>
      <trkpt lat="29.518055" lon="101.721229"><time>2026-05-03T22:08:09.250Z</time></trkpt>
      <trkpt lat="29.518055" lon="101.721229"><time>2026-05-03T22:08:09.267Z</time></trkpt>
      <trkpt lat="29.518055" lon="101.721229"><time>2026-05-03T22:08:09.283Z</time></trkpt>
      <trkpt lat="29.518055" lon="101.721229"><time>2026-05-03T22:08:09.300Z</time></trkpt>
      <trkpt lat="29.518055" lon="101.721229"><time>2026-05-03T22:08:09.317Z</time></trkpt>
      <trkpt lat="29.518055" lon="101.721229"><time>2026-05-03T22:08:09.334Z</time></trkpt>
      <trkpt lat="29.518055" lon="101.721229"><time>2026-05-03T22:08:09.350Z</time></trkpt>
      <trkpt lat="29.518055" lon="101.721229"><time>2026-05-03T22:08:09.367Z</time></trkpt>
      <trkpt lat="29.518055" lon="101.721229"><time>2026-05-03T22:08:09.384Z</time></trkpt>
      <trkpt lat="29.518055" lon="101.721229"><time>2026-05-03T22:08:09.400Z</time></trkpt>
      <trkpt lat="29.518055" lon="101.721229"><time>2026-05-03T22:08:09.417Z</time></trkpt>
      <trkpt lat="29.518055" lon="101.721229"><time>2026-05-03T22:08:09.434Z</time></trkpt>
      <trkpt lat="29.518055" lon="101.721229"><time>2026-05-03T22:08:09.450Z</time></trkpt>
      <trkpt lat="29.518055" lon="101.721229"><time>2026-05-03T22:08:09.467Z</time></trkpt>
      <trkpt lat="29.518055" lon="101.721229"><time>2026-05-03T22:08:09.484Z</time></trkpt>
      <trkpt lat="29.518055" lon="101.721229"><time>2026-05-03T22:08:09.500Z</time></trkpt>
      <trkpt lat="29.518055" lon="101.721229"><time>2026-05-03T22:08:09.517Z</time></trkpt>
      <trkpt lat="29.518055" lon="101.721229"><time>2026-05-03T22:08:09.534Z</time></trkpt>
      <trkpt lat="29.518055" lon="101.721229"><time>2026-05-03T22:08:09.550Z</time></trkpt>
      <trkpt lat="29.518055" lon="101.721229"><time>2026-05-03T22:08:09.567Z</time></trkpt>
      <trkpt lat="29.518055" lon="101.721229"><time>2026-05-03T22:08:09.584Z</time></trkpt>
      <trkpt lat="29.518055" lon="101.721229"><time>2026-05-03T22:08:09.600Z</time></trkpt>
      <trkpt lat="29.518055" lon="101.721229"><time>2026-05-03T22:08:09.617Z</time></trkpt>
      <trkpt lat="29.518055" lon="101.721229"><time>2026-05-03T22:08:09.634Z</time></trkpt>
      <trkpt lat="29.518055" lon="101.721229"><time>2026-05-03T22:08:09.651Z</time></trkpt>
      <trkpt lat="29.518055" lon="101.721229"><time>2026-05-03T22:08:09.667Z</time></trkpt>
      <trkpt lat="29.518055" lon="101.721229"><time>2026-05-03T22:08:09.684Z</time></trkpt>
      <trkpt lat="29.518055" lon="101.721229"><time>2026-05-03T22:08:09.701Z</time></trkpt>
      <trkpt lat="29.518055" lon="101.721229"><time>2026-05-03T22:08:09.717Z</time></trkpt>
      <trkpt lat="29.518055" lon="101.721229"><time>2026-05-03T22:08:09.734Z</time></trkpt>
      <trkpt lat="29.518055" lon="101.721229"><time>2026-05-03T22:08:09.751Z</time></trkpt>
      <trkpt lat="29.518055" lon="101.721229"><time>2026-05-03T22:08:09.767Z</time></trkpt>
      <trkpt lat="29.518055" lon="101.721229"><time>2026-05-03T22:08:09.784Z</time></trkpt>
      <trkpt lat="29.518055" lon="101.721229"><time>2026-05-03T22:08:09.801Z</time></trkpt>
      <trkpt lat="29.518055" lon="101.721229"><time>2026-05-03T22:08:09.817Z</time></trkpt>
      <trkpt lat="29.518055" lon="101.721229"><time>2026-05-03T22:08:09.834Z</time></trkpt>
      <trkpt lat="29.518055" lon="101.721229"><time>2026-05-03T22:08:09.851Z</time></trkpt>
      <trkpt lat="29.518055" lon="101.721229"><time>2026-05-03T22:08:09.867Z</time></trkpt>
      <trkpt lat="29.518055" lon="101.721229"><time>2026-05-03T22:08:09.884Z</time></trkpt>
      <trkpt lat="29.518055" lon="101.721229"><time>2026-05-03T22:08:09.901Z</time></trkpt>
      <trkpt lat="29.518055" lon="101.721229"><time>2026-05-03T22:08:09.917Z</time></trkpt>
      <trkpt lat="29.518055" lon="101.721229"><time>2026-05-03T22:08:09.934Z</time></trkpt>
      <trkpt lat="29.518055" lon="101.721229"><time>2026-05-03T22:08:09.951Z</time></trkpt>
      <trkpt lat="29.518055" lon="101.721229"><time>2026-05-03T22:08:09.968Z</time></trkpt>
      <trkpt lat="29.518055" lon="101.721229"><time>2026-05-03T22:08:09.984Z</time></trkpt>
      <trkpt lat="29.518055" lon="101.721229"><time>2026-05-03T22:08:10.001Z</time></trkpt>
      <trkpt lat="29.518055" lon="101.721229"><time>2026-05-03T22:08:10.018Z</time></trkpt>
      <trkpt lat="29.518055" lon="101.721229"><time>2026-05-03T22:08:10.034Z</time></trkpt>
      <trkpt lat="29.518055" lon="101.721229"><time>2026-05-03T22:08:10.051Z</time></trkpt>
      <trkpt lat="29.518055" lon="101.721229"><time>2026-05-03T22:08:10.068Z</time></trkpt>
      <trkpt lat="29.518055" lon="101.721229"><time>2026-05-03T22:08:10.084Z</time></trkpt>
      <trkpt lat="29.518055" lon="101.721229"><time>2026-05-03T22:08:10.101Z</time></trkpt>
      <trkpt lat="29.518055" lon="101.721229"><time>2026-05-03T22:08:10.118Z</time></trkpt>
      <trkpt lat="29.518055" lon="101.721229"><time>2026-05-03T22:08:10.134Z</time></trkpt>
      <trkpt lat="29.518055" lon="101.721229"><time>2026-05-03T22:08:10.151Z</time></trkpt>
      <trkpt lat="29.518055" lon="101.721229"><time>2026-05-03T22:08:10.168Z</time></trkpt>
      <trkpt lat="29.518055" lon="101.721229"><time>2026-05-03T22:08:10.184Z</time></trkpt>
      <trkpt lat="29.518055" lon="101.721229"><time>2026-05-03T22:08:10.201Z</time></trkpt>
      <trkpt lat="29.518055" lon="101.721229"><time>2026-05-03T22:08:10.218Z</time></trkpt>
      <trkpt lat="29.518055" lon="101.721229"><time>2026-05-03T22:08:10.234Z</time></trkpt>
      <trkpt lat="29.518055" lon="101.721229"><time>2026-05-03T22:08:10.251Z</time></trkpt>
      <trkpt lat="29.518055" lon="101.721229"><time>2026-05-03T22:08:10.268Z</time></trkpt>
      <trkpt lat="29.518055" lon="101.721229"><time>2026-05-03T22:08:10.285Z</time></trkpt>
      <trkpt lat="29.518055" lon="101.721229"><time>2026-05-03T22:08:10.301Z</time></trkpt>
      <trkpt lat="29.518055" lon="101.721229"><time>2026-05-03T22:08:10.318Z</time></trkpt>
      <trkpt lat="29.518055" lon="101.721229"><time>2026-05-03T22:08:10.335Z</time></trkpt>
      <trkpt lat="29.518055" lon="101.721229"><time>2026-05-03T22:08:10.351Z</time></trkpt>
      <trkpt lat="29.518055" lon="101.721229"><time>2026-05-03T22:08:10.368Z</time></trkpt>
      <trkpt lat="29.518055" lon="101.721229"><time>2026-05-03T22:08:10.385Z</time></trkpt>
      <trkpt lat="29.518055" lon="101.721229"><time>2026-05-03T22:08:10.401Z</time></trkpt>
      <trkpt lat="29.518055" lon="101.721229"><time>2026-05-03T22:08:10.418Z</time></trkpt>
      <trkpt lat="29.518055" lon="101.721229"><time>2026-05-03T22:08:10.435Z</time></trkpt>
      <trkpt lat="29.518055" lon="101.721229"><time>2026-05-03T22:08:10.451Z</time></trkpt>
      <trkpt lat="29.518055" lon="101.721229"><time>2026-05-03T22:08:10.468Z</time></trkpt>
      <trkpt lat="29.518055" lon="101.721229"><time>2026-05-03T22:08:10.485Z</time></trkpt>
      <trkpt lat="29.518055" lon="101.721229"><time>2026-05-03T22:08:10.501Z</time></trkpt>
      <trkpt lat="29.518055" lon="101.721229"><time>2026-05-03T22:08:10.518Z</time></trkpt>
      <trkpt lat="29.518055" lon="101.721229"><time>2026-05-03T22:08:10.535Z</time></trkpt>
      <trkpt lat="29.518055" lon="101.721229"><time>2026-05-03T22:08:10.551Z</time></trkpt>
      <trkpt lat="29.518055" lon="101.721229"><time>2026-05-03T22:08:10.568Z</time></trkpt>
      <trkpt lat="29.518055" lon="101.721229"><time>2026-05-03T22:08:10.585Z</time></trkpt>
      <trkpt lat="29.518055" lon="101.721229"><time>2026-05-03T22:08:10.602Z</time></trkpt>
      <trkpt lat="29.518055" lon="101.721229"><time>2026-05-03T22:08:10.618Z</time></trkpt>
      <trkpt lat="29.518055" lon="101.721229"><time>2026-05-03T22:08:10.635Z</time></trkpt>
      <trkpt lat="29.518055" lon="101.721229"><time>2026-05-03T22:08:10.652Z</time></trkpt>
      <trkpt lat="29.518055" lon="101.721229"><time>2026-05-03T22:08:10.668Z</time></trkpt>
      <trkpt lat="29.518055" lon="101.721229"><time>2026-05-03T22:08:10.685Z</time></trkpt>
      <trkpt lat="29.518055" lon="101.721229"><time>2026-05-03T22:08:10.702Z</time></trkpt>
      <trkpt lat="29.518055" lon="101.721229"><time>2026-05-03T22:08:10.718Z</time></trkpt>
      <trkpt lat="29.518055" lon="101.721229"><time>2026-05-03T22:08:10.735Z</time></trkpt>
      <trkpt lat="29.518055" lon="101.721229"><time>2026-05-03T22:08:10.752Z</time></trkpt>
    </trkseg>
  </trk>
</gpx>
