<?xml version="1.0" encoding="UTF-8"?>
<gpx version="1.1" creator="Kairos" xmlns="http://www.topografix.com/GPX/1/1">
  <trk>
    <name>sidecar-srt-379c21225f919eb3</name>
    <trkseg>
      <trkpt lat="22.524765" lon="108.729922"><time>2026-04-25T01:50:52.000Z</time></trkpt>
      <trkpt lat="22.524765" lon="108.729922"><time>2026-04-25T01:50:52.016Z</time></trkpt>
      <trkpt lat="22.524765" lon="108.729922"><time>2026-04-25T01:50:52.032Z</time></trkpt>
      <trkpt lat="22.524765" lon="108.729922"><time>2026-04-25T01:50:52.049Z</time></trkpt>
      <trkpt lat="22.524765" lon="108.729922"><time>2026-04-25T01:50:52.066Z</time></trkpt>
      <trkpt lat="22.524764" lon="108.729924"><time>2026-04-25T01:50:52.082Z</time></trkpt>
      <trkpt lat="22.524764" lon="108.729924"><time>2026-04-25T01:50:52.099Z</time></trkpt>
      <trkpt lat="22.524764" lon="108.729924"><time>2026-04-25T01:50:52.116Z</time></trkpt>
      <trkpt lat="22.524764" lon="108.729924"><time>2026-04-25T01:50:52.132Z</time></trkpt>
      <trkpt lat="22.524764" lon="108.729924"><time>2026-04-25T01:50:52.149Z</time></trkpt>
      <trkpt lat="22.524764" lon="108.729924"><time>2026-04-25T01:50:52.166Z</time></trkpt>
      <trkpt lat="22.524763" lon="108.729926"><time>2026-04-25T01:50:52.182Z</time></trkpt>
      <trkpt lat="22.524763" lon="108.729926"><time>2026-04-25T01:50:52.199Z</time></trkpt>
      <trkpt lat="22.524763" lon="108.729926"><time>2026-04-25T01:50:52.216Z</time></trkpt>
      <trkpt lat="22.524763" lon="108.729926"><time>2026-04-25T01:50:52.232Z</time></trkpt>
      <trkpt lat="22.524763" lon="108.729926"><time>2026-04-25T01:50:52.249Z</time></trkpt>
      <trkpt lat="22.524763" lon="108.729926"><time>2026-04-25T01:50:52.266Z</time></trkpt>
      <trkpt lat="22.524762" lon="108.729928"><time>2026-04-25T01:50:52.282Z</time></trkpt>
      <trkpt lat="22.524762" lon="108.729928"><time>2026-04-25T01:50:52.299Z</time></trkpt>
      <trkpt lat="22.524762" lon="108.729928"><time>2026-04-25T01:50:52.316Z</time></trkpt>
      <trkpt lat="22.524762" lon="108.729928"><time>2026-04-25T01:50:52.333Z</time></trkpt>
      <trkpt lat="22.524762" lon="108.729928"><time>2026-04-25T01:50:52.349Z</time></trkpt>
      <trkpt lat="22.524762" lon="108.729928"><time>2026-04-25T01:50:52.366Z</time></trkpt>
      <trkpt lat="22.52476" lon="108.729931"><time>2026-04-25T01:50:52.383Z</time></trkpt>
      <trkpt lat="22.52476" lon="108.729931"><time>2026-04-25T01:50:52.399Z</time></trkpt>
      <trkpt lat="22.52476" lon="108.729931"><time>2026-04-25T01:50:52.416Z</time></trkpt>
      <trkpt lat="22.52476" lon="108.729931"><time>2026-04-25T01:50:52.433Z</time></trkpt>
      <trkpt lat="22.52476" lon="108.729931"><time>2026-04-25T01:50:52.449Z</time></trkpt>
      <trkpt lat="22.52476" lon="108.729931"><time>2026-04-25T01:50:52.466Z</time></trkpt>
      <trkpt lat="22.524758" lon="108.729934"><time>2026-04-25T01:50:52.483Z</time></trkpt>
      <trkpt lat="22.524758" lon="108.729934"><time>2026-04-25T01:50:52.499Z</time></trkpt>
      <trkpt lat="22.524758" lon="108.729934"><time>2026-04-25T01:50:52.516Z</time></trkpt>
      <trkpt lat="22.524758" lon="108.729934"><time>2026-04-25T01:50:52.533Z</time></trkpt>
      <trkpt lat="22.524758" lon="108.729934"><time>2026-04-25T01:50:52.549Z</time></trkpt>
      <trkpt lat="22.524758" lon="108.729934"><time>2026-04-25T01:50:52.566Z</time></trkpt>
      <trkpt lat="22.524755" lon="108.729939"><time>2026-04-25T01:50:52.583Z</time></trkpt>
      <trkpt lat="22.524755" lon="108.729939"><time>2026-04-25T01:50:52.599Z</time></trkpt>
      <trkpt lat="22.524755" lon="108.729939"><time>2026-04-25T01:50:52.616Z</time></trkpt>
      <trkpt lat="22.524755" lon="108.729939"><time>2026-04-25T01:50:52.633Z</time></trkpt>
      <trkpt lat="22.524755" lon="108.729939"><time>2026-04-25T01:50:52.650Z</time></trkpt>
      <trkpt lat="22.524755" lon="108.729939"><time>2026-04-25T01:50:52.666Z</time></trkpt>
      <trkpt lat="22.524752" lon="108.729943"><time>2026-04-25T01:50:52.683Z</time></trkpt>
      <trkpt lat="22.524752" lon="108.729943"><time>2026-04-25T01:50:52.700Z</time></trkpt>
      <trkpt lat="22.524752" lon="108.729943"><time>2026-04-25T01:50:52.716Z</time></trkpt>
      <trkpt lat="22.524752" lon="108.729943"><time>2026-04-25T01:50:52.733Z</time></trkpt>
      <trkpt lat="22.524752" lon="108.729943"><time>2026-04-25T01:50:52.750Z</time></trkpt>
      <trkpt lat="22.524752" lon="108.729943"><time>2026-04-25T01:50:52.766Z</time></trkpt>
      <trkpt lat="22.524749" lon="108.729948"><time>2026-04-25T01:50:52.783Z</time></trkpt>
      <trkpt lat="22.524749" lon="108.729948"><time>2026-04-25T01:50:52.800Z</time></trkpt>
      <trkpt lat="22.524749" lon="108.729948"><time>2026-04-25T01:50:52.816Z</time></trkpt>
      <trkpt lat="22.524749" lon="108.729948"><time>2026-04-25T01:50:52.833Z</time></trkpt>
      <trkpt lat="22.524749" lon="108.729948"><time>2026-04-25T01:50:52.850Z</time></trkpt>
      <trkpt lat="22.524749" lon="108.729948"><time>2026-04-25T01:50:52.866Z</time></trkpt>
      <trkpt lat="22.524746" lon="108.729953"><time>2026-04-25T01:50:52.883Z</time></trkpt>
      <trkpt lat="22.524746" lon="108.729953"><time>2026-04-25T01:50:52.900Z</time></trkpt>
      <trkpt lat="22.524746" lon="108.729953"><time>2026-04-25T01:50:52.916Z</time></trkpt>
      <trkpt lat="22.524746" lon="108.729953"><time>2026-04-25T01:50:52.933Z</time></trkpt>
      <trkpt lat="22.524746" lon="108.729953"><time>2026-04-25T01:50:52.950Z</time></trkpt>
      <trkpt lat="22.524746" lon="108.729953"><time>2026-04-25T01:50:52.967Z</time></trkpt>
      <trkpt lat="22.524743" lon="108.729959"><time>2026-04-25T01:50:52.983Z</time></trkpt>
      <trkpt lat="22.524743" lon="108.729959"><time>2026-04-25T01:50:53.000Z</time></trkpt>
      <trkpt lat="22.524743" lon="108.729959"><time>2026-04-25T01:50:53.017Z</time></trkpt>
      <trkpt lat="22.524743" lon="108.729959"><time>2026-04-25T01:50:53.033Z</time></trkpt>
      <trkpt lat="22.524743" lon="108.729959"><time>2026-04-25T01:50:53.050Z</time></trkpt>
      <trkpt lat="22.524743" lon="108.729959"><time>2026-04-25T01:50:53.067Z</time></trkpt>
      <trkpt lat="22.524739" lon="108.729965"><time>2026-04-25T01:50:53.083Z</time></trkpt>
      <trkpt lat="22.524739" lon="108.729965"><time>2026-04-25T01:50:53.100Z</time></trkpt>
      <trkpt lat="22.524739" lon="108.729965"><time>2026-04-25T01:50:53.117Z</time></trkpt>
      <trkpt lat="22.524739" lon="108.729965"><time>2026-04-25T01:50:53.133Z</time></trkpt>
      <trkpt lat="22.524739" lon="108.729965"><time>2026-04-25T01:50:53.150Z</time></trkpt>
      <trkpt lat="22.524739" lon="108.729965"><time>2026-04-25T01:50:53.167Z</time></trkpt>
      <trkpt lat="22.524735" lon="108.729971"><time>2026-04-25T01:50:53.183Z</time></trkpt>
      <trkpt lat="22.524735" lon="108.729971"><time>2026-04-25T01:50:53.200Z</time></trkpt>
      <trkpt lat="22.524735" lon="108.729971"><time>2026-04-25T01:50:53.217Z</time></trkpt>
      <trkpt lat="22.524735" lon="108.729971"><time>2026-04-25T01:50:53.233Z</time></trkpt>
      <trkpt lat="22.524735" lon="108.729971"><time>2026-04-25T01:50:53.250Z</time></trkpt>
      <trkpt lat="22.524735" lon="108.729971"><time>2026-04-25T01:50:53.267Z</time></trkpt>
      <trkpt lat="22.52473" lon="108.729978"><time>2026-04-25T01:50:53.284Z</time></trkpt>
      <trkpt lat="22.52473" lon="108.729978"><time>2026-04-25T01:50:53.300Z</time></trkpt>
      <trkpt lat="22.52473" lon="108.729978"><time>2026-04-25T01:50:53.317Z</time></trkpt>
      <trkpt lat="22.52473" lon="108.729978"><time>2026-04-25T01:50:53.334Z</time></trkpt>
      <trkpt lat="22.52473" lon="108.729978"><time>2026-04-25T01:50:53.350Z</time></trkpt>
      <trkpt lat="22.52473" lon="108.729978"><time>2026-04-25T01:50:53.367Z</time></trkpt>
      <trkpt lat="22.524727" lon="108.729984"><time>2026-04-25T01:50:53.384Z</time></trkpt>
      <trkpt lat="22.524727" lon="108.729984"><time>2026-04-25T01:50:53.400Z</time></trkpt>
      <trkpt lat="22.524727" lon="108.729984"><time>2026-04-25T01:50:53.417Z</time></trkpt>
      <trkpt lat="22.524727" lon="108.729984"><time>2026-04-25T01:50:53.434Z</time></trkpt>
      <trkpt lat="22.524727" lon="108.729984"><time>2026-04-25T01:50:53.450Z</time></trkpt>
      <trkpt lat="22.524727" lon="108.729984"><time>2026-04-25T01:50:53.467Z</time></trkpt>
      <trkpt lat="22.524722" lon="108.729992"><time>2026-04-25T01:50:53.484Z</time></trkpt>
      <trkpt lat="22.524722" lon="108.729992"><time>2026-04-25T01:50:53.500Z</time></trkpt>
      <trkpt lat="22.524722" lon="108.729992"><time>2026-04-25T01:50:53.517Z</time></trkpt>
      <trkpt lat="22.524722" lon="108.729992"><time>2026-04-25T01:50:53.534Z</time></trkpt>
      <trkpt lat="22.524722" lon="108.729992"><time>2026-04-25T01:50:53.550Z</time></trkpt>
      <trkpt lat="22.524722" lon="108.729992"><time>2026-04-25T01:50:53.567Z</time></trkpt>
      <trkpt lat="22.524717" lon="108.73"><time>2026-04-25T01:50:53.584Z</time></trkpt>
      <trkpt lat="22.524717" lon="108.73"><time>2026-04-25T01:50:53.600Z</time></trkpt>
      <trkpt lat="22.524717" lon="108.73"><time>2026-04-25T01:50:53.617Z</time></trkpt>
      <trkpt lat="22.524717" lon="108.73"><time>2026-04-25T01:50:53.634Z</time></trkpt>
      <trkpt lat="22.524717" lon="108.73"><time>2026-04-25T01:50:53.651Z</time></trkpt>
      <trkpt lat="22.524717" lon="108.73"><time>2026-04-25T01:50:53.667Z</time></trkpt>
      <trkpt lat="22.524711" lon="108.730009"><time>2026-04-25T01:50:53.684Z</time></trkpt>
      <trkpt lat="22.524711" lon="108.730009"><time>2026-04-25T01:50:53.701Z</time></trkpt>
      <trkpt lat="22.524711" lon="108.730009"><time>2026-04-25T01:50:53.717Z</time></trkpt>
      <trkpt lat="22.524711" lon="108.730009"><time>2026-04-25T01:50:53.734Z</time></trkpt>
      <trkpt lat="22.524711" lon="108.730009"><time>2026-04-25T01:50:53.751Z</time></trkpt>
      <trkpt lat="22.524711" lon="108.730009"><time>2026-04-25T01:50:53.767Z</time></trkpt>
      <trkpt lat="22.524706" lon="108.730017"><time>2026-04-25T01:50:53.784Z</time></trkpt>
      <trkpt lat="22.524706" lon="108.730017"><time>2026-04-25T01:50:53.801Z</time></trkpt>
      <trkpt lat="22.524706" lon="108.730017"><time>2026-04-25T01:50:53.817Z</time></trkpt>
      <trkpt lat="22.524706" lon="108.730017"><time>2026-04-25T01:50:53.834Z</time></trkpt>
      <trkpt lat="22.524706" lon="108.730017"><time>2026-04-25T01:50:53.851Z</time></trkpt>
      <trkpt lat="22.524706" lon="108.730017"><time>2026-04-25T01:50:53.867Z</time></trkpt>
      <trkpt lat="22.524701" lon="108.730026"><time>2026-04-25T01:50:53.884Z</time></trkpt>
      <trkpt lat="22.524701" lon="108.730026"><time>2026-04-25T01:50:53.901Z</time></trkpt>
      <trkpt lat="22.524701" lon="108.730026"><time>2026-04-25T01:50:53.917Z</time></trkpt>
      <trkpt lat="22.524701" lon="108.730026"><time>2026-04-25T01:50:53.934Z</time></trkpt>
      <trkpt lat="22.524701" lon="108.730026"><time>2026-04-25T01:50:53.951Z</time></trkpt>
      <trkpt lat="22.524701" lon="108.730026"><time>2026-04-25T01:50:53.968Z</time></trkpt>
      <trkpt lat="22.524695" lon="108.730034"><time>2026-04-25T01:50:53.984Z</time></trkpt>
      <trkpt lat="22.524695" lon="108.730034"><time>2026-04-25T01:50:54.001Z</time></trkpt>
      <trkpt lat="22.524695" lon="108.730034"><time>2026-04-25T01:50:54.018Z</time></trkpt>
      <trkpt lat="22.524695" lon="108.730034"><time>2026-04-25T01:50:54.034Z</time></trkpt>
      <trkpt lat="22.524695" lon="108.730034"><time>2026-04-25T01:50:54.051Z</time></trkpt>
      <trkpt lat="22.524695" lon="108.730034"><time>2026-04-25T01:50:54.068Z</time></trkpt>
      <trkpt lat="22.52469" lon="108.730043"><time>2026-04-25T01:50:54.084Z</time></trkpt>
      <trkpt lat="22.52469" lon="108.730043"><time>2026-04-25T01:50:54.101Z</time></trkpt>
      <trkpt lat="22.52469" lon="108.730043"><time>2026-04-25T01:50:54.118Z</time></trkpt>
      <trkpt lat="22.52469" lon="108.730043"><time>2026-04-25T01:50:54.134Z</time></trkpt>
      <trkpt lat="22.52469" lon="108.730043"><time>2026-04-25T01:50:54.151Z</time></trkpt>
      <trkpt lat="22.52469" lon="108.730043"><time>2026-04-25T01:50:54.168Z</time></trkpt>
      <trkpt lat="22.524684" lon="108.730053"><time>2026-04-25T01:50:54.184Z</time></trkpt>
      <trkpt lat="22.524684" lon="108.730053"><time>2026-04-25T01:50:54.201Z</time></trkpt>
      <trkpt lat="22.524684" lon="108.730053"><time>2026-04-25T01:50:54.218Z</time></trkpt>
      <trkpt lat="22.524684" lon="108.730053"><time>2026-04-25T01:50:54.234Z</time></trkpt>
      <trkpt lat="22.524684" lon="108.730053"><time>2026-04-25T01:50:54.251Z</time></trkpt>
      <trkpt lat="22.524684" lon="108.730053"><time>2026-04-25T01:50:54.268Z</time></trkpt>
      <trkpt lat="22.524677" lon="108.730062"><time>2026-04-25T01:50:54.285Z</time></trkpt>
      <trkpt lat="22.524677" lon="108.730062"><time>2026-04-25T01:50:54.301Z</time></trkpt>
      <trkpt lat="22.524677" lon="108.730062"><time>2026-04-25T01:50:54.318Z</time></trkpt>
      <trkpt lat="22.524677" lon="108.730062"><time>2026-04-25T01:50:54.335Z</time></trkpt>
      <trkpt lat="22.524677" lon="108.730062"><time>2026-04-25T01:50:54.351Z</time></trkpt>
      <trkpt lat="22.524677" lon="108.730062"><time>2026-04-25T01:50:54.368Z</time></trkpt>
      <trkpt lat="22.524672" lon="108.730071"><time>2026-04-25T01:50:54.385Z</time></trkpt>
      <trkpt lat="22.524672" lon="108.730071"><time>2026-04-25T01:50:54.401Z</time></trkpt>
      <trkpt lat="22.524672" lon="108.730071"><time>2026-04-25T01:50:54.418Z</time></trkpt>
      <trkpt lat="22.524672" lon="108.730071"><time>2026-04-25T01:50:54.435Z</time></trkpt>
      <trkpt lat="22.524672" lon="108.730071"><time>2026-04-25T01:50:54.451Z</time></trkpt>
      <trkpt lat="22.524672" lon="108.730071"><time>2026-04-25T01:50:54.468Z</time></trkpt>
      <trkpt lat="22.524666" lon="108.730081"><time>2026-04-25T01:50:54.485Z</time></trkpt>
      <trkpt lat="22.524666" lon="108.730081"><time>2026-04-25T01:50:54.501Z</time></trkpt>
      <trkpt lat="22.524666" lon="108.730081"><time>2026-04-25T01:50:54.518Z</time></trkpt>
      <trkpt lat="22.524666" lon="108.730081"><time>2026-04-25T01:50:54.535Z</time></trkpt>
      <trkpt lat="22.524666" lon="108.730081"><time>2026-04-25T01:50:54.551Z</time></trkpt>
      <trkpt lat="22.524666" lon="108.730081"><time>2026-04-25T01:50:54.568Z</time></trkpt>
      <trkpt lat="22.524659" lon="108.730092"><time>2026-04-25T01:50:54.585Z</time></trkpt>
      <trkpt lat="22.524659" lon="108.730092"><time>2026-04-25T01:50:54.602Z</time></trkpt>
      <trkpt lat="22.524659" lon="108.730092"><time>2026-04-25T01:50:54.618Z</time></trkpt>
      <trkpt lat="22.524659" lon="108.730092"><time>2026-04-25T01:50:54.635Z</time></trkpt>
      <trkpt lat="22.524659" lon="108.730092"><time>2026-04-25T01:50:54.652Z</time></trkpt>
      <trkpt lat="22.524659" lon="108.730092"><time>2026-04-25T01:50:54.668Z</time></trkpt>
      <trkpt lat="22.524653" lon="108.730103"><time>2026-04-25T01:50:54.685Z</time></trkpt>
      <trkpt lat="22.524653" lon="108.730103"><time>2026-04-25T01:50:54.702Z</time></trkpt>
      <trkpt lat="22.524653" lon="108.730103"><time>2026-04-25T01:50:54.718Z</time></trkpt>
      <trkpt lat="22.524653" lon="108.730103"><time>2026-04-25T01:50:54.735Z</time></trkpt>
      <trkpt lat="22.524653" lon="108.730103"><time>2026-04-25T01:50:54.752Z</time></trkpt>
      <trkpt lat="22.524653" lon="108.730103"><time>2026-04-25T01:50:54.768Z</time></trkpt>
      <trkpt lat="22.524647" lon="108.730112"><time>2026-04-25T01:50:54.785Z</time></trkpt>
      <trkpt lat="22.524647" lon="108.730112"><time>2026-04-25T01:50:54.802Z</time></trkpt>
      <trkpt lat="22.524647" lon="108.730112"><time>2026-04-25T01:50:54.818Z</time></trkpt>
      <trkpt lat="22.524647" lon="108.730112"><time>2026-04-25T01:50:54.835Z</time></trkpt>
      <trkpt lat="22.524647" lon="108.730112"><time>2026-04-25T01:50:54.852Z</time></trkpt>
      <trkpt lat="22.524647" lon="108.730112"><time>2026-04-25T01:50:54.868Z</time></trkpt>
      <trkpt lat="22.52464" lon="108.730123"><time>2026-04-25T01:50:54.885Z</time></trkpt>
      <trkpt lat="22.52464" lon="108.730123"><time>2026-04-25T01:50:54.902Z</time></trkpt>
      <trkpt lat="22.52464" lon="108.730123"><time>2026-04-25T01:50:54.919Z</time></trkpt>
      <trkpt lat="22.52464" lon="108.730123"><time>2026-04-25T01:50:54.935Z</time></trkpt>
      <trkpt lat="22.52464" lon="108.730123"><time>2026-04-25T01:50:54.952Z</time></trkpt>
      <trkpt lat="22.52464" lon="108.730123"><time>2026-04-25T01:50:54.969Z</time></trkpt>
      <trkpt lat="22.524633" lon="108.730135"><time>2026-04-25T01:50:54.985Z</time></trkpt>
      <trkpt lat="22.524633" lon="108.730135"><time>2026-04-25T01:50:55.002Z</time></trkpt>
      <trkpt lat="22.524633" lon="108.730135"><time>2026-04-25T01:50:55.019Z</time></trkpt>
      <trkpt lat="22.524633" lon="108.730135"><time>2026-04-25T01:50:55.035Z</time></trkpt>
      <trkpt lat="22.524633" lon="108.730135"><time>2026-04-25T01:50:55.052Z</time></trkpt>
      <trkpt lat="22.524633" lon="108.730135"><time>2026-04-25T01:50:55.069Z</time></trkpt>
      <trkpt lat="22.524626" lon="108.730145"><time>2026-04-25T01:50:55.085Z</time></trkpt>
      <trkpt lat="22.524626" lon="108.730145"><time>2026-04-25T01:50:55.102Z</time></trkpt>
      <trkpt lat="22.524626" lon="108.730145"><time>2026-04-25T01:50:55.119Z</time></trkpt>
      <trkpt lat="22.524626" lon="108.730145"><time>2026-04-25T01:50:55.135Z</time></trkpt>
      <trkpt lat="22.524626" lon="108.730145"><time>2026-04-25T01:50:55.152Z</time></trkpt>
      <trkpt lat="22.524626" lon="108.730145"><time>2026-04-25T01:50:55.169Z</time></trkpt>
      <trkpt lat="22.524619" lon="108.730156"><time>2026-04-25T01:50:55.185Z</time></trkpt>
      <trkpt lat="22.524619" lon="108.730156"><time>2026-04-25T01:50:55.202Z</time></trkpt>
      <trkpt lat="22.524619" lon="108.730156"><time>2026-04-25T01:50:55.219Z</time></trkpt>
      <trkpt lat="22.524619" lon="108.730156"><time>2026-04-25T01:50:55.236Z</time></trkpt>
      <trkpt lat="22.524619" lon="108.730156"><time>2026-04-25T01:50:55.252Z</time></trkpt>
      <trkpt lat="22.524619" lon="108.730156"><time>2026-04-25T01:50:55.269Z</time></trkpt>
      <trkpt lat="22.524612" lon="108.730168"><time>2026-04-25T01:50:55.286Z</time></trkpt>
      <trkpt lat="22.524612" lon="108.730168"><time>2026-04-25T01:50:55.302Z</time></trkpt>
      <trkpt lat="22.524612" lon="108.730168"><time>2026-04-25T01:50:55.319Z</time></trkpt>
      <trkpt lat="22.524612" lon="108.730168"><time>2026-04-25T01:50:55.336Z</time></trkpt>
      <trkpt lat="22.524612" lon="108.730168"><time>2026-04-25T01:50:55.352Z</time></trkpt>
      <trkpt lat="22.524612" lon="108.730168"><time>2026-04-25T01:50:55.369Z</time></trkpt>
      <trkpt lat="22.524605" lon="108.730178"><time>2026-04-25T01:50:55.386Z</time></trkpt>
      <trkpt lat="22.524605" lon="108.730178"><time>2026-04-25T01:50:55.402Z</time></trkpt>
      <trkpt lat="22.524605" lon="108.730178"><time>2026-04-25T01:50:55.419Z</time></trkpt>
      <trkpt lat="22.524605" lon="108.730178"><time>2026-04-25T01:50:55.436Z</time></trkpt>
      <trkpt lat="22.524605" lon="108.730178"><time>2026-04-25T01:50:55.452Z</time></trkpt>
      <trkpt lat="22.524605" lon="108.730178"><time>2026-04-25T01:50:55.469Z</time></trkpt>
      <trkpt lat="22.524598" lon="108.73019"><time>2026-04-25T01:50:55.486Z</time></trkpt>
      <trkpt lat="22.524598" lon="108.73019"><time>2026-04-25T01:50:55.502Z</time></trkpt>
      <trkpt lat="22.524598" lon="108.73019"><time>2026-04-25T01:50:55.519Z</time></trkpt>
      <trkpt lat="22.524598" lon="108.73019"><time>2026-04-25T01:50:55.536Z</time></trkpt>
      <trkpt lat="22.524598" lon="108.73019"><time>2026-04-25T01:50:55.553Z</time></trkpt>
      <trkpt lat="22.524598" lon="108.73019"><time>2026-04-25T01:50:55.569Z</time></trkpt>
      <trkpt lat="22.52459" lon="108.730203"><time>2026-04-25T01:50:55.586Z</time></trkpt>
      <trkpt lat="22.52459" lon="108.730203"><time>2026-04-25T01:50:55.603Z</time></trkpt>
      <trkpt lat="22.52459" lon="108.730203"><time>2026-04-25T01:50:55.619Z</time></trkpt>
      <trkpt lat="22.52459" lon="108.730203"><time>2026-04-25T01:50:55.636Z</time></trkpt>
      <trkpt lat="22.52459" lon="108.730203"><time>2026-04-25T01:50:55.653Z</time></trkpt>
      <trkpt lat="22.52459" lon="108.730203"><time>2026-04-25T01:50:55.669Z</time></trkpt>
      <trkpt lat="22.524583" lon="108.730215"><time>2026-04-25T01:50:55.686Z</time></trkpt>
      <trkpt lat="22.524583" lon="108.730215"><time>2026-04-25T01:50:55.703Z</time></trkpt>
      <trkpt lat="22.524583" lon="108.730215"><time>2026-04-25T01:50:55.719Z</time></trkpt>
      <trkpt lat="22.524583" lon="108.730215"><time>2026-04-25T01:50:55.736Z</time></trkpt>
      <trkpt lat="22.524583" lon="108.730215"><time>2026-04-25T01:50:55.753Z</time></trkpt>
      <trkpt lat="22.524583" lon="108.730215"><time>2026-04-25T01:50:55.769Z</time></trkpt>
      <trkpt lat="22.524575" lon="108.730227"><time>2026-04-25T01:50:55.786Z</time></trkpt>
      <trkpt lat="22.524575" lon="108.730227"><time>2026-04-25T01:50:55.803Z</time></trkpt>
      <trkpt lat="22.524575" lon="108.730227"><time>2026-04-25T01:50:55.819Z</time></trkpt>
      <trkpt lat="22.524575" lon="108.730227"><time>2026-04-25T01:50:55.836Z</time></trkpt>
      <trkpt lat="22.524575" lon="108.730227"><time>2026-04-25T01:50:55.853Z</time></trkpt>
      <trkpt lat="22.524575" lon="108.730227"><time>2026-04-25T01:50:55.870Z</time></trkpt>
      <trkpt lat="22.524567" lon="108.73024"><time>2026-04-25T01:50:55.886Z</time></trkpt>
      <trkpt lat="22.524567" lon="108.73024"><time>2026-04-25T01:50:55.903Z</time></trkpt>
      <trkpt lat="22.524567" lon="108.73024"><time>2026-04-25T01:50:55.920Z</time></trkpt>
      <trkpt lat="22.524567" lon="108.73024"><time>2026-04-25T01:50:55.936Z</time></trkpt>
      <trkpt lat="22.524567" lon="108.73024"><time>2026-04-25T01:50:55.953Z</time></trkpt>
      <trkpt lat="22.524567" lon="108.73024"><time>2026-04-25T01:50:55.970Z</time></trkpt>
      <trkpt lat="22.52456" lon="108.730252"><time>2026-04-25T01:50:55.986Z</time></trkpt>
      <trkpt lat="22.52456" lon="108.730252"><time>2026-04-25T01:50:56.003Z</time></trkpt>
      <trkpt lat="22.52456" lon="108.730252"><time>2026-04-25T01:50:56.020Z</time></trkpt>
      <trkpt lat="22.52456" lon="108.730252"><time>2026-04-25T01:50:56.036Z</time></trkpt>
      <trkpt lat="22.52456" lon="108.730252"><time>2026-04-25T01:50:56.053Z</time></trkpt>
      <trkpt lat="22.52456" lon="108.730252"><time>2026-04-25T01:50:56.070Z</time></trkpt>
      <trkpt lat="22.524552" lon="108.730264"><time>2026-04-25T01:50:56.086Z</time></trkpt>
      <trkpt lat="22.524552" lon="108.730264"><time>2026-04-25T01:50:56.103Z</time></trkpt>
      <trkpt lat="22.524552" lon="108.730264"><time>2026-04-25T01:50:56.120Z</time></trkpt>
      <trkpt lat="22.524552" lon="108.730264"><time>2026-04-25T01:50:56.136Z</time></trkpt>
      <trkpt lat="22.524552" lon="108.730264"><time>2026-04-25T01:50:56.153Z</time></trkpt>
      <trkpt lat="22.524552" lon="108.730264"><time>2026-04-25T01:50:56.170Z</time></trkpt>
      <trkpt lat="22.524544" lon="108.730277"><time>2026-04-25T01:50:56.187Z</time></trkpt>
      <trkpt lat="22.524544" lon="108.730277"><time>2026-04-25T01:50:56.203Z</time></trkpt>
      <trkpt lat="22.524544" lon="108.730277"><time>2026-04-25T01:50:56.220Z</time></trkpt>
      <trkpt lat="22.524544" lon="108.730277"><time>2026-04-25T01:50:56.237Z</time></trkpt>
      <trkpt lat="22.524544" lon="108.730277"><time>2026-04-25T01:50:56.253Z</time></trkpt>
      <trkpt lat="22.524544" lon="108.730277"><time>2026-04-25T01:50:56.270Z</time></trkpt>
      <trkpt lat="22.524537" lon="108.730289"><time>2026-04-25T01:50:56.287Z</time></trkpt>
      <trkpt lat="22.524537" lon="108.730289"><time>2026-04-25T01:50:56.303Z</time></trkpt>
      <trkpt lat="22.524537" lon="108.730289"><time>2026-04-25T01:50:56.320Z</time></trkpt>
      <trkpt lat="22.524537" lon="108.730289"><time>2026-04-25T01:50:56.337Z</time></trkpt>
      <trkpt lat="22.524537" lon="108.730289"><time>2026-04-25T01:50:56.353Z</time></trkpt>
      <trkpt lat="22.524537" lon="108.730289"><time>2026-04-25T01:50:56.370Z</time></trkpt>
      <trkpt lat="22.524529" lon="108.730301"><time>2026-04-25T01:50:56.387Z</time></trkpt>
      <trkpt lat="22.524529" lon="108.730301"><time>2026-04-25T01:50:56.403Z</time></trkpt>
      <trkpt lat="22.524529" lon="108.730301"><time>2026-04-25T01:50:56.420Z</time></trkpt>
      <trkpt lat="22.524529" lon="108.730301"><time>2026-04-25T01:50:56.437Z</time></trkpt>
      <trkpt lat="22.524529" lon="108.730301"><time>2026-04-25T01:50:56.453Z</time></trkpt>
      <trkpt lat="22.524529" lon="108.730301"><time>2026-04-25T01:50:56.470Z</time></trkpt>
      <trkpt lat="22.524522" lon="108.730313"><time>2026-04-25T01:50:56.487Z</time></trkpt>
      <trkpt lat="22.524522" lon="108.730313"><time>2026-04-25T01:50:56.504Z</time></trkpt>
      <trkpt lat="22.524522" lon="108.730313"><time>2026-04-25T01:50:56.520Z</time></trkpt>
      <trkpt lat="22.524522" lon="108.730313"><time>2026-04-25T01:50:56.537Z</time></trkpt>
      <trkpt lat="22.524522" lon="108.730313"><time>2026-04-25T01:50:56.554Z</time></trkpt>
      <trkpt lat="22.524522" lon="108.730313"><time>2026-04-25T01:50:56.570Z</time></trkpt>
      <trkpt lat="22.524513" lon="108.730328"><time>2026-04-25T01:50:56.587Z</time></trkpt>
      <trkpt lat="22.524513" lon="108.730328"><time>2026-04-25T01:50:56.604Z</time></trkpt>
      <trkpt lat="22.524513" lon="108.730328"><time>2026-04-25T01:50:56.620Z</time></trkpt>
      <trkpt lat="22.524513" lon="108.730328"><time>2026-04-25T01:50:56.637Z</time></trkpt>
      <trkpt lat="22.524513" lon="108.730328"><time>2026-04-25T01:50:56.654Z</time></trkpt>
      <trkpt lat="22.524513" lon="108.730328"><time>2026-04-25T01:50:56.670Z</time></trkpt>
      <trkpt lat="22.524504" lon="108.730342"><time>2026-04-25T01:50:56.687Z</time></trkpt>
      <trkpt lat="22.524504" lon="108.730342"><time>2026-04-25T01:50:56.704Z</time></trkpt>
      <trkpt lat="22.524504" lon="108.730342"><time>2026-04-25T01:50:56.720Z</time></trkpt>
      <trkpt lat="22.524504" lon="108.730342"><time>2026-04-25T01:50:56.737Z</time></trkpt>
      <trkpt lat="22.524504" lon="108.730342"><time>2026-04-25T01:50:56.754Z</time></trkpt>
      <trkpt lat="22.524504" lon="108.730342"><time>2026-04-25T01:50:56.770Z</time></trkpt>
      <trkpt lat="22.524497" lon="108.730354"><time>2026-04-25T01:50:56.787Z</time></trkpt>
      <trkpt lat="22.524497" lon="108.730354"><time>2026-04-25T01:50:56.804Z</time></trkpt>
      <trkpt lat="22.524497" lon="108.730354"><time>2026-04-25T01:50:56.821Z</time></trkpt>
      <trkpt lat="22.524497" lon="108.730354"><time>2026-04-25T01:50:56.837Z</time></trkpt>
      <trkpt lat="22.524497" lon="108.730354"><time>2026-04-25T01:50:56.854Z</time></trkpt>
      <trkpt lat="22.524497" lon="108.730354"><time>2026-04-25T01:50:56.871Z</time></trkpt>
      <trkpt lat="22.524488" lon="108.730367"><time>2026-04-25T01:50:56.887Z</time></trkpt>
      <trkpt lat="22.524488" lon="108.730367"><time>2026-04-25T01:50:56.904Z</time></trkpt>
      <trkpt lat="22.524488" lon="108.730367"><time>2026-04-25T01:50:56.921Z</time></trkpt>
      <trkpt lat="22.524488" lon="108.730367"><time>2026-04-25T01:50:56.937Z</time></trkpt>
      <trkpt lat="22.524488" lon="108.730367"><time>2026-04-25T01:50:56.954Z</time></trkpt>
      <trkpt lat="22.524488" lon="108.730367"><time>2026-04-25T01:50:56.971Z</time></trkpt>
      <trkpt lat="22.524479" lon="108.730382"><time>2026-04-25T01:50:56.987Z</time></trkpt>
      <trkpt lat="22.524479" lon="108.730382"><time>2026-04-25T01:50:57.004Z</time></trkpt>
      <trkpt lat="22.524479" lon="108.730382"><time>2026-04-25T01:50:57.021Z</time></trkpt>
      <trkpt lat="22.524479" lon="108.730382"><time>2026-04-25T01:50:57.037Z</time></trkpt>
      <trkpt lat="22.524479" lon="108.730382"><time>2026-04-25T01:50:57.054Z</time></trkpt>
      <trkpt lat="22.524479" lon="108.730382"><time>2026-04-25T01:50:57.071Z</time></trkpt>
      <trkpt lat="22.524471" lon="108.730396"><time>2026-04-25T01:50:57.087Z</time></trkpt>
      <trkpt lat="22.524471" lon="108.730396"><time>2026-04-25T01:50:57.104Z</time></trkpt>
      <trkpt lat="22.524471" lon="108.730396"><time>2026-04-25T01:50:57.121Z</time></trkpt>
      <trkpt lat="22.524471" lon="108.730396"><time>2026-04-25T01:50:57.138Z</time></trkpt>
      <trkpt lat="22.524471" lon="108.730396"><time>2026-04-25T01:50:57.154Z</time></trkpt>
      <trkpt lat="22.524471" lon="108.730396"><time>2026-04-25T01:50:57.171Z</time></trkpt>
      <trkpt lat="22.524463" lon="108.730409"><time>2026-04-25T01:50:57.188Z</time></trkpt>
      <trkpt lat="22.524463" lon="108.730409"><time>2026-04-25T01:50:57.204Z</time></trkpt>
      <trkpt lat="22.524463" lon="108.730409"><time>2026-04-25T01:50:57.221Z</time></trkpt>
      <trkpt lat="22.524463" lon="108.730409"><time>2026-04-25T01:50:57.238Z</time></trkpt>
      <trkpt lat="22.524463" lon="108.730409"><time>2026-04-25T01:50:57.254Z</time></trkpt>
      <trkpt lat="22.524463" lon="108.730409"><time>2026-04-25T01:50:57.271Z</time></trkpt>
      <trkpt lat="22.524454" lon="108.730423"><time>2026-04-25T01:50:57.288Z</time></trkpt>
      <trkpt lat="22.524454" lon="108.730423"><time>2026-04-25T01:50:57.304Z</time></trkpt>
      <trkpt lat="22.524454" lon="108.730423"><time>2026-04-25T01:50:57.321Z</time></trkpt>
      <trkpt lat="22.524454" lon="108.730423"><time>2026-04-25T01:50:57.338Z</time></trkpt>
      <trkpt lat="22.524454" lon="108.730423"><time>2026-04-25T01:50:57.354Z</time></trkpt>
      <trkpt lat="22.524454" lon="108.730423"><time>2026-04-25T01:50:57.371Z</time></trkpt>
      <trkpt lat="22.524446" lon="108.730437"><time>2026-04-25T01:50:57.388Z</time></trkpt>
      <trkpt lat="22.524446" lon="108.730437"><time>2026-04-25T01:50:57.404Z</time></trkpt>
      <trkpt lat="22.524446" lon="108.730437"><time>2026-04-25T01:50:57.421Z</time></trkpt>
      <trkpt lat="22.524446" lon="108.730437"><time>2026-04-25T01:50:57.438Z</time></trkpt>
      <trkpt lat="22.524446" lon="108.730437"><time>2026-04-25T01:50:57.455Z</time></trkpt>
      <trkpt lat="22.524446" lon="108.730437"><time>2026-04-25T01:50:57.471Z</time></trkpt>
      <trkpt lat="22.524437" lon="108.730451"><time>2026-04-25T01:50:57.488Z</time></trkpt>
      <trkpt lat="22.524437" lon="108.730451"><time>2026-04-25T01:50:57.505Z</time></trkpt>
      <trkpt lat="22.524437" lon="108.730451"><time>2026-04-25T01:50:57.521Z</time></trkpt>
      <trkpt lat="22.524437" lon="108.730451"><time>2026-04-25T01:50:57.538Z</time></trkpt>
      <trkpt lat="22.524437" lon="108.730451"><time>2026-04-25T01:50:57.555Z</time></trkpt>
      <trkpt lat="22.524437" lon="108.730451"><time>2026-04-25T01:50:57.571Z</time></trkpt>
      <trkpt lat="22.524427" lon="108.730466"><time>2026-04-25T01:50:57.588Z</time></trkpt>
      <trkpt lat="22.524427" lon="108.730466"><time>2026-04-25T01:50:57.605Z</time></trkpt>
      <trkpt lat="22.524427" lon="108.730466"><time>2026-04-25T01:50:57.621Z</time></trkpt>
      <trkpt lat="22.524427" lon="108.730466"><time>2026-04-25T01:50:57.638Z</time></trkpt>
      <trkpt lat="22.524427" lon="108.730466"><time>2026-04-25T01:50:57.655Z</time></trkpt>
      <trkpt lat="22.524427" lon="108.730466"><time>2026-04-25T01:50:57.671Z</time></trkpt>
      <trkpt lat="22.524419" lon="108.73048"><time>2026-04-25T01:50:57.688Z</time></trkpt>
      <trkpt lat="22.524419" lon="108.73048"><time>2026-04-25T01:50:57.705Z</time></trkpt>
      <trkpt lat="22.524419" lon="108.73048"><time>2026-04-25T01:50:57.721Z</time></trkpt>
      <trkpt lat="22.524419" lon="108.73048"><time>2026-04-25T01:50:57.738Z</time></trkpt>
      <trkpt lat="22.524419" lon="108.73048"><time>2026-04-25T01:50:57.755Z</time></trkpt>
      <trkpt lat="22.524419" lon="108.73048"><time>2026-04-25T01:50:57.772Z</time></trkpt>
      <trkpt lat="22.52441" lon="108.730495"><time>2026-04-25T01:50:57.788Z</time></trkpt>
      <trkpt lat="22.52441" lon="108.730495"><time>2026-04-25T01:50:57.805Z</time></trkpt>
      <trkpt lat="22.52441" lon="108.730495"><time>2026-04-25T01:50:57.822Z</time></trkpt>
      <trkpt lat="22.52441" lon="108.730495"><time>2026-04-25T01:50:57.838Z</time></trkpt>
      <trkpt lat="22.52441" lon="108.730495"><time>2026-04-25T01:50:57.855Z</time></trkpt>
      <trkpt lat="22.52441" lon="108.730495"><time>2026-04-25T01:50:57.872Z</time></trkpt>
      <trkpt lat="22.524401" lon="108.73051"><time>2026-04-25T01:50:57.888Z</time></trkpt>
      <trkpt lat="22.524401" lon="108.73051"><time>2026-04-25T01:50:57.905Z</time></trkpt>
      <trkpt lat="22.524401" lon="108.73051"><time>2026-04-25T01:50:57.922Z</time></trkpt>
      <trkpt lat="22.524401" lon="108.73051"><time>2026-04-25T01:50:57.938Z</time></trkpt>
      <trkpt lat="22.524401" lon="108.73051"><time>2026-04-25T01:50:57.955Z</time></trkpt>
      <trkpt lat="22.524401" lon="108.73051"><time>2026-04-25T01:50:57.972Z</time></trkpt>
      <trkpt lat="22.524392" lon="108.730524"><time>2026-04-25T01:50:57.988Z</time></trkpt>
      <trkpt lat="22.524392" lon="108.730524"><time>2026-04-25T01:50:58.005Z</time></trkpt>
      <trkpt lat="22.524392" lon="108.730524"><time>2026-04-25T01:50:58.022Z</time></trkpt>
      <trkpt lat="22.524392" lon="108.730524"><time>2026-04-25T01:50:58.038Z</time></trkpt>
      <trkpt lat="22.524392" lon="108.730524"><time>2026-04-25T01:50:58.055Z</time></trkpt>
      <trkpt lat="22.524392" lon="108.730524"><time>2026-04-25T01:50:58.072Z</time></trkpt>
      <trkpt lat="22.524382" lon="108.730539"><time>2026-04-25T01:50:58.089Z</time></trkpt>
      <trkpt lat="22.524382" lon="108.730539"><time>2026-04-25T01:50:58.105Z</time></trkpt>
      <trkpt lat="22.524382" lon="108.730539"><time>2026-04-25T01:50:58.122Z</time></trkpt>
      <trkpt lat="22.524382" lon="108.730539"><time>2026-04-25T01:50:58.139Z</time></trkpt>
      <trkpt lat="22.524382" lon="108.730539"><time>2026-04-25T01:50:58.155Z</time></trkpt>
      <trkpt lat="22.524382" lon="108.730539"><time>2026-04-25T01:50:58.172Z</time></trkpt>
      <trkpt lat="22.524373" lon="108.730554"><time>2026-04-25T01:50:58.189Z</time></trkpt>
      <trkpt lat="22.524373" lon="108.730554"><time>2026-04-25T01:50:58.205Z</time></trkpt>
      <trkpt lat="22.524373" lon="108.730554"><time>2026-04-25T01:50:58.222Z</time></trkpt>
      <trkpt lat="22.524373" lon="108.730554"><time>2026-04-25T01:50:58.239Z</time></trkpt>
      <trkpt lat="22.524373" lon="108.730554"><time>2026-04-25T01:50:58.255Z</time></trkpt>
      <trkpt lat="22.524373" lon="108.730554"><time>2026-04-25T01:50:58.272Z</time></trkpt>
      <trkpt lat="22.524364" lon="108.730569"><time>2026-04-25T01:50:58.289Z</time></trkpt>
      <trkpt lat="22.524364" lon="108.730569"><time>2026-04-25T01:50:58.305Z</time></trkpt>
      <trkpt lat="22.524364" lon="108.730569"><time>2026-04-25T01:50:58.322Z</time></trkpt>
      <trkpt lat="22.524364" lon="108.730569"><time>2026-04-25T01:50:58.339Z</time></trkpt>
      <trkpt lat="22.524364" lon="108.730569"><time>2026-04-25T01:50:58.355Z</time></trkpt>
      <trkpt lat="22.524364" lon="108.730569"><time>2026-04-25T01:50:58.372Z</time></trkpt>
      <trkpt lat="22.524356" lon="108.730582"><time>2026-04-25T01:50:58.389Z</time></trkpt>
      <trkpt lat="22.524356" lon="108.730582"><time>2026-04-25T01:50:58.406Z</time></trkpt>
      <trkpt lat="22.524356" lon="108.730582"><time>2026-04-25T01:50:58.422Z</time></trkpt>
      <trkpt lat="22.524356" lon="108.730582"><time>2026-04-25T01:50:58.439Z</time></trkpt>
      <trkpt lat="22.524356" lon="108.730582"><time>2026-04-25T01:50:58.456Z</time></trkpt>
      <trkpt lat="22.524356" lon="108.730582"><time>2026-04-25T01:50:58.472Z</time></trkpt>
      <trkpt lat="22.524346" lon="108.730597"><time>2026-04-25T01:50:58.489Z</time></trkpt>
      <trkpt lat="22.524346" lon="108.730597"><time>2026-04-25T01:50:58.506Z</time></trkpt>
      <trkpt lat="22.524346" lon="108.730597"><time>2026-04-25T01:50:58.522Z</time></trkpt>
      <trkpt lat="22.524346" lon="108.730597"><time>2026-04-25T01:50:58.539Z</time></trkpt>
      <trkpt lat="22.524346" lon="108.730597"><time>2026-04-25T01:50:58.556Z</time></trkpt>
      <trkpt lat="22.524346" lon="108.730597"><time>2026-04-25T01:50:58.572Z</time></trkpt>
      <trkpt lat="22.524337" lon="108.730613"><time>2026-04-25T01:50:58.589Z</time></trkpt>
      <trkpt lat="22.524337" lon="108.730613"><time>2026-04-25T01:50:58.606Z</time></trkpt>
      <trkpt lat="22.524337" lon="108.730613"><time>2026-04-25T01:50:58.622Z</time></trkpt>
      <trkpt lat="22.524337" lon="108.730613"><time>2026-04-25T01:50:58.639Z</time></trkpt>
      <trkpt lat="22.524337" lon="108.730613"><time>2026-04-25T01:50:58.656Z</time></trkpt>
      <trkpt lat="22.524337" lon="108.730613"><time>2026-04-25T01:50:58.672Z</time></trkpt>
      <trkpt lat="22.524327" lon="108.730628"><time>2026-04-25T01:50:58.689Z</time></trkpt>
      <trkpt lat="22.524327" lon="108.730628"><time>2026-04-25T01:50:58.706Z</time></trkpt>
      <trkpt lat="22.524327" lon="108.730628"><time>2026-04-25T01:50:58.723Z</time></trkpt>
      <trkpt lat="22.524327" lon="108.730628"><time>2026-04-25T01:50:58.739Z</time></trkpt>
      <trkpt lat="22.524327" lon="108.730628"><time>2026-04-25T01:50:58.756Z</time></trkpt>
      <trkpt lat="22.524327" lon="108.730628"><time>2026-04-25T01:50:58.773Z</time></trkpt>
      <trkpt lat="22.524318" lon="108.730643"><time>2026-04-25T01:50:58.789Z</time></trkpt>
      <trkpt lat="22.524318" lon="108.730643"><time>2026-04-25T01:50:58.806Z</time></trkpt>
      <trkpt lat="22.524318" lon="108.730643"><time>2026-04-25T01:50:58.823Z</time></trkpt>
      <trkpt lat="22.524318" lon="108.730643"><time>2026-04-25T01:50:58.839Z</time></trkpt>
      <trkpt lat="22.524318" lon="108.730643"><time>2026-04-25T01:50:58.856Z</time></trkpt>
      <trkpt lat="22.524318" lon="108.730643"><time>2026-04-25T01:50:58.873Z</time></trkpt>
      <trkpt lat="22.524309" lon="108.730659"><time>2026-04-25T01:50:58.889Z</time></trkpt>
      <trkpt lat="22.524309" lon="108.730659"><time>2026-04-25T01:50:58.906Z</time></trkpt>
      <trkpt lat="22.524309" lon="108.730659"><time>2026-04-25T01:50:58.923Z</time></trkpt>
      <trkpt lat="22.524309" lon="108.730659"><time>2026-04-25T01:50:58.939Z</time></trkpt>
      <trkpt lat="22.524309" lon="108.730659"><time>2026-04-25T01:50:58.956Z</time></trkpt>
      <trkpt lat="22.524309" lon="108.730659"><time>2026-04-25T01:50:58.973Z</time></trkpt>
      <trkpt lat="22.524299" lon="108.730675"><time>2026-04-25T01:50:58.989Z</time></trkpt>
      <trkpt lat="22.524299" lon="108.730675"><time>2026-04-25T01:50:59.006Z</time></trkpt>
      <trkpt lat="22.524299" lon="108.730675"><time>2026-04-25T01:50:59.023Z</time></trkpt>
      <trkpt lat="22.524299" lon="108.730675"><time>2026-04-25T01:50:59.040Z</time></trkpt>
      <trkpt lat="22.524299" lon="108.730675"><time>2026-04-25T01:50:59.056Z</time></trkpt>
      <trkpt lat="22.524299" lon="108.730675"><time>2026-04-25T01:50:59.073Z</time></trkpt>
      <trkpt lat="22.524289" lon="108.73069"><time>2026-04-25T01:50:59.090Z</time></trkpt>
      <trkpt lat="22.524289" lon="108.73069"><time>2026-04-25T01:50:59.106Z</time></trkpt>
      <trkpt lat="22.524289" lon="108.73069"><time>2026-04-25T01:50:59.123Z</time></trkpt>
      <trkpt lat="22.524289" lon="108.73069"><time>2026-04-25T01:50:59.140Z</time></trkpt>
      <trkpt lat="22.524289" lon="108.73069"><time>2026-04-25T01:50:59.156Z</time></trkpt>
      <trkpt lat="22.524289" lon="108.73069"><time>2026-04-25T01:50:59.173Z</time></trkpt>
      <trkpt lat="22.52428" lon="108.730706"><time>2026-04-25T01:50:59.190Z</time></trkpt>
      <trkpt lat="22.52428" lon="108.730706"><time>2026-04-25T01:50:59.206Z</time></trkpt>
      <trkpt lat="22.52428" lon="108.730706"><time>2026-04-25T01:50:59.223Z</time></trkpt>
      <trkpt lat="22.52428" lon="108.730706"><time>2026-04-25T01:50:59.240Z</time></trkpt>
      <trkpt lat="22.52428" lon="108.730706"><time>2026-04-25T01:50:59.256Z</time></trkpt>
      <trkpt lat="22.52428" lon="108.730706"><time>2026-04-25T01:50:59.273Z</time></trkpt>
      <trkpt lat="22.52427" lon="108.730721"><time>2026-04-25T01:50:59.290Z</time></trkpt>
      <trkpt lat="22.52427" lon="108.730721"><time>2026-04-25T01:50:59.306Z</time></trkpt>
      <trkpt lat="22.52427" lon="108.730721"><time>2026-04-25T01:50:59.323Z</time></trkpt>
      <trkpt lat="22.52427" lon="108.730721"><time>2026-04-25T01:50:59.340Z</time></trkpt>
      <trkpt lat="22.52427" lon="108.730721"><time>2026-04-25T01:50:59.357Z</time></trkpt>
      <trkpt lat="22.52427" lon="108.730721"><time>2026-04-25T01:50:59.373Z</time></trkpt>
      <trkpt lat="22.524262" lon="108.730735"><time>2026-04-25T01:50:59.390Z</time></trkpt>
      <trkpt lat="22.524262" lon="108.730735"><time>2026-04-25T01:50:59.407Z</time></trkpt>
      <trkpt lat="22.524262" lon="108.730735"><time>2026-04-25T01:50:59.423Z</time></trkpt>
      <trkpt lat="22.524262" lon="108.730735"><time>2026-04-25T01:50:59.440Z</time></trkpt>
      <trkpt lat="22.524262" lon="108.730735"><time>2026-04-25T01:50:59.457Z</time></trkpt>
      <trkpt lat="22.524262" lon="108.730735"><time>2026-04-25T01:50:59.473Z</time></trkpt>
      <trkpt lat="22.524252" lon="108.730751"><time>2026-04-25T01:50:59.490Z</time></trkpt>
      <trkpt lat="22.524252" lon="108.730751"><time>2026-04-25T01:50:59.507Z</time></trkpt>
      <trkpt lat="22.524252" lon="108.730751"><time>2026-04-25T01:50:59.523Z</time></trkpt>
      <trkpt lat="22.524252" lon="108.730751"><time>2026-04-25T01:50:59.540Z</time></trkpt>
      <trkpt lat="22.524252" lon="108.730751"><time>2026-04-25T01:50:59.557Z</time></trkpt>
      <trkpt lat="22.524252" lon="108.730751"><time>2026-04-25T01:50:59.573Z</time></trkpt>
      <trkpt lat="22.524241" lon="108.730768"><time>2026-04-25T01:50:59.590Z</time></trkpt>
      <trkpt lat="22.524241" lon="108.730768"><time>2026-04-25T01:50:59.607Z</time></trkpt>
      <trkpt lat="22.524241" lon="108.730768"><time>2026-04-25T01:50:59.623Z</time></trkpt>
      <trkpt lat="22.524241" lon="108.730768"><time>2026-04-25T01:50:59.640Z</time></trkpt>
      <trkpt lat="22.524241" lon="108.730768"><time>2026-04-25T01:50:59.657Z</time></trkpt>
      <trkpt lat="22.524241" lon="108.730768"><time>2026-04-25T01:50:59.674Z</time></trkpt>
      <trkpt lat="22.524232" lon="108.730784"><time>2026-04-25T01:50:59.690Z</time></trkpt>
      <trkpt lat="22.524232" lon="108.730784"><time>2026-04-25T01:50:59.707Z</time></trkpt>
      <trkpt lat="22.524232" lon="108.730784"><time>2026-04-25T01:50:59.724Z</time></trkpt>
      <trkpt lat="22.524232" lon="108.730784"><time>2026-04-25T01:50:59.740Z</time></trkpt>
      <trkpt lat="22.524232" lon="108.730784"><time>2026-04-25T01:50:59.757Z</time></trkpt>
      <trkpt lat="22.524232" lon="108.730784"><time>2026-04-25T01:50:59.774Z</time></trkpt>
      <trkpt lat="22.524222" lon="108.730799"><time>2026-04-25T01:50:59.790Z</time></trkpt>
      <trkpt lat="22.524222" lon="108.730799"><time>2026-04-25T01:50:59.807Z</time></trkpt>
      <trkpt lat="22.524222" lon="108.730799"><time>2026-04-25T01:50:59.824Z</time></trkpt>
      <trkpt lat="22.524222" lon="108.730799"><time>2026-04-25T01:50:59.840Z</time></trkpt>
      <trkpt lat="22.524222" lon="108.730799"><time>2026-04-25T01:50:59.857Z</time></trkpt>
      <trkpt lat="22.524222" lon="108.730799"><time>2026-04-25T01:50:59.874Z</time></trkpt>
      <trkpt lat="22.524212" lon="108.730815"><time>2026-04-25T01:50:59.890Z</time></trkpt>
      <trkpt lat="22.524212" lon="108.730815"><time>2026-04-25T01:50:59.907Z</time></trkpt>
      <trkpt lat="22.524212" lon="108.730815"><time>2026-04-25T01:50:59.924Z</time></trkpt>
      <trkpt lat="22.524212" lon="108.730815"><time>2026-04-25T01:50:59.940Z</time></trkpt>
      <trkpt lat="22.524212" lon="108.730815"><time>2026-04-25T01:50:59.957Z</time></trkpt>
      <trkpt lat="22.524212" lon="108.730815"><time>2026-04-25T01:50:59.974Z</time></trkpt>
      <trkpt lat="22.524202" lon="108.730831"><time>2026-04-25T01:50:59.991Z</time></trkpt>
      <trkpt lat="22.524202" lon="108.730831"><time>2026-04-25T01:51:00.007Z</time></trkpt>
      <trkpt lat="22.524202" lon="108.730831"><time>2026-04-25T01:51:00.024Z</time></trkpt>
      <trkpt lat="22.524202" lon="108.730831"><time>2026-04-25T01:51:00.041Z</time></trkpt>
      <trkpt lat="22.524202" lon="108.730831"><time>2026-04-25T01:51:00.057Z</time></trkpt>
      <trkpt lat="22.524202" lon="108.730831"><time>2026-04-25T01:51:00.074Z</time></trkpt>
      <trkpt lat="22.524192" lon="108.730847"><time>2026-04-25T01:51:00.091Z</time></trkpt>
      <trkpt lat="22.524192" lon="108.730847"><time>2026-04-25T01:51:00.107Z</time></trkpt>
      <trkpt lat="22.524192" lon="108.730847"><time>2026-04-25T01:51:00.124Z</time></trkpt>
      <trkpt lat="22.524192" lon="108.730847"><time>2026-04-25T01:51:00.141Z</time></trkpt>
      <trkpt lat="22.524192" lon="108.730847"><time>2026-04-25T01:51:00.157Z</time></trkpt>
      <trkpt lat="22.524192" lon="108.730847"><time>2026-04-25T01:51:00.174Z</time></trkpt>
      <trkpt lat="22.524183" lon="108.730862"><time>2026-04-25T01:51:00.191Z</time></trkpt>
      <trkpt lat="22.524183" lon="108.730862"><time>2026-04-25T01:51:00.207Z</time></trkpt>
      <trkpt lat="22.524183" lon="108.730862"><time>2026-04-25T01:51:00.224Z</time></trkpt>
      <trkpt lat="22.524183" lon="108.730862"><time>2026-04-25T01:51:00.241Z</time></trkpt>
      <trkpt lat="22.524183" lon="108.730862"><time>2026-04-25T01:51:00.257Z</time></trkpt>
      <trkpt lat="22.524183" lon="108.730862"><time>2026-04-25T01:51:00.274Z</time></trkpt>
      <trkpt lat="22.524172" lon="108.730879"><time>2026-04-25T01:51:00.291Z</time></trkpt>
      <trkpt lat="22.524172" lon="108.730879"><time>2026-04-25T01:51:00.307Z</time></trkpt>
      <trkpt lat="22.524172" lon="108.730879"><time>2026-04-25T01:51:00.324Z</time></trkpt>
      <trkpt lat="22.524172" lon="108.730879"><time>2026-04-25T01:51:00.341Z</time></trkpt>
      <trkpt lat="22.524172" lon="108.730879"><time>2026-04-25T01:51:00.358Z</time></trkpt>
      <trkpt lat="22.524172" lon="108.730879"><time>2026-04-25T01:51:00.374Z</time></trkpt>
      <trkpt lat="22.524164" lon="108.730893"><time>2026-04-25T01:51:00.391Z</time></trkpt>
      <trkpt lat="22.524164" lon="108.730893"><time>2026-04-25T01:51:00.408Z</time></trkpt>
      <trkpt lat="22.524164" lon="108.730893"><time>2026-04-25T01:51:00.424Z</time></trkpt>
      <trkpt lat="22.524164" lon="108.730893"><time>2026-04-25T01:51:00.441Z</time></trkpt>
      <trkpt lat="22.524164" lon="108.730893"><time>2026-04-25T01:51:00.458Z</time></trkpt>
      <trkpt lat="22.524164" lon="108.730893"><time>2026-04-25T01:51:00.474Z</time></trkpt>
      <trkpt lat="22.524153" lon="108.730909"><time>2026-04-25T01:51:00.491Z</time></trkpt>
      <trkpt lat="22.524153" lon="108.730909"><time>2026-04-25T01:51:00.508Z</time></trkpt>
      <trkpt lat="22.524153" lon="108.730909"><time>2026-04-25T01:51:00.524Z</time></trkpt>
      <trkpt lat="22.524153" lon="108.730909"><time>2026-04-25T01:51:00.541Z</time></trkpt>
      <trkpt lat="22.524153" lon="108.730909"><time>2026-04-25T01:51:00.558Z</time></trkpt>
      <trkpt lat="22.524153" lon="108.730909"><time>2026-04-25T01:51:00.574Z</time></trkpt>
      <trkpt lat="22.524143" lon="108.730927"><time>2026-04-25T01:51:00.591Z</time></trkpt>
      <trkpt lat="22.524143" lon="108.730927"><time>2026-04-25T01:51:00.608Z</time></trkpt>
      <trkpt lat="22.524143" lon="108.730927"><time>2026-04-25T01:51:00.624Z</time></trkpt>
      <trkpt lat="22.524143" lon="108.730927"><time>2026-04-25T01:51:00.641Z</time></trkpt>
      <trkpt lat="22.524143" lon="108.730927"><time>2026-04-25T01:51:00.658Z</time></trkpt>
      <trkpt lat="22.524143" lon="108.730927"><time>2026-04-25T01:51:00.675Z</time></trkpt>
      <trkpt lat="22.524133" lon="108.730942"><time>2026-04-25T01:51:00.691Z</time></trkpt>
      <trkpt lat="22.524133" lon="108.730942"><time>2026-04-25T01:51:00.708Z</time></trkpt>
      <trkpt lat="22.524133" lon="108.730942"><time>2026-04-25T01:51:00.725Z</time></trkpt>
      <trkpt lat="22.524133" lon="108.730942"><time>2026-04-25T01:51:00.741Z</time></trkpt>
      <trkpt lat="22.524133" lon="108.730942"><time>2026-04-25T01:51:00.758Z</time></trkpt>
      <trkpt lat="22.524133" lon="108.730942"><time>2026-04-25T01:51:00.775Z</time></trkpt>
      <trkpt lat="22.524124" lon="108.730957"><time>2026-04-25T01:51:00.791Z</time></trkpt>
      <trkpt lat="22.524124" lon="108.730957"><time>2026-04-25T01:51:00.808Z</time></trkpt>
      <trkpt lat="22.524124" lon="108.730957"><time>2026-04-25T01:51:00.825Z</time></trkpt>
      <trkpt lat="22.524124" lon="108.730957"><time>2026-04-25T01:51:00.841Z</time></trkpt>
      <trkpt lat="22.524124" lon="108.730957"><time>2026-04-25T01:51:00.858Z</time></trkpt>
      <trkpt lat="22.524124" lon="108.730957"><time>2026-04-25T01:51:00.875Z</time></trkpt>
      <trkpt lat="22.524113" lon="108.730974"><time>2026-04-25T01:51:00.891Z</time></trkpt>
      <trkpt lat="22.524113" lon="108.730974"><time>2026-04-25T01:51:00.908Z</time></trkpt>
      <trkpt lat="22.524113" lon="108.730974"><time>2026-04-25T01:51:00.925Z</time></trkpt>
      <trkpt lat="22.524113" lon="108.730974"><time>2026-04-25T01:51:00.941Z</time></trkpt>
      <trkpt lat="22.524113" lon="108.730974"><time>2026-04-25T01:51:00.958Z</time></trkpt>
      <trkpt lat="22.524113" lon="108.730974"><time>2026-04-25T01:51:00.975Z</time></trkpt>
      <trkpt lat="22.524103" lon="108.730991"><time>2026-04-25T01:51:00.992Z</time></trkpt>
      <trkpt lat="22.524103" lon="108.730991"><time>2026-04-25T01:51:01.008Z</time></trkpt>
      <trkpt lat="22.524103" lon="108.730991"><time>2026-04-25T01:51:01.025Z</time></trkpt>
      <trkpt lat="22.524103" lon="108.730991"><time>2026-04-25T01:51:01.042Z</time></trkpt>
      <trkpt lat="22.524103" lon="108.730991"><time>2026-04-25T01:51:01.058Z</time></trkpt>
      <trkpt lat="22.524103" lon="108.730991"><time>2026-04-25T01:51:01.075Z</time></trkpt>
      <trkpt lat="22.524093" lon="108.731007"><time>2026-04-25T01:51:01.092Z</time></trkpt>
      <trkpt lat="22.524093" lon="108.731007"><time>2026-04-25T01:51:01.108Z</time></trkpt>
      <trkpt lat="22.524093" lon="108.731007"><time>2026-04-25T01:51:01.125Z</time></trkpt>
      <trkpt lat="22.524093" lon="108.731007"><time>2026-04-25T01:51:01.142Z</time></trkpt>
      <trkpt lat="22.524093" lon="108.731007"><time>2026-04-25T01:51:01.158Z</time></trkpt>
      <trkpt lat="22.524093" lon="108.731007"><time>2026-04-25T01:51:01.175Z</time></trkpt>
      <trkpt lat="22.524083" lon="108.731023"><time>2026-04-25T01:51:01.192Z</time></trkpt>
      <trkpt lat="22.524083" lon="108.731023"><time>2026-04-25T01:51:01.208Z</time></trkpt>
      <trkpt lat="22.524083" lon="108.731023"><time>2026-04-25T01:51:01.225Z</time></trkpt>
      <trkpt lat="22.524083" lon="108.731023"><time>2026-04-25T01:51:01.242Z</time></trkpt>
      <trkpt lat="22.524083" lon="108.731023"><time>2026-04-25T01:51:01.258Z</time></trkpt>
      <trkpt lat="22.524083" lon="108.731023"><time>2026-04-25T01:51:01.275Z</time></trkpt>
      <trkpt lat="22.524073" lon="108.731039"><time>2026-04-25T01:51:01.292Z</time></trkpt>
      <trkpt lat="22.524073" lon="108.731039"><time>2026-04-25T01:51:01.309Z</time></trkpt>
      <trkpt lat="22.524073" lon="108.731039"><time>2026-04-25T01:51:01.325Z</time></trkpt>
      <trkpt lat="22.524073" lon="108.731039"><time>2026-04-25T01:51:01.342Z</time></trkpt>
      <trkpt lat="22.524073" lon="108.731039"><time>2026-04-25T01:51:01.359Z</time></trkpt>
      <trkpt lat="22.524073" lon="108.731039"><time>2026-04-25T01:51:01.375Z</time></trkpt>
      <trkpt lat="22.524064" lon="108.731054"><time>2026-04-25T01:51:01.392Z</time></trkpt>
      <trkpt lat="22.524064" lon="108.731054"><time>2026-04-25T01:51:01.409Z</time></trkpt>
      <trkpt lat="22.524064" lon="108.731054"><time>2026-04-25T01:51:01.425Z</time></trkpt>
      <trkpt lat="22.524064" lon="108.731054"><time>2026-04-25T01:51:01.442Z</time></trkpt>
      <trkpt lat="22.524064" lon="108.731054"><time>2026-04-25T01:51:01.459Z</time></trkpt>
      <trkpt lat="22.524064" lon="108.731054"><time>2026-04-25T01:51:01.475Z</time></trkpt>
      <trkpt lat="22.524054" lon="108.73107"><time>2026-04-25T01:51:01.492Z</time></trkpt>
      <trkpt lat="22.524054" lon="108.73107"><time>2026-04-25T01:51:01.509Z</time></trkpt>
      <trkpt lat="22.524054" lon="108.73107"><time>2026-04-25T01:51:01.525Z</time></trkpt>
      <trkpt lat="22.524054" lon="108.73107"><time>2026-04-25T01:51:01.542Z</time></trkpt>
      <trkpt lat="22.524054" lon="108.73107"><time>2026-04-25T01:51:01.559Z</time></trkpt>
      <trkpt lat="22.524054" lon="108.73107"><time>2026-04-25T01:51:01.575Z</time></trkpt>
      <trkpt lat="22.524043" lon="108.731088"><time>2026-04-25T01:51:01.592Z</time></trkpt>
      <trkpt lat="22.524043" lon="108.731088"><time>2026-04-25T01:51:01.609Z</time></trkpt>
      <trkpt lat="22.524043" lon="108.731088"><time>2026-04-25T01:51:01.626Z</time></trkpt>
      <trkpt lat="22.524043" lon="108.731088"><time>2026-04-25T01:51:01.642Z</time></trkpt>
      <trkpt lat="22.524043" lon="108.731088"><time>2026-04-25T01:51:01.659Z</time></trkpt>
      <trkpt lat="22.524043" lon="108.731088"><time>2026-04-25T01:51:01.676Z</time></trkpt>
      <trkpt lat="22.524033" lon="108.731104"><time>2026-04-25T01:51:01.692Z</time></trkpt>
      <trkpt lat="22.524033" lon="108.731104"><time>2026-04-25T01:51:01.709Z</time></trkpt>
      <trkpt lat="22.524033" lon="108.731104"><time>2026-04-25T01:51:01.726Z</time></trkpt>
      <trkpt lat="22.524033" lon="108.731104"><time>2026-04-25T01:51:01.742Z</time></trkpt>
      <trkpt lat="22.524033" lon="108.731104"><time>2026-04-25T01:51:01.759Z</time></trkpt>
      <trkpt lat="22.524033" lon="108.731104"><time>2026-04-25T01:51:01.776Z</time></trkpt>
      <trkpt lat="22.524023" lon="108.73112"><time>2026-04-25T01:51:01.792Z</time></trkpt>
      <trkpt lat="22.524023" lon="108.73112"><time>2026-04-25T01:51:01.809Z</time></trkpt>
      <trkpt lat="22.524023" lon="108.73112"><time>2026-04-25T01:51:01.826Z</time></trkpt>
      <trkpt lat="22.524023" lon="108.73112"><time>2026-04-25T01:51:01.842Z</time></trkpt>
      <trkpt lat="22.524023" lon="108.73112"><time>2026-04-25T01:51:01.859Z</time></trkpt>
      <trkpt lat="22.524023" lon="108.73112"><time>2026-04-25T01:51:01.876Z</time></trkpt>
      <trkpt lat="22.524013" lon="108.731136"><time>2026-04-25T01:51:01.892Z</time></trkpt>
      <trkpt lat="22.524013" lon="108.731136"><time>2026-04-25T01:51:01.909Z</time></trkpt>
      <trkpt lat="22.524013" lon="108.731136"><time>2026-04-25T01:51:01.926Z</time></trkpt>
      <trkpt lat="22.524013" lon="108.731136"><time>2026-04-25T01:51:01.943Z</time></trkpt>
      <trkpt lat="22.524013" lon="108.731136"><time>2026-04-25T01:51:01.959Z</time></trkpt>
      <trkpt lat="22.524013" lon="108.731136"><time>2026-04-25T01:51:01.976Z</time></trkpt>
      <trkpt lat="22.524003" lon="108.731153"><time>2026-04-25T01:51:01.993Z</time></trkpt>
      <trkpt lat="22.524003" lon="108.731153"><time>2026-04-25T01:51:02.009Z</time></trkpt>
      <trkpt lat="22.524003" lon="108.731153"><time>2026-04-25T01:51:02.026Z</time></trkpt>
      <trkpt lat="22.524003" lon="108.731153"><time>2026-04-25T01:51:02.043Z</time></trkpt>
      <trkpt lat="22.524003" lon="108.731153"><time>2026-04-25T01:51:02.059Z</time></trkpt>
      <trkpt lat="22.524003" lon="108.731153"><time>2026-04-25T01:51:02.076Z</time></trkpt>
      <trkpt lat="22.523993" lon="108.731169"><time>2026-04-25T01:51:02.093Z</time></trkpt>
      <trkpt lat="22.523993" lon="108.731169"><time>2026-04-25T01:51:02.109Z</time></trkpt>
      <trkpt lat="22.523993" lon="108.731169"><time>2026-04-25T01:51:02.126Z</time></trkpt>
      <trkpt lat="22.523993" lon="108.731169"><time>2026-04-25T01:51:02.143Z</time></trkpt>
      <trkpt lat="22.523993" lon="108.731169"><time>2026-04-25T01:51:02.159Z</time></trkpt>
      <trkpt lat="22.523993" lon="108.731169"><time>2026-04-25T01:51:02.176Z</time></trkpt>
      <trkpt lat="22.523983" lon="108.731185"><time>2026-04-25T01:51:02.193Z</time></trkpt>
      <trkpt lat="22.523983" lon="108.731185"><time>2026-04-25T01:51:02.209Z</time></trkpt>
      <trkpt lat="22.523983" lon="108.731185"><time>2026-04-25T01:51:02.226Z</time></trkpt>
      <trkpt lat="22.523983" lon="108.731185"><time>2026-04-25T01:51:02.243Z</time></trkpt>
      <trkpt lat="22.523983" lon="108.731185"><time>2026-04-25T01:51:02.260Z</time></trkpt>
      <trkpt lat="22.523983" lon="108.731185"><time>2026-04-25T01:51:02.276Z</time></trkpt>
      <trkpt lat="22.523973" lon="108.731202"><time>2026-04-25T01:51:02.293Z</time></trkpt>
      <trkpt lat="22.523973" lon="108.731202"><time>2026-04-25T01:51:02.310Z</time></trkpt>
      <trkpt lat="22.523973" lon="108.731202"><time>2026-04-25T01:51:02.326Z</time></trkpt>
      <trkpt lat="22.523973" lon="108.731202"><time>2026-04-25T01:51:02.343Z</time></trkpt>
      <trkpt lat="22.523973" lon="108.731202"><time>2026-04-25T01:51:02.360Z</time></trkpt>
      <trkpt lat="22.523973" lon="108.731202"><time>2026-04-25T01:51:02.376Z</time></trkpt>
      <trkpt lat="22.523964" lon="108.731217"><time>2026-04-25T01:51:02.393Z</time></trkpt>
      <trkpt lat="22.523964" lon="108.731217"><time>2026-04-25T01:51:02.410Z</time></trkpt>
      <trkpt lat="22.523964" lon="108.731217"><time>2026-04-25T01:51:02.426Z</time></trkpt>
      <trkpt lat="22.523964" lon="108.731217"><time>2026-04-25T01:51:02.443Z</time></trkpt>
      <trkpt lat="22.523964" lon="108.731217"><time>2026-04-25T01:51:02.460Z</time></trkpt>
      <trkpt lat="22.523964" lon="108.731217"><time>2026-04-25T01:51:02.476Z</time></trkpt>
      <trkpt lat="22.523954" lon="108.731233"><time>2026-04-25T01:51:02.493Z</time></trkpt>
      <trkpt lat="22.523954" lon="108.731233"><time>2026-04-25T01:51:02.510Z</time></trkpt>
      <trkpt lat="22.523954" lon="108.731233"><time>2026-04-25T01:51:02.526Z</time></trkpt>
      <trkpt lat="22.523954" lon="108.731233"><time>2026-04-25T01:51:02.543Z</time></trkpt>
      <trkpt lat="22.523954" lon="108.731233"><time>2026-04-25T01:51:02.560Z</time></trkpt>
      <trkpt lat="22.523954" lon="108.731233"><time>2026-04-25T01:51:02.577Z</time></trkpt>
      <trkpt lat="22.523943" lon="108.731251"><time>2026-04-25T01:51:02.593Z</time></trkpt>
      <trkpt lat="22.523943" lon="108.731251"><time>2026-04-25T01:51:02.610Z</time></trkpt>
      <trkpt lat="22.523943" lon="108.731251"><time>2026-04-25T01:51:02.627Z</time></trkpt>
      <trkpt lat="22.523943" lon="108.731251"><time>2026-04-25T01:51:02.643Z</time></trkpt>
      <trkpt lat="22.523943" lon="108.731251"><time>2026-04-25T01:51:02.660Z</time></trkpt>
      <trkpt lat="22.523943" lon="108.731251"><time>2026-04-25T01:51:02.677Z</time></trkpt>
      <trkpt lat="22.523932" lon="108.731268"><time>2026-04-25T01:51:02.693Z</time></trkpt>
      <trkpt lat="22.523932" lon="108.731268"><time>2026-04-25T01:51:02.710Z</time></trkpt>
      <trkpt lat="22.523932" lon="108.731268"><time>2026-04-25T01:51:02.727Z</time></trkpt>
      <trkpt lat="22.523932" lon="108.731268"><time>2026-04-25T01:51:02.743Z</time></trkpt>
      <trkpt lat="22.523932" lon="108.731268"><time>2026-04-25T01:51:02.760Z</time></trkpt>
      <trkpt lat="22.523932" lon="108.731268"><time>2026-04-25T01:51:02.777Z</time></trkpt>
      <trkpt lat="22.523922" lon="108.731285"><time>2026-04-25T01:51:02.793Z</time></trkpt>
      <trkpt lat="22.523922" lon="108.731285"><time>2026-04-25T01:51:02.810Z</time></trkpt>
      <trkpt lat="22.523922" lon="108.731285"><time>2026-04-25T01:51:02.827Z</time></trkpt>
      <trkpt lat="22.523922" lon="108.731285"><time>2026-04-25T01:51:02.843Z</time></trkpt>
      <trkpt lat="22.523922" lon="108.731285"><time>2026-04-25T01:51:02.860Z</time></trkpt>
      <trkpt lat="22.523922" lon="108.731285"><time>2026-04-25T01:51:02.877Z</time></trkpt>
      <trkpt lat="22.523912" lon="108.731301"><time>2026-04-25T01:51:02.894Z</time></trkpt>
      <trkpt lat="22.523912" lon="108.731301"><time>2026-04-25T01:51:02.910Z</time></trkpt>
      <trkpt lat="22.523912" lon="108.731301"><time>2026-04-25T01:51:02.927Z</time></trkpt>
      <trkpt lat="22.523912" lon="108.731301"><time>2026-04-25T01:51:02.944Z</time></trkpt>
      <trkpt lat="22.523912" lon="108.731301"><time>2026-04-25T01:51:02.960Z</time></trkpt>
      <trkpt lat="22.523912" lon="108.731301"><time>2026-04-25T01:51:02.977Z</time></trkpt>
      <trkpt lat="22.523902" lon="108.731318"><time>2026-04-25T01:51:02.994Z</time></trkpt>
      <trkpt lat="22.523902" lon="108.731318"><time>2026-04-25T01:51:03.010Z</time></trkpt>
      <trkpt lat="22.523902" lon="108.731318"><time>2026-04-25T01:51:03.027Z</time></trkpt>
      <trkpt lat="22.523902" lon="108.731318"><time>2026-04-25T01:51:03.044Z</time></trkpt>
      <trkpt lat="22.523902" lon="108.731318"><time>2026-04-25T01:51:03.060Z</time></trkpt>
      <trkpt lat="22.523902" lon="108.731318"><time>2026-04-25T01:51:03.077Z</time></trkpt>
      <trkpt lat="22.523892" lon="108.731335"><time>2026-04-25T01:51:03.094Z</time></trkpt>
      <trkpt lat="22.523892" lon="108.731335"><time>2026-04-25T01:51:03.110Z</time></trkpt>
      <trkpt lat="22.523892" lon="108.731335"><time>2026-04-25T01:51:03.127Z</time></trkpt>
      <trkpt lat="22.523892" lon="108.731335"><time>2026-04-25T01:51:03.144Z</time></trkpt>
      <trkpt lat="22.523892" lon="108.731335"><time>2026-04-25T01:51:03.160Z</time></trkpt>
      <trkpt lat="22.523892" lon="108.731335"><time>2026-04-25T01:51:03.177Z</time></trkpt>
      <trkpt lat="22.523881" lon="108.731351"><time>2026-04-25T01:51:03.194Z</time></trkpt>
      <trkpt lat="22.523881" lon="108.731351"><time>2026-04-25T01:51:03.211Z</time></trkpt>
      <trkpt lat="22.523881" lon="108.731351"><time>2026-04-25T01:51:03.227Z</time></trkpt>
      <trkpt lat="22.523881" lon="108.731351"><time>2026-04-25T01:51:03.244Z</time></trkpt>
      <trkpt lat="22.523881" lon="108.731351"><time>2026-04-25T01:51:03.261Z</time></trkpt>
      <trkpt lat="22.523881" lon="108.731351"><time>2026-04-25T01:51:03.277Z</time></trkpt>
      <trkpt lat="22.523871" lon="108.731368"><time>2026-04-25T01:51:03.294Z</time></trkpt>
      <trkpt lat="22.523871" lon="108.731368"><time>2026-04-25T01:51:03.311Z</time></trkpt>
      <trkpt lat="22.523871" lon="108.731368"><time>2026-04-25T01:51:03.327Z</time></trkpt>
      <trkpt lat="22.523871" lon="108.731368"><time>2026-04-25T01:51:03.344Z</time></trkpt>
      <trkpt lat="22.523871" lon="108.731368"><time>2026-04-25T01:51:03.361Z</time></trkpt>
      <trkpt lat="22.523871" lon="108.731368"><time>2026-04-25T01:51:03.377Z</time></trkpt>
      <trkpt lat="22.523861" lon="108.731385"><time>2026-04-25T01:51:03.394Z</time></trkpt>
      <trkpt lat="22.523861" lon="108.731385"><time>2026-04-25T01:51:03.411Z</time></trkpt>
      <trkpt lat="22.523861" lon="108.731385"><time>2026-04-25T01:51:03.427Z</time></trkpt>
      <trkpt lat="22.523861" lon="108.731385"><time>2026-04-25T01:51:03.444Z</time></trkpt>
      <trkpt lat="22.523861" lon="108.731385"><time>2026-04-25T01:51:03.461Z</time></trkpt>
      <trkpt lat="22.523861" lon="108.731385"><time>2026-04-25T01:51:03.477Z</time></trkpt>
      <trkpt lat="22.52385" lon="108.731401"><time>2026-04-25T01:51:03.494Z</time></trkpt>
      <trkpt lat="22.52385" lon="108.731401"><time>2026-04-25T01:51:03.511Z</time></trkpt>
      <trkpt lat="22.52385" lon="108.731401"><time>2026-04-25T01:51:03.528Z</time></trkpt>
      <trkpt lat="22.52385" lon="108.731401"><time>2026-04-25T01:51:03.544Z</time></trkpt>
      <trkpt lat="22.52385" lon="108.731401"><time>2026-04-25T01:51:03.561Z</time></trkpt>
      <trkpt lat="22.52385" lon="108.731401"><time>2026-04-25T01:51:03.578Z</time></trkpt>
      <trkpt lat="22.52384" lon="108.731418"><time>2026-04-25T01:51:03.594Z</time></trkpt>
      <trkpt lat="22.52384" lon="108.731418"><time>2026-04-25T01:51:03.611Z</time></trkpt>
      <trkpt lat="22.52384" lon="108.731418"><time>2026-04-25T01:51:03.628Z</time></trkpt>
      <trkpt lat="22.52384" lon="108.731418"><time>2026-04-25T01:51:03.644Z</time></trkpt>
      <trkpt lat="22.52384" lon="108.731418"><time>2026-04-25T01:51:03.661Z</time></trkpt>
      <trkpt lat="22.52384" lon="108.731418"><time>2026-04-25T01:51:03.678Z</time></trkpt>
      <trkpt lat="22.523829" lon="108.731435"><time>2026-04-25T01:51:03.694Z</time></trkpt>
      <trkpt lat="22.523829" lon="108.731435"><time>2026-04-25T01:51:03.711Z</time></trkpt>
      <trkpt lat="22.523829" lon="108.731435"><time>2026-04-25T01:51:03.728Z</time></trkpt>
      <trkpt lat="22.523829" lon="108.731435"><time>2026-04-25T01:51:03.744Z</time></trkpt>
      <trkpt lat="22.523829" lon="108.731435"><time>2026-04-25T01:51:03.761Z</time></trkpt>
      <trkpt lat="22.523829" lon="108.731435"><time>2026-04-25T01:51:03.778Z</time></trkpt>
      <trkpt lat="22.523819" lon="108.731452"><time>2026-04-25T01:51:03.794Z</time></trkpt>
      <trkpt lat="22.523819" lon="108.731452"><time>2026-04-25T01:51:03.811Z</time></trkpt>
      <trkpt lat="22.523819" lon="108.731452"><time>2026-04-25T01:51:03.828Z</time></trkpt>
      <trkpt lat="22.523819" lon="108.731452"><time>2026-04-25T01:51:03.845Z</time></trkpt>
      <trkpt lat="22.523819" lon="108.731452"><time>2026-04-25T01:51:03.861Z</time></trkpt>
      <trkpt lat="22.523819" lon="108.731452"><time>2026-04-25T01:51:03.878Z</time></trkpt>
      <trkpt lat="22.523808" lon="108.731469"><time>2026-04-25T01:51:03.895Z</time></trkpt>
      <trkpt lat="22.523808" lon="108.731469"><time>2026-04-25T01:51:03.911Z</time></trkpt>
      <trkpt lat="22.523808" lon="108.731469"><time>2026-04-25T01:51:03.928Z</time></trkpt>
      <trkpt lat="22.523808" lon="108.731469"><time>2026-04-25T01:51:03.945Z</time></trkpt>
      <trkpt lat="22.523808" lon="108.731469"><time>2026-04-25T01:51:03.961Z</time></trkpt>
      <trkpt lat="22.523808" lon="108.731469"><time>2026-04-25T01:51:03.978Z</time></trkpt>
      <trkpt lat="22.523798" lon="108.731486"><time>2026-04-25T01:51:03.995Z</time></trkpt>
      <trkpt lat="22.523798" lon="108.731486"><time>2026-04-25T01:51:04.011Z</time></trkpt>
      <trkpt lat="22.523798" lon="108.731486"><time>2026-04-25T01:51:04.028Z</time></trkpt>
      <trkpt lat="22.523798" lon="108.731486"><time>2026-04-25T01:51:04.045Z</time></trkpt>
      <trkpt lat="22.523798" lon="108.731486"><time>2026-04-25T01:51:04.061Z</time></trkpt>
      <trkpt lat="22.523798" lon="108.731486"><time>2026-04-25T01:51:04.078Z</time></trkpt>
      <trkpt lat="22.523787" lon="108.731503"><time>2026-04-25T01:51:04.095Z</time></trkpt>
      <trkpt lat="22.523787" lon="108.731503"><time>2026-04-25T01:51:04.111Z</time></trkpt>
      <trkpt lat="22.523787" lon="108.731503"><time>2026-04-25T01:51:04.128Z</time></trkpt>
      <trkpt lat="22.523787" lon="108.731503"><time>2026-04-25T01:51:04.145Z</time></trkpt>
      <trkpt lat="22.523787" lon="108.731503"><time>2026-04-25T01:51:04.162Z</time></trkpt>
      <trkpt lat="22.523787" lon="108.731503"><time>2026-04-25T01:51:04.178Z</time></trkpt>
      <trkpt lat="22.523777" lon="108.73152"><time>2026-04-25T01:51:04.195Z</time></trkpt>
      <trkpt lat="22.523777" lon="108.73152"><time>2026-04-25T01:51:04.212Z</time></trkpt>
      <trkpt lat="22.523777" lon="108.73152"><time>2026-04-25T01:51:04.228Z</time></trkpt>
      <trkpt lat="22.523777" lon="108.73152"><time>2026-04-25T01:51:04.245Z</time></trkpt>
      <trkpt lat="22.523777" lon="108.73152"><time>2026-04-25T01:51:04.262Z</time></trkpt>
      <trkpt lat="22.523777" lon="108.73152"><time>2026-04-25T01:51:04.278Z</time></trkpt>
      <trkpt lat="22.523767" lon="108.731536"><time>2026-04-25T01:51:04.295Z</time></trkpt>
      <trkpt lat="22.523767" lon="108.731536"><time>2026-04-25T01:51:04.312Z</time></trkpt>
      <trkpt lat="22.523767" lon="108.731536"><time>2026-04-25T01:51:04.328Z</time></trkpt>
      <trkpt lat="22.523767" lon="108.731536"><time>2026-04-25T01:51:04.345Z</time></trkpt>
      <trkpt lat="22.523767" lon="108.731536"><time>2026-04-25T01:51:04.362Z</time></trkpt>
      <trkpt lat="22.523767" lon="108.731536"><time>2026-04-25T01:51:04.378Z</time></trkpt>
    </trkseg>
  </trk>
</gpx>
