<?xml version="1.0" encoding="UTF-8"?>
<gpx version="1.1" creator="Kairos" xmlns="http://www.topografix.com/GPX/1/1">
  <trk>
    <name>sidecar-srt-2a37ef13c8d1dbbe</name>
    <trkseg>
      <trkpt lat="28.621032" lon="98.092724"><time>2026-04-29T06:09:30.000Z</time></trkpt>
      <trkpt lat="28.621032" lon="98.092724"><time>2026-04-29T06:09:30.016Z</time></trkpt>
      <trkpt lat="28.621032" lon="98.092724"><time>2026-04-29T06:09:30.032Z</time></trkpt>
      <trkpt lat="28.621032" lon="98.092724"><time>2026-04-29T06:09:30.049Z</time></trkpt>
      <trkpt lat="28.621032" lon="98.092724"><time>2026-04-29T06:09:30.066Z</time></trkpt>
      <trkpt lat="28.621032" lon="98.092724"><time>2026-04-29T06:09:30.082Z</time></trkpt>
      <trkpt lat="28.621032" lon="98.092724"><time>2026-04-29T06:09:30.099Z</time></trkpt>
      <trkpt lat="28.621032" lon="98.092724"><time>2026-04-29T06:09:30.116Z</time></trkpt>
      <trkpt lat="28.621032" lon="98.092724"><time>2026-04-29T06:09:30.132Z</time></trkpt>
      <trkpt lat="28.621032" lon="98.092724"><time>2026-04-29T06:09:30.149Z</time></trkpt>
      <trkpt lat="28.621032" lon="98.092724"><time>2026-04-29T06:09:30.166Z</time></trkpt>
      <trkpt lat="28.621032" lon="98.092724"><time>2026-04-29T06:09:30.182Z</time></trkpt>
      <trkpt lat="28.621032" lon="98.092724"><time>2026-04-29T06:09:30.199Z</time></trkpt>
      <trkpt lat="28.621032" lon="98.092724"><time>2026-04-29T06:09:30.216Z</time></trkpt>
      <trkpt lat="28.621032" lon="98.092724"><time>2026-04-29T06:09:30.232Z</time></trkpt>
      <trkpt lat="28.621032" lon="98.092724"><time>2026-04-29T06:09:30.249Z</time></trkpt>
      <trkpt lat="28.621032" lon="98.092724"><time>2026-04-29T06:09:30.266Z</time></trkpt>
      <trkpt lat="28.621032" lon="98.092724"><time>2026-04-29T06:09:30.282Z</time></trkpt>
      <trkpt lat="28.621032" lon="98.092724"><time>2026-04-29T06:09:30.299Z</time></trkpt>
      <trkpt lat="28.621032" lon="98.092724"><time>2026-04-29T06:09:30.316Z</time></trkpt>
      <trkpt lat="28.621032" lon="98.092724"><time>2026-04-29T06:09:30.333Z</time></trkpt>
      <trkpt lat="28.621032" lon="98.092724"><time>2026-04-29T06:09:30.349Z</time></trkpt>
      <trkpt lat="28.621032" lon="98.092724"><time>2026-04-29T06:09:30.366Z</time></trkpt>
      <trkpt lat="28.621032" lon="98.092724"><time>2026-04-29T06:09:30.383Z</time></trkpt>
      <trkpt lat="28.621032" lon="98.092724"><time>2026-04-29T06:09:30.399Z</time></trkpt>
      <trkpt lat="28.621032" lon="98.092724"><time>2026-04-29T06:09:30.416Z</time></trkpt>
      <trkpt lat="28.621032" lon="98.092724"><time>2026-04-29T06:09:30.433Z</time></trkpt>
      <trkpt lat="28.621032" lon="98.092724"><time>2026-04-29T06:09:30.449Z</time></trkpt>
      <trkpt lat="28.621032" lon="98.092724"><time>2026-04-29T06:09:30.466Z</time></trkpt>
      <trkpt lat="28.621032" lon="98.092724"><time>2026-04-29T06:09:30.483Z</time></trkpt>
      <trkpt lat="28.621032" lon="98.092724"><time>2026-04-29T06:09:30.499Z</time></trkpt>
      <trkpt lat="28.621032" lon="98.092724"><time>2026-04-29T06:09:30.516Z</time></trkpt>
      <trkpt lat="28.621032" lon="98.092724"><time>2026-04-29T06:09:30.533Z</time></trkpt>
      <trkpt lat="28.621032" lon="98.092724"><time>2026-04-29T06:09:30.549Z</time></trkpt>
      <trkpt lat="28.621032" lon="98.092724"><time>2026-04-29T06:09:30.566Z</time></trkpt>
      <trkpt lat="28.621032" lon="98.092724"><time>2026-04-29T06:09:30.583Z</time></trkpt>
      <trkpt lat="28.621032" lon="98.092724"><time>2026-04-29T06:09:30.599Z</time></trkpt>
      <trkpt lat="28.621032" lon="98.092724"><time>2026-04-29T06:09:30.616Z</time></trkpt>
      <trkpt lat="28.621032" lon="98.092724"><time>2026-04-29T06:09:30.633Z</time></trkpt>
      <trkpt lat="28.621032" lon="98.092724"><time>2026-04-29T06:09:30.650Z</time></trkpt>
      <trkpt lat="28.621032" lon="98.092724"><time>2026-04-29T06:09:30.666Z</time></trkpt>
      <trkpt lat="28.621032" lon="98.092724"><time>2026-04-29T06:09:30.683Z</time></trkpt>
      <trkpt lat="28.621032" lon="98.092724"><time>2026-04-29T06:09:30.700Z</time></trkpt>
      <trkpt lat="28.621032" lon="98.092724"><time>2026-04-29T06:09:30.716Z</time></trkpt>
      <trkpt lat="28.621032" lon="98.092724"><time>2026-04-29T06:09:30.733Z</time></trkpt>
      <trkpt lat="28.621032" lon="98.092724"><time>2026-04-29T06:09:30.750Z</time></trkpt>
      <trkpt lat="28.621032" lon="98.092724"><time>2026-04-29T06:09:30.766Z</time></trkpt>
      <trkpt lat="28.621032" lon="98.092724"><time>2026-04-29T06:09:30.783Z</time></trkpt>
      <trkpt lat="28.621032" lon="98.092724"><time>2026-04-29T06:09:30.800Z</time></trkpt>
      <trkpt lat="28.621032" lon="98.092724"><time>2026-04-29T06:09:30.816Z</time></trkpt>
      <trkpt lat="28.621032" lon="98.092724"><time>2026-04-29T06:09:30.833Z</time></trkpt>
      <trkpt lat="28.621032" lon="98.092724"><time>2026-04-29T06:09:30.850Z</time></trkpt>
      <trkpt lat="28.621032" lon="98.092724"><time>2026-04-29T06:09:30.866Z</time></trkpt>
      <trkpt lat="28.621032" lon="98.092723"><time>2026-04-29T06:09:30.883Z</time></trkpt>
      <trkpt lat="28.621032" lon="98.092723"><time>2026-04-29T06:09:30.900Z</time></trkpt>
      <trkpt lat="28.621032" lon="98.092723"><time>2026-04-29T06:09:30.916Z</time></trkpt>
      <trkpt lat="28.621032" lon="98.092723"><time>2026-04-29T06:09:30.933Z</time></trkpt>
      <trkpt lat="28.621032" lon="98.092723"><time>2026-04-29T06:09:30.950Z</time></trkpt>
      <trkpt lat="28.621032" lon="98.092723"><time>2026-04-29T06:09:30.967Z</time></trkpt>
      <trkpt lat="28.621032" lon="98.092723"><time>2026-04-29T06:09:30.983Z</time></trkpt>
      <trkpt lat="28.621032" lon="98.092723"><time>2026-04-29T06:09:31.000Z</time></trkpt>
      <trkpt lat="28.621032" lon="98.092723"><time>2026-04-29T06:09:31.017Z</time></trkpt>
      <trkpt lat="28.621032" lon="98.092723"><time>2026-04-29T06:09:31.033Z</time></trkpt>
      <trkpt lat="28.621032" lon="98.092723"><time>2026-04-29T06:09:31.050Z</time></trkpt>
      <trkpt lat="28.621032" lon="98.092723"><time>2026-04-29T06:09:31.067Z</time></trkpt>
      <trkpt lat="28.621032" lon="98.092723"><time>2026-04-29T06:09:31.083Z</time></trkpt>
      <trkpt lat="28.621032" lon="98.092723"><time>2026-04-29T06:09:31.100Z</time></trkpt>
      <trkpt lat="28.621032" lon="98.092723"><time>2026-04-29T06:09:31.117Z</time></trkpt>
      <trkpt lat="28.621032" lon="98.092723"><time>2026-04-29T06:09:31.133Z</time></trkpt>
      <trkpt lat="28.621032" lon="98.092723"><time>2026-04-29T06:09:31.150Z</time></trkpt>
      <trkpt lat="28.621032" lon="98.092723"><time>2026-04-29T06:09:31.167Z</time></trkpt>
      <trkpt lat="28.621032" lon="98.092723"><time>2026-04-29T06:09:31.183Z</time></trkpt>
      <trkpt lat="28.621032" lon="98.092723"><time>2026-04-29T06:09:31.200Z</time></trkpt>
      <trkpt lat="28.621032" lon="98.092723"><time>2026-04-29T06:09:31.217Z</time></trkpt>
      <trkpt lat="28.621032" lon="98.092723"><time>2026-04-29T06:09:31.233Z</time></trkpt>
      <trkpt lat="28.621032" lon="98.092723"><time>2026-04-29T06:09:31.250Z</time></trkpt>
      <trkpt lat="28.621032" lon="98.092723"><time>2026-04-29T06:09:31.267Z</time></trkpt>
      <trkpt lat="28.621032" lon="98.092723"><time>2026-04-29T06:09:31.284Z</time></trkpt>
      <trkpt lat="28.621032" lon="98.092723"><time>2026-04-29T06:09:31.300Z</time></trkpt>
      <trkpt lat="28.621032" lon="98.092723"><time>2026-04-29T06:09:31.317Z</time></trkpt>
      <trkpt lat="28.621032" lon="98.092723"><time>2026-04-29T06:09:31.334Z</time></trkpt>
      <trkpt lat="28.621032" lon="98.092723"><time>2026-04-29T06:09:31.350Z</time></trkpt>
      <trkpt lat="28.621032" lon="98.092723"><time>2026-04-29T06:09:31.367Z</time></trkpt>
      <trkpt lat="28.621032" lon="98.092723"><time>2026-04-29T06:09:31.384Z</time></trkpt>
      <trkpt lat="28.621032" lon="98.092723"><time>2026-04-29T06:09:31.400Z</time></trkpt>
      <trkpt lat="28.621032" lon="98.092723"><time>2026-04-29T06:09:31.417Z</time></trkpt>
      <trkpt lat="28.621032" lon="98.092723"><time>2026-04-29T06:09:31.434Z</time></trkpt>
      <trkpt lat="28.621032" lon="98.092723"><time>2026-04-29T06:09:31.450Z</time></trkpt>
      <trkpt lat="28.621032" lon="98.092723"><time>2026-04-29T06:09:31.467Z</time></trkpt>
      <trkpt lat="28.621032" lon="98.092723"><time>2026-04-29T06:09:31.484Z</time></trkpt>
      <trkpt lat="28.621032" lon="98.092723"><time>2026-04-29T06:09:31.500Z</time></trkpt>
      <trkpt lat="28.621032" lon="98.092723"><time>2026-04-29T06:09:31.517Z</time></trkpt>
      <trkpt lat="28.621032" lon="98.092723"><time>2026-04-29T06:09:31.534Z</time></trkpt>
      <trkpt lat="28.621032" lon="98.092723"><time>2026-04-29T06:09:31.550Z</time></trkpt>
      <trkpt lat="28.621032" lon="98.092723"><time>2026-04-29T06:09:31.567Z</time></trkpt>
      <trkpt lat="28.621032" lon="98.092723"><time>2026-04-29T06:09:31.584Z</time></trkpt>
      <trkpt lat="28.621032" lon="98.092723"><time>2026-04-29T06:09:31.600Z</time></trkpt>
      <trkpt lat="28.621032" lon="98.092723"><time>2026-04-29T06:09:31.617Z</time></trkpt>
      <trkpt lat="28.621032" lon="98.092723"><time>2026-04-29T06:09:31.634Z</time></trkpt>
      <trkpt lat="28.621032" lon="98.092723"><time>2026-04-29T06:09:31.651Z</time></trkpt>
      <trkpt lat="28.621032" lon="98.092723"><time>2026-04-29T06:09:31.667Z</time></trkpt>
      <trkpt lat="28.621032" lon="98.092723"><time>2026-04-29T06:09:31.684Z</time></trkpt>
      <trkpt lat="28.621032" lon="98.092723"><time>2026-04-29T06:09:31.701Z</time></trkpt>
      <trkpt lat="28.621032" lon="98.092723"><time>2026-04-29T06:09:31.717Z</time></trkpt>
      <trkpt lat="28.621032" lon="98.092723"><time>2026-04-29T06:09:31.734Z</time></trkpt>
      <trkpt lat="28.621032" lon="98.092723"><time>2026-04-29T06:09:31.751Z</time></trkpt>
      <trkpt lat="28.621032" lon="98.092723"><time>2026-04-29T06:09:31.767Z</time></trkpt>
      <trkpt lat="28.621032" lon="98.092723"><time>2026-04-29T06:09:31.784Z</time></trkpt>
      <trkpt lat="28.621032" lon="98.092723"><time>2026-04-29T06:09:31.801Z</time></trkpt>
      <trkpt lat="28.621032" lon="98.092723"><time>2026-04-29T06:09:31.817Z</time></trkpt>
      <trkpt lat="28.621032" lon="98.092723"><time>2026-04-29T06:09:31.834Z</time></trkpt>
      <trkpt lat="28.621032" lon="98.092723"><time>2026-04-29T06:09:31.851Z</time></trkpt>
      <trkpt lat="28.621032" lon="98.092723"><time>2026-04-29T06:09:31.867Z</time></trkpt>
      <trkpt lat="28.621032" lon="98.092723"><time>2026-04-29T06:09:31.884Z</time></trkpt>
      <trkpt lat="28.621032" lon="98.092723"><time>2026-04-29T06:09:31.901Z</time></trkpt>
      <trkpt lat="28.621032" lon="98.092723"><time>2026-04-29T06:09:31.917Z</time></trkpt>
      <trkpt lat="28.621032" lon="98.092723"><time>2026-04-29T06:09:31.934Z</time></trkpt>
      <trkpt lat="28.621032" lon="98.092723"><time>2026-04-29T06:09:31.951Z</time></trkpt>
      <trkpt lat="28.621032" lon="98.092723"><time>2026-04-29T06:09:31.968Z</time></trkpt>
      <trkpt lat="28.621032" lon="98.092723"><time>2026-04-29T06:09:31.984Z</time></trkpt>
      <trkpt lat="28.621032" lon="98.092723"><time>2026-04-29T06:09:32.001Z</time></trkpt>
      <trkpt lat="28.621032" lon="98.092723"><time>2026-04-29T06:09:32.018Z</time></trkpt>
      <trkpt lat="28.621032" lon="98.092723"><time>2026-04-29T06:09:32.034Z</time></trkpt>
      <trkpt lat="28.621032" lon="98.092723"><time>2026-04-29T06:09:32.051Z</time></trkpt>
      <trkpt lat="28.621032" lon="98.092723"><time>2026-04-29T06:09:32.068Z</time></trkpt>
      <trkpt lat="28.621032" lon="98.092723"><time>2026-04-29T06:09:32.084Z</time></trkpt>
      <trkpt lat="28.621032" lon="98.092723"><time>2026-04-29T06:09:32.101Z</time></trkpt>
      <trkpt lat="28.621032" lon="98.092723"><time>2026-04-29T06:09:32.118Z</time></trkpt>
      <trkpt lat="28.621032" lon="98.092723"><time>2026-04-29T06:09:32.134Z</time></trkpt>
      <trkpt lat="28.621032" lon="98.092723"><time>2026-04-29T06:09:32.151Z</time></trkpt>
      <trkpt lat="28.621032" lon="98.092723"><time>2026-04-29T06:09:32.168Z</time></trkpt>
      <trkpt lat="28.621032" lon="98.092723"><time>2026-04-29T06:09:32.184Z</time></trkpt>
      <trkpt lat="28.621032" lon="98.092723"><time>2026-04-29T06:09:32.201Z</time></trkpt>
      <trkpt lat="28.621032" lon="98.092723"><time>2026-04-29T06:09:32.218Z</time></trkpt>
      <trkpt lat="28.621032" lon="98.092723"><time>2026-04-29T06:09:32.234Z</time></trkpt>
      <trkpt lat="28.621032" lon="98.092723"><time>2026-04-29T06:09:32.251Z</time></trkpt>
      <trkpt lat="28.621032" lon="98.092723"><time>2026-04-29T06:09:32.268Z</time></trkpt>
      <trkpt lat="28.621032" lon="98.092723"><time>2026-04-29T06:09:32.285Z</time></trkpt>
      <trkpt lat="28.621032" lon="98.092723"><time>2026-04-29T06:09:32.301Z</time></trkpt>
      <trkpt lat="28.621032" lon="98.092723"><time>2026-04-29T06:09:32.318Z</time></trkpt>
      <trkpt lat="28.621032" lon="98.092723"><time>2026-04-29T06:09:32.335Z</time></trkpt>
      <trkpt lat="28.621032" lon="98.092723"><time>2026-04-29T06:09:32.351Z</time></trkpt>
      <trkpt lat="28.621032" lon="98.092723"><time>2026-04-29T06:09:32.368Z</time></trkpt>
      <trkpt lat="28.621032" lon="98.092724"><time>2026-04-29T06:09:32.385Z</time></trkpt>
      <trkpt lat="28.621032" lon="98.092724"><time>2026-04-29T06:09:32.401Z</time></trkpt>
      <trkpt lat="28.621032" lon="98.092724"><time>2026-04-29T06:09:32.418Z</time></trkpt>
      <trkpt lat="28.621032" lon="98.092724"><time>2026-04-29T06:09:32.435Z</time></trkpt>
      <trkpt lat="28.621032" lon="98.092724"><time>2026-04-29T06:09:32.451Z</time></trkpt>
      <trkpt lat="28.621032" lon="98.092724"><time>2026-04-29T06:09:32.468Z</time></trkpt>
      <trkpt lat="28.621032" lon="98.092724"><time>2026-04-29T06:09:32.485Z</time></trkpt>
      <trkpt lat="28.621032" lon="98.092724"><time>2026-04-29T06:09:32.501Z</time></trkpt>
      <trkpt lat="28.621032" lon="98.092724"><time>2026-04-29T06:09:32.518Z</time></trkpt>
      <trkpt lat="28.621032" lon="98.092724"><time>2026-04-29T06:09:32.535Z</time></trkpt>
      <trkpt lat="28.621032" lon="98.092724"><time>2026-04-29T06:09:32.551Z</time></trkpt>
      <trkpt lat="28.621032" lon="98.092724"><time>2026-04-29T06:09:32.568Z</time></trkpt>
      <trkpt lat="28.621031" lon="98.092724"><time>2026-04-29T06:09:32.585Z</time></trkpt>
      <trkpt lat="28.621031" lon="98.092724"><time>2026-04-29T06:09:32.602Z</time></trkpt>
      <trkpt lat="28.621031" lon="98.092724"><time>2026-04-29T06:09:32.618Z</time></trkpt>
      <trkpt lat="28.621031" lon="98.092724"><time>2026-04-29T06:09:32.635Z</time></trkpt>
      <trkpt lat="28.621031" lon="98.092724"><time>2026-04-29T06:09:32.652Z</time></trkpt>
      <trkpt lat="28.621031" lon="98.092724"><time>2026-04-29T06:09:32.668Z</time></trkpt>
      <trkpt lat="28.621031" lon="98.092724"><time>2026-04-29T06:09:32.685Z</time></trkpt>
      <trkpt lat="28.621031" lon="98.092724"><time>2026-04-29T06:09:32.702Z</time></trkpt>
      <trkpt lat="28.621031" lon="98.092724"><time>2026-04-29T06:09:32.718Z</time></trkpt>
      <trkpt lat="28.621031" lon="98.092724"><time>2026-04-29T06:09:32.735Z</time></trkpt>
      <trkpt lat="28.621031" lon="98.092724"><time>2026-04-29T06:09:32.752Z</time></trkpt>
      <trkpt lat="28.621031" lon="98.092724"><time>2026-04-29T06:09:32.768Z</time></trkpt>
      <trkpt lat="28.621031" lon="98.092724"><time>2026-04-29T06:09:32.785Z</time></trkpt>
      <trkpt lat="28.621031" lon="98.092724"><time>2026-04-29T06:09:32.802Z</time></trkpt>
      <trkpt lat="28.621031" lon="98.092724"><time>2026-04-29T06:09:32.818Z</time></trkpt>
      <trkpt lat="28.621031" lon="98.092724"><time>2026-04-29T06:09:32.835Z</time></trkpt>
      <trkpt lat="28.621031" lon="98.092724"><time>2026-04-29T06:09:32.852Z</time></trkpt>
      <trkpt lat="28.621031" lon="98.092724"><time>2026-04-29T06:09:32.868Z</time></trkpt>
      <trkpt lat="28.621031" lon="98.092724"><time>2026-04-29T06:09:32.885Z</time></trkpt>
      <trkpt lat="28.621031" lon="98.092724"><time>2026-04-29T06:09:32.902Z</time></trkpt>
      <trkpt lat="28.621031" lon="98.092724"><time>2026-04-29T06:09:32.919Z</time></trkpt>
      <trkpt lat="28.621031" lon="98.092724"><time>2026-04-29T06:09:32.935Z</time></trkpt>
      <trkpt lat="28.621031" lon="98.092724"><time>2026-04-29T06:09:32.952Z</time></trkpt>
      <trkpt lat="28.621031" lon="98.092724"><time>2026-04-29T06:09:32.969Z</time></trkpt>
      <trkpt lat="28.621031" lon="98.092724"><time>2026-04-29T06:09:32.985Z</time></trkpt>
      <trkpt lat="28.621031" lon="98.092724"><time>2026-04-29T06:09:33.002Z</time></trkpt>
      <trkpt lat="28.621031" lon="98.092724"><time>2026-04-29T06:09:33.019Z</time></trkpt>
      <trkpt lat="28.621031" lon="98.092724"><time>2026-04-29T06:09:33.035Z</time></trkpt>
      <trkpt lat="28.621031" lon="98.092724"><time>2026-04-29T06:09:33.052Z</time></trkpt>
      <trkpt lat="28.621031" lon="98.092724"><time>2026-04-29T06:09:33.069Z</time></trkpt>
      <trkpt lat="28.621031" lon="98.092724"><time>2026-04-29T06:09:33.085Z</time></trkpt>
      <trkpt lat="28.621031" lon="98.092724"><time>2026-04-29T06:09:33.102Z</time></trkpt>
      <trkpt lat="28.621031" lon="98.092724"><time>2026-04-29T06:09:33.119Z</time></trkpt>
      <trkpt lat="28.621031" lon="98.092724"><time>2026-04-29T06:09:33.135Z</time></trkpt>
      <trkpt lat="28.621031" lon="98.092724"><time>2026-04-29T06:09:33.152Z</time></trkpt>
      <trkpt lat="28.621031" lon="98.092724"><time>2026-04-29T06:09:33.169Z</time></trkpt>
      <trkpt lat="28.621031" lon="98.092724"><time>2026-04-29T06:09:33.185Z</time></trkpt>
      <trkpt lat="28.621031" lon="98.092724"><time>2026-04-29T06:09:33.202Z</time></trkpt>
      <trkpt lat="28.621031" lon="98.092724"><time>2026-04-29T06:09:33.219Z</time></trkpt>
      <trkpt lat="28.621031" lon="98.092724"><time>2026-04-29T06:09:33.236Z</time></trkpt>
      <trkpt lat="28.621031" lon="98.092724"><time>2026-04-29T06:09:33.252Z</time></trkpt>
      <trkpt lat="28.621031" lon="98.092724"><time>2026-04-29T06:09:33.269Z</time></trkpt>
      <trkpt lat="28.621032" lon="98.092724"><time>2026-04-29T06:09:33.286Z</time></trkpt>
      <trkpt lat="28.621032" lon="98.092724"><time>2026-04-29T06:09:33.302Z</time></trkpt>
      <trkpt lat="28.621032" lon="98.092724"><time>2026-04-29T06:09:33.319Z</time></trkpt>
      <trkpt lat="28.621032" lon="98.092724"><time>2026-04-29T06:09:33.336Z</time></trkpt>
      <trkpt lat="28.621032" lon="98.092724"><time>2026-04-29T06:09:33.352Z</time></trkpt>
      <trkpt lat="28.621032" lon="98.092724"><time>2026-04-29T06:09:33.369Z</time></trkpt>
      <trkpt lat="28.621032" lon="98.092724"><time>2026-04-29T06:09:33.386Z</time></trkpt>
      <trkpt lat="28.621032" lon="98.092724"><time>2026-04-29T06:09:33.402Z</time></trkpt>
      <trkpt lat="28.621032" lon="98.092724"><time>2026-04-29T06:09:33.419Z</time></trkpt>
      <trkpt lat="28.621032" lon="98.092724"><time>2026-04-29T06:09:33.436Z</time></trkpt>
      <trkpt lat="28.621032" lon="98.092724"><time>2026-04-29T06:09:33.452Z</time></trkpt>
      <trkpt lat="28.621032" lon="98.092724"><time>2026-04-29T06:09:33.469Z</time></trkpt>
      <trkpt lat="28.621032" lon="98.092724"><time>2026-04-29T06:09:33.486Z</time></trkpt>
      <trkpt lat="28.621032" lon="98.092724"><time>2026-04-29T06:09:33.502Z</time></trkpt>
      <trkpt lat="28.621032" lon="98.092724"><time>2026-04-29T06:09:33.519Z</time></trkpt>
      <trkpt lat="28.621032" lon="98.092724"><time>2026-04-29T06:09:33.536Z</time></trkpt>
      <trkpt lat="28.621032" lon="98.092724"><time>2026-04-29T06:09:33.553Z</time></trkpt>
      <trkpt lat="28.621032" lon="98.092724"><time>2026-04-29T06:09:33.569Z</time></trkpt>
      <trkpt lat="28.621032" lon="98.092724"><time>2026-04-29T06:09:33.586Z</time></trkpt>
      <trkpt lat="28.621032" lon="98.092724"><time>2026-04-29T06:09:33.603Z</time></trkpt>
      <trkpt lat="28.621032" lon="98.092724"><time>2026-04-29T06:09:33.619Z</time></trkpt>
      <trkpt lat="28.621032" lon="98.092724"><time>2026-04-29T06:09:33.636Z</time></trkpt>
      <trkpt lat="28.621032" lon="98.092724"><time>2026-04-29T06:09:33.653Z</time></trkpt>
      <trkpt lat="28.621032" lon="98.092724"><time>2026-04-29T06:09:33.669Z</time></trkpt>
      <trkpt lat="28.621032" lon="98.092724"><time>2026-04-29T06:09:33.686Z</time></trkpt>
      <trkpt lat="28.621032" lon="98.092724"><time>2026-04-29T06:09:33.703Z</time></trkpt>
      <trkpt lat="28.621032" lon="98.092724"><time>2026-04-29T06:09:33.719Z</time></trkpt>
      <trkpt lat="28.621032" lon="98.092724"><time>2026-04-29T06:09:33.736Z</time></trkpt>
      <trkpt lat="28.621032" lon="98.092724"><time>2026-04-29T06:09:33.753Z</time></trkpt>
      <trkpt lat="28.621032" lon="98.092724"><time>2026-04-29T06:09:33.769Z</time></trkpt>
      <trkpt lat="28.621032" lon="98.092724"><time>2026-04-29T06:09:33.786Z</time></trkpt>
      <trkpt lat="28.621032" lon="98.092724"><time>2026-04-29T06:09:33.803Z</time></trkpt>
      <trkpt lat="28.621032" lon="98.092724"><time>2026-04-29T06:09:33.819Z</time></trkpt>
      <trkpt lat="28.621032" lon="98.092724"><time>2026-04-29T06:09:33.836Z</time></trkpt>
      <trkpt lat="28.621032" lon="98.092724"><time>2026-04-29T06:09:33.853Z</time></trkpt>
      <trkpt lat="28.621032" lon="98.092724"><time>2026-04-29T06:09:33.870Z</time></trkpt>
      <trkpt lat="28.621032" lon="98.092724"><time>2026-04-29T06:09:33.886Z</time></trkpt>
      <trkpt lat="28.621032" lon="98.092724"><time>2026-04-29T06:09:33.903Z</time></trkpt>
      <trkpt lat="28.621032" lon="98.092724"><time>2026-04-29T06:09:33.920Z</time></trkpt>
      <trkpt lat="28.621032" lon="98.092724"><time>2026-04-29T06:09:33.936Z</time></trkpt>
      <trkpt lat="28.621032" lon="98.092724"><time>2026-04-29T06:09:33.953Z</time></trkpt>
      <trkpt lat="28.621032" lon="98.092724"><time>2026-04-29T06:09:33.970Z</time></trkpt>
      <trkpt lat="28.621032" lon="98.092724"><time>2026-04-29T06:09:33.986Z</time></trkpt>
      <trkpt lat="28.621032" lon="98.092724"><time>2026-04-29T06:09:34.003Z</time></trkpt>
      <trkpt lat="28.621032" lon="98.092724"><time>2026-04-29T06:09:34.020Z</time></trkpt>
      <trkpt lat="28.621032" lon="98.092724"><time>2026-04-29T06:09:34.036Z</time></trkpt>
      <trkpt lat="28.621032" lon="98.092724"><time>2026-04-29T06:09:34.053Z</time></trkpt>
      <trkpt lat="28.621032" lon="98.092724"><time>2026-04-29T06:09:34.070Z</time></trkpt>
      <trkpt lat="28.621032" lon="98.092724"><time>2026-04-29T06:09:34.086Z</time></trkpt>
      <trkpt lat="28.621032" lon="98.092724"><time>2026-04-29T06:09:34.103Z</time></trkpt>
      <trkpt lat="28.621032" lon="98.092724"><time>2026-04-29T06:09:34.120Z</time></trkpt>
      <trkpt lat="28.621032" lon="98.092724"><time>2026-04-29T06:09:34.136Z</time></trkpt>
      <trkpt lat="28.621032" lon="98.092724"><time>2026-04-29T06:09:34.153Z</time></trkpt>
      <trkpt lat="28.621032" lon="98.092724"><time>2026-04-29T06:09:34.170Z</time></trkpt>
      <trkpt lat="28.621032" lon="98.092724"><time>2026-04-29T06:09:34.187Z</time></trkpt>
      <trkpt lat="28.621032" lon="98.092724"><time>2026-04-29T06:09:34.203Z</time></trkpt>
      <trkpt lat="28.621032" lon="98.092724"><time>2026-04-29T06:09:34.220Z</time></trkpt>
      <trkpt lat="28.621032" lon="98.092724"><time>2026-04-29T06:09:34.237Z</time></trkpt>
      <trkpt lat="28.621032" lon="98.092724"><time>2026-04-29T06:09:34.253Z</time></trkpt>
      <trkpt lat="28.621032" lon="98.092724"><time>2026-04-29T06:09:34.270Z</time></trkpt>
      <trkpt lat="28.621032" lon="98.092724"><time>2026-04-29T06:09:34.287Z</time></trkpt>
      <trkpt lat="28.621032" lon="98.092724"><time>2026-04-29T06:09:34.303Z</time></trkpt>
      <trkpt lat="28.621032" lon="98.092724"><time>2026-04-29T06:09:34.320Z</time></trkpt>
      <trkpt lat="28.621032" lon="98.092724"><time>2026-04-29T06:09:34.337Z</time></trkpt>
      <trkpt lat="28.621032" lon="98.092724"><time>2026-04-29T06:09:34.353Z</time></trkpt>
      <trkpt lat="28.621032" lon="98.092724"><time>2026-04-29T06:09:34.370Z</time></trkpt>
      <trkpt lat="28.621032" lon="98.092724"><time>2026-04-29T06:09:34.387Z</time></trkpt>
      <trkpt lat="28.621032" lon="98.092724"><time>2026-04-29T06:09:34.403Z</time></trkpt>
      <trkpt lat="28.621032" lon="98.092724"><time>2026-04-29T06:09:34.420Z</time></trkpt>
      <trkpt lat="28.621032" lon="98.092724"><time>2026-04-29T06:09:34.437Z</time></trkpt>
      <trkpt lat="28.621032" lon="98.092724"><time>2026-04-29T06:09:34.453Z</time></trkpt>
      <trkpt lat="28.621032" lon="98.092724"><time>2026-04-29T06:09:34.470Z</time></trkpt>
      <trkpt lat="28.621032" lon="98.092724"><time>2026-04-29T06:09:34.487Z</time></trkpt>
      <trkpt lat="28.621032" lon="98.092724"><time>2026-04-29T06:09:34.504Z</time></trkpt>
      <trkpt lat="28.621032" lon="98.092724"><time>2026-04-29T06:09:34.520Z</time></trkpt>
      <trkpt lat="28.621032" lon="98.092724"><time>2026-04-29T06:09:34.537Z</time></trkpt>
      <trkpt lat="28.621032" lon="98.092724"><time>2026-04-29T06:09:34.554Z</time></trkpt>
      <trkpt lat="28.621032" lon="98.092724"><time>2026-04-29T06:09:34.570Z</time></trkpt>
      <trkpt lat="28.621032" lon="98.092724"><time>2026-04-29T06:09:34.587Z</time></trkpt>
      <trkpt lat="28.621032" lon="98.092724"><time>2026-04-29T06:09:34.604Z</time></trkpt>
      <trkpt lat="28.621032" lon="98.092724"><time>2026-04-29T06:09:34.620Z</time></trkpt>
      <trkpt lat="28.621032" lon="98.092724"><time>2026-04-29T06:09:34.637Z</time></trkpt>
      <trkpt lat="28.621032" lon="98.092724"><time>2026-04-29T06:09:34.654Z</time></trkpt>
      <trkpt lat="28.621032" lon="98.092724"><time>2026-04-29T06:09:34.670Z</time></trkpt>
      <trkpt lat="28.621032" lon="98.092724"><time>2026-04-29T06:09:34.687Z</time></trkpt>
      <trkpt lat="28.621032" lon="98.092724"><time>2026-04-29T06:09:34.704Z</time></trkpt>
      <trkpt lat="28.621032" lon="98.092724"><time>2026-04-29T06:09:34.720Z</time></trkpt>
      <trkpt lat="28.621032" lon="98.092724"><time>2026-04-29T06:09:34.737Z</time></trkpt>
      <trkpt lat="28.621032" lon="98.092724"><time>2026-04-29T06:09:34.754Z</time></trkpt>
      <trkpt lat="28.621032" lon="98.092724"><time>2026-04-29T06:09:34.770Z</time></trkpt>
      <trkpt lat="28.621032" lon="98.092724"><time>2026-04-29T06:09:34.787Z</time></trkpt>
      <trkpt lat="28.621032" lon="98.092724"><time>2026-04-29T06:09:34.804Z</time></trkpt>
      <trkpt lat="28.621032" lon="98.092724"><time>2026-04-29T06:09:34.821Z</time></trkpt>
      <trkpt lat="28.621032" lon="98.092724"><time>2026-04-29T06:09:34.837Z</time></trkpt>
      <trkpt lat="28.621032" lon="98.092724"><time>2026-04-29T06:09:34.854Z</time></trkpt>
      <trkpt lat="28.621032" lon="98.092724"><time>2026-04-29T06:09:34.871Z</time></trkpt>
      <trkpt lat="28.621032" lon="98.092724"><time>2026-04-29T06:09:34.887Z</time></trkpt>
      <trkpt lat="28.621032" lon="98.092724"><time>2026-04-29T06:09:34.904Z</time></trkpt>
      <trkpt lat="28.621032" lon="98.092724"><time>2026-04-29T06:09:34.921Z</time></trkpt>
      <trkpt lat="28.621032" lon="98.092724"><time>2026-04-29T06:09:34.937Z</time></trkpt>
      <trkpt lat="28.621032" lon="98.092724"><time>2026-04-29T06:09:34.954Z</time></trkpt>
      <trkpt lat="28.621032" lon="98.092724"><time>2026-04-29T06:09:34.971Z</time></trkpt>
      <trkpt lat="28.621032" lon="98.092724"><time>2026-04-29T06:09:34.987Z</time></trkpt>
      <trkpt lat="28.621032" lon="98.092724"><time>2026-04-29T06:09:35.004Z</time></trkpt>
      <trkpt lat="28.621032" lon="98.092724"><time>2026-04-29T06:09:35.021Z</time></trkpt>
      <trkpt lat="28.621032" lon="98.092724"><time>2026-04-29T06:09:35.037Z</time></trkpt>
      <trkpt lat="28.621032" lon="98.092724"><time>2026-04-29T06:09:35.054Z</time></trkpt>
      <trkpt lat="28.621032" lon="98.092724"><time>2026-04-29T06:09:35.071Z</time></trkpt>
      <trkpt lat="28.621032" lon="98.092724"><time>2026-04-29T06:09:35.087Z</time></trkpt>
      <trkpt lat="28.621032" lon="98.092724"><time>2026-04-29T06:09:35.104Z</time></trkpt>
      <trkpt lat="28.621032" lon="98.092724"><time>2026-04-29T06:09:35.121Z</time></trkpt>
      <trkpt lat="28.621032" lon="98.092724"><time>2026-04-29T06:09:35.138Z</time></trkpt>
      <trkpt lat="28.621032" lon="98.092724"><time>2026-04-29T06:09:35.154Z</time></trkpt>
      <trkpt lat="28.621032" lon="98.092724"><time>2026-04-29T06:09:35.171Z</time></trkpt>
      <trkpt lat="28.621032" lon="98.092724"><time>2026-04-29T06:09:35.188Z</time></trkpt>
      <trkpt lat="28.621032" lon="98.092724"><time>2026-04-29T06:09:35.204Z</time></trkpt>
      <trkpt lat="28.621032" lon="98.092724"><time>2026-04-29T06:09:35.221Z</time></trkpt>
      <trkpt lat="28.621032" lon="98.092724"><time>2026-04-29T06:09:35.238Z</time></trkpt>
      <trkpt lat="28.621032" lon="98.092724"><time>2026-04-29T06:09:35.254Z</time></trkpt>
      <trkpt lat="28.621032" lon="98.092724"><time>2026-04-29T06:09:35.271Z</time></trkpt>
      <trkpt lat="28.621032" lon="98.092724"><time>2026-04-29T06:09:35.288Z</time></trkpt>
      <trkpt lat="28.621032" lon="98.092724"><time>2026-04-29T06:09:35.304Z</time></trkpt>
      <trkpt lat="28.621032" lon="98.092724"><time>2026-04-29T06:09:35.321Z</time></trkpt>
      <trkpt lat="28.621032" lon="98.092724"><time>2026-04-29T06:09:35.338Z</time></trkpt>
      <trkpt lat="28.621032" lon="98.092724"><time>2026-04-29T06:09:35.354Z</time></trkpt>
      <trkpt lat="28.621032" lon="98.092724"><time>2026-04-29T06:09:35.371Z</time></trkpt>
      <trkpt lat="28.621032" lon="98.092724"><time>2026-04-29T06:09:35.388Z</time></trkpt>
      <trkpt lat="28.621032" lon="98.092724"><time>2026-04-29T06:09:35.404Z</time></trkpt>
      <trkpt lat="28.621032" lon="98.092724"><time>2026-04-29T06:09:35.421Z</time></trkpt>
      <trkpt lat="28.621032" lon="98.092724"><time>2026-04-29T06:09:35.438Z</time></trkpt>
      <trkpt lat="28.621032" lon="98.092724"><time>2026-04-29T06:09:35.455Z</time></trkpt>
      <trkpt lat="28.621032" lon="98.092724"><time>2026-04-29T06:09:35.471Z</time></trkpt>
      <trkpt lat="28.621032" lon="98.092724"><time>2026-04-29T06:09:35.488Z</time></trkpt>
      <trkpt lat="28.621032" lon="98.092724"><time>2026-04-29T06:09:35.505Z</time></trkpt>
      <trkpt lat="28.621032" lon="98.092724"><time>2026-04-29T06:09:35.521Z</time></trkpt>
      <trkpt lat="28.621032" lon="98.092724"><time>2026-04-29T06:09:35.538Z</time></trkpt>
      <trkpt lat="28.621032" lon="98.092724"><time>2026-04-29T06:09:35.555Z</time></trkpt>
      <trkpt lat="28.621032" lon="98.092724"><time>2026-04-29T06:09:35.571Z</time></trkpt>
      <trkpt lat="28.621032" lon="98.092724"><time>2026-04-29T06:09:35.588Z</time></trkpt>
      <trkpt lat="28.621032" lon="98.092724"><time>2026-04-29T06:09:35.605Z</time></trkpt>
      <trkpt lat="28.621032" lon="98.092724"><time>2026-04-29T06:09:35.621Z</time></trkpt>
      <trkpt lat="28.621032" lon="98.092724"><time>2026-04-29T06:09:35.638Z</time></trkpt>
      <trkpt lat="28.621032" lon="98.092724"><time>2026-04-29T06:09:35.655Z</time></trkpt>
      <trkpt lat="28.621032" lon="98.092724"><time>2026-04-29T06:09:35.671Z</time></trkpt>
      <trkpt lat="28.621032" lon="98.092724"><time>2026-04-29T06:09:35.688Z</time></trkpt>
      <trkpt lat="28.621032" lon="98.092724"><time>2026-04-29T06:09:35.705Z</time></trkpt>
      <trkpt lat="28.621032" lon="98.092724"><time>2026-04-29T06:09:35.721Z</time></trkpt>
      <trkpt lat="28.621032" lon="98.092724"><time>2026-04-29T06:09:35.738Z</time></trkpt>
      <trkpt lat="28.621032" lon="98.092724"><time>2026-04-29T06:09:35.755Z</time></trkpt>
      <trkpt lat="28.621032" lon="98.092724"><time>2026-04-29T06:09:35.772Z</time></trkpt>
      <trkpt lat="28.621032" lon="98.092724"><time>2026-04-29T06:09:35.788Z</time></trkpt>
      <trkpt lat="28.621032" lon="98.092724"><time>2026-04-29T06:09:35.805Z</time></trkpt>
      <trkpt lat="28.621032" lon="98.092724"><time>2026-04-29T06:09:35.822Z</time></trkpt>
      <trkpt lat="28.621032" lon="98.092724"><time>2026-04-29T06:09:35.838Z</time></trkpt>
      <trkpt lat="28.621032" lon="98.092724"><time>2026-04-29T06:09:35.855Z</time></trkpt>
      <trkpt lat="28.621032" lon="98.092724"><time>2026-04-29T06:09:35.872Z</time></trkpt>
      <trkpt lat="28.621032" lon="98.092724"><time>2026-04-29T06:09:35.888Z</time></trkpt>
      <trkpt lat="28.621032" lon="98.092724"><time>2026-04-29T06:09:35.905Z</time></trkpt>
      <trkpt lat="28.621032" lon="98.092724"><time>2026-04-29T06:09:35.922Z</time></trkpt>
      <trkpt lat="28.621032" lon="98.092724"><time>2026-04-29T06:09:35.938Z</time></trkpt>
      <trkpt lat="28.621032" lon="98.092724"><time>2026-04-29T06:09:35.955Z</time></trkpt>
      <trkpt lat="28.621032" lon="98.092724"><time>2026-04-29T06:09:35.972Z</time></trkpt>
      <trkpt lat="28.621032" lon="98.092724"><time>2026-04-29T06:09:35.988Z</time></trkpt>
      <trkpt lat="28.621032" lon="98.092724"><time>2026-04-29T06:09:36.005Z</time></trkpt>
      <trkpt lat="28.621032" lon="98.092724"><time>2026-04-29T06:09:36.022Z</time></trkpt>
      <trkpt lat="28.621032" lon="98.092724"><time>2026-04-29T06:09:36.038Z</time></trkpt>
      <trkpt lat="28.621032" lon="98.092724"><time>2026-04-29T06:09:36.055Z</time></trkpt>
      <trkpt lat="28.621032" lon="98.092724"><time>2026-04-29T06:09:36.072Z</time></trkpt>
      <trkpt lat="28.621032" lon="98.092724"><time>2026-04-29T06:09:36.089Z</time></trkpt>
      <trkpt lat="28.621032" lon="98.092724"><time>2026-04-29T06:09:36.105Z</time></trkpt>
      <trkpt lat="28.621032" lon="98.092724"><time>2026-04-29T06:09:36.122Z</time></trkpt>
      <trkpt lat="28.621032" lon="98.092724"><time>2026-04-29T06:09:36.139Z</time></trkpt>
      <trkpt lat="28.621032" lon="98.092724"><time>2026-04-29T06:09:36.155Z</time></trkpt>
      <trkpt lat="28.621032" lon="98.092724"><time>2026-04-29T06:09:36.172Z</time></trkpt>
      <trkpt lat="28.621032" lon="98.092724"><time>2026-04-29T06:09:36.189Z</time></trkpt>
      <trkpt lat="28.621032" lon="98.092724"><time>2026-04-29T06:09:36.205Z</time></trkpt>
      <trkpt lat="28.621032" lon="98.092724"><time>2026-04-29T06:09:36.222Z</time></trkpt>
      <trkpt lat="28.621032" lon="98.092724"><time>2026-04-29T06:09:36.239Z</time></trkpt>
      <trkpt lat="28.621032" lon="98.092724"><time>2026-04-29T06:09:36.255Z</time></trkpt>
      <trkpt lat="28.621032" lon="98.092724"><time>2026-04-29T06:09:36.272Z</time></trkpt>
      <trkpt lat="28.621031" lon="98.092724"><time>2026-04-29T06:09:36.289Z</time></trkpt>
      <trkpt lat="28.621031" lon="98.092724"><time>2026-04-29T06:09:36.305Z</time></trkpt>
      <trkpt lat="28.621031" lon="98.092724"><time>2026-04-29T06:09:36.322Z</time></trkpt>
      <trkpt lat="28.621031" lon="98.092724"><time>2026-04-29T06:09:36.339Z</time></trkpt>
      <trkpt lat="28.621031" lon="98.092724"><time>2026-04-29T06:09:36.355Z</time></trkpt>
      <trkpt lat="28.621031" lon="98.092724"><time>2026-04-29T06:09:36.372Z</time></trkpt>
      <trkpt lat="28.621032" lon="98.092724"><time>2026-04-29T06:09:36.389Z</time></trkpt>
      <trkpt lat="28.621032" lon="98.092724"><time>2026-04-29T06:09:36.406Z</time></trkpt>
      <trkpt lat="28.621032" lon="98.092724"><time>2026-04-29T06:09:36.422Z</time></trkpt>
      <trkpt lat="28.621032" lon="98.092724"><time>2026-04-29T06:09:36.439Z</time></trkpt>
      <trkpt lat="28.621032" lon="98.092724"><time>2026-04-29T06:09:36.456Z</time></trkpt>
      <trkpt lat="28.621032" lon="98.092724"><time>2026-04-29T06:09:36.472Z</time></trkpt>
      <trkpt lat="28.621031" lon="98.092724"><time>2026-04-29T06:09:36.489Z</time></trkpt>
      <trkpt lat="28.621031" lon="98.092724"><time>2026-04-29T06:09:36.506Z</time></trkpt>
      <trkpt lat="28.621031" lon="98.092724"><time>2026-04-29T06:09:36.522Z</time></trkpt>
      <trkpt lat="28.621031" lon="98.092724"><time>2026-04-29T06:09:36.539Z</time></trkpt>
      <trkpt lat="28.621031" lon="98.092724"><time>2026-04-29T06:09:36.556Z</time></trkpt>
      <trkpt lat="28.621031" lon="98.092724"><time>2026-04-29T06:09:36.572Z</time></trkpt>
      <trkpt lat="28.621031" lon="98.092724"><time>2026-04-29T06:09:36.589Z</time></trkpt>
      <trkpt lat="28.621031" lon="98.092724"><time>2026-04-29T06:09:36.606Z</time></trkpt>
      <trkpt lat="28.621031" lon="98.092724"><time>2026-04-29T06:09:36.622Z</time></trkpt>
      <trkpt lat="28.621031" lon="98.092724"><time>2026-04-29T06:09:36.639Z</time></trkpt>
      <trkpt lat="28.621031" lon="98.092724"><time>2026-04-29T06:09:36.656Z</time></trkpt>
      <trkpt lat="28.621031" lon="98.092724"><time>2026-04-29T06:09:36.672Z</time></trkpt>
      <trkpt lat="28.621031" lon="98.092724"><time>2026-04-29T06:09:36.689Z</time></trkpt>
      <trkpt lat="28.621031" lon="98.092724"><time>2026-04-29T06:09:36.706Z</time></trkpt>
      <trkpt lat="28.621031" lon="98.092724"><time>2026-04-29T06:09:36.723Z</time></trkpt>
      <trkpt lat="28.621031" lon="98.092724"><time>2026-04-29T06:09:36.739Z</time></trkpt>
      <trkpt lat="28.621031" lon="98.092724"><time>2026-04-29T06:09:36.756Z</time></trkpt>
      <trkpt lat="28.621031" lon="98.092724"><time>2026-04-29T06:09:36.773Z</time></trkpt>
      <trkpt lat="28.621031" lon="98.092724"><time>2026-04-29T06:09:36.789Z</time></trkpt>
    </trkseg>
  </trk>
</gpx>
