<?xml version="1.0" encoding="UTF-8"?>
<gpx version="1.1" creator="Kairos" xmlns="http://www.topografix.com/GPX/1/1">
  <trk>
    <name>sidecar-srt-44d862b7f10a4538</name>
    <trkseg>
      <trkpt lat="29.392454" lon="96.851237"><time>2026-04-30T05:18:20.000Z</time></trkpt>
      <trkpt lat="29.392454" lon="96.851237"><time>2026-04-30T05:18:20.016Z</time></trkpt>
      <trkpt lat="29.392454" lon="96.851237"><time>2026-04-30T05:18:20.032Z</time></trkpt>
      <trkpt lat="29.392454" lon="96.851237"><time>2026-04-30T05:18:20.049Z</time></trkpt>
      <trkpt lat="29.392455" lon="96.851238"><time>2026-04-30T05:18:20.066Z</time></trkpt>
      <trkpt lat="29.392455" lon="96.851238"><time>2026-04-30T05:18:20.082Z</time></trkpt>
      <trkpt lat="29.392455" lon="96.851238"><time>2026-04-30T05:18:20.099Z</time></trkpt>
      <trkpt lat="29.392455" lon="96.851238"><time>2026-04-30T05:18:20.116Z</time></trkpt>
      <trkpt lat="29.392455" lon="96.851238"><time>2026-04-30T05:18:20.132Z</time></trkpt>
      <trkpt lat="29.392455" lon="96.851238"><time>2026-04-30T05:18:20.149Z</time></trkpt>
      <trkpt lat="29.392455" lon="96.851239"><time>2026-04-30T05:18:20.166Z</time></trkpt>
      <trkpt lat="29.392455" lon="96.851239"><time>2026-04-30T05:18:20.182Z</time></trkpt>
      <trkpt lat="29.392455" lon="96.851239"><time>2026-04-30T05:18:20.199Z</time></trkpt>
      <trkpt lat="29.392455" lon="96.851239"><time>2026-04-30T05:18:20.216Z</time></trkpt>
      <trkpt lat="29.392455" lon="96.851239"><time>2026-04-30T05:18:20.232Z</time></trkpt>
      <trkpt lat="29.392455" lon="96.851239"><time>2026-04-30T05:18:20.249Z</time></trkpt>
      <trkpt lat="29.392456" lon="96.85124"><time>2026-04-30T05:18:20.266Z</time></trkpt>
      <trkpt lat="29.392456" lon="96.85124"><time>2026-04-30T05:18:20.282Z</time></trkpt>
      <trkpt lat="29.392456" lon="96.85124"><time>2026-04-30T05:18:20.299Z</time></trkpt>
      <trkpt lat="29.392456" lon="96.85124"><time>2026-04-30T05:18:20.316Z</time></trkpt>
      <trkpt lat="29.392456" lon="96.85124"><time>2026-04-30T05:18:20.332Z</time></trkpt>
      <trkpt lat="29.392456" lon="96.85124"><time>2026-04-30T05:18:20.349Z</time></trkpt>
      <trkpt lat="29.392456" lon="96.85124"><time>2026-04-30T05:18:20.366Z</time></trkpt>
      <trkpt lat="29.392456" lon="96.85124"><time>2026-04-30T05:18:20.382Z</time></trkpt>
      <trkpt lat="29.392456" lon="96.85124"><time>2026-04-30T05:18:20.399Z</time></trkpt>
      <trkpt lat="29.392456" lon="96.85124"><time>2026-04-30T05:18:20.416Z</time></trkpt>
      <trkpt lat="29.392456" lon="96.85124"><time>2026-04-30T05:18:20.433Z</time></trkpt>
      <trkpt lat="29.392456" lon="96.85124"><time>2026-04-30T05:18:20.449Z</time></trkpt>
      <trkpt lat="29.392456" lon="96.851241"><time>2026-04-30T05:18:20.466Z</time></trkpt>
      <trkpt lat="29.392456" lon="96.851241"><time>2026-04-30T05:18:20.483Z</time></trkpt>
      <trkpt lat="29.392456" lon="96.851241"><time>2026-04-30T05:18:20.499Z</time></trkpt>
      <trkpt lat="29.392456" lon="96.851241"><time>2026-04-30T05:18:20.516Z</time></trkpt>
      <trkpt lat="29.392456" lon="96.851241"><time>2026-04-30T05:18:20.533Z</time></trkpt>
      <trkpt lat="29.392456" lon="96.851241"><time>2026-04-30T05:18:20.549Z</time></trkpt>
      <trkpt lat="29.392456" lon="96.851242"><time>2026-04-30T05:18:20.566Z</time></trkpt>
      <trkpt lat="29.392456" lon="96.851242"><time>2026-04-30T05:18:20.583Z</time></trkpt>
      <trkpt lat="29.392456" lon="96.851242"><time>2026-04-30T05:18:20.599Z</time></trkpt>
      <trkpt lat="29.392456" lon="96.851242"><time>2026-04-30T05:18:20.616Z</time></trkpt>
      <trkpt lat="29.392456" lon="96.851242"><time>2026-04-30T05:18:20.633Z</time></trkpt>
      <trkpt lat="29.392456" lon="96.851242"><time>2026-04-30T05:18:20.649Z</time></trkpt>
      <trkpt lat="29.392457" lon="96.851243"><time>2026-04-30T05:18:20.666Z</time></trkpt>
      <trkpt lat="29.392457" lon="96.851243"><time>2026-04-30T05:18:20.683Z</time></trkpt>
      <trkpt lat="29.392457" lon="96.851243"><time>2026-04-30T05:18:20.699Z</time></trkpt>
      <trkpt lat="29.392457" lon="96.851243"><time>2026-04-30T05:18:20.716Z</time></trkpt>
      <trkpt lat="29.392457" lon="96.851243"><time>2026-04-30T05:18:20.733Z</time></trkpt>
      <trkpt lat="29.392457" lon="96.851243"><time>2026-04-30T05:18:20.749Z</time></trkpt>
      <trkpt lat="29.392457" lon="96.851243"><time>2026-04-30T05:18:20.766Z</time></trkpt>
      <trkpt lat="29.392457" lon="96.851243"><time>2026-04-30T05:18:20.783Z</time></trkpt>
      <trkpt lat="29.392457" lon="96.851243"><time>2026-04-30T05:18:20.799Z</time></trkpt>
      <trkpt lat="29.392457" lon="96.851243"><time>2026-04-30T05:18:20.816Z</time></trkpt>
      <trkpt lat="29.392457" lon="96.851243"><time>2026-04-30T05:18:20.833Z</time></trkpt>
      <trkpt lat="29.392457" lon="96.851243"><time>2026-04-30T05:18:20.850Z</time></trkpt>
      <trkpt lat="29.392457" lon="96.851244"><time>2026-04-30T05:18:20.866Z</time></trkpt>
      <trkpt lat="29.392457" lon="96.851244"><time>2026-04-30T05:18:20.883Z</time></trkpt>
      <trkpt lat="29.392457" lon="96.851244"><time>2026-04-30T05:18:20.900Z</time></trkpt>
      <trkpt lat="29.392457" lon="96.851244"><time>2026-04-30T05:18:20.916Z</time></trkpt>
      <trkpt lat="29.392457" lon="96.851244"><time>2026-04-30T05:18:20.933Z</time></trkpt>
      <trkpt lat="29.392457" lon="96.851244"><time>2026-04-30T05:18:20.950Z</time></trkpt>
      <trkpt lat="29.392457" lon="96.851244"><time>2026-04-30T05:18:20.966Z</time></trkpt>
      <trkpt lat="29.392457" lon="96.851244"><time>2026-04-30T05:18:20.983Z</time></trkpt>
      <trkpt lat="29.392457" lon="96.851244"><time>2026-04-30T05:18:21.000Z</time></trkpt>
      <trkpt lat="29.392457" lon="96.851244"><time>2026-04-30T05:18:21.016Z</time></trkpt>
      <trkpt lat="29.392457" lon="96.851244"><time>2026-04-30T05:18:21.033Z</time></trkpt>
      <trkpt lat="29.392457" lon="96.851244"><time>2026-04-30T05:18:21.050Z</time></trkpt>
      <trkpt lat="29.392457" lon="96.851244"><time>2026-04-30T05:18:21.066Z</time></trkpt>
      <trkpt lat="29.392457" lon="96.851244"><time>2026-04-30T05:18:21.083Z</time></trkpt>
      <trkpt lat="29.392457" lon="96.851244"><time>2026-04-30T05:18:21.100Z</time></trkpt>
      <trkpt lat="29.392457" lon="96.851244"><time>2026-04-30T05:18:21.116Z</time></trkpt>
      <trkpt lat="29.392457" lon="96.851244"><time>2026-04-30T05:18:21.133Z</time></trkpt>
      <trkpt lat="29.392457" lon="96.851244"><time>2026-04-30T05:18:21.150Z</time></trkpt>
      <trkpt lat="29.392457" lon="96.851245"><time>2026-04-30T05:18:21.166Z</time></trkpt>
      <trkpt lat="29.392457" lon="96.851245"><time>2026-04-30T05:18:21.183Z</time></trkpt>
      <trkpt lat="29.392457" lon="96.851245"><time>2026-04-30T05:18:21.200Z</time></trkpt>
      <trkpt lat="29.392457" lon="96.851245"><time>2026-04-30T05:18:21.216Z</time></trkpt>
      <trkpt lat="29.392457" lon="96.851245"><time>2026-04-30T05:18:21.233Z</time></trkpt>
      <trkpt lat="29.392457" lon="96.851245"><time>2026-04-30T05:18:21.250Z</time></trkpt>
      <trkpt lat="29.392458" lon="96.851245"><time>2026-04-30T05:18:21.267Z</time></trkpt>
      <trkpt lat="29.392458" lon="96.851245"><time>2026-04-30T05:18:21.283Z</time></trkpt>
      <trkpt lat="29.392458" lon="96.851245"><time>2026-04-30T05:18:21.300Z</time></trkpt>
      <trkpt lat="29.392458" lon="96.851245"><time>2026-04-30T05:18:21.317Z</time></trkpt>
      <trkpt lat="29.392458" lon="96.851245"><time>2026-04-30T05:18:21.333Z</time></trkpt>
      <trkpt lat="29.392458" lon="96.851245"><time>2026-04-30T05:18:21.350Z</time></trkpt>
      <trkpt lat="29.392458" lon="96.851245"><time>2026-04-30T05:18:21.367Z</time></trkpt>
      <trkpt lat="29.392458" lon="96.851245"><time>2026-04-30T05:18:21.383Z</time></trkpt>
      <trkpt lat="29.392458" lon="96.851245"><time>2026-04-30T05:18:21.400Z</time></trkpt>
      <trkpt lat="29.392458" lon="96.851245"><time>2026-04-30T05:18:21.417Z</time></trkpt>
      <trkpt lat="29.392458" lon="96.851245"><time>2026-04-30T05:18:21.433Z</time></trkpt>
      <trkpt lat="29.392458" lon="96.851245"><time>2026-04-30T05:18:21.450Z</time></trkpt>
      <trkpt lat="29.392458" lon="96.851245"><time>2026-04-30T05:18:21.467Z</time></trkpt>
      <trkpt lat="29.392458" lon="96.851245"><time>2026-04-30T05:18:21.483Z</time></trkpt>
      <trkpt lat="29.392458" lon="96.851245"><time>2026-04-30T05:18:21.500Z</time></trkpt>
      <trkpt lat="29.392458" lon="96.851245"><time>2026-04-30T05:18:21.517Z</time></trkpt>
      <trkpt lat="29.392458" lon="96.851245"><time>2026-04-30T05:18:21.533Z</time></trkpt>
      <trkpt lat="29.392458" lon="96.851245"><time>2026-04-30T05:18:21.550Z</time></trkpt>
      <trkpt lat="29.392459" lon="96.851245"><time>2026-04-30T05:18:21.567Z</time></trkpt>
      <trkpt lat="29.392459" lon="96.851245"><time>2026-04-30T05:18:21.583Z</time></trkpt>
      <trkpt lat="29.392459" lon="96.851245"><time>2026-04-30T05:18:21.600Z</time></trkpt>
      <trkpt lat="29.392459" lon="96.851245"><time>2026-04-30T05:18:21.617Z</time></trkpt>
      <trkpt lat="29.392459" lon="96.851245"><time>2026-04-30T05:18:21.633Z</time></trkpt>
      <trkpt lat="29.392459" lon="96.851245"><time>2026-04-30T05:18:21.650Z</time></trkpt>
      <trkpt lat="29.392459" lon="96.851245"><time>2026-04-30T05:18:21.667Z</time></trkpt>
      <trkpt lat="29.392459" lon="96.851245"><time>2026-04-30T05:18:21.684Z</time></trkpt>
      <trkpt lat="29.392459" lon="96.851245"><time>2026-04-30T05:18:21.700Z</time></trkpt>
      <trkpt lat="29.392459" lon="96.851245"><time>2026-04-30T05:18:21.717Z</time></trkpt>
      <trkpt lat="29.392459" lon="96.851245"><time>2026-04-30T05:18:21.734Z</time></trkpt>
      <trkpt lat="29.392459" lon="96.851245"><time>2026-04-30T05:18:21.750Z</time></trkpt>
      <trkpt lat="29.392459" lon="96.851245"><time>2026-04-30T05:18:21.767Z</time></trkpt>
      <trkpt lat="29.392459" lon="96.851245"><time>2026-04-30T05:18:21.784Z</time></trkpt>
      <trkpt lat="29.392459" lon="96.851245"><time>2026-04-30T05:18:21.800Z</time></trkpt>
      <trkpt lat="29.392459" lon="96.851245"><time>2026-04-30T05:18:21.817Z</time></trkpt>
      <trkpt lat="29.392459" lon="96.851245"><time>2026-04-30T05:18:21.834Z</time></trkpt>
      <trkpt lat="29.392459" lon="96.851245"><time>2026-04-30T05:18:21.850Z</time></trkpt>
      <trkpt lat="29.392459" lon="96.851245"><time>2026-04-30T05:18:21.867Z</time></trkpt>
      <trkpt lat="29.392459" lon="96.851245"><time>2026-04-30T05:18:21.884Z</time></trkpt>
      <trkpt lat="29.392459" lon="96.851245"><time>2026-04-30T05:18:21.900Z</time></trkpt>
      <trkpt lat="29.392459" lon="96.851245"><time>2026-04-30T05:18:21.917Z</time></trkpt>
      <trkpt lat="29.392459" lon="96.851245"><time>2026-04-30T05:18:21.934Z</time></trkpt>
      <trkpt lat="29.392459" lon="96.851245"><time>2026-04-30T05:18:21.950Z</time></trkpt>
      <trkpt lat="29.392459" lon="96.851245"><time>2026-04-30T05:18:21.967Z</time></trkpt>
      <trkpt lat="29.392459" lon="96.851245"><time>2026-04-30T05:18:21.984Z</time></trkpt>
      <trkpt lat="29.392459" lon="96.851245"><time>2026-04-30T05:18:22.000Z</time></trkpt>
      <trkpt lat="29.392459" lon="96.851245"><time>2026-04-30T05:18:22.017Z</time></trkpt>
      <trkpt lat="29.392459" lon="96.851245"><time>2026-04-30T05:18:22.034Z</time></trkpt>
      <trkpt lat="29.392459" lon="96.851245"><time>2026-04-30T05:18:22.050Z</time></trkpt>
      <trkpt lat="29.392459" lon="96.851245"><time>2026-04-30T05:18:22.067Z</time></trkpt>
      <trkpt lat="29.392459" lon="96.851245"><time>2026-04-30T05:18:22.084Z</time></trkpt>
      <trkpt lat="29.392459" lon="96.851245"><time>2026-04-30T05:18:22.101Z</time></trkpt>
      <trkpt lat="29.392459" lon="96.851245"><time>2026-04-30T05:18:22.117Z</time></trkpt>
      <trkpt lat="29.392459" lon="96.851245"><time>2026-04-30T05:18:22.134Z</time></trkpt>
      <trkpt lat="29.392459" lon="96.851245"><time>2026-04-30T05:18:22.151Z</time></trkpt>
      <trkpt lat="29.392459" lon="96.851245"><time>2026-04-30T05:18:22.167Z</time></trkpt>
      <trkpt lat="29.392459" lon="96.851245"><time>2026-04-30T05:18:22.184Z</time></trkpt>
      <trkpt lat="29.392459" lon="96.851245"><time>2026-04-30T05:18:22.201Z</time></trkpt>
      <trkpt lat="29.392459" lon="96.851245"><time>2026-04-30T05:18:22.217Z</time></trkpt>
      <trkpt lat="29.392459" lon="96.851245"><time>2026-04-30T05:18:22.234Z</time></trkpt>
      <trkpt lat="29.392459" lon="96.851245"><time>2026-04-30T05:18:22.251Z</time></trkpt>
      <trkpt lat="29.392459" lon="96.851245"><time>2026-04-30T05:18:22.267Z</time></trkpt>
      <trkpt lat="29.392459" lon="96.851245"><time>2026-04-30T05:18:22.284Z</time></trkpt>
      <trkpt lat="29.392459" lon="96.851245"><time>2026-04-30T05:18:22.301Z</time></trkpt>
      <trkpt lat="29.392459" lon="96.851245"><time>2026-04-30T05:18:22.317Z</time></trkpt>
      <trkpt lat="29.392459" lon="96.851245"><time>2026-04-30T05:18:22.334Z</time></trkpt>
      <trkpt lat="29.392459" lon="96.851245"><time>2026-04-30T05:18:22.351Z</time></trkpt>
      <trkpt lat="29.392459" lon="96.851245"><time>2026-04-30T05:18:22.367Z</time></trkpt>
      <trkpt lat="29.392459" lon="96.851245"><time>2026-04-30T05:18:22.384Z</time></trkpt>
      <trkpt lat="29.392459" lon="96.851245"><time>2026-04-30T05:18:22.401Z</time></trkpt>
      <trkpt lat="29.392459" lon="96.851245"><time>2026-04-30T05:18:22.417Z</time></trkpt>
      <trkpt lat="29.392459" lon="96.851245"><time>2026-04-30T05:18:22.434Z</time></trkpt>
      <trkpt lat="29.392459" lon="96.851245"><time>2026-04-30T05:18:22.451Z</time></trkpt>
      <trkpt lat="29.392458" lon="96.851244"><time>2026-04-30T05:18:22.467Z</time></trkpt>
      <trkpt lat="29.392458" lon="96.851244"><time>2026-04-30T05:18:22.484Z</time></trkpt>
      <trkpt lat="29.392458" lon="96.851244"><time>2026-04-30T05:18:22.501Z</time></trkpt>
      <trkpt lat="29.392458" lon="96.851244"><time>2026-04-30T05:18:22.518Z</time></trkpt>
      <trkpt lat="29.392458" lon="96.851244"><time>2026-04-30T05:18:22.534Z</time></trkpt>
      <trkpt lat="29.392458" lon="96.851244"><time>2026-04-30T05:18:22.551Z</time></trkpt>
      <trkpt lat="29.392458" lon="96.851244"><time>2026-04-30T05:18:22.568Z</time></trkpt>
      <trkpt lat="29.392458" lon="96.851244"><time>2026-04-30T05:18:22.584Z</time></trkpt>
      <trkpt lat="29.392458" lon="96.851244"><time>2026-04-30T05:18:22.601Z</time></trkpt>
      <trkpt lat="29.392458" lon="96.851244"><time>2026-04-30T05:18:22.618Z</time></trkpt>
      <trkpt lat="29.392458" lon="96.851244"><time>2026-04-30T05:18:22.634Z</time></trkpt>
      <trkpt lat="29.392458" lon="96.851244"><time>2026-04-30T05:18:22.651Z</time></trkpt>
      <trkpt lat="29.392458" lon="96.851244"><time>2026-04-30T05:18:22.668Z</time></trkpt>
      <trkpt lat="29.392458" lon="96.851244"><time>2026-04-30T05:18:22.684Z</time></trkpt>
      <trkpt lat="29.392458" lon="96.851244"><time>2026-04-30T05:18:22.701Z</time></trkpt>
      <trkpt lat="29.392458" lon="96.851244"><time>2026-04-30T05:18:22.718Z</time></trkpt>
      <trkpt lat="29.392458" lon="96.851244"><time>2026-04-30T05:18:22.734Z</time></trkpt>
      <trkpt lat="29.392458" lon="96.851244"><time>2026-04-30T05:18:22.751Z</time></trkpt>
      <trkpt lat="29.392457" lon="96.851244"><time>2026-04-30T05:18:22.768Z</time></trkpt>
      <trkpt lat="29.392457" lon="96.851244"><time>2026-04-30T05:18:22.784Z</time></trkpt>
      <trkpt lat="29.392457" lon="96.851244"><time>2026-04-30T05:18:22.801Z</time></trkpt>
      <trkpt lat="29.392457" lon="96.851244"><time>2026-04-30T05:18:22.818Z</time></trkpt>
      <trkpt lat="29.392457" lon="96.851244"><time>2026-04-30T05:18:22.834Z</time></trkpt>
      <trkpt lat="29.392457" lon="96.851244"><time>2026-04-30T05:18:22.851Z</time></trkpt>
      <trkpt lat="29.392457" lon="96.851244"><time>2026-04-30T05:18:22.868Z</time></trkpt>
      <trkpt lat="29.392457" lon="96.851244"><time>2026-04-30T05:18:22.884Z</time></trkpt>
      <trkpt lat="29.392457" lon="96.851244"><time>2026-04-30T05:18:22.901Z</time></trkpt>
      <trkpt lat="29.392457" lon="96.851244"><time>2026-04-30T05:18:22.918Z</time></trkpt>
      <trkpt lat="29.392457" lon="96.851244"><time>2026-04-30T05:18:22.935Z</time></trkpt>
      <trkpt lat="29.392457" lon="96.851244"><time>2026-04-30T05:18:22.951Z</time></trkpt>
      <trkpt lat="29.392456" lon="96.851244"><time>2026-04-30T05:18:22.968Z</time></trkpt>
      <trkpt lat="29.392456" lon="96.851244"><time>2026-04-30T05:18:22.985Z</time></trkpt>
      <trkpt lat="29.392456" lon="96.851244"><time>2026-04-30T05:18:23.001Z</time></trkpt>
      <trkpt lat="29.392456" lon="96.851244"><time>2026-04-30T05:18:23.018Z</time></trkpt>
      <trkpt lat="29.392456" lon="96.851244"><time>2026-04-30T05:18:23.035Z</time></trkpt>
      <trkpt lat="29.392456" lon="96.851244"><time>2026-04-30T05:18:23.051Z</time></trkpt>
      <trkpt lat="29.392456" lon="96.851244"><time>2026-04-30T05:18:23.068Z</time></trkpt>
      <trkpt lat="29.392456" lon="96.851244"><time>2026-04-30T05:18:23.085Z</time></trkpt>
      <trkpt lat="29.392456" lon="96.851244"><time>2026-04-30T05:18:23.101Z</time></trkpt>
      <trkpt lat="29.392456" lon="96.851244"><time>2026-04-30T05:18:23.118Z</time></trkpt>
      <trkpt lat="29.392456" lon="96.851244"><time>2026-04-30T05:18:23.135Z</time></trkpt>
      <trkpt lat="29.392456" lon="96.851244"><time>2026-04-30T05:18:23.151Z</time></trkpt>
      <trkpt lat="29.392456" lon="96.851245"><time>2026-04-30T05:18:23.168Z</time></trkpt>
      <trkpt lat="29.392456" lon="96.851245"><time>2026-04-30T05:18:23.185Z</time></trkpt>
      <trkpt lat="29.392456" lon="96.851245"><time>2026-04-30T05:18:23.201Z</time></trkpt>
      <trkpt lat="29.392456" lon="96.851245"><time>2026-04-30T05:18:23.218Z</time></trkpt>
      <trkpt lat="29.392456" lon="96.851245"><time>2026-04-30T05:18:23.235Z</time></trkpt>
      <trkpt lat="29.392456" lon="96.851245"><time>2026-04-30T05:18:23.251Z</time></trkpt>
      <trkpt lat="29.392455" lon="96.851245"><time>2026-04-30T05:18:23.268Z</time></trkpt>
      <trkpt lat="29.392455" lon="96.851245"><time>2026-04-30T05:18:23.285Z</time></trkpt>
      <trkpt lat="29.392455" lon="96.851245"><time>2026-04-30T05:18:23.301Z</time></trkpt>
      <trkpt lat="29.392455" lon="96.851245"><time>2026-04-30T05:18:23.318Z</time></trkpt>
      <trkpt lat="29.392455" lon="96.851245"><time>2026-04-30T05:18:23.335Z</time></trkpt>
      <trkpt lat="29.392455" lon="96.851245"><time>2026-04-30T05:18:23.352Z</time></trkpt>
      <trkpt lat="29.392455" lon="96.851246"><time>2026-04-30T05:18:23.368Z</time></trkpt>
      <trkpt lat="29.392455" lon="96.851246"><time>2026-04-30T05:18:23.385Z</time></trkpt>
      <trkpt lat="29.392455" lon="96.851246"><time>2026-04-30T05:18:23.402Z</time></trkpt>
      <trkpt lat="29.392455" lon="96.851246"><time>2026-04-30T05:18:23.418Z</time></trkpt>
      <trkpt lat="29.392455" lon="96.851246"><time>2026-04-30T05:18:23.435Z</time></trkpt>
      <trkpt lat="29.392455" lon="96.851246"><time>2026-04-30T05:18:23.452Z</time></trkpt>
      <trkpt lat="29.392455" lon="96.851247"><time>2026-04-30T05:18:23.468Z</time></trkpt>
      <trkpt lat="29.392455" lon="96.851247"><time>2026-04-30T05:18:23.485Z</time></trkpt>
      <trkpt lat="29.392455" lon="96.851247"><time>2026-04-30T05:18:23.502Z</time></trkpt>
      <trkpt lat="29.392455" lon="96.851247"><time>2026-04-30T05:18:23.518Z</time></trkpt>
      <trkpt lat="29.392455" lon="96.851247"><time>2026-04-30T05:18:23.535Z</time></trkpt>
      <trkpt lat="29.392455" lon="96.851247"><time>2026-04-30T05:18:23.552Z</time></trkpt>
      <trkpt lat="29.392455" lon="96.851248"><time>2026-04-30T05:18:23.568Z</time></trkpt>
      <trkpt lat="29.392455" lon="96.851248"><time>2026-04-30T05:18:23.585Z</time></trkpt>
      <trkpt lat="29.392455" lon="96.851248"><time>2026-04-30T05:18:23.602Z</time></trkpt>
      <trkpt lat="29.392455" lon="96.851248"><time>2026-04-30T05:18:23.618Z</time></trkpt>
      <trkpt lat="29.392455" lon="96.851248"><time>2026-04-30T05:18:23.635Z</time></trkpt>
      <trkpt lat="29.392455" lon="96.851248"><time>2026-04-30T05:18:23.652Z</time></trkpt>
      <trkpt lat="29.392456" lon="96.851249"><time>2026-04-30T05:18:23.668Z</time></trkpt>
      <trkpt lat="29.392456" lon="96.851249"><time>2026-04-30T05:18:23.685Z</time></trkpt>
      <trkpt lat="29.392456" lon="96.851249"><time>2026-04-30T05:18:23.702Z</time></trkpt>
      <trkpt lat="29.392456" lon="96.851249"><time>2026-04-30T05:18:23.718Z</time></trkpt>
      <trkpt lat="29.392456" lon="96.851249"><time>2026-04-30T05:18:23.735Z</time></trkpt>
      <trkpt lat="29.392456" lon="96.851249"><time>2026-04-30T05:18:23.752Z</time></trkpt>
      <trkpt lat="29.392456" lon="96.85125"><time>2026-04-30T05:18:23.769Z</time></trkpt>
      <trkpt lat="29.392456" lon="96.85125"><time>2026-04-30T05:18:23.785Z</time></trkpt>
      <trkpt lat="29.392456" lon="96.85125"><time>2026-04-30T05:18:23.802Z</time></trkpt>
      <trkpt lat="29.392456" lon="96.85125"><time>2026-04-30T05:18:23.819Z</time></trkpt>
      <trkpt lat="29.392456" lon="96.85125"><time>2026-04-30T05:18:23.835Z</time></trkpt>
      <trkpt lat="29.392456" lon="96.85125"><time>2026-04-30T05:18:23.852Z</time></trkpt>
      <trkpt lat="29.392456" lon="96.851251"><time>2026-04-30T05:18:23.869Z</time></trkpt>
      <trkpt lat="29.392456" lon="96.851251"><time>2026-04-30T05:18:23.885Z</time></trkpt>
      <trkpt lat="29.392456" lon="96.851251"><time>2026-04-30T05:18:23.902Z</time></trkpt>
      <trkpt lat="29.392456" lon="96.851251"><time>2026-04-30T05:18:23.919Z</time></trkpt>
      <trkpt lat="29.392456" lon="96.851251"><time>2026-04-30T05:18:23.935Z</time></trkpt>
      <trkpt lat="29.392456" lon="96.851251"><time>2026-04-30T05:18:23.952Z</time></trkpt>
      <trkpt lat="29.392456" lon="96.851252"><time>2026-04-30T05:18:23.969Z</time></trkpt>
      <trkpt lat="29.392456" lon="96.851252"><time>2026-04-30T05:18:23.985Z</time></trkpt>
      <trkpt lat="29.392456" lon="96.851252"><time>2026-04-30T05:18:24.002Z</time></trkpt>
      <trkpt lat="29.392456" lon="96.851252"><time>2026-04-30T05:18:24.019Z</time></trkpt>
      <trkpt lat="29.392456" lon="96.851252"><time>2026-04-30T05:18:24.035Z</time></trkpt>
      <trkpt lat="29.392456" lon="96.851252"><time>2026-04-30T05:18:24.052Z</time></trkpt>
      <trkpt lat="29.392456" lon="96.851253"><time>2026-04-30T05:18:24.069Z</time></trkpt>
      <trkpt lat="29.392456" lon="96.851253"><time>2026-04-30T05:18:24.085Z</time></trkpt>
      <trkpt lat="29.392456" lon="96.851253"><time>2026-04-30T05:18:24.102Z</time></trkpt>
      <trkpt lat="29.392456" lon="96.851253"><time>2026-04-30T05:18:24.119Z</time></trkpt>
      <trkpt lat="29.392456" lon="96.851253"><time>2026-04-30T05:18:24.135Z</time></trkpt>
      <trkpt lat="29.392456" lon="96.851253"><time>2026-04-30T05:18:24.152Z</time></trkpt>
      <trkpt lat="29.392457" lon="96.851255"><time>2026-04-30T05:18:24.169Z</time></trkpt>
      <trkpt lat="29.392457" lon="96.851255"><time>2026-04-30T05:18:24.186Z</time></trkpt>
      <trkpt lat="29.392457" lon="96.851255"><time>2026-04-30T05:18:24.202Z</time></trkpt>
      <trkpt lat="29.392457" lon="96.851255"><time>2026-04-30T05:18:24.219Z</time></trkpt>
      <trkpt lat="29.392457" lon="96.851255"><time>2026-04-30T05:18:24.236Z</time></trkpt>
      <trkpt lat="29.392457" lon="96.851255"><time>2026-04-30T05:18:24.252Z</time></trkpt>
      <trkpt lat="29.392457" lon="96.851256"><time>2026-04-30T05:18:24.269Z</time></trkpt>
      <trkpt lat="29.392457" lon="96.851256"><time>2026-04-30T05:18:24.286Z</time></trkpt>
      <trkpt lat="29.392457" lon="96.851256"><time>2026-04-30T05:18:24.302Z</time></trkpt>
      <trkpt lat="29.392457" lon="96.851256"><time>2026-04-30T05:18:24.319Z</time></trkpt>
      <trkpt lat="29.392457" lon="96.851256"><time>2026-04-30T05:18:24.336Z</time></trkpt>
      <trkpt lat="29.392457" lon="96.851256"><time>2026-04-30T05:18:24.352Z</time></trkpt>
      <trkpt lat="29.392457" lon="96.851257"><time>2026-04-30T05:18:24.369Z</time></trkpt>
      <trkpt lat="29.392457" lon="96.851257"><time>2026-04-30T05:18:24.386Z</time></trkpt>
      <trkpt lat="29.392457" lon="96.851257"><time>2026-04-30T05:18:24.402Z</time></trkpt>
      <trkpt lat="29.392457" lon="96.851257"><time>2026-04-30T05:18:24.419Z</time></trkpt>
      <trkpt lat="29.392457" lon="96.851257"><time>2026-04-30T05:18:24.436Z</time></trkpt>
      <trkpt lat="29.392457" lon="96.851257"><time>2026-04-30T05:18:24.452Z</time></trkpt>
      <trkpt lat="29.392457" lon="96.851258"><time>2026-04-30T05:18:24.469Z</time></trkpt>
      <trkpt lat="29.392457" lon="96.851258"><time>2026-04-30T05:18:24.486Z</time></trkpt>
      <trkpt lat="29.392457" lon="96.851258"><time>2026-04-30T05:18:24.502Z</time></trkpt>
      <trkpt lat="29.392457" lon="96.851258"><time>2026-04-30T05:18:24.519Z</time></trkpt>
      <trkpt lat="29.392457" lon="96.851258"><time>2026-04-30T05:18:24.536Z</time></trkpt>
      <trkpt lat="29.392457" lon="96.851258"><time>2026-04-30T05:18:24.552Z</time></trkpt>
      <trkpt lat="29.392457" lon="96.851259"><time>2026-04-30T05:18:24.569Z</time></trkpt>
      <trkpt lat="29.392457" lon="96.851259"><time>2026-04-30T05:18:24.586Z</time></trkpt>
      <trkpt lat="29.392457" lon="96.851259"><time>2026-04-30T05:18:24.603Z</time></trkpt>
      <trkpt lat="29.392457" lon="96.851259"><time>2026-04-30T05:18:24.619Z</time></trkpt>
      <trkpt lat="29.392457" lon="96.851259"><time>2026-04-30T05:18:24.636Z</time></trkpt>
      <trkpt lat="29.392457" lon="96.851259"><time>2026-04-30T05:18:24.653Z</time></trkpt>
      <trkpt lat="29.392457" lon="96.85126"><time>2026-04-30T05:18:24.669Z</time></trkpt>
      <trkpt lat="29.392457" lon="96.85126"><time>2026-04-30T05:18:24.686Z</time></trkpt>
      <trkpt lat="29.392457" lon="96.85126"><time>2026-04-30T05:18:24.703Z</time></trkpt>
      <trkpt lat="29.392457" lon="96.85126"><time>2026-04-30T05:18:24.719Z</time></trkpt>
      <trkpt lat="29.392457" lon="96.85126"><time>2026-04-30T05:18:24.736Z</time></trkpt>
      <trkpt lat="29.392457" lon="96.85126"><time>2026-04-30T05:18:24.753Z</time></trkpt>
      <trkpt lat="29.392456" lon="96.85126"><time>2026-04-30T05:18:24.769Z</time></trkpt>
      <trkpt lat="29.392456" lon="96.85126"><time>2026-04-30T05:18:24.786Z</time></trkpt>
      <trkpt lat="29.392456" lon="96.85126"><time>2026-04-30T05:18:24.803Z</time></trkpt>
      <trkpt lat="29.392456" lon="96.85126"><time>2026-04-30T05:18:24.819Z</time></trkpt>
      <trkpt lat="29.392456" lon="96.85126"><time>2026-04-30T05:18:24.836Z</time></trkpt>
      <trkpt lat="29.392456" lon="96.85126"><time>2026-04-30T05:18:24.853Z</time></trkpt>
      <trkpt lat="29.392456" lon="96.851261"><time>2026-04-30T05:18:24.869Z</time></trkpt>
      <trkpt lat="29.392456" lon="96.851261"><time>2026-04-30T05:18:24.886Z</time></trkpt>
      <trkpt lat="29.392456" lon="96.851261"><time>2026-04-30T05:18:24.903Z</time></trkpt>
      <trkpt lat="29.392456" lon="96.851261"><time>2026-04-30T05:18:24.919Z</time></trkpt>
      <trkpt lat="29.392456" lon="96.851261"><time>2026-04-30T05:18:24.936Z</time></trkpt>
      <trkpt lat="29.392456" lon="96.851261"><time>2026-04-30T05:18:24.953Z</time></trkpt>
      <trkpt lat="29.392455" lon="96.851261"><time>2026-04-30T05:18:24.969Z</time></trkpt>
      <trkpt lat="29.392455" lon="96.851261"><time>2026-04-30T05:18:24.986Z</time></trkpt>
      <trkpt lat="29.392455" lon="96.851261"><time>2026-04-30T05:18:25.003Z</time></trkpt>
      <trkpt lat="29.392455" lon="96.851261"><time>2026-04-30T05:18:25.020Z</time></trkpt>
      <trkpt lat="29.392455" lon="96.851261"><time>2026-04-30T05:18:25.036Z</time></trkpt>
      <trkpt lat="29.392455" lon="96.851261"><time>2026-04-30T05:18:25.053Z</time></trkpt>
      <trkpt lat="29.392454" lon="96.851262"><time>2026-04-30T05:18:25.070Z</time></trkpt>
      <trkpt lat="29.392454" lon="96.851262"><time>2026-04-30T05:18:25.086Z</time></trkpt>
      <trkpt lat="29.392454" lon="96.851262"><time>2026-04-30T05:18:25.103Z</time></trkpt>
      <trkpt lat="29.392454" lon="96.851262"><time>2026-04-30T05:18:25.120Z</time></trkpt>
      <trkpt lat="29.392454" lon="96.851262"><time>2026-04-30T05:18:25.136Z</time></trkpt>
      <trkpt lat="29.392454" lon="96.851262"><time>2026-04-30T05:18:25.153Z</time></trkpt>
      <trkpt lat="29.392454" lon="96.851262"><time>2026-04-30T05:18:25.170Z</time></trkpt>
      <trkpt lat="29.392454" lon="96.851262"><time>2026-04-30T05:18:25.186Z</time></trkpt>
      <trkpt lat="29.392454" lon="96.851262"><time>2026-04-30T05:18:25.203Z</time></trkpt>
      <trkpt lat="29.392454" lon="96.851262"><time>2026-04-30T05:18:25.220Z</time></trkpt>
      <trkpt lat="29.392454" lon="96.851262"><time>2026-04-30T05:18:25.236Z</time></trkpt>
      <trkpt lat="29.392454" lon="96.851262"><time>2026-04-30T05:18:25.253Z</time></trkpt>
      <trkpt lat="29.392453" lon="96.851263"><time>2026-04-30T05:18:25.270Z</time></trkpt>
      <trkpt lat="29.392453" lon="96.851263"><time>2026-04-30T05:18:25.286Z</time></trkpt>
      <trkpt lat="29.392453" lon="96.851263"><time>2026-04-30T05:18:25.303Z</time></trkpt>
      <trkpt lat="29.392453" lon="96.851263"><time>2026-04-30T05:18:25.320Z</time></trkpt>
      <trkpt lat="29.392453" lon="96.851263"><time>2026-04-30T05:18:25.336Z</time></trkpt>
      <trkpt lat="29.392453" lon="96.851263"><time>2026-04-30T05:18:25.353Z</time></trkpt>
      <trkpt lat="29.392451" lon="96.851263"><time>2026-04-30T05:18:25.370Z</time></trkpt>
      <trkpt lat="29.392451" lon="96.851263"><time>2026-04-30T05:18:25.386Z</time></trkpt>
      <trkpt lat="29.392451" lon="96.851263"><time>2026-04-30T05:18:25.403Z</time></trkpt>
      <trkpt lat="29.392451" lon="96.851263"><time>2026-04-30T05:18:25.420Z</time></trkpt>
      <trkpt lat="29.392451" lon="96.851263"><time>2026-04-30T05:18:25.437Z</time></trkpt>
      <trkpt lat="29.392451" lon="96.851263"><time>2026-04-30T05:18:25.453Z</time></trkpt>
      <trkpt lat="29.39245" lon="96.851264"><time>2026-04-30T05:18:25.470Z</time></trkpt>
      <trkpt lat="29.39245" lon="96.851264"><time>2026-04-30T05:18:25.487Z</time></trkpt>
      <trkpt lat="29.39245" lon="96.851264"><time>2026-04-30T05:18:25.503Z</time></trkpt>
      <trkpt lat="29.39245" lon="96.851264"><time>2026-04-30T05:18:25.520Z</time></trkpt>
      <trkpt lat="29.39245" lon="96.851264"><time>2026-04-30T05:18:25.537Z</time></trkpt>
      <trkpt lat="29.39245" lon="96.851264"><time>2026-04-30T05:18:25.553Z</time></trkpt>
      <trkpt lat="29.392449" lon="96.851264"><time>2026-04-30T05:18:25.570Z</time></trkpt>
      <trkpt lat="29.392449" lon="96.851264"><time>2026-04-30T05:18:25.587Z</time></trkpt>
      <trkpt lat="29.392449" lon="96.851264"><time>2026-04-30T05:18:25.603Z</time></trkpt>
      <trkpt lat="29.392449" lon="96.851264"><time>2026-04-30T05:18:25.620Z</time></trkpt>
      <trkpt lat="29.392449" lon="96.851264"><time>2026-04-30T05:18:25.637Z</time></trkpt>
      <trkpt lat="29.392449" lon="96.851264"><time>2026-04-30T05:18:25.653Z</time></trkpt>
      <trkpt lat="29.392447" lon="96.851265"><time>2026-04-30T05:18:25.670Z</time></trkpt>
      <trkpt lat="29.392447" lon="96.851265"><time>2026-04-30T05:18:25.687Z</time></trkpt>
      <trkpt lat="29.392447" lon="96.851265"><time>2026-04-30T05:18:25.703Z</time></trkpt>
      <trkpt lat="29.392447" lon="96.851265"><time>2026-04-30T05:18:25.720Z</time></trkpt>
      <trkpt lat="29.392447" lon="96.851265"><time>2026-04-30T05:18:25.737Z</time></trkpt>
      <trkpt lat="29.392447" lon="96.851265"><time>2026-04-30T05:18:25.753Z</time></trkpt>
      <trkpt lat="29.392445" lon="96.851265"><time>2026-04-30T05:18:25.770Z</time></trkpt>
      <trkpt lat="29.392445" lon="96.851265"><time>2026-04-30T05:18:25.787Z</time></trkpt>
      <trkpt lat="29.392445" lon="96.851265"><time>2026-04-30T05:18:25.803Z</time></trkpt>
      <trkpt lat="29.392445" lon="96.851265"><time>2026-04-30T05:18:25.820Z</time></trkpt>
      <trkpt lat="29.392445" lon="96.851265"><time>2026-04-30T05:18:25.837Z</time></trkpt>
      <trkpt lat="29.392445" lon="96.851265"><time>2026-04-30T05:18:25.854Z</time></trkpt>
      <trkpt lat="29.392444" lon="96.851266"><time>2026-04-30T05:18:25.870Z</time></trkpt>
      <trkpt lat="29.392444" lon="96.851266"><time>2026-04-30T05:18:25.887Z</time></trkpt>
      <trkpt lat="29.392444" lon="96.851266"><time>2026-04-30T05:18:25.904Z</time></trkpt>
      <trkpt lat="29.392444" lon="96.851266"><time>2026-04-30T05:18:25.920Z</time></trkpt>
      <trkpt lat="29.392444" lon="96.851266"><time>2026-04-30T05:18:25.937Z</time></trkpt>
      <trkpt lat="29.392444" lon="96.851266"><time>2026-04-30T05:18:25.954Z</time></trkpt>
      <trkpt lat="29.392442" lon="96.851266"><time>2026-04-30T05:18:25.970Z</time></trkpt>
      <trkpt lat="29.392442" lon="96.851266"><time>2026-04-30T05:18:25.987Z</time></trkpt>
      <trkpt lat="29.392442" lon="96.851266"><time>2026-04-30T05:18:26.004Z</time></trkpt>
      <trkpt lat="29.392442" lon="96.851266"><time>2026-04-30T05:18:26.020Z</time></trkpt>
      <trkpt lat="29.392442" lon="96.851266"><time>2026-04-30T05:18:26.037Z</time></trkpt>
      <trkpt lat="29.392442" lon="96.851266"><time>2026-04-30T05:18:26.054Z</time></trkpt>
      <trkpt lat="29.39244" lon="96.851267"><time>2026-04-30T05:18:26.070Z</time></trkpt>
      <trkpt lat="29.39244" lon="96.851267"><time>2026-04-30T05:18:26.087Z</time></trkpt>
      <trkpt lat="29.39244" lon="96.851267"><time>2026-04-30T05:18:26.104Z</time></trkpt>
      <trkpt lat="29.39244" lon="96.851267"><time>2026-04-30T05:18:26.120Z</time></trkpt>
      <trkpt lat="29.39244" lon="96.851267"><time>2026-04-30T05:18:26.137Z</time></trkpt>
      <trkpt lat="29.39244" lon="96.851267"><time>2026-04-30T05:18:26.154Z</time></trkpt>
      <trkpt lat="29.392439" lon="96.851267"><time>2026-04-30T05:18:26.170Z</time></trkpt>
      <trkpt lat="29.392439" lon="96.851267"><time>2026-04-30T05:18:26.187Z</time></trkpt>
      <trkpt lat="29.392439" lon="96.851267"><time>2026-04-30T05:18:26.204Z</time></trkpt>
      <trkpt lat="29.392439" lon="96.851267"><time>2026-04-30T05:18:26.220Z</time></trkpt>
      <trkpt lat="29.392439" lon="96.851267"><time>2026-04-30T05:18:26.237Z</time></trkpt>
      <trkpt lat="29.392439" lon="96.851267"><time>2026-04-30T05:18:26.254Z</time></trkpt>
      <trkpt lat="29.392437" lon="96.851268"><time>2026-04-30T05:18:26.271Z</time></trkpt>
      <trkpt lat="29.392437" lon="96.851268"><time>2026-04-30T05:18:26.287Z</time></trkpt>
      <trkpt lat="29.392437" lon="96.851268"><time>2026-04-30T05:18:26.304Z</time></trkpt>
      <trkpt lat="29.392437" lon="96.851268"><time>2026-04-30T05:18:26.321Z</time></trkpt>
      <trkpt lat="29.392437" lon="96.851268"><time>2026-04-30T05:18:26.337Z</time></trkpt>
      <trkpt lat="29.392437" lon="96.851268"><time>2026-04-30T05:18:26.354Z</time></trkpt>
      <trkpt lat="29.392435" lon="96.851268"><time>2026-04-30T05:18:26.371Z</time></trkpt>
      <trkpt lat="29.392435" lon="96.851268"><time>2026-04-30T05:18:26.387Z</time></trkpt>
      <trkpt lat="29.392435" lon="96.851268"><time>2026-04-30T05:18:26.404Z</time></trkpt>
      <trkpt lat="29.392435" lon="96.851268"><time>2026-04-30T05:18:26.421Z</time></trkpt>
      <trkpt lat="29.392435" lon="96.851268"><time>2026-04-30T05:18:26.437Z</time></trkpt>
      <trkpt lat="29.392435" lon="96.851268"><time>2026-04-30T05:18:26.454Z</time></trkpt>
      <trkpt lat="29.392434" lon="96.851269"><time>2026-04-30T05:18:26.471Z</time></trkpt>
      <trkpt lat="29.392434" lon="96.851269"><time>2026-04-30T05:18:26.487Z</time></trkpt>
      <trkpt lat="29.392434" lon="96.851269"><time>2026-04-30T05:18:26.504Z</time></trkpt>
      <trkpt lat="29.392434" lon="96.851269"><time>2026-04-30T05:18:26.521Z</time></trkpt>
      <trkpt lat="29.392434" lon="96.851269"><time>2026-04-30T05:18:26.537Z</time></trkpt>
      <trkpt lat="29.392434" lon="96.851269"><time>2026-04-30T05:18:26.554Z</time></trkpt>
      <trkpt lat="29.392433" lon="96.851269"><time>2026-04-30T05:18:26.571Z</time></trkpt>
      <trkpt lat="29.392433" lon="96.851269"><time>2026-04-30T05:18:26.587Z</time></trkpt>
      <trkpt lat="29.392433" lon="96.851269"><time>2026-04-30T05:18:26.604Z</time></trkpt>
      <trkpt lat="29.392433" lon="96.851269"><time>2026-04-30T05:18:26.621Z</time></trkpt>
      <trkpt lat="29.392433" lon="96.851269"><time>2026-04-30T05:18:26.637Z</time></trkpt>
      <trkpt lat="29.392433" lon="96.851269"><time>2026-04-30T05:18:26.654Z</time></trkpt>
      <trkpt lat="29.392431" lon="96.851269"><time>2026-04-30T05:18:26.671Z</time></trkpt>
      <trkpt lat="29.392431" lon="96.851269"><time>2026-04-30T05:18:26.688Z</time></trkpt>
      <trkpt lat="29.392431" lon="96.851269"><time>2026-04-30T05:18:26.704Z</time></trkpt>
      <trkpt lat="29.392431" lon="96.851269"><time>2026-04-30T05:18:26.721Z</time></trkpt>
      <trkpt lat="29.392431" lon="96.851269"><time>2026-04-30T05:18:26.738Z</time></trkpt>
      <trkpt lat="29.392431" lon="96.851269"><time>2026-04-30T05:18:26.754Z</time></trkpt>
      <trkpt lat="29.39243" lon="96.851269"><time>2026-04-30T05:18:26.771Z</time></trkpt>
      <trkpt lat="29.39243" lon="96.851269"><time>2026-04-30T05:18:26.788Z</time></trkpt>
      <trkpt lat="29.39243" lon="96.851269"><time>2026-04-30T05:18:26.804Z</time></trkpt>
      <trkpt lat="29.39243" lon="96.851269"><time>2026-04-30T05:18:26.821Z</time></trkpt>
      <trkpt lat="29.39243" lon="96.851269"><time>2026-04-30T05:18:26.838Z</time></trkpt>
      <trkpt lat="29.39243" lon="96.851269"><time>2026-04-30T05:18:26.854Z</time></trkpt>
      <trkpt lat="29.39243" lon="96.851269"><time>2026-04-30T05:18:26.871Z</time></trkpt>
      <trkpt lat="29.39243" lon="96.851269"><time>2026-04-30T05:18:26.888Z</time></trkpt>
      <trkpt lat="29.39243" lon="96.851269"><time>2026-04-30T05:18:26.904Z</time></trkpt>
      <trkpt lat="29.39243" lon="96.851269"><time>2026-04-30T05:18:26.921Z</time></trkpt>
      <trkpt lat="29.39243" lon="96.851269"><time>2026-04-30T05:18:26.938Z</time></trkpt>
      <trkpt lat="29.39243" lon="96.851269"><time>2026-04-30T05:18:26.954Z</time></trkpt>
      <trkpt lat="29.392429" lon="96.851269"><time>2026-04-30T05:18:26.971Z</time></trkpt>
      <trkpt lat="29.392429" lon="96.851269"><time>2026-04-30T05:18:26.988Z</time></trkpt>
      <trkpt lat="29.392429" lon="96.851269"><time>2026-04-30T05:18:27.004Z</time></trkpt>
      <trkpt lat="29.392429" lon="96.851269"><time>2026-04-30T05:18:27.021Z</time></trkpt>
      <trkpt lat="29.392429" lon="96.851269"><time>2026-04-30T05:18:27.038Z</time></trkpt>
      <trkpt lat="29.392429" lon="96.851269"><time>2026-04-30T05:18:27.054Z</time></trkpt>
      <trkpt lat="29.392428" lon="96.851269"><time>2026-04-30T05:18:27.071Z</time></trkpt>
      <trkpt lat="29.392428" lon="96.851269"><time>2026-04-30T05:18:27.088Z</time></trkpt>
      <trkpt lat="29.392428" lon="96.851269"><time>2026-04-30T05:18:27.105Z</time></trkpt>
      <trkpt lat="29.392428" lon="96.851269"><time>2026-04-30T05:18:27.121Z</time></trkpt>
      <trkpt lat="29.392428" lon="96.851269"><time>2026-04-30T05:18:27.138Z</time></trkpt>
      <trkpt lat="29.392428" lon="96.851269"><time>2026-04-30T05:18:27.155Z</time></trkpt>
      <trkpt lat="29.392428" lon="96.851269"><time>2026-04-30T05:18:27.171Z</time></trkpt>
      <trkpt lat="29.392428" lon="96.851269"><time>2026-04-30T05:18:27.188Z</time></trkpt>
      <trkpt lat="29.392428" lon="96.851269"><time>2026-04-30T05:18:27.205Z</time></trkpt>
      <trkpt lat="29.392428" lon="96.851269"><time>2026-04-30T05:18:27.221Z</time></trkpt>
      <trkpt lat="29.392428" lon="96.851269"><time>2026-04-30T05:18:27.238Z</time></trkpt>
      <trkpt lat="29.392428" lon="96.851269"><time>2026-04-30T05:18:27.255Z</time></trkpt>
      <trkpt lat="29.392427" lon="96.851269"><time>2026-04-30T05:18:27.271Z</time></trkpt>
      <trkpt lat="29.392427" lon="96.851269"><time>2026-04-30T05:18:27.288Z</time></trkpt>
      <trkpt lat="29.392427" lon="96.851269"><time>2026-04-30T05:18:27.305Z</time></trkpt>
      <trkpt lat="29.392427" lon="96.851269"><time>2026-04-30T05:18:27.321Z</time></trkpt>
      <trkpt lat="29.392427" lon="96.851269"><time>2026-04-30T05:18:27.338Z</time></trkpt>
      <trkpt lat="29.392427" lon="96.851269"><time>2026-04-30T05:18:27.355Z</time></trkpt>
      <trkpt lat="29.392427" lon="96.851268"><time>2026-04-30T05:18:27.371Z</time></trkpt>
      <trkpt lat="29.392427" lon="96.851268"><time>2026-04-30T05:18:27.388Z</time></trkpt>
      <trkpt lat="29.392427" lon="96.851268"><time>2026-04-30T05:18:27.405Z</time></trkpt>
      <trkpt lat="29.392427" lon="96.851268"><time>2026-04-30T05:18:27.421Z</time></trkpt>
      <trkpt lat="29.392427" lon="96.851268"><time>2026-04-30T05:18:27.438Z</time></trkpt>
      <trkpt lat="29.392427" lon="96.851268"><time>2026-04-30T05:18:27.455Z</time></trkpt>
      <trkpt lat="29.392427" lon="96.851268"><time>2026-04-30T05:18:27.471Z</time></trkpt>
      <trkpt lat="29.392427" lon="96.851268"><time>2026-04-30T05:18:27.488Z</time></trkpt>
      <trkpt lat="29.392427" lon="96.851268"><time>2026-04-30T05:18:27.505Z</time></trkpt>
      <trkpt lat="29.392427" lon="96.851268"><time>2026-04-30T05:18:27.522Z</time></trkpt>
      <trkpt lat="29.392427" lon="96.851268"><time>2026-04-30T05:18:27.538Z</time></trkpt>
      <trkpt lat="29.392427" lon="96.851268"><time>2026-04-30T05:18:27.555Z</time></trkpt>
      <trkpt lat="29.392426" lon="96.851268"><time>2026-04-30T05:18:27.572Z</time></trkpt>
      <trkpt lat="29.392426" lon="96.851268"><time>2026-04-30T05:18:27.588Z</time></trkpt>
      <trkpt lat="29.392426" lon="96.851268"><time>2026-04-30T05:18:27.605Z</time></trkpt>
      <trkpt lat="29.392426" lon="96.851268"><time>2026-04-30T05:18:27.622Z</time></trkpt>
      <trkpt lat="29.392426" lon="96.851268"><time>2026-04-30T05:18:27.638Z</time></trkpt>
      <trkpt lat="29.392426" lon="96.851268"><time>2026-04-30T05:18:27.655Z</time></trkpt>
      <trkpt lat="29.392426" lon="96.851267"><time>2026-04-30T05:18:27.672Z</time></trkpt>
      <trkpt lat="29.392426" lon="96.851267"><time>2026-04-30T05:18:27.688Z</time></trkpt>
      <trkpt lat="29.392426" lon="96.851267"><time>2026-04-30T05:18:27.705Z</time></trkpt>
      <trkpt lat="29.392426" lon="96.851267"><time>2026-04-30T05:18:27.722Z</time></trkpt>
      <trkpt lat="29.392426" lon="96.851267"><time>2026-04-30T05:18:27.738Z</time></trkpt>
      <trkpt lat="29.392426" lon="96.851267"><time>2026-04-30T05:18:27.755Z</time></trkpt>
      <trkpt lat="29.392426" lon="96.851267"><time>2026-04-30T05:18:27.772Z</time></trkpt>
      <trkpt lat="29.392426" lon="96.851267"><time>2026-04-30T05:18:27.788Z</time></trkpt>
      <trkpt lat="29.392426" lon="96.851267"><time>2026-04-30T05:18:27.805Z</time></trkpt>
      <trkpt lat="29.392426" lon="96.851267"><time>2026-04-30T05:18:27.822Z</time></trkpt>
      <trkpt lat="29.392426" lon="96.851267"><time>2026-04-30T05:18:27.838Z</time></trkpt>
      <trkpt lat="29.392426" lon="96.851267"><time>2026-04-30T05:18:27.855Z</time></trkpt>
      <trkpt lat="29.392425" lon="96.851267"><time>2026-04-30T05:18:27.872Z</time></trkpt>
      <trkpt lat="29.392425" lon="96.851267"><time>2026-04-30T05:18:27.888Z</time></trkpt>
      <trkpt lat="29.392425" lon="96.851267"><time>2026-04-30T05:18:27.905Z</time></trkpt>
      <trkpt lat="29.392425" lon="96.851267"><time>2026-04-30T05:18:27.922Z</time></trkpt>
      <trkpt lat="29.392425" lon="96.851267"><time>2026-04-30T05:18:27.939Z</time></trkpt>
      <trkpt lat="29.392425" lon="96.851267"><time>2026-04-30T05:18:27.955Z</time></trkpt>
      <trkpt lat="29.392425" lon="96.851267"><time>2026-04-30T05:18:27.972Z</time></trkpt>
      <trkpt lat="29.392425" lon="96.851267"><time>2026-04-30T05:18:27.989Z</time></trkpt>
      <trkpt lat="29.392425" lon="96.851267"><time>2026-04-30T05:18:28.005Z</time></trkpt>
      <trkpt lat="29.392425" lon="96.851267"><time>2026-04-30T05:18:28.022Z</time></trkpt>
      <trkpt lat="29.392425" lon="96.851267"><time>2026-04-30T05:18:28.039Z</time></trkpt>
      <trkpt lat="29.392425" lon="96.851267"><time>2026-04-30T05:18:28.055Z</time></trkpt>
      <trkpt lat="29.392424" lon="96.851267"><time>2026-04-30T05:18:28.072Z</time></trkpt>
      <trkpt lat="29.392424" lon="96.851267"><time>2026-04-30T05:18:28.089Z</time></trkpt>
      <trkpt lat="29.392424" lon="96.851267"><time>2026-04-30T05:18:28.105Z</time></trkpt>
      <trkpt lat="29.392424" lon="96.851267"><time>2026-04-30T05:18:28.122Z</time></trkpt>
      <trkpt lat="29.392424" lon="96.851267"><time>2026-04-30T05:18:28.139Z</time></trkpt>
      <trkpt lat="29.392424" lon="96.851267"><time>2026-04-30T05:18:28.155Z</time></trkpt>
      <trkpt lat="29.392424" lon="96.851268"><time>2026-04-30T05:18:28.172Z</time></trkpt>
      <trkpt lat="29.392424" lon="96.851268"><time>2026-04-30T05:18:28.189Z</time></trkpt>
      <trkpt lat="29.392424" lon="96.851268"><time>2026-04-30T05:18:28.205Z</time></trkpt>
      <trkpt lat="29.392424" lon="96.851268"><time>2026-04-30T05:18:28.222Z</time></trkpt>
      <trkpt lat="29.392424" lon="96.851268"><time>2026-04-30T05:18:28.239Z</time></trkpt>
      <trkpt lat="29.392424" lon="96.851268"><time>2026-04-30T05:18:28.255Z</time></trkpt>
    </trkseg>
  </trk>
</gpx>
