<?xml version="1.0" encoding="UTF-8"?>
<gpx version="1.1" creator="Kairos" xmlns="http://www.topografix.com/GPX/1/1">
  <trk>
    <name>sidecar-srt-2eba483c43d77d8d</name>
    <trkseg>
      <trkpt lat="25.449316" lon="99.408019"><time>2026-04-27T07:28:44.000Z</time></trkpt>
      <trkpt lat="25.449316" lon="99.408019"><time>2026-04-27T07:28:44.016Z</time></trkpt>
      <trkpt lat="25.449316" lon="99.408019"><time>2026-04-27T07:28:44.032Z</time></trkpt>
      <trkpt lat="25.449316" lon="99.408019"><time>2026-04-27T07:28:44.049Z</time></trkpt>
      <trkpt lat="25.449316" lon="99.408019"><time>2026-04-27T07:28:44.066Z</time></trkpt>
      <trkpt lat="25.449316" lon="99.408019"><time>2026-04-27T07:28:44.082Z</time></trkpt>
      <trkpt lat="25.449316" lon="99.408019"><time>2026-04-27T07:28:44.099Z</time></trkpt>
      <trkpt lat="25.449316" lon="99.408019"><time>2026-04-27T07:28:44.116Z</time></trkpt>
      <trkpt lat="25.449316" lon="99.408019"><time>2026-04-27T07:28:44.132Z</time></trkpt>
      <trkpt lat="25.449316" lon="99.408019"><time>2026-04-27T07:28:44.149Z</time></trkpt>
      <trkpt lat="25.449316" lon="99.408019"><time>2026-04-27T07:28:44.166Z</time></trkpt>
      <trkpt lat="25.449316" lon="99.408019"><time>2026-04-27T07:28:44.182Z</time></trkpt>
      <trkpt lat="25.449316" lon="99.408019"><time>2026-04-27T07:28:44.199Z</time></trkpt>
      <trkpt lat="25.449316" lon="99.408019"><time>2026-04-27T07:28:44.216Z</time></trkpt>
      <trkpt lat="25.449316" lon="99.408019"><time>2026-04-27T07:28:44.232Z</time></trkpt>
      <trkpt lat="25.449316" lon="99.408019"><time>2026-04-27T07:28:44.249Z</time></trkpt>
      <trkpt lat="25.449316" lon="99.408019"><time>2026-04-27T07:28:44.266Z</time></trkpt>
      <trkpt lat="25.449316" lon="99.408019"><time>2026-04-27T07:28:44.282Z</time></trkpt>
      <trkpt lat="25.449316" lon="99.408019"><time>2026-04-27T07:28:44.299Z</time></trkpt>
      <trkpt lat="25.449316" lon="99.408019"><time>2026-04-27T07:28:44.316Z</time></trkpt>
      <trkpt lat="25.449316" lon="99.408019"><time>2026-04-27T07:28:44.333Z</time></trkpt>
      <trkpt lat="25.449316" lon="99.408019"><time>2026-04-27T07:28:44.349Z</time></trkpt>
      <trkpt lat="25.449316" lon="99.408019"><time>2026-04-27T07:28:44.366Z</time></trkpt>
      <trkpt lat="25.449316" lon="99.408019"><time>2026-04-27T07:28:44.383Z</time></trkpt>
      <trkpt lat="25.449316" lon="99.408019"><time>2026-04-27T07:28:44.399Z</time></trkpt>
      <trkpt lat="25.449316" lon="99.408019"><time>2026-04-27T07:28:44.416Z</time></trkpt>
      <trkpt lat="25.449316" lon="99.408019"><time>2026-04-27T07:28:44.433Z</time></trkpt>
      <trkpt lat="25.449316" lon="99.408019"><time>2026-04-27T07:28:44.449Z</time></trkpt>
      <trkpt lat="25.449316" lon="99.408019"><time>2026-04-27T07:28:44.466Z</time></trkpt>
      <trkpt lat="25.449316" lon="99.408019"><time>2026-04-27T07:28:44.483Z</time></trkpt>
      <trkpt lat="25.449316" lon="99.408019"><time>2026-04-27T07:28:44.499Z</time></trkpt>
      <trkpt lat="25.449316" lon="99.408019"><time>2026-04-27T07:28:44.516Z</time></trkpt>
      <trkpt lat="25.449316" lon="99.408019"><time>2026-04-27T07:28:44.533Z</time></trkpt>
      <trkpt lat="25.449316" lon="99.408019"><time>2026-04-27T07:28:44.549Z</time></trkpt>
      <trkpt lat="25.449316" lon="99.408019"><time>2026-04-27T07:28:44.566Z</time></trkpt>
      <trkpt lat="25.449316" lon="99.408019"><time>2026-04-27T07:28:44.583Z</time></trkpt>
      <trkpt lat="25.449316" lon="99.408019"><time>2026-04-27T07:28:44.599Z</time></trkpt>
      <trkpt lat="25.449316" lon="99.408019"><time>2026-04-27T07:28:44.616Z</time></trkpt>
      <trkpt lat="25.449316" lon="99.408019"><time>2026-04-27T07:28:44.633Z</time></trkpt>
      <trkpt lat="25.449316" lon="99.408019"><time>2026-04-27T07:28:44.649Z</time></trkpt>
      <trkpt lat="25.449316" lon="99.408019"><time>2026-04-27T07:28:44.666Z</time></trkpt>
      <trkpt lat="25.449316" lon="99.408019"><time>2026-04-27T07:28:44.683Z</time></trkpt>
      <trkpt lat="25.449316" lon="99.408019"><time>2026-04-27T07:28:44.700Z</time></trkpt>
      <trkpt lat="25.449316" lon="99.408019"><time>2026-04-27T07:28:44.716Z</time></trkpt>
      <trkpt lat="25.449316" lon="99.408019"><time>2026-04-27T07:28:44.733Z</time></trkpt>
      <trkpt lat="25.449316" lon="99.408019"><time>2026-04-27T07:28:44.750Z</time></trkpt>
      <trkpt lat="25.449316" lon="99.408019"><time>2026-04-27T07:28:44.766Z</time></trkpt>
      <trkpt lat="25.449316" lon="99.408019"><time>2026-04-27T07:28:44.783Z</time></trkpt>
      <trkpt lat="25.449316" lon="99.408019"><time>2026-04-27T07:28:44.800Z</time></trkpt>
      <trkpt lat="25.449316" lon="99.408019"><time>2026-04-27T07:28:44.816Z</time></trkpt>
      <trkpt lat="25.449316" lon="99.408019"><time>2026-04-27T07:28:44.833Z</time></trkpt>
      <trkpt lat="25.449316" lon="99.408019"><time>2026-04-27T07:28:44.850Z</time></trkpt>
      <trkpt lat="25.449316" lon="99.408019"><time>2026-04-27T07:28:44.866Z</time></trkpt>
      <trkpt lat="25.449316" lon="99.408019"><time>2026-04-27T07:28:44.883Z</time></trkpt>
      <trkpt lat="25.449316" lon="99.408019"><time>2026-04-27T07:28:44.900Z</time></trkpt>
      <trkpt lat="25.449316" lon="99.408019"><time>2026-04-27T07:28:44.916Z</time></trkpt>
      <trkpt lat="25.449316" lon="99.408019"><time>2026-04-27T07:28:44.933Z</time></trkpt>
      <trkpt lat="25.449316" lon="99.408019"><time>2026-04-27T07:28:44.950Z</time></trkpt>
      <trkpt lat="25.449316" lon="99.408019"><time>2026-04-27T07:28:44.966Z</time></trkpt>
      <trkpt lat="25.449316" lon="99.408019"><time>2026-04-27T07:28:44.983Z</time></trkpt>
      <trkpt lat="25.449316" lon="99.408019"><time>2026-04-27T07:28:45.000Z</time></trkpt>
      <trkpt lat="25.449315" lon="99.40802"><time>2026-04-27T07:28:45.017Z</time></trkpt>
      <trkpt lat="25.449315" lon="99.40802"><time>2026-04-27T07:28:45.033Z</time></trkpt>
      <trkpt lat="25.449315" lon="99.40802"><time>2026-04-27T07:28:45.050Z</time></trkpt>
      <trkpt lat="25.449315" lon="99.40802"><time>2026-04-27T07:28:45.067Z</time></trkpt>
      <trkpt lat="25.449315" lon="99.40802"><time>2026-04-27T07:28:45.083Z</time></trkpt>
      <trkpt lat="25.449315" lon="99.40802"><time>2026-04-27T07:28:45.100Z</time></trkpt>
      <trkpt lat="25.449315" lon="99.40802"><time>2026-04-27T07:28:45.117Z</time></trkpt>
      <trkpt lat="25.449315" lon="99.40802"><time>2026-04-27T07:28:45.133Z</time></trkpt>
      <trkpt lat="25.449315" lon="99.40802"><time>2026-04-27T07:28:45.150Z</time></trkpt>
      <trkpt lat="25.449315" lon="99.40802"><time>2026-04-27T07:28:45.167Z</time></trkpt>
      <trkpt lat="25.449315" lon="99.40802"><time>2026-04-27T07:28:45.183Z</time></trkpt>
      <trkpt lat="25.449315" lon="99.40802"><time>2026-04-27T07:28:45.200Z</time></trkpt>
      <trkpt lat="25.449314" lon="99.40802"><time>2026-04-27T07:28:45.217Z</time></trkpt>
      <trkpt lat="25.449314" lon="99.40802"><time>2026-04-27T07:28:45.233Z</time></trkpt>
      <trkpt lat="25.449314" lon="99.40802"><time>2026-04-27T07:28:45.250Z</time></trkpt>
      <trkpt lat="25.449314" lon="99.40802"><time>2026-04-27T07:28:45.267Z</time></trkpt>
      <trkpt lat="25.449314" lon="99.40802"><time>2026-04-27T07:28:45.283Z</time></trkpt>
      <trkpt lat="25.449314" lon="99.40802"><time>2026-04-27T07:28:45.300Z</time></trkpt>
      <trkpt lat="25.449313" lon="99.40802"><time>2026-04-27T07:28:45.317Z</time></trkpt>
      <trkpt lat="25.449313" lon="99.40802"><time>2026-04-27T07:28:45.334Z</time></trkpt>
      <trkpt lat="25.449313" lon="99.40802"><time>2026-04-27T07:28:45.350Z</time></trkpt>
      <trkpt lat="25.449313" lon="99.40802"><time>2026-04-27T07:28:45.367Z</time></trkpt>
      <trkpt lat="25.449313" lon="99.40802"><time>2026-04-27T07:28:45.384Z</time></trkpt>
      <trkpt lat="25.449313" lon="99.40802"><time>2026-04-27T07:28:45.400Z</time></trkpt>
      <trkpt lat="25.449311" lon="99.40802"><time>2026-04-27T07:28:45.417Z</time></trkpt>
      <trkpt lat="25.449311" lon="99.40802"><time>2026-04-27T07:28:45.434Z</time></trkpt>
      <trkpt lat="25.449311" lon="99.40802"><time>2026-04-27T07:28:45.450Z</time></trkpt>
      <trkpt lat="25.449311" lon="99.40802"><time>2026-04-27T07:28:45.467Z</time></trkpt>
      <trkpt lat="25.449311" lon="99.40802"><time>2026-04-27T07:28:45.484Z</time></trkpt>
      <trkpt lat="25.449311" lon="99.40802"><time>2026-04-27T07:28:45.500Z</time></trkpt>
      <trkpt lat="25.449308" lon="99.40802"><time>2026-04-27T07:28:45.517Z</time></trkpt>
      <trkpt lat="25.449308" lon="99.40802"><time>2026-04-27T07:28:45.534Z</time></trkpt>
      <trkpt lat="25.449308" lon="99.40802"><time>2026-04-27T07:28:45.550Z</time></trkpt>
      <trkpt lat="25.449308" lon="99.40802"><time>2026-04-27T07:28:45.567Z</time></trkpt>
      <trkpt lat="25.449308" lon="99.40802"><time>2026-04-27T07:28:45.584Z</time></trkpt>
      <trkpt lat="25.449308" lon="99.40802"><time>2026-04-27T07:28:45.600Z</time></trkpt>
      <trkpt lat="25.449305" lon="99.40802"><time>2026-04-27T07:28:45.617Z</time></trkpt>
      <trkpt lat="25.449305" lon="99.40802"><time>2026-04-27T07:28:45.634Z</time></trkpt>
      <trkpt lat="25.449305" lon="99.40802"><time>2026-04-27T07:28:45.651Z</time></trkpt>
      <trkpt lat="25.449305" lon="99.40802"><time>2026-04-27T07:28:45.667Z</time></trkpt>
      <trkpt lat="25.449305" lon="99.40802"><time>2026-04-27T07:28:45.684Z</time></trkpt>
      <trkpt lat="25.449305" lon="99.40802"><time>2026-04-27T07:28:45.701Z</time></trkpt>
      <trkpt lat="25.449302" lon="99.40802"><time>2026-04-27T07:28:45.717Z</time></trkpt>
      <trkpt lat="25.449302" lon="99.40802"><time>2026-04-27T07:28:45.734Z</time></trkpt>
      <trkpt lat="25.449302" lon="99.40802"><time>2026-04-27T07:28:45.751Z</time></trkpt>
      <trkpt lat="25.449302" lon="99.40802"><time>2026-04-27T07:28:45.767Z</time></trkpt>
      <trkpt lat="25.449302" lon="99.40802"><time>2026-04-27T07:28:45.784Z</time></trkpt>
      <trkpt lat="25.449302" lon="99.40802"><time>2026-04-27T07:28:45.801Z</time></trkpt>
      <trkpt lat="25.449298" lon="99.40802"><time>2026-04-27T07:28:45.817Z</time></trkpt>
      <trkpt lat="25.449298" lon="99.40802"><time>2026-04-27T07:28:45.834Z</time></trkpt>
      <trkpt lat="25.449298" lon="99.40802"><time>2026-04-27T07:28:45.851Z</time></trkpt>
      <trkpt lat="25.449298" lon="99.40802"><time>2026-04-27T07:28:45.867Z</time></trkpt>
      <trkpt lat="25.449298" lon="99.40802"><time>2026-04-27T07:28:45.884Z</time></trkpt>
      <trkpt lat="25.449298" lon="99.40802"><time>2026-04-27T07:28:45.901Z</time></trkpt>
      <trkpt lat="25.449294" lon="99.408021"><time>2026-04-27T07:28:45.917Z</time></trkpt>
      <trkpt lat="25.449294" lon="99.408021"><time>2026-04-27T07:28:45.934Z</time></trkpt>
      <trkpt lat="25.449294" lon="99.408021"><time>2026-04-27T07:28:45.951Z</time></trkpt>
      <trkpt lat="25.449294" lon="99.408021"><time>2026-04-27T07:28:45.968Z</time></trkpt>
      <trkpt lat="25.449294" lon="99.408021"><time>2026-04-27T07:28:45.984Z</time></trkpt>
      <trkpt lat="25.449294" lon="99.408021"><time>2026-04-27T07:28:46.001Z</time></trkpt>
      <trkpt lat="25.449289" lon="99.408021"><time>2026-04-27T07:28:46.018Z</time></trkpt>
      <trkpt lat="25.449289" lon="99.408021"><time>2026-04-27T07:28:46.034Z</time></trkpt>
      <trkpt lat="25.449289" lon="99.408021"><time>2026-04-27T07:28:46.051Z</time></trkpt>
      <trkpt lat="25.449289" lon="99.408021"><time>2026-04-27T07:28:46.068Z</time></trkpt>
      <trkpt lat="25.449289" lon="99.408021"><time>2026-04-27T07:28:46.084Z</time></trkpt>
      <trkpt lat="25.449289" lon="99.408021"><time>2026-04-27T07:28:46.101Z</time></trkpt>
      <trkpt lat="25.449284" lon="99.408021"><time>2026-04-27T07:28:46.118Z</time></trkpt>
      <trkpt lat="25.449284" lon="99.408021"><time>2026-04-27T07:28:46.134Z</time></trkpt>
      <trkpt lat="25.449284" lon="99.408021"><time>2026-04-27T07:28:46.151Z</time></trkpt>
      <trkpt lat="25.449284" lon="99.408021"><time>2026-04-27T07:28:46.168Z</time></trkpt>
      <trkpt lat="25.449284" lon="99.408021"><time>2026-04-27T07:28:46.184Z</time></trkpt>
      <trkpt lat="25.449284" lon="99.408021"><time>2026-04-27T07:28:46.201Z</time></trkpt>
      <trkpt lat="25.449278" lon="99.408021"><time>2026-04-27T07:28:46.218Z</time></trkpt>
      <trkpt lat="25.449278" lon="99.408021"><time>2026-04-27T07:28:46.234Z</time></trkpt>
      <trkpt lat="25.449278" lon="99.408021"><time>2026-04-27T07:28:46.251Z</time></trkpt>
      <trkpt lat="25.449278" lon="99.408021"><time>2026-04-27T07:28:46.268Z</time></trkpt>
      <trkpt lat="25.449278" lon="99.408021"><time>2026-04-27T07:28:46.285Z</time></trkpt>
      <trkpt lat="25.449278" lon="99.408021"><time>2026-04-27T07:28:46.301Z</time></trkpt>
      <trkpt lat="25.449272" lon="99.408021"><time>2026-04-27T07:28:46.318Z</time></trkpt>
      <trkpt lat="25.449272" lon="99.408021"><time>2026-04-27T07:28:46.335Z</time></trkpt>
      <trkpt lat="25.449272" lon="99.408021"><time>2026-04-27T07:28:46.351Z</time></trkpt>
      <trkpt lat="25.449272" lon="99.408021"><time>2026-04-27T07:28:46.368Z</time></trkpt>
      <trkpt lat="25.449272" lon="99.408021"><time>2026-04-27T07:28:46.385Z</time></trkpt>
      <trkpt lat="25.449272" lon="99.408021"><time>2026-04-27T07:28:46.401Z</time></trkpt>
      <trkpt lat="25.449265" lon="99.408021"><time>2026-04-27T07:28:46.418Z</time></trkpt>
      <trkpt lat="25.449265" lon="99.408021"><time>2026-04-27T07:28:46.435Z</time></trkpt>
      <trkpt lat="25.449265" lon="99.408021"><time>2026-04-27T07:28:46.451Z</time></trkpt>
      <trkpt lat="25.449265" lon="99.408021"><time>2026-04-27T07:28:46.468Z</time></trkpt>
      <trkpt lat="25.449265" lon="99.408021"><time>2026-04-27T07:28:46.485Z</time></trkpt>
      <trkpt lat="25.449265" lon="99.408021"><time>2026-04-27T07:28:46.501Z</time></trkpt>
      <trkpt lat="25.449259" lon="99.408021"><time>2026-04-27T07:28:46.518Z</time></trkpt>
      <trkpt lat="25.449259" lon="99.408021"><time>2026-04-27T07:28:46.535Z</time></trkpt>
      <trkpt lat="25.449259" lon="99.408021"><time>2026-04-27T07:28:46.551Z</time></trkpt>
      <trkpt lat="25.449259" lon="99.408021"><time>2026-04-27T07:28:46.568Z</time></trkpt>
      <trkpt lat="25.449259" lon="99.408021"><time>2026-04-27T07:28:46.585Z</time></trkpt>
      <trkpt lat="25.449259" lon="99.408021"><time>2026-04-27T07:28:46.602Z</time></trkpt>
      <trkpt lat="25.449251" lon="99.40802"><time>2026-04-27T07:28:46.618Z</time></trkpt>
      <trkpt lat="25.449251" lon="99.40802"><time>2026-04-27T07:28:46.635Z</time></trkpt>
      <trkpt lat="25.449251" lon="99.40802"><time>2026-04-27T07:28:46.652Z</time></trkpt>
      <trkpt lat="25.449251" lon="99.40802"><time>2026-04-27T07:28:46.668Z</time></trkpt>
      <trkpt lat="25.449251" lon="99.40802"><time>2026-04-27T07:28:46.685Z</time></trkpt>
      <trkpt lat="25.449251" lon="99.40802"><time>2026-04-27T07:28:46.702Z</time></trkpt>
      <trkpt lat="25.449244" lon="99.40802"><time>2026-04-27T07:28:46.718Z</time></trkpt>
      <trkpt lat="25.449244" lon="99.40802"><time>2026-04-27T07:28:46.735Z</time></trkpt>
      <trkpt lat="25.449244" lon="99.40802"><time>2026-04-27T07:28:46.752Z</time></trkpt>
      <trkpt lat="25.449244" lon="99.40802"><time>2026-04-27T07:28:46.768Z</time></trkpt>
      <trkpt lat="25.449244" lon="99.40802"><time>2026-04-27T07:28:46.785Z</time></trkpt>
      <trkpt lat="25.449244" lon="99.40802"><time>2026-04-27T07:28:46.802Z</time></trkpt>
      <trkpt lat="25.449236" lon="99.408019"><time>2026-04-27T07:28:46.818Z</time></trkpt>
      <trkpt lat="25.449236" lon="99.408019"><time>2026-04-27T07:28:46.835Z</time></trkpt>
      <trkpt lat="25.449236" lon="99.408019"><time>2026-04-27T07:28:46.852Z</time></trkpt>
      <trkpt lat="25.449236" lon="99.408019"><time>2026-04-27T07:28:46.868Z</time></trkpt>
      <trkpt lat="25.449236" lon="99.408019"><time>2026-04-27T07:28:46.885Z</time></trkpt>
      <trkpt lat="25.449236" lon="99.408019"><time>2026-04-27T07:28:46.902Z</time></trkpt>
      <trkpt lat="25.449229" lon="99.408018"><time>2026-04-27T07:28:46.919Z</time></trkpt>
      <trkpt lat="25.449229" lon="99.408018"><time>2026-04-27T07:28:46.935Z</time></trkpt>
      <trkpt lat="25.449229" lon="99.408018"><time>2026-04-27T07:28:46.952Z</time></trkpt>
      <trkpt lat="25.449229" lon="99.408018"><time>2026-04-27T07:28:46.969Z</time></trkpt>
      <trkpt lat="25.449229" lon="99.408018"><time>2026-04-27T07:28:46.985Z</time></trkpt>
      <trkpt lat="25.449229" lon="99.408018"><time>2026-04-27T07:28:47.002Z</time></trkpt>
      <trkpt lat="25.449221" lon="99.408018"><time>2026-04-27T07:28:47.019Z</time></trkpt>
      <trkpt lat="25.449221" lon="99.408018"><time>2026-04-27T07:28:47.035Z</time></trkpt>
      <trkpt lat="25.449221" lon="99.408018"><time>2026-04-27T07:28:47.052Z</time></trkpt>
      <trkpt lat="25.449221" lon="99.408018"><time>2026-04-27T07:28:47.069Z</time></trkpt>
      <trkpt lat="25.449221" lon="99.408018"><time>2026-04-27T07:28:47.085Z</time></trkpt>
      <trkpt lat="25.449221" lon="99.408018"><time>2026-04-27T07:28:47.102Z</time></trkpt>
      <trkpt lat="25.449212" lon="99.408017"><time>2026-04-27T07:28:47.119Z</time></trkpt>
      <trkpt lat="25.449212" lon="99.408017"><time>2026-04-27T07:28:47.135Z</time></trkpt>
      <trkpt lat="25.449212" lon="99.408017"><time>2026-04-27T07:28:47.152Z</time></trkpt>
      <trkpt lat="25.449212" lon="99.408017"><time>2026-04-27T07:28:47.169Z</time></trkpt>
      <trkpt lat="25.449212" lon="99.408017"><time>2026-04-27T07:28:47.185Z</time></trkpt>
      <trkpt lat="25.449212" lon="99.408017"><time>2026-04-27T07:28:47.202Z</time></trkpt>
      <trkpt lat="25.449204" lon="99.408016"><time>2026-04-27T07:28:47.219Z</time></trkpt>
      <trkpt lat="25.449204" lon="99.408016"><time>2026-04-27T07:28:47.236Z</time></trkpt>
      <trkpt lat="25.449204" lon="99.408016"><time>2026-04-27T07:28:47.252Z</time></trkpt>
      <trkpt lat="25.449204" lon="99.408016"><time>2026-04-27T07:28:47.269Z</time></trkpt>
      <trkpt lat="25.449204" lon="99.408016"><time>2026-04-27T07:28:47.286Z</time></trkpt>
      <trkpt lat="25.449204" lon="99.408016"><time>2026-04-27T07:28:47.302Z</time></trkpt>
      <trkpt lat="25.449196" lon="99.408016"><time>2026-04-27T07:28:47.319Z</time></trkpt>
      <trkpt lat="25.449196" lon="99.408016"><time>2026-04-27T07:28:47.336Z</time></trkpt>
      <trkpt lat="25.449196" lon="99.408016"><time>2026-04-27T07:28:47.352Z</time></trkpt>
      <trkpt lat="25.449196" lon="99.408016"><time>2026-04-27T07:28:47.369Z</time></trkpt>
      <trkpt lat="25.449196" lon="99.408016"><time>2026-04-27T07:28:47.386Z</time></trkpt>
      <trkpt lat="25.449196" lon="99.408016"><time>2026-04-27T07:28:47.402Z</time></trkpt>
      <trkpt lat="25.449187" lon="99.408015"><time>2026-04-27T07:28:47.419Z</time></trkpt>
      <trkpt lat="25.449187" lon="99.408015"><time>2026-04-27T07:28:47.436Z</time></trkpt>
      <trkpt lat="25.449187" lon="99.408015"><time>2026-04-27T07:28:47.452Z</time></trkpt>
      <trkpt lat="25.449187" lon="99.408015"><time>2026-04-27T07:28:47.469Z</time></trkpt>
      <trkpt lat="25.449187" lon="99.408015"><time>2026-04-27T07:28:47.486Z</time></trkpt>
      <trkpt lat="25.449187" lon="99.408015"><time>2026-04-27T07:28:47.502Z</time></trkpt>
      <trkpt lat="25.449178" lon="99.408014"><time>2026-04-27T07:28:47.519Z</time></trkpt>
      <trkpt lat="25.449178" lon="99.408014"><time>2026-04-27T07:28:47.536Z</time></trkpt>
      <trkpt lat="25.449178" lon="99.408014"><time>2026-04-27T07:28:47.553Z</time></trkpt>
      <trkpt lat="25.449178" lon="99.408014"><time>2026-04-27T07:28:47.569Z</time></trkpt>
      <trkpt lat="25.449178" lon="99.408014"><time>2026-04-27T07:28:47.586Z</time></trkpt>
      <trkpt lat="25.449178" lon="99.408014"><time>2026-04-27T07:28:47.603Z</time></trkpt>
      <trkpt lat="25.449169" lon="99.408014"><time>2026-04-27T07:28:47.619Z</time></trkpt>
      <trkpt lat="25.449169" lon="99.408014"><time>2026-04-27T07:28:47.636Z</time></trkpt>
      <trkpt lat="25.449169" lon="99.408014"><time>2026-04-27T07:28:47.653Z</time></trkpt>
      <trkpt lat="25.449169" lon="99.408014"><time>2026-04-27T07:28:47.669Z</time></trkpt>
      <trkpt lat="25.449169" lon="99.408014"><time>2026-04-27T07:28:47.686Z</time></trkpt>
      <trkpt lat="25.449169" lon="99.408014"><time>2026-04-27T07:28:47.703Z</time></trkpt>
      <trkpt lat="25.44916" lon="99.408013"><time>2026-04-27T07:28:47.719Z</time></trkpt>
      <trkpt lat="25.44916" lon="99.408013"><time>2026-04-27T07:28:47.736Z</time></trkpt>
      <trkpt lat="25.44916" lon="99.408013"><time>2026-04-27T07:28:47.753Z</time></trkpt>
      <trkpt lat="25.44916" lon="99.408013"><time>2026-04-27T07:28:47.769Z</time></trkpt>
      <trkpt lat="25.44916" lon="99.408013"><time>2026-04-27T07:28:47.786Z</time></trkpt>
      <trkpt lat="25.44916" lon="99.408013"><time>2026-04-27T07:28:47.803Z</time></trkpt>
      <trkpt lat="25.44915" lon="99.408012"><time>2026-04-27T07:28:47.819Z</time></trkpt>
      <trkpt lat="25.44915" lon="99.408012"><time>2026-04-27T07:28:47.836Z</time></trkpt>
      <trkpt lat="25.44915" lon="99.408012"><time>2026-04-27T07:28:47.853Z</time></trkpt>
      <trkpt lat="25.44915" lon="99.408012"><time>2026-04-27T07:28:47.870Z</time></trkpt>
      <trkpt lat="25.44915" lon="99.408012"><time>2026-04-27T07:28:47.886Z</time></trkpt>
      <trkpt lat="25.44915" lon="99.408012"><time>2026-04-27T07:28:47.903Z</time></trkpt>
      <trkpt lat="25.44914" lon="99.408012"><time>2026-04-27T07:28:47.920Z</time></trkpt>
      <trkpt lat="25.44914" lon="99.408012"><time>2026-04-27T07:28:47.936Z</time></trkpt>
      <trkpt lat="25.44914" lon="99.408012"><time>2026-04-27T07:28:47.953Z</time></trkpt>
      <trkpt lat="25.44914" lon="99.408012"><time>2026-04-27T07:28:47.970Z</time></trkpt>
      <trkpt lat="25.44914" lon="99.408012"><time>2026-04-27T07:28:47.986Z</time></trkpt>
      <trkpt lat="25.44914" lon="99.408012"><time>2026-04-27T07:28:48.003Z</time></trkpt>
      <trkpt lat="25.449131" lon="99.408012"><time>2026-04-27T07:28:48.020Z</time></trkpt>
      <trkpt lat="25.449131" lon="99.408012"><time>2026-04-27T07:28:48.036Z</time></trkpt>
      <trkpt lat="25.449131" lon="99.408012"><time>2026-04-27T07:28:48.053Z</time></trkpt>
      <trkpt lat="25.449131" lon="99.408012"><time>2026-04-27T07:28:48.070Z</time></trkpt>
      <trkpt lat="25.449131" lon="99.408012"><time>2026-04-27T07:28:48.086Z</time></trkpt>
      <trkpt lat="25.449131" lon="99.408012"><time>2026-04-27T07:28:48.103Z</time></trkpt>
      <trkpt lat="25.44912" lon="99.408012"><time>2026-04-27T07:28:48.120Z</time></trkpt>
      <trkpt lat="25.44912" lon="99.408012"><time>2026-04-27T07:28:48.136Z</time></trkpt>
      <trkpt lat="25.44912" lon="99.408012"><time>2026-04-27T07:28:48.153Z</time></trkpt>
      <trkpt lat="25.44912" lon="99.408012"><time>2026-04-27T07:28:48.170Z</time></trkpt>
      <trkpt lat="25.44912" lon="99.408012"><time>2026-04-27T07:28:48.187Z</time></trkpt>
      <trkpt lat="25.44912" lon="99.408012"><time>2026-04-27T07:28:48.203Z</time></trkpt>
      <trkpt lat="25.44911" lon="99.408011"><time>2026-04-27T07:28:48.220Z</time></trkpt>
      <trkpt lat="25.44911" lon="99.408011"><time>2026-04-27T07:28:48.237Z</time></trkpt>
      <trkpt lat="25.44911" lon="99.408011"><time>2026-04-27T07:28:48.253Z</time></trkpt>
      <trkpt lat="25.44911" lon="99.408011"><time>2026-04-27T07:28:48.270Z</time></trkpt>
      <trkpt lat="25.44911" lon="99.408011"><time>2026-04-27T07:28:48.287Z</time></trkpt>
      <trkpt lat="25.44911" lon="99.408011"><time>2026-04-27T07:28:48.303Z</time></trkpt>
      <trkpt lat="25.4491" lon="99.408011"><time>2026-04-27T07:28:48.320Z</time></trkpt>
      <trkpt lat="25.4491" lon="99.408011"><time>2026-04-27T07:28:48.337Z</time></trkpt>
      <trkpt lat="25.4491" lon="99.408011"><time>2026-04-27T07:28:48.353Z</time></trkpt>
      <trkpt lat="25.4491" lon="99.408011"><time>2026-04-27T07:28:48.370Z</time></trkpt>
      <trkpt lat="25.4491" lon="99.408011"><time>2026-04-27T07:28:48.387Z</time></trkpt>
      <trkpt lat="25.4491" lon="99.408011"><time>2026-04-27T07:28:48.403Z</time></trkpt>
      <trkpt lat="25.449089" lon="99.40801"><time>2026-04-27T07:28:48.420Z</time></trkpt>
      <trkpt lat="25.449089" lon="99.40801"><time>2026-04-27T07:28:48.437Z</time></trkpt>
      <trkpt lat="25.449089" lon="99.40801"><time>2026-04-27T07:28:48.453Z</time></trkpt>
      <trkpt lat="25.449089" lon="99.40801"><time>2026-04-27T07:28:48.470Z</time></trkpt>
      <trkpt lat="25.449089" lon="99.40801"><time>2026-04-27T07:28:48.487Z</time></trkpt>
      <trkpt lat="25.449089" lon="99.40801"><time>2026-04-27T07:28:48.504Z</time></trkpt>
      <trkpt lat="25.449078" lon="99.408009"><time>2026-04-27T07:28:48.520Z</time></trkpt>
      <trkpt lat="25.449078" lon="99.408009"><time>2026-04-27T07:28:48.537Z</time></trkpt>
      <trkpt lat="25.449078" lon="99.408009"><time>2026-04-27T07:28:48.554Z</time></trkpt>
      <trkpt lat="25.449078" lon="99.408009"><time>2026-04-27T07:28:48.570Z</time></trkpt>
      <trkpt lat="25.449078" lon="99.408009"><time>2026-04-27T07:28:48.587Z</time></trkpt>
      <trkpt lat="25.449078" lon="99.408009"><time>2026-04-27T07:28:48.604Z</time></trkpt>
      <trkpt lat="25.449067" lon="99.408008"><time>2026-04-27T07:28:48.620Z</time></trkpt>
      <trkpt lat="25.449067" lon="99.408008"><time>2026-04-27T07:28:48.637Z</time></trkpt>
      <trkpt lat="25.449067" lon="99.408008"><time>2026-04-27T07:28:48.654Z</time></trkpt>
      <trkpt lat="25.449067" lon="99.408008"><time>2026-04-27T07:28:48.670Z</time></trkpt>
      <trkpt lat="25.449067" lon="99.408008"><time>2026-04-27T07:28:48.687Z</time></trkpt>
      <trkpt lat="25.449067" lon="99.408008"><time>2026-04-27T07:28:48.704Z</time></trkpt>
      <trkpt lat="25.449056" lon="99.408008"><time>2026-04-27T07:28:48.720Z</time></trkpt>
      <trkpt lat="25.449056" lon="99.408008"><time>2026-04-27T07:28:48.737Z</time></trkpt>
      <trkpt lat="25.449056" lon="99.408008"><time>2026-04-27T07:28:48.754Z</time></trkpt>
      <trkpt lat="25.449056" lon="99.408008"><time>2026-04-27T07:28:48.770Z</time></trkpt>
      <trkpt lat="25.449056" lon="99.408008"><time>2026-04-27T07:28:48.787Z</time></trkpt>
      <trkpt lat="25.449056" lon="99.408008"><time>2026-04-27T07:28:48.804Z</time></trkpt>
      <trkpt lat="25.449044" lon="99.408007"><time>2026-04-27T07:28:48.821Z</time></trkpt>
      <trkpt lat="25.449044" lon="99.408007"><time>2026-04-27T07:28:48.837Z</time></trkpt>
      <trkpt lat="25.449044" lon="99.408007"><time>2026-04-27T07:28:48.854Z</time></trkpt>
      <trkpt lat="25.449044" lon="99.408007"><time>2026-04-27T07:28:48.871Z</time></trkpt>
      <trkpt lat="25.449044" lon="99.408007"><time>2026-04-27T07:28:48.887Z</time></trkpt>
      <trkpt lat="25.449044" lon="99.408007"><time>2026-04-27T07:28:48.904Z</time></trkpt>
      <trkpt lat="25.449033" lon="99.408006"><time>2026-04-27T07:28:48.921Z</time></trkpt>
      <trkpt lat="25.449033" lon="99.408006"><time>2026-04-27T07:28:48.937Z</time></trkpt>
      <trkpt lat="25.449033" lon="99.408006"><time>2026-04-27T07:28:48.954Z</time></trkpt>
      <trkpt lat="25.449033" lon="99.408006"><time>2026-04-27T07:28:48.971Z</time></trkpt>
      <trkpt lat="25.449033" lon="99.408006"><time>2026-04-27T07:28:48.987Z</time></trkpt>
      <trkpt lat="25.449033" lon="99.408006"><time>2026-04-27T07:28:49.004Z</time></trkpt>
      <trkpt lat="25.449021" lon="99.408005"><time>2026-04-27T07:28:49.021Z</time></trkpt>
      <trkpt lat="25.449021" lon="99.408005"><time>2026-04-27T07:28:49.037Z</time></trkpt>
      <trkpt lat="25.449021" lon="99.408005"><time>2026-04-27T07:28:49.054Z</time></trkpt>
      <trkpt lat="25.449021" lon="99.408005"><time>2026-04-27T07:28:49.071Z</time></trkpt>
      <trkpt lat="25.449021" lon="99.408005"><time>2026-04-27T07:28:49.087Z</time></trkpt>
      <trkpt lat="25.449021" lon="99.408005"><time>2026-04-27T07:28:49.104Z</time></trkpt>
      <trkpt lat="25.449009" lon="99.408004"><time>2026-04-27T07:28:49.121Z</time></trkpt>
      <trkpt lat="25.449009" lon="99.408004"><time>2026-04-27T07:28:49.138Z</time></trkpt>
      <trkpt lat="25.449009" lon="99.408004"><time>2026-04-27T07:28:49.154Z</time></trkpt>
      <trkpt lat="25.449009" lon="99.408004"><time>2026-04-27T07:28:49.171Z</time></trkpt>
      <trkpt lat="25.449009" lon="99.408004"><time>2026-04-27T07:28:49.188Z</time></trkpt>
      <trkpt lat="25.449009" lon="99.408004"><time>2026-04-27T07:28:49.204Z</time></trkpt>
      <trkpt lat="25.448997" lon="99.408003"><time>2026-04-27T07:28:49.221Z</time></trkpt>
      <trkpt lat="25.448997" lon="99.408003"><time>2026-04-27T07:28:49.238Z</time></trkpt>
      <trkpt lat="25.448997" lon="99.408003"><time>2026-04-27T07:28:49.254Z</time></trkpt>
      <trkpt lat="25.448997" lon="99.408003"><time>2026-04-27T07:28:49.271Z</time></trkpt>
      <trkpt lat="25.448997" lon="99.408003"><time>2026-04-27T07:28:49.288Z</time></trkpt>
      <trkpt lat="25.448997" lon="99.408003"><time>2026-04-27T07:28:49.304Z</time></trkpt>
      <trkpt lat="25.448985" lon="99.408002"><time>2026-04-27T07:28:49.321Z</time></trkpt>
      <trkpt lat="25.448985" lon="99.408002"><time>2026-04-27T07:28:49.338Z</time></trkpt>
      <trkpt lat="25.448985" lon="99.408002"><time>2026-04-27T07:28:49.354Z</time></trkpt>
      <trkpt lat="25.448985" lon="99.408002"><time>2026-04-27T07:28:49.371Z</time></trkpt>
      <trkpt lat="25.448985" lon="99.408002"><time>2026-04-27T07:28:49.388Z</time></trkpt>
      <trkpt lat="25.448985" lon="99.408002"><time>2026-04-27T07:28:49.404Z</time></trkpt>
      <trkpt lat="25.448973" lon="99.408001"><time>2026-04-27T07:28:49.421Z</time></trkpt>
      <trkpt lat="25.448973" lon="99.408001"><time>2026-04-27T07:28:49.438Z</time></trkpt>
      <trkpt lat="25.448973" lon="99.408001"><time>2026-04-27T07:28:49.455Z</time></trkpt>
      <trkpt lat="25.448973" lon="99.408001"><time>2026-04-27T07:28:49.471Z</time></trkpt>
      <trkpt lat="25.448973" lon="99.408001"><time>2026-04-27T07:28:49.488Z</time></trkpt>
      <trkpt lat="25.448973" lon="99.408001"><time>2026-04-27T07:28:49.505Z</time></trkpt>
      <trkpt lat="25.44896" lon="99.408"><time>2026-04-27T07:28:49.521Z</time></trkpt>
      <trkpt lat="25.44896" lon="99.408"><time>2026-04-27T07:28:49.538Z</time></trkpt>
      <trkpt lat="25.44896" lon="99.408"><time>2026-04-27T07:28:49.555Z</time></trkpt>
      <trkpt lat="25.44896" lon="99.408"><time>2026-04-27T07:28:49.571Z</time></trkpt>
      <trkpt lat="25.44896" lon="99.408"><time>2026-04-27T07:28:49.588Z</time></trkpt>
      <trkpt lat="25.44896" lon="99.408"><time>2026-04-27T07:28:49.605Z</time></trkpt>
      <trkpt lat="25.448948" lon="99.407999"><time>2026-04-27T07:28:49.621Z</time></trkpt>
      <trkpt lat="25.448948" lon="99.407999"><time>2026-04-27T07:28:49.638Z</time></trkpt>
      <trkpt lat="25.448948" lon="99.407999"><time>2026-04-27T07:28:49.655Z</time></trkpt>
      <trkpt lat="25.448948" lon="99.407999"><time>2026-04-27T07:28:49.671Z</time></trkpt>
      <trkpt lat="25.448948" lon="99.407999"><time>2026-04-27T07:28:49.688Z</time></trkpt>
      <trkpt lat="25.448948" lon="99.407999"><time>2026-04-27T07:28:49.705Z</time></trkpt>
      <trkpt lat="25.448935" lon="99.407998"><time>2026-04-27T07:28:49.721Z</time></trkpt>
      <trkpt lat="25.448935" lon="99.407998"><time>2026-04-27T07:28:49.738Z</time></trkpt>
      <trkpt lat="25.448935" lon="99.407998"><time>2026-04-27T07:28:49.755Z</time></trkpt>
      <trkpt lat="25.448935" lon="99.407998"><time>2026-04-27T07:28:49.772Z</time></trkpt>
      <trkpt lat="25.448935" lon="99.407998"><time>2026-04-27T07:28:49.788Z</time></trkpt>
      <trkpt lat="25.448935" lon="99.407998"><time>2026-04-27T07:28:49.805Z</time></trkpt>
      <trkpt lat="25.448922" lon="99.407997"><time>2026-04-27T07:28:49.822Z</time></trkpt>
      <trkpt lat="25.448922" lon="99.407997"><time>2026-04-27T07:28:49.838Z</time></trkpt>
      <trkpt lat="25.448922" lon="99.407997"><time>2026-04-27T07:28:49.855Z</time></trkpt>
      <trkpt lat="25.448922" lon="99.407997"><time>2026-04-27T07:28:49.872Z</time></trkpt>
      <trkpt lat="25.448922" lon="99.407997"><time>2026-04-27T07:28:49.888Z</time></trkpt>
      <trkpt lat="25.448922" lon="99.407997"><time>2026-04-27T07:28:49.905Z</time></trkpt>
      <trkpt lat="25.448909" lon="99.407996"><time>2026-04-27T07:28:49.922Z</time></trkpt>
      <trkpt lat="25.448909" lon="99.407996"><time>2026-04-27T07:28:49.938Z</time></trkpt>
      <trkpt lat="25.448909" lon="99.407996"><time>2026-04-27T07:28:49.955Z</time></trkpt>
      <trkpt lat="25.448909" lon="99.407996"><time>2026-04-27T07:28:49.972Z</time></trkpt>
      <trkpt lat="25.448909" lon="99.407996"><time>2026-04-27T07:28:49.988Z</time></trkpt>
      <trkpt lat="25.448909" lon="99.407996"><time>2026-04-27T07:28:50.005Z</time></trkpt>
      <trkpt lat="25.448896" lon="99.407995"><time>2026-04-27T07:28:50.022Z</time></trkpt>
      <trkpt lat="25.448896" lon="99.407995"><time>2026-04-27T07:28:50.038Z</time></trkpt>
      <trkpt lat="25.448896" lon="99.407995"><time>2026-04-27T07:28:50.055Z</time></trkpt>
      <trkpt lat="25.448896" lon="99.407995"><time>2026-04-27T07:28:50.072Z</time></trkpt>
      <trkpt lat="25.448896" lon="99.407995"><time>2026-04-27T07:28:50.089Z</time></trkpt>
      <trkpt lat="25.448896" lon="99.407995"><time>2026-04-27T07:28:50.105Z</time></trkpt>
      <trkpt lat="25.448883" lon="99.407994"><time>2026-04-27T07:28:50.122Z</time></trkpt>
      <trkpt lat="25.448883" lon="99.407994"><time>2026-04-27T07:28:50.139Z</time></trkpt>
      <trkpt lat="25.448883" lon="99.407994"><time>2026-04-27T07:28:50.155Z</time></trkpt>
      <trkpt lat="25.448883" lon="99.407994"><time>2026-04-27T07:28:50.172Z</time></trkpt>
      <trkpt lat="25.448883" lon="99.407994"><time>2026-04-27T07:28:50.189Z</time></trkpt>
      <trkpt lat="25.448883" lon="99.407994"><time>2026-04-27T07:28:50.205Z</time></trkpt>
      <trkpt lat="25.448869" lon="99.407993"><time>2026-04-27T07:28:50.222Z</time></trkpt>
      <trkpt lat="25.448869" lon="99.407993"><time>2026-04-27T07:28:50.239Z</time></trkpt>
      <trkpt lat="25.448869" lon="99.407993"><time>2026-04-27T07:28:50.255Z</time></trkpt>
      <trkpt lat="25.448869" lon="99.407993"><time>2026-04-27T07:28:50.272Z</time></trkpt>
      <trkpt lat="25.448869" lon="99.407993"><time>2026-04-27T07:28:50.289Z</time></trkpt>
      <trkpt lat="25.448869" lon="99.407993"><time>2026-04-27T07:28:50.305Z</time></trkpt>
      <trkpt lat="25.448856" lon="99.407991"><time>2026-04-27T07:28:50.322Z</time></trkpt>
      <trkpt lat="25.448856" lon="99.407991"><time>2026-04-27T07:28:50.339Z</time></trkpt>
      <trkpt lat="25.448856" lon="99.407991"><time>2026-04-27T07:28:50.355Z</time></trkpt>
      <trkpt lat="25.448856" lon="99.407991"><time>2026-04-27T07:28:50.372Z</time></trkpt>
      <trkpt lat="25.448856" lon="99.407991"><time>2026-04-27T07:28:50.389Z</time></trkpt>
      <trkpt lat="25.448856" lon="99.407991"><time>2026-04-27T07:28:50.406Z</time></trkpt>
      <trkpt lat="25.448843" lon="99.407991"><time>2026-04-27T07:28:50.422Z</time></trkpt>
      <trkpt lat="25.448843" lon="99.407991"><time>2026-04-27T07:28:50.439Z</time></trkpt>
      <trkpt lat="25.448843" lon="99.407991"><time>2026-04-27T07:28:50.456Z</time></trkpt>
      <trkpt lat="25.448843" lon="99.407991"><time>2026-04-27T07:28:50.472Z</time></trkpt>
      <trkpt lat="25.448843" lon="99.407991"><time>2026-04-27T07:28:50.489Z</time></trkpt>
      <trkpt lat="25.448843" lon="99.407991"><time>2026-04-27T07:28:50.506Z</time></trkpt>
      <trkpt lat="25.448829" lon="99.407989"><time>2026-04-27T07:28:50.522Z</time></trkpt>
      <trkpt lat="25.448829" lon="99.407989"><time>2026-04-27T07:28:50.539Z</time></trkpt>
      <trkpt lat="25.448829" lon="99.407989"><time>2026-04-27T07:28:50.556Z</time></trkpt>
      <trkpt lat="25.448829" lon="99.407989"><time>2026-04-27T07:28:50.572Z</time></trkpt>
      <trkpt lat="25.448829" lon="99.407989"><time>2026-04-27T07:28:50.589Z</time></trkpt>
      <trkpt lat="25.448829" lon="99.407989"><time>2026-04-27T07:28:50.606Z</time></trkpt>
      <trkpt lat="25.448815" lon="99.407988"><time>2026-04-27T07:28:50.622Z</time></trkpt>
      <trkpt lat="25.448815" lon="99.407988"><time>2026-04-27T07:28:50.639Z</time></trkpt>
      <trkpt lat="25.448815" lon="99.407988"><time>2026-04-27T07:28:50.656Z</time></trkpt>
      <trkpt lat="25.448815" lon="99.407988"><time>2026-04-27T07:28:50.672Z</time></trkpt>
      <trkpt lat="25.448815" lon="99.407988"><time>2026-04-27T07:28:50.689Z</time></trkpt>
      <trkpt lat="25.448815" lon="99.407988"><time>2026-04-27T07:28:50.706Z</time></trkpt>
      <trkpt lat="25.448801" lon="99.407986"><time>2026-04-27T07:28:50.723Z</time></trkpt>
      <trkpt lat="25.448801" lon="99.407986"><time>2026-04-27T07:28:50.739Z</time></trkpt>
      <trkpt lat="25.448801" lon="99.407986"><time>2026-04-27T07:28:50.756Z</time></trkpt>
      <trkpt lat="25.448801" lon="99.407986"><time>2026-04-27T07:28:50.773Z</time></trkpt>
      <trkpt lat="25.448801" lon="99.407986"><time>2026-04-27T07:28:50.789Z</time></trkpt>
      <trkpt lat="25.448801" lon="99.407986"><time>2026-04-27T07:28:50.806Z</time></trkpt>
      <trkpt lat="25.448788" lon="99.407985"><time>2026-04-27T07:28:50.823Z</time></trkpt>
      <trkpt lat="25.448788" lon="99.407985"><time>2026-04-27T07:28:50.839Z</time></trkpt>
      <trkpt lat="25.448788" lon="99.407985"><time>2026-04-27T07:28:50.856Z</time></trkpt>
      <trkpt lat="25.448788" lon="99.407985"><time>2026-04-27T07:28:50.873Z</time></trkpt>
      <trkpt lat="25.448788" lon="99.407985"><time>2026-04-27T07:28:50.889Z</time></trkpt>
      <trkpt lat="25.448788" lon="99.407985"><time>2026-04-27T07:28:50.906Z</time></trkpt>
      <trkpt lat="25.448773" lon="99.407983"><time>2026-04-27T07:28:50.923Z</time></trkpt>
      <trkpt lat="25.448773" lon="99.407983"><time>2026-04-27T07:28:50.939Z</time></trkpt>
      <trkpt lat="25.448773" lon="99.407983"><time>2026-04-27T07:28:50.956Z</time></trkpt>
      <trkpt lat="25.448773" lon="99.407983"><time>2026-04-27T07:28:50.973Z</time></trkpt>
      <trkpt lat="25.448773" lon="99.407983"><time>2026-04-27T07:28:50.989Z</time></trkpt>
      <trkpt lat="25.448773" lon="99.407983"><time>2026-04-27T07:28:51.006Z</time></trkpt>
      <trkpt lat="25.448759" lon="99.407981"><time>2026-04-27T07:28:51.023Z</time></trkpt>
      <trkpt lat="25.448759" lon="99.407981"><time>2026-04-27T07:28:51.040Z</time></trkpt>
      <trkpt lat="25.448759" lon="99.407981"><time>2026-04-27T07:28:51.056Z</time></trkpt>
      <trkpt lat="25.448759" lon="99.407981"><time>2026-04-27T07:28:51.073Z</time></trkpt>
      <trkpt lat="25.448759" lon="99.407981"><time>2026-04-27T07:28:51.090Z</time></trkpt>
      <trkpt lat="25.448759" lon="99.407981"><time>2026-04-27T07:28:51.106Z</time></trkpt>
      <trkpt lat="25.448744" lon="99.407979"><time>2026-04-27T07:28:51.123Z</time></trkpt>
      <trkpt lat="25.448744" lon="99.407979"><time>2026-04-27T07:28:51.140Z</time></trkpt>
      <trkpt lat="25.448744" lon="99.407979"><time>2026-04-27T07:28:51.156Z</time></trkpt>
      <trkpt lat="25.448744" lon="99.407979"><time>2026-04-27T07:28:51.173Z</time></trkpt>
      <trkpt lat="25.448744" lon="99.407979"><time>2026-04-27T07:28:51.190Z</time></trkpt>
      <trkpt lat="25.448744" lon="99.407979"><time>2026-04-27T07:28:51.206Z</time></trkpt>
      <trkpt lat="25.44873" lon="99.407977"><time>2026-04-27T07:28:51.223Z</time></trkpt>
      <trkpt lat="25.44873" lon="99.407977"><time>2026-04-27T07:28:51.240Z</time></trkpt>
      <trkpt lat="25.44873" lon="99.407977"><time>2026-04-27T07:28:51.256Z</time></trkpt>
      <trkpt lat="25.44873" lon="99.407977"><time>2026-04-27T07:28:51.273Z</time></trkpt>
      <trkpt lat="25.44873" lon="99.407977"><time>2026-04-27T07:28:51.290Z</time></trkpt>
      <trkpt lat="25.44873" lon="99.407977"><time>2026-04-27T07:28:51.306Z</time></trkpt>
      <trkpt lat="25.448716" lon="99.407975"><time>2026-04-27T07:28:51.323Z</time></trkpt>
      <trkpt lat="25.448716" lon="99.407975"><time>2026-04-27T07:28:51.340Z</time></trkpt>
      <trkpt lat="25.448716" lon="99.407975"><time>2026-04-27T07:28:51.356Z</time></trkpt>
      <trkpt lat="25.448716" lon="99.407975"><time>2026-04-27T07:28:51.373Z</time></trkpt>
      <trkpt lat="25.448716" lon="99.407975"><time>2026-04-27T07:28:51.390Z</time></trkpt>
      <trkpt lat="25.448716" lon="99.407975"><time>2026-04-27T07:28:51.407Z</time></trkpt>
      <trkpt lat="25.4487" lon="99.407973"><time>2026-04-27T07:28:51.423Z</time></trkpt>
      <trkpt lat="25.4487" lon="99.407973"><time>2026-04-27T07:28:51.440Z</time></trkpt>
      <trkpt lat="25.4487" lon="99.407973"><time>2026-04-27T07:28:51.457Z</time></trkpt>
      <trkpt lat="25.4487" lon="99.407973"><time>2026-04-27T07:28:51.473Z</time></trkpt>
      <trkpt lat="25.4487" lon="99.407973"><time>2026-04-27T07:28:51.490Z</time></trkpt>
      <trkpt lat="25.4487" lon="99.407973"><time>2026-04-27T07:28:51.507Z</time></trkpt>
      <trkpt lat="25.448685" lon="99.407971"><time>2026-04-27T07:28:51.523Z</time></trkpt>
      <trkpt lat="25.448685" lon="99.407971"><time>2026-04-27T07:28:51.540Z</time></trkpt>
      <trkpt lat="25.448685" lon="99.407971"><time>2026-04-27T07:28:51.557Z</time></trkpt>
      <trkpt lat="25.448685" lon="99.407971"><time>2026-04-27T07:28:51.573Z</time></trkpt>
      <trkpt lat="25.448685" lon="99.407971"><time>2026-04-27T07:28:51.590Z</time></trkpt>
      <trkpt lat="25.448685" lon="99.407971"><time>2026-04-27T07:28:51.607Z</time></trkpt>
      <trkpt lat="25.44867" lon="99.407969"><time>2026-04-27T07:28:51.623Z</time></trkpt>
      <trkpt lat="25.44867" lon="99.407969"><time>2026-04-27T07:28:51.640Z</time></trkpt>
      <trkpt lat="25.44867" lon="99.407969"><time>2026-04-27T07:28:51.657Z</time></trkpt>
      <trkpt lat="25.44867" lon="99.407969"><time>2026-04-27T07:28:51.673Z</time></trkpt>
      <trkpt lat="25.44867" lon="99.407969"><time>2026-04-27T07:28:51.690Z</time></trkpt>
      <trkpt lat="25.44867" lon="99.407969"><time>2026-04-27T07:28:51.707Z</time></trkpt>
      <trkpt lat="25.448655" lon="99.407966"><time>2026-04-27T07:28:51.724Z</time></trkpt>
      <trkpt lat="25.448655" lon="99.407966"><time>2026-04-27T07:28:51.740Z</time></trkpt>
      <trkpt lat="25.448655" lon="99.407966"><time>2026-04-27T07:28:51.757Z</time></trkpt>
      <trkpt lat="25.448655" lon="99.407966"><time>2026-04-27T07:28:51.774Z</time></trkpt>
      <trkpt lat="25.448655" lon="99.407966"><time>2026-04-27T07:28:51.790Z</time></trkpt>
      <trkpt lat="25.448655" lon="99.407966"><time>2026-04-27T07:28:51.807Z</time></trkpt>
      <trkpt lat="25.44864" lon="99.407964"><time>2026-04-27T07:28:51.824Z</time></trkpt>
      <trkpt lat="25.44864" lon="99.407964"><time>2026-04-27T07:28:51.840Z</time></trkpt>
      <trkpt lat="25.44864" lon="99.407964"><time>2026-04-27T07:28:51.857Z</time></trkpt>
      <trkpt lat="25.44864" lon="99.407964"><time>2026-04-27T07:28:51.874Z</time></trkpt>
      <trkpt lat="25.44864" lon="99.407964"><time>2026-04-27T07:28:51.890Z</time></trkpt>
      <trkpt lat="25.44864" lon="99.407964"><time>2026-04-27T07:28:51.907Z</time></trkpt>
      <trkpt lat="25.448626" lon="99.407961"><time>2026-04-27T07:28:51.924Z</time></trkpt>
      <trkpt lat="25.448626" lon="99.407961"><time>2026-04-27T07:28:51.940Z</time></trkpt>
      <trkpt lat="25.448626" lon="99.407961"><time>2026-04-27T07:28:51.957Z</time></trkpt>
      <trkpt lat="25.448626" lon="99.407961"><time>2026-04-27T07:28:51.974Z</time></trkpt>
      <trkpt lat="25.448626" lon="99.407961"><time>2026-04-27T07:28:51.990Z</time></trkpt>
      <trkpt lat="25.448626" lon="99.407961"><time>2026-04-27T07:28:52.007Z</time></trkpt>
      <trkpt lat="25.448609" lon="99.407959"><time>2026-04-27T07:28:52.024Z</time></trkpt>
      <trkpt lat="25.448609" lon="99.407959"><time>2026-04-27T07:28:52.041Z</time></trkpt>
      <trkpt lat="25.448609" lon="99.407959"><time>2026-04-27T07:28:52.057Z</time></trkpt>
      <trkpt lat="25.448609" lon="99.407959"><time>2026-04-27T07:28:52.074Z</time></trkpt>
      <trkpt lat="25.448609" lon="99.407959"><time>2026-04-27T07:28:52.091Z</time></trkpt>
      <trkpt lat="25.448609" lon="99.407959"><time>2026-04-27T07:28:52.107Z</time></trkpt>
      <trkpt lat="25.448595" lon="99.407956"><time>2026-04-27T07:28:52.124Z</time></trkpt>
      <trkpt lat="25.448595" lon="99.407956"><time>2026-04-27T07:28:52.141Z</time></trkpt>
      <trkpt lat="25.448595" lon="99.407956"><time>2026-04-27T07:28:52.157Z</time></trkpt>
      <trkpt lat="25.448595" lon="99.407956"><time>2026-04-27T07:28:52.174Z</time></trkpt>
      <trkpt lat="25.448595" lon="99.407956"><time>2026-04-27T07:28:52.191Z</time></trkpt>
      <trkpt lat="25.448595" lon="99.407956"><time>2026-04-27T07:28:52.207Z</time></trkpt>
      <trkpt lat="25.448578" lon="99.407953"><time>2026-04-27T07:28:52.224Z</time></trkpt>
      <trkpt lat="25.448578" lon="99.407953"><time>2026-04-27T07:28:52.241Z</time></trkpt>
      <trkpt lat="25.448578" lon="99.407953"><time>2026-04-27T07:28:52.257Z</time></trkpt>
      <trkpt lat="25.448578" lon="99.407953"><time>2026-04-27T07:28:52.274Z</time></trkpt>
      <trkpt lat="25.448578" lon="99.407953"><time>2026-04-27T07:28:52.291Z</time></trkpt>
      <trkpt lat="25.448578" lon="99.407953"><time>2026-04-27T07:28:52.307Z</time></trkpt>
      <trkpt lat="25.448563" lon="99.40795"><time>2026-04-27T07:28:52.324Z</time></trkpt>
      <trkpt lat="25.448563" lon="99.40795"><time>2026-04-27T07:28:52.341Z</time></trkpt>
      <trkpt lat="25.448563" lon="99.40795"><time>2026-04-27T07:28:52.358Z</time></trkpt>
      <trkpt lat="25.448563" lon="99.40795"><time>2026-04-27T07:28:52.374Z</time></trkpt>
      <trkpt lat="25.448563" lon="99.40795"><time>2026-04-27T07:28:52.391Z</time></trkpt>
      <trkpt lat="25.448563" lon="99.40795"><time>2026-04-27T07:28:52.408Z</time></trkpt>
      <trkpt lat="25.448547" lon="99.407947"><time>2026-04-27T07:28:52.424Z</time></trkpt>
      <trkpt lat="25.448547" lon="99.407947"><time>2026-04-27T07:28:52.441Z</time></trkpt>
      <trkpt lat="25.448547" lon="99.407947"><time>2026-04-27T07:28:52.458Z</time></trkpt>
      <trkpt lat="25.448547" lon="99.407947"><time>2026-04-27T07:28:52.474Z</time></trkpt>
      <trkpt lat="25.448547" lon="99.407947"><time>2026-04-27T07:28:52.491Z</time></trkpt>
      <trkpt lat="25.448547" lon="99.407947"><time>2026-04-27T07:28:52.508Z</time></trkpt>
      <trkpt lat="25.448531" lon="99.407944"><time>2026-04-27T07:28:52.524Z</time></trkpt>
      <trkpt lat="25.448531" lon="99.407944"><time>2026-04-27T07:28:52.541Z</time></trkpt>
      <trkpt lat="25.448531" lon="99.407944"><time>2026-04-27T07:28:52.558Z</time></trkpt>
      <trkpt lat="25.448531" lon="99.407944"><time>2026-04-27T07:28:52.574Z</time></trkpt>
      <trkpt lat="25.448531" lon="99.407944"><time>2026-04-27T07:28:52.591Z</time></trkpt>
      <trkpt lat="25.448531" lon="99.407944"><time>2026-04-27T07:28:52.608Z</time></trkpt>
      <trkpt lat="25.448515" lon="99.40794"><time>2026-04-27T07:28:52.624Z</time></trkpt>
      <trkpt lat="25.448515" lon="99.40794"><time>2026-04-27T07:28:52.641Z</time></trkpt>
      <trkpt lat="25.448515" lon="99.40794"><time>2026-04-27T07:28:52.658Z</time></trkpt>
      <trkpt lat="25.448515" lon="99.40794"><time>2026-04-27T07:28:52.675Z</time></trkpt>
      <trkpt lat="25.448515" lon="99.40794"><time>2026-04-27T07:28:52.691Z</time></trkpt>
      <trkpt lat="25.448515" lon="99.40794"><time>2026-04-27T07:28:52.708Z</time></trkpt>
      <trkpt lat="25.448499" lon="99.407937"><time>2026-04-27T07:28:52.725Z</time></trkpt>
      <trkpt lat="25.448499" lon="99.407937"><time>2026-04-27T07:28:52.741Z</time></trkpt>
      <trkpt lat="25.448499" lon="99.407937"><time>2026-04-27T07:28:52.758Z</time></trkpt>
      <trkpt lat="25.448499" lon="99.407937"><time>2026-04-27T07:28:52.775Z</time></trkpt>
      <trkpt lat="25.448499" lon="99.407937"><time>2026-04-27T07:28:52.791Z</time></trkpt>
      <trkpt lat="25.448499" lon="99.407937"><time>2026-04-27T07:28:52.808Z</time></trkpt>
      <trkpt lat="25.448483" lon="99.407933"><time>2026-04-27T07:28:52.825Z</time></trkpt>
      <trkpt lat="25.448483" lon="99.407933"><time>2026-04-27T07:28:52.841Z</time></trkpt>
      <trkpt lat="25.448483" lon="99.407933"><time>2026-04-27T07:28:52.858Z</time></trkpt>
      <trkpt lat="25.448483" lon="99.407933"><time>2026-04-27T07:28:52.875Z</time></trkpt>
      <trkpt lat="25.448483" lon="99.407933"><time>2026-04-27T07:28:52.891Z</time></trkpt>
      <trkpt lat="25.448483" lon="99.407933"><time>2026-04-27T07:28:52.908Z</time></trkpt>
      <trkpt lat="25.448467" lon="99.40793"><time>2026-04-27T07:28:52.925Z</time></trkpt>
      <trkpt lat="25.448467" lon="99.40793"><time>2026-04-27T07:28:52.941Z</time></trkpt>
      <trkpt lat="25.448467" lon="99.40793"><time>2026-04-27T07:28:52.958Z</time></trkpt>
      <trkpt lat="25.448467" lon="99.40793"><time>2026-04-27T07:28:52.975Z</time></trkpt>
      <trkpt lat="25.448467" lon="99.40793"><time>2026-04-27T07:28:52.992Z</time></trkpt>
      <trkpt lat="25.448467" lon="99.40793"><time>2026-04-27T07:28:53.008Z</time></trkpt>
      <trkpt lat="25.448451" lon="99.407926"><time>2026-04-27T07:28:53.025Z</time></trkpt>
      <trkpt lat="25.448451" lon="99.407926"><time>2026-04-27T07:28:53.042Z</time></trkpt>
      <trkpt lat="25.448451" lon="99.407926"><time>2026-04-27T07:28:53.058Z</time></trkpt>
      <trkpt lat="25.448451" lon="99.407926"><time>2026-04-27T07:28:53.075Z</time></trkpt>
      <trkpt lat="25.448451" lon="99.407926"><time>2026-04-27T07:28:53.092Z</time></trkpt>
      <trkpt lat="25.448451" lon="99.407926"><time>2026-04-27T07:28:53.108Z</time></trkpt>
      <trkpt lat="25.448436" lon="99.407922"><time>2026-04-27T07:28:53.125Z</time></trkpt>
      <trkpt lat="25.448436" lon="99.407922"><time>2026-04-27T07:28:53.142Z</time></trkpt>
      <trkpt lat="25.448436" lon="99.407922"><time>2026-04-27T07:28:53.158Z</time></trkpt>
      <trkpt lat="25.448436" lon="99.407922"><time>2026-04-27T07:28:53.175Z</time></trkpt>
      <trkpt lat="25.448436" lon="99.407922"><time>2026-04-27T07:28:53.192Z</time></trkpt>
      <trkpt lat="25.448436" lon="99.407922"><time>2026-04-27T07:28:53.208Z</time></trkpt>
      <trkpt lat="25.448419" lon="99.407918"><time>2026-04-27T07:28:53.225Z</time></trkpt>
      <trkpt lat="25.448419" lon="99.407918"><time>2026-04-27T07:28:53.242Z</time></trkpt>
      <trkpt lat="25.448419" lon="99.407918"><time>2026-04-27T07:28:53.258Z</time></trkpt>
      <trkpt lat="25.448419" lon="99.407918"><time>2026-04-27T07:28:53.275Z</time></trkpt>
      <trkpt lat="25.448419" lon="99.407918"><time>2026-04-27T07:28:53.292Z</time></trkpt>
      <trkpt lat="25.448419" lon="99.407918"><time>2026-04-27T07:28:53.309Z</time></trkpt>
      <trkpt lat="25.448402" lon="99.407914"><time>2026-04-27T07:28:53.325Z</time></trkpt>
      <trkpt lat="25.448402" lon="99.407914"><time>2026-04-27T07:28:53.342Z</time></trkpt>
      <trkpt lat="25.448402" lon="99.407914"><time>2026-04-27T07:28:53.359Z</time></trkpt>
      <trkpt lat="25.448402" lon="99.407914"><time>2026-04-27T07:28:53.375Z</time></trkpt>
      <trkpt lat="25.448402" lon="99.407914"><time>2026-04-27T07:28:53.392Z</time></trkpt>
      <trkpt lat="25.448402" lon="99.407914"><time>2026-04-27T07:28:53.409Z</time></trkpt>
      <trkpt lat="25.448386" lon="99.40791"><time>2026-04-27T07:28:53.425Z</time></trkpt>
      <trkpt lat="25.448386" lon="99.40791"><time>2026-04-27T07:28:53.442Z</time></trkpt>
      <trkpt lat="25.448386" lon="99.40791"><time>2026-04-27T07:28:53.459Z</time></trkpt>
      <trkpt lat="25.448386" lon="99.40791"><time>2026-04-27T07:28:53.475Z</time></trkpt>
      <trkpt lat="25.448386" lon="99.40791"><time>2026-04-27T07:28:53.492Z</time></trkpt>
      <trkpt lat="25.448386" lon="99.40791"><time>2026-04-27T07:28:53.509Z</time></trkpt>
      <trkpt lat="25.44837" lon="99.407906"><time>2026-04-27T07:28:53.525Z</time></trkpt>
      <trkpt lat="25.44837" lon="99.407906"><time>2026-04-27T07:28:53.542Z</time></trkpt>
      <trkpt lat="25.44837" lon="99.407906"><time>2026-04-27T07:28:53.559Z</time></trkpt>
      <trkpt lat="25.44837" lon="99.407906"><time>2026-04-27T07:28:53.575Z</time></trkpt>
      <trkpt lat="25.44837" lon="99.407906"><time>2026-04-27T07:28:53.592Z</time></trkpt>
      <trkpt lat="25.44837" lon="99.407906"><time>2026-04-27T07:28:53.609Z</time></trkpt>
      <trkpt lat="25.448353" lon="99.407901"><time>2026-04-27T07:28:53.626Z</time></trkpt>
      <trkpt lat="25.448353" lon="99.407901"><time>2026-04-27T07:28:53.642Z</time></trkpt>
      <trkpt lat="25.448353" lon="99.407901"><time>2026-04-27T07:28:53.659Z</time></trkpt>
      <trkpt lat="25.448353" lon="99.407901"><time>2026-04-27T07:28:53.676Z</time></trkpt>
      <trkpt lat="25.448353" lon="99.407901"><time>2026-04-27T07:28:53.692Z</time></trkpt>
      <trkpt lat="25.448353" lon="99.407901"><time>2026-04-27T07:28:53.709Z</time></trkpt>
      <trkpt lat="25.448337" lon="99.407897"><time>2026-04-27T07:28:53.726Z</time></trkpt>
      <trkpt lat="25.448337" lon="99.407897"><time>2026-04-27T07:28:53.742Z</time></trkpt>
      <trkpt lat="25.448337" lon="99.407897"><time>2026-04-27T07:28:53.759Z</time></trkpt>
      <trkpt lat="25.448337" lon="99.407897"><time>2026-04-27T07:28:53.776Z</time></trkpt>
      <trkpt lat="25.448337" lon="99.407897"><time>2026-04-27T07:28:53.792Z</time></trkpt>
      <trkpt lat="25.448337" lon="99.407897"><time>2026-04-27T07:28:53.809Z</time></trkpt>
      <trkpt lat="25.44832" lon="99.407892"><time>2026-04-27T07:28:53.826Z</time></trkpt>
      <trkpt lat="25.44832" lon="99.407892"><time>2026-04-27T07:28:53.842Z</time></trkpt>
      <trkpt lat="25.44832" lon="99.407892"><time>2026-04-27T07:28:53.859Z</time></trkpt>
      <trkpt lat="25.44832" lon="99.407892"><time>2026-04-27T07:28:53.876Z</time></trkpt>
      <trkpt lat="25.44832" lon="99.407892"><time>2026-04-27T07:28:53.892Z</time></trkpt>
      <trkpt lat="25.44832" lon="99.407892"><time>2026-04-27T07:28:53.909Z</time></trkpt>
      <trkpt lat="25.448304" lon="99.407887"><time>2026-04-27T07:28:53.926Z</time></trkpt>
      <trkpt lat="25.448304" lon="99.407887"><time>2026-04-27T07:28:53.943Z</time></trkpt>
      <trkpt lat="25.448304" lon="99.407887"><time>2026-04-27T07:28:53.959Z</time></trkpt>
      <trkpt lat="25.448304" lon="99.407887"><time>2026-04-27T07:28:53.976Z</time></trkpt>
      <trkpt lat="25.448304" lon="99.407887"><time>2026-04-27T07:28:53.993Z</time></trkpt>
      <trkpt lat="25.448304" lon="99.407887"><time>2026-04-27T07:28:54.009Z</time></trkpt>
      <trkpt lat="25.448287" lon="99.407882"><time>2026-04-27T07:28:54.026Z</time></trkpt>
      <trkpt lat="25.448287" lon="99.407882"><time>2026-04-27T07:28:54.043Z</time></trkpt>
      <trkpt lat="25.448287" lon="99.407882"><time>2026-04-27T07:28:54.059Z</time></trkpt>
      <trkpt lat="25.448287" lon="99.407882"><time>2026-04-27T07:28:54.076Z</time></trkpt>
      <trkpt lat="25.448287" lon="99.407882"><time>2026-04-27T07:28:54.093Z</time></trkpt>
      <trkpt lat="25.448287" lon="99.407882"><time>2026-04-27T07:28:54.109Z</time></trkpt>
      <trkpt lat="25.44827" lon="99.407877"><time>2026-04-27T07:28:54.126Z</time></trkpt>
      <trkpt lat="25.44827" lon="99.407877"><time>2026-04-27T07:28:54.143Z</time></trkpt>
      <trkpt lat="25.44827" lon="99.407877"><time>2026-04-27T07:28:54.159Z</time></trkpt>
      <trkpt lat="25.44827" lon="99.407877"><time>2026-04-27T07:28:54.176Z</time></trkpt>
      <trkpt lat="25.44827" lon="99.407877"><time>2026-04-27T07:28:54.193Z</time></trkpt>
      <trkpt lat="25.44827" lon="99.407877"><time>2026-04-27T07:28:54.209Z</time></trkpt>
      <trkpt lat="25.448253" lon="99.407872"><time>2026-04-27T07:28:54.226Z</time></trkpt>
      <trkpt lat="25.448253" lon="99.407872"><time>2026-04-27T07:28:54.243Z</time></trkpt>
      <trkpt lat="25.448253" lon="99.407872"><time>2026-04-27T07:28:54.260Z</time></trkpt>
      <trkpt lat="25.448253" lon="99.407872"><time>2026-04-27T07:28:54.276Z</time></trkpt>
      <trkpt lat="25.448253" lon="99.407872"><time>2026-04-27T07:28:54.293Z</time></trkpt>
      <trkpt lat="25.448253" lon="99.407872"><time>2026-04-27T07:28:54.310Z</time></trkpt>
      <trkpt lat="25.448237" lon="99.407867"><time>2026-04-27T07:28:54.326Z</time></trkpt>
      <trkpt lat="25.448237" lon="99.407867"><time>2026-04-27T07:28:54.343Z</time></trkpt>
      <trkpt lat="25.448237" lon="99.407867"><time>2026-04-27T07:28:54.360Z</time></trkpt>
      <trkpt lat="25.448237" lon="99.407867"><time>2026-04-27T07:28:54.376Z</time></trkpt>
      <trkpt lat="25.448237" lon="99.407867"><time>2026-04-27T07:28:54.393Z</time></trkpt>
      <trkpt lat="25.448237" lon="99.407867"><time>2026-04-27T07:28:54.410Z</time></trkpt>
      <trkpt lat="25.44822" lon="99.407861"><time>2026-04-27T07:28:54.426Z</time></trkpt>
      <trkpt lat="25.44822" lon="99.407861"><time>2026-04-27T07:28:54.443Z</time></trkpt>
      <trkpt lat="25.44822" lon="99.407861"><time>2026-04-27T07:28:54.460Z</time></trkpt>
      <trkpt lat="25.44822" lon="99.407861"><time>2026-04-27T07:28:54.476Z</time></trkpt>
      <trkpt lat="25.44822" lon="99.407861"><time>2026-04-27T07:28:54.493Z</time></trkpt>
      <trkpt lat="25.44822" lon="99.407861"><time>2026-04-27T07:28:54.510Z</time></trkpt>
      <trkpt lat="25.448203" lon="99.407856"><time>2026-04-27T07:28:54.526Z</time></trkpt>
      <trkpt lat="25.448203" lon="99.407856"><time>2026-04-27T07:28:54.543Z</time></trkpt>
      <trkpt lat="25.448203" lon="99.407856"><time>2026-04-27T07:28:54.560Z</time></trkpt>
      <trkpt lat="25.448203" lon="99.407856"><time>2026-04-27T07:28:54.577Z</time></trkpt>
      <trkpt lat="25.448203" lon="99.407856"><time>2026-04-27T07:28:54.593Z</time></trkpt>
      <trkpt lat="25.448203" lon="99.407856"><time>2026-04-27T07:28:54.610Z</time></trkpt>
      <trkpt lat="25.448186" lon="99.40785"><time>2026-04-27T07:28:54.627Z</time></trkpt>
      <trkpt lat="25.448186" lon="99.40785"><time>2026-04-27T07:28:54.643Z</time></trkpt>
      <trkpt lat="25.448186" lon="99.40785"><time>2026-04-27T07:28:54.660Z</time></trkpt>
      <trkpt lat="25.448186" lon="99.40785"><time>2026-04-27T07:28:54.677Z</time></trkpt>
      <trkpt lat="25.448186" lon="99.40785"><time>2026-04-27T07:28:54.693Z</time></trkpt>
      <trkpt lat="25.448186" lon="99.40785"><time>2026-04-27T07:28:54.710Z</time></trkpt>
      <trkpt lat="25.448169" lon="99.407845"><time>2026-04-27T07:28:54.727Z</time></trkpt>
      <trkpt lat="25.448169" lon="99.407845"><time>2026-04-27T07:28:54.743Z</time></trkpt>
      <trkpt lat="25.448169" lon="99.407845"><time>2026-04-27T07:28:54.760Z</time></trkpt>
      <trkpt lat="25.448169" lon="99.407845"><time>2026-04-27T07:28:54.777Z</time></trkpt>
      <trkpt lat="25.448169" lon="99.407845"><time>2026-04-27T07:28:54.793Z</time></trkpt>
      <trkpt lat="25.448169" lon="99.407845"><time>2026-04-27T07:28:54.810Z</time></trkpt>
      <trkpt lat="25.448153" lon="99.407839"><time>2026-04-27T07:28:54.827Z</time></trkpt>
      <trkpt lat="25.448153" lon="99.407839"><time>2026-04-27T07:28:54.843Z</time></trkpt>
      <trkpt lat="25.448153" lon="99.407839"><time>2026-04-27T07:28:54.860Z</time></trkpt>
      <trkpt lat="25.448153" lon="99.407839"><time>2026-04-27T07:28:54.877Z</time></trkpt>
      <trkpt lat="25.448153" lon="99.407839"><time>2026-04-27T07:28:54.894Z</time></trkpt>
      <trkpt lat="25.448153" lon="99.407839"><time>2026-04-27T07:28:54.910Z</time></trkpt>
      <trkpt lat="25.448136" lon="99.407833"><time>2026-04-27T07:28:54.927Z</time></trkpt>
      <trkpt lat="25.448136" lon="99.407833"><time>2026-04-27T07:28:54.944Z</time></trkpt>
      <trkpt lat="25.448136" lon="99.407833"><time>2026-04-27T07:28:54.960Z</time></trkpt>
      <trkpt lat="25.448136" lon="99.407833"><time>2026-04-27T07:28:54.977Z</time></trkpt>
      <trkpt lat="25.448136" lon="99.407833"><time>2026-04-27T07:28:54.994Z</time></trkpt>
      <trkpt lat="25.448136" lon="99.407833"><time>2026-04-27T07:28:55.010Z</time></trkpt>
      <trkpt lat="25.448119" lon="99.407827"><time>2026-04-27T07:28:55.027Z</time></trkpt>
      <trkpt lat="25.448119" lon="99.407827"><time>2026-04-27T07:28:55.044Z</time></trkpt>
      <trkpt lat="25.448119" lon="99.407827"><time>2026-04-27T07:28:55.060Z</time></trkpt>
      <trkpt lat="25.448119" lon="99.407827"><time>2026-04-27T07:28:55.077Z</time></trkpt>
      <trkpt lat="25.448119" lon="99.407827"><time>2026-04-27T07:28:55.094Z</time></trkpt>
      <trkpt lat="25.448119" lon="99.407827"><time>2026-04-27T07:28:55.110Z</time></trkpt>
      <trkpt lat="25.448103" lon="99.407821"><time>2026-04-27T07:28:55.127Z</time></trkpt>
      <trkpt lat="25.448103" lon="99.407821"><time>2026-04-27T07:28:55.144Z</time></trkpt>
      <trkpt lat="25.448103" lon="99.407821"><time>2026-04-27T07:28:55.160Z</time></trkpt>
      <trkpt lat="25.448103" lon="99.407821"><time>2026-04-27T07:28:55.177Z</time></trkpt>
      <trkpt lat="25.448103" lon="99.407821"><time>2026-04-27T07:28:55.194Z</time></trkpt>
      <trkpt lat="25.448103" lon="99.407821"><time>2026-04-27T07:28:55.211Z</time></trkpt>
      <trkpt lat="25.448085" lon="99.407814"><time>2026-04-27T07:28:55.227Z</time></trkpt>
      <trkpt lat="25.448085" lon="99.407814"><time>2026-04-27T07:28:55.244Z</time></trkpt>
      <trkpt lat="25.448085" lon="99.407814"><time>2026-04-27T07:28:55.261Z</time></trkpt>
      <trkpt lat="25.448085" lon="99.407814"><time>2026-04-27T07:28:55.277Z</time></trkpt>
      <trkpt lat="25.448085" lon="99.407814"><time>2026-04-27T07:28:55.294Z</time></trkpt>
      <trkpt lat="25.448085" lon="99.407814"><time>2026-04-27T07:28:55.311Z</time></trkpt>
      <trkpt lat="25.448068" lon="99.407808"><time>2026-04-27T07:28:55.327Z</time></trkpt>
      <trkpt lat="25.448068" lon="99.407808"><time>2026-04-27T07:28:55.344Z</time></trkpt>
      <trkpt lat="25.448068" lon="99.407808"><time>2026-04-27T07:28:55.361Z</time></trkpt>
      <trkpt lat="25.448068" lon="99.407808"><time>2026-04-27T07:28:55.377Z</time></trkpt>
      <trkpt lat="25.448068" lon="99.407808"><time>2026-04-27T07:28:55.394Z</time></trkpt>
      <trkpt lat="25.448068" lon="99.407808"><time>2026-04-27T07:28:55.411Z</time></trkpt>
      <trkpt lat="25.448051" lon="99.407802"><time>2026-04-27T07:28:55.427Z</time></trkpt>
      <trkpt lat="25.448051" lon="99.407802"><time>2026-04-27T07:28:55.444Z</time></trkpt>
      <trkpt lat="25.448051" lon="99.407802"><time>2026-04-27T07:28:55.461Z</time></trkpt>
      <trkpt lat="25.448051" lon="99.407802"><time>2026-04-27T07:28:55.477Z</time></trkpt>
      <trkpt lat="25.448051" lon="99.407802"><time>2026-04-27T07:28:55.494Z</time></trkpt>
      <trkpt lat="25.448051" lon="99.407802"><time>2026-04-27T07:28:55.511Z</time></trkpt>
      <trkpt lat="25.448035" lon="99.407795"><time>2026-04-27T07:28:55.528Z</time></trkpt>
      <trkpt lat="25.448035" lon="99.407795"><time>2026-04-27T07:28:55.544Z</time></trkpt>
      <trkpt lat="25.448035" lon="99.407795"><time>2026-04-27T07:28:55.561Z</time></trkpt>
      <trkpt lat="25.448035" lon="99.407795"><time>2026-04-27T07:28:55.578Z</time></trkpt>
      <trkpt lat="25.448035" lon="99.407795"><time>2026-04-27T07:28:55.594Z</time></trkpt>
      <trkpt lat="25.448035" lon="99.407795"><time>2026-04-27T07:28:55.611Z</time></trkpt>
      <trkpt lat="25.448018" lon="99.407789"><time>2026-04-27T07:28:55.628Z</time></trkpt>
      <trkpt lat="25.448018" lon="99.407789"><time>2026-04-27T07:28:55.644Z</time></trkpt>
      <trkpt lat="25.448018" lon="99.407789"><time>2026-04-27T07:28:55.661Z</time></trkpt>
      <trkpt lat="25.448018" lon="99.407789"><time>2026-04-27T07:28:55.678Z</time></trkpt>
      <trkpt lat="25.448018" lon="99.407789"><time>2026-04-27T07:28:55.694Z</time></trkpt>
      <trkpt lat="25.448018" lon="99.407789"><time>2026-04-27T07:28:55.711Z</time></trkpt>
      <trkpt lat="25.448001" lon="99.407782"><time>2026-04-27T07:28:55.728Z</time></trkpt>
      <trkpt lat="25.448001" lon="99.407782"><time>2026-04-27T07:28:55.744Z</time></trkpt>
      <trkpt lat="25.448001" lon="99.407782"><time>2026-04-27T07:28:55.761Z</time></trkpt>
      <trkpt lat="25.448001" lon="99.407782"><time>2026-04-27T07:28:55.778Z</time></trkpt>
      <trkpt lat="25.448001" lon="99.407782"><time>2026-04-27T07:28:55.794Z</time></trkpt>
      <trkpt lat="25.448001" lon="99.407782"><time>2026-04-27T07:28:55.811Z</time></trkpt>
      <trkpt lat="25.447985" lon="99.407775"><time>2026-04-27T07:28:55.828Z</time></trkpt>
      <trkpt lat="25.447985" lon="99.407775"><time>2026-04-27T07:28:55.845Z</time></trkpt>
      <trkpt lat="25.447985" lon="99.407775"><time>2026-04-27T07:28:55.861Z</time></trkpt>
      <trkpt lat="25.447985" lon="99.407775"><time>2026-04-27T07:28:55.878Z</time></trkpt>
      <trkpt lat="25.447985" lon="99.407775"><time>2026-04-27T07:28:55.895Z</time></trkpt>
      <trkpt lat="25.447985" lon="99.407775"><time>2026-04-27T07:28:55.911Z</time></trkpt>
      <trkpt lat="25.447968" lon="99.407769"><time>2026-04-27T07:28:55.928Z</time></trkpt>
      <trkpt lat="25.447968" lon="99.407769"><time>2026-04-27T07:28:55.945Z</time></trkpt>
      <trkpt lat="25.447968" lon="99.407769"><time>2026-04-27T07:28:55.961Z</time></trkpt>
      <trkpt lat="25.447968" lon="99.407769"><time>2026-04-27T07:28:55.978Z</time></trkpt>
      <trkpt lat="25.447968" lon="99.407769"><time>2026-04-27T07:28:55.995Z</time></trkpt>
      <trkpt lat="25.447968" lon="99.407769"><time>2026-04-27T07:28:56.011Z</time></trkpt>
      <trkpt lat="25.447952" lon="99.407762"><time>2026-04-27T07:28:56.028Z</time></trkpt>
      <trkpt lat="25.447952" lon="99.407762"><time>2026-04-27T07:28:56.045Z</time></trkpt>
      <trkpt lat="25.447952" lon="99.407762"><time>2026-04-27T07:28:56.061Z</time></trkpt>
      <trkpt lat="25.447952" lon="99.407762"><time>2026-04-27T07:28:56.078Z</time></trkpt>
      <trkpt lat="25.447952" lon="99.407762"><time>2026-04-27T07:28:56.095Z</time></trkpt>
      <trkpt lat="25.447952" lon="99.407762"><time>2026-04-27T07:28:56.111Z</time></trkpt>
      <trkpt lat="25.447935" lon="99.407755"><time>2026-04-27T07:28:56.128Z</time></trkpt>
      <trkpt lat="25.447935" lon="99.407755"><time>2026-04-27T07:28:56.145Z</time></trkpt>
      <trkpt lat="25.447935" lon="99.407755"><time>2026-04-27T07:28:56.162Z</time></trkpt>
      <trkpt lat="25.447935" lon="99.407755"><time>2026-04-27T07:28:56.178Z</time></trkpt>
      <trkpt lat="25.447935" lon="99.407755"><time>2026-04-27T07:28:56.195Z</time></trkpt>
      <trkpt lat="25.447935" lon="99.407755"><time>2026-04-27T07:28:56.212Z</time></trkpt>
      <trkpt lat="25.447919" lon="99.407748"><time>2026-04-27T07:28:56.228Z</time></trkpt>
      <trkpt lat="25.447919" lon="99.407748"><time>2026-04-27T07:28:56.245Z</time></trkpt>
      <trkpt lat="25.447919" lon="99.407748"><time>2026-04-27T07:28:56.262Z</time></trkpt>
      <trkpt lat="25.447919" lon="99.407748"><time>2026-04-27T07:28:56.278Z</time></trkpt>
      <trkpt lat="25.447919" lon="99.407748"><time>2026-04-27T07:28:56.295Z</time></trkpt>
      <trkpt lat="25.447919" lon="99.407748"><time>2026-04-27T07:28:56.312Z</time></trkpt>
      <trkpt lat="25.447902" lon="99.407741"><time>2026-04-27T07:28:56.328Z</time></trkpt>
      <trkpt lat="25.447902" lon="99.407741"><time>2026-04-27T07:28:56.345Z</time></trkpt>
      <trkpt lat="25.447902" lon="99.407741"><time>2026-04-27T07:28:56.362Z</time></trkpt>
      <trkpt lat="25.447902" lon="99.407741"><time>2026-04-27T07:28:56.378Z</time></trkpt>
      <trkpt lat="25.447902" lon="99.407741"><time>2026-04-27T07:28:56.395Z</time></trkpt>
      <trkpt lat="25.447902" lon="99.407741"><time>2026-04-27T07:28:56.412Z</time></trkpt>
      <trkpt lat="25.447886" lon="99.407733"><time>2026-04-27T07:28:56.428Z</time></trkpt>
      <trkpt lat="25.447886" lon="99.407733"><time>2026-04-27T07:28:56.445Z</time></trkpt>
      <trkpt lat="25.447886" lon="99.407733"><time>2026-04-27T07:28:56.462Z</time></trkpt>
      <trkpt lat="25.447886" lon="99.407733"><time>2026-04-27T07:28:56.479Z</time></trkpt>
      <trkpt lat="25.447886" lon="99.407733"><time>2026-04-27T07:28:56.495Z</time></trkpt>
      <trkpt lat="25.447886" lon="99.407733"><time>2026-04-27T07:28:56.512Z</time></trkpt>
      <trkpt lat="25.44787" lon="99.407726"><time>2026-04-27T07:28:56.529Z</time></trkpt>
      <trkpt lat="25.44787" lon="99.407726"><time>2026-04-27T07:28:56.545Z</time></trkpt>
      <trkpt lat="25.44787" lon="99.407726"><time>2026-04-27T07:28:56.562Z</time></trkpt>
      <trkpt lat="25.44787" lon="99.407726"><time>2026-04-27T07:28:56.579Z</time></trkpt>
      <trkpt lat="25.44787" lon="99.407726"><time>2026-04-27T07:28:56.595Z</time></trkpt>
      <trkpt lat="25.44787" lon="99.407726"><time>2026-04-27T07:28:56.612Z</time></trkpt>
      <trkpt lat="25.447853" lon="99.407719"><time>2026-04-27T07:28:56.629Z</time></trkpt>
      <trkpt lat="25.447853" lon="99.407719"><time>2026-04-27T07:28:56.645Z</time></trkpt>
      <trkpt lat="25.447853" lon="99.407719"><time>2026-04-27T07:28:56.662Z</time></trkpt>
      <trkpt lat="25.447853" lon="99.407719"><time>2026-04-27T07:28:56.679Z</time></trkpt>
      <trkpt lat="25.447853" lon="99.407719"><time>2026-04-27T07:28:56.695Z</time></trkpt>
      <trkpt lat="25.447853" lon="99.407719"><time>2026-04-27T07:28:56.712Z</time></trkpt>
      <trkpt lat="25.447837" lon="99.407711"><time>2026-04-27T07:28:56.729Z</time></trkpt>
      <trkpt lat="25.447837" lon="99.407711"><time>2026-04-27T07:28:56.745Z</time></trkpt>
      <trkpt lat="25.447837" lon="99.407711"><time>2026-04-27T07:28:56.762Z</time></trkpt>
      <trkpt lat="25.447837" lon="99.407711"><time>2026-04-27T07:28:56.779Z</time></trkpt>
      <trkpt lat="25.447837" lon="99.407711"><time>2026-04-27T07:28:56.796Z</time></trkpt>
      <trkpt lat="25.447837" lon="99.407711"><time>2026-04-27T07:28:56.812Z</time></trkpt>
      <trkpt lat="25.447822" lon="99.407704"><time>2026-04-27T07:28:56.829Z</time></trkpt>
      <trkpt lat="25.447822" lon="99.407704"><time>2026-04-27T07:28:56.846Z</time></trkpt>
      <trkpt lat="25.447822" lon="99.407704"><time>2026-04-27T07:28:56.862Z</time></trkpt>
      <trkpt lat="25.447822" lon="99.407704"><time>2026-04-27T07:28:56.879Z</time></trkpt>
      <trkpt lat="25.447822" lon="99.407704"><time>2026-04-27T07:28:56.896Z</time></trkpt>
      <trkpt lat="25.447822" lon="99.407704"><time>2026-04-27T07:28:56.912Z</time></trkpt>
      <trkpt lat="25.447805" lon="99.407696"><time>2026-04-27T07:28:56.929Z</time></trkpt>
      <trkpt lat="25.447805" lon="99.407696"><time>2026-04-27T07:28:56.946Z</time></trkpt>
      <trkpt lat="25.447805" lon="99.407696"><time>2026-04-27T07:28:56.962Z</time></trkpt>
      <trkpt lat="25.447805" lon="99.407696"><time>2026-04-27T07:28:56.979Z</time></trkpt>
      <trkpt lat="25.447805" lon="99.407696"><time>2026-04-27T07:28:56.996Z</time></trkpt>
      <trkpt lat="25.447805" lon="99.407696"><time>2026-04-27T07:28:57.012Z</time></trkpt>
      <trkpt lat="25.447789" lon="99.407688"><time>2026-04-27T07:28:57.029Z</time></trkpt>
      <trkpt lat="25.447789" lon="99.407688"><time>2026-04-27T07:28:57.046Z</time></trkpt>
      <trkpt lat="25.447789" lon="99.407688"><time>2026-04-27T07:28:57.062Z</time></trkpt>
      <trkpt lat="25.447789" lon="99.407688"><time>2026-04-27T07:28:57.079Z</time></trkpt>
      <trkpt lat="25.447789" lon="99.407688"><time>2026-04-27T07:28:57.096Z</time></trkpt>
      <trkpt lat="25.447789" lon="99.407688"><time>2026-04-27T07:28:57.113Z</time></trkpt>
      <trkpt lat="25.447774" lon="99.407681"><time>2026-04-27T07:28:57.129Z</time></trkpt>
      <trkpt lat="25.447774" lon="99.407681"><time>2026-04-27T07:28:57.146Z</time></trkpt>
      <trkpt lat="25.447774" lon="99.407681"><time>2026-04-27T07:28:57.163Z</time></trkpt>
      <trkpt lat="25.447774" lon="99.407681"><time>2026-04-27T07:28:57.179Z</time></trkpt>
      <trkpt lat="25.447774" lon="99.407681"><time>2026-04-27T07:28:57.196Z</time></trkpt>
      <trkpt lat="25.447774" lon="99.407681"><time>2026-04-27T07:28:57.213Z</time></trkpt>
      <trkpt lat="25.44776" lon="99.407672"><time>2026-04-27T07:28:57.229Z</time></trkpt>
      <trkpt lat="25.44776" lon="99.407672"><time>2026-04-27T07:28:57.246Z</time></trkpt>
      <trkpt lat="25.44776" lon="99.407672"><time>2026-04-27T07:28:57.263Z</time></trkpt>
      <trkpt lat="25.44776" lon="99.407672"><time>2026-04-27T07:28:57.279Z</time></trkpt>
      <trkpt lat="25.44776" lon="99.407672"><time>2026-04-27T07:28:57.296Z</time></trkpt>
      <trkpt lat="25.44776" lon="99.407672"><time>2026-04-27T07:28:57.313Z</time></trkpt>
      <trkpt lat="25.447745" lon="99.407666"><time>2026-04-27T07:28:57.329Z</time></trkpt>
      <trkpt lat="25.447745" lon="99.407666"><time>2026-04-27T07:28:57.346Z</time></trkpt>
      <trkpt lat="25.447745" lon="99.407666"><time>2026-04-27T07:28:57.363Z</time></trkpt>
      <trkpt lat="25.447745" lon="99.407666"><time>2026-04-27T07:28:57.379Z</time></trkpt>
      <trkpt lat="25.447745" lon="99.407666"><time>2026-04-27T07:28:57.396Z</time></trkpt>
    </trkseg>
  </trk>
</gpx>
