<?xml version="1.0" encoding="UTF-8"?>
<gpx version="1.1" creator="Kairos" xmlns="http://www.topografix.com/GPX/1/1">
  <trk>
    <name>sidecar-srt-edbea1fe08e9ada0</name>
    <trkseg>
      <trkpt lat="29.867271" lon="99.413014"><time>2026-05-02T05:34:36.000Z</time></trkpt>
      <trkpt lat="29.867271" lon="99.413014"><time>2026-05-02T05:34:36.016Z</time></trkpt>
      <trkpt lat="29.867271" lon="99.413014"><time>2026-05-02T05:34:36.032Z</time></trkpt>
      <trkpt lat="29.867271" lon="99.413014"><time>2026-05-02T05:34:36.049Z</time></trkpt>
      <trkpt lat="29.867271" lon="99.413014"><time>2026-05-02T05:34:36.066Z</time></trkpt>
      <trkpt lat="29.867271" lon="99.413014"><time>2026-05-02T05:34:36.082Z</time></trkpt>
      <trkpt lat="29.867271" lon="99.413014"><time>2026-05-02T05:34:36.099Z</time></trkpt>
      <trkpt lat="29.867271" lon="99.413014"><time>2026-05-02T05:34:36.116Z</time></trkpt>
      <trkpt lat="29.867271" lon="99.413014"><time>2026-05-02T05:34:36.132Z</time></trkpt>
      <trkpt lat="29.867271" lon="99.413014"><time>2026-05-02T05:34:36.149Z</time></trkpt>
      <trkpt lat="29.867271" lon="99.413014"><time>2026-05-02T05:34:36.166Z</time></trkpt>
      <trkpt lat="29.867271" lon="99.413014"><time>2026-05-02T05:34:36.182Z</time></trkpt>
      <trkpt lat="29.867271" lon="99.413014"><time>2026-05-02T05:34:36.199Z</time></trkpt>
      <trkpt lat="29.867271" lon="99.413014"><time>2026-05-02T05:34:36.216Z</time></trkpt>
      <trkpt lat="29.867271" lon="99.413014"><time>2026-05-02T05:34:36.232Z</time></trkpt>
      <trkpt lat="29.867271" lon="99.413014"><time>2026-05-02T05:34:36.249Z</time></trkpt>
      <trkpt lat="29.867271" lon="99.413014"><time>2026-05-02T05:34:36.266Z</time></trkpt>
      <trkpt lat="29.867271" lon="99.413014"><time>2026-05-02T05:34:36.282Z</time></trkpt>
      <trkpt lat="29.867271" lon="99.413014"><time>2026-05-02T05:34:36.299Z</time></trkpt>
      <trkpt lat="29.867271" lon="99.413014"><time>2026-05-02T05:34:36.316Z</time></trkpt>
      <trkpt lat="29.867271" lon="99.413014"><time>2026-05-02T05:34:36.333Z</time></trkpt>
      <trkpt lat="29.867271" lon="99.413014"><time>2026-05-02T05:34:36.349Z</time></trkpt>
      <trkpt lat="29.867271" lon="99.413014"><time>2026-05-02T05:34:36.366Z</time></trkpt>
      <trkpt lat="29.867271" lon="99.413014"><time>2026-05-02T05:34:36.383Z</time></trkpt>
      <trkpt lat="29.867271" lon="99.413014"><time>2026-05-02T05:34:36.399Z</time></trkpt>
      <trkpt lat="29.867271" lon="99.413014"><time>2026-05-02T05:34:36.416Z</time></trkpt>
      <trkpt lat="29.867271" lon="99.413014"><time>2026-05-02T05:34:36.433Z</time></trkpt>
      <trkpt lat="29.867271" lon="99.413014"><time>2026-05-02T05:34:36.449Z</time></trkpt>
      <trkpt lat="29.867271" lon="99.413014"><time>2026-05-02T05:34:36.466Z</time></trkpt>
      <trkpt lat="29.867271" lon="99.413014"><time>2026-05-02T05:34:36.483Z</time></trkpt>
      <trkpt lat="29.867271" lon="99.413014"><time>2026-05-02T05:34:36.499Z</time></trkpt>
      <trkpt lat="29.867271" lon="99.413014"><time>2026-05-02T05:34:36.516Z</time></trkpt>
      <trkpt lat="29.867271" lon="99.413014"><time>2026-05-02T05:34:36.533Z</time></trkpt>
      <trkpt lat="29.867271" lon="99.413014"><time>2026-05-02T05:34:36.549Z</time></trkpt>
      <trkpt lat="29.867271" lon="99.413014"><time>2026-05-02T05:34:36.566Z</time></trkpt>
      <trkpt lat="29.867271" lon="99.413014"><time>2026-05-02T05:34:36.583Z</time></trkpt>
      <trkpt lat="29.867271" lon="99.413014"><time>2026-05-02T05:34:36.599Z</time></trkpt>
      <trkpt lat="29.867271" lon="99.413014"><time>2026-05-02T05:34:36.616Z</time></trkpt>
      <trkpt lat="29.867271" lon="99.413014"><time>2026-05-02T05:34:36.633Z</time></trkpt>
      <trkpt lat="29.867271" lon="99.413014"><time>2026-05-02T05:34:36.649Z</time></trkpt>
      <trkpt lat="29.867271" lon="99.413014"><time>2026-05-02T05:34:36.666Z</time></trkpt>
      <trkpt lat="29.867271" lon="99.413014"><time>2026-05-02T05:34:36.683Z</time></trkpt>
      <trkpt lat="29.867271" lon="99.413014"><time>2026-05-02T05:34:36.700Z</time></trkpt>
      <trkpt lat="29.867271" lon="99.413014"><time>2026-05-02T05:34:36.716Z</time></trkpt>
      <trkpt lat="29.867271" lon="99.413014"><time>2026-05-02T05:34:36.733Z</time></trkpt>
      <trkpt lat="29.867271" lon="99.413014"><time>2026-05-02T05:34:36.750Z</time></trkpt>
      <trkpt lat="29.867271" lon="99.413014"><time>2026-05-02T05:34:36.766Z</time></trkpt>
      <trkpt lat="29.867271" lon="99.413014"><time>2026-05-02T05:34:36.783Z</time></trkpt>
      <trkpt lat="29.867271" lon="99.413014"><time>2026-05-02T05:34:36.800Z</time></trkpt>
      <trkpt lat="29.867271" lon="99.413014"><time>2026-05-02T05:34:36.816Z</time></trkpt>
      <trkpt lat="29.867271" lon="99.413014"><time>2026-05-02T05:34:36.833Z</time></trkpt>
      <trkpt lat="29.867271" lon="99.413014"><time>2026-05-02T05:34:36.850Z</time></trkpt>
      <trkpt lat="29.867271" lon="99.413014"><time>2026-05-02T05:34:36.866Z</time></trkpt>
      <trkpt lat="29.867271" lon="99.413014"><time>2026-05-02T05:34:36.883Z</time></trkpt>
      <trkpt lat="29.867271" lon="99.413014"><time>2026-05-02T05:34:36.900Z</time></trkpt>
      <trkpt lat="29.867271" lon="99.413014"><time>2026-05-02T05:34:36.916Z</time></trkpt>
      <trkpt lat="29.867271" lon="99.413014"><time>2026-05-02T05:34:36.933Z</time></trkpt>
      <trkpt lat="29.867271" lon="99.413014"><time>2026-05-02T05:34:36.950Z</time></trkpt>
      <trkpt lat="29.867271" lon="99.413014"><time>2026-05-02T05:34:36.966Z</time></trkpt>
      <trkpt lat="29.867271" lon="99.413014"><time>2026-05-02T05:34:36.983Z</time></trkpt>
      <trkpt lat="29.867271" lon="99.413014"><time>2026-05-02T05:34:37.000Z</time></trkpt>
      <trkpt lat="29.867271" lon="99.413014"><time>2026-05-02T05:34:37.017Z</time></trkpt>
      <trkpt lat="29.867271" lon="99.413014"><time>2026-05-02T05:34:37.033Z</time></trkpt>
      <trkpt lat="29.867271" lon="99.413014"><time>2026-05-02T05:34:37.050Z</time></trkpt>
      <trkpt lat="29.867271" lon="99.413014"><time>2026-05-02T05:34:37.067Z</time></trkpt>
      <trkpt lat="29.867271" lon="99.413014"><time>2026-05-02T05:34:37.083Z</time></trkpt>
      <trkpt lat="29.867271" lon="99.413014"><time>2026-05-02T05:34:37.100Z</time></trkpt>
      <trkpt lat="29.867271" lon="99.413014"><time>2026-05-02T05:34:37.117Z</time></trkpt>
      <trkpt lat="29.867271" lon="99.413014"><time>2026-05-02T05:34:37.133Z</time></trkpt>
      <trkpt lat="29.867271" lon="99.413014"><time>2026-05-02T05:34:37.150Z</time></trkpt>
      <trkpt lat="29.867271" lon="99.413014"><time>2026-05-02T05:34:37.167Z</time></trkpt>
      <trkpt lat="29.867271" lon="99.413014"><time>2026-05-02T05:34:37.183Z</time></trkpt>
      <trkpt lat="29.867271" lon="99.413014"><time>2026-05-02T05:34:37.200Z</time></trkpt>
      <trkpt lat="29.867271" lon="99.413014"><time>2026-05-02T05:34:37.217Z</time></trkpt>
      <trkpt lat="29.867271" lon="99.413014"><time>2026-05-02T05:34:37.233Z</time></trkpt>
      <trkpt lat="29.867271" lon="99.413014"><time>2026-05-02T05:34:37.250Z</time></trkpt>
      <trkpt lat="29.867271" lon="99.413014"><time>2026-05-02T05:34:37.267Z</time></trkpt>
      <trkpt lat="29.867271" lon="99.413014"><time>2026-05-02T05:34:37.283Z</time></trkpt>
      <trkpt lat="29.867271" lon="99.413014"><time>2026-05-02T05:34:37.300Z</time></trkpt>
      <trkpt lat="29.867271" lon="99.413014"><time>2026-05-02T05:34:37.317Z</time></trkpt>
      <trkpt lat="29.867271" lon="99.413014"><time>2026-05-02T05:34:37.334Z</time></trkpt>
      <trkpt lat="29.867271" lon="99.413014"><time>2026-05-02T05:34:37.350Z</time></trkpt>
      <trkpt lat="29.867271" lon="99.413014"><time>2026-05-02T05:34:37.367Z</time></trkpt>
      <trkpt lat="29.867271" lon="99.413014"><time>2026-05-02T05:34:37.384Z</time></trkpt>
      <trkpt lat="29.867271" lon="99.413014"><time>2026-05-02T05:34:37.400Z</time></trkpt>
      <trkpt lat="29.867271" lon="99.413014"><time>2026-05-02T05:34:37.417Z</time></trkpt>
      <trkpt lat="29.867271" lon="99.413014"><time>2026-05-02T05:34:37.434Z</time></trkpt>
      <trkpt lat="29.867271" lon="99.413014"><time>2026-05-02T05:34:37.450Z</time></trkpt>
      <trkpt lat="29.867271" lon="99.413014"><time>2026-05-02T05:34:37.467Z</time></trkpt>
      <trkpt lat="29.867271" lon="99.413014"><time>2026-05-02T05:34:37.484Z</time></trkpt>
      <trkpt lat="29.867271" lon="99.413014"><time>2026-05-02T05:34:37.500Z</time></trkpt>
      <trkpt lat="29.867271" lon="99.413014"><time>2026-05-02T05:34:37.517Z</time></trkpt>
      <trkpt lat="29.867271" lon="99.413014"><time>2026-05-02T05:34:37.534Z</time></trkpt>
      <trkpt lat="29.867271" lon="99.413014"><time>2026-05-02T05:34:37.550Z</time></trkpt>
      <trkpt lat="29.867271" lon="99.413014"><time>2026-05-02T05:34:37.567Z</time></trkpt>
      <trkpt lat="29.867271" lon="99.413014"><time>2026-05-02T05:34:37.584Z</time></trkpt>
      <trkpt lat="29.867271" lon="99.413014"><time>2026-05-02T05:34:37.600Z</time></trkpt>
      <trkpt lat="29.867271" lon="99.413014"><time>2026-05-02T05:34:37.617Z</time></trkpt>
      <trkpt lat="29.867271" lon="99.413014"><time>2026-05-02T05:34:37.634Z</time></trkpt>
      <trkpt lat="29.867271" lon="99.413014"><time>2026-05-02T05:34:37.651Z</time></trkpt>
      <trkpt lat="29.867271" lon="99.413014"><time>2026-05-02T05:34:37.667Z</time></trkpt>
      <trkpt lat="29.867271" lon="99.413014"><time>2026-05-02T05:34:37.684Z</time></trkpt>
      <trkpt lat="29.867271" lon="99.413014"><time>2026-05-02T05:34:37.701Z</time></trkpt>
      <trkpt lat="29.867271" lon="99.413014"><time>2026-05-02T05:34:37.717Z</time></trkpt>
      <trkpt lat="29.867271" lon="99.413014"><time>2026-05-02T05:34:37.734Z</time></trkpt>
      <trkpt lat="29.867271" lon="99.413014"><time>2026-05-02T05:34:37.751Z</time></trkpt>
      <trkpt lat="29.867271" lon="99.413014"><time>2026-05-02T05:34:37.767Z</time></trkpt>
      <trkpt lat="29.867271" lon="99.413014"><time>2026-05-02T05:34:37.784Z</time></trkpt>
      <trkpt lat="29.867271" lon="99.413014"><time>2026-05-02T05:34:37.801Z</time></trkpt>
      <trkpt lat="29.867271" lon="99.413014"><time>2026-05-02T05:34:37.817Z</time></trkpt>
      <trkpt lat="29.867271" lon="99.413014"><time>2026-05-02T05:34:37.834Z</time></trkpt>
      <trkpt lat="29.867271" lon="99.413014"><time>2026-05-02T05:34:37.851Z</time></trkpt>
      <trkpt lat="29.867271" lon="99.413014"><time>2026-05-02T05:34:37.867Z</time></trkpt>
      <trkpt lat="29.867271" lon="99.413014"><time>2026-05-02T05:34:37.884Z</time></trkpt>
      <trkpt lat="29.867271" lon="99.413014"><time>2026-05-02T05:34:37.901Z</time></trkpt>
      <trkpt lat="29.867271" lon="99.413014"><time>2026-05-02T05:34:37.917Z</time></trkpt>
      <trkpt lat="29.867271" lon="99.413014"><time>2026-05-02T05:34:37.934Z</time></trkpt>
      <trkpt lat="29.867271" lon="99.413014"><time>2026-05-02T05:34:37.951Z</time></trkpt>
      <trkpt lat="29.867271" lon="99.413014"><time>2026-05-02T05:34:37.968Z</time></trkpt>
      <trkpt lat="29.867271" lon="99.413014"><time>2026-05-02T05:34:37.984Z</time></trkpt>
      <trkpt lat="29.867271" lon="99.413014"><time>2026-05-02T05:34:38.001Z</time></trkpt>
      <trkpt lat="29.867271" lon="99.413014"><time>2026-05-02T05:34:38.018Z</time></trkpt>
      <trkpt lat="29.867271" lon="99.413014"><time>2026-05-02T05:34:38.034Z</time></trkpt>
      <trkpt lat="29.867271" lon="99.413014"><time>2026-05-02T05:34:38.051Z</time></trkpt>
      <trkpt lat="29.867271" lon="99.413014"><time>2026-05-02T05:34:38.068Z</time></trkpt>
      <trkpt lat="29.867271" lon="99.413014"><time>2026-05-02T05:34:38.084Z</time></trkpt>
      <trkpt lat="29.867271" lon="99.413014"><time>2026-05-02T05:34:38.101Z</time></trkpt>
      <trkpt lat="29.867271" lon="99.413014"><time>2026-05-02T05:34:38.118Z</time></trkpt>
      <trkpt lat="29.867271" lon="99.413014"><time>2026-05-02T05:34:38.134Z</time></trkpt>
      <trkpt lat="29.867271" lon="99.413014"><time>2026-05-02T05:34:38.151Z</time></trkpt>
      <trkpt lat="29.867271" lon="99.413014"><time>2026-05-02T05:34:38.168Z</time></trkpt>
      <trkpt lat="29.867271" lon="99.413014"><time>2026-05-02T05:34:38.184Z</time></trkpt>
      <trkpt lat="29.867271" lon="99.413014"><time>2026-05-02T05:34:38.201Z</time></trkpt>
      <trkpt lat="29.867271" lon="99.413014"><time>2026-05-02T05:34:38.218Z</time></trkpt>
      <trkpt lat="29.867271" lon="99.413014"><time>2026-05-02T05:34:38.234Z</time></trkpt>
      <trkpt lat="29.867271" lon="99.413014"><time>2026-05-02T05:34:38.251Z</time></trkpt>
      <trkpt lat="29.867271" lon="99.413014"><time>2026-05-02T05:34:38.268Z</time></trkpt>
      <trkpt lat="29.867271" lon="99.413014"><time>2026-05-02T05:34:38.285Z</time></trkpt>
      <trkpt lat="29.867271" lon="99.413014"><time>2026-05-02T05:34:38.301Z</time></trkpt>
      <trkpt lat="29.867271" lon="99.413014"><time>2026-05-02T05:34:38.318Z</time></trkpt>
      <trkpt lat="29.867271" lon="99.413014"><time>2026-05-02T05:34:38.335Z</time></trkpt>
      <trkpt lat="29.867271" lon="99.413014"><time>2026-05-02T05:34:38.351Z</time></trkpt>
      <trkpt lat="29.867271" lon="99.413014"><time>2026-05-02T05:34:38.368Z</time></trkpt>
      <trkpt lat="29.867271" lon="99.413014"><time>2026-05-02T05:34:38.385Z</time></trkpt>
      <trkpt lat="29.867271" lon="99.413014"><time>2026-05-02T05:34:38.401Z</time></trkpt>
      <trkpt lat="29.867271" lon="99.413014"><time>2026-05-02T05:34:38.418Z</time></trkpt>
      <trkpt lat="29.867271" lon="99.413014"><time>2026-05-02T05:34:38.435Z</time></trkpt>
      <trkpt lat="29.867271" lon="99.413014"><time>2026-05-02T05:34:38.451Z</time></trkpt>
      <trkpt lat="29.867271" lon="99.413014"><time>2026-05-02T05:34:38.468Z</time></trkpt>
      <trkpt lat="29.867271" lon="99.413014"><time>2026-05-02T05:34:38.485Z</time></trkpt>
      <trkpt lat="29.867271" lon="99.413014"><time>2026-05-02T05:34:38.501Z</time></trkpt>
      <trkpt lat="29.867271" lon="99.413014"><time>2026-05-02T05:34:38.518Z</time></trkpt>
      <trkpt lat="29.867271" lon="99.413014"><time>2026-05-02T05:34:38.535Z</time></trkpt>
      <trkpt lat="29.867271" lon="99.413014"><time>2026-05-02T05:34:38.551Z</time></trkpt>
      <trkpt lat="29.867271" lon="99.413014"><time>2026-05-02T05:34:38.568Z</time></trkpt>
      <trkpt lat="29.867271" lon="99.413014"><time>2026-05-02T05:34:38.585Z</time></trkpt>
      <trkpt lat="29.867271" lon="99.413014"><time>2026-05-02T05:34:38.602Z</time></trkpt>
      <trkpt lat="29.867271" lon="99.413014"><time>2026-05-02T05:34:38.618Z</time></trkpt>
      <trkpt lat="29.867271" lon="99.413014"><time>2026-05-02T05:34:38.635Z</time></trkpt>
      <trkpt lat="29.867271" lon="99.413014"><time>2026-05-02T05:34:38.652Z</time></trkpt>
      <trkpt lat="29.867271" lon="99.413014"><time>2026-05-02T05:34:38.668Z</time></trkpt>
      <trkpt lat="29.867271" lon="99.413014"><time>2026-05-02T05:34:38.685Z</time></trkpt>
      <trkpt lat="29.867271" lon="99.413014"><time>2026-05-02T05:34:38.702Z</time></trkpt>
      <trkpt lat="29.867271" lon="99.413014"><time>2026-05-02T05:34:38.718Z</time></trkpt>
      <trkpt lat="29.867271" lon="99.413014"><time>2026-05-02T05:34:38.735Z</time></trkpt>
      <trkpt lat="29.867271" lon="99.413014"><time>2026-05-02T05:34:38.752Z</time></trkpt>
      <trkpt lat="29.867271" lon="99.413014"><time>2026-05-02T05:34:38.768Z</time></trkpt>
      <trkpt lat="29.867271" lon="99.413014"><time>2026-05-02T05:34:38.785Z</time></trkpt>
      <trkpt lat="29.867271" lon="99.413014"><time>2026-05-02T05:34:38.802Z</time></trkpt>
      <trkpt lat="29.867271" lon="99.413014"><time>2026-05-02T05:34:38.818Z</time></trkpt>
      <trkpt lat="29.867271" lon="99.413014"><time>2026-05-02T05:34:38.835Z</time></trkpt>
      <trkpt lat="29.867271" lon="99.413014"><time>2026-05-02T05:34:38.852Z</time></trkpt>
      <trkpt lat="29.867271" lon="99.413014"><time>2026-05-02T05:34:38.868Z</time></trkpt>
      <trkpt lat="29.867271" lon="99.413014"><time>2026-05-02T05:34:38.885Z</time></trkpt>
      <trkpt lat="29.867271" lon="99.413014"><time>2026-05-02T05:34:38.902Z</time></trkpt>
      <trkpt lat="29.867271" lon="99.413014"><time>2026-05-02T05:34:38.919Z</time></trkpt>
      <trkpt lat="29.867271" lon="99.413014"><time>2026-05-02T05:34:38.935Z</time></trkpt>
      <trkpt lat="29.867271" lon="99.413014"><time>2026-05-02T05:34:38.952Z</time></trkpt>
      <trkpt lat="29.867271" lon="99.413014"><time>2026-05-02T05:34:38.969Z</time></trkpt>
      <trkpt lat="29.867271" lon="99.413014"><time>2026-05-02T05:34:38.985Z</time></trkpt>
      <trkpt lat="29.867271" lon="99.413014"><time>2026-05-02T05:34:39.002Z</time></trkpt>
      <trkpt lat="29.867271" lon="99.413014"><time>2026-05-02T05:34:39.019Z</time></trkpt>
      <trkpt lat="29.867271" lon="99.413014"><time>2026-05-02T05:34:39.035Z</time></trkpt>
      <trkpt lat="29.867271" lon="99.413014"><time>2026-05-02T05:34:39.052Z</time></trkpt>
      <trkpt lat="29.867271" lon="99.413014"><time>2026-05-02T05:34:39.069Z</time></trkpt>
      <trkpt lat="29.867271" lon="99.413014"><time>2026-05-02T05:34:39.085Z</time></trkpt>
      <trkpt lat="29.867271" lon="99.413014"><time>2026-05-02T05:34:39.102Z</time></trkpt>
      <trkpt lat="29.867271" lon="99.413014"><time>2026-05-02T05:34:39.119Z</time></trkpt>
      <trkpt lat="29.867271" lon="99.413014"><time>2026-05-02T05:34:39.135Z</time></trkpt>
      <trkpt lat="29.867271" lon="99.413014"><time>2026-05-02T05:34:39.152Z</time></trkpt>
      <trkpt lat="29.867271" lon="99.413014"><time>2026-05-02T05:34:39.169Z</time></trkpt>
      <trkpt lat="29.867271" lon="99.413015"><time>2026-05-02T05:34:39.185Z</time></trkpt>
      <trkpt lat="29.867271" lon="99.413015"><time>2026-05-02T05:34:39.202Z</time></trkpt>
      <trkpt lat="29.867271" lon="99.413015"><time>2026-05-02T05:34:39.219Z</time></trkpt>
      <trkpt lat="29.867271" lon="99.413015"><time>2026-05-02T05:34:39.236Z</time></trkpt>
      <trkpt lat="29.867271" lon="99.413015"><time>2026-05-02T05:34:39.252Z</time></trkpt>
      <trkpt lat="29.867271" lon="99.413015"><time>2026-05-02T05:34:39.269Z</time></trkpt>
      <trkpt lat="29.867271" lon="99.413015"><time>2026-05-02T05:34:39.286Z</time></trkpt>
      <trkpt lat="29.867271" lon="99.413015"><time>2026-05-02T05:34:39.302Z</time></trkpt>
      <trkpt lat="29.867271" lon="99.413015"><time>2026-05-02T05:34:39.319Z</time></trkpt>
      <trkpt lat="29.867271" lon="99.413015"><time>2026-05-02T05:34:39.336Z</time></trkpt>
      <trkpt lat="29.867271" lon="99.413015"><time>2026-05-02T05:34:39.352Z</time></trkpt>
      <trkpt lat="29.867271" lon="99.413015"><time>2026-05-02T05:34:39.369Z</time></trkpt>
      <trkpt lat="29.867271" lon="99.413015"><time>2026-05-02T05:34:39.386Z</time></trkpt>
      <trkpt lat="29.867271" lon="99.413015"><time>2026-05-02T05:34:39.402Z</time></trkpt>
      <trkpt lat="29.867271" lon="99.413015"><time>2026-05-02T05:34:39.419Z</time></trkpt>
      <trkpt lat="29.867271" lon="99.413015"><time>2026-05-02T05:34:39.436Z</time></trkpt>
      <trkpt lat="29.867271" lon="99.413015"><time>2026-05-02T05:34:39.452Z</time></trkpt>
      <trkpt lat="29.867271" lon="99.413015"><time>2026-05-02T05:34:39.469Z</time></trkpt>
      <trkpt lat="29.867271" lon="99.413015"><time>2026-05-02T05:34:39.486Z</time></trkpt>
      <trkpt lat="29.867271" lon="99.413015"><time>2026-05-02T05:34:39.502Z</time></trkpt>
      <trkpt lat="29.867271" lon="99.413015"><time>2026-05-02T05:34:39.519Z</time></trkpt>
      <trkpt lat="29.867271" lon="99.413015"><time>2026-05-02T05:34:39.536Z</time></trkpt>
      <trkpt lat="29.867271" lon="99.413015"><time>2026-05-02T05:34:39.553Z</time></trkpt>
      <trkpt lat="29.867271" lon="99.413015"><time>2026-05-02T05:34:39.569Z</time></trkpt>
      <trkpt lat="29.867271" lon="99.413015"><time>2026-05-02T05:34:39.586Z</time></trkpt>
      <trkpt lat="29.867271" lon="99.413015"><time>2026-05-02T05:34:39.603Z</time></trkpt>
      <trkpt lat="29.867271" lon="99.413015"><time>2026-05-02T05:34:39.619Z</time></trkpt>
      <trkpt lat="29.867271" lon="99.413015"><time>2026-05-02T05:34:39.636Z</time></trkpt>
      <trkpt lat="29.867271" lon="99.413015"><time>2026-05-02T05:34:39.653Z</time></trkpt>
      <trkpt lat="29.867271" lon="99.413015"><time>2026-05-02T05:34:39.669Z</time></trkpt>
      <trkpt lat="29.867271" lon="99.413015"><time>2026-05-02T05:34:39.686Z</time></trkpt>
      <trkpt lat="29.867271" lon="99.413015"><time>2026-05-02T05:34:39.703Z</time></trkpt>
      <trkpt lat="29.867271" lon="99.413015"><time>2026-05-02T05:34:39.719Z</time></trkpt>
      <trkpt lat="29.867271" lon="99.413015"><time>2026-05-02T05:34:39.736Z</time></trkpt>
      <trkpt lat="29.867271" lon="99.413015"><time>2026-05-02T05:34:39.753Z</time></trkpt>
      <trkpt lat="29.867271" lon="99.413015"><time>2026-05-02T05:34:39.769Z</time></trkpt>
      <trkpt lat="29.867271" lon="99.413015"><time>2026-05-02T05:34:39.786Z</time></trkpt>
      <trkpt lat="29.867271" lon="99.413015"><time>2026-05-02T05:34:39.803Z</time></trkpt>
      <trkpt lat="29.867271" lon="99.413015"><time>2026-05-02T05:34:39.819Z</time></trkpt>
      <trkpt lat="29.867271" lon="99.413015"><time>2026-05-02T05:34:39.836Z</time></trkpt>
      <trkpt lat="29.867271" lon="99.413015"><time>2026-05-02T05:34:39.853Z</time></trkpt>
      <trkpt lat="29.867271" lon="99.413015"><time>2026-05-02T05:34:39.870Z</time></trkpt>
      <trkpt lat="29.867271" lon="99.413014"><time>2026-05-02T05:34:39.886Z</time></trkpt>
      <trkpt lat="29.867271" lon="99.413014"><time>2026-05-02T05:34:39.903Z</time></trkpt>
      <trkpt lat="29.867271" lon="99.413014"><time>2026-05-02T05:34:39.920Z</time></trkpt>
      <trkpt lat="29.867271" lon="99.413014"><time>2026-05-02T05:34:39.936Z</time></trkpt>
      <trkpt lat="29.867271" lon="99.413014"><time>2026-05-02T05:34:39.953Z</time></trkpt>
      <trkpt lat="29.867271" lon="99.413014"><time>2026-05-02T05:34:39.970Z</time></trkpt>
      <trkpt lat="29.86727" lon="99.413014"><time>2026-05-02T05:34:39.986Z</time></trkpt>
      <trkpt lat="29.86727" lon="99.413014"><time>2026-05-02T05:34:40.003Z</time></trkpt>
      <trkpt lat="29.86727" lon="99.413014"><time>2026-05-02T05:34:40.020Z</time></trkpt>
      <trkpt lat="29.86727" lon="99.413014"><time>2026-05-02T05:34:40.036Z</time></trkpt>
      <trkpt lat="29.86727" lon="99.413014"><time>2026-05-02T05:34:40.053Z</time></trkpt>
      <trkpt lat="29.86727" lon="99.413014"><time>2026-05-02T05:34:40.070Z</time></trkpt>
      <trkpt lat="29.86727" lon="99.413014"><time>2026-05-02T05:34:40.086Z</time></trkpt>
      <trkpt lat="29.86727" lon="99.413014"><time>2026-05-02T05:34:40.103Z</time></trkpt>
      <trkpt lat="29.86727" lon="99.413014"><time>2026-05-02T05:34:40.120Z</time></trkpt>
      <trkpt lat="29.86727" lon="99.413014"><time>2026-05-02T05:34:40.136Z</time></trkpt>
      <trkpt lat="29.86727" lon="99.413014"><time>2026-05-02T05:34:40.153Z</time></trkpt>
      <trkpt lat="29.86727" lon="99.413014"><time>2026-05-02T05:34:40.170Z</time></trkpt>
      <trkpt lat="29.86727" lon="99.413014"><time>2026-05-02T05:34:40.187Z</time></trkpt>
      <trkpt lat="29.86727" lon="99.413014"><time>2026-05-02T05:34:40.203Z</time></trkpt>
      <trkpt lat="29.86727" lon="99.413014"><time>2026-05-02T05:34:40.220Z</time></trkpt>
      <trkpt lat="29.86727" lon="99.413014"><time>2026-05-02T05:34:40.237Z</time></trkpt>
      <trkpt lat="29.86727" lon="99.413014"><time>2026-05-02T05:34:40.253Z</time></trkpt>
      <trkpt lat="29.86727" lon="99.413014"><time>2026-05-02T05:34:40.270Z</time></trkpt>
      <trkpt lat="29.86727" lon="99.413014"><time>2026-05-02T05:34:40.287Z</time></trkpt>
      <trkpt lat="29.86727" lon="99.413014"><time>2026-05-02T05:34:40.303Z</time></trkpt>
      <trkpt lat="29.86727" lon="99.413014"><time>2026-05-02T05:34:40.320Z</time></trkpt>
      <trkpt lat="29.86727" lon="99.413014"><time>2026-05-02T05:34:40.337Z</time></trkpt>
      <trkpt lat="29.86727" lon="99.413014"><time>2026-05-02T05:34:40.353Z</time></trkpt>
      <trkpt lat="29.86727" lon="99.413014"><time>2026-05-02T05:34:40.370Z</time></trkpt>
      <trkpt lat="29.86727" lon="99.413013"><time>2026-05-02T05:34:40.387Z</time></trkpt>
      <trkpt lat="29.86727" lon="99.413013"><time>2026-05-02T05:34:40.403Z</time></trkpt>
      <trkpt lat="29.86727" lon="99.413013"><time>2026-05-02T05:34:40.420Z</time></trkpt>
      <trkpt lat="29.86727" lon="99.413013"><time>2026-05-02T05:34:40.437Z</time></trkpt>
      <trkpt lat="29.86727" lon="99.413013"><time>2026-05-02T05:34:40.453Z</time></trkpt>
      <trkpt lat="29.86727" lon="99.413013"><time>2026-05-02T05:34:40.470Z</time></trkpt>
      <trkpt lat="29.86727" lon="99.413013"><time>2026-05-02T05:34:40.487Z</time></trkpt>
      <trkpt lat="29.86727" lon="99.413013"><time>2026-05-02T05:34:40.504Z</time></trkpt>
      <trkpt lat="29.86727" lon="99.413013"><time>2026-05-02T05:34:40.520Z</time></trkpt>
      <trkpt lat="29.86727" lon="99.413013"><time>2026-05-02T05:34:40.537Z</time></trkpt>
      <trkpt lat="29.86727" lon="99.413013"><time>2026-05-02T05:34:40.554Z</time></trkpt>
      <trkpt lat="29.86727" lon="99.413013"><time>2026-05-02T05:34:40.570Z</time></trkpt>
      <trkpt lat="29.86727" lon="99.413013"><time>2026-05-02T05:34:40.587Z</time></trkpt>
      <trkpt lat="29.86727" lon="99.413013"><time>2026-05-02T05:34:40.604Z</time></trkpt>
      <trkpt lat="29.86727" lon="99.413013"><time>2026-05-02T05:34:40.620Z</time></trkpt>
      <trkpt lat="29.86727" lon="99.413013"><time>2026-05-02T05:34:40.637Z</time></trkpt>
      <trkpt lat="29.86727" lon="99.413013"><time>2026-05-02T05:34:40.654Z</time></trkpt>
      <trkpt lat="29.86727" lon="99.413013"><time>2026-05-02T05:34:40.670Z</time></trkpt>
      <trkpt lat="29.86727" lon="99.413013"><time>2026-05-02T05:34:40.687Z</time></trkpt>
      <trkpt lat="29.86727" lon="99.413013"><time>2026-05-02T05:34:40.704Z</time></trkpt>
      <trkpt lat="29.86727" lon="99.413013"><time>2026-05-02T05:34:40.720Z</time></trkpt>
      <trkpt lat="29.86727" lon="99.413013"><time>2026-05-02T05:34:40.737Z</time></trkpt>
      <trkpt lat="29.86727" lon="99.413013"><time>2026-05-02T05:34:40.754Z</time></trkpt>
      <trkpt lat="29.86727" lon="99.413013"><time>2026-05-02T05:34:40.770Z</time></trkpt>
      <trkpt lat="29.86727" lon="99.413013"><time>2026-05-02T05:34:40.787Z</time></trkpt>
      <trkpt lat="29.86727" lon="99.413013"><time>2026-05-02T05:34:40.804Z</time></trkpt>
      <trkpt lat="29.86727" lon="99.413013"><time>2026-05-02T05:34:40.821Z</time></trkpt>
      <trkpt lat="29.86727" lon="99.413013"><time>2026-05-02T05:34:40.837Z</time></trkpt>
      <trkpt lat="29.86727" lon="99.413013"><time>2026-05-02T05:34:40.854Z</time></trkpt>
      <trkpt lat="29.86727" lon="99.413013"><time>2026-05-02T05:34:40.871Z</time></trkpt>
      <trkpt lat="29.86727" lon="99.413013"><time>2026-05-02T05:34:40.887Z</time></trkpt>
      <trkpt lat="29.86727" lon="99.413013"><time>2026-05-02T05:34:40.904Z</time></trkpt>
      <trkpt lat="29.86727" lon="99.413013"><time>2026-05-02T05:34:40.921Z</time></trkpt>
      <trkpt lat="29.86727" lon="99.413013"><time>2026-05-02T05:34:40.937Z</time></trkpt>
      <trkpt lat="29.86727" lon="99.413013"><time>2026-05-02T05:34:40.954Z</time></trkpt>
      <trkpt lat="29.86727" lon="99.413013"><time>2026-05-02T05:34:40.971Z</time></trkpt>
      <trkpt lat="29.867271" lon="99.413013"><time>2026-05-02T05:34:40.987Z</time></trkpt>
      <trkpt lat="29.867271" lon="99.413013"><time>2026-05-02T05:34:41.004Z</time></trkpt>
      <trkpt lat="29.867271" lon="99.413013"><time>2026-05-02T05:34:41.021Z</time></trkpt>
      <trkpt lat="29.867271" lon="99.413013"><time>2026-05-02T05:34:41.037Z</time></trkpt>
      <trkpt lat="29.867271" lon="99.413013"><time>2026-05-02T05:34:41.054Z</time></trkpt>
      <trkpt lat="29.867271" lon="99.413013"><time>2026-05-02T05:34:41.071Z</time></trkpt>
      <trkpt lat="29.867271" lon="99.413013"><time>2026-05-02T05:34:41.087Z</time></trkpt>
      <trkpt lat="29.867271" lon="99.413013"><time>2026-05-02T05:34:41.104Z</time></trkpt>
      <trkpt lat="29.867271" lon="99.413013"><time>2026-05-02T05:34:41.121Z</time></trkpt>
      <trkpt lat="29.867271" lon="99.413013"><time>2026-05-02T05:34:41.138Z</time></trkpt>
      <trkpt lat="29.867271" lon="99.413013"><time>2026-05-02T05:34:41.154Z</time></trkpt>
      <trkpt lat="29.867271" lon="99.413013"><time>2026-05-02T05:34:41.171Z</time></trkpt>
      <trkpt lat="29.867271" lon="99.413013"><time>2026-05-02T05:34:41.188Z</time></trkpt>
      <trkpt lat="29.867271" lon="99.413013"><time>2026-05-02T05:34:41.204Z</time></trkpt>
      <trkpt lat="29.867271" lon="99.413013"><time>2026-05-02T05:34:41.221Z</time></trkpt>
      <trkpt lat="29.867271" lon="99.413013"><time>2026-05-02T05:34:41.238Z</time></trkpt>
      <trkpt lat="29.867271" lon="99.413013"><time>2026-05-02T05:34:41.254Z</time></trkpt>
      <trkpt lat="29.867271" lon="99.413013"><time>2026-05-02T05:34:41.271Z</time></trkpt>
      <trkpt lat="29.867271" lon="99.413013"><time>2026-05-02T05:34:41.288Z</time></trkpt>
      <trkpt lat="29.867271" lon="99.413013"><time>2026-05-02T05:34:41.304Z</time></trkpt>
      <trkpt lat="29.867271" lon="99.413013"><time>2026-05-02T05:34:41.321Z</time></trkpt>
      <trkpt lat="29.867271" lon="99.413013"><time>2026-05-02T05:34:41.338Z</time></trkpt>
      <trkpt lat="29.867271" lon="99.413013"><time>2026-05-02T05:34:41.354Z</time></trkpt>
      <trkpt lat="29.867271" lon="99.413013"><time>2026-05-02T05:34:41.371Z</time></trkpt>
      <trkpt lat="29.867271" lon="99.413013"><time>2026-05-02T05:34:41.388Z</time></trkpt>
      <trkpt lat="29.867271" lon="99.413013"><time>2026-05-02T05:34:41.404Z</time></trkpt>
      <trkpt lat="29.867271" lon="99.413013"><time>2026-05-02T05:34:41.421Z</time></trkpt>
      <trkpt lat="29.867271" lon="99.413013"><time>2026-05-02T05:34:41.438Z</time></trkpt>
      <trkpt lat="29.867271" lon="99.413013"><time>2026-05-02T05:34:41.455Z</time></trkpt>
      <trkpt lat="29.867271" lon="99.413013"><time>2026-05-02T05:34:41.471Z</time></trkpt>
      <trkpt lat="29.867271" lon="99.413013"><time>2026-05-02T05:34:41.488Z</time></trkpt>
      <trkpt lat="29.867271" lon="99.413013"><time>2026-05-02T05:34:41.505Z</time></trkpt>
      <trkpt lat="29.867271" lon="99.413013"><time>2026-05-02T05:34:41.521Z</time></trkpt>
      <trkpt lat="29.867271" lon="99.413013"><time>2026-05-02T05:34:41.538Z</time></trkpt>
      <trkpt lat="29.867271" lon="99.413013"><time>2026-05-02T05:34:41.555Z</time></trkpt>
      <trkpt lat="29.867271" lon="99.413013"><time>2026-05-02T05:34:41.571Z</time></trkpt>
      <trkpt lat="29.867271" lon="99.413014"><time>2026-05-02T05:34:41.588Z</time></trkpt>
      <trkpt lat="29.867271" lon="99.413014"><time>2026-05-02T05:34:41.605Z</time></trkpt>
      <trkpt lat="29.867271" lon="99.413014"><time>2026-05-02T05:34:41.621Z</time></trkpt>
      <trkpt lat="29.867271" lon="99.413014"><time>2026-05-02T05:34:41.638Z</time></trkpt>
      <trkpt lat="29.867271" lon="99.413014"><time>2026-05-02T05:34:41.655Z</time></trkpt>
      <trkpt lat="29.867271" lon="99.413014"><time>2026-05-02T05:34:41.671Z</time></trkpt>
      <trkpt lat="29.867271" lon="99.413014"><time>2026-05-02T05:34:41.688Z</time></trkpt>
      <trkpt lat="29.867271" lon="99.413014"><time>2026-05-02T05:34:41.705Z</time></trkpt>
      <trkpt lat="29.867271" lon="99.413014"><time>2026-05-02T05:34:41.721Z</time></trkpt>
      <trkpt lat="29.867271" lon="99.413014"><time>2026-05-02T05:34:41.738Z</time></trkpt>
      <trkpt lat="29.867271" lon="99.413014"><time>2026-05-02T05:34:41.755Z</time></trkpt>
      <trkpt lat="29.867271" lon="99.413014"><time>2026-05-02T05:34:41.772Z</time></trkpt>
      <trkpt lat="29.867271" lon="99.413014"><time>2026-05-02T05:34:41.788Z</time></trkpt>
      <trkpt lat="29.867271" lon="99.413014"><time>2026-05-02T05:34:41.805Z</time></trkpt>
      <trkpt lat="29.867271" lon="99.413014"><time>2026-05-02T05:34:41.822Z</time></trkpt>
      <trkpt lat="29.867271" lon="99.413014"><time>2026-05-02T05:34:41.838Z</time></trkpt>
      <trkpt lat="29.867271" lon="99.413014"><time>2026-05-02T05:34:41.855Z</time></trkpt>
      <trkpt lat="29.867271" lon="99.413014"><time>2026-05-02T05:34:41.872Z</time></trkpt>
      <trkpt lat="29.867271" lon="99.413014"><time>2026-05-02T05:34:41.888Z</time></trkpt>
      <trkpt lat="29.867271" lon="99.413014"><time>2026-05-02T05:34:41.905Z</time></trkpt>
      <trkpt lat="29.867271" lon="99.413014"><time>2026-05-02T05:34:41.922Z</time></trkpt>
      <trkpt lat="29.867271" lon="99.413014"><time>2026-05-02T05:34:41.938Z</time></trkpt>
      <trkpt lat="29.867271" lon="99.413014"><time>2026-05-02T05:34:41.955Z</time></trkpt>
      <trkpt lat="29.867271" lon="99.413014"><time>2026-05-02T05:34:41.972Z</time></trkpt>
      <trkpt lat="29.867271" lon="99.413014"><time>2026-05-02T05:34:41.988Z</time></trkpt>
      <trkpt lat="29.867271" lon="99.413014"><time>2026-05-02T05:34:42.005Z</time></trkpt>
      <trkpt lat="29.867271" lon="99.413014"><time>2026-05-02T05:34:42.022Z</time></trkpt>
      <trkpt lat="29.867271" lon="99.413014"><time>2026-05-02T05:34:42.038Z</time></trkpt>
      <trkpt lat="29.867271" lon="99.413014"><time>2026-05-02T05:34:42.055Z</time></trkpt>
      <trkpt lat="29.867271" lon="99.413014"><time>2026-05-02T05:34:42.072Z</time></trkpt>
      <trkpt lat="29.867271" lon="99.413015"><time>2026-05-02T05:34:42.089Z</time></trkpt>
      <trkpt lat="29.867271" lon="99.413015"><time>2026-05-02T05:34:42.105Z</time></trkpt>
      <trkpt lat="29.867271" lon="99.413015"><time>2026-05-02T05:34:42.122Z</time></trkpt>
      <trkpt lat="29.867271" lon="99.413015"><time>2026-05-02T05:34:42.139Z</time></trkpt>
      <trkpt lat="29.867271" lon="99.413015"><time>2026-05-02T05:34:42.155Z</time></trkpt>
      <trkpt lat="29.867271" lon="99.413015"><time>2026-05-02T05:34:42.172Z</time></trkpt>
      <trkpt lat="29.867272" lon="99.413015"><time>2026-05-02T05:34:42.189Z</time></trkpt>
      <trkpt lat="29.867272" lon="99.413015"><time>2026-05-02T05:34:42.205Z</time></trkpt>
      <trkpt lat="29.867272" lon="99.413015"><time>2026-05-02T05:34:42.222Z</time></trkpt>
      <trkpt lat="29.867272" lon="99.413015"><time>2026-05-02T05:34:42.239Z</time></trkpt>
      <trkpt lat="29.867272" lon="99.413015"><time>2026-05-02T05:34:42.255Z</time></trkpt>
      <trkpt lat="29.867272" lon="99.413015"><time>2026-05-02T05:34:42.272Z</time></trkpt>
      <trkpt lat="29.867271" lon="99.413016"><time>2026-05-02T05:34:42.289Z</time></trkpt>
      <trkpt lat="29.867271" lon="99.413016"><time>2026-05-02T05:34:42.305Z</time></trkpt>
      <trkpt lat="29.867271" lon="99.413016"><time>2026-05-02T05:34:42.322Z</time></trkpt>
      <trkpt lat="29.867271" lon="99.413016"><time>2026-05-02T05:34:42.339Z</time></trkpt>
      <trkpt lat="29.867271" lon="99.413016"><time>2026-05-02T05:34:42.355Z</time></trkpt>
      <trkpt lat="29.867271" lon="99.413016"><time>2026-05-02T05:34:42.372Z</time></trkpt>
      <trkpt lat="29.867271" lon="99.413016"><time>2026-05-02T05:34:42.389Z</time></trkpt>
      <trkpt lat="29.867271" lon="99.413016"><time>2026-05-02T05:34:42.406Z</time></trkpt>
      <trkpt lat="29.867271" lon="99.413016"><time>2026-05-02T05:34:42.422Z</time></trkpt>
      <trkpt lat="29.867271" lon="99.413016"><time>2026-05-02T05:34:42.439Z</time></trkpt>
      <trkpt lat="29.867271" lon="99.413016"><time>2026-05-02T05:34:42.456Z</time></trkpt>
      <trkpt lat="29.867271" lon="99.413016"><time>2026-05-02T05:34:42.472Z</time></trkpt>
      <trkpt lat="29.867271" lon="99.413017"><time>2026-05-02T05:34:42.489Z</time></trkpt>
      <trkpt lat="29.867271" lon="99.413017"><time>2026-05-02T05:34:42.506Z</time></trkpt>
      <trkpt lat="29.867271" lon="99.413017"><time>2026-05-02T05:34:42.522Z</time></trkpt>
      <trkpt lat="29.867271" lon="99.413017"><time>2026-05-02T05:34:42.539Z</time></trkpt>
      <trkpt lat="29.867271" lon="99.413017"><time>2026-05-02T05:34:42.556Z</time></trkpt>
      <trkpt lat="29.867271" lon="99.413017"><time>2026-05-02T05:34:42.572Z</time></trkpt>
      <trkpt lat="29.86727" lon="99.413019"><time>2026-05-02T05:34:42.589Z</time></trkpt>
      <trkpt lat="29.86727" lon="99.413019"><time>2026-05-02T05:34:42.606Z</time></trkpt>
      <trkpt lat="29.86727" lon="99.413019"><time>2026-05-02T05:34:42.622Z</time></trkpt>
      <trkpt lat="29.86727" lon="99.413019"><time>2026-05-02T05:34:42.639Z</time></trkpt>
      <trkpt lat="29.86727" lon="99.413019"><time>2026-05-02T05:34:42.656Z</time></trkpt>
      <trkpt lat="29.86727" lon="99.413019"><time>2026-05-02T05:34:42.672Z</time></trkpt>
      <trkpt lat="29.86727" lon="99.413021"><time>2026-05-02T05:34:42.689Z</time></trkpt>
      <trkpt lat="29.86727" lon="99.413021"><time>2026-05-02T05:34:42.706Z</time></trkpt>
      <trkpt lat="29.86727" lon="99.413021"><time>2026-05-02T05:34:42.723Z</time></trkpt>
      <trkpt lat="29.86727" lon="99.413021"><time>2026-05-02T05:34:42.739Z</time></trkpt>
      <trkpt lat="29.86727" lon="99.413021"><time>2026-05-02T05:34:42.756Z</time></trkpt>
      <trkpt lat="29.86727" lon="99.413021"><time>2026-05-02T05:34:42.773Z</time></trkpt>
      <trkpt lat="29.86727" lon="99.413024"><time>2026-05-02T05:34:42.789Z</time></trkpt>
      <trkpt lat="29.86727" lon="99.413024"><time>2026-05-02T05:34:42.806Z</time></trkpt>
      <trkpt lat="29.86727" lon="99.413024"><time>2026-05-02T05:34:42.823Z</time></trkpt>
      <trkpt lat="29.86727" lon="99.413024"><time>2026-05-02T05:34:42.839Z</time></trkpt>
      <trkpt lat="29.86727" lon="99.413024"><time>2026-05-02T05:34:42.856Z</time></trkpt>
      <trkpt lat="29.86727" lon="99.413024"><time>2026-05-02T05:34:42.873Z</time></trkpt>
      <trkpt lat="29.867269" lon="99.413026"><time>2026-05-02T05:34:42.889Z</time></trkpt>
      <trkpt lat="29.867269" lon="99.413026"><time>2026-05-02T05:34:42.906Z</time></trkpt>
      <trkpt lat="29.867269" lon="99.413026"><time>2026-05-02T05:34:42.923Z</time></trkpt>
      <trkpt lat="29.867269" lon="99.413026"><time>2026-05-02T05:34:42.939Z</time></trkpt>
      <trkpt lat="29.867269" lon="99.413026"><time>2026-05-02T05:34:42.956Z</time></trkpt>
      <trkpt lat="29.867269" lon="99.413026"><time>2026-05-02T05:34:42.973Z</time></trkpt>
      <trkpt lat="29.867269" lon="99.413029"><time>2026-05-02T05:34:42.989Z</time></trkpt>
      <trkpt lat="29.867269" lon="99.413029"><time>2026-05-02T05:34:43.006Z</time></trkpt>
      <trkpt lat="29.867269" lon="99.413029"><time>2026-05-02T05:34:43.023Z</time></trkpt>
      <trkpt lat="29.867269" lon="99.413029"><time>2026-05-02T05:34:43.040Z</time></trkpt>
      <trkpt lat="29.867269" lon="99.413029"><time>2026-05-02T05:34:43.056Z</time></trkpt>
      <trkpt lat="29.867269" lon="99.413029"><time>2026-05-02T05:34:43.073Z</time></trkpt>
      <trkpt lat="29.867268" lon="99.413032"><time>2026-05-02T05:34:43.090Z</time></trkpt>
      <trkpt lat="29.867268" lon="99.413032"><time>2026-05-02T05:34:43.106Z</time></trkpt>
      <trkpt lat="29.867268" lon="99.413032"><time>2026-05-02T05:34:43.123Z</time></trkpt>
      <trkpt lat="29.867268" lon="99.413032"><time>2026-05-02T05:34:43.140Z</time></trkpt>
      <trkpt lat="29.867268" lon="99.413032"><time>2026-05-02T05:34:43.156Z</time></trkpt>
      <trkpt lat="29.867268" lon="99.413032"><time>2026-05-02T05:34:43.173Z</time></trkpt>
      <trkpt lat="29.867267" lon="99.413036"><time>2026-05-02T05:34:43.190Z</time></trkpt>
      <trkpt lat="29.867267" lon="99.413036"><time>2026-05-02T05:34:43.206Z</time></trkpt>
      <trkpt lat="29.867267" lon="99.413036"><time>2026-05-02T05:34:43.223Z</time></trkpt>
      <trkpt lat="29.867267" lon="99.413036"><time>2026-05-02T05:34:43.240Z</time></trkpt>
      <trkpt lat="29.867267" lon="99.413036"><time>2026-05-02T05:34:43.256Z</time></trkpt>
      <trkpt lat="29.867267" lon="99.41304"><time>2026-05-02T05:34:43.273Z</time></trkpt>
      <trkpt lat="29.867267" lon="99.41304"><time>2026-05-02T05:34:43.290Z</time></trkpt>
      <trkpt lat="29.867267" lon="99.41304"><time>2026-05-02T05:34:43.306Z</time></trkpt>
      <trkpt lat="29.867267" lon="99.41304"><time>2026-05-02T05:34:43.323Z</time></trkpt>
      <trkpt lat="29.867267" lon="99.41304"><time>2026-05-02T05:34:43.340Z</time></trkpt>
      <trkpt lat="29.867267" lon="99.41304"><time>2026-05-02T05:34:43.356Z</time></trkpt>
      <trkpt lat="29.867267" lon="99.41304"><time>2026-05-02T05:34:43.373Z</time></trkpt>
      <trkpt lat="29.867266" lon="99.413044"><time>2026-05-02T05:34:43.390Z</time></trkpt>
      <trkpt lat="29.867266" lon="99.413044"><time>2026-05-02T05:34:43.407Z</time></trkpt>
      <trkpt lat="29.867266" lon="99.413044"><time>2026-05-02T05:34:43.423Z</time></trkpt>
      <trkpt lat="29.867266" lon="99.413044"><time>2026-05-02T05:34:43.440Z</time></trkpt>
      <trkpt lat="29.867266" lon="99.413044"><time>2026-05-02T05:34:43.457Z</time></trkpt>
      <trkpt lat="29.867266" lon="99.413044"><time>2026-05-02T05:34:43.473Z</time></trkpt>
      <trkpt lat="29.867265" lon="99.413048"><time>2026-05-02T05:34:43.490Z</time></trkpt>
      <trkpt lat="29.867265" lon="99.413048"><time>2026-05-02T05:34:43.507Z</time></trkpt>
      <trkpt lat="29.867265" lon="99.413048"><time>2026-05-02T05:34:43.523Z</time></trkpt>
      <trkpt lat="29.867265" lon="99.413048"><time>2026-05-02T05:34:43.540Z</time></trkpt>
      <trkpt lat="29.867265" lon="99.413048"><time>2026-05-02T05:34:43.557Z</time></trkpt>
      <trkpt lat="29.867265" lon="99.413048"><time>2026-05-02T05:34:43.573Z</time></trkpt>
      <trkpt lat="29.867264" lon="99.413052"><time>2026-05-02T05:34:43.590Z</time></trkpt>
      <trkpt lat="29.867264" lon="99.413052"><time>2026-05-02T05:34:43.607Z</time></trkpt>
      <trkpt lat="29.867264" lon="99.413052"><time>2026-05-02T05:34:43.623Z</time></trkpt>
      <trkpt lat="29.867264" lon="99.413052"><time>2026-05-02T05:34:43.640Z</time></trkpt>
      <trkpt lat="29.867264" lon="99.413052"><time>2026-05-02T05:34:43.657Z</time></trkpt>
      <trkpt lat="29.867263" lon="99.413057"><time>2026-05-02T05:34:43.673Z</time></trkpt>
      <trkpt lat="29.867263" lon="99.413057"><time>2026-05-02T05:34:43.690Z</time></trkpt>
      <trkpt lat="29.867263" lon="99.413057"><time>2026-05-02T05:34:43.707Z</time></trkpt>
      <trkpt lat="29.867263" lon="99.413057"><time>2026-05-02T05:34:43.724Z</time></trkpt>
      <trkpt lat="29.867263" lon="99.413057"><time>2026-05-02T05:34:43.740Z</time></trkpt>
      <trkpt lat="29.867263" lon="99.413057"><time>2026-05-02T05:34:43.757Z</time></trkpt>
      <trkpt lat="29.867263" lon="99.413057"><time>2026-05-02T05:34:43.774Z</time></trkpt>
      <trkpt lat="29.867262" lon="99.413062"><time>2026-05-02T05:34:43.790Z</time></trkpt>
      <trkpt lat="29.867262" lon="99.413062"><time>2026-05-02T05:34:43.807Z</time></trkpt>
      <trkpt lat="29.867262" lon="99.413062"><time>2026-05-02T05:34:43.824Z</time></trkpt>
      <trkpt lat="29.867262" lon="99.413062"><time>2026-05-02T05:34:43.840Z</time></trkpt>
      <trkpt lat="29.867262" lon="99.413062"><time>2026-05-02T05:34:43.857Z</time></trkpt>
      <trkpt lat="29.86726" lon="99.413067"><time>2026-05-02T05:34:43.874Z</time></trkpt>
      <trkpt lat="29.86726" lon="99.413067"><time>2026-05-02T05:34:43.890Z</time></trkpt>
      <trkpt lat="29.86726" lon="99.413067"><time>2026-05-02T05:34:43.907Z</time></trkpt>
      <trkpt lat="29.86726" lon="99.413067"><time>2026-05-02T05:34:43.924Z</time></trkpt>
      <trkpt lat="29.86726" lon="99.413067"><time>2026-05-02T05:34:43.940Z</time></trkpt>
      <trkpt lat="29.86726" lon="99.413067"><time>2026-05-02T05:34:43.957Z</time></trkpt>
      <trkpt lat="29.867259" lon="99.413073"><time>2026-05-02T05:34:43.974Z</time></trkpt>
      <trkpt lat="29.867259" lon="99.413073"><time>2026-05-02T05:34:43.990Z</time></trkpt>
      <trkpt lat="29.867259" lon="99.413073"><time>2026-05-02T05:34:44.007Z</time></trkpt>
      <trkpt lat="29.867259" lon="99.413073"><time>2026-05-02T05:34:44.024Z</time></trkpt>
      <trkpt lat="29.867259" lon="99.413073"><time>2026-05-02T05:34:44.041Z</time></trkpt>
      <trkpt lat="29.867259" lon="99.413073"><time>2026-05-02T05:34:44.057Z</time></trkpt>
      <trkpt lat="29.867258" lon="99.413078"><time>2026-05-02T05:34:44.074Z</time></trkpt>
      <trkpt lat="29.867258" lon="99.413078"><time>2026-05-02T05:34:44.091Z</time></trkpt>
      <trkpt lat="29.867258" lon="99.413078"><time>2026-05-02T05:34:44.107Z</time></trkpt>
      <trkpt lat="29.867258" lon="99.413078"><time>2026-05-02T05:34:44.124Z</time></trkpt>
      <trkpt lat="29.867258" lon="99.413078"><time>2026-05-02T05:34:44.141Z</time></trkpt>
      <trkpt lat="29.867258" lon="99.413078"><time>2026-05-02T05:34:44.157Z</time></trkpt>
      <trkpt lat="29.867258" lon="99.413078"><time>2026-05-02T05:34:44.174Z</time></trkpt>
      <trkpt lat="29.867257" lon="99.413084"><time>2026-05-02T05:34:44.191Z</time></trkpt>
      <trkpt lat="29.867257" lon="99.413084"><time>2026-05-02T05:34:44.207Z</time></trkpt>
      <trkpt lat="29.867257" lon="99.413084"><time>2026-05-02T05:34:44.224Z</time></trkpt>
      <trkpt lat="29.867257" lon="99.413084"><time>2026-05-02T05:34:44.241Z</time></trkpt>
      <trkpt lat="29.867257" lon="99.413084"><time>2026-05-02T05:34:44.257Z</time></trkpt>
      <trkpt lat="29.867256" lon="99.413089"><time>2026-05-02T05:34:44.274Z</time></trkpt>
      <trkpt lat="29.867256" lon="99.413089"><time>2026-05-02T05:34:44.291Z</time></trkpt>
      <trkpt lat="29.867256" lon="99.413089"><time>2026-05-02T05:34:44.307Z</time></trkpt>
      <trkpt lat="29.867256" lon="99.413089"><time>2026-05-02T05:34:44.324Z</time></trkpt>
      <trkpt lat="29.867256" lon="99.413089"><time>2026-05-02T05:34:44.341Z</time></trkpt>
      <trkpt lat="29.867256" lon="99.413089"><time>2026-05-02T05:34:44.358Z</time></trkpt>
      <trkpt lat="29.867255" lon="99.413094"><time>2026-05-02T05:34:44.374Z</time></trkpt>
      <trkpt lat="29.867255" lon="99.413094"><time>2026-05-02T05:34:44.391Z</time></trkpt>
      <trkpt lat="29.867255" lon="99.413094"><time>2026-05-02T05:34:44.408Z</time></trkpt>
      <trkpt lat="29.867255" lon="99.413094"><time>2026-05-02T05:34:44.424Z</time></trkpt>
      <trkpt lat="29.867255" lon="99.413094"><time>2026-05-02T05:34:44.441Z</time></trkpt>
      <trkpt lat="29.867255" lon="99.413094"><time>2026-05-02T05:34:44.458Z</time></trkpt>
      <trkpt lat="29.867254" lon="99.413098"><time>2026-05-02T05:34:44.474Z</time></trkpt>
      <trkpt lat="29.867254" lon="99.413098"><time>2026-05-02T05:34:44.491Z</time></trkpt>
      <trkpt lat="29.867254" lon="99.413098"><time>2026-05-02T05:34:44.508Z</time></trkpt>
      <trkpt lat="29.867254" lon="99.413098"><time>2026-05-02T05:34:44.524Z</time></trkpt>
      <trkpt lat="29.867254" lon="99.413098"><time>2026-05-02T05:34:44.541Z</time></trkpt>
      <trkpt lat="29.867254" lon="99.413098"><time>2026-05-02T05:34:44.558Z</time></trkpt>
      <trkpt lat="29.867254" lon="99.413102"><time>2026-05-02T05:34:44.574Z</time></trkpt>
      <trkpt lat="29.867254" lon="99.413102"><time>2026-05-02T05:34:44.591Z</time></trkpt>
      <trkpt lat="29.867254" lon="99.413102"><time>2026-05-02T05:34:44.608Z</time></trkpt>
      <trkpt lat="29.867254" lon="99.413102"><time>2026-05-02T05:34:44.624Z</time></trkpt>
      <trkpt lat="29.867254" lon="99.413102"><time>2026-05-02T05:34:44.641Z</time></trkpt>
      <trkpt lat="29.867254" lon="99.413102"><time>2026-05-02T05:34:44.658Z</time></trkpt>
      <trkpt lat="29.867253" lon="99.413105"><time>2026-05-02T05:34:44.675Z</time></trkpt>
      <trkpt lat="29.867253" lon="99.413105"><time>2026-05-02T05:34:44.691Z</time></trkpt>
      <trkpt lat="29.867253" lon="99.413105"><time>2026-05-02T05:34:44.708Z</time></trkpt>
      <trkpt lat="29.867253" lon="99.413105"><time>2026-05-02T05:34:44.725Z</time></trkpt>
      <trkpt lat="29.867253" lon="99.413105"><time>2026-05-02T05:34:44.741Z</time></trkpt>
      <trkpt lat="29.867253" lon="99.413105"><time>2026-05-02T05:34:44.758Z</time></trkpt>
      <trkpt lat="29.867253" lon="99.413107"><time>2026-05-02T05:34:44.775Z</time></trkpt>
      <trkpt lat="29.867253" lon="99.413107"><time>2026-05-02T05:34:44.791Z</time></trkpt>
      <trkpt lat="29.867253" lon="99.413107"><time>2026-05-02T05:34:44.808Z</time></trkpt>
      <trkpt lat="29.867253" lon="99.413107"><time>2026-05-02T05:34:44.825Z</time></trkpt>
      <trkpt lat="29.867253" lon="99.413107"><time>2026-05-02T05:34:44.841Z</time></trkpt>
      <trkpt lat="29.867253" lon="99.413107"><time>2026-05-02T05:34:44.858Z</time></trkpt>
      <trkpt lat="29.867253" lon="99.413109"><time>2026-05-02T05:34:44.875Z</time></trkpt>
      <trkpt lat="29.867253" lon="99.413109"><time>2026-05-02T05:34:44.891Z</time></trkpt>
      <trkpt lat="29.867253" lon="99.413109"><time>2026-05-02T05:34:44.908Z</time></trkpt>
      <trkpt lat="29.867253" lon="99.413109"><time>2026-05-02T05:34:44.925Z</time></trkpt>
      <trkpt lat="29.867253" lon="99.413109"><time>2026-05-02T05:34:44.941Z</time></trkpt>
      <trkpt lat="29.867253" lon="99.413109"><time>2026-05-02T05:34:44.958Z</time></trkpt>
      <trkpt lat="29.867253" lon="99.413112"><time>2026-05-02T05:34:44.975Z</time></trkpt>
      <trkpt lat="29.867253" lon="99.413112"><time>2026-05-02T05:34:44.992Z</time></trkpt>
      <trkpt lat="29.867253" lon="99.413112"><time>2026-05-02T05:34:45.008Z</time></trkpt>
      <trkpt lat="29.867253" lon="99.413112"><time>2026-05-02T05:34:45.025Z</time></trkpt>
      <trkpt lat="29.867253" lon="99.413112"><time>2026-05-02T05:34:45.042Z</time></trkpt>
      <trkpt lat="29.867253" lon="99.413112"><time>2026-05-02T05:34:45.058Z</time></trkpt>
      <trkpt lat="29.867253" lon="99.413113"><time>2026-05-02T05:34:45.075Z</time></trkpt>
      <trkpt lat="29.867253" lon="99.413113"><time>2026-05-02T05:34:45.092Z</time></trkpt>
      <trkpt lat="29.867253" lon="99.413113"><time>2026-05-02T05:34:45.108Z</time></trkpt>
      <trkpt lat="29.867253" lon="99.413113"><time>2026-05-02T05:34:45.125Z</time></trkpt>
      <trkpt lat="29.867253" lon="99.413113"><time>2026-05-02T05:34:45.142Z</time></trkpt>
      <trkpt lat="29.867253" lon="99.413113"><time>2026-05-02T05:34:45.158Z</time></trkpt>
      <trkpt lat="29.867253" lon="99.413116"><time>2026-05-02T05:34:45.175Z</time></trkpt>
      <trkpt lat="29.867253" lon="99.413116"><time>2026-05-02T05:34:45.192Z</time></trkpt>
      <trkpt lat="29.867253" lon="99.413116"><time>2026-05-02T05:34:45.208Z</time></trkpt>
      <trkpt lat="29.867253" lon="99.413116"><time>2026-05-02T05:34:45.225Z</time></trkpt>
      <trkpt lat="29.867253" lon="99.413116"><time>2026-05-02T05:34:45.242Z</time></trkpt>
      <trkpt lat="29.867253" lon="99.413116"><time>2026-05-02T05:34:45.258Z</time></trkpt>
      <trkpt lat="29.867253" lon="99.413117"><time>2026-05-02T05:34:45.275Z</time></trkpt>
      <trkpt lat="29.867253" lon="99.413117"><time>2026-05-02T05:34:45.292Z</time></trkpt>
      <trkpt lat="29.867253" lon="99.413117"><time>2026-05-02T05:34:45.309Z</time></trkpt>
      <trkpt lat="29.867253" lon="99.413117"><time>2026-05-02T05:34:45.325Z</time></trkpt>
    </trkseg>
  </trk>
</gpx>
