<?xml version="1.0" encoding="UTF-8"?>
<gpx version="1.1" creator="Kairos" xmlns="http://www.topografix.com/GPX/1/1">
  <trk>
    <name>sidecar-srt-10f233e58a17a05f</name>
    <trkseg>
      <trkpt lat="28.620194" lon="98.050732"><time>2026-04-29T07:20:10.000Z</time></trkpt>
      <trkpt lat="28.620194" lon="98.050732"><time>2026-04-29T07:20:10.016Z</time></trkpt>
      <trkpt lat="28.620194" lon="98.050732"><time>2026-04-29T07:20:10.032Z</time></trkpt>
      <trkpt lat="28.620194" lon="98.050732"><time>2026-04-29T07:20:10.049Z</time></trkpt>
      <trkpt lat="28.620194" lon="98.050732"><time>2026-04-29T07:20:10.066Z</time></trkpt>
      <trkpt lat="28.620194" lon="98.050732"><time>2026-04-29T07:20:10.082Z</time></trkpt>
      <trkpt lat="28.620194" lon="98.050732"><time>2026-04-29T07:20:10.099Z</time></trkpt>
      <trkpt lat="28.620194" lon="98.050732"><time>2026-04-29T07:20:10.116Z</time></trkpt>
      <trkpt lat="28.620194" lon="98.050732"><time>2026-04-29T07:20:10.132Z</time></trkpt>
      <trkpt lat="28.620194" lon="98.050732"><time>2026-04-29T07:20:10.149Z</time></trkpt>
      <trkpt lat="28.620194" lon="98.050732"><time>2026-04-29T07:20:10.166Z</time></trkpt>
      <trkpt lat="28.620194" lon="98.050732"><time>2026-04-29T07:20:10.182Z</time></trkpt>
      <trkpt lat="28.620194" lon="98.050732"><time>2026-04-29T07:20:10.199Z</time></trkpt>
      <trkpt lat="28.620194" lon="98.050732"><time>2026-04-29T07:20:10.216Z</time></trkpt>
      <trkpt lat="28.620194" lon="98.050732"><time>2026-04-29T07:20:10.232Z</time></trkpt>
      <trkpt lat="28.620194" lon="98.050732"><time>2026-04-29T07:20:10.249Z</time></trkpt>
      <trkpt lat="28.620194" lon="98.050732"><time>2026-04-29T07:20:10.266Z</time></trkpt>
      <trkpt lat="28.620194" lon="98.050732"><time>2026-04-29T07:20:10.282Z</time></trkpt>
      <trkpt lat="28.620194" lon="98.050732"><time>2026-04-29T07:20:10.299Z</time></trkpt>
      <trkpt lat="28.620194" lon="98.050732"><time>2026-04-29T07:20:10.316Z</time></trkpt>
      <trkpt lat="28.620194" lon="98.050732"><time>2026-04-29T07:20:10.332Z</time></trkpt>
      <trkpt lat="28.620194" lon="98.050732"><time>2026-04-29T07:20:10.349Z</time></trkpt>
      <trkpt lat="28.620194" lon="98.050732"><time>2026-04-29T07:20:10.366Z</time></trkpt>
      <trkpt lat="28.620194" lon="98.050732"><time>2026-04-29T07:20:10.383Z</time></trkpt>
      <trkpt lat="28.620194" lon="98.050732"><time>2026-04-29T07:20:10.399Z</time></trkpt>
      <trkpt lat="28.620194" lon="98.050732"><time>2026-04-29T07:20:10.416Z</time></trkpt>
      <trkpt lat="28.620194" lon="98.050732"><time>2026-04-29T07:20:10.433Z</time></trkpt>
      <trkpt lat="28.620194" lon="98.050732"><time>2026-04-29T07:20:10.449Z</time></trkpt>
      <trkpt lat="28.620194" lon="98.050732"><time>2026-04-29T07:20:10.466Z</time></trkpt>
      <trkpt lat="28.620194" lon="98.050732"><time>2026-04-29T07:20:10.483Z</time></trkpt>
      <trkpt lat="28.620194" lon="98.050732"><time>2026-04-29T07:20:10.499Z</time></trkpt>
      <trkpt lat="28.620194" lon="98.050732"><time>2026-04-29T07:20:10.516Z</time></trkpt>
      <trkpt lat="28.620194" lon="98.050732"><time>2026-04-29T07:20:10.533Z</time></trkpt>
      <trkpt lat="28.620194" lon="98.050732"><time>2026-04-29T07:20:10.549Z</time></trkpt>
      <trkpt lat="28.620194" lon="98.050732"><time>2026-04-29T07:20:10.566Z</time></trkpt>
      <trkpt lat="28.620194" lon="98.050732"><time>2026-04-29T07:20:10.583Z</time></trkpt>
      <trkpt lat="28.620194" lon="98.050732"><time>2026-04-29T07:20:10.599Z</time></trkpt>
      <trkpt lat="28.620194" lon="98.050732"><time>2026-04-29T07:20:10.616Z</time></trkpt>
      <trkpt lat="28.620194" lon="98.050732"><time>2026-04-29T07:20:10.633Z</time></trkpt>
      <trkpt lat="28.620194" lon="98.050732"><time>2026-04-29T07:20:10.649Z</time></trkpt>
      <trkpt lat="28.620194" lon="98.050732"><time>2026-04-29T07:20:10.666Z</time></trkpt>
      <trkpt lat="28.620194" lon="98.050732"><time>2026-04-29T07:20:10.683Z</time></trkpt>
      <trkpt lat="28.620194" lon="98.050732"><time>2026-04-29T07:20:10.700Z</time></trkpt>
      <trkpt lat="28.620194" lon="98.050732"><time>2026-04-29T07:20:10.716Z</time></trkpt>
      <trkpt lat="28.620194" lon="98.050732"><time>2026-04-29T07:20:10.733Z</time></trkpt>
      <trkpt lat="28.620194" lon="98.050732"><time>2026-04-29T07:20:10.750Z</time></trkpt>
      <trkpt lat="28.620194" lon="98.050732"><time>2026-04-29T07:20:10.766Z</time></trkpt>
      <trkpt lat="28.620194" lon="98.050732"><time>2026-04-29T07:20:10.783Z</time></trkpt>
      <trkpt lat="28.620194" lon="98.050732"><time>2026-04-29T07:20:10.800Z</time></trkpt>
      <trkpt lat="28.620194" lon="98.050732"><time>2026-04-29T07:20:10.816Z</time></trkpt>
      <trkpt lat="28.620194" lon="98.050732"><time>2026-04-29T07:20:10.833Z</time></trkpt>
      <trkpt lat="28.620194" lon="98.050732"><time>2026-04-29T07:20:10.850Z</time></trkpt>
      <trkpt lat="28.620194" lon="98.050732"><time>2026-04-29T07:20:10.866Z</time></trkpt>
      <trkpt lat="28.620194" lon="98.050732"><time>2026-04-29T07:20:10.883Z</time></trkpt>
      <trkpt lat="28.620194" lon="98.050732"><time>2026-04-29T07:20:10.900Z</time></trkpt>
      <trkpt lat="28.620194" lon="98.050732"><time>2026-04-29T07:20:10.916Z</time></trkpt>
      <trkpt lat="28.620194" lon="98.050732"><time>2026-04-29T07:20:10.933Z</time></trkpt>
      <trkpt lat="28.620194" lon="98.050732"><time>2026-04-29T07:20:10.950Z</time></trkpt>
      <trkpt lat="28.620194" lon="98.050732"><time>2026-04-29T07:20:10.966Z</time></trkpt>
      <trkpt lat="28.620194" lon="98.050732"><time>2026-04-29T07:20:10.983Z</time></trkpt>
      <trkpt lat="28.620194" lon="98.050732"><time>2026-04-29T07:20:11.000Z</time></trkpt>
      <trkpt lat="28.620194" lon="98.050732"><time>2026-04-29T07:20:11.017Z</time></trkpt>
      <trkpt lat="28.620194" lon="98.050732"><time>2026-04-29T07:20:11.033Z</time></trkpt>
      <trkpt lat="28.620194" lon="98.050732"><time>2026-04-29T07:20:11.050Z</time></trkpt>
      <trkpt lat="28.620194" lon="98.050732"><time>2026-04-29T07:20:11.067Z</time></trkpt>
      <trkpt lat="28.620194" lon="98.050732"><time>2026-04-29T07:20:11.083Z</time></trkpt>
      <trkpt lat="28.620194" lon="98.050732"><time>2026-04-29T07:20:11.100Z</time></trkpt>
      <trkpt lat="28.620194" lon="98.050732"><time>2026-04-29T07:20:11.117Z</time></trkpt>
      <trkpt lat="28.620194" lon="98.050732"><time>2026-04-29T07:20:11.133Z</time></trkpt>
      <trkpt lat="28.620194" lon="98.050732"><time>2026-04-29T07:20:11.150Z</time></trkpt>
      <trkpt lat="28.620194" lon="98.050732"><time>2026-04-29T07:20:11.167Z</time></trkpt>
      <trkpt lat="28.620194" lon="98.050732"><time>2026-04-29T07:20:11.183Z</time></trkpt>
      <trkpt lat="28.620194" lon="98.050732"><time>2026-04-29T07:20:11.200Z</time></trkpt>
      <trkpt lat="28.620194" lon="98.050732"><time>2026-04-29T07:20:11.217Z</time></trkpt>
      <trkpt lat="28.620194" lon="98.050732"><time>2026-04-29T07:20:11.233Z</time></trkpt>
      <trkpt lat="28.620194" lon="98.050732"><time>2026-04-29T07:20:11.250Z</time></trkpt>
      <trkpt lat="28.620194" lon="98.050732"><time>2026-04-29T07:20:11.267Z</time></trkpt>
      <trkpt lat="28.620194" lon="98.050732"><time>2026-04-29T07:20:11.283Z</time></trkpt>
      <trkpt lat="28.620195" lon="98.050732"><time>2026-04-29T07:20:11.300Z</time></trkpt>
      <trkpt lat="28.620195" lon="98.050732"><time>2026-04-29T07:20:11.317Z</time></trkpt>
      <trkpt lat="28.620195" lon="98.050732"><time>2026-04-29T07:20:11.334Z</time></trkpt>
      <trkpt lat="28.620195" lon="98.050732"><time>2026-04-29T07:20:11.350Z</time></trkpt>
      <trkpt lat="28.620195" lon="98.050732"><time>2026-04-29T07:20:11.367Z</time></trkpt>
      <trkpt lat="28.620195" lon="98.050732"><time>2026-04-29T07:20:11.384Z</time></trkpt>
      <trkpt lat="28.620194" lon="98.050732"><time>2026-04-29T07:20:11.400Z</time></trkpt>
      <trkpt lat="28.620194" lon="98.050732"><time>2026-04-29T07:20:11.417Z</time></trkpt>
      <trkpt lat="28.620194" lon="98.050732"><time>2026-04-29T07:20:11.434Z</time></trkpt>
      <trkpt lat="28.620194" lon="98.050732"><time>2026-04-29T07:20:11.450Z</time></trkpt>
      <trkpt lat="28.620194" lon="98.050732"><time>2026-04-29T07:20:11.467Z</time></trkpt>
      <trkpt lat="28.620194" lon="98.050732"><time>2026-04-29T07:20:11.484Z</time></trkpt>
      <trkpt lat="28.620194" lon="98.050732"><time>2026-04-29T07:20:11.500Z</time></trkpt>
      <trkpt lat="28.620194" lon="98.050732"><time>2026-04-29T07:20:11.517Z</time></trkpt>
      <trkpt lat="28.620194" lon="98.050732"><time>2026-04-29T07:20:11.534Z</time></trkpt>
      <trkpt lat="28.620194" lon="98.050732"><time>2026-04-29T07:20:11.550Z</time></trkpt>
      <trkpt lat="28.620194" lon="98.050732"><time>2026-04-29T07:20:11.567Z</time></trkpt>
      <trkpt lat="28.620194" lon="98.050732"><time>2026-04-29T07:20:11.584Z</time></trkpt>
      <trkpt lat="28.620194" lon="98.050732"><time>2026-04-29T07:20:11.600Z</time></trkpt>
      <trkpt lat="28.620194" lon="98.050732"><time>2026-04-29T07:20:11.617Z</time></trkpt>
      <trkpt lat="28.620194" lon="98.050732"><time>2026-04-29T07:20:11.634Z</time></trkpt>
      <trkpt lat="28.620194" lon="98.050732"><time>2026-04-29T07:20:11.651Z</time></trkpt>
      <trkpt lat="28.620194" lon="98.050732"><time>2026-04-29T07:20:11.667Z</time></trkpt>
      <trkpt lat="28.620194" lon="98.050732"><time>2026-04-29T07:20:11.684Z</time></trkpt>
      <trkpt lat="28.620194" lon="98.050733"><time>2026-04-29T07:20:11.701Z</time></trkpt>
      <trkpt lat="28.620194" lon="98.050733"><time>2026-04-29T07:20:11.717Z</time></trkpt>
      <trkpt lat="28.620194" lon="98.050733"><time>2026-04-29T07:20:11.734Z</time></trkpt>
      <trkpt lat="28.620194" lon="98.050733"><time>2026-04-29T07:20:11.751Z</time></trkpt>
      <trkpt lat="28.620194" lon="98.050733"><time>2026-04-29T07:20:11.767Z</time></trkpt>
      <trkpt lat="28.620194" lon="98.050733"><time>2026-04-29T07:20:11.784Z</time></trkpt>
      <trkpt lat="28.620194" lon="98.050733"><time>2026-04-29T07:20:11.801Z</time></trkpt>
      <trkpt lat="28.620194" lon="98.050733"><time>2026-04-29T07:20:11.817Z</time></trkpt>
      <trkpt lat="28.620194" lon="98.050733"><time>2026-04-29T07:20:11.834Z</time></trkpt>
      <trkpt lat="28.620194" lon="98.050733"><time>2026-04-29T07:20:11.851Z</time></trkpt>
      <trkpt lat="28.620194" lon="98.050733"><time>2026-04-29T07:20:11.867Z</time></trkpt>
      <trkpt lat="28.620194" lon="98.050733"><time>2026-04-29T07:20:11.884Z</time></trkpt>
      <trkpt lat="28.620194" lon="98.050733"><time>2026-04-29T07:20:11.901Z</time></trkpt>
      <trkpt lat="28.620194" lon="98.050733"><time>2026-04-29T07:20:11.917Z</time></trkpt>
      <trkpt lat="28.620194" lon="98.050733"><time>2026-04-29T07:20:11.934Z</time></trkpt>
      <trkpt lat="28.620194" lon="98.050733"><time>2026-04-29T07:20:11.951Z</time></trkpt>
      <trkpt lat="28.620194" lon="98.050733"><time>2026-04-29T07:20:11.968Z</time></trkpt>
      <trkpt lat="28.620194" lon="98.050733"><time>2026-04-29T07:20:11.984Z</time></trkpt>
      <trkpt lat="28.620194" lon="98.050733"><time>2026-04-29T07:20:12.001Z</time></trkpt>
      <trkpt lat="28.620194" lon="98.050733"><time>2026-04-29T07:20:12.018Z</time></trkpt>
      <trkpt lat="28.620194" lon="98.050733"><time>2026-04-29T07:20:12.034Z</time></trkpt>
      <trkpt lat="28.620194" lon="98.050733"><time>2026-04-29T07:20:12.051Z</time></trkpt>
      <trkpt lat="28.620194" lon="98.050733"><time>2026-04-29T07:20:12.068Z</time></trkpt>
      <trkpt lat="28.620194" lon="98.050733"><time>2026-04-29T07:20:12.084Z</time></trkpt>
      <trkpt lat="28.620194" lon="98.050733"><time>2026-04-29T07:20:12.101Z</time></trkpt>
      <trkpt lat="28.620194" lon="98.050733"><time>2026-04-29T07:20:12.118Z</time></trkpt>
      <trkpt lat="28.620194" lon="98.050733"><time>2026-04-29T07:20:12.134Z</time></trkpt>
      <trkpt lat="28.620194" lon="98.050733"><time>2026-04-29T07:20:12.151Z</time></trkpt>
      <trkpt lat="28.620194" lon="98.050733"><time>2026-04-29T07:20:12.168Z</time></trkpt>
      <trkpt lat="28.620194" lon="98.050733"><time>2026-04-29T07:20:12.184Z</time></trkpt>
      <trkpt lat="28.620194" lon="98.050733"><time>2026-04-29T07:20:12.201Z</time></trkpt>
      <trkpt lat="28.620194" lon="98.050733"><time>2026-04-29T07:20:12.218Z</time></trkpt>
      <trkpt lat="28.620194" lon="98.050733"><time>2026-04-29T07:20:12.234Z</time></trkpt>
      <trkpt lat="28.620194" lon="98.050733"><time>2026-04-29T07:20:12.251Z</time></trkpt>
      <trkpt lat="28.620194" lon="98.050733"><time>2026-04-29T07:20:12.268Z</time></trkpt>
      <trkpt lat="28.620194" lon="98.050733"><time>2026-04-29T07:20:12.285Z</time></trkpt>
      <trkpt lat="28.620195" lon="98.050733"><time>2026-04-29T07:20:12.301Z</time></trkpt>
      <trkpt lat="28.620195" lon="98.050733"><time>2026-04-29T07:20:12.318Z</time></trkpt>
      <trkpt lat="28.620195" lon="98.050733"><time>2026-04-29T07:20:12.335Z</time></trkpt>
      <trkpt lat="28.620195" lon="98.050733"><time>2026-04-29T07:20:12.351Z</time></trkpt>
      <trkpt lat="28.620195" lon="98.050733"><time>2026-04-29T07:20:12.368Z</time></trkpt>
      <trkpt lat="28.620195" lon="98.050733"><time>2026-04-29T07:20:12.385Z</time></trkpt>
      <trkpt lat="28.620194" lon="98.050733"><time>2026-04-29T07:20:12.401Z</time></trkpt>
      <trkpt lat="28.620194" lon="98.050733"><time>2026-04-29T07:20:12.418Z</time></trkpt>
      <trkpt lat="28.620194" lon="98.050733"><time>2026-04-29T07:20:12.435Z</time></trkpt>
      <trkpt lat="28.620194" lon="98.050733"><time>2026-04-29T07:20:12.451Z</time></trkpt>
      <trkpt lat="28.620194" lon="98.050733"><time>2026-04-29T07:20:12.468Z</time></trkpt>
      <trkpt lat="28.620194" lon="98.050733"><time>2026-04-29T07:20:12.485Z</time></trkpt>
      <trkpt lat="28.620194" lon="98.050733"><time>2026-04-29T07:20:12.501Z</time></trkpt>
      <trkpt lat="28.620194" lon="98.050733"><time>2026-04-29T07:20:12.518Z</time></trkpt>
      <trkpt lat="28.620194" lon="98.050733"><time>2026-04-29T07:20:12.535Z</time></trkpt>
      <trkpt lat="28.620194" lon="98.050733"><time>2026-04-29T07:20:12.551Z</time></trkpt>
      <trkpt lat="28.620194" lon="98.050733"><time>2026-04-29T07:20:12.568Z</time></trkpt>
      <trkpt lat="28.620194" lon="98.050733"><time>2026-04-29T07:20:12.585Z</time></trkpt>
      <trkpt lat="28.620194" lon="98.050733"><time>2026-04-29T07:20:12.602Z</time></trkpt>
      <trkpt lat="28.620194" lon="98.050733"><time>2026-04-29T07:20:12.618Z</time></trkpt>
      <trkpt lat="28.620194" lon="98.050733"><time>2026-04-29T07:20:12.635Z</time></trkpt>
      <trkpt lat="28.620194" lon="98.050733"><time>2026-04-29T07:20:12.652Z</time></trkpt>
      <trkpt lat="28.620194" lon="98.050733"><time>2026-04-29T07:20:12.668Z</time></trkpt>
      <trkpt lat="28.620194" lon="98.050733"><time>2026-04-29T07:20:12.685Z</time></trkpt>
      <trkpt lat="28.620194" lon="98.050733"><time>2026-04-29T07:20:12.702Z</time></trkpt>
      <trkpt lat="28.620194" lon="98.050733"><time>2026-04-29T07:20:12.718Z</time></trkpt>
      <trkpt lat="28.620194" lon="98.050733"><time>2026-04-29T07:20:12.735Z</time></trkpt>
      <trkpt lat="28.620194" lon="98.050733"><time>2026-04-29T07:20:12.752Z</time></trkpt>
      <trkpt lat="28.620194" lon="98.050733"><time>2026-04-29T07:20:12.768Z</time></trkpt>
      <trkpt lat="28.620194" lon="98.050733"><time>2026-04-29T07:20:12.785Z</time></trkpt>
      <trkpt lat="28.620194" lon="98.050733"><time>2026-04-29T07:20:12.802Z</time></trkpt>
      <trkpt lat="28.620194" lon="98.050733"><time>2026-04-29T07:20:12.818Z</time></trkpt>
      <trkpt lat="28.620194" lon="98.050733"><time>2026-04-29T07:20:12.835Z</time></trkpt>
      <trkpt lat="28.620194" lon="98.050733"><time>2026-04-29T07:20:12.852Z</time></trkpt>
      <trkpt lat="28.620194" lon="98.050733"><time>2026-04-29T07:20:12.868Z</time></trkpt>
      <trkpt lat="28.620194" lon="98.050733"><time>2026-04-29T07:20:12.885Z</time></trkpt>
      <trkpt lat="28.620194" lon="98.050733"><time>2026-04-29T07:20:12.902Z</time></trkpt>
      <trkpt lat="28.620194" lon="98.050733"><time>2026-04-29T07:20:12.919Z</time></trkpt>
      <trkpt lat="28.620194" lon="98.050733"><time>2026-04-29T07:20:12.935Z</time></trkpt>
      <trkpt lat="28.620194" lon="98.050733"><time>2026-04-29T07:20:12.952Z</time></trkpt>
      <trkpt lat="28.620194" lon="98.050733"><time>2026-04-29T07:20:12.969Z</time></trkpt>
      <trkpt lat="28.620194" lon="98.050733"><time>2026-04-29T07:20:12.985Z</time></trkpt>
      <trkpt lat="28.620195" lon="98.050733"><time>2026-04-29T07:20:13.002Z</time></trkpt>
      <trkpt lat="28.620195" lon="98.050733"><time>2026-04-29T07:20:13.019Z</time></trkpt>
      <trkpt lat="28.620195" lon="98.050733"><time>2026-04-29T07:20:13.035Z</time></trkpt>
      <trkpt lat="28.620195" lon="98.050733"><time>2026-04-29T07:20:13.052Z</time></trkpt>
      <trkpt lat="28.620195" lon="98.050733"><time>2026-04-29T07:20:13.069Z</time></trkpt>
      <trkpt lat="28.620195" lon="98.050733"><time>2026-04-29T07:20:13.085Z</time></trkpt>
      <trkpt lat="28.620195" lon="98.050732"><time>2026-04-29T07:20:13.102Z</time></trkpt>
      <trkpt lat="28.620195" lon="98.050732"><time>2026-04-29T07:20:13.119Z</time></trkpt>
      <trkpt lat="28.620195" lon="98.050732"><time>2026-04-29T07:20:13.135Z</time></trkpt>
      <trkpt lat="28.620195" lon="98.050732"><time>2026-04-29T07:20:13.152Z</time></trkpt>
      <trkpt lat="28.620195" lon="98.050732"><time>2026-04-29T07:20:13.169Z</time></trkpt>
      <trkpt lat="28.620195" lon="98.050732"><time>2026-04-29T07:20:13.185Z</time></trkpt>
      <trkpt lat="28.620195" lon="98.05073"><time>2026-04-29T07:20:13.202Z</time></trkpt>
      <trkpt lat="28.620195" lon="98.05073"><time>2026-04-29T07:20:13.219Z</time></trkpt>
      <trkpt lat="28.620195" lon="98.05073"><time>2026-04-29T07:20:13.236Z</time></trkpt>
      <trkpt lat="28.620195" lon="98.05073"><time>2026-04-29T07:20:13.252Z</time></trkpt>
      <trkpt lat="28.620195" lon="98.05073"><time>2026-04-29T07:20:13.269Z</time></trkpt>
      <trkpt lat="28.620195" lon="98.05073"><time>2026-04-29T07:20:13.286Z</time></trkpt>
      <trkpt lat="28.620196" lon="98.050729"><time>2026-04-29T07:20:13.302Z</time></trkpt>
      <trkpt lat="28.620196" lon="98.050729"><time>2026-04-29T07:20:13.319Z</time></trkpt>
      <trkpt lat="28.620196" lon="98.050729"><time>2026-04-29T07:20:13.336Z</time></trkpt>
      <trkpt lat="28.620196" lon="98.050729"><time>2026-04-29T07:20:13.352Z</time></trkpt>
      <trkpt lat="28.620196" lon="98.050729"><time>2026-04-29T07:20:13.369Z</time></trkpt>
      <trkpt lat="28.620196" lon="98.050729"><time>2026-04-29T07:20:13.386Z</time></trkpt>
      <trkpt lat="28.620197" lon="98.050727"><time>2026-04-29T07:20:13.402Z</time></trkpt>
      <trkpt lat="28.620197" lon="98.050727"><time>2026-04-29T07:20:13.419Z</time></trkpt>
      <trkpt lat="28.620197" lon="98.050727"><time>2026-04-29T07:20:13.436Z</time></trkpt>
      <trkpt lat="28.620197" lon="98.050727"><time>2026-04-29T07:20:13.452Z</time></trkpt>
      <trkpt lat="28.620197" lon="98.050727"><time>2026-04-29T07:20:13.469Z</time></trkpt>
      <trkpt lat="28.620197" lon="98.050727"><time>2026-04-29T07:20:13.486Z</time></trkpt>
      <trkpt lat="28.620198" lon="98.050725"><time>2026-04-29T07:20:13.502Z</time></trkpt>
      <trkpt lat="28.620198" lon="98.050725"><time>2026-04-29T07:20:13.519Z</time></trkpt>
      <trkpt lat="28.620198" lon="98.050725"><time>2026-04-29T07:20:13.536Z</time></trkpt>
      <trkpt lat="28.620198" lon="98.050725"><time>2026-04-29T07:20:13.553Z</time></trkpt>
      <trkpt lat="28.620198" lon="98.050725"><time>2026-04-29T07:20:13.569Z</time></trkpt>
      <trkpt lat="28.620198" lon="98.050725"><time>2026-04-29T07:20:13.586Z</time></trkpt>
      <trkpt lat="28.620199" lon="98.050723"><time>2026-04-29T07:20:13.603Z</time></trkpt>
      <trkpt lat="28.620199" lon="98.050723"><time>2026-04-29T07:20:13.619Z</time></trkpt>
      <trkpt lat="28.620199" lon="98.050723"><time>2026-04-29T07:20:13.636Z</time></trkpt>
      <trkpt lat="28.620199" lon="98.050723"><time>2026-04-29T07:20:13.653Z</time></trkpt>
      <trkpt lat="28.620199" lon="98.050723"><time>2026-04-29T07:20:13.669Z</time></trkpt>
      <trkpt lat="28.620199" lon="98.050723"><time>2026-04-29T07:20:13.686Z</time></trkpt>
      <trkpt lat="28.6202" lon="98.05072"><time>2026-04-29T07:20:13.703Z</time></trkpt>
      <trkpt lat="28.6202" lon="98.05072"><time>2026-04-29T07:20:13.719Z</time></trkpt>
      <trkpt lat="28.6202" lon="98.05072"><time>2026-04-29T07:20:13.736Z</time></trkpt>
      <trkpt lat="28.6202" lon="98.05072"><time>2026-04-29T07:20:13.753Z</time></trkpt>
      <trkpt lat="28.6202" lon="98.05072"><time>2026-04-29T07:20:13.769Z</time></trkpt>
      <trkpt lat="28.6202" lon="98.05072"><time>2026-04-29T07:20:13.786Z</time></trkpt>
      <trkpt lat="28.620201" lon="98.050718"><time>2026-04-29T07:20:13.803Z</time></trkpt>
      <trkpt lat="28.620201" lon="98.050718"><time>2026-04-29T07:20:13.819Z</time></trkpt>
      <trkpt lat="28.620201" lon="98.050718"><time>2026-04-29T07:20:13.836Z</time></trkpt>
      <trkpt lat="28.620201" lon="98.050718"><time>2026-04-29T07:20:13.853Z</time></trkpt>
      <trkpt lat="28.620201" lon="98.050718"><time>2026-04-29T07:20:13.870Z</time></trkpt>
      <trkpt lat="28.620201" lon="98.050718"><time>2026-04-29T07:20:13.886Z</time></trkpt>
      <trkpt lat="28.620203" lon="98.050714"><time>2026-04-29T07:20:13.903Z</time></trkpt>
      <trkpt lat="28.620203" lon="98.050714"><time>2026-04-29T07:20:13.920Z</time></trkpt>
      <trkpt lat="28.620203" lon="98.050714"><time>2026-04-29T07:20:13.936Z</time></trkpt>
      <trkpt lat="28.620203" lon="98.050714"><time>2026-04-29T07:20:13.953Z</time></trkpt>
      <trkpt lat="28.620203" lon="98.050714"><time>2026-04-29T07:20:13.970Z</time></trkpt>
      <trkpt lat="28.620203" lon="98.050714"><time>2026-04-29T07:20:13.986Z</time></trkpt>
      <trkpt lat="28.620205" lon="98.050711"><time>2026-04-29T07:20:14.003Z</time></trkpt>
      <trkpt lat="28.620205" lon="98.050711"><time>2026-04-29T07:20:14.020Z</time></trkpt>
      <trkpt lat="28.620205" lon="98.050711"><time>2026-04-29T07:20:14.036Z</time></trkpt>
      <trkpt lat="28.620205" lon="98.050711"><time>2026-04-29T07:20:14.053Z</time></trkpt>
      <trkpt lat="28.620205" lon="98.050711"><time>2026-04-29T07:20:14.070Z</time></trkpt>
      <trkpt lat="28.620205" lon="98.050711"><time>2026-04-29T07:20:14.086Z</time></trkpt>
      <trkpt lat="28.620207" lon="98.050708"><time>2026-04-29T07:20:14.103Z</time></trkpt>
      <trkpt lat="28.620207" lon="98.050708"><time>2026-04-29T07:20:14.120Z</time></trkpt>
      <trkpt lat="28.620207" lon="98.050708"><time>2026-04-29T07:20:14.136Z</time></trkpt>
      <trkpt lat="28.620207" lon="98.050708"><time>2026-04-29T07:20:14.153Z</time></trkpt>
      <trkpt lat="28.620207" lon="98.050708"><time>2026-04-29T07:20:14.170Z</time></trkpt>
      <trkpt lat="28.620207" lon="98.050708"><time>2026-04-29T07:20:14.187Z</time></trkpt>
      <trkpt lat="28.620208" lon="98.050704"><time>2026-04-29T07:20:14.203Z</time></trkpt>
      <trkpt lat="28.620208" lon="98.050704"><time>2026-04-29T07:20:14.220Z</time></trkpt>
      <trkpt lat="28.620208" lon="98.050704"><time>2026-04-29T07:20:14.237Z</time></trkpt>
      <trkpt lat="28.620208" lon="98.050704"><time>2026-04-29T07:20:14.253Z</time></trkpt>
      <trkpt lat="28.620208" lon="98.050704"><time>2026-04-29T07:20:14.270Z</time></trkpt>
      <trkpt lat="28.620208" lon="98.050704"><time>2026-04-29T07:20:14.287Z</time></trkpt>
      <trkpt lat="28.620209" lon="98.0507"><time>2026-04-29T07:20:14.303Z</time></trkpt>
      <trkpt lat="28.620209" lon="98.0507"><time>2026-04-29T07:20:14.320Z</time></trkpt>
      <trkpt lat="28.620209" lon="98.0507"><time>2026-04-29T07:20:14.337Z</time></trkpt>
      <trkpt lat="28.620209" lon="98.0507"><time>2026-04-29T07:20:14.353Z</time></trkpt>
      <trkpt lat="28.620209" lon="98.0507"><time>2026-04-29T07:20:14.370Z</time></trkpt>
      <trkpt lat="28.620209" lon="98.0507"><time>2026-04-29T07:20:14.387Z</time></trkpt>
      <trkpt lat="28.620212" lon="98.050696"><time>2026-04-29T07:20:14.403Z</time></trkpt>
      <trkpt lat="28.620212" lon="98.050696"><time>2026-04-29T07:20:14.420Z</time></trkpt>
      <trkpt lat="28.620212" lon="98.050696"><time>2026-04-29T07:20:14.437Z</time></trkpt>
      <trkpt lat="28.620212" lon="98.050696"><time>2026-04-29T07:20:14.453Z</time></trkpt>
      <trkpt lat="28.620212" lon="98.050696"><time>2026-04-29T07:20:14.470Z</time></trkpt>
      <trkpt lat="28.620215" lon="98.050691"><time>2026-04-29T07:20:14.487Z</time></trkpt>
      <trkpt lat="28.620215" lon="98.050691"><time>2026-04-29T07:20:14.504Z</time></trkpt>
      <trkpt lat="28.620215" lon="98.050691"><time>2026-04-29T07:20:14.520Z</time></trkpt>
      <trkpt lat="28.620215" lon="98.050691"><time>2026-04-29T07:20:14.537Z</time></trkpt>
      <trkpt lat="28.620215" lon="98.050691"><time>2026-04-29T07:20:14.554Z</time></trkpt>
      <trkpt lat="28.620215" lon="98.050691"><time>2026-04-29T07:20:14.570Z</time></trkpt>
      <trkpt lat="28.620215" lon="98.050691"><time>2026-04-29T07:20:14.587Z</time></trkpt>
      <trkpt lat="28.620217" lon="98.050687"><time>2026-04-29T07:20:14.604Z</time></trkpt>
      <trkpt lat="28.620217" lon="98.050687"><time>2026-04-29T07:20:14.620Z</time></trkpt>
      <trkpt lat="28.620217" lon="98.050687"><time>2026-04-29T07:20:14.637Z</time></trkpt>
      <trkpt lat="28.620217" lon="98.050687"><time>2026-04-29T07:20:14.654Z</time></trkpt>
      <trkpt lat="28.620217" lon="98.050687"><time>2026-04-29T07:20:14.670Z</time></trkpt>
      <trkpt lat="28.62022" lon="98.050682"><time>2026-04-29T07:20:14.687Z</time></trkpt>
      <trkpt lat="28.62022" lon="98.050682"><time>2026-04-29T07:20:14.704Z</time></trkpt>
      <trkpt lat="28.62022" lon="98.050682"><time>2026-04-29T07:20:14.720Z</time></trkpt>
      <trkpt lat="28.62022" lon="98.050682"><time>2026-04-29T07:20:14.737Z</time></trkpt>
      <trkpt lat="28.62022" lon="98.050682"><time>2026-04-29T07:20:14.754Z</time></trkpt>
      <trkpt lat="28.62022" lon="98.050682"><time>2026-04-29T07:20:14.770Z</time></trkpt>
      <trkpt lat="28.62022" lon="98.050682"><time>2026-04-29T07:20:14.787Z</time></trkpt>
      <trkpt lat="28.620222" lon="98.050678"><time>2026-04-29T07:20:14.804Z</time></trkpt>
      <trkpt lat="28.620222" lon="98.050678"><time>2026-04-29T07:20:14.821Z</time></trkpt>
      <trkpt lat="28.620222" lon="98.050678"><time>2026-04-29T07:20:14.837Z</time></trkpt>
      <trkpt lat="28.620222" lon="98.050678"><time>2026-04-29T07:20:14.854Z</time></trkpt>
      <trkpt lat="28.620222" lon="98.050678"><time>2026-04-29T07:20:14.871Z</time></trkpt>
      <trkpt lat="28.620224" lon="98.050672"><time>2026-04-29T07:20:14.887Z</time></trkpt>
      <trkpt lat="28.620224" lon="98.050672"><time>2026-04-29T07:20:14.904Z</time></trkpt>
      <trkpt lat="28.620224" lon="98.050672"><time>2026-04-29T07:20:14.921Z</time></trkpt>
      <trkpt lat="28.620224" lon="98.050672"><time>2026-04-29T07:20:14.937Z</time></trkpt>
      <trkpt lat="28.620224" lon="98.050672"><time>2026-04-29T07:20:14.954Z</time></trkpt>
      <trkpt lat="28.620224" lon="98.050672"><time>2026-04-29T07:20:14.971Z</time></trkpt>
      <trkpt lat="28.620224" lon="98.050672"><time>2026-04-29T07:20:14.987Z</time></trkpt>
      <trkpt lat="28.620227" lon="98.050667"><time>2026-04-29T07:20:15.004Z</time></trkpt>
      <trkpt lat="28.620227" lon="98.050667"><time>2026-04-29T07:20:15.021Z</time></trkpt>
      <trkpt lat="28.620227" lon="98.050667"><time>2026-04-29T07:20:15.037Z</time></trkpt>
      <trkpt lat="28.620227" lon="98.050667"><time>2026-04-29T07:20:15.054Z</time></trkpt>
      <trkpt lat="28.620227" lon="98.050667"><time>2026-04-29T07:20:15.071Z</time></trkpt>
      <trkpt lat="28.620227" lon="98.050667"><time>2026-04-29T07:20:15.087Z</time></trkpt>
      <trkpt lat="28.62023" lon="98.050662"><time>2026-04-29T07:20:15.104Z</time></trkpt>
      <trkpt lat="28.62023" lon="98.050662"><time>2026-04-29T07:20:15.121Z</time></trkpt>
      <trkpt lat="28.62023" lon="98.050662"><time>2026-04-29T07:20:15.138Z</time></trkpt>
      <trkpt lat="28.62023" lon="98.050662"><time>2026-04-29T07:20:15.154Z</time></trkpt>
      <trkpt lat="28.62023" lon="98.050662"><time>2026-04-29T07:20:15.171Z</time></trkpt>
      <trkpt lat="28.62023" lon="98.050662"><time>2026-04-29T07:20:15.188Z</time></trkpt>
      <trkpt lat="28.620232" lon="98.050656"><time>2026-04-29T07:20:15.204Z</time></trkpt>
      <trkpt lat="28.620232" lon="98.050656"><time>2026-04-29T07:20:15.221Z</time></trkpt>
      <trkpt lat="28.620232" lon="98.050656"><time>2026-04-29T07:20:15.238Z</time></trkpt>
      <trkpt lat="28.620232" lon="98.050656"><time>2026-04-29T07:20:15.254Z</time></trkpt>
      <trkpt lat="28.620232" lon="98.050656"><time>2026-04-29T07:20:15.271Z</time></trkpt>
      <trkpt lat="28.620235" lon="98.050651"><time>2026-04-29T07:20:15.288Z</time></trkpt>
      <trkpt lat="28.620235" lon="98.050651"><time>2026-04-29T07:20:15.304Z</time></trkpt>
      <trkpt lat="28.620235" lon="98.050651"><time>2026-04-29T07:20:15.321Z</time></trkpt>
      <trkpt lat="28.620235" lon="98.050651"><time>2026-04-29T07:20:15.338Z</time></trkpt>
      <trkpt lat="28.620235" lon="98.050651"><time>2026-04-29T07:20:15.354Z</time></trkpt>
      <trkpt lat="28.620235" lon="98.050651"><time>2026-04-29T07:20:15.371Z</time></trkpt>
      <trkpt lat="28.620238" lon="98.050645"><time>2026-04-29T07:20:15.388Z</time></trkpt>
      <trkpt lat="28.620238" lon="98.050645"><time>2026-04-29T07:20:15.404Z</time></trkpt>
      <trkpt lat="28.620238" lon="98.050645"><time>2026-04-29T07:20:15.421Z</time></trkpt>
      <trkpt lat="28.620238" lon="98.050645"><time>2026-04-29T07:20:15.438Z</time></trkpt>
      <trkpt lat="28.620238" lon="98.050645"><time>2026-04-29T07:20:15.455Z</time></trkpt>
      <trkpt lat="28.620238" lon="98.050645"><time>2026-04-29T07:20:15.471Z</time></trkpt>
      <trkpt lat="28.620241" lon="98.050639"><time>2026-04-29T07:20:15.488Z</time></trkpt>
      <trkpt lat="28.620241" lon="98.050639"><time>2026-04-29T07:20:15.505Z</time></trkpt>
      <trkpt lat="28.620241" lon="98.050639"><time>2026-04-29T07:20:15.521Z</time></trkpt>
      <trkpt lat="28.620241" lon="98.050639"><time>2026-04-29T07:20:15.538Z</time></trkpt>
      <trkpt lat="28.620241" lon="98.050639"><time>2026-04-29T07:20:15.555Z</time></trkpt>
      <trkpt lat="28.620241" lon="98.050639"><time>2026-04-29T07:20:15.571Z</time></trkpt>
      <trkpt lat="28.620241" lon="98.050639"><time>2026-04-29T07:20:15.588Z</time></trkpt>
      <trkpt lat="28.620244" lon="98.050633"><time>2026-04-29T07:20:15.605Z</time></trkpt>
      <trkpt lat="28.620244" lon="98.050633"><time>2026-04-29T07:20:15.621Z</time></trkpt>
      <trkpt lat="28.620244" lon="98.050633"><time>2026-04-29T07:20:15.638Z</time></trkpt>
      <trkpt lat="28.620244" lon="98.050633"><time>2026-04-29T07:20:15.655Z</time></trkpt>
      <trkpt lat="28.620244" lon="98.050633"><time>2026-04-29T07:20:15.671Z</time></trkpt>
      <trkpt lat="28.620247" lon="98.050627"><time>2026-04-29T07:20:15.688Z</time></trkpt>
      <trkpt lat="28.620247" lon="98.050627"><time>2026-04-29T07:20:15.705Z</time></trkpt>
      <trkpt lat="28.620247" lon="98.050627"><time>2026-04-29T07:20:15.721Z</time></trkpt>
      <trkpt lat="28.620247" lon="98.050627"><time>2026-04-29T07:20:15.738Z</time></trkpt>
      <trkpt lat="28.620247" lon="98.050627"><time>2026-04-29T07:20:15.755Z</time></trkpt>
      <trkpt lat="28.620247" lon="98.050627"><time>2026-04-29T07:20:15.772Z</time></trkpt>
      <trkpt lat="28.62025" lon="98.050621"><time>2026-04-29T07:20:15.788Z</time></trkpt>
      <trkpt lat="28.62025" lon="98.050621"><time>2026-04-29T07:20:15.805Z</time></trkpt>
      <trkpt lat="28.62025" lon="98.050621"><time>2026-04-29T07:20:15.822Z</time></trkpt>
      <trkpt lat="28.62025" lon="98.050621"><time>2026-04-29T07:20:15.838Z</time></trkpt>
      <trkpt lat="28.62025" lon="98.050621"><time>2026-04-29T07:20:15.855Z</time></trkpt>
      <trkpt lat="28.62025" lon="98.050621"><time>2026-04-29T07:20:15.872Z</time></trkpt>
      <trkpt lat="28.620253" lon="98.050615"><time>2026-04-29T07:20:15.888Z</time></trkpt>
      <trkpt lat="28.620253" lon="98.050615"><time>2026-04-29T07:20:15.905Z</time></trkpt>
      <trkpt lat="28.620253" lon="98.050615"><time>2026-04-29T07:20:15.922Z</time></trkpt>
      <trkpt lat="28.620253" lon="98.050615"><time>2026-04-29T07:20:15.938Z</time></trkpt>
      <trkpt lat="28.620253" lon="98.050615"><time>2026-04-29T07:20:15.955Z</time></trkpt>
      <trkpt lat="28.620253" lon="98.050615"><time>2026-04-29T07:20:15.972Z</time></trkpt>
      <trkpt lat="28.620256" lon="98.050608"><time>2026-04-29T07:20:15.988Z</time></trkpt>
      <trkpt lat="28.620256" lon="98.050608"><time>2026-04-29T07:20:16.005Z</time></trkpt>
      <trkpt lat="28.620256" lon="98.050608"><time>2026-04-29T07:20:16.022Z</time></trkpt>
      <trkpt lat="28.620256" lon="98.050608"><time>2026-04-29T07:20:16.038Z</time></trkpt>
      <trkpt lat="28.620256" lon="98.050608"><time>2026-04-29T07:20:16.055Z</time></trkpt>
      <trkpt lat="28.620256" lon="98.050608"><time>2026-04-29T07:20:16.072Z</time></trkpt>
      <trkpt lat="28.62026" lon="98.050602"><time>2026-04-29T07:20:16.089Z</time></trkpt>
      <trkpt lat="28.62026" lon="98.050602"><time>2026-04-29T07:20:16.105Z</time></trkpt>
      <trkpt lat="28.62026" lon="98.050602"><time>2026-04-29T07:20:16.122Z</time></trkpt>
      <trkpt lat="28.62026" lon="98.050602"><time>2026-04-29T07:20:16.139Z</time></trkpt>
      <trkpt lat="28.62026" lon="98.050602"><time>2026-04-29T07:20:16.155Z</time></trkpt>
      <trkpt lat="28.62026" lon="98.050602"><time>2026-04-29T07:20:16.172Z</time></trkpt>
      <trkpt lat="28.620263" lon="98.050595"><time>2026-04-29T07:20:16.189Z</time></trkpt>
      <trkpt lat="28.620263" lon="98.050595"><time>2026-04-29T07:20:16.205Z</time></trkpt>
      <trkpt lat="28.620263" lon="98.050595"><time>2026-04-29T07:20:16.222Z</time></trkpt>
      <trkpt lat="28.620263" lon="98.050595"><time>2026-04-29T07:20:16.239Z</time></trkpt>
      <trkpt lat="28.620263" lon="98.050595"><time>2026-04-29T07:20:16.255Z</time></trkpt>
      <trkpt lat="28.620263" lon="98.050595"><time>2026-04-29T07:20:16.272Z</time></trkpt>
      <trkpt lat="28.620266" lon="98.050589"><time>2026-04-29T07:20:16.289Z</time></trkpt>
      <trkpt lat="28.620266" lon="98.050589"><time>2026-04-29T07:20:16.305Z</time></trkpt>
      <trkpt lat="28.620266" lon="98.050589"><time>2026-04-29T07:20:16.322Z</time></trkpt>
      <trkpt lat="28.620266" lon="98.050589"><time>2026-04-29T07:20:16.339Z</time></trkpt>
      <trkpt lat="28.620266" lon="98.050589"><time>2026-04-29T07:20:16.355Z</time></trkpt>
      <trkpt lat="28.620266" lon="98.050589"><time>2026-04-29T07:20:16.372Z</time></trkpt>
      <trkpt lat="28.62027" lon="98.050582"><time>2026-04-29T07:20:16.389Z</time></trkpt>
      <trkpt lat="28.62027" lon="98.050582"><time>2026-04-29T07:20:16.406Z</time></trkpt>
      <trkpt lat="28.62027" lon="98.050582"><time>2026-04-29T07:20:16.422Z</time></trkpt>
      <trkpt lat="28.62027" lon="98.050582"><time>2026-04-29T07:20:16.439Z</time></trkpt>
      <trkpt lat="28.62027" lon="98.050582"><time>2026-04-29T07:20:16.456Z</time></trkpt>
      <trkpt lat="28.62027" lon="98.050582"><time>2026-04-29T07:20:16.472Z</time></trkpt>
      <trkpt lat="28.620273" lon="98.050575"><time>2026-04-29T07:20:16.489Z</time></trkpt>
      <trkpt lat="28.620273" lon="98.050575"><time>2026-04-29T07:20:16.506Z</time></trkpt>
      <trkpt lat="28.620273" lon="98.050575"><time>2026-04-29T07:20:16.522Z</time></trkpt>
      <trkpt lat="28.620273" lon="98.050575"><time>2026-04-29T07:20:16.539Z</time></trkpt>
      <trkpt lat="28.620273" lon="98.050575"><time>2026-04-29T07:20:16.556Z</time></trkpt>
      <trkpt lat="28.620273" lon="98.050575"><time>2026-04-29T07:20:16.572Z</time></trkpt>
      <trkpt lat="28.620277" lon="98.050568"><time>2026-04-29T07:20:16.589Z</time></trkpt>
      <trkpt lat="28.620277" lon="98.050568"><time>2026-04-29T07:20:16.606Z</time></trkpt>
      <trkpt lat="28.620277" lon="98.050568"><time>2026-04-29T07:20:16.622Z</time></trkpt>
      <trkpt lat="28.620277" lon="98.050568"><time>2026-04-29T07:20:16.639Z</time></trkpt>
      <trkpt lat="28.620277" lon="98.050568"><time>2026-04-29T07:20:16.656Z</time></trkpt>
      <trkpt lat="28.620277" lon="98.050568"><time>2026-04-29T07:20:16.672Z</time></trkpt>
      <trkpt lat="28.62028" lon="98.050561"><time>2026-04-29T07:20:16.689Z</time></trkpt>
      <trkpt lat="28.62028" lon="98.050561"><time>2026-04-29T07:20:16.706Z</time></trkpt>
      <trkpt lat="28.62028" lon="98.050561"><time>2026-04-29T07:20:16.722Z</time></trkpt>
      <trkpt lat="28.62028" lon="98.050561"><time>2026-04-29T07:20:16.739Z</time></trkpt>
      <trkpt lat="28.62028" lon="98.050561"><time>2026-04-29T07:20:16.756Z</time></trkpt>
      <trkpt lat="28.62028" lon="98.050561"><time>2026-04-29T07:20:16.773Z</time></trkpt>
      <trkpt lat="28.620284" lon="98.050554"><time>2026-04-29T07:20:16.789Z</time></trkpt>
      <trkpt lat="28.620284" lon="98.050554"><time>2026-04-29T07:20:16.806Z</time></trkpt>
      <trkpt lat="28.620284" lon="98.050554"><time>2026-04-29T07:20:16.823Z</time></trkpt>
    </trkseg>
  </trk>
</gpx>
