<?xml version="1.0" encoding="UTF-8"?>
<gpx version="1.1" creator="Kairos" xmlns="http://www.topografix.com/GPX/1/1">
  <trk>
    <name>sidecar-srt-1b2f9c27797e8afc</name>
    <trkseg>
      <trkpt lat="28.025833" lon="98.623565"><time>2026-04-28T11:14:20.000Z</time></trkpt>
      <trkpt lat="28.025833" lon="98.623565"><time>2026-04-28T11:14:20.016Z</time></trkpt>
      <trkpt lat="28.025833" lon="98.623565"><time>2026-04-28T11:14:20.032Z</time></trkpt>
      <trkpt lat="28.025833" lon="98.623565"><time>2026-04-28T11:14:20.049Z</time></trkpt>
      <trkpt lat="28.025833" lon="98.623565"><time>2026-04-28T11:14:20.066Z</time></trkpt>
      <trkpt lat="28.025833" lon="98.623565"><time>2026-04-28T11:14:20.082Z</time></trkpt>
      <trkpt lat="28.025833" lon="98.623565"><time>2026-04-28T11:14:20.099Z</time></trkpt>
      <trkpt lat="28.025833" lon="98.623565"><time>2026-04-28T11:14:20.116Z</time></trkpt>
      <trkpt lat="28.025833" lon="98.623565"><time>2026-04-28T11:14:20.132Z</time></trkpt>
      <trkpt lat="28.025833" lon="98.623565"><time>2026-04-28T11:14:20.149Z</time></trkpt>
      <trkpt lat="28.025833" lon="98.623565"><time>2026-04-28T11:14:20.166Z</time></trkpt>
      <trkpt lat="28.025833" lon="98.623565"><time>2026-04-28T11:14:20.182Z</time></trkpt>
      <trkpt lat="28.025833" lon="98.623565"><time>2026-04-28T11:14:20.199Z</time></trkpt>
      <trkpt lat="28.025833" lon="98.623565"><time>2026-04-28T11:14:20.216Z</time></trkpt>
      <trkpt lat="28.025833" lon="98.623565"><time>2026-04-28T11:14:20.232Z</time></trkpt>
      <trkpt lat="28.025833" lon="98.623565"><time>2026-04-28T11:14:20.249Z</time></trkpt>
      <trkpt lat="28.025834" lon="98.623565"><time>2026-04-28T11:14:20.266Z</time></trkpt>
      <trkpt lat="28.025834" lon="98.623565"><time>2026-04-28T11:14:20.282Z</time></trkpt>
      <trkpt lat="28.025834" lon="98.623565"><time>2026-04-28T11:14:20.299Z</time></trkpt>
      <trkpt lat="28.025834" lon="98.623565"><time>2026-04-28T11:14:20.316Z</time></trkpt>
      <trkpt lat="28.025834" lon="98.623565"><time>2026-04-28T11:14:20.333Z</time></trkpt>
      <trkpt lat="28.025834" lon="98.623565"><time>2026-04-28T11:14:20.349Z</time></trkpt>
      <trkpt lat="28.025835" lon="98.623564"><time>2026-04-28T11:14:20.366Z</time></trkpt>
      <trkpt lat="28.025835" lon="98.623564"><time>2026-04-28T11:14:20.383Z</time></trkpt>
      <trkpt lat="28.025835" lon="98.623564"><time>2026-04-28T11:14:20.399Z</time></trkpt>
      <trkpt lat="28.025835" lon="98.623564"><time>2026-04-28T11:14:20.416Z</time></trkpt>
      <trkpt lat="28.025835" lon="98.623564"><time>2026-04-28T11:14:20.433Z</time></trkpt>
      <trkpt lat="28.025835" lon="98.623564"><time>2026-04-28T11:14:20.449Z</time></trkpt>
      <trkpt lat="28.025837" lon="98.623564"><time>2026-04-28T11:14:20.466Z</time></trkpt>
      <trkpt lat="28.025837" lon="98.623564"><time>2026-04-28T11:14:20.483Z</time></trkpt>
      <trkpt lat="28.025837" lon="98.623564"><time>2026-04-28T11:14:20.499Z</time></trkpt>
      <trkpt lat="28.025837" lon="98.623564"><time>2026-04-28T11:14:20.516Z</time></trkpt>
      <trkpt lat="28.025837" lon="98.623564"><time>2026-04-28T11:14:20.533Z</time></trkpt>
      <trkpt lat="28.025837" lon="98.623564"><time>2026-04-28T11:14:20.549Z</time></trkpt>
      <trkpt lat="28.025839" lon="98.623563"><time>2026-04-28T11:14:20.566Z</time></trkpt>
      <trkpt lat="28.025839" lon="98.623563"><time>2026-04-28T11:14:20.583Z</time></trkpt>
      <trkpt lat="28.025839" lon="98.623563"><time>2026-04-28T11:14:20.599Z</time></trkpt>
      <trkpt lat="28.025839" lon="98.623563"><time>2026-04-28T11:14:20.616Z</time></trkpt>
      <trkpt lat="28.025839" lon="98.623563"><time>2026-04-28T11:14:20.633Z</time></trkpt>
      <trkpt lat="28.025839" lon="98.623563"><time>2026-04-28T11:14:20.650Z</time></trkpt>
      <trkpt lat="28.025841" lon="98.623561"><time>2026-04-28T11:14:20.666Z</time></trkpt>
      <trkpt lat="28.025841" lon="98.623561"><time>2026-04-28T11:14:20.683Z</time></trkpt>
      <trkpt lat="28.025841" lon="98.623561"><time>2026-04-28T11:14:20.700Z</time></trkpt>
      <trkpt lat="28.025841" lon="98.623561"><time>2026-04-28T11:14:20.716Z</time></trkpt>
      <trkpt lat="28.025841" lon="98.623561"><time>2026-04-28T11:14:20.733Z</time></trkpt>
      <trkpt lat="28.025841" lon="98.623561"><time>2026-04-28T11:14:20.750Z</time></trkpt>
      <trkpt lat="28.025844" lon="98.62356"><time>2026-04-28T11:14:20.766Z</time></trkpt>
      <trkpt lat="28.025844" lon="98.62356"><time>2026-04-28T11:14:20.783Z</time></trkpt>
      <trkpt lat="28.025844" lon="98.62356"><time>2026-04-28T11:14:20.800Z</time></trkpt>
      <trkpt lat="28.025844" lon="98.62356"><time>2026-04-28T11:14:20.816Z</time></trkpt>
      <trkpt lat="28.025844" lon="98.62356"><time>2026-04-28T11:14:20.833Z</time></trkpt>
      <trkpt lat="28.025844" lon="98.62356"><time>2026-04-28T11:14:20.850Z</time></trkpt>
      <trkpt lat="28.025848" lon="98.623558"><time>2026-04-28T11:14:20.866Z</time></trkpt>
      <trkpt lat="28.025848" lon="98.623558"><time>2026-04-28T11:14:20.883Z</time></trkpt>
      <trkpt lat="28.025848" lon="98.623558"><time>2026-04-28T11:14:20.900Z</time></trkpt>
      <trkpt lat="28.025848" lon="98.623558"><time>2026-04-28T11:14:20.916Z</time></trkpt>
      <trkpt lat="28.025848" lon="98.623558"><time>2026-04-28T11:14:20.933Z</time></trkpt>
      <trkpt lat="28.025848" lon="98.623558"><time>2026-04-28T11:14:20.950Z</time></trkpt>
      <trkpt lat="28.025852" lon="98.623556"><time>2026-04-28T11:14:20.967Z</time></trkpt>
      <trkpt lat="28.025852" lon="98.623556"><time>2026-04-28T11:14:20.983Z</time></trkpt>
      <trkpt lat="28.025852" lon="98.623556"><time>2026-04-28T11:14:21.000Z</time></trkpt>
      <trkpt lat="28.025852" lon="98.623556"><time>2026-04-28T11:14:21.017Z</time></trkpt>
      <trkpt lat="28.025852" lon="98.623556"><time>2026-04-28T11:14:21.033Z</time></trkpt>
      <trkpt lat="28.025852" lon="98.623556"><time>2026-04-28T11:14:21.050Z</time></trkpt>
      <trkpt lat="28.025856" lon="98.623554"><time>2026-04-28T11:14:21.067Z</time></trkpt>
      <trkpt lat="28.025856" lon="98.623554"><time>2026-04-28T11:14:21.083Z</time></trkpt>
      <trkpt lat="28.025856" lon="98.623554"><time>2026-04-28T11:14:21.100Z</time></trkpt>
      <trkpt lat="28.025856" lon="98.623554"><time>2026-04-28T11:14:21.117Z</time></trkpt>
      <trkpt lat="28.025856" lon="98.623554"><time>2026-04-28T11:14:21.133Z</time></trkpt>
      <trkpt lat="28.025856" lon="98.623554"><time>2026-04-28T11:14:21.150Z</time></trkpt>
      <trkpt lat="28.02586" lon="98.623552"><time>2026-04-28T11:14:21.167Z</time></trkpt>
      <trkpt lat="28.02586" lon="98.623552"><time>2026-04-28T11:14:21.183Z</time></trkpt>
      <trkpt lat="28.02586" lon="98.623552"><time>2026-04-28T11:14:21.200Z</time></trkpt>
      <trkpt lat="28.02586" lon="98.623552"><time>2026-04-28T11:14:21.217Z</time></trkpt>
      <trkpt lat="28.02586" lon="98.623552"><time>2026-04-28T11:14:21.233Z</time></trkpt>
      <trkpt lat="28.02586" lon="98.623552"><time>2026-04-28T11:14:21.250Z</time></trkpt>
      <trkpt lat="28.025865" lon="98.623549"><time>2026-04-28T11:14:21.267Z</time></trkpt>
      <trkpt lat="28.025865" lon="98.623549"><time>2026-04-28T11:14:21.283Z</time></trkpt>
      <trkpt lat="28.025865" lon="98.623549"><time>2026-04-28T11:14:21.300Z</time></trkpt>
      <trkpt lat="28.025865" lon="98.623549"><time>2026-04-28T11:14:21.317Z</time></trkpt>
      <trkpt lat="28.025865" lon="98.623549"><time>2026-04-28T11:14:21.334Z</time></trkpt>
      <trkpt lat="28.025865" lon="98.623549"><time>2026-04-28T11:14:21.350Z</time></trkpt>
      <trkpt lat="28.025871" lon="98.623547"><time>2026-04-28T11:14:21.367Z</time></trkpt>
      <trkpt lat="28.025871" lon="98.623547"><time>2026-04-28T11:14:21.384Z</time></trkpt>
      <trkpt lat="28.025871" lon="98.623547"><time>2026-04-28T11:14:21.400Z</time></trkpt>
      <trkpt lat="28.025871" lon="98.623547"><time>2026-04-28T11:14:21.417Z</time></trkpt>
      <trkpt lat="28.025871" lon="98.623547"><time>2026-04-28T11:14:21.434Z</time></trkpt>
      <trkpt lat="28.025871" lon="98.623547"><time>2026-04-28T11:14:21.450Z</time></trkpt>
      <trkpt lat="28.025877" lon="98.623544"><time>2026-04-28T11:14:21.467Z</time></trkpt>
      <trkpt lat="28.025877" lon="98.623544"><time>2026-04-28T11:14:21.484Z</time></trkpt>
      <trkpt lat="28.025877" lon="98.623544"><time>2026-04-28T11:14:21.500Z</time></trkpt>
      <trkpt lat="28.025877" lon="98.623544"><time>2026-04-28T11:14:21.517Z</time></trkpt>
      <trkpt lat="28.025877" lon="98.623544"><time>2026-04-28T11:14:21.534Z</time></trkpt>
      <trkpt lat="28.025877" lon="98.623544"><time>2026-04-28T11:14:21.550Z</time></trkpt>
      <trkpt lat="28.025883" lon="98.623541"><time>2026-04-28T11:14:21.567Z</time></trkpt>
      <trkpt lat="28.025883" lon="98.623541"><time>2026-04-28T11:14:21.584Z</time></trkpt>
      <trkpt lat="28.025883" lon="98.623541"><time>2026-04-28T11:14:21.600Z</time></trkpt>
      <trkpt lat="28.025883" lon="98.623541"><time>2026-04-28T11:14:21.617Z</time></trkpt>
      <trkpt lat="28.025883" lon="98.623541"><time>2026-04-28T11:14:21.634Z</time></trkpt>
      <trkpt lat="28.025883" lon="98.623541"><time>2026-04-28T11:14:21.651Z</time></trkpt>
      <trkpt lat="28.025889" lon="98.623537"><time>2026-04-28T11:14:21.667Z</time></trkpt>
      <trkpt lat="28.025889" lon="98.623537"><time>2026-04-28T11:14:21.684Z</time></trkpt>
      <trkpt lat="28.025889" lon="98.623537"><time>2026-04-28T11:14:21.701Z</time></trkpt>
      <trkpt lat="28.025889" lon="98.623537"><time>2026-04-28T11:14:21.717Z</time></trkpt>
      <trkpt lat="28.025889" lon="98.623537"><time>2026-04-28T11:14:21.734Z</time></trkpt>
      <trkpt lat="28.025889" lon="98.623537"><time>2026-04-28T11:14:21.751Z</time></trkpt>
      <trkpt lat="28.025896" lon="98.623534"><time>2026-04-28T11:14:21.767Z</time></trkpt>
      <trkpt lat="28.025896" lon="98.623534"><time>2026-04-28T11:14:21.784Z</time></trkpt>
      <trkpt lat="28.025896" lon="98.623534"><time>2026-04-28T11:14:21.801Z</time></trkpt>
      <trkpt lat="28.025896" lon="98.623534"><time>2026-04-28T11:14:21.817Z</time></trkpt>
      <trkpt lat="28.025896" lon="98.623534"><time>2026-04-28T11:14:21.834Z</time></trkpt>
      <trkpt lat="28.025896" lon="98.623534"><time>2026-04-28T11:14:21.851Z</time></trkpt>
      <trkpt lat="28.025903" lon="98.62353"><time>2026-04-28T11:14:21.867Z</time></trkpt>
      <trkpt lat="28.025903" lon="98.62353"><time>2026-04-28T11:14:21.884Z</time></trkpt>
      <trkpt lat="28.025903" lon="98.62353"><time>2026-04-28T11:14:21.901Z</time></trkpt>
      <trkpt lat="28.025903" lon="98.62353"><time>2026-04-28T11:14:21.917Z</time></trkpt>
      <trkpt lat="28.025903" lon="98.62353"><time>2026-04-28T11:14:21.934Z</time></trkpt>
      <trkpt lat="28.025903" lon="98.62353"><time>2026-04-28T11:14:21.951Z</time></trkpt>
      <trkpt lat="28.02591" lon="98.623526"><time>2026-04-28T11:14:21.968Z</time></trkpt>
      <trkpt lat="28.02591" lon="98.623526"><time>2026-04-28T11:14:21.984Z</time></trkpt>
      <trkpt lat="28.02591" lon="98.623526"><time>2026-04-28T11:14:22.001Z</time></trkpt>
      <trkpt lat="28.02591" lon="98.623526"><time>2026-04-28T11:14:22.018Z</time></trkpt>
      <trkpt lat="28.02591" lon="98.623526"><time>2026-04-28T11:14:22.034Z</time></trkpt>
      <trkpt lat="28.02591" lon="98.623526"><time>2026-04-28T11:14:22.051Z</time></trkpt>
      <trkpt lat="28.025918" lon="98.623522"><time>2026-04-28T11:14:22.068Z</time></trkpt>
      <trkpt lat="28.025918" lon="98.623522"><time>2026-04-28T11:14:22.084Z</time></trkpt>
      <trkpt lat="28.025918" lon="98.623522"><time>2026-04-28T11:14:22.101Z</time></trkpt>
      <trkpt lat="28.025918" lon="98.623522"><time>2026-04-28T11:14:22.118Z</time></trkpt>
      <trkpt lat="28.025918" lon="98.623522"><time>2026-04-28T11:14:22.134Z</time></trkpt>
      <trkpt lat="28.025918" lon="98.623522"><time>2026-04-28T11:14:22.151Z</time></trkpt>
      <trkpt lat="28.025925" lon="98.623518"><time>2026-04-28T11:14:22.168Z</time></trkpt>
      <trkpt lat="28.025925" lon="98.623518"><time>2026-04-28T11:14:22.184Z</time></trkpt>
      <trkpt lat="28.025925" lon="98.623518"><time>2026-04-28T11:14:22.201Z</time></trkpt>
      <trkpt lat="28.025925" lon="98.623518"><time>2026-04-28T11:14:22.218Z</time></trkpt>
      <trkpt lat="28.025925" lon="98.623518"><time>2026-04-28T11:14:22.234Z</time></trkpt>
      <trkpt lat="28.025925" lon="98.623518"><time>2026-04-28T11:14:22.251Z</time></trkpt>
      <trkpt lat="28.025933" lon="98.623514"><time>2026-04-28T11:14:22.268Z</time></trkpt>
      <trkpt lat="28.025933" lon="98.623514"><time>2026-04-28T11:14:22.285Z</time></trkpt>
      <trkpt lat="28.025933" lon="98.623514"><time>2026-04-28T11:14:22.301Z</time></trkpt>
      <trkpt lat="28.025933" lon="98.623514"><time>2026-04-28T11:14:22.318Z</time></trkpt>
      <trkpt lat="28.025933" lon="98.623514"><time>2026-04-28T11:14:22.335Z</time></trkpt>
      <trkpt lat="28.025933" lon="98.623514"><time>2026-04-28T11:14:22.351Z</time></trkpt>
      <trkpt lat="28.025941" lon="98.62351"><time>2026-04-28T11:14:22.368Z</time></trkpt>
      <trkpt lat="28.025941" lon="98.62351"><time>2026-04-28T11:14:22.385Z</time></trkpt>
      <trkpt lat="28.025941" lon="98.62351"><time>2026-04-28T11:14:22.401Z</time></trkpt>
      <trkpt lat="28.025941" lon="98.62351"><time>2026-04-28T11:14:22.418Z</time></trkpt>
      <trkpt lat="28.025941" lon="98.62351"><time>2026-04-28T11:14:22.435Z</time></trkpt>
      <trkpt lat="28.025941" lon="98.62351"><time>2026-04-28T11:14:22.451Z</time></trkpt>
      <trkpt lat="28.02595" lon="98.623506"><time>2026-04-28T11:14:22.468Z</time></trkpt>
      <trkpt lat="28.02595" lon="98.623506"><time>2026-04-28T11:14:22.485Z</time></trkpt>
      <trkpt lat="28.02595" lon="98.623506"><time>2026-04-28T11:14:22.501Z</time></trkpt>
      <trkpt lat="28.02595" lon="98.623506"><time>2026-04-28T11:14:22.518Z</time></trkpt>
      <trkpt lat="28.02595" lon="98.623506"><time>2026-04-28T11:14:22.535Z</time></trkpt>
      <trkpt lat="28.02595" lon="98.623506"><time>2026-04-28T11:14:22.551Z</time></trkpt>
      <trkpt lat="28.025958" lon="98.623502"><time>2026-04-28T11:14:22.568Z</time></trkpt>
      <trkpt lat="28.025958" lon="98.623502"><time>2026-04-28T11:14:22.585Z</time></trkpt>
      <trkpt lat="28.025958" lon="98.623502"><time>2026-04-28T11:14:22.602Z</time></trkpt>
      <trkpt lat="28.025958" lon="98.623502"><time>2026-04-28T11:14:22.618Z</time></trkpt>
      <trkpt lat="28.025958" lon="98.623502"><time>2026-04-28T11:14:22.635Z</time></trkpt>
      <trkpt lat="28.025958" lon="98.623502"><time>2026-04-28T11:14:22.652Z</time></trkpt>
      <trkpt lat="28.025966" lon="98.623497"><time>2026-04-28T11:14:22.668Z</time></trkpt>
      <trkpt lat="28.025966" lon="98.623497"><time>2026-04-28T11:14:22.685Z</time></trkpt>
      <trkpt lat="28.025966" lon="98.623497"><time>2026-04-28T11:14:22.702Z</time></trkpt>
      <trkpt lat="28.025966" lon="98.623497"><time>2026-04-28T11:14:22.718Z</time></trkpt>
      <trkpt lat="28.025966" lon="98.623497"><time>2026-04-28T11:14:22.735Z</time></trkpt>
      <trkpt lat="28.025966" lon="98.623497"><time>2026-04-28T11:14:22.752Z</time></trkpt>
      <trkpt lat="28.025975" lon="98.623492"><time>2026-04-28T11:14:22.768Z</time></trkpt>
      <trkpt lat="28.025975" lon="98.623492"><time>2026-04-28T11:14:22.785Z</time></trkpt>
      <trkpt lat="28.025975" lon="98.623492"><time>2026-04-28T11:14:22.802Z</time></trkpt>
      <trkpt lat="28.025975" lon="98.623492"><time>2026-04-28T11:14:22.818Z</time></trkpt>
      <trkpt lat="28.025975" lon="98.623492"><time>2026-04-28T11:14:22.835Z</time></trkpt>
      <trkpt lat="28.025975" lon="98.623492"><time>2026-04-28T11:14:22.852Z</time></trkpt>
      <trkpt lat="28.025984" lon="98.623488"><time>2026-04-28T11:14:22.868Z</time></trkpt>
      <trkpt lat="28.025984" lon="98.623488"><time>2026-04-28T11:14:22.885Z</time></trkpt>
      <trkpt lat="28.025984" lon="98.623488"><time>2026-04-28T11:14:22.902Z</time></trkpt>
      <trkpt lat="28.025984" lon="98.623488"><time>2026-04-28T11:14:22.919Z</time></trkpt>
      <trkpt lat="28.025984" lon="98.623488"><time>2026-04-28T11:14:22.935Z</time></trkpt>
      <trkpt lat="28.025984" lon="98.623488"><time>2026-04-28T11:14:22.952Z</time></trkpt>
      <trkpt lat="28.025994" lon="98.623483"><time>2026-04-28T11:14:22.969Z</time></trkpt>
      <trkpt lat="28.025994" lon="98.623483"><time>2026-04-28T11:14:22.985Z</time></trkpt>
      <trkpt lat="28.025994" lon="98.623483"><time>2026-04-28T11:14:23.002Z</time></trkpt>
      <trkpt lat="28.025994" lon="98.623483"><time>2026-04-28T11:14:23.019Z</time></trkpt>
      <trkpt lat="28.025994" lon="98.623483"><time>2026-04-28T11:14:23.035Z</time></trkpt>
      <trkpt lat="28.025994" lon="98.623483"><time>2026-04-28T11:14:23.052Z</time></trkpt>
      <trkpt lat="28.026003" lon="98.623478"><time>2026-04-28T11:14:23.069Z</time></trkpt>
      <trkpt lat="28.026003" lon="98.623478"><time>2026-04-28T11:14:23.085Z</time></trkpt>
      <trkpt lat="28.026003" lon="98.623478"><time>2026-04-28T11:14:23.102Z</time></trkpt>
      <trkpt lat="28.026003" lon="98.623478"><time>2026-04-28T11:14:23.119Z</time></trkpt>
      <trkpt lat="28.026003" lon="98.623478"><time>2026-04-28T11:14:23.135Z</time></trkpt>
      <trkpt lat="28.026003" lon="98.623478"><time>2026-04-28T11:14:23.152Z</time></trkpt>
      <trkpt lat="28.026013" lon="98.623473"><time>2026-04-28T11:14:23.169Z</time></trkpt>
      <trkpt lat="28.026013" lon="98.623473"><time>2026-04-28T11:14:23.185Z</time></trkpt>
      <trkpt lat="28.026013" lon="98.623473"><time>2026-04-28T11:14:23.202Z</time></trkpt>
      <trkpt lat="28.026013" lon="98.623473"><time>2026-04-28T11:14:23.219Z</time></trkpt>
      <trkpt lat="28.026013" lon="98.623473"><time>2026-04-28T11:14:23.236Z</time></trkpt>
      <trkpt lat="28.026013" lon="98.623473"><time>2026-04-28T11:14:23.252Z</time></trkpt>
      <trkpt lat="28.026023" lon="98.623468"><time>2026-04-28T11:14:23.269Z</time></trkpt>
      <trkpt lat="28.026023" lon="98.623468"><time>2026-04-28T11:14:23.286Z</time></trkpt>
      <trkpt lat="28.026023" lon="98.623468"><time>2026-04-28T11:14:23.302Z</time></trkpt>
      <trkpt lat="28.026023" lon="98.623468"><time>2026-04-28T11:14:23.319Z</time></trkpt>
      <trkpt lat="28.026023" lon="98.623468"><time>2026-04-28T11:14:23.336Z</time></trkpt>
      <trkpt lat="28.026023" lon="98.623468"><time>2026-04-28T11:14:23.352Z</time></trkpt>
      <trkpt lat="28.026033" lon="98.623463"><time>2026-04-28T11:14:23.369Z</time></trkpt>
      <trkpt lat="28.026033" lon="98.623463"><time>2026-04-28T11:14:23.386Z</time></trkpt>
      <trkpt lat="28.026033" lon="98.623463"><time>2026-04-28T11:14:23.402Z</time></trkpt>
      <trkpt lat="28.026033" lon="98.623463"><time>2026-04-28T11:14:23.419Z</time></trkpt>
      <trkpt lat="28.026033" lon="98.623463"><time>2026-04-28T11:14:23.436Z</time></trkpt>
      <trkpt lat="28.026033" lon="98.623463"><time>2026-04-28T11:14:23.452Z</time></trkpt>
      <trkpt lat="28.026043" lon="98.623457"><time>2026-04-28T11:14:23.469Z</time></trkpt>
      <trkpt lat="28.026043" lon="98.623457"><time>2026-04-28T11:14:23.486Z</time></trkpt>
      <trkpt lat="28.026043" lon="98.623457"><time>2026-04-28T11:14:23.502Z</time></trkpt>
      <trkpt lat="28.026043" lon="98.623457"><time>2026-04-28T11:14:23.519Z</time></trkpt>
      <trkpt lat="28.026043" lon="98.623457"><time>2026-04-28T11:14:23.536Z</time></trkpt>
      <trkpt lat="28.026043" lon="98.623457"><time>2026-04-28T11:14:23.553Z</time></trkpt>
      <trkpt lat="28.026054" lon="98.623452"><time>2026-04-28T11:14:23.569Z</time></trkpt>
      <trkpt lat="28.026054" lon="98.623452"><time>2026-04-28T11:14:23.586Z</time></trkpt>
      <trkpt lat="28.026054" lon="98.623452"><time>2026-04-28T11:14:23.603Z</time></trkpt>
      <trkpt lat="28.026054" lon="98.623452"><time>2026-04-28T11:14:23.619Z</time></trkpt>
      <trkpt lat="28.026054" lon="98.623452"><time>2026-04-28T11:14:23.636Z</time></trkpt>
      <trkpt lat="28.026054" lon="98.623452"><time>2026-04-28T11:14:23.653Z</time></trkpt>
      <trkpt lat="28.026065" lon="98.623446"><time>2026-04-28T11:14:23.669Z</time></trkpt>
      <trkpt lat="28.026065" lon="98.623446"><time>2026-04-28T11:14:23.686Z</time></trkpt>
      <trkpt lat="28.026065" lon="98.623446"><time>2026-04-28T11:14:23.703Z</time></trkpt>
      <trkpt lat="28.026065" lon="98.623446"><time>2026-04-28T11:14:23.719Z</time></trkpt>
      <trkpt lat="28.026065" lon="98.623446"><time>2026-04-28T11:14:23.736Z</time></trkpt>
      <trkpt lat="28.026065" lon="98.623446"><time>2026-04-28T11:14:23.753Z</time></trkpt>
      <trkpt lat="28.026075" lon="98.623441"><time>2026-04-28T11:14:23.769Z</time></trkpt>
      <trkpt lat="28.026075" lon="98.623441"><time>2026-04-28T11:14:23.786Z</time></trkpt>
      <trkpt lat="28.026075" lon="98.623441"><time>2026-04-28T11:14:23.803Z</time></trkpt>
      <trkpt lat="28.026075" lon="98.623441"><time>2026-04-28T11:14:23.819Z</time></trkpt>
      <trkpt lat="28.026075" lon="98.623441"><time>2026-04-28T11:14:23.836Z</time></trkpt>
      <trkpt lat="28.026075" lon="98.623441"><time>2026-04-28T11:14:23.853Z</time></trkpt>
      <trkpt lat="28.026086" lon="98.623435"><time>2026-04-28T11:14:23.870Z</time></trkpt>
      <trkpt lat="28.026086" lon="98.623435"><time>2026-04-28T11:14:23.886Z</time></trkpt>
      <trkpt lat="28.026086" lon="98.623435"><time>2026-04-28T11:14:23.903Z</time></trkpt>
      <trkpt lat="28.026086" lon="98.623435"><time>2026-04-28T11:14:23.920Z</time></trkpt>
      <trkpt lat="28.026086" lon="98.623435"><time>2026-04-28T11:14:23.936Z</time></trkpt>
      <trkpt lat="28.026086" lon="98.623435"><time>2026-04-28T11:14:23.953Z</time></trkpt>
      <trkpt lat="28.026098" lon="98.62343"><time>2026-04-28T11:14:23.970Z</time></trkpt>
      <trkpt lat="28.026098" lon="98.62343"><time>2026-04-28T11:14:23.986Z</time></trkpt>
      <trkpt lat="28.026098" lon="98.62343"><time>2026-04-28T11:14:24.003Z</time></trkpt>
      <trkpt lat="28.026098" lon="98.62343"><time>2026-04-28T11:14:24.020Z</time></trkpt>
      <trkpt lat="28.026098" lon="98.62343"><time>2026-04-28T11:14:24.036Z</time></trkpt>
      <trkpt lat="28.026098" lon="98.62343"><time>2026-04-28T11:14:24.053Z</time></trkpt>
      <trkpt lat="28.026109" lon="98.623424"><time>2026-04-28T11:14:24.070Z</time></trkpt>
      <trkpt lat="28.026109" lon="98.623424"><time>2026-04-28T11:14:24.086Z</time></trkpt>
      <trkpt lat="28.026109" lon="98.623424"><time>2026-04-28T11:14:24.103Z</time></trkpt>
      <trkpt lat="28.026109" lon="98.623424"><time>2026-04-28T11:14:24.120Z</time></trkpt>
      <trkpt lat="28.026109" lon="98.623424"><time>2026-04-28T11:14:24.136Z</time></trkpt>
      <trkpt lat="28.026109" lon="98.623424"><time>2026-04-28T11:14:24.153Z</time></trkpt>
      <trkpt lat="28.026121" lon="98.623418"><time>2026-04-28T11:14:24.170Z</time></trkpt>
      <trkpt lat="28.026121" lon="98.623418"><time>2026-04-28T11:14:24.187Z</time></trkpt>
      <trkpt lat="28.026121" lon="98.623418"><time>2026-04-28T11:14:24.203Z</time></trkpt>
      <trkpt lat="28.026121" lon="98.623418"><time>2026-04-28T11:14:24.220Z</time></trkpt>
      <trkpt lat="28.026121" lon="98.623418"><time>2026-04-28T11:14:24.237Z</time></trkpt>
      <trkpt lat="28.026121" lon="98.623418"><time>2026-04-28T11:14:24.253Z</time></trkpt>
      <trkpt lat="28.026133" lon="98.623412"><time>2026-04-28T11:14:24.270Z</time></trkpt>
      <trkpt lat="28.026133" lon="98.623412"><time>2026-04-28T11:14:24.287Z</time></trkpt>
      <trkpt lat="28.026133" lon="98.623412"><time>2026-04-28T11:14:24.303Z</time></trkpt>
      <trkpt lat="28.026133" lon="98.623412"><time>2026-04-28T11:14:24.320Z</time></trkpt>
      <trkpt lat="28.026133" lon="98.623412"><time>2026-04-28T11:14:24.337Z</time></trkpt>
      <trkpt lat="28.026133" lon="98.623412"><time>2026-04-28T11:14:24.353Z</time></trkpt>
      <trkpt lat="28.026145" lon="98.623406"><time>2026-04-28T11:14:24.370Z</time></trkpt>
      <trkpt lat="28.026145" lon="98.623406"><time>2026-04-28T11:14:24.387Z</time></trkpt>
      <trkpt lat="28.026145" lon="98.623406"><time>2026-04-28T11:14:24.403Z</time></trkpt>
      <trkpt lat="28.026145" lon="98.623406"><time>2026-04-28T11:14:24.420Z</time></trkpt>
      <trkpt lat="28.026145" lon="98.623406"><time>2026-04-28T11:14:24.437Z</time></trkpt>
      <trkpt lat="28.026145" lon="98.623406"><time>2026-04-28T11:14:24.453Z</time></trkpt>
      <trkpt lat="28.026157" lon="98.6234"><time>2026-04-28T11:14:24.470Z</time></trkpt>
      <trkpt lat="28.026157" lon="98.6234"><time>2026-04-28T11:14:24.487Z</time></trkpt>
      <trkpt lat="28.026157" lon="98.6234"><time>2026-04-28T11:14:24.504Z</time></trkpt>
      <trkpt lat="28.026157" lon="98.6234"><time>2026-04-28T11:14:24.520Z</time></trkpt>
      <trkpt lat="28.026157" lon="98.6234"><time>2026-04-28T11:14:24.537Z</time></trkpt>
      <trkpt lat="28.026157" lon="98.6234"><time>2026-04-28T11:14:24.554Z</time></trkpt>
      <trkpt lat="28.026169" lon="98.623393"><time>2026-04-28T11:14:24.570Z</time></trkpt>
      <trkpt lat="28.026169" lon="98.623393"><time>2026-04-28T11:14:24.587Z</time></trkpt>
      <trkpt lat="28.026169" lon="98.623393"><time>2026-04-28T11:14:24.604Z</time></trkpt>
      <trkpt lat="28.026169" lon="98.623393"><time>2026-04-28T11:14:24.620Z</time></trkpt>
      <trkpt lat="28.026169" lon="98.623393"><time>2026-04-28T11:14:24.637Z</time></trkpt>
      <trkpt lat="28.026169" lon="98.623393"><time>2026-04-28T11:14:24.654Z</time></trkpt>
      <trkpt lat="28.026181" lon="98.623387"><time>2026-04-28T11:14:24.670Z</time></trkpt>
      <trkpt lat="28.026181" lon="98.623387"><time>2026-04-28T11:14:24.687Z</time></trkpt>
      <trkpt lat="28.026181" lon="98.623387"><time>2026-04-28T11:14:24.704Z</time></trkpt>
      <trkpt lat="28.026181" lon="98.623387"><time>2026-04-28T11:14:24.720Z</time></trkpt>
      <trkpt lat="28.026181" lon="98.623387"><time>2026-04-28T11:14:24.737Z</time></trkpt>
      <trkpt lat="28.026181" lon="98.623387"><time>2026-04-28T11:14:24.754Z</time></trkpt>
      <trkpt lat="28.026194" lon="98.623381"><time>2026-04-28T11:14:24.770Z</time></trkpt>
      <trkpt lat="28.026194" lon="98.623381"><time>2026-04-28T11:14:24.787Z</time></trkpt>
      <trkpt lat="28.026194" lon="98.623381"><time>2026-04-28T11:14:24.804Z</time></trkpt>
      <trkpt lat="28.026194" lon="98.623381"><time>2026-04-28T11:14:24.821Z</time></trkpt>
      <trkpt lat="28.026194" lon="98.623381"><time>2026-04-28T11:14:24.837Z</time></trkpt>
      <trkpt lat="28.026194" lon="98.623381"><time>2026-04-28T11:14:24.854Z</time></trkpt>
      <trkpt lat="28.026206" lon="98.623375"><time>2026-04-28T11:14:24.871Z</time></trkpt>
      <trkpt lat="28.026206" lon="98.623375"><time>2026-04-28T11:14:24.887Z</time></trkpt>
      <trkpt lat="28.026206" lon="98.623375"><time>2026-04-28T11:14:24.904Z</time></trkpt>
      <trkpt lat="28.026206" lon="98.623375"><time>2026-04-28T11:14:24.921Z</time></trkpt>
      <trkpt lat="28.026206" lon="98.623375"><time>2026-04-28T11:14:24.937Z</time></trkpt>
      <trkpt lat="28.026206" lon="98.623375"><time>2026-04-28T11:14:24.954Z</time></trkpt>
      <trkpt lat="28.026219" lon="98.623368"><time>2026-04-28T11:14:24.971Z</time></trkpt>
      <trkpt lat="28.026219" lon="98.623368"><time>2026-04-28T11:14:24.987Z</time></trkpt>
      <trkpt lat="28.026219" lon="98.623368"><time>2026-04-28T11:14:25.004Z</time></trkpt>
      <trkpt lat="28.026219" lon="98.623368"><time>2026-04-28T11:14:25.021Z</time></trkpt>
      <trkpt lat="28.026219" lon="98.623368"><time>2026-04-28T11:14:25.037Z</time></trkpt>
      <trkpt lat="28.026219" lon="98.623368"><time>2026-04-28T11:14:25.054Z</time></trkpt>
      <trkpt lat="28.026231" lon="98.623362"><time>2026-04-28T11:14:25.071Z</time></trkpt>
      <trkpt lat="28.026231" lon="98.623362"><time>2026-04-28T11:14:25.087Z</time></trkpt>
      <trkpt lat="28.026231" lon="98.623362"><time>2026-04-28T11:14:25.104Z</time></trkpt>
      <trkpt lat="28.026231" lon="98.623362"><time>2026-04-28T11:14:25.121Z</time></trkpt>
      <trkpt lat="28.026231" lon="98.623362"><time>2026-04-28T11:14:25.138Z</time></trkpt>
      <trkpt lat="28.026231" lon="98.623362"><time>2026-04-28T11:14:25.154Z</time></trkpt>
      <trkpt lat="28.026244" lon="98.623355"><time>2026-04-28T11:14:25.171Z</time></trkpt>
      <trkpt lat="28.026244" lon="98.623355"><time>2026-04-28T11:14:25.188Z</time></trkpt>
      <trkpt lat="28.026244" lon="98.623355"><time>2026-04-28T11:14:25.204Z</time></trkpt>
      <trkpt lat="28.026244" lon="98.623355"><time>2026-04-28T11:14:25.221Z</time></trkpt>
      <trkpt lat="28.026244" lon="98.623355"><time>2026-04-28T11:14:25.238Z</time></trkpt>
      <trkpt lat="28.026244" lon="98.623355"><time>2026-04-28T11:14:25.254Z</time></trkpt>
      <trkpt lat="28.026257" lon="98.623349"><time>2026-04-28T11:14:25.271Z</time></trkpt>
      <trkpt lat="28.026257" lon="98.623349"><time>2026-04-28T11:14:25.288Z</time></trkpt>
      <trkpt lat="28.026257" lon="98.623349"><time>2026-04-28T11:14:25.304Z</time></trkpt>
      <trkpt lat="28.026257" lon="98.623349"><time>2026-04-28T11:14:25.321Z</time></trkpt>
      <trkpt lat="28.026257" lon="98.623349"><time>2026-04-28T11:14:25.338Z</time></trkpt>
      <trkpt lat="28.026257" lon="98.623349"><time>2026-04-28T11:14:25.354Z</time></trkpt>
      <trkpt lat="28.02627" lon="98.623342"><time>2026-04-28T11:14:25.371Z</time></trkpt>
      <trkpt lat="28.02627" lon="98.623342"><time>2026-04-28T11:14:25.388Z</time></trkpt>
      <trkpt lat="28.02627" lon="98.623342"><time>2026-04-28T11:14:25.404Z</time></trkpt>
      <trkpt lat="28.02627" lon="98.623342"><time>2026-04-28T11:14:25.421Z</time></trkpt>
      <trkpt lat="28.02627" lon="98.623342"><time>2026-04-28T11:14:25.438Z</time></trkpt>
      <trkpt lat="28.02627" lon="98.623342"><time>2026-04-28T11:14:25.455Z</time></trkpt>
      <trkpt lat="28.026283" lon="98.623336"><time>2026-04-28T11:14:25.471Z</time></trkpt>
      <trkpt lat="28.026283" lon="98.623336"><time>2026-04-28T11:14:25.488Z</time></trkpt>
      <trkpt lat="28.026283" lon="98.623336"><time>2026-04-28T11:14:25.505Z</time></trkpt>
      <trkpt lat="28.026283" lon="98.623336"><time>2026-04-28T11:14:25.521Z</time></trkpt>
      <trkpt lat="28.026283" lon="98.623336"><time>2026-04-28T11:14:25.538Z</time></trkpt>
      <trkpt lat="28.026283" lon="98.623336"><time>2026-04-28T11:14:25.555Z</time></trkpt>
      <trkpt lat="28.026296" lon="98.623329"><time>2026-04-28T11:14:25.571Z</time></trkpt>
      <trkpt lat="28.026296" lon="98.623329"><time>2026-04-28T11:14:25.588Z</time></trkpt>
      <trkpt lat="28.026296" lon="98.623329"><time>2026-04-28T11:14:25.605Z</time></trkpt>
      <trkpt lat="28.026296" lon="98.623329"><time>2026-04-28T11:14:25.621Z</time></trkpt>
      <trkpt lat="28.026296" lon="98.623329"><time>2026-04-28T11:14:25.638Z</time></trkpt>
      <trkpt lat="28.026296" lon="98.623329"><time>2026-04-28T11:14:25.655Z</time></trkpt>
      <trkpt lat="28.026309" lon="98.623323"><time>2026-04-28T11:14:25.671Z</time></trkpt>
      <trkpt lat="28.026309" lon="98.623323"><time>2026-04-28T11:14:25.688Z</time></trkpt>
      <trkpt lat="28.026309" lon="98.623323"><time>2026-04-28T11:14:25.705Z</time></trkpt>
      <trkpt lat="28.026309" lon="98.623323"><time>2026-04-28T11:14:25.721Z</time></trkpt>
      <trkpt lat="28.026309" lon="98.623323"><time>2026-04-28T11:14:25.738Z</time></trkpt>
      <trkpt lat="28.026309" lon="98.623323"><time>2026-04-28T11:14:25.755Z</time></trkpt>
      <trkpt lat="28.026322" lon="98.623316"><time>2026-04-28T11:14:25.772Z</time></trkpt>
      <trkpt lat="28.026322" lon="98.623316"><time>2026-04-28T11:14:25.788Z</time></trkpt>
      <trkpt lat="28.026322" lon="98.623316"><time>2026-04-28T11:14:25.805Z</time></trkpt>
      <trkpt lat="28.026322" lon="98.623316"><time>2026-04-28T11:14:25.822Z</time></trkpt>
      <trkpt lat="28.026322" lon="98.623316"><time>2026-04-28T11:14:25.838Z</time></trkpt>
      <trkpt lat="28.026322" lon="98.623316"><time>2026-04-28T11:14:25.855Z</time></trkpt>
      <trkpt lat="28.026336" lon="98.623309"><time>2026-04-28T11:14:25.872Z</time></trkpt>
      <trkpt lat="28.026336" lon="98.623309"><time>2026-04-28T11:14:25.888Z</time></trkpt>
      <trkpt lat="28.026336" lon="98.623309"><time>2026-04-28T11:14:25.905Z</time></trkpt>
      <trkpt lat="28.026336" lon="98.623309"><time>2026-04-28T11:14:25.922Z</time></trkpt>
      <trkpt lat="28.026336" lon="98.623309"><time>2026-04-28T11:14:25.938Z</time></trkpt>
      <trkpt lat="28.026336" lon="98.623309"><time>2026-04-28T11:14:25.955Z</time></trkpt>
      <trkpt lat="28.026349" lon="98.623302"><time>2026-04-28T11:14:25.972Z</time></trkpt>
      <trkpt lat="28.026349" lon="98.623302"><time>2026-04-28T11:14:25.988Z</time></trkpt>
      <trkpt lat="28.026349" lon="98.623302"><time>2026-04-28T11:14:26.005Z</time></trkpt>
      <trkpt lat="28.026349" lon="98.623302"><time>2026-04-28T11:14:26.022Z</time></trkpt>
      <trkpt lat="28.026349" lon="98.623302"><time>2026-04-28T11:14:26.038Z</time></trkpt>
      <trkpt lat="28.026349" lon="98.623302"><time>2026-04-28T11:14:26.055Z</time></trkpt>
      <trkpt lat="28.026363" lon="98.623296"><time>2026-04-28T11:14:26.072Z</time></trkpt>
      <trkpt lat="28.026363" lon="98.623296"><time>2026-04-28T11:14:26.089Z</time></trkpt>
      <trkpt lat="28.026363" lon="98.623296"><time>2026-04-28T11:14:26.105Z</time></trkpt>
      <trkpt lat="28.026363" lon="98.623296"><time>2026-04-28T11:14:26.122Z</time></trkpt>
      <trkpt lat="28.026363" lon="98.623296"><time>2026-04-28T11:14:26.139Z</time></trkpt>
      <trkpt lat="28.026363" lon="98.623296"><time>2026-04-28T11:14:26.155Z</time></trkpt>
      <trkpt lat="28.026376" lon="98.623289"><time>2026-04-28T11:14:26.172Z</time></trkpt>
      <trkpt lat="28.026376" lon="98.623289"><time>2026-04-28T11:14:26.189Z</time></trkpt>
      <trkpt lat="28.026376" lon="98.623289"><time>2026-04-28T11:14:26.205Z</time></trkpt>
      <trkpt lat="28.026376" lon="98.623289"><time>2026-04-28T11:14:26.222Z</time></trkpt>
      <trkpt lat="28.026376" lon="98.623289"><time>2026-04-28T11:14:26.239Z</time></trkpt>
      <trkpt lat="28.026376" lon="98.623289"><time>2026-04-28T11:14:26.255Z</time></trkpt>
      <trkpt lat="28.026389" lon="98.623282"><time>2026-04-28T11:14:26.272Z</time></trkpt>
      <trkpt lat="28.026389" lon="98.623282"><time>2026-04-28T11:14:26.289Z</time></trkpt>
      <trkpt lat="28.026389" lon="98.623282"><time>2026-04-28T11:14:26.305Z</time></trkpt>
      <trkpt lat="28.026389" lon="98.623282"><time>2026-04-28T11:14:26.322Z</time></trkpt>
      <trkpt lat="28.026389" lon="98.623282"><time>2026-04-28T11:14:26.339Z</time></trkpt>
      <trkpt lat="28.026389" lon="98.623282"><time>2026-04-28T11:14:26.355Z</time></trkpt>
      <trkpt lat="28.026403" lon="98.623275"><time>2026-04-28T11:14:26.372Z</time></trkpt>
      <trkpt lat="28.026403" lon="98.623275"><time>2026-04-28T11:14:26.389Z</time></trkpt>
      <trkpt lat="28.026403" lon="98.623275"><time>2026-04-28T11:14:26.406Z</time></trkpt>
      <trkpt lat="28.026403" lon="98.623275"><time>2026-04-28T11:14:26.422Z</time></trkpt>
      <trkpt lat="28.026403" lon="98.623275"><time>2026-04-28T11:14:26.439Z</time></trkpt>
      <trkpt lat="28.026403" lon="98.623275"><time>2026-04-28T11:14:26.456Z</time></trkpt>
      <trkpt lat="28.026416" lon="98.623269"><time>2026-04-28T11:14:26.472Z</time></trkpt>
      <trkpt lat="28.026416" lon="98.623269"><time>2026-04-28T11:14:26.489Z</time></trkpt>
      <trkpt lat="28.026416" lon="98.623269"><time>2026-04-28T11:14:26.506Z</time></trkpt>
      <trkpt lat="28.026416" lon="98.623269"><time>2026-04-28T11:14:26.522Z</time></trkpt>
      <trkpt lat="28.026416" lon="98.623269"><time>2026-04-28T11:14:26.539Z</time></trkpt>
      <trkpt lat="28.026416" lon="98.623269"><time>2026-04-28T11:14:26.556Z</time></trkpt>
      <trkpt lat="28.02643" lon="98.623261"><time>2026-04-28T11:14:26.572Z</time></trkpt>
      <trkpt lat="28.02643" lon="98.623261"><time>2026-04-28T11:14:26.589Z</time></trkpt>
      <trkpt lat="28.02643" lon="98.623261"><time>2026-04-28T11:14:26.606Z</time></trkpt>
      <trkpt lat="28.02643" lon="98.623261"><time>2026-04-28T11:14:26.622Z</time></trkpt>
      <trkpt lat="28.02643" lon="98.623261"><time>2026-04-28T11:14:26.639Z</time></trkpt>
      <trkpt lat="28.02643" lon="98.623261"><time>2026-04-28T11:14:26.656Z</time></trkpt>
      <trkpt lat="28.026444" lon="98.623254"><time>2026-04-28T11:14:26.672Z</time></trkpt>
      <trkpt lat="28.026444" lon="98.623254"><time>2026-04-28T11:14:26.689Z</time></trkpt>
      <trkpt lat="28.026444" lon="98.623254"><time>2026-04-28T11:14:26.706Z</time></trkpt>
      <trkpt lat="28.026444" lon="98.623254"><time>2026-04-28T11:14:26.723Z</time></trkpt>
      <trkpt lat="28.026444" lon="98.623254"><time>2026-04-28T11:14:26.739Z</time></trkpt>
      <trkpt lat="28.026444" lon="98.623254"><time>2026-04-28T11:14:26.756Z</time></trkpt>
      <trkpt lat="28.026457" lon="98.623247"><time>2026-04-28T11:14:26.773Z</time></trkpt>
      <trkpt lat="28.026457" lon="98.623247"><time>2026-04-28T11:14:26.789Z</time></trkpt>
      <trkpt lat="28.026457" lon="98.623247"><time>2026-04-28T11:14:26.806Z</time></trkpt>
      <trkpt lat="28.026457" lon="98.623247"><time>2026-04-28T11:14:26.823Z</time></trkpt>
      <trkpt lat="28.026457" lon="98.623247"><time>2026-04-28T11:14:26.839Z</time></trkpt>
      <trkpt lat="28.026457" lon="98.623247"><time>2026-04-28T11:14:26.856Z</time></trkpt>
      <trkpt lat="28.02647" lon="98.623237"><time>2026-04-28T11:14:26.873Z</time></trkpt>
      <trkpt lat="28.02647" lon="98.623237"><time>2026-04-28T11:14:26.889Z</time></trkpt>
      <trkpt lat="28.02647" lon="98.623237"><time>2026-04-28T11:14:26.906Z</time></trkpt>
      <trkpt lat="28.02647" lon="98.623237"><time>2026-04-28T11:14:26.923Z</time></trkpt>
      <trkpt lat="28.02647" lon="98.623237"><time>2026-04-28T11:14:26.939Z</time></trkpt>
      <trkpt lat="28.02647" lon="98.623237"><time>2026-04-28T11:14:26.956Z</time></trkpt>
      <trkpt lat="28.026484" lon="98.62323"><time>2026-04-28T11:14:26.973Z</time></trkpt>
      <trkpt lat="28.026484" lon="98.62323"><time>2026-04-28T11:14:26.989Z</time></trkpt>
      <trkpt lat="28.026484" lon="98.62323"><time>2026-04-28T11:14:27.006Z</time></trkpt>
      <trkpt lat="28.026484" lon="98.62323"><time>2026-04-28T11:14:27.023Z</time></trkpt>
      <trkpt lat="28.026484" lon="98.62323"><time>2026-04-28T11:14:27.040Z</time></trkpt>
      <trkpt lat="28.026484" lon="98.62323"><time>2026-04-28T11:14:27.056Z</time></trkpt>
      <trkpt lat="28.026498" lon="98.623223"><time>2026-04-28T11:14:27.073Z</time></trkpt>
      <trkpt lat="28.026498" lon="98.623223"><time>2026-04-28T11:14:27.090Z</time></trkpt>
      <trkpt lat="28.026498" lon="98.623223"><time>2026-04-28T11:14:27.106Z</time></trkpt>
      <trkpt lat="28.026498" lon="98.623223"><time>2026-04-28T11:14:27.123Z</time></trkpt>
      <trkpt lat="28.026498" lon="98.623223"><time>2026-04-28T11:14:27.140Z</time></trkpt>
      <trkpt lat="28.026498" lon="98.623223"><time>2026-04-28T11:14:27.156Z</time></trkpt>
      <trkpt lat="28.026512" lon="98.623215"><time>2026-04-28T11:14:27.173Z</time></trkpt>
      <trkpt lat="28.026512" lon="98.623215"><time>2026-04-28T11:14:27.190Z</time></trkpt>
      <trkpt lat="28.026512" lon="98.623215"><time>2026-04-28T11:14:27.206Z</time></trkpt>
      <trkpt lat="28.026512" lon="98.623215"><time>2026-04-28T11:14:27.223Z</time></trkpt>
      <trkpt lat="28.026512" lon="98.623215"><time>2026-04-28T11:14:27.240Z</time></trkpt>
      <trkpt lat="28.026512" lon="98.623215"><time>2026-04-28T11:14:27.256Z</time></trkpt>
      <trkpt lat="28.026526" lon="98.623208"><time>2026-04-28T11:14:27.273Z</time></trkpt>
      <trkpt lat="28.026526" lon="98.623208"><time>2026-04-28T11:14:27.290Z</time></trkpt>
      <trkpt lat="28.026526" lon="98.623208"><time>2026-04-28T11:14:27.306Z</time></trkpt>
      <trkpt lat="28.026526" lon="98.623208"><time>2026-04-28T11:14:27.323Z</time></trkpt>
      <trkpt lat="28.026526" lon="98.623208"><time>2026-04-28T11:14:27.340Z</time></trkpt>
      <trkpt lat="28.026526" lon="98.623208"><time>2026-04-28T11:14:27.357Z</time></trkpt>
      <trkpt lat="28.02654" lon="98.6232"><time>2026-04-28T11:14:27.373Z</time></trkpt>
      <trkpt lat="28.02654" lon="98.6232"><time>2026-04-28T11:14:27.390Z</time></trkpt>
      <trkpt lat="28.02654" lon="98.6232"><time>2026-04-28T11:14:27.407Z</time></trkpt>
      <trkpt lat="28.02654" lon="98.6232"><time>2026-04-28T11:14:27.423Z</time></trkpt>
      <trkpt lat="28.02654" lon="98.6232"><time>2026-04-28T11:14:27.440Z</time></trkpt>
      <trkpt lat="28.02654" lon="98.6232"><time>2026-04-28T11:14:27.457Z</time></trkpt>
      <trkpt lat="28.026555" lon="98.623193"><time>2026-04-28T11:14:27.473Z</time></trkpt>
      <trkpt lat="28.026555" lon="98.623193"><time>2026-04-28T11:14:27.490Z</time></trkpt>
      <trkpt lat="28.026555" lon="98.623193"><time>2026-04-28T11:14:27.507Z</time></trkpt>
      <trkpt lat="28.026555" lon="98.623193"><time>2026-04-28T11:14:27.523Z</time></trkpt>
      <trkpt lat="28.026555" lon="98.623193"><time>2026-04-28T11:14:27.540Z</time></trkpt>
      <trkpt lat="28.026555" lon="98.623193"><time>2026-04-28T11:14:27.557Z</time></trkpt>
      <trkpt lat="28.026569" lon="98.623185"><time>2026-04-28T11:14:27.573Z</time></trkpt>
      <trkpt lat="28.026569" lon="98.623185"><time>2026-04-28T11:14:27.590Z</time></trkpt>
      <trkpt lat="28.026569" lon="98.623185"><time>2026-04-28T11:14:27.607Z</time></trkpt>
      <trkpt lat="28.026569" lon="98.623185"><time>2026-04-28T11:14:27.623Z</time></trkpt>
      <trkpt lat="28.026569" lon="98.623185"><time>2026-04-28T11:14:27.640Z</time></trkpt>
      <trkpt lat="28.026569" lon="98.623185"><time>2026-04-28T11:14:27.657Z</time></trkpt>
      <trkpt lat="28.026583" lon="98.623178"><time>2026-04-28T11:14:27.674Z</time></trkpt>
      <trkpt lat="28.026583" lon="98.623178"><time>2026-04-28T11:14:27.690Z</time></trkpt>
      <trkpt lat="28.026583" lon="98.623178"><time>2026-04-28T11:14:27.707Z</time></trkpt>
      <trkpt lat="28.026583" lon="98.623178"><time>2026-04-28T11:14:27.724Z</time></trkpt>
      <trkpt lat="28.026583" lon="98.623178"><time>2026-04-28T11:14:27.740Z</time></trkpt>
      <trkpt lat="28.026583" lon="98.623178"><time>2026-04-28T11:14:27.757Z</time></trkpt>
      <trkpt lat="28.026597" lon="98.62317"><time>2026-04-28T11:14:27.774Z</time></trkpt>
      <trkpt lat="28.026597" lon="98.62317"><time>2026-04-28T11:14:27.790Z</time></trkpt>
      <trkpt lat="28.026597" lon="98.62317"><time>2026-04-28T11:14:27.807Z</time></trkpt>
      <trkpt lat="28.026597" lon="98.62317"><time>2026-04-28T11:14:27.824Z</time></trkpt>
      <trkpt lat="28.026597" lon="98.62317"><time>2026-04-28T11:14:27.840Z</time></trkpt>
      <trkpt lat="28.026597" lon="98.62317"><time>2026-04-28T11:14:27.857Z</time></trkpt>
      <trkpt lat="28.026612" lon="98.623163"><time>2026-04-28T11:14:27.874Z</time></trkpt>
      <trkpt lat="28.026612" lon="98.623163"><time>2026-04-28T11:14:27.890Z</time></trkpt>
      <trkpt lat="28.026612" lon="98.623163"><time>2026-04-28T11:14:27.907Z</time></trkpt>
      <trkpt lat="28.026612" lon="98.623163"><time>2026-04-28T11:14:27.924Z</time></trkpt>
      <trkpt lat="28.026612" lon="98.623163"><time>2026-04-28T11:14:27.940Z</time></trkpt>
      <trkpt lat="28.026612" lon="98.623163"><time>2026-04-28T11:14:27.957Z</time></trkpt>
      <trkpt lat="28.026626" lon="98.623155"><time>2026-04-28T11:14:27.974Z</time></trkpt>
      <trkpt lat="28.026626" lon="98.623155"><time>2026-04-28T11:14:27.990Z</time></trkpt>
      <trkpt lat="28.026626" lon="98.623155"><time>2026-04-28T11:14:28.007Z</time></trkpt>
      <trkpt lat="28.026626" lon="98.623155"><time>2026-04-28T11:14:28.024Z</time></trkpt>
      <trkpt lat="28.026626" lon="98.623155"><time>2026-04-28T11:14:28.041Z</time></trkpt>
      <trkpt lat="28.026626" lon="98.623155"><time>2026-04-28T11:14:28.057Z</time></trkpt>
      <trkpt lat="28.02664" lon="98.623148"><time>2026-04-28T11:14:28.074Z</time></trkpt>
      <trkpt lat="28.02664" lon="98.623148"><time>2026-04-28T11:14:28.091Z</time></trkpt>
      <trkpt lat="28.02664" lon="98.623148"><time>2026-04-28T11:14:28.107Z</time></trkpt>
      <trkpt lat="28.02664" lon="98.623148"><time>2026-04-28T11:14:28.124Z</time></trkpt>
      <trkpt lat="28.02664" lon="98.623148"><time>2026-04-28T11:14:28.141Z</time></trkpt>
      <trkpt lat="28.02664" lon="98.623148"><time>2026-04-28T11:14:28.157Z</time></trkpt>
      <trkpt lat="28.026654" lon="98.62314"><time>2026-04-28T11:14:28.174Z</time></trkpt>
      <trkpt lat="28.026654" lon="98.62314"><time>2026-04-28T11:14:28.191Z</time></trkpt>
      <trkpt lat="28.026654" lon="98.62314"><time>2026-04-28T11:14:28.207Z</time></trkpt>
      <trkpt lat="28.026654" lon="98.62314"><time>2026-04-28T11:14:28.224Z</time></trkpt>
      <trkpt lat="28.026654" lon="98.62314"><time>2026-04-28T11:14:28.241Z</time></trkpt>
      <trkpt lat="28.026654" lon="98.62314"><time>2026-04-28T11:14:28.257Z</time></trkpt>
      <trkpt lat="28.026668" lon="98.623133"><time>2026-04-28T11:14:28.274Z</time></trkpt>
      <trkpt lat="28.026668" lon="98.623133"><time>2026-04-28T11:14:28.291Z</time></trkpt>
      <trkpt lat="28.026668" lon="98.623133"><time>2026-04-28T11:14:28.307Z</time></trkpt>
      <trkpt lat="28.026668" lon="98.623133"><time>2026-04-28T11:14:28.324Z</time></trkpt>
      <trkpt lat="28.026668" lon="98.623133"><time>2026-04-28T11:14:28.341Z</time></trkpt>
      <trkpt lat="28.026668" lon="98.623133"><time>2026-04-28T11:14:28.358Z</time></trkpt>
      <trkpt lat="28.026683" lon="98.623125"><time>2026-04-28T11:14:28.374Z</time></trkpt>
      <trkpt lat="28.026683" lon="98.623125"><time>2026-04-28T11:14:28.391Z</time></trkpt>
      <trkpt lat="28.026683" lon="98.623125"><time>2026-04-28T11:14:28.408Z</time></trkpt>
      <trkpt lat="28.026683" lon="98.623125"><time>2026-04-28T11:14:28.424Z</time></trkpt>
      <trkpt lat="28.026683" lon="98.623125"><time>2026-04-28T11:14:28.441Z</time></trkpt>
      <trkpt lat="28.026683" lon="98.623125"><time>2026-04-28T11:14:28.458Z</time></trkpt>
      <trkpt lat="28.026697" lon="98.623117"><time>2026-04-28T11:14:28.474Z</time></trkpt>
      <trkpt lat="28.026697" lon="98.623117"><time>2026-04-28T11:14:28.491Z</time></trkpt>
      <trkpt lat="28.026697" lon="98.623117"><time>2026-04-28T11:14:28.508Z</time></trkpt>
      <trkpt lat="28.026697" lon="98.623117"><time>2026-04-28T11:14:28.524Z</time></trkpt>
      <trkpt lat="28.026697" lon="98.623117"><time>2026-04-28T11:14:28.541Z</time></trkpt>
      <trkpt lat="28.026697" lon="98.623117"><time>2026-04-28T11:14:28.558Z</time></trkpt>
      <trkpt lat="28.026711" lon="98.62311"><time>2026-04-28T11:14:28.574Z</time></trkpt>
      <trkpt lat="28.026711" lon="98.62311"><time>2026-04-28T11:14:28.591Z</time></trkpt>
      <trkpt lat="28.026711" lon="98.62311"><time>2026-04-28T11:14:28.608Z</time></trkpt>
      <trkpt lat="28.026711" lon="98.62311"><time>2026-04-28T11:14:28.624Z</time></trkpt>
      <trkpt lat="28.026711" lon="98.62311"><time>2026-04-28T11:14:28.641Z</time></trkpt>
      <trkpt lat="28.026711" lon="98.62311"><time>2026-04-28T11:14:28.658Z</time></trkpt>
      <trkpt lat="28.026726" lon="98.623102"><time>2026-04-28T11:14:28.675Z</time></trkpt>
      <trkpt lat="28.026726" lon="98.623102"><time>2026-04-28T11:14:28.691Z</time></trkpt>
      <trkpt lat="28.026726" lon="98.623102"><time>2026-04-28T11:14:28.708Z</time></trkpt>
      <trkpt lat="28.026726" lon="98.623102"><time>2026-04-28T11:14:28.725Z</time></trkpt>
      <trkpt lat="28.026726" lon="98.623102"><time>2026-04-28T11:14:28.741Z</time></trkpt>
      <trkpt lat="28.026726" lon="98.623102"><time>2026-04-28T11:14:28.758Z</time></trkpt>
      <trkpt lat="28.02674" lon="98.623094"><time>2026-04-28T11:14:28.775Z</time></trkpt>
      <trkpt lat="28.02674" lon="98.623094"><time>2026-04-28T11:14:28.791Z</time></trkpt>
      <trkpt lat="28.02674" lon="98.623094"><time>2026-04-28T11:14:28.808Z</time></trkpt>
      <trkpt lat="28.02674" lon="98.623094"><time>2026-04-28T11:14:28.825Z</time></trkpt>
      <trkpt lat="28.02674" lon="98.623094"><time>2026-04-28T11:14:28.841Z</time></trkpt>
      <trkpt lat="28.02674" lon="98.623094"><time>2026-04-28T11:14:28.858Z</time></trkpt>
      <trkpt lat="28.026754" lon="98.623087"><time>2026-04-28T11:14:28.875Z</time></trkpt>
      <trkpt lat="28.026754" lon="98.623087"><time>2026-04-28T11:14:28.891Z</time></trkpt>
      <trkpt lat="28.026754" lon="98.623087"><time>2026-04-28T11:14:28.908Z</time></trkpt>
      <trkpt lat="28.026754" lon="98.623087"><time>2026-04-28T11:14:28.925Z</time></trkpt>
      <trkpt lat="28.026754" lon="98.623087"><time>2026-04-28T11:14:28.941Z</time></trkpt>
      <trkpt lat="28.026754" lon="98.623087"><time>2026-04-28T11:14:28.958Z</time></trkpt>
      <trkpt lat="28.026768" lon="98.623079"><time>2026-04-28T11:14:28.975Z</time></trkpt>
      <trkpt lat="28.026768" lon="98.623079"><time>2026-04-28T11:14:28.992Z</time></trkpt>
      <trkpt lat="28.026768" lon="98.623079"><time>2026-04-28T11:14:29.008Z</time></trkpt>
      <trkpt lat="28.026768" lon="98.623079"><time>2026-04-28T11:14:29.025Z</time></trkpt>
      <trkpt lat="28.026768" lon="98.623079"><time>2026-04-28T11:14:29.042Z</time></trkpt>
      <trkpt lat="28.026768" lon="98.623079"><time>2026-04-28T11:14:29.058Z</time></trkpt>
      <trkpt lat="28.026783" lon="98.623072"><time>2026-04-28T11:14:29.075Z</time></trkpt>
      <trkpt lat="28.026783" lon="98.623072"><time>2026-04-28T11:14:29.092Z</time></trkpt>
      <trkpt lat="28.026783" lon="98.623072"><time>2026-04-28T11:14:29.108Z</time></trkpt>
      <trkpt lat="28.026783" lon="98.623072"><time>2026-04-28T11:14:29.125Z</time></trkpt>
      <trkpt lat="28.026783" lon="98.623072"><time>2026-04-28T11:14:29.142Z</time></trkpt>
      <trkpt lat="28.026783" lon="98.623072"><time>2026-04-28T11:14:29.158Z</time></trkpt>
      <trkpt lat="28.026797" lon="98.623064"><time>2026-04-28T11:14:29.175Z</time></trkpt>
      <trkpt lat="28.026797" lon="98.623064"><time>2026-04-28T11:14:29.192Z</time></trkpt>
      <trkpt lat="28.026797" lon="98.623064"><time>2026-04-28T11:14:29.208Z</time></trkpt>
      <trkpt lat="28.026797" lon="98.623064"><time>2026-04-28T11:14:29.225Z</time></trkpt>
      <trkpt lat="28.026797" lon="98.623064"><time>2026-04-28T11:14:29.242Z</time></trkpt>
      <trkpt lat="28.026797" lon="98.623064"><time>2026-04-28T11:14:29.258Z</time></trkpt>
      <trkpt lat="28.026811" lon="98.623056"><time>2026-04-28T11:14:29.275Z</time></trkpt>
      <trkpt lat="28.026811" lon="98.623056"><time>2026-04-28T11:14:29.292Z</time></trkpt>
      <trkpt lat="28.026811" lon="98.623056"><time>2026-04-28T11:14:29.309Z</time></trkpt>
      <trkpt lat="28.026811" lon="98.623056"><time>2026-04-28T11:14:29.325Z</time></trkpt>
      <trkpt lat="28.026811" lon="98.623056"><time>2026-04-28T11:14:29.342Z</time></trkpt>
      <trkpt lat="28.026811" lon="98.623056"><time>2026-04-28T11:14:29.359Z</time></trkpt>
      <trkpt lat="28.026826" lon="98.623049"><time>2026-04-28T11:14:29.375Z</time></trkpt>
      <trkpt lat="28.026826" lon="98.623049"><time>2026-04-28T11:14:29.392Z</time></trkpt>
      <trkpt lat="28.026826" lon="98.623049"><time>2026-04-28T11:14:29.409Z</time></trkpt>
      <trkpt lat="28.026826" lon="98.623049"><time>2026-04-28T11:14:29.425Z</time></trkpt>
      <trkpt lat="28.026826" lon="98.623049"><time>2026-04-28T11:14:29.442Z</time></trkpt>
      <trkpt lat="28.026826" lon="98.623049"><time>2026-04-28T11:14:29.459Z</time></trkpt>
      <trkpt lat="28.02684" lon="98.623041"><time>2026-04-28T11:14:29.475Z</time></trkpt>
      <trkpt lat="28.02684" lon="98.623041"><time>2026-04-28T11:14:29.492Z</time></trkpt>
      <trkpt lat="28.02684" lon="98.623041"><time>2026-04-28T11:14:29.509Z</time></trkpt>
      <trkpt lat="28.02684" lon="98.623041"><time>2026-04-28T11:14:29.525Z</time></trkpt>
      <trkpt lat="28.02684" lon="98.623041"><time>2026-04-28T11:14:29.542Z</time></trkpt>
      <trkpt lat="28.02684" lon="98.623041"><time>2026-04-28T11:14:29.559Z</time></trkpt>
      <trkpt lat="28.026854" lon="98.623033"><time>2026-04-28T11:14:29.575Z</time></trkpt>
      <trkpt lat="28.026854" lon="98.623033"><time>2026-04-28T11:14:29.592Z</time></trkpt>
      <trkpt lat="28.026854" lon="98.623033"><time>2026-04-28T11:14:29.609Z</time></trkpt>
      <trkpt lat="28.026854" lon="98.623033"><time>2026-04-28T11:14:29.626Z</time></trkpt>
      <trkpt lat="28.026854" lon="98.623033"><time>2026-04-28T11:14:29.642Z</time></trkpt>
      <trkpt lat="28.026854" lon="98.623033"><time>2026-04-28T11:14:29.659Z</time></trkpt>
      <trkpt lat="28.026869" lon="98.623026"><time>2026-04-28T11:14:29.676Z</time></trkpt>
      <trkpt lat="28.026869" lon="98.623026"><time>2026-04-28T11:14:29.692Z</time></trkpt>
      <trkpt lat="28.026869" lon="98.623026"><time>2026-04-28T11:14:29.709Z</time></trkpt>
      <trkpt lat="28.026869" lon="98.623026"><time>2026-04-28T11:14:29.726Z</time></trkpt>
      <trkpt lat="28.026869" lon="98.623026"><time>2026-04-28T11:14:29.742Z</time></trkpt>
      <trkpt lat="28.026869" lon="98.623026"><time>2026-04-28T11:14:29.759Z</time></trkpt>
      <trkpt lat="28.026883" lon="98.623018"><time>2026-04-28T11:14:29.776Z</time></trkpt>
      <trkpt lat="28.026883" lon="98.623018"><time>2026-04-28T11:14:29.792Z</time></trkpt>
      <trkpt lat="28.026883" lon="98.623018"><time>2026-04-28T11:14:29.809Z</time></trkpt>
      <trkpt lat="28.026883" lon="98.623018"><time>2026-04-28T11:14:29.826Z</time></trkpt>
      <trkpt lat="28.026883" lon="98.623018"><time>2026-04-28T11:14:29.842Z</time></trkpt>
      <trkpt lat="28.026883" lon="98.623018"><time>2026-04-28T11:14:29.859Z</time></trkpt>
      <trkpt lat="28.026897" lon="98.623011"><time>2026-04-28T11:14:29.876Z</time></trkpt>
      <trkpt lat="28.026897" lon="98.623011"><time>2026-04-28T11:14:29.892Z</time></trkpt>
      <trkpt lat="28.026897" lon="98.623011"><time>2026-04-28T11:14:29.909Z</time></trkpt>
      <trkpt lat="28.026897" lon="98.623011"><time>2026-04-28T11:14:29.926Z</time></trkpt>
      <trkpt lat="28.026897" lon="98.623011"><time>2026-04-28T11:14:29.943Z</time></trkpt>
      <trkpt lat="28.026897" lon="98.623011"><time>2026-04-28T11:14:29.959Z</time></trkpt>
      <trkpt lat="28.026912" lon="98.623003"><time>2026-04-28T11:14:29.976Z</time></trkpt>
      <trkpt lat="28.026912" lon="98.623003"><time>2026-04-28T11:14:29.993Z</time></trkpt>
      <trkpt lat="28.026912" lon="98.623003"><time>2026-04-28T11:14:30.009Z</time></trkpt>
      <trkpt lat="28.026912" lon="98.623003"><time>2026-04-28T11:14:30.026Z</time></trkpt>
      <trkpt lat="28.026912" lon="98.623003"><time>2026-04-28T11:14:30.043Z</time></trkpt>
      <trkpt lat="28.026912" lon="98.623003"><time>2026-04-28T11:14:30.059Z</time></trkpt>
      <trkpt lat="28.026926" lon="98.622995"><time>2026-04-28T11:14:30.076Z</time></trkpt>
      <trkpt lat="28.026926" lon="98.622995"><time>2026-04-28T11:14:30.093Z</time></trkpt>
      <trkpt lat="28.026926" lon="98.622995"><time>2026-04-28T11:14:30.109Z</time></trkpt>
      <trkpt lat="28.026926" lon="98.622995"><time>2026-04-28T11:14:30.126Z</time></trkpt>
      <trkpt lat="28.026926" lon="98.622995"><time>2026-04-28T11:14:30.143Z</time></trkpt>
      <trkpt lat="28.026926" lon="98.622995"><time>2026-04-28T11:14:30.159Z</time></trkpt>
      <trkpt lat="28.02694" lon="98.622988"><time>2026-04-28T11:14:30.176Z</time></trkpt>
      <trkpt lat="28.02694" lon="98.622988"><time>2026-04-28T11:14:30.193Z</time></trkpt>
      <trkpt lat="28.02694" lon="98.622988"><time>2026-04-28T11:14:30.209Z</time></trkpt>
      <trkpt lat="28.02694" lon="98.622988"><time>2026-04-28T11:14:30.226Z</time></trkpt>
      <trkpt lat="28.02694" lon="98.622988"><time>2026-04-28T11:14:30.243Z</time></trkpt>
      <trkpt lat="28.02694" lon="98.622988"><time>2026-04-28T11:14:30.260Z</time></trkpt>
      <trkpt lat="28.026955" lon="98.62298"><time>2026-04-28T11:14:30.276Z</time></trkpt>
      <trkpt lat="28.026955" lon="98.62298"><time>2026-04-28T11:14:30.293Z</time></trkpt>
      <trkpt lat="28.026955" lon="98.62298"><time>2026-04-28T11:14:30.310Z</time></trkpt>
      <trkpt lat="28.026955" lon="98.62298"><time>2026-04-28T11:14:30.326Z</time></trkpt>
      <trkpt lat="28.026955" lon="98.62298"><time>2026-04-28T11:14:30.343Z</time></trkpt>
      <trkpt lat="28.026955" lon="98.62298"><time>2026-04-28T11:14:30.360Z</time></trkpt>
      <trkpt lat="28.026969" lon="98.622972"><time>2026-04-28T11:14:30.376Z</time></trkpt>
      <trkpt lat="28.026969" lon="98.622972"><time>2026-04-28T11:14:30.393Z</time></trkpt>
      <trkpt lat="28.026969" lon="98.622972"><time>2026-04-28T11:14:30.410Z</time></trkpt>
      <trkpt lat="28.026969" lon="98.622972"><time>2026-04-28T11:14:30.426Z</time></trkpt>
      <trkpt lat="28.026969" lon="98.622972"><time>2026-04-28T11:14:30.443Z</time></trkpt>
      <trkpt lat="28.026969" lon="98.622972"><time>2026-04-28T11:14:30.460Z</time></trkpt>
      <trkpt lat="28.026984" lon="98.622965"><time>2026-04-28T11:14:30.476Z</time></trkpt>
      <trkpt lat="28.026984" lon="98.622965"><time>2026-04-28T11:14:30.493Z</time></trkpt>
      <trkpt lat="28.026984" lon="98.622965"><time>2026-04-28T11:14:30.510Z</time></trkpt>
      <trkpt lat="28.026984" lon="98.622965"><time>2026-04-28T11:14:30.526Z</time></trkpt>
      <trkpt lat="28.026984" lon="98.622965"><time>2026-04-28T11:14:30.543Z</time></trkpt>
      <trkpt lat="28.026984" lon="98.622965"><time>2026-04-28T11:14:30.560Z</time></trkpt>
      <trkpt lat="28.026998" lon="98.622957"><time>2026-04-28T11:14:30.577Z</time></trkpt>
      <trkpt lat="28.026998" lon="98.622957"><time>2026-04-28T11:14:30.593Z</time></trkpt>
      <trkpt lat="28.026998" lon="98.622957"><time>2026-04-28T11:14:30.610Z</time></trkpt>
      <trkpt lat="28.026998" lon="98.622957"><time>2026-04-28T11:14:30.627Z</time></trkpt>
      <trkpt lat="28.026998" lon="98.622957"><time>2026-04-28T11:14:30.643Z</time></trkpt>
      <trkpt lat="28.026998" lon="98.622957"><time>2026-04-28T11:14:30.660Z</time></trkpt>
      <trkpt lat="28.027013" lon="98.622949"><time>2026-04-28T11:14:30.677Z</time></trkpt>
      <trkpt lat="28.027013" lon="98.622949"><time>2026-04-28T11:14:30.693Z</time></trkpt>
      <trkpt lat="28.027013" lon="98.622949"><time>2026-04-28T11:14:30.710Z</time></trkpt>
      <trkpt lat="28.027013" lon="98.622949"><time>2026-04-28T11:14:30.727Z</time></trkpt>
      <trkpt lat="28.027013" lon="98.622949"><time>2026-04-28T11:14:30.743Z</time></trkpt>
      <trkpt lat="28.027013" lon="98.622949"><time>2026-04-28T11:14:30.760Z</time></trkpt>
      <trkpt lat="28.027027" lon="98.622941"><time>2026-04-28T11:14:30.777Z</time></trkpt>
      <trkpt lat="28.027027" lon="98.622941"><time>2026-04-28T11:14:30.793Z</time></trkpt>
      <trkpt lat="28.027027" lon="98.622941"><time>2026-04-28T11:14:30.810Z</time></trkpt>
      <trkpt lat="28.027027" lon="98.622941"><time>2026-04-28T11:14:30.827Z</time></trkpt>
      <trkpt lat="28.027027" lon="98.622941"><time>2026-04-28T11:14:30.843Z</time></trkpt>
      <trkpt lat="28.027027" lon="98.622941"><time>2026-04-28T11:14:30.860Z</time></trkpt>
      <trkpt lat="28.027042" lon="98.622934"><time>2026-04-28T11:14:30.877Z</time></trkpt>
      <trkpt lat="28.027042" lon="98.622934"><time>2026-04-28T11:14:30.894Z</time></trkpt>
      <trkpt lat="28.027042" lon="98.622934"><time>2026-04-28T11:14:30.910Z</time></trkpt>
      <trkpt lat="28.027042" lon="98.622934"><time>2026-04-28T11:14:30.927Z</time></trkpt>
      <trkpt lat="28.027042" lon="98.622934"><time>2026-04-28T11:14:30.944Z</time></trkpt>
      <trkpt lat="28.027042" lon="98.622934"><time>2026-04-28T11:14:30.960Z</time></trkpt>
      <trkpt lat="28.027057" lon="98.622926"><time>2026-04-28T11:14:30.977Z</time></trkpt>
      <trkpt lat="28.027057" lon="98.622926"><time>2026-04-28T11:14:30.994Z</time></trkpt>
      <trkpt lat="28.027057" lon="98.622926"><time>2026-04-28T11:14:31.010Z</time></trkpt>
      <trkpt lat="28.027057" lon="98.622926"><time>2026-04-28T11:14:31.027Z</time></trkpt>
      <trkpt lat="28.027057" lon="98.622926"><time>2026-04-28T11:14:31.044Z</time></trkpt>
      <trkpt lat="28.027057" lon="98.622926"><time>2026-04-28T11:14:31.060Z</time></trkpt>
      <trkpt lat="28.027071" lon="98.622918"><time>2026-04-28T11:14:31.077Z</time></trkpt>
      <trkpt lat="28.027071" lon="98.622918"><time>2026-04-28T11:14:31.094Z</time></trkpt>
      <trkpt lat="28.027071" lon="98.622918"><time>2026-04-28T11:14:31.110Z</time></trkpt>
      <trkpt lat="28.027071" lon="98.622918"><time>2026-04-28T11:14:31.127Z</time></trkpt>
      <trkpt lat="28.027071" lon="98.622918"><time>2026-04-28T11:14:31.144Z</time></trkpt>
      <trkpt lat="28.027071" lon="98.622918"><time>2026-04-28T11:14:31.160Z</time></trkpt>
      <trkpt lat="28.027086" lon="98.62291"><time>2026-04-28T11:14:31.177Z</time></trkpt>
      <trkpt lat="28.027086" lon="98.62291"><time>2026-04-28T11:14:31.194Z</time></trkpt>
      <trkpt lat="28.027086" lon="98.62291"><time>2026-04-28T11:14:31.211Z</time></trkpt>
      <trkpt lat="28.027086" lon="98.62291"><time>2026-04-28T11:14:31.227Z</time></trkpt>
      <trkpt lat="28.027086" lon="98.62291"><time>2026-04-28T11:14:31.244Z</time></trkpt>
      <trkpt lat="28.027086" lon="98.62291"><time>2026-04-28T11:14:31.261Z</time></trkpt>
      <trkpt lat="28.0271" lon="98.622903"><time>2026-04-28T11:14:31.277Z</time></trkpt>
      <trkpt lat="28.0271" lon="98.622903"><time>2026-04-28T11:14:31.294Z</time></trkpt>
      <trkpt lat="28.0271" lon="98.622903"><time>2026-04-28T11:14:31.311Z</time></trkpt>
      <trkpt lat="28.0271" lon="98.622903"><time>2026-04-28T11:14:31.327Z</time></trkpt>
      <trkpt lat="28.0271" lon="98.622903"><time>2026-04-28T11:14:31.344Z</time></trkpt>
      <trkpt lat="28.0271" lon="98.622903"><time>2026-04-28T11:14:31.361Z</time></trkpt>
      <trkpt lat="28.027115" lon="98.622895"><time>2026-04-28T11:14:31.377Z</time></trkpt>
      <trkpt lat="28.027115" lon="98.622895"><time>2026-04-28T11:14:31.394Z</time></trkpt>
      <trkpt lat="28.027115" lon="98.622895"><time>2026-04-28T11:14:31.411Z</time></trkpt>
      <trkpt lat="28.027115" lon="98.622895"><time>2026-04-28T11:14:31.427Z</time></trkpt>
      <trkpt lat="28.027115" lon="98.622895"><time>2026-04-28T11:14:31.444Z</time></trkpt>
      <trkpt lat="28.027115" lon="98.622895"><time>2026-04-28T11:14:31.461Z</time></trkpt>
      <trkpt lat="28.027129" lon="98.622887"><time>2026-04-28T11:14:31.477Z</time></trkpt>
      <trkpt lat="28.027129" lon="98.622887"><time>2026-04-28T11:14:31.494Z</time></trkpt>
      <trkpt lat="28.027129" lon="98.622887"><time>2026-04-28T11:14:31.511Z</time></trkpt>
      <trkpt lat="28.027129" lon="98.622887"><time>2026-04-28T11:14:31.528Z</time></trkpt>
      <trkpt lat="28.027129" lon="98.622887"><time>2026-04-28T11:14:31.544Z</time></trkpt>
      <trkpt lat="28.027129" lon="98.622887"><time>2026-04-28T11:14:31.561Z</time></trkpt>
      <trkpt lat="28.027142" lon="98.622876"><time>2026-04-28T11:14:31.578Z</time></trkpt>
      <trkpt lat="28.027142" lon="98.622876"><time>2026-04-28T11:14:31.594Z</time></trkpt>
      <trkpt lat="28.027142" lon="98.622876"><time>2026-04-28T11:14:31.611Z</time></trkpt>
      <trkpt lat="28.027142" lon="98.622876"><time>2026-04-28T11:14:31.628Z</time></trkpt>
      <trkpt lat="28.027142" lon="98.622876"><time>2026-04-28T11:14:31.644Z</time></trkpt>
      <trkpt lat="28.027142" lon="98.622876"><time>2026-04-28T11:14:31.661Z</time></trkpt>
      <trkpt lat="28.027156" lon="98.622868"><time>2026-04-28T11:14:31.678Z</time></trkpt>
      <trkpt lat="28.027156" lon="98.622868"><time>2026-04-28T11:14:31.694Z</time></trkpt>
      <trkpt lat="28.027156" lon="98.622868"><time>2026-04-28T11:14:31.711Z</time></trkpt>
      <trkpt lat="28.027156" lon="98.622868"><time>2026-04-28T11:14:31.728Z</time></trkpt>
      <trkpt lat="28.027156" lon="98.622868"><time>2026-04-28T11:14:31.744Z</time></trkpt>
      <trkpt lat="28.027156" lon="98.622868"><time>2026-04-28T11:14:31.761Z</time></trkpt>
      <trkpt lat="28.027171" lon="98.622861"><time>2026-04-28T11:14:31.778Z</time></trkpt>
      <trkpt lat="28.027171" lon="98.622861"><time>2026-04-28T11:14:31.794Z</time></trkpt>
      <trkpt lat="28.027171" lon="98.622861"><time>2026-04-28T11:14:31.811Z</time></trkpt>
      <trkpt lat="28.027171" lon="98.622861"><time>2026-04-28T11:14:31.828Z</time></trkpt>
      <trkpt lat="28.027171" lon="98.622861"><time>2026-04-28T11:14:31.845Z</time></trkpt>
      <trkpt lat="28.027171" lon="98.622861"><time>2026-04-28T11:14:31.861Z</time></trkpt>
      <trkpt lat="28.027185" lon="98.622853"><time>2026-04-28T11:14:31.878Z</time></trkpt>
      <trkpt lat="28.027185" lon="98.622853"><time>2026-04-28T11:14:31.895Z</time></trkpt>
      <trkpt lat="28.027185" lon="98.622853"><time>2026-04-28T11:14:31.911Z</time></trkpt>
      <trkpt lat="28.027185" lon="98.622853"><time>2026-04-28T11:14:31.928Z</time></trkpt>
      <trkpt lat="28.027185" lon="98.622853"><time>2026-04-28T11:14:31.945Z</time></trkpt>
      <trkpt lat="28.027185" lon="98.622853"><time>2026-04-28T11:14:31.961Z</time></trkpt>
      <trkpt lat="28.0272" lon="98.622845"><time>2026-04-28T11:14:31.978Z</time></trkpt>
      <trkpt lat="28.0272" lon="98.622845"><time>2026-04-28T11:14:31.995Z</time></trkpt>
      <trkpt lat="28.0272" lon="98.622845"><time>2026-04-28T11:14:32.011Z</time></trkpt>
      <trkpt lat="28.0272" lon="98.622845"><time>2026-04-28T11:14:32.028Z</time></trkpt>
      <trkpt lat="28.0272" lon="98.622845"><time>2026-04-28T11:14:32.045Z</time></trkpt>
      <trkpt lat="28.0272" lon="98.622845"><time>2026-04-28T11:14:32.061Z</time></trkpt>
      <trkpt lat="28.027215" lon="98.622838"><time>2026-04-28T11:14:32.078Z</time></trkpt>
      <trkpt lat="28.027215" lon="98.622838"><time>2026-04-28T11:14:32.095Z</time></trkpt>
      <trkpt lat="28.027215" lon="98.622838"><time>2026-04-28T11:14:32.111Z</time></trkpt>
      <trkpt lat="28.027215" lon="98.622838"><time>2026-04-28T11:14:32.128Z</time></trkpt>
      <trkpt lat="28.027215" lon="98.622838"><time>2026-04-28T11:14:32.145Z</time></trkpt>
      <trkpt lat="28.027215" lon="98.622838"><time>2026-04-28T11:14:32.162Z</time></trkpt>
      <trkpt lat="28.027229" lon="98.62283"><time>2026-04-28T11:14:32.178Z</time></trkpt>
      <trkpt lat="28.027229" lon="98.62283"><time>2026-04-28T11:14:32.195Z</time></trkpt>
      <trkpt lat="28.027229" lon="98.62283"><time>2026-04-28T11:14:32.212Z</time></trkpt>
      <trkpt lat="28.027229" lon="98.62283"><time>2026-04-28T11:14:32.228Z</time></trkpt>
      <trkpt lat="28.027229" lon="98.62283"><time>2026-04-28T11:14:32.245Z</time></trkpt>
      <trkpt lat="28.027229" lon="98.62283"><time>2026-04-28T11:14:32.262Z</time></trkpt>
      <trkpt lat="28.027244" lon="98.622822"><time>2026-04-28T11:14:32.278Z</time></trkpt>
      <trkpt lat="28.027244" lon="98.622822"><time>2026-04-28T11:14:32.295Z</time></trkpt>
      <trkpt lat="28.027244" lon="98.622822"><time>2026-04-28T11:14:32.312Z</time></trkpt>
      <trkpt lat="28.027244" lon="98.622822"><time>2026-04-28T11:14:32.328Z</time></trkpt>
      <trkpt lat="28.027244" lon="98.622822"><time>2026-04-28T11:14:32.345Z</time></trkpt>
      <trkpt lat="28.027244" lon="98.622822"><time>2026-04-28T11:14:32.362Z</time></trkpt>
      <trkpt lat="28.027258" lon="98.622815"><time>2026-04-28T11:14:32.378Z</time></trkpt>
      <trkpt lat="28.027258" lon="98.622815"><time>2026-04-28T11:14:32.395Z</time></trkpt>
      <trkpt lat="28.027258" lon="98.622815"><time>2026-04-28T11:14:32.412Z</time></trkpt>
      <trkpt lat="28.027258" lon="98.622815"><time>2026-04-28T11:14:32.428Z</time></trkpt>
      <trkpt lat="28.027258" lon="98.622815"><time>2026-04-28T11:14:32.445Z</time></trkpt>
      <trkpt lat="28.027258" lon="98.622815"><time>2026-04-28T11:14:32.462Z</time></trkpt>
      <trkpt lat="28.027273" lon="98.622807"><time>2026-04-28T11:14:32.479Z</time></trkpt>
      <trkpt lat="28.027273" lon="98.622807"><time>2026-04-28T11:14:32.495Z</time></trkpt>
      <trkpt lat="28.027273" lon="98.622807"><time>2026-04-28T11:14:32.512Z</time></trkpt>
      <trkpt lat="28.027273" lon="98.622807"><time>2026-04-28T11:14:32.529Z</time></trkpt>
      <trkpt lat="28.027273" lon="98.622807"><time>2026-04-28T11:14:32.545Z</time></trkpt>
      <trkpt lat="28.027273" lon="98.622807"><time>2026-04-28T11:14:32.562Z</time></trkpt>
      <trkpt lat="28.027287" lon="98.622799"><time>2026-04-28T11:14:32.579Z</time></trkpt>
      <trkpt lat="28.027287" lon="98.622799"><time>2026-04-28T11:14:32.595Z</time></trkpt>
      <trkpt lat="28.027287" lon="98.622799"><time>2026-04-28T11:14:32.612Z</time></trkpt>
      <trkpt lat="28.027287" lon="98.622799"><time>2026-04-28T11:14:32.629Z</time></trkpt>
      <trkpt lat="28.027287" lon="98.622799"><time>2026-04-28T11:14:32.645Z</time></trkpt>
      <trkpt lat="28.027287" lon="98.622799"><time>2026-04-28T11:14:32.662Z</time></trkpt>
      <trkpt lat="28.027302" lon="98.622792"><time>2026-04-28T11:14:32.679Z</time></trkpt>
      <trkpt lat="28.027302" lon="98.622792"><time>2026-04-28T11:14:32.695Z</time></trkpt>
      <trkpt lat="28.027302" lon="98.622792"><time>2026-04-28T11:14:32.712Z</time></trkpt>
      <trkpt lat="28.027302" lon="98.622792"><time>2026-04-28T11:14:32.729Z</time></trkpt>
      <trkpt lat="28.027302" lon="98.622792"><time>2026-04-28T11:14:32.745Z</time></trkpt>
      <trkpt lat="28.027302" lon="98.622792"><time>2026-04-28T11:14:32.762Z</time></trkpt>
      <trkpt lat="28.027316" lon="98.622784"><time>2026-04-28T11:14:32.779Z</time></trkpt>
      <trkpt lat="28.027316" lon="98.622784"><time>2026-04-28T11:14:32.796Z</time></trkpt>
      <trkpt lat="28.027316" lon="98.622784"><time>2026-04-28T11:14:32.812Z</time></trkpt>
      <trkpt lat="28.027316" lon="98.622784"><time>2026-04-28T11:14:32.829Z</time></trkpt>
      <trkpt lat="28.027316" lon="98.622784"><time>2026-04-28T11:14:32.846Z</time></trkpt>
      <trkpt lat="28.027316" lon="98.622784"><time>2026-04-28T11:14:32.862Z</time></trkpt>
      <trkpt lat="28.027331" lon="98.622777"><time>2026-04-28T11:14:32.879Z</time></trkpt>
      <trkpt lat="28.027331" lon="98.622777"><time>2026-04-28T11:14:32.896Z</time></trkpt>
      <trkpt lat="28.027331" lon="98.622777"><time>2026-04-28T11:14:32.912Z</time></trkpt>
      <trkpt lat="28.027331" lon="98.622777"><time>2026-04-28T11:14:32.929Z</time></trkpt>
      <trkpt lat="28.027331" lon="98.622777"><time>2026-04-28T11:14:32.946Z</time></trkpt>
      <trkpt lat="28.027331" lon="98.622777"><time>2026-04-28T11:14:32.962Z</time></trkpt>
      <trkpt lat="28.027345" lon="98.622769"><time>2026-04-28T11:14:32.979Z</time></trkpt>
      <trkpt lat="28.027345" lon="98.622769"><time>2026-04-28T11:14:32.996Z</time></trkpt>
      <trkpt lat="28.027345" lon="98.622769"><time>2026-04-28T11:14:33.012Z</time></trkpt>
      <trkpt lat="28.027345" lon="98.622769"><time>2026-04-28T11:14:33.029Z</time></trkpt>
      <trkpt lat="28.027345" lon="98.622769"><time>2026-04-28T11:14:33.046Z</time></trkpt>
      <trkpt lat="28.027345" lon="98.622769"><time>2026-04-28T11:14:33.062Z</time></trkpt>
      <trkpt lat="28.02736" lon="98.622761"><time>2026-04-28T11:14:33.079Z</time></trkpt>
      <trkpt lat="28.02736" lon="98.622761"><time>2026-04-28T11:14:33.096Z</time></trkpt>
      <trkpt lat="28.02736" lon="98.622761"><time>2026-04-28T11:14:33.113Z</time></trkpt>
      <trkpt lat="28.02736" lon="98.622761"><time>2026-04-28T11:14:33.129Z</time></trkpt>
      <trkpt lat="28.02736" lon="98.622761"><time>2026-04-28T11:14:33.146Z</time></trkpt>
      <trkpt lat="28.02736" lon="98.622761"><time>2026-04-28T11:14:33.163Z</time></trkpt>
      <trkpt lat="28.027375" lon="98.622754"><time>2026-04-28T11:14:33.179Z</time></trkpt>
      <trkpt lat="28.027375" lon="98.622754"><time>2026-04-28T11:14:33.196Z</time></trkpt>
      <trkpt lat="28.027375" lon="98.622754"><time>2026-04-28T11:14:33.213Z</time></trkpt>
      <trkpt lat="28.027375" lon="98.622754"><time>2026-04-28T11:14:33.229Z</time></trkpt>
      <trkpt lat="28.027375" lon="98.622754"><time>2026-04-28T11:14:33.246Z</time></trkpt>
      <trkpt lat="28.027375" lon="98.622754"><time>2026-04-28T11:14:33.263Z</time></trkpt>
      <trkpt lat="28.027389" lon="98.622746"><time>2026-04-28T11:14:33.279Z</time></trkpt>
      <trkpt lat="28.027389" lon="98.622746"><time>2026-04-28T11:14:33.296Z</time></trkpt>
      <trkpt lat="28.027389" lon="98.622746"><time>2026-04-28T11:14:33.313Z</time></trkpt>
      <trkpt lat="28.027389" lon="98.622746"><time>2026-04-28T11:14:33.329Z</time></trkpt>
      <trkpt lat="28.027389" lon="98.622746"><time>2026-04-28T11:14:33.346Z</time></trkpt>
      <trkpt lat="28.027389" lon="98.622746"><time>2026-04-28T11:14:33.363Z</time></trkpt>
      <trkpt lat="28.027404" lon="98.622739"><time>2026-04-28T11:14:33.379Z</time></trkpt>
      <trkpt lat="28.027404" lon="98.622739"><time>2026-04-28T11:14:33.396Z</time></trkpt>
      <trkpt lat="28.027404" lon="98.622739"><time>2026-04-28T11:14:33.413Z</time></trkpt>
      <trkpt lat="28.027404" lon="98.622739"><time>2026-04-28T11:14:33.430Z</time></trkpt>
      <trkpt lat="28.027404" lon="98.622739"><time>2026-04-28T11:14:33.446Z</time></trkpt>
      <trkpt lat="28.027404" lon="98.622739"><time>2026-04-28T11:14:33.463Z</time></trkpt>
      <trkpt lat="28.027418" lon="98.622731"><time>2026-04-28T11:14:33.480Z</time></trkpt>
      <trkpt lat="28.027418" lon="98.622731"><time>2026-04-28T11:14:33.496Z</time></trkpt>
      <trkpt lat="28.027418" lon="98.622731"><time>2026-04-28T11:14:33.513Z</time></trkpt>
      <trkpt lat="28.027418" lon="98.622731"><time>2026-04-28T11:14:33.530Z</time></trkpt>
      <trkpt lat="28.027418" lon="98.622731"><time>2026-04-28T11:14:33.546Z</time></trkpt>
      <trkpt lat="28.027418" lon="98.622731"><time>2026-04-28T11:14:33.563Z</time></trkpt>
      <trkpt lat="28.027433" lon="98.622724"><time>2026-04-28T11:14:33.580Z</time></trkpt>
      <trkpt lat="28.027433" lon="98.622724"><time>2026-04-28T11:14:33.596Z</time></trkpt>
      <trkpt lat="28.027433" lon="98.622724"><time>2026-04-28T11:14:33.613Z</time></trkpt>
      <trkpt lat="28.027433" lon="98.622724"><time>2026-04-28T11:14:33.630Z</time></trkpt>
      <trkpt lat="28.027433" lon="98.622724"><time>2026-04-28T11:14:33.646Z</time></trkpt>
      <trkpt lat="28.027433" lon="98.622724"><time>2026-04-28T11:14:33.663Z</time></trkpt>
      <trkpt lat="28.027448" lon="98.622716"><time>2026-04-28T11:14:33.680Z</time></trkpt>
      <trkpt lat="28.027448" lon="98.622716"><time>2026-04-28T11:14:33.696Z</time></trkpt>
      <trkpt lat="28.027448" lon="98.622716"><time>2026-04-28T11:14:33.713Z</time></trkpt>
      <trkpt lat="28.027448" lon="98.622716"><time>2026-04-28T11:14:33.730Z</time></trkpt>
      <trkpt lat="28.027448" lon="98.622716"><time>2026-04-28T11:14:33.747Z</time></trkpt>
      <trkpt lat="28.027448" lon="98.622716"><time>2026-04-28T11:14:33.763Z</time></trkpt>
      <trkpt lat="28.027462" lon="98.622709"><time>2026-04-28T11:14:33.780Z</time></trkpt>
      <trkpt lat="28.027462" lon="98.622709"><time>2026-04-28T11:14:33.797Z</time></trkpt>
      <trkpt lat="28.027462" lon="98.622709"><time>2026-04-28T11:14:33.813Z</time></trkpt>
      <trkpt lat="28.027462" lon="98.622709"><time>2026-04-28T11:14:33.830Z</time></trkpt>
      <trkpt lat="28.027462" lon="98.622709"><time>2026-04-28T11:14:33.847Z</time></trkpt>
      <trkpt lat="28.027462" lon="98.622709"><time>2026-04-28T11:14:33.863Z</time></trkpt>
      <trkpt lat="28.027476" lon="98.622701"><time>2026-04-28T11:14:33.880Z</time></trkpt>
      <trkpt lat="28.027476" lon="98.622701"><time>2026-04-28T11:14:33.897Z</time></trkpt>
      <trkpt lat="28.027476" lon="98.622701"><time>2026-04-28T11:14:33.913Z</time></trkpt>
      <trkpt lat="28.027476" lon="98.622701"><time>2026-04-28T11:14:33.930Z</time></trkpt>
      <trkpt lat="28.027476" lon="98.622701"><time>2026-04-28T11:14:33.947Z</time></trkpt>
      <trkpt lat="28.027476" lon="98.622701"><time>2026-04-28T11:14:33.963Z</time></trkpt>
      <trkpt lat="28.027491" lon="98.622694"><time>2026-04-28T11:14:33.980Z</time></trkpt>
      <trkpt lat="28.027491" lon="98.622694"><time>2026-04-28T11:14:33.997Z</time></trkpt>
      <trkpt lat="28.027491" lon="98.622694"><time>2026-04-28T11:14:34.013Z</time></trkpt>
      <trkpt lat="28.027491" lon="98.622694"><time>2026-04-28T11:14:34.030Z</time></trkpt>
      <trkpt lat="28.027491" lon="98.622694"><time>2026-04-28T11:14:34.047Z</time></trkpt>
      <trkpt lat="28.027491" lon="98.622694"><time>2026-04-28T11:14:34.064Z</time></trkpt>
      <trkpt lat="28.027505" lon="98.622686"><time>2026-04-28T11:14:34.080Z</time></trkpt>
      <trkpt lat="28.027505" lon="98.622686"><time>2026-04-28T11:14:34.097Z</time></trkpt>
      <trkpt lat="28.027505" lon="98.622686"><time>2026-04-28T11:14:34.114Z</time></trkpt>
      <trkpt lat="28.027505" lon="98.622686"><time>2026-04-28T11:14:34.130Z</time></trkpt>
      <trkpt lat="28.027505" lon="98.622686"><time>2026-04-28T11:14:34.147Z</time></trkpt>
      <trkpt lat="28.027505" lon="98.622686"><time>2026-04-28T11:14:34.164Z</time></trkpt>
      <trkpt lat="28.02752" lon="98.622678"><time>2026-04-28T11:14:34.180Z</time></trkpt>
      <trkpt lat="28.02752" lon="98.622678"><time>2026-04-28T11:14:34.197Z</time></trkpt>
      <trkpt lat="28.02752" lon="98.622678"><time>2026-04-28T11:14:34.214Z</time></trkpt>
      <trkpt lat="28.02752" lon="98.622678"><time>2026-04-28T11:14:34.230Z</time></trkpt>
      <trkpt lat="28.02752" lon="98.622678"><time>2026-04-28T11:14:34.247Z</time></trkpt>
      <trkpt lat="28.02752" lon="98.622678"><time>2026-04-28T11:14:34.264Z</time></trkpt>
      <trkpt lat="28.027534" lon="98.622671"><time>2026-04-28T11:14:34.280Z</time></trkpt>
      <trkpt lat="28.027534" lon="98.622671"><time>2026-04-28T11:14:34.297Z</time></trkpt>
      <trkpt lat="28.027534" lon="98.622671"><time>2026-04-28T11:14:34.314Z</time></trkpt>
      <trkpt lat="28.027534" lon="98.622671"><time>2026-04-28T11:14:34.330Z</time></trkpt>
      <trkpt lat="28.027534" lon="98.622671"><time>2026-04-28T11:14:34.347Z</time></trkpt>
      <trkpt lat="28.027534" lon="98.622671"><time>2026-04-28T11:14:34.364Z</time></trkpt>
      <trkpt lat="28.027549" lon="98.622663"><time>2026-04-28T11:14:34.380Z</time></trkpt>
      <trkpt lat="28.027549" lon="98.622663"><time>2026-04-28T11:14:34.397Z</time></trkpt>
      <trkpt lat="28.027549" lon="98.622663"><time>2026-04-28T11:14:34.414Z</time></trkpt>
      <trkpt lat="28.027549" lon="98.622663"><time>2026-04-28T11:14:34.431Z</time></trkpt>
      <trkpt lat="28.027549" lon="98.622663"><time>2026-04-28T11:14:34.447Z</time></trkpt>
      <trkpt lat="28.027549" lon="98.622663"><time>2026-04-28T11:14:34.464Z</time></trkpt>
      <trkpt lat="28.027563" lon="98.622656"><time>2026-04-28T11:14:34.481Z</time></trkpt>
      <trkpt lat="28.027563" lon="98.622656"><time>2026-04-28T11:14:34.497Z</time></trkpt>
      <trkpt lat="28.027563" lon="98.622656"><time>2026-04-28T11:14:34.514Z</time></trkpt>
      <trkpt lat="28.027563" lon="98.622656"><time>2026-04-28T11:14:34.531Z</time></trkpt>
      <trkpt lat="28.027563" lon="98.622656"><time>2026-04-28T11:14:34.547Z</time></trkpt>
      <trkpt lat="28.027563" lon="98.622656"><time>2026-04-28T11:14:34.564Z</time></trkpt>
      <trkpt lat="28.027577" lon="98.622648"><time>2026-04-28T11:14:34.581Z</time></trkpt>
      <trkpt lat="28.027577" lon="98.622648"><time>2026-04-28T11:14:34.597Z</time></trkpt>
      <trkpt lat="28.027577" lon="98.622648"><time>2026-04-28T11:14:34.614Z</time></trkpt>
      <trkpt lat="28.027577" lon="98.622648"><time>2026-04-28T11:14:34.631Z</time></trkpt>
      <trkpt lat="28.027577" lon="98.622648"><time>2026-04-28T11:14:34.647Z</time></trkpt>
      <trkpt lat="28.027577" lon="98.622648"><time>2026-04-28T11:14:34.664Z</time></trkpt>
      <trkpt lat="28.027592" lon="98.62264"><time>2026-04-28T11:14:34.681Z</time></trkpt>
      <trkpt lat="28.027592" lon="98.62264"><time>2026-04-28T11:14:34.697Z</time></trkpt>
      <trkpt lat="28.027592" lon="98.62264"><time>2026-04-28T11:14:34.714Z</time></trkpt>
      <trkpt lat="28.027592" lon="98.62264"><time>2026-04-28T11:14:34.731Z</time></trkpt>
      <trkpt lat="28.027592" lon="98.62264"><time>2026-04-28T11:14:34.748Z</time></trkpt>
      <trkpt lat="28.027592" lon="98.62264"><time>2026-04-28T11:14:34.764Z</time></trkpt>
      <trkpt lat="28.027606" lon="98.622633"><time>2026-04-28T11:14:34.781Z</time></trkpt>
      <trkpt lat="28.027606" lon="98.622633"><time>2026-04-28T11:14:34.798Z</time></trkpt>
      <trkpt lat="28.027606" lon="98.622633"><time>2026-04-28T11:14:34.814Z</time></trkpt>
      <trkpt lat="28.027606" lon="98.622633"><time>2026-04-28T11:14:34.831Z</time></trkpt>
      <trkpt lat="28.027606" lon="98.622633"><time>2026-04-28T11:14:34.848Z</time></trkpt>
      <trkpt lat="28.027606" lon="98.622633"><time>2026-04-28T11:14:34.864Z</time></trkpt>
      <trkpt lat="28.02762" lon="98.622625"><time>2026-04-28T11:14:34.881Z</time></trkpt>
      <trkpt lat="28.02762" lon="98.622625"><time>2026-04-28T11:14:34.898Z</time></trkpt>
      <trkpt lat="28.02762" lon="98.622625"><time>2026-04-28T11:14:34.914Z</time></trkpt>
      <trkpt lat="28.02762" lon="98.622625"><time>2026-04-28T11:14:34.931Z</time></trkpt>
      <trkpt lat="28.02762" lon="98.622625"><time>2026-04-28T11:14:34.948Z</time></trkpt>
      <trkpt lat="28.02762" lon="98.622625"><time>2026-04-28T11:14:34.964Z</time></trkpt>
      <trkpt lat="28.027635" lon="98.622618"><time>2026-04-28T11:14:34.981Z</time></trkpt>
      <trkpt lat="28.027635" lon="98.622618"><time>2026-04-28T11:14:34.998Z</time></trkpt>
      <trkpt lat="28.027635" lon="98.622618"><time>2026-04-28T11:14:35.014Z</time></trkpt>
      <trkpt lat="28.027635" lon="98.622618"><time>2026-04-28T11:14:35.031Z</time></trkpt>
      <trkpt lat="28.027635" lon="98.622618"><time>2026-04-28T11:14:35.048Z</time></trkpt>
      <trkpt lat="28.027635" lon="98.622618"><time>2026-04-28T11:14:35.065Z</time></trkpt>
      <trkpt lat="28.027649" lon="98.62261"><time>2026-04-28T11:14:35.081Z</time></trkpt>
      <trkpt lat="28.027649" lon="98.62261"><time>2026-04-28T11:14:35.098Z</time></trkpt>
      <trkpt lat="28.027649" lon="98.62261"><time>2026-04-28T11:14:35.115Z</time></trkpt>
      <trkpt lat="28.027649" lon="98.62261"><time>2026-04-28T11:14:35.131Z</time></trkpt>
      <trkpt lat="28.027649" lon="98.62261"><time>2026-04-28T11:14:35.148Z</time></trkpt>
      <trkpt lat="28.027664" lon="98.622602"><time>2026-04-28T11:14:35.165Z</time></trkpt>
      <trkpt lat="28.027664" lon="98.622602"><time>2026-04-28T11:14:35.181Z</time></trkpt>
      <trkpt lat="28.027664" lon="98.622602"><time>2026-04-28T11:14:35.198Z</time></trkpt>
      <trkpt lat="28.027664" lon="98.622602"><time>2026-04-28T11:14:35.215Z</time></trkpt>
      <trkpt lat="28.027664" lon="98.622602"><time>2026-04-28T11:14:35.231Z</time></trkpt>
      <trkpt lat="28.027664" lon="98.622602"><time>2026-04-28T11:14:35.248Z</time></trkpt>
      <trkpt lat="28.027664" lon="98.622602"><time>2026-04-28T11:14:35.265Z</time></trkpt>
      <trkpt lat="28.027678" lon="98.622595"><time>2026-04-28T11:14:35.281Z</time></trkpt>
      <trkpt lat="28.027678" lon="98.622595"><time>2026-04-28T11:14:35.298Z</time></trkpt>
      <trkpt lat="28.027678" lon="98.622595"><time>2026-04-28T11:14:35.315Z</time></trkpt>
      <trkpt lat="28.027678" lon="98.622595"><time>2026-04-28T11:14:35.331Z</time></trkpt>
      <trkpt lat="28.027678" lon="98.622595"><time>2026-04-28T11:14:35.348Z</time></trkpt>
      <trkpt lat="28.027678" lon="98.622595"><time>2026-04-28T11:14:35.365Z</time></trkpt>
      <trkpt lat="28.027692" lon="98.622586"><time>2026-04-28T11:14:35.382Z</time></trkpt>
      <trkpt lat="28.027692" lon="98.622586"><time>2026-04-28T11:14:35.398Z</time></trkpt>
      <trkpt lat="28.027692" lon="98.622586"><time>2026-04-28T11:14:35.415Z</time></trkpt>
      <trkpt lat="28.027692" lon="98.622586"><time>2026-04-28T11:14:35.432Z</time></trkpt>
      <trkpt lat="28.027692" lon="98.622586"><time>2026-04-28T11:14:35.448Z</time></trkpt>
      <trkpt lat="28.027692" lon="98.622586"><time>2026-04-28T11:14:35.465Z</time></trkpt>
      <trkpt lat="28.027707" lon="98.622578"><time>2026-04-28T11:14:35.482Z</time></trkpt>
      <trkpt lat="28.027707" lon="98.622578"><time>2026-04-28T11:14:35.498Z</time></trkpt>
      <trkpt lat="28.027707" lon="98.622578"><time>2026-04-28T11:14:35.515Z</time></trkpt>
      <trkpt lat="28.027707" lon="98.622578"><time>2026-04-28T11:14:35.532Z</time></trkpt>
      <trkpt lat="28.027707" lon="98.622578"><time>2026-04-28T11:14:35.548Z</time></trkpt>
      <trkpt lat="28.027707" lon="98.622578"><time>2026-04-28T11:14:35.565Z</time></trkpt>
      <trkpt lat="28.027722" lon="98.62257"><time>2026-04-28T11:14:35.582Z</time></trkpt>
      <trkpt lat="28.027722" lon="98.62257"><time>2026-04-28T11:14:35.598Z</time></trkpt>
      <trkpt lat="28.027722" lon="98.62257"><time>2026-04-28T11:14:35.615Z</time></trkpt>
      <trkpt lat="28.027722" lon="98.62257"><time>2026-04-28T11:14:35.632Z</time></trkpt>
      <trkpt lat="28.027722" lon="98.62257"><time>2026-04-28T11:14:35.648Z</time></trkpt>
      <trkpt lat="28.027736" lon="98.622562"><time>2026-04-28T11:14:35.665Z</time></trkpt>
      <trkpt lat="28.027736" lon="98.622562"><time>2026-04-28T11:14:35.682Z</time></trkpt>
      <trkpt lat="28.027736" lon="98.622562"><time>2026-04-28T11:14:35.699Z</time></trkpt>
      <trkpt lat="28.027736" lon="98.622562"><time>2026-04-28T11:14:35.715Z</time></trkpt>
      <trkpt lat="28.027736" lon="98.622562"><time>2026-04-28T11:14:35.732Z</time></trkpt>
      <trkpt lat="28.027736" lon="98.622562"><time>2026-04-28T11:14:35.749Z</time></trkpt>
      <trkpt lat="28.027751" lon="98.622555"><time>2026-04-28T11:14:35.765Z</time></trkpt>
      <trkpt lat="28.027751" lon="98.622555"><time>2026-04-28T11:14:35.782Z</time></trkpt>
      <trkpt lat="28.027751" lon="98.622555"><time>2026-04-28T11:14:35.799Z</time></trkpt>
      <trkpt lat="28.027751" lon="98.622555"><time>2026-04-28T11:14:35.815Z</time></trkpt>
      <trkpt lat="28.027751" lon="98.622555"><time>2026-04-28T11:14:35.832Z</time></trkpt>
      <trkpt lat="28.027751" lon="98.622555"><time>2026-04-28T11:14:35.849Z</time></trkpt>
      <trkpt lat="28.027766" lon="98.622547"><time>2026-04-28T11:14:35.865Z</time></trkpt>
      <trkpt lat="28.027766" lon="98.622547"><time>2026-04-28T11:14:35.882Z</time></trkpt>
      <trkpt lat="28.027766" lon="98.622547"><time>2026-04-28T11:14:35.899Z</time></trkpt>
      <trkpt lat="28.027766" lon="98.622547"><time>2026-04-28T11:14:35.915Z</time></trkpt>
      <trkpt lat="28.027766" lon="98.622547"><time>2026-04-28T11:14:35.932Z</time></trkpt>
      <trkpt lat="28.027766" lon="98.622547"><time>2026-04-28T11:14:35.949Z</time></trkpt>
      <trkpt lat="28.02778" lon="98.622539"><time>2026-04-28T11:14:35.965Z</time></trkpt>
      <trkpt lat="28.02778" lon="98.622539"><time>2026-04-28T11:14:35.982Z</time></trkpt>
      <trkpt lat="28.02778" lon="98.622539"><time>2026-04-28T11:14:35.999Z</time></trkpt>
      <trkpt lat="28.02778" lon="98.622539"><time>2026-04-28T11:14:36.016Z</time></trkpt>
      <trkpt lat="28.02778" lon="98.622539"><time>2026-04-28T11:14:36.032Z</time></trkpt>
      <trkpt lat="28.02778" lon="98.622539"><time>2026-04-28T11:14:36.049Z</time></trkpt>
      <trkpt lat="28.027795" lon="98.622531"><time>2026-04-28T11:14:36.066Z</time></trkpt>
      <trkpt lat="28.027795" lon="98.622531"><time>2026-04-28T11:14:36.082Z</time></trkpt>
      <trkpt lat="28.027795" lon="98.622531"><time>2026-04-28T11:14:36.099Z</time></trkpt>
      <trkpt lat="28.027795" lon="98.622531"><time>2026-04-28T11:14:36.116Z</time></trkpt>
      <trkpt lat="28.027795" lon="98.622531"><time>2026-04-28T11:14:36.132Z</time></trkpt>
      <trkpt lat="28.027795" lon="98.622531"><time>2026-04-28T11:14:36.149Z</time></trkpt>
      <trkpt lat="28.02781" lon="98.622524"><time>2026-04-28T11:14:36.166Z</time></trkpt>
      <trkpt lat="28.02781" lon="98.622524"><time>2026-04-28T11:14:36.182Z</time></trkpt>
      <trkpt lat="28.02781" lon="98.622524"><time>2026-04-28T11:14:36.199Z</time></trkpt>
      <trkpt lat="28.02781" lon="98.622524"><time>2026-04-28T11:14:36.216Z</time></trkpt>
      <trkpt lat="28.02781" lon="98.622524"><time>2026-04-28T11:14:36.232Z</time></trkpt>
      <trkpt lat="28.02781" lon="98.622524"><time>2026-04-28T11:14:36.249Z</time></trkpt>
      <trkpt lat="28.027824" lon="98.622516"><time>2026-04-28T11:14:36.266Z</time></trkpt>
      <trkpt lat="28.027824" lon="98.622516"><time>2026-04-28T11:14:36.282Z</time></trkpt>
      <trkpt lat="28.027824" lon="98.622516"><time>2026-04-28T11:14:36.299Z</time></trkpt>
      <trkpt lat="28.027824" lon="98.622516"><time>2026-04-28T11:14:36.316Z</time></trkpt>
      <trkpt lat="28.027824" lon="98.622516"><time>2026-04-28T11:14:36.333Z</time></trkpt>
      <trkpt lat="28.027824" lon="98.622516"><time>2026-04-28T11:14:36.349Z</time></trkpt>
      <trkpt lat="28.027839" lon="98.622508"><time>2026-04-28T11:14:36.366Z</time></trkpt>
      <trkpt lat="28.027839" lon="98.622508"><time>2026-04-28T11:14:36.383Z</time></trkpt>
      <trkpt lat="28.027839" lon="98.622508"><time>2026-04-28T11:14:36.399Z</time></trkpt>
      <trkpt lat="28.027839" lon="98.622508"><time>2026-04-28T11:14:36.416Z</time></trkpt>
      <trkpt lat="28.027839" lon="98.622508"><time>2026-04-28T11:14:36.433Z</time></trkpt>
      <trkpt lat="28.027839" lon="98.622508"><time>2026-04-28T11:14:36.449Z</time></trkpt>
      <trkpt lat="28.027853" lon="98.6225"><time>2026-04-28T11:14:36.466Z</time></trkpt>
      <trkpt lat="28.027853" lon="98.6225"><time>2026-04-28T11:14:36.483Z</time></trkpt>
      <trkpt lat="28.027853" lon="98.6225"><time>2026-04-28T11:14:36.499Z</time></trkpt>
      <trkpt lat="28.027853" lon="98.6225"><time>2026-04-28T11:14:36.516Z</time></trkpt>
      <trkpt lat="28.027853" lon="98.6225"><time>2026-04-28T11:14:36.533Z</time></trkpt>
      <trkpt lat="28.027853" lon="98.6225"><time>2026-04-28T11:14:36.549Z</time></trkpt>
      <trkpt lat="28.027868" lon="98.622492"><time>2026-04-28T11:14:36.566Z</time></trkpt>
      <trkpt lat="28.027868" lon="98.622492"><time>2026-04-28T11:14:36.583Z</time></trkpt>
      <trkpt lat="28.027868" lon="98.622492"><time>2026-04-28T11:14:36.599Z</time></trkpt>
      <trkpt lat="28.027868" lon="98.622492"><time>2026-04-28T11:14:36.616Z</time></trkpt>
    </trkseg>
  </trk>
</gpx>
