<?xml version="1.0" encoding="UTF-8"?>
<gpx version="1.1" creator="Kairos" xmlns="http://www.topografix.com/GPX/1/1">
  <trk>
    <name>sidecar-srt-989bb66b3484652b</name>
    <trkseg>
      <trkpt lat="0.000002" lon="0"><time>2026-05-01T02:30:03.000Z</time></trkpt>
      <trkpt lat="0.000002" lon="0"><time>2026-05-01T02:30:03.016Z</time></trkpt>
      <trkpt lat="0.000002" lon="0"><time>2026-05-01T02:30:03.032Z</time></trkpt>
      <trkpt lat="0.000002" lon="0"><time>2026-05-01T02:30:03.049Z</time></trkpt>
      <trkpt lat="0.000002" lon="0"><time>2026-05-01T02:30:03.066Z</time></trkpt>
      <trkpt lat="0.000002" lon="0"><time>2026-05-01T02:30:03.082Z</time></trkpt>
      <trkpt lat="0.000002" lon="0"><time>2026-05-01T02:30:03.099Z</time></trkpt>
      <trkpt lat="0.000002" lon="0"><time>2026-05-01T02:30:03.116Z</time></trkpt>
      <trkpt lat="0.000002" lon="0"><time>2026-05-01T02:30:03.132Z</time></trkpt>
      <trkpt lat="0.000002" lon="0"><time>2026-05-01T02:30:03.149Z</time></trkpt>
      <trkpt lat="0.000002" lon="0"><time>2026-05-01T02:30:03.166Z</time></trkpt>
      <trkpt lat="0.000002" lon="0"><time>2026-05-01T02:30:03.182Z</time></trkpt>
      <trkpt lat="0.000002" lon="0"><time>2026-05-01T02:30:03.199Z</time></trkpt>
      <trkpt lat="0.000002" lon="0"><time>2026-05-01T02:30:03.216Z</time></trkpt>
      <trkpt lat="0.000002" lon="0"><time>2026-05-01T02:30:03.232Z</time></trkpt>
      <trkpt lat="0.000002" lon="0"><time>2026-05-01T02:30:03.249Z</time></trkpt>
      <trkpt lat="0.000002" lon="0"><time>2026-05-01T02:30:03.266Z</time></trkpt>
      <trkpt lat="0.000002" lon="0"><time>2026-05-01T02:30:03.282Z</time></trkpt>
      <trkpt lat="0.000002" lon="0"><time>2026-05-01T02:30:03.299Z</time></trkpt>
      <trkpt lat="0.000002" lon="0"><time>2026-05-01T02:30:03.316Z</time></trkpt>
      <trkpt lat="0.000002" lon="0"><time>2026-05-01T02:30:03.333Z</time></trkpt>
      <trkpt lat="0.000002" lon="0"><time>2026-05-01T02:30:03.349Z</time></trkpt>
      <trkpt lat="0.000002" lon="0"><time>2026-05-01T02:30:03.366Z</time></trkpt>
      <trkpt lat="0.000001" lon="0"><time>2026-05-01T02:30:03.383Z</time></trkpt>
      <trkpt lat="0.000001" lon="0"><time>2026-05-01T02:30:03.399Z</time></trkpt>
      <trkpt lat="0.000001" lon="0"><time>2026-05-01T02:30:03.416Z</time></trkpt>
      <trkpt lat="0.000001" lon="0"><time>2026-05-01T02:30:03.433Z</time></trkpt>
      <trkpt lat="0.000001" lon="0"><time>2026-05-01T02:30:03.449Z</time></trkpt>
      <trkpt lat="0.000001" lon="0"><time>2026-05-01T02:30:03.466Z</time></trkpt>
      <trkpt lat="0.000001" lon="0"><time>2026-05-01T02:30:03.483Z</time></trkpt>
      <trkpt lat="0.000001" lon="0"><time>2026-05-01T02:30:03.499Z</time></trkpt>
      <trkpt lat="0.000001" lon="0"><time>2026-05-01T02:30:03.516Z</time></trkpt>
      <trkpt lat="0.000001" lon="0"><time>2026-05-01T02:30:03.533Z</time></trkpt>
      <trkpt lat="0.000001" lon="0"><time>2026-05-01T02:30:03.549Z</time></trkpt>
      <trkpt lat="0.000001" lon="0"><time>2026-05-01T02:30:03.566Z</time></trkpt>
      <trkpt lat="0.000001" lon="0"><time>2026-05-01T02:30:03.583Z</time></trkpt>
      <trkpt lat="0.000001" lon="0"><time>2026-05-01T02:30:03.599Z</time></trkpt>
      <trkpt lat="0.000001" lon="0"><time>2026-05-01T02:30:03.616Z</time></trkpt>
      <trkpt lat="0.000001" lon="0"><time>2026-05-01T02:30:03.633Z</time></trkpt>
      <trkpt lat="0.000001" lon="0"><time>2026-05-01T02:30:03.649Z</time></trkpt>
      <trkpt lat="0.000001" lon="0"><time>2026-05-01T02:30:03.666Z</time></trkpt>
      <trkpt lat="0.000001" lon="0"><time>2026-05-01T02:30:03.683Z</time></trkpt>
      <trkpt lat="0.000001" lon="0"><time>2026-05-01T02:30:03.700Z</time></trkpt>
      <trkpt lat="0.000001" lon="0"><time>2026-05-01T02:30:03.716Z</time></trkpt>
      <trkpt lat="0.000001" lon="0"><time>2026-05-01T02:30:03.733Z</time></trkpt>
      <trkpt lat="0.000001" lon="0"><time>2026-05-01T02:30:03.750Z</time></trkpt>
      <trkpt lat="0.000001" lon="0"><time>2026-05-01T02:30:03.766Z</time></trkpt>
      <trkpt lat="0.000001" lon="0"><time>2026-05-01T02:30:03.783Z</time></trkpt>
      <trkpt lat="0.000001" lon="0"><time>2026-05-01T02:30:03.800Z</time></trkpt>
      <trkpt lat="0.000001" lon="0"><time>2026-05-01T02:30:03.816Z</time></trkpt>
      <trkpt lat="0.000001" lon="0"><time>2026-05-01T02:30:03.833Z</time></trkpt>
      <trkpt lat="0.000001" lon="0"><time>2026-05-01T02:30:03.850Z</time></trkpt>
      <trkpt lat="0.000001" lon="0"><time>2026-05-01T02:30:03.866Z</time></trkpt>
      <trkpt lat="0.000001" lon="0"><time>2026-05-01T02:30:03.883Z</time></trkpt>
      <trkpt lat="0.000001" lon="0"><time>2026-05-01T02:30:03.900Z</time></trkpt>
      <trkpt lat="0.000001" lon="0"><time>2026-05-01T02:30:03.916Z</time></trkpt>
      <trkpt lat="0.000001" lon="0"><time>2026-05-01T02:30:03.933Z</time></trkpt>
      <trkpt lat="0.000001" lon="0"><time>2026-05-01T02:30:03.950Z</time></trkpt>
      <trkpt lat="0.000001" lon="0"><time>2026-05-01T02:30:03.966Z</time></trkpt>
      <trkpt lat="0.000001" lon="0"><time>2026-05-01T02:30:03.983Z</time></trkpt>
      <trkpt lat="0.000001" lon="0"><time>2026-05-01T02:30:04.000Z</time></trkpt>
      <trkpt lat="0.000001" lon="0"><time>2026-05-01T02:30:04.017Z</time></trkpt>
      <trkpt lat="0.000001" lon="0"><time>2026-05-01T02:30:04.033Z</time></trkpt>
      <trkpt lat="0.000001" lon="0"><time>2026-05-01T02:30:04.050Z</time></trkpt>
      <trkpt lat="0.000001" lon="0"><time>2026-05-01T02:30:04.067Z</time></trkpt>
      <trkpt lat="0.000001" lon="0"><time>2026-05-01T02:30:04.083Z</time></trkpt>
      <trkpt lat="0.000001" lon="0"><time>2026-05-01T02:30:04.100Z</time></trkpt>
      <trkpt lat="0.000001" lon="0"><time>2026-05-01T02:30:04.117Z</time></trkpt>
      <trkpt lat="0.000001" lon="0"><time>2026-05-01T02:30:04.133Z</time></trkpt>
      <trkpt lat="0.000001" lon="0"><time>2026-05-01T02:30:04.150Z</time></trkpt>
      <trkpt lat="0.000001" lon="0"><time>2026-05-01T02:30:04.167Z</time></trkpt>
      <trkpt lat="0.000001" lon="0"><time>2026-05-01T02:30:04.183Z</time></trkpt>
      <trkpt lat="0.000001" lon="0"><time>2026-05-01T02:30:04.200Z</time></trkpt>
      <trkpt lat="0.000001" lon="0"><time>2026-05-01T02:30:04.217Z</time></trkpt>
      <trkpt lat="0.000001" lon="0"><time>2026-05-01T02:30:04.233Z</time></trkpt>
      <trkpt lat="0.000001" lon="0"><time>2026-05-01T02:30:04.250Z</time></trkpt>
      <trkpt lat="0.000001" lon="0"><time>2026-05-01T02:30:04.267Z</time></trkpt>
      <trkpt lat="0.000001" lon="0"><time>2026-05-01T02:30:04.283Z</time></trkpt>
      <trkpt lat="0.000001" lon="0"><time>2026-05-01T02:30:04.300Z</time></trkpt>
      <trkpt lat="0.000001" lon="0"><time>2026-05-01T02:30:04.317Z</time></trkpt>
      <trkpt lat="0.000001" lon="0"><time>2026-05-01T02:30:04.334Z</time></trkpt>
      <trkpt lat="0.000001" lon="0"><time>2026-05-01T02:30:04.350Z</time></trkpt>
      <trkpt lat="0.000001" lon="0"><time>2026-05-01T02:30:04.367Z</time></trkpt>
      <trkpt lat="0.000001" lon="0"><time>2026-05-01T02:30:04.384Z</time></trkpt>
      <trkpt lat="0.000001" lon="0"><time>2026-05-01T02:30:04.400Z</time></trkpt>
      <trkpt lat="0.000001" lon="0"><time>2026-05-01T02:30:04.417Z</time></trkpt>
      <trkpt lat="0.000001" lon="0"><time>2026-05-01T02:30:04.434Z</time></trkpt>
      <trkpt lat="0.000001" lon="0"><time>2026-05-01T02:30:04.450Z</time></trkpt>
      <trkpt lat="0.000001" lon="0"><time>2026-05-01T02:30:04.467Z</time></trkpt>
      <trkpt lat="0.000001" lon="0"><time>2026-05-01T02:30:04.484Z</time></trkpt>
      <trkpt lat="0.000001" lon="0"><time>2026-05-01T02:30:04.500Z</time></trkpt>
      <trkpt lat="0.000001" lon="0"><time>2026-05-01T02:30:04.517Z</time></trkpt>
      <trkpt lat="0.000001" lon="0"><time>2026-05-01T02:30:04.534Z</time></trkpt>
      <trkpt lat="0.000001" lon="0"><time>2026-05-01T02:30:04.550Z</time></trkpt>
      <trkpt lat="0.000001" lon="0"><time>2026-05-01T02:30:04.567Z</time></trkpt>
      <trkpt lat="0.000001" lon="0"><time>2026-05-01T02:30:04.584Z</time></trkpt>
      <trkpt lat="0.000001" lon="0"><time>2026-05-01T02:30:04.600Z</time></trkpt>
      <trkpt lat="0.000001" lon="0"><time>2026-05-01T02:30:04.617Z</time></trkpt>
      <trkpt lat="0.000001" lon="0"><time>2026-05-01T02:30:04.634Z</time></trkpt>
      <trkpt lat="0.000001" lon="0"><time>2026-05-01T02:30:04.651Z</time></trkpt>
      <trkpt lat="0.000001" lon="0"><time>2026-05-01T02:30:04.667Z</time></trkpt>
      <trkpt lat="0.000001" lon="0"><time>2026-05-01T02:30:04.684Z</time></trkpt>
      <trkpt lat="0.000001" lon="0"><time>2026-05-01T02:30:04.701Z</time></trkpt>
      <trkpt lat="0.000001" lon="0"><time>2026-05-01T02:30:04.717Z</time></trkpt>
      <trkpt lat="0.000001" lon="0"><time>2026-05-01T02:30:04.734Z</time></trkpt>
      <trkpt lat="0.000001" lon="0"><time>2026-05-01T02:30:04.751Z</time></trkpt>
      <trkpt lat="0.000002" lon="0"><time>2026-05-01T02:30:04.767Z</time></trkpt>
      <trkpt lat="0.000002" lon="0"><time>2026-05-01T02:30:04.784Z</time></trkpt>
      <trkpt lat="0.000002" lon="0"><time>2026-05-01T02:30:04.801Z</time></trkpt>
      <trkpt lat="0.000002" lon="0"><time>2026-05-01T02:30:04.817Z</time></trkpt>
      <trkpt lat="0.000002" lon="0"><time>2026-05-01T02:30:04.834Z</time></trkpt>
      <trkpt lat="0.000002" lon="0"><time>2026-05-01T02:30:04.851Z</time></trkpt>
      <trkpt lat="0.000002" lon="0"><time>2026-05-01T02:30:04.867Z</time></trkpt>
      <trkpt lat="0.000002" lon="0"><time>2026-05-01T02:30:04.884Z</time></trkpt>
      <trkpt lat="0.000002" lon="0"><time>2026-05-01T02:30:04.901Z</time></trkpt>
      <trkpt lat="0.000002" lon="0"><time>2026-05-01T02:30:04.917Z</time></trkpt>
      <trkpt lat="0.000002" lon="0"><time>2026-05-01T02:30:04.934Z</time></trkpt>
      <trkpt lat="0.000002" lon="0"><time>2026-05-01T02:30:04.951Z</time></trkpt>
      <trkpt lat="0.000002" lon="0"><time>2026-05-01T02:30:04.968Z</time></trkpt>
      <trkpt lat="0.000002" lon="0"><time>2026-05-01T02:30:04.984Z</time></trkpt>
      <trkpt lat="0.000002" lon="0"><time>2026-05-01T02:30:05.001Z</time></trkpt>
      <trkpt lat="0.000002" lon="0"><time>2026-05-01T02:30:05.018Z</time></trkpt>
      <trkpt lat="0.000002" lon="0"><time>2026-05-01T02:30:05.034Z</time></trkpt>
      <trkpt lat="0.000002" lon="0"><time>2026-05-01T02:30:05.051Z</time></trkpt>
      <trkpt lat="0.000002" lon="0"><time>2026-05-01T02:30:05.068Z</time></trkpt>
      <trkpt lat="0.000002" lon="0"><time>2026-05-01T02:30:05.084Z</time></trkpt>
      <trkpt lat="0.000002" lon="0"><time>2026-05-01T02:30:05.101Z</time></trkpt>
      <trkpt lat="0.000002" lon="0"><time>2026-05-01T02:30:05.118Z</time></trkpt>
      <trkpt lat="0.000002" lon="0"><time>2026-05-01T02:30:05.134Z</time></trkpt>
      <trkpt lat="0.000002" lon="0"><time>2026-05-01T02:30:05.151Z</time></trkpt>
      <trkpt lat="0.000002" lon="0"><time>2026-05-01T02:30:05.168Z</time></trkpt>
      <trkpt lat="0.000002" lon="0"><time>2026-05-01T02:30:05.184Z</time></trkpt>
      <trkpt lat="0.000002" lon="0"><time>2026-05-01T02:30:05.201Z</time></trkpt>
      <trkpt lat="0.000002" lon="0"><time>2026-05-01T02:30:05.218Z</time></trkpt>
      <trkpt lat="0.000002" lon="0"><time>2026-05-01T02:30:05.234Z</time></trkpt>
      <trkpt lat="0.000002" lon="0"><time>2026-05-01T02:30:05.251Z</time></trkpt>
      <trkpt lat="0.000002" lon="0"><time>2026-05-01T02:30:05.268Z</time></trkpt>
      <trkpt lat="0.000002" lon="0"><time>2026-05-01T02:30:05.285Z</time></trkpt>
      <trkpt lat="0.000002" lon="0"><time>2026-05-01T02:30:05.301Z</time></trkpt>
      <trkpt lat="0.000002" lon="0"><time>2026-05-01T02:30:05.318Z</time></trkpt>
      <trkpt lat="0.000002" lon="0"><time>2026-05-01T02:30:05.335Z</time></trkpt>
      <trkpt lat="0.000002" lon="0"><time>2026-05-01T02:30:05.351Z</time></trkpt>
      <trkpt lat="0.000002" lon="0"><time>2026-05-01T02:30:05.368Z</time></trkpt>
      <trkpt lat="0.000002" lon="0"><time>2026-05-01T02:30:05.385Z</time></trkpt>
      <trkpt lat="0.000002" lon="0"><time>2026-05-01T02:30:05.401Z</time></trkpt>
      <trkpt lat="0.000002" lon="0"><time>2026-05-01T02:30:05.418Z</time></trkpt>
      <trkpt lat="0.000002" lon="0"><time>2026-05-01T02:30:05.435Z</time></trkpt>
      <trkpt lat="0.000002" lon="0"><time>2026-05-01T02:30:05.451Z</time></trkpt>
      <trkpt lat="0.000002" lon="0"><time>2026-05-01T02:30:05.468Z</time></trkpt>
      <trkpt lat="0.000002" lon="0"><time>2026-05-01T02:30:05.485Z</time></trkpt>
      <trkpt lat="0.000002" lon="0"><time>2026-05-01T02:30:05.501Z</time></trkpt>
      <trkpt lat="0.000002" lon="0"><time>2026-05-01T02:30:05.518Z</time></trkpt>
      <trkpt lat="0.000002" lon="0"><time>2026-05-01T02:30:05.535Z</time></trkpt>
      <trkpt lat="0.000002" lon="0"><time>2026-05-01T02:30:05.551Z</time></trkpt>
      <trkpt lat="0.000002" lon="0"><time>2026-05-01T02:30:05.568Z</time></trkpt>
      <trkpt lat="0.000002" lon="0"><time>2026-05-01T02:30:05.585Z</time></trkpt>
      <trkpt lat="0.000002" lon="0"><time>2026-05-01T02:30:05.602Z</time></trkpt>
      <trkpt lat="0.000002" lon="0"><time>2026-05-01T02:30:05.618Z</time></trkpt>
      <trkpt lat="0.000002" lon="0"><time>2026-05-01T02:30:05.635Z</time></trkpt>
      <trkpt lat="0.000002" lon="0"><time>2026-05-01T02:30:05.652Z</time></trkpt>
      <trkpt lat="0.000002" lon="0"><time>2026-05-01T02:30:05.668Z</time></trkpt>
      <trkpt lat="0.000002" lon="0"><time>2026-05-01T02:30:05.685Z</time></trkpt>
      <trkpt lat="0.000002" lon="0"><time>2026-05-01T02:30:05.702Z</time></trkpt>
      <trkpt lat="0.000002" lon="0"><time>2026-05-01T02:30:05.718Z</time></trkpt>
      <trkpt lat="0.000002" lon="0"><time>2026-05-01T02:30:05.735Z</time></trkpt>
      <trkpt lat="0.000002" lon="0"><time>2026-05-01T02:30:05.752Z</time></trkpt>
      <trkpt lat="0.000002" lon="0"><time>2026-05-01T02:30:05.768Z</time></trkpt>
      <trkpt lat="0.000002" lon="0"><time>2026-05-01T02:30:05.785Z</time></trkpt>
      <trkpt lat="0.000002" lon="0"><time>2026-05-01T02:30:05.802Z</time></trkpt>
      <trkpt lat="0.000002" lon="0"><time>2026-05-01T02:30:05.818Z</time></trkpt>
      <trkpt lat="0.000002" lon="0"><time>2026-05-01T02:30:05.835Z</time></trkpt>
      <trkpt lat="0.000002" lon="0"><time>2026-05-01T02:30:05.852Z</time></trkpt>
      <trkpt lat="0.000002" lon="0"><time>2026-05-01T02:30:05.868Z</time></trkpt>
      <trkpt lat="0.000002" lon="0"><time>2026-05-01T02:30:05.885Z</time></trkpt>
      <trkpt lat="0.000002" lon="0"><time>2026-05-01T02:30:05.902Z</time></trkpt>
      <trkpt lat="0.000002" lon="0"><time>2026-05-01T02:30:05.919Z</time></trkpt>
      <trkpt lat="0.000002" lon="0"><time>2026-05-01T02:30:05.935Z</time></trkpt>
      <trkpt lat="0.000002" lon="0"><time>2026-05-01T02:30:05.952Z</time></trkpt>
      <trkpt lat="0.000002" lon="0"><time>2026-05-01T02:30:05.969Z</time></trkpt>
      <trkpt lat="0.000002" lon="0"><time>2026-05-01T02:30:05.985Z</time></trkpt>
      <trkpt lat="0.000002" lon="0"><time>2026-05-01T02:30:06.002Z</time></trkpt>
      <trkpt lat="0.000002" lon="0"><time>2026-05-01T02:30:06.019Z</time></trkpt>
      <trkpt lat="0.000002" lon="0"><time>2026-05-01T02:30:06.035Z</time></trkpt>
      <trkpt lat="0.000002" lon="0"><time>2026-05-01T02:30:06.052Z</time></trkpt>
      <trkpt lat="0.000002" lon="0"><time>2026-05-01T02:30:06.069Z</time></trkpt>
      <trkpt lat="0.000002" lon="0"><time>2026-05-01T02:30:06.085Z</time></trkpt>
      <trkpt lat="0.000002" lon="0"><time>2026-05-01T02:30:06.102Z</time></trkpt>
      <trkpt lat="0.000002" lon="0"><time>2026-05-01T02:30:06.119Z</time></trkpt>
      <trkpt lat="0.000002" lon="0"><time>2026-05-01T02:30:06.135Z</time></trkpt>
      <trkpt lat="0.000002" lon="0"><time>2026-05-01T02:30:06.152Z</time></trkpt>
      <trkpt lat="0.000002" lon="0"><time>2026-05-01T02:30:06.169Z</time></trkpt>
      <trkpt lat="0.000002" lon="0"><time>2026-05-01T02:30:06.185Z</time></trkpt>
      <trkpt lat="0.000002" lon="0"><time>2026-05-01T02:30:06.202Z</time></trkpt>
      <trkpt lat="0.000002" lon="0"><time>2026-05-01T02:30:06.219Z</time></trkpt>
      <trkpt lat="0.000002" lon="0"><time>2026-05-01T02:30:06.236Z</time></trkpt>
      <trkpt lat="0.000002" lon="0"><time>2026-05-01T02:30:06.252Z</time></trkpt>
      <trkpt lat="0.000002" lon="0.000001"><time>2026-05-01T02:30:06.269Z</time></trkpt>
      <trkpt lat="0.000002" lon="0.000001"><time>2026-05-01T02:30:06.286Z</time></trkpt>
      <trkpt lat="0.000002" lon="0.000001"><time>2026-05-01T02:30:06.302Z</time></trkpt>
      <trkpt lat="0.000002" lon="0.000001"><time>2026-05-01T02:30:06.319Z</time></trkpt>
      <trkpt lat="0.000002" lon="0.000001"><time>2026-05-01T02:30:06.336Z</time></trkpt>
      <trkpt lat="0.000002" lon="0.000001"><time>2026-05-01T02:30:06.352Z</time></trkpt>
      <trkpt lat="0.000002" lon="0.000001"><time>2026-05-01T02:30:06.369Z</time></trkpt>
      <trkpt lat="0.000002" lon="0.000001"><time>2026-05-01T02:30:06.386Z</time></trkpt>
      <trkpt lat="0.000002" lon="0.000001"><time>2026-05-01T02:30:06.402Z</time></trkpt>
      <trkpt lat="0.000002" lon="0.000001"><time>2026-05-01T02:30:06.419Z</time></trkpt>
      <trkpt lat="0.000002" lon="0.000001"><time>2026-05-01T02:30:06.436Z</time></trkpt>
      <trkpt lat="0.000002" lon="0.000001"><time>2026-05-01T02:30:06.452Z</time></trkpt>
      <trkpt lat="0.000002" lon="0.000001"><time>2026-05-01T02:30:06.469Z</time></trkpt>
      <trkpt lat="0.000002" lon="0.000001"><time>2026-05-01T02:30:06.486Z</time></trkpt>
      <trkpt lat="0.000002" lon="0.000001"><time>2026-05-01T02:30:06.502Z</time></trkpt>
      <trkpt lat="0.000002" lon="0.000001"><time>2026-05-01T02:30:06.519Z</time></trkpt>
      <trkpt lat="0.000002" lon="0.000001"><time>2026-05-01T02:30:06.536Z</time></trkpt>
      <trkpt lat="0.000002" lon="0.000001"><time>2026-05-01T02:30:06.553Z</time></trkpt>
      <trkpt lat="0.000002" lon="0.000001"><time>2026-05-01T02:30:06.569Z</time></trkpt>
      <trkpt lat="0.000002" lon="0.000001"><time>2026-05-01T02:30:06.586Z</time></trkpt>
      <trkpt lat="0.000002" lon="0.000001"><time>2026-05-01T02:30:06.603Z</time></trkpt>
      <trkpt lat="0.000002" lon="0.000001"><time>2026-05-01T02:30:06.619Z</time></trkpt>
      <trkpt lat="0.000002" lon="0.000001"><time>2026-05-01T02:30:06.636Z</time></trkpt>
      <trkpt lat="0.000002" lon="0.000001"><time>2026-05-01T02:30:06.653Z</time></trkpt>
      <trkpt lat="0.000002" lon="0.000001"><time>2026-05-01T02:30:06.669Z</time></trkpt>
      <trkpt lat="0.000002" lon="0.000001"><time>2026-05-01T02:30:06.686Z</time></trkpt>
      <trkpt lat="0.000002" lon="0.000001"><time>2026-05-01T02:30:06.703Z</time></trkpt>
      <trkpt lat="0.000002" lon="0.000001"><time>2026-05-01T02:30:06.719Z</time></trkpt>
      <trkpt lat="0.000002" lon="0.000001"><time>2026-05-01T02:30:06.736Z</time></trkpt>
      <trkpt lat="0.000002" lon="0.000001"><time>2026-05-01T02:30:06.753Z</time></trkpt>
      <trkpt lat="0.000001" lon="0.000001"><time>2026-05-01T02:30:06.769Z</time></trkpt>
      <trkpt lat="0.000001" lon="0.000001"><time>2026-05-01T02:30:06.786Z</time></trkpt>
      <trkpt lat="0.000001" lon="0.000001"><time>2026-05-01T02:30:06.803Z</time></trkpt>
      <trkpt lat="0.000001" lon="0.000001"><time>2026-05-01T02:30:06.819Z</time></trkpt>
      <trkpt lat="0.000001" lon="0.000001"><time>2026-05-01T02:30:06.836Z</time></trkpt>
      <trkpt lat="0.000001" lon="0.000001"><time>2026-05-01T02:30:06.853Z</time></trkpt>
      <trkpt lat="0.000001" lon="0.000001"><time>2026-05-01T02:30:06.870Z</time></trkpt>
      <trkpt lat="0.000001" lon="0.000001"><time>2026-05-01T02:30:06.886Z</time></trkpt>
      <trkpt lat="0.000001" lon="0.000001"><time>2026-05-01T02:30:06.903Z</time></trkpt>
      <trkpt lat="0.000001" lon="0.000001"><time>2026-05-01T02:30:06.920Z</time></trkpt>
      <trkpt lat="0.000001" lon="0.000001"><time>2026-05-01T02:30:06.936Z</time></trkpt>
      <trkpt lat="0.000001" lon="0.000001"><time>2026-05-01T02:30:06.953Z</time></trkpt>
      <trkpt lat="0.000001" lon="0.000001"><time>2026-05-01T02:30:06.970Z</time></trkpt>
      <trkpt lat="0.000001" lon="0.000001"><time>2026-05-01T02:30:06.986Z</time></trkpt>
      <trkpt lat="0.000001" lon="0.000001"><time>2026-05-01T02:30:07.003Z</time></trkpt>
      <trkpt lat="0.000001" lon="0.000001"><time>2026-05-01T02:30:07.020Z</time></trkpt>
      <trkpt lat="0.000001" lon="0.000001"><time>2026-05-01T02:30:07.036Z</time></trkpt>
      <trkpt lat="0.000001" lon="0.000001"><time>2026-05-01T02:30:07.053Z</time></trkpt>
      <trkpt lat="0.000001" lon="0.000001"><time>2026-05-01T02:30:07.070Z</time></trkpt>
      <trkpt lat="0.000001" lon="0.000001"><time>2026-05-01T02:30:07.086Z</time></trkpt>
      <trkpt lat="0.000001" lon="0.000001"><time>2026-05-01T02:30:07.103Z</time></trkpt>
      <trkpt lat="0.000001" lon="0.000001"><time>2026-05-01T02:30:07.120Z</time></trkpt>
      <trkpt lat="0.000001" lon="0.000001"><time>2026-05-01T02:30:07.136Z</time></trkpt>
      <trkpt lat="0.000001" lon="0.000001"><time>2026-05-01T02:30:07.153Z</time></trkpt>
      <trkpt lat="0.000001" lon="0.000001"><time>2026-05-01T02:30:07.170Z</time></trkpt>
      <trkpt lat="0.000001" lon="0.000001"><time>2026-05-01T02:30:07.187Z</time></trkpt>
      <trkpt lat="0.000001" lon="0.000001"><time>2026-05-01T02:30:07.203Z</time></trkpt>
      <trkpt lat="0.000001" lon="0.000001"><time>2026-05-01T02:30:07.220Z</time></trkpt>
      <trkpt lat="0.000001" lon="0.000001"><time>2026-05-01T02:30:07.237Z</time></trkpt>
      <trkpt lat="0.000001" lon="0.000001"><time>2026-05-01T02:30:07.253Z</time></trkpt>
      <trkpt lat="0.000001" lon="0.000001"><time>2026-05-01T02:30:07.270Z</time></trkpt>
      <trkpt lat="0.000001" lon="0.000001"><time>2026-05-01T02:30:07.287Z</time></trkpt>
      <trkpt lat="0.000001" lon="0.000001"><time>2026-05-01T02:30:07.303Z</time></trkpt>
      <trkpt lat="0.000001" lon="0.000001"><time>2026-05-01T02:30:07.320Z</time></trkpt>
      <trkpt lat="0.000001" lon="0.000001"><time>2026-05-01T02:30:07.337Z</time></trkpt>
      <trkpt lat="0.000001" lon="0.000001"><time>2026-05-01T02:30:07.353Z</time></trkpt>
      <trkpt lat="0.000001" lon="0.000001"><time>2026-05-01T02:30:07.370Z</time></trkpt>
      <trkpt lat="0.000001" lon="0.000001"><time>2026-05-01T02:30:07.387Z</time></trkpt>
      <trkpt lat="0.000001" lon="0.000001"><time>2026-05-01T02:30:07.403Z</time></trkpt>
      <trkpt lat="0.000001" lon="0.000001"><time>2026-05-01T02:30:07.420Z</time></trkpt>
      <trkpt lat="0.000001" lon="0.000001"><time>2026-05-01T02:30:07.437Z</time></trkpt>
      <trkpt lat="0.000001" lon="0.000001"><time>2026-05-01T02:30:07.453Z</time></trkpt>
      <trkpt lat="0.000001" lon="0.000001"><time>2026-05-01T02:30:07.470Z</time></trkpt>
      <trkpt lat="0.000001" lon="0.000001"><time>2026-05-01T02:30:07.487Z</time></trkpt>
      <trkpt lat="0.000001" lon="0.000001"><time>2026-05-01T02:30:07.504Z</time></trkpt>
      <trkpt lat="0.000001" lon="0.000001"><time>2026-05-01T02:30:07.520Z</time></trkpt>
      <trkpt lat="0.000001" lon="0.000001"><time>2026-05-01T02:30:07.537Z</time></trkpt>
      <trkpt lat="0.000001" lon="0.000001"><time>2026-05-01T02:30:07.554Z</time></trkpt>
      <trkpt lat="0.000001" lon="0"><time>2026-05-01T02:30:07.570Z</time></trkpt>
      <trkpt lat="0.000001" lon="0"><time>2026-05-01T02:30:07.587Z</time></trkpt>
      <trkpt lat="0.000001" lon="0"><time>2026-05-01T02:30:07.604Z</time></trkpt>
      <trkpt lat="0.000001" lon="0"><time>2026-05-01T02:30:07.620Z</time></trkpt>
      <trkpt lat="0.000001" lon="0"><time>2026-05-01T02:30:07.637Z</time></trkpt>
      <trkpt lat="0.000001" lon="0"><time>2026-05-01T02:30:07.654Z</time></trkpt>
      <trkpt lat="0.000001" lon="0"><time>2026-05-01T02:30:07.670Z</time></trkpt>
      <trkpt lat="0.000001" lon="0"><time>2026-05-01T02:30:07.687Z</time></trkpt>
      <trkpt lat="0.000001" lon="0"><time>2026-05-01T02:30:07.704Z</time></trkpt>
      <trkpt lat="0.000001" lon="0"><time>2026-05-01T02:30:07.720Z</time></trkpt>
      <trkpt lat="0.000001" lon="0"><time>2026-05-01T02:30:07.737Z</time></trkpt>
      <trkpt lat="0.000001" lon="0"><time>2026-05-01T02:30:07.754Z</time></trkpt>
      <trkpt lat="0.000001" lon="0"><time>2026-05-01T02:30:07.770Z</time></trkpt>
      <trkpt lat="0.000001" lon="0"><time>2026-05-01T02:30:07.787Z</time></trkpt>
      <trkpt lat="0.000001" lon="0"><time>2026-05-01T02:30:07.804Z</time></trkpt>
      <trkpt lat="0.000001" lon="0"><time>2026-05-01T02:30:07.821Z</time></trkpt>
      <trkpt lat="0.000001" lon="0"><time>2026-05-01T02:30:07.837Z</time></trkpt>
      <trkpt lat="0.000001" lon="0"><time>2026-05-01T02:30:07.854Z</time></trkpt>
      <trkpt lat="0.000002" lon="0"><time>2026-05-01T02:30:07.871Z</time></trkpt>
      <trkpt lat="0.000002" lon="0"><time>2026-05-01T02:30:07.887Z</time></trkpt>
      <trkpt lat="0.000002" lon="0"><time>2026-05-01T02:30:07.904Z</time></trkpt>
      <trkpt lat="0.000002" lon="0"><time>2026-05-01T02:30:07.921Z</time></trkpt>
      <trkpt lat="0.000002" lon="0"><time>2026-05-01T02:30:07.937Z</time></trkpt>
      <trkpt lat="0.000002" lon="0"><time>2026-05-01T02:30:07.954Z</time></trkpt>
      <trkpt lat="0.000002" lon="0"><time>2026-05-01T02:30:07.971Z</time></trkpt>
      <trkpt lat="0.000002" lon="0"><time>2026-05-01T02:30:07.987Z</time></trkpt>
      <trkpt lat="0.000002" lon="0"><time>2026-05-01T02:30:08.004Z</time></trkpt>
      <trkpt lat="0.000002" lon="0"><time>2026-05-01T02:30:08.021Z</time></trkpt>
      <trkpt lat="0.000002" lon="0"><time>2026-05-01T02:30:08.037Z</time></trkpt>
      <trkpt lat="0.000002" lon="0"><time>2026-05-01T02:30:08.054Z</time></trkpt>
      <trkpt lat="0.000002" lon="0"><time>2026-05-01T02:30:08.071Z</time></trkpt>
      <trkpt lat="0.000002" lon="0"><time>2026-05-01T02:30:08.087Z</time></trkpt>
      <trkpt lat="0.000002" lon="0"><time>2026-05-01T02:30:08.104Z</time></trkpt>
      <trkpt lat="0.000002" lon="0"><time>2026-05-01T02:30:08.121Z</time></trkpt>
      <trkpt lat="0.000002" lon="0"><time>2026-05-01T02:30:08.138Z</time></trkpt>
      <trkpt lat="0.000002" lon="0"><time>2026-05-01T02:30:08.154Z</time></trkpt>
      <trkpt lat="0.000002" lon="0"><time>2026-05-01T02:30:08.171Z</time></trkpt>
      <trkpt lat="0.000002" lon="0"><time>2026-05-01T02:30:08.188Z</time></trkpt>
      <trkpt lat="0.000002" lon="0"><time>2026-05-01T02:30:08.204Z</time></trkpt>
      <trkpt lat="0.000002" lon="0"><time>2026-05-01T02:30:08.221Z</time></trkpt>
      <trkpt lat="0.000002" lon="0"><time>2026-05-01T02:30:08.238Z</time></trkpt>
      <trkpt lat="0.000002" lon="0"><time>2026-05-01T02:30:08.254Z</time></trkpt>
      <trkpt lat="0.000002" lon="0"><time>2026-05-01T02:30:08.271Z</time></trkpt>
      <trkpt lat="0.000002" lon="0"><time>2026-05-01T02:30:08.288Z</time></trkpt>
      <trkpt lat="0.000002" lon="0"><time>2026-05-01T02:30:08.304Z</time></trkpt>
      <trkpt lat="0.000002" lon="0"><time>2026-05-01T02:30:08.321Z</time></trkpt>
      <trkpt lat="0.000002" lon="0"><time>2026-05-01T02:30:08.338Z</time></trkpt>
      <trkpt lat="0.000002" lon="0"><time>2026-05-01T02:30:08.354Z</time></trkpt>
      <trkpt lat="0.000002" lon="0"><time>2026-05-01T02:30:08.371Z</time></trkpt>
      <trkpt lat="0.000002" lon="0"><time>2026-05-01T02:30:08.388Z</time></trkpt>
      <trkpt lat="0.000002" lon="0"><time>2026-05-01T02:30:08.404Z</time></trkpt>
      <trkpt lat="0.000002" lon="0"><time>2026-05-01T02:30:08.421Z</time></trkpt>
      <trkpt lat="0.000002" lon="0"><time>2026-05-01T02:30:08.438Z</time></trkpt>
      <trkpt lat="0.000002" lon="0"><time>2026-05-01T02:30:08.455Z</time></trkpt>
      <trkpt lat="0.000002" lon="0"><time>2026-05-01T02:30:08.471Z</time></trkpt>
      <trkpt lat="0.000002" lon="0"><time>2026-05-01T02:30:08.488Z</time></trkpt>
      <trkpt lat="0.000002" lon="0"><time>2026-05-01T02:30:08.505Z</time></trkpt>
      <trkpt lat="0.000002" lon="0"><time>2026-05-01T02:30:08.521Z</time></trkpt>
      <trkpt lat="0.000002" lon="0"><time>2026-05-01T02:30:08.538Z</time></trkpt>
      <trkpt lat="0.000002" lon="0"><time>2026-05-01T02:30:08.555Z</time></trkpt>
      <trkpt lat="0.000002" lon="0"><time>2026-05-01T02:30:08.571Z</time></trkpt>
      <trkpt lat="0.000002" lon="0"><time>2026-05-01T02:30:08.588Z</time></trkpt>
      <trkpt lat="0.000002" lon="0"><time>2026-05-01T02:30:08.605Z</time></trkpt>
      <trkpt lat="0.000002" lon="0"><time>2026-05-01T02:30:08.621Z</time></trkpt>
      <trkpt lat="0.000002" lon="0"><time>2026-05-01T02:30:08.638Z</time></trkpt>
      <trkpt lat="0.000002" lon="0"><time>2026-05-01T02:30:08.655Z</time></trkpt>
      <trkpt lat="0.000003" lon="0"><time>2026-05-01T02:30:08.671Z</time></trkpt>
      <trkpt lat="0.000003" lon="0"><time>2026-05-01T02:30:08.688Z</time></trkpt>
      <trkpt lat="0.000003" lon="0"><time>2026-05-01T02:30:08.705Z</time></trkpt>
      <trkpt lat="0.000003" lon="0"><time>2026-05-01T02:30:08.721Z</time></trkpt>
      <trkpt lat="0.000003" lon="0"><time>2026-05-01T02:30:08.738Z</time></trkpt>
      <trkpt lat="0.000003" lon="0"><time>2026-05-01T02:30:08.755Z</time></trkpt>
      <trkpt lat="0.000003" lon="0"><time>2026-05-01T02:30:08.772Z</time></trkpt>
      <trkpt lat="0.000003" lon="0"><time>2026-05-01T02:30:08.788Z</time></trkpt>
      <trkpt lat="0.000003" lon="0"><time>2026-05-01T02:30:08.805Z</time></trkpt>
      <trkpt lat="0.000003" lon="0"><time>2026-05-01T02:30:08.822Z</time></trkpt>
      <trkpt lat="0.000003" lon="0"><time>2026-05-01T02:30:08.838Z</time></trkpt>
      <trkpt lat="0.000003" lon="0"><time>2026-05-01T02:30:08.855Z</time></trkpt>
      <trkpt lat="29.712227" lon="98.000115"><time>2026-05-01T02:30:08.872Z</time></trkpt>
      <trkpt lat="29.712227" lon="98.000115"><time>2026-05-01T02:30:08.888Z</time></trkpt>
      <trkpt lat="29.712227" lon="98.000115"><time>2026-05-01T02:30:08.905Z</time></trkpt>
      <trkpt lat="29.712227" lon="98.000115"><time>2026-05-01T02:30:08.922Z</time></trkpt>
      <trkpt lat="29.712227" lon="98.000115"><time>2026-05-01T02:30:08.938Z</time></trkpt>
      <trkpt lat="29.712227" lon="98.000115"><time>2026-05-01T02:30:08.955Z</time></trkpt>
      <trkpt lat="29.712228" lon="98.000115"><time>2026-05-01T02:30:08.972Z</time></trkpt>
      <trkpt lat="29.712228" lon="98.000115"><time>2026-05-01T02:30:08.988Z</time></trkpt>
      <trkpt lat="29.712228" lon="98.000115"><time>2026-05-01T02:30:09.005Z</time></trkpt>
    </trkseg>
  </trk>
</gpx>
