<?xml version="1.0" encoding="UTF-8"?>
<gpx version="1.1" creator="Kairos" xmlns="http://www.topografix.com/GPX/1/1">
  <trk>
    <name>sidecar-srt-d83023d388c4b9a5</name>
    <trkseg>
      <trkpt lat="29.801757" lon="99.748011"><time>2026-05-02T22:35:51.000Z</time></trkpt>
      <trkpt lat="29.801757" lon="99.748011"><time>2026-05-02T22:35:51.016Z</time></trkpt>
      <trkpt lat="29.801757" lon="99.748011"><time>2026-05-02T22:35:51.032Z</time></trkpt>
      <trkpt lat="29.801757" lon="99.748011"><time>2026-05-02T22:35:51.049Z</time></trkpt>
      <trkpt lat="29.801757" lon="99.748011"><time>2026-05-02T22:35:51.066Z</time></trkpt>
      <trkpt lat="29.801757" lon="99.748011"><time>2026-05-02T22:35:51.082Z</time></trkpt>
      <trkpt lat="29.801757" lon="99.748011"><time>2026-05-02T22:35:51.099Z</time></trkpt>
      <trkpt lat="29.801757" lon="99.748011"><time>2026-05-02T22:35:51.116Z</time></trkpt>
      <trkpt lat="29.801757" lon="99.748011"><time>2026-05-02T22:35:51.132Z</time></trkpt>
      <trkpt lat="29.801757" lon="99.748011"><time>2026-05-02T22:35:51.149Z</time></trkpt>
      <trkpt lat="29.801757" lon="99.748012"><time>2026-05-02T22:35:51.166Z</time></trkpt>
      <trkpt lat="29.801757" lon="99.748012"><time>2026-05-02T22:35:51.182Z</time></trkpt>
      <trkpt lat="29.801757" lon="99.748012"><time>2026-05-02T22:35:51.199Z</time></trkpt>
      <trkpt lat="29.801757" lon="99.748012"><time>2026-05-02T22:35:51.216Z</time></trkpt>
      <trkpt lat="29.801757" lon="99.748012"><time>2026-05-02T22:35:51.232Z</time></trkpt>
      <trkpt lat="29.801757" lon="99.748012"><time>2026-05-02T22:35:51.249Z</time></trkpt>
      <trkpt lat="29.801757" lon="99.748011"><time>2026-05-02T22:35:51.266Z</time></trkpt>
      <trkpt lat="29.801757" lon="99.748011"><time>2026-05-02T22:35:51.282Z</time></trkpt>
      <trkpt lat="29.801757" lon="99.748011"><time>2026-05-02T22:35:51.299Z</time></trkpt>
      <trkpt lat="29.801757" lon="99.748011"><time>2026-05-02T22:35:51.316Z</time></trkpt>
      <trkpt lat="29.801757" lon="99.748011"><time>2026-05-02T22:35:51.333Z</time></trkpt>
      <trkpt lat="29.801757" lon="99.748011"><time>2026-05-02T22:35:51.349Z</time></trkpt>
      <trkpt lat="29.801757" lon="99.748011"><time>2026-05-02T22:35:51.366Z</time></trkpt>
      <trkpt lat="29.801757" lon="99.748011"><time>2026-05-02T22:35:51.383Z</time></trkpt>
      <trkpt lat="29.801757" lon="99.748011"><time>2026-05-02T22:35:51.399Z</time></trkpt>
      <trkpt lat="29.801757" lon="99.748011"><time>2026-05-02T22:35:51.416Z</time></trkpt>
      <trkpt lat="29.801757" lon="99.748011"><time>2026-05-02T22:35:51.433Z</time></trkpt>
      <trkpt lat="29.801757" lon="99.748011"><time>2026-05-02T22:35:51.449Z</time></trkpt>
      <trkpt lat="29.801756" lon="99.748011"><time>2026-05-02T22:35:51.466Z</time></trkpt>
      <trkpt lat="29.801756" lon="99.748011"><time>2026-05-02T22:35:51.483Z</time></trkpt>
      <trkpt lat="29.801756" lon="99.748011"><time>2026-05-02T22:35:51.499Z</time></trkpt>
      <trkpt lat="29.801756" lon="99.748011"><time>2026-05-02T22:35:51.516Z</time></trkpt>
      <trkpt lat="29.801756" lon="99.748011"><time>2026-05-02T22:35:51.533Z</time></trkpt>
      <trkpt lat="29.801756" lon="99.748011"><time>2026-05-02T22:35:51.549Z</time></trkpt>
      <trkpt lat="29.801756" lon="99.748011"><time>2026-05-02T22:35:51.566Z</time></trkpt>
      <trkpt lat="29.801756" lon="99.748011"><time>2026-05-02T22:35:51.583Z</time></trkpt>
      <trkpt lat="29.801756" lon="99.748011"><time>2026-05-02T22:35:51.599Z</time></trkpt>
      <trkpt lat="29.801756" lon="99.748011"><time>2026-05-02T22:35:51.616Z</time></trkpt>
      <trkpt lat="29.801756" lon="99.748011"><time>2026-05-02T22:35:51.633Z</time></trkpt>
      <trkpt lat="29.801756" lon="99.748011"><time>2026-05-02T22:35:51.650Z</time></trkpt>
      <trkpt lat="29.801756" lon="99.748011"><time>2026-05-02T22:35:51.666Z</time></trkpt>
      <trkpt lat="29.801756" lon="99.748011"><time>2026-05-02T22:35:51.683Z</time></trkpt>
      <trkpt lat="29.801756" lon="99.748011"><time>2026-05-02T22:35:51.700Z</time></trkpt>
      <trkpt lat="29.801756" lon="99.748011"><time>2026-05-02T22:35:51.716Z</time></trkpt>
      <trkpt lat="29.801756" lon="99.748011"><time>2026-05-02T22:35:51.733Z</time></trkpt>
      <trkpt lat="29.801756" lon="99.748011"><time>2026-05-02T22:35:51.750Z</time></trkpt>
      <trkpt lat="29.801757" lon="99.748011"><time>2026-05-02T22:35:51.766Z</time></trkpt>
      <trkpt lat="29.801757" lon="99.748011"><time>2026-05-02T22:35:51.783Z</time></trkpt>
      <trkpt lat="29.801757" lon="99.748011"><time>2026-05-02T22:35:51.800Z</time></trkpt>
      <trkpt lat="29.801757" lon="99.748011"><time>2026-05-02T22:35:51.816Z</time></trkpt>
      <trkpt lat="29.801757" lon="99.748011"><time>2026-05-02T22:35:51.833Z</time></trkpt>
      <trkpt lat="29.801757" lon="99.748011"><time>2026-05-02T22:35:51.850Z</time></trkpt>
      <trkpt lat="29.801757" lon="99.748011"><time>2026-05-02T22:35:51.866Z</time></trkpt>
      <trkpt lat="29.801757" lon="99.748011"><time>2026-05-02T22:35:51.883Z</time></trkpt>
      <trkpt lat="29.801757" lon="99.748011"><time>2026-05-02T22:35:51.900Z</time></trkpt>
      <trkpt lat="29.801757" lon="99.748011"><time>2026-05-02T22:35:51.916Z</time></trkpt>
      <trkpt lat="29.801757" lon="99.748011"><time>2026-05-02T22:35:51.933Z</time></trkpt>
      <trkpt lat="29.801757" lon="99.748011"><time>2026-05-02T22:35:51.950Z</time></trkpt>
      <trkpt lat="29.801757" lon="99.748011"><time>2026-05-02T22:35:51.966Z</time></trkpt>
      <trkpt lat="29.801757" lon="99.748011"><time>2026-05-02T22:35:51.983Z</time></trkpt>
      <trkpt lat="29.801757" lon="99.748011"><time>2026-05-02T22:35:52.000Z</time></trkpt>
      <trkpt lat="29.801757" lon="99.748011"><time>2026-05-02T22:35:52.017Z</time></trkpt>
      <trkpt lat="29.801757" lon="99.748011"><time>2026-05-02T22:35:52.033Z</time></trkpt>
      <trkpt lat="29.801757" lon="99.748011"><time>2026-05-02T22:35:52.050Z</time></trkpt>
      <trkpt lat="29.801757" lon="99.74801"><time>2026-05-02T22:35:52.067Z</time></trkpt>
      <trkpt lat="29.801757" lon="99.74801"><time>2026-05-02T22:35:52.083Z</time></trkpt>
      <trkpt lat="29.801757" lon="99.74801"><time>2026-05-02T22:35:52.100Z</time></trkpt>
      <trkpt lat="29.801757" lon="99.74801"><time>2026-05-02T22:35:52.117Z</time></trkpt>
      <trkpt lat="29.801757" lon="99.74801"><time>2026-05-02T22:35:52.133Z</time></trkpt>
      <trkpt lat="29.801757" lon="99.74801"><time>2026-05-02T22:35:52.150Z</time></trkpt>
      <trkpt lat="29.801757" lon="99.74801"><time>2026-05-02T22:35:52.167Z</time></trkpt>
      <trkpt lat="29.801757" lon="99.74801"><time>2026-05-02T22:35:52.183Z</time></trkpt>
      <trkpt lat="29.801757" lon="99.74801"><time>2026-05-02T22:35:52.200Z</time></trkpt>
      <trkpt lat="29.801757" lon="99.74801"><time>2026-05-02T22:35:52.217Z</time></trkpt>
      <trkpt lat="29.801757" lon="99.74801"><time>2026-05-02T22:35:52.233Z</time></trkpt>
      <trkpt lat="29.801757" lon="99.74801"><time>2026-05-02T22:35:52.250Z</time></trkpt>
      <trkpt lat="29.801756" lon="99.74801"><time>2026-05-02T22:35:52.267Z</time></trkpt>
      <trkpt lat="29.801756" lon="99.74801"><time>2026-05-02T22:35:52.283Z</time></trkpt>
      <trkpt lat="29.801756" lon="99.74801"><time>2026-05-02T22:35:52.300Z</time></trkpt>
      <trkpt lat="29.801756" lon="99.74801"><time>2026-05-02T22:35:52.317Z</time></trkpt>
      <trkpt lat="29.801756" lon="99.74801"><time>2026-05-02T22:35:52.334Z</time></trkpt>
      <trkpt lat="29.801756" lon="99.74801"><time>2026-05-02T22:35:52.350Z</time></trkpt>
      <trkpt lat="29.801756" lon="99.748009"><time>2026-05-02T22:35:52.367Z</time></trkpt>
      <trkpt lat="29.801756" lon="99.748009"><time>2026-05-02T22:35:52.384Z</time></trkpt>
      <trkpt lat="29.801756" lon="99.748009"><time>2026-05-02T22:35:52.400Z</time></trkpt>
      <trkpt lat="29.801756" lon="99.748009"><time>2026-05-02T22:35:52.417Z</time></trkpt>
      <trkpt lat="29.801756" lon="99.748009"><time>2026-05-02T22:35:52.434Z</time></trkpt>
      <trkpt lat="29.801756" lon="99.748009"><time>2026-05-02T22:35:52.450Z</time></trkpt>
      <trkpt lat="29.801755" lon="99.748008"><time>2026-05-02T22:35:52.467Z</time></trkpt>
      <trkpt lat="29.801755" lon="99.748008"><time>2026-05-02T22:35:52.484Z</time></trkpt>
      <trkpt lat="29.801755" lon="99.748008"><time>2026-05-02T22:35:52.500Z</time></trkpt>
      <trkpt lat="29.801755" lon="99.748008"><time>2026-05-02T22:35:52.517Z</time></trkpt>
      <trkpt lat="29.801755" lon="99.748008"><time>2026-05-02T22:35:52.534Z</time></trkpt>
      <trkpt lat="29.801755" lon="99.748008"><time>2026-05-02T22:35:52.550Z</time></trkpt>
      <trkpt lat="29.801754" lon="99.748006"><time>2026-05-02T22:35:52.567Z</time></trkpt>
      <trkpt lat="29.801754" lon="99.748006"><time>2026-05-02T22:35:52.584Z</time></trkpt>
      <trkpt lat="29.801754" lon="99.748006"><time>2026-05-02T22:35:52.600Z</time></trkpt>
      <trkpt lat="29.801754" lon="99.748006"><time>2026-05-02T22:35:52.617Z</time></trkpt>
      <trkpt lat="29.801754" lon="99.748006"><time>2026-05-02T22:35:52.634Z</time></trkpt>
      <trkpt lat="29.801754" lon="99.748006"><time>2026-05-02T22:35:52.651Z</time></trkpt>
      <trkpt lat="29.801753" lon="99.748003"><time>2026-05-02T22:35:52.667Z</time></trkpt>
      <trkpt lat="29.801753" lon="99.748003"><time>2026-05-02T22:35:52.684Z</time></trkpt>
      <trkpt lat="29.801753" lon="99.748003"><time>2026-05-02T22:35:52.701Z</time></trkpt>
      <trkpt lat="29.801753" lon="99.748003"><time>2026-05-02T22:35:52.717Z</time></trkpt>
      <trkpt lat="29.801753" lon="99.748003"><time>2026-05-02T22:35:52.734Z</time></trkpt>
      <trkpt lat="29.801753" lon="99.748003"><time>2026-05-02T22:35:52.751Z</time></trkpt>
      <trkpt lat="29.801752" lon="99.748"><time>2026-05-02T22:35:52.767Z</time></trkpt>
      <trkpt lat="29.801752" lon="99.748"><time>2026-05-02T22:35:52.784Z</time></trkpt>
      <trkpt lat="29.801752" lon="99.748"><time>2026-05-02T22:35:52.801Z</time></trkpt>
      <trkpt lat="29.801752" lon="99.748"><time>2026-05-02T22:35:52.817Z</time></trkpt>
      <trkpt lat="29.801752" lon="99.748"><time>2026-05-02T22:35:52.834Z</time></trkpt>
      <trkpt lat="29.801752" lon="99.748"><time>2026-05-02T22:35:52.851Z</time></trkpt>
      <trkpt lat="29.80175" lon="99.747997"><time>2026-05-02T22:35:52.867Z</time></trkpt>
      <trkpt lat="29.80175" lon="99.747997"><time>2026-05-02T22:35:52.884Z</time></trkpt>
      <trkpt lat="29.80175" lon="99.747997"><time>2026-05-02T22:35:52.901Z</time></trkpt>
      <trkpt lat="29.80175" lon="99.747997"><time>2026-05-02T22:35:52.917Z</time></trkpt>
      <trkpt lat="29.80175" lon="99.747997"><time>2026-05-02T22:35:52.934Z</time></trkpt>
      <trkpt lat="29.80175" lon="99.747997"><time>2026-05-02T22:35:52.951Z</time></trkpt>
      <trkpt lat="29.801748" lon="99.747993"><time>2026-05-02T22:35:52.968Z</time></trkpt>
      <trkpt lat="29.801748" lon="99.747993"><time>2026-05-02T22:35:52.984Z</time></trkpt>
      <trkpt lat="29.801748" lon="99.747993"><time>2026-05-02T22:35:53.001Z</time></trkpt>
      <trkpt lat="29.801748" lon="99.747993"><time>2026-05-02T22:35:53.018Z</time></trkpt>
      <trkpt lat="29.801748" lon="99.747993"><time>2026-05-02T22:35:53.034Z</time></trkpt>
      <trkpt lat="29.801748" lon="99.747993"><time>2026-05-02T22:35:53.051Z</time></trkpt>
      <trkpt lat="29.801746" lon="99.747989"><time>2026-05-02T22:35:53.068Z</time></trkpt>
      <trkpt lat="29.801746" lon="99.747989"><time>2026-05-02T22:35:53.084Z</time></trkpt>
      <trkpt lat="29.801746" lon="99.747989"><time>2026-05-02T22:35:53.101Z</time></trkpt>
      <trkpt lat="29.801746" lon="99.747989"><time>2026-05-02T22:35:53.118Z</time></trkpt>
      <trkpt lat="29.801746" lon="99.747989"><time>2026-05-02T22:35:53.134Z</time></trkpt>
      <trkpt lat="29.801746" lon="99.747989"><time>2026-05-02T22:35:53.151Z</time></trkpt>
      <trkpt lat="29.801744" lon="99.747984"><time>2026-05-02T22:35:53.168Z</time></trkpt>
      <trkpt lat="29.801744" lon="99.747984"><time>2026-05-02T22:35:53.184Z</time></trkpt>
      <trkpt lat="29.801744" lon="99.747984"><time>2026-05-02T22:35:53.201Z</time></trkpt>
      <trkpt lat="29.801744" lon="99.747984"><time>2026-05-02T22:35:53.218Z</time></trkpt>
      <trkpt lat="29.801744" lon="99.747984"><time>2026-05-02T22:35:53.234Z</time></trkpt>
      <trkpt lat="29.801744" lon="99.747984"><time>2026-05-02T22:35:53.251Z</time></trkpt>
      <trkpt lat="29.801742" lon="99.74798"><time>2026-05-02T22:35:53.268Z</time></trkpt>
      <trkpt lat="29.801742" lon="99.74798"><time>2026-05-02T22:35:53.285Z</time></trkpt>
      <trkpt lat="29.801742" lon="99.74798"><time>2026-05-02T22:35:53.301Z</time></trkpt>
      <trkpt lat="29.801742" lon="99.74798"><time>2026-05-02T22:35:53.318Z</time></trkpt>
      <trkpt lat="29.801742" lon="99.74798"><time>2026-05-02T22:35:53.335Z</time></trkpt>
      <trkpt lat="29.801742" lon="99.74798"><time>2026-05-02T22:35:53.351Z</time></trkpt>
      <trkpt lat="29.801739" lon="99.747975"><time>2026-05-02T22:35:53.368Z</time></trkpt>
      <trkpt lat="29.801739" lon="99.747975"><time>2026-05-02T22:35:53.385Z</time></trkpt>
      <trkpt lat="29.801739" lon="99.747975"><time>2026-05-02T22:35:53.401Z</time></trkpt>
      <trkpt lat="29.801739" lon="99.747975"><time>2026-05-02T22:35:53.418Z</time></trkpt>
      <trkpt lat="29.801739" lon="99.747975"><time>2026-05-02T22:35:53.435Z</time></trkpt>
      <trkpt lat="29.801739" lon="99.747975"><time>2026-05-02T22:35:53.451Z</time></trkpt>
      <trkpt lat="29.801737" lon="99.747971"><time>2026-05-02T22:35:53.468Z</time></trkpt>
      <trkpt lat="29.801737" lon="99.747971"><time>2026-05-02T22:35:53.485Z</time></trkpt>
      <trkpt lat="29.801737" lon="99.747971"><time>2026-05-02T22:35:53.501Z</time></trkpt>
      <trkpt lat="29.801737" lon="99.747971"><time>2026-05-02T22:35:53.518Z</time></trkpt>
      <trkpt lat="29.801737" lon="99.747971"><time>2026-05-02T22:35:53.535Z</time></trkpt>
      <trkpt lat="29.801737" lon="99.747971"><time>2026-05-02T22:35:53.551Z</time></trkpt>
      <trkpt lat="29.801736" lon="99.747968"><time>2026-05-02T22:35:53.568Z</time></trkpt>
      <trkpt lat="29.801736" lon="99.747968"><time>2026-05-02T22:35:53.585Z</time></trkpt>
      <trkpt lat="29.801736" lon="99.747968"><time>2026-05-02T22:35:53.602Z</time></trkpt>
      <trkpt lat="29.801736" lon="99.747968"><time>2026-05-02T22:35:53.618Z</time></trkpt>
      <trkpt lat="29.801736" lon="99.747968"><time>2026-05-02T22:35:53.635Z</time></trkpt>
      <trkpt lat="29.801736" lon="99.747968"><time>2026-05-02T22:35:53.652Z</time></trkpt>
      <trkpt lat="29.801735" lon="99.747966"><time>2026-05-02T22:35:53.668Z</time></trkpt>
      <trkpt lat="29.801735" lon="99.747966"><time>2026-05-02T22:35:53.685Z</time></trkpt>
      <trkpt lat="29.801735" lon="99.747966"><time>2026-05-02T22:35:53.702Z</time></trkpt>
      <trkpt lat="29.801735" lon="99.747966"><time>2026-05-02T22:35:53.718Z</time></trkpt>
      <trkpt lat="29.801735" lon="99.747966"><time>2026-05-02T22:35:53.735Z</time></trkpt>
      <trkpt lat="29.801735" lon="99.747966"><time>2026-05-02T22:35:53.752Z</time></trkpt>
      <trkpt lat="29.801734" lon="99.747964"><time>2026-05-02T22:35:53.768Z</time></trkpt>
      <trkpt lat="29.801734" lon="99.747964"><time>2026-05-02T22:35:53.785Z</time></trkpt>
      <trkpt lat="29.801734" lon="99.747964"><time>2026-05-02T22:35:53.802Z</time></trkpt>
      <trkpt lat="29.801734" lon="99.747964"><time>2026-05-02T22:35:53.818Z</time></trkpt>
      <trkpt lat="29.801734" lon="99.747964"><time>2026-05-02T22:35:53.835Z</time></trkpt>
      <trkpt lat="29.801734" lon="99.747964"><time>2026-05-02T22:35:53.852Z</time></trkpt>
      <trkpt lat="29.801733" lon="99.747963"><time>2026-05-02T22:35:53.868Z</time></trkpt>
      <trkpt lat="29.801733" lon="99.747963"><time>2026-05-02T22:35:53.885Z</time></trkpt>
      <trkpt lat="29.801733" lon="99.747963"><time>2026-05-02T22:35:53.902Z</time></trkpt>
      <trkpt lat="29.801733" lon="99.747963"><time>2026-05-02T22:35:53.919Z</time></trkpt>
      <trkpt lat="29.801733" lon="99.747963"><time>2026-05-02T22:35:53.935Z</time></trkpt>
      <trkpt lat="29.801733" lon="99.747963"><time>2026-05-02T22:35:53.952Z</time></trkpt>
      <trkpt lat="29.801733" lon="99.747963"><time>2026-05-02T22:35:53.969Z</time></trkpt>
      <trkpt lat="29.801733" lon="99.747963"><time>2026-05-02T22:35:53.985Z</time></trkpt>
      <trkpt lat="29.801733" lon="99.747963"><time>2026-05-02T22:35:54.002Z</time></trkpt>
      <trkpt lat="29.801733" lon="99.747963"><time>2026-05-02T22:35:54.019Z</time></trkpt>
      <trkpt lat="29.801733" lon="99.747963"><time>2026-05-02T22:35:54.035Z</time></trkpt>
      <trkpt lat="29.801733" lon="99.747963"><time>2026-05-02T22:35:54.052Z</time></trkpt>
      <trkpt lat="29.801733" lon="99.747962"><time>2026-05-02T22:35:54.069Z</time></trkpt>
      <trkpt lat="29.801733" lon="99.747962"><time>2026-05-02T22:35:54.085Z</time></trkpt>
      <trkpt lat="29.801733" lon="99.747962"><time>2026-05-02T22:35:54.102Z</time></trkpt>
      <trkpt lat="29.801733" lon="99.747962"><time>2026-05-02T22:35:54.119Z</time></trkpt>
      <trkpt lat="29.801733" lon="99.747962"><time>2026-05-02T22:35:54.135Z</time></trkpt>
      <trkpt lat="29.801733" lon="99.747962"><time>2026-05-02T22:35:54.152Z</time></trkpt>
      <trkpt lat="29.801733" lon="99.747962"><time>2026-05-02T22:35:54.169Z</time></trkpt>
      <trkpt lat="29.801733" lon="99.747962"><time>2026-05-02T22:35:54.185Z</time></trkpt>
      <trkpt lat="29.801733" lon="99.747962"><time>2026-05-02T22:35:54.202Z</time></trkpt>
      <trkpt lat="29.801733" lon="99.747962"><time>2026-05-02T22:35:54.219Z</time></trkpt>
      <trkpt lat="29.801733" lon="99.747962"><time>2026-05-02T22:35:54.236Z</time></trkpt>
      <trkpt lat="29.801733" lon="99.747962"><time>2026-05-02T22:35:54.252Z</time></trkpt>
      <trkpt lat="29.801733" lon="99.747962"><time>2026-05-02T22:35:54.269Z</time></trkpt>
      <trkpt lat="29.801733" lon="99.747962"><time>2026-05-02T22:35:54.286Z</time></trkpt>
      <trkpt lat="29.801733" lon="99.747962"><time>2026-05-02T22:35:54.302Z</time></trkpt>
      <trkpt lat="29.801733" lon="99.747962"><time>2026-05-02T22:35:54.319Z</time></trkpt>
      <trkpt lat="29.801733" lon="99.747962"><time>2026-05-02T22:35:54.336Z</time></trkpt>
      <trkpt lat="29.801733" lon="99.747962"><time>2026-05-02T22:35:54.352Z</time></trkpt>
      <trkpt lat="29.801732" lon="99.747962"><time>2026-05-02T22:35:54.369Z</time></trkpt>
      <trkpt lat="29.801732" lon="99.747962"><time>2026-05-02T22:35:54.386Z</time></trkpt>
      <trkpt lat="29.801732" lon="99.747962"><time>2026-05-02T22:35:54.402Z</time></trkpt>
      <trkpt lat="29.801732" lon="99.747962"><time>2026-05-02T22:35:54.419Z</time></trkpt>
      <trkpt lat="29.801732" lon="99.747962"><time>2026-05-02T22:35:54.436Z</time></trkpt>
      <trkpt lat="29.801732" lon="99.747962"><time>2026-05-02T22:35:54.452Z</time></trkpt>
      <trkpt lat="29.801732" lon="99.747962"><time>2026-05-02T22:35:54.469Z</time></trkpt>
      <trkpt lat="29.801732" lon="99.747962"><time>2026-05-02T22:35:54.486Z</time></trkpt>
      <trkpt lat="29.801732" lon="99.747962"><time>2026-05-02T22:35:54.502Z</time></trkpt>
      <trkpt lat="29.801732" lon="99.747962"><time>2026-05-02T22:35:54.519Z</time></trkpt>
      <trkpt lat="29.801732" lon="99.747962"><time>2026-05-02T22:35:54.536Z</time></trkpt>
      <trkpt lat="29.801732" lon="99.747962"><time>2026-05-02T22:35:54.553Z</time></trkpt>
      <trkpt lat="29.801732" lon="99.747961"><time>2026-05-02T22:35:54.569Z</time></trkpt>
      <trkpt lat="29.801732" lon="99.747961"><time>2026-05-02T22:35:54.586Z</time></trkpt>
      <trkpt lat="29.801732" lon="99.747961"><time>2026-05-02T22:35:54.603Z</time></trkpt>
      <trkpt lat="29.801732" lon="99.747961"><time>2026-05-02T22:35:54.619Z</time></trkpt>
      <trkpt lat="29.801732" lon="99.747961"><time>2026-05-02T22:35:54.636Z</time></trkpt>
      <trkpt lat="29.801732" lon="99.747961"><time>2026-05-02T22:35:54.653Z</time></trkpt>
      <trkpt lat="29.801732" lon="99.747961"><time>2026-05-02T22:35:54.669Z</time></trkpt>
      <trkpt lat="29.801732" lon="99.747961"><time>2026-05-02T22:35:54.686Z</time></trkpt>
      <trkpt lat="29.801732" lon="99.747961"><time>2026-05-02T22:35:54.703Z</time></trkpt>
      <trkpt lat="29.801732" lon="99.747961"><time>2026-05-02T22:35:54.719Z</time></trkpt>
      <trkpt lat="29.801732" lon="99.747961"><time>2026-05-02T22:35:54.736Z</time></trkpt>
      <trkpt lat="29.801732" lon="99.747961"><time>2026-05-02T22:35:54.753Z</time></trkpt>
      <trkpt lat="29.801731" lon="99.747961"><time>2026-05-02T22:35:54.769Z</time></trkpt>
      <trkpt lat="29.801731" lon="99.747961"><time>2026-05-02T22:35:54.786Z</time></trkpt>
      <trkpt lat="29.801731" lon="99.747961"><time>2026-05-02T22:35:54.803Z</time></trkpt>
      <trkpt lat="29.801731" lon="99.747961"><time>2026-05-02T22:35:54.819Z</time></trkpt>
      <trkpt lat="29.801731" lon="99.747961"><time>2026-05-02T22:35:54.836Z</time></trkpt>
      <trkpt lat="29.801731" lon="99.747961"><time>2026-05-02T22:35:54.853Z</time></trkpt>
      <trkpt lat="29.801731" lon="99.747961"><time>2026-05-02T22:35:54.870Z</time></trkpt>
      <trkpt lat="29.801731" lon="99.747961"><time>2026-05-02T22:35:54.886Z</time></trkpt>
      <trkpt lat="29.801731" lon="99.747961"><time>2026-05-02T22:35:54.903Z</time></trkpt>
      <trkpt lat="29.801731" lon="99.747961"><time>2026-05-02T22:35:54.920Z</time></trkpt>
      <trkpt lat="29.801731" lon="99.747961"><time>2026-05-02T22:35:54.936Z</time></trkpt>
      <trkpt lat="29.801731" lon="99.747961"><time>2026-05-02T22:35:54.953Z</time></trkpt>
      <trkpt lat="29.801731" lon="99.74796"><time>2026-05-02T22:35:54.970Z</time></trkpt>
      <trkpt lat="29.801731" lon="99.74796"><time>2026-05-02T22:35:54.986Z</time></trkpt>
      <trkpt lat="29.801731" lon="99.74796"><time>2026-05-02T22:35:55.003Z</time></trkpt>
      <trkpt lat="29.801731" lon="99.74796"><time>2026-05-02T22:35:55.020Z</time></trkpt>
      <trkpt lat="29.801731" lon="99.74796"><time>2026-05-02T22:35:55.036Z</time></trkpt>
      <trkpt lat="29.801731" lon="99.74796"><time>2026-05-02T22:35:55.053Z</time></trkpt>
      <trkpt lat="29.80173" lon="99.74796"><time>2026-05-02T22:35:55.070Z</time></trkpt>
      <trkpt lat="29.80173" lon="99.74796"><time>2026-05-02T22:35:55.086Z</time></trkpt>
      <trkpt lat="29.80173" lon="99.74796"><time>2026-05-02T22:35:55.103Z</time></trkpt>
      <trkpt lat="29.80173" lon="99.74796"><time>2026-05-02T22:35:55.120Z</time></trkpt>
      <trkpt lat="29.80173" lon="99.74796"><time>2026-05-02T22:35:55.136Z</time></trkpt>
      <trkpt lat="29.80173" lon="99.74796"><time>2026-05-02T22:35:55.153Z</time></trkpt>
      <trkpt lat="29.80173" lon="99.747959"><time>2026-05-02T22:35:55.170Z</time></trkpt>
      <trkpt lat="29.80173" lon="99.747959"><time>2026-05-02T22:35:55.187Z</time></trkpt>
      <trkpt lat="29.80173" lon="99.747959"><time>2026-05-02T22:35:55.203Z</time></trkpt>
      <trkpt lat="29.80173" lon="99.747959"><time>2026-05-02T22:35:55.220Z</time></trkpt>
      <trkpt lat="29.80173" lon="99.747959"><time>2026-05-02T22:35:55.237Z</time></trkpt>
      <trkpt lat="29.80173" lon="99.747959"><time>2026-05-02T22:35:55.253Z</time></trkpt>
      <trkpt lat="29.80173" lon="99.747958"><time>2026-05-02T22:35:55.270Z</time></trkpt>
      <trkpt lat="29.80173" lon="99.747958"><time>2026-05-02T22:35:55.287Z</time></trkpt>
      <trkpt lat="29.80173" lon="99.747958"><time>2026-05-02T22:35:55.303Z</time></trkpt>
      <trkpt lat="29.80173" lon="99.747958"><time>2026-05-02T22:35:55.320Z</time></trkpt>
      <trkpt lat="29.80173" lon="99.747958"><time>2026-05-02T22:35:55.337Z</time></trkpt>
      <trkpt lat="29.80173" lon="99.747958"><time>2026-05-02T22:35:55.353Z</time></trkpt>
      <trkpt lat="29.801729" lon="99.747957"><time>2026-05-02T22:35:55.370Z</time></trkpt>
      <trkpt lat="29.801729" lon="99.747957"><time>2026-05-02T22:35:55.387Z</time></trkpt>
      <trkpt lat="29.801729" lon="99.747957"><time>2026-05-02T22:35:55.403Z</time></trkpt>
      <trkpt lat="29.801729" lon="99.747957"><time>2026-05-02T22:35:55.420Z</time></trkpt>
      <trkpt lat="29.801729" lon="99.747957"><time>2026-05-02T22:35:55.437Z</time></trkpt>
      <trkpt lat="29.801729" lon="99.747957"><time>2026-05-02T22:35:55.453Z</time></trkpt>
      <trkpt lat="29.801728" lon="99.747956"><time>2026-05-02T22:35:55.470Z</time></trkpt>
      <trkpt lat="29.801728" lon="99.747956"><time>2026-05-02T22:35:55.487Z</time></trkpt>
      <trkpt lat="29.801728" lon="99.747956"><time>2026-05-02T22:35:55.504Z</time></trkpt>
      <trkpt lat="29.801728" lon="99.747956"><time>2026-05-02T22:35:55.520Z</time></trkpt>
      <trkpt lat="29.801728" lon="99.747956"><time>2026-05-02T22:35:55.537Z</time></trkpt>
      <trkpt lat="29.801728" lon="99.747956"><time>2026-05-02T22:35:55.554Z</time></trkpt>
      <trkpt lat="29.801727" lon="99.747954"><time>2026-05-02T22:35:55.570Z</time></trkpt>
      <trkpt lat="29.801727" lon="99.747954"><time>2026-05-02T22:35:55.587Z</time></trkpt>
      <trkpt lat="29.801727" lon="99.747954"><time>2026-05-02T22:35:55.604Z</time></trkpt>
      <trkpt lat="29.801727" lon="99.747954"><time>2026-05-02T22:35:55.620Z</time></trkpt>
      <trkpt lat="29.801727" lon="99.747954"><time>2026-05-02T22:35:55.637Z</time></trkpt>
      <trkpt lat="29.801727" lon="99.747954"><time>2026-05-02T22:35:55.654Z</time></trkpt>
      <trkpt lat="29.801726" lon="99.747952"><time>2026-05-02T22:35:55.670Z</time></trkpt>
      <trkpt lat="29.801726" lon="99.747952"><time>2026-05-02T22:35:55.687Z</time></trkpt>
      <trkpt lat="29.801726" lon="99.747952"><time>2026-05-02T22:35:55.704Z</time></trkpt>
      <trkpt lat="29.801726" lon="99.747952"><time>2026-05-02T22:35:55.720Z</time></trkpt>
      <trkpt lat="29.801726" lon="99.747952"><time>2026-05-02T22:35:55.737Z</time></trkpt>
      <trkpt lat="29.801726" lon="99.747952"><time>2026-05-02T22:35:55.754Z</time></trkpt>
      <trkpt lat="29.801725" lon="99.74795"><time>2026-05-02T22:35:55.770Z</time></trkpt>
      <trkpt lat="29.801725" lon="99.74795"><time>2026-05-02T22:35:55.787Z</time></trkpt>
      <trkpt lat="29.801725" lon="99.74795"><time>2026-05-02T22:35:55.804Z</time></trkpt>
      <trkpt lat="29.801725" lon="99.74795"><time>2026-05-02T22:35:55.821Z</time></trkpt>
      <trkpt lat="29.801725" lon="99.74795"><time>2026-05-02T22:35:55.837Z</time></trkpt>
      <trkpt lat="29.801725" lon="99.74795"><time>2026-05-02T22:35:55.854Z</time></trkpt>
      <trkpt lat="29.801724" lon="99.747948"><time>2026-05-02T22:35:55.871Z</time></trkpt>
      <trkpt lat="29.801724" lon="99.747948"><time>2026-05-02T22:35:55.887Z</time></trkpt>
      <trkpt lat="29.801724" lon="99.747948"><time>2026-05-02T22:35:55.904Z</time></trkpt>
      <trkpt lat="29.801724" lon="99.747948"><time>2026-05-02T22:35:55.921Z</time></trkpt>
      <trkpt lat="29.801724" lon="99.747948"><time>2026-05-02T22:35:55.937Z</time></trkpt>
      <trkpt lat="29.801724" lon="99.747948"><time>2026-05-02T22:35:55.954Z</time></trkpt>
      <trkpt lat="29.801722" lon="99.747946"><time>2026-05-02T22:35:55.971Z</time></trkpt>
      <trkpt lat="29.801722" lon="99.747946"><time>2026-05-02T22:35:55.987Z</time></trkpt>
      <trkpt lat="29.801722" lon="99.747946"><time>2026-05-02T22:35:56.004Z</time></trkpt>
      <trkpt lat="29.801722" lon="99.747946"><time>2026-05-02T22:35:56.021Z</time></trkpt>
      <trkpt lat="29.801722" lon="99.747946"><time>2026-05-02T22:35:56.037Z</time></trkpt>
      <trkpt lat="29.801722" lon="99.747946"><time>2026-05-02T22:35:56.054Z</time></trkpt>
      <trkpt lat="29.801721" lon="99.747943"><time>2026-05-02T22:35:56.071Z</time></trkpt>
      <trkpt lat="29.801721" lon="99.747943"><time>2026-05-02T22:35:56.087Z</time></trkpt>
      <trkpt lat="29.801721" lon="99.747943"><time>2026-05-02T22:35:56.104Z</time></trkpt>
      <trkpt lat="29.801721" lon="99.747943"><time>2026-05-02T22:35:56.121Z</time></trkpt>
      <trkpt lat="29.801721" lon="99.747943"><time>2026-05-02T22:35:56.138Z</time></trkpt>
      <trkpt lat="29.801721" lon="99.747943"><time>2026-05-02T22:35:56.154Z</time></trkpt>
      <trkpt lat="29.801719" lon="99.74794"><time>2026-05-02T22:35:56.171Z</time></trkpt>
      <trkpt lat="29.801719" lon="99.74794"><time>2026-05-02T22:35:56.188Z</time></trkpt>
      <trkpt lat="29.801719" lon="99.74794"><time>2026-05-02T22:35:56.204Z</time></trkpt>
      <trkpt lat="29.801719" lon="99.74794"><time>2026-05-02T22:35:56.221Z</time></trkpt>
      <trkpt lat="29.801719" lon="99.74794"><time>2026-05-02T22:35:56.238Z</time></trkpt>
      <trkpt lat="29.801719" lon="99.74794"><time>2026-05-02T22:35:56.254Z</time></trkpt>
      <trkpt lat="29.801718" lon="99.747937"><time>2026-05-02T22:35:56.271Z</time></trkpt>
      <trkpt lat="29.801718" lon="99.747937"><time>2026-05-02T22:35:56.288Z</time></trkpt>
      <trkpt lat="29.801718" lon="99.747937"><time>2026-05-02T22:35:56.304Z</time></trkpt>
      <trkpt lat="29.801718" lon="99.747937"><time>2026-05-02T22:35:56.321Z</time></trkpt>
      <trkpt lat="29.801718" lon="99.747937"><time>2026-05-02T22:35:56.338Z</time></trkpt>
      <trkpt lat="29.801718" lon="99.747937"><time>2026-05-02T22:35:56.354Z</time></trkpt>
      <trkpt lat="29.801716" lon="99.747934"><time>2026-05-02T22:35:56.371Z</time></trkpt>
      <trkpt lat="29.801716" lon="99.747934"><time>2026-05-02T22:35:56.388Z</time></trkpt>
      <trkpt lat="29.801716" lon="99.747934"><time>2026-05-02T22:35:56.404Z</time></trkpt>
      <trkpt lat="29.801716" lon="99.747934"><time>2026-05-02T22:35:56.421Z</time></trkpt>
      <trkpt lat="29.801716" lon="99.747934"><time>2026-05-02T22:35:56.438Z</time></trkpt>
      <trkpt lat="29.801716" lon="99.747934"><time>2026-05-02T22:35:56.455Z</time></trkpt>
      <trkpt lat="29.801714" lon="99.74793"><time>2026-05-02T22:35:56.471Z</time></trkpt>
      <trkpt lat="29.801714" lon="99.74793"><time>2026-05-02T22:35:56.488Z</time></trkpt>
      <trkpt lat="29.801714" lon="99.74793"><time>2026-05-02T22:35:56.505Z</time></trkpt>
      <trkpt lat="29.801714" lon="99.74793"><time>2026-05-02T22:35:56.521Z</time></trkpt>
      <trkpt lat="29.801714" lon="99.74793"><time>2026-05-02T22:35:56.538Z</time></trkpt>
      <trkpt lat="29.801714" lon="99.74793"><time>2026-05-02T22:35:56.555Z</time></trkpt>
      <trkpt lat="29.801712" lon="99.747927"><time>2026-05-02T22:35:56.571Z</time></trkpt>
      <trkpt lat="29.801712" lon="99.747927"><time>2026-05-02T22:35:56.588Z</time></trkpt>
      <trkpt lat="29.801712" lon="99.747927"><time>2026-05-02T22:35:56.605Z</time></trkpt>
      <trkpt lat="29.801712" lon="99.747927"><time>2026-05-02T22:35:56.621Z</time></trkpt>
      <trkpt lat="29.801712" lon="99.747927"><time>2026-05-02T22:35:56.638Z</time></trkpt>
      <trkpt lat="29.801712" lon="99.747927"><time>2026-05-02T22:35:56.655Z</time></trkpt>
      <trkpt lat="29.80171" lon="99.747923"><time>2026-05-02T22:35:56.671Z</time></trkpt>
      <trkpt lat="29.80171" lon="99.747923"><time>2026-05-02T22:35:56.688Z</time></trkpt>
      <trkpt lat="29.80171" lon="99.747923"><time>2026-05-02T22:35:56.705Z</time></trkpt>
      <trkpt lat="29.80171" lon="99.747923"><time>2026-05-02T22:35:56.721Z</time></trkpt>
      <trkpt lat="29.80171" lon="99.747923"><time>2026-05-02T22:35:56.738Z</time></trkpt>
      <trkpt lat="29.80171" lon="99.747923"><time>2026-05-02T22:35:56.755Z</time></trkpt>
      <trkpt lat="29.801707" lon="99.747919"><time>2026-05-02T22:35:56.772Z</time></trkpt>
      <trkpt lat="29.801707" lon="99.747919"><time>2026-05-02T22:35:56.788Z</time></trkpt>
      <trkpt lat="29.801707" lon="99.747919"><time>2026-05-02T22:35:56.805Z</time></trkpt>
      <trkpt lat="29.801707" lon="99.747919"><time>2026-05-02T22:35:56.822Z</time></trkpt>
      <trkpt lat="29.801707" lon="99.747919"><time>2026-05-02T22:35:56.838Z</time></trkpt>
      <trkpt lat="29.801707" lon="99.747919"><time>2026-05-02T22:35:56.855Z</time></trkpt>
      <trkpt lat="29.801705" lon="99.747914"><time>2026-05-02T22:35:56.872Z</time></trkpt>
      <trkpt lat="29.801705" lon="99.747914"><time>2026-05-02T22:35:56.888Z</time></trkpt>
      <trkpt lat="29.801705" lon="99.747914"><time>2026-05-02T22:35:56.905Z</time></trkpt>
      <trkpt lat="29.801705" lon="99.747914"><time>2026-05-02T22:35:56.922Z</time></trkpt>
      <trkpt lat="29.801705" lon="99.747914"><time>2026-05-02T22:35:56.938Z</time></trkpt>
      <trkpt lat="29.801705" lon="99.747914"><time>2026-05-02T22:35:56.955Z</time></trkpt>
      <trkpt lat="29.801702" lon="99.74791"><time>2026-05-02T22:35:56.972Z</time></trkpt>
      <trkpt lat="29.801702" lon="99.74791"><time>2026-05-02T22:35:56.988Z</time></trkpt>
      <trkpt lat="29.801702" lon="99.74791"><time>2026-05-02T22:35:57.005Z</time></trkpt>
      <trkpt lat="29.801702" lon="99.74791"><time>2026-05-02T22:35:57.022Z</time></trkpt>
      <trkpt lat="29.801702" lon="99.74791"><time>2026-05-02T22:35:57.038Z</time></trkpt>
      <trkpt lat="29.801702" lon="99.74791"><time>2026-05-02T22:35:57.055Z</time></trkpt>
      <trkpt lat="29.8017" lon="99.747905"><time>2026-05-02T22:35:57.072Z</time></trkpt>
      <trkpt lat="29.8017" lon="99.747905"><time>2026-05-02T22:35:57.089Z</time></trkpt>
      <trkpt lat="29.8017" lon="99.747905"><time>2026-05-02T22:35:57.105Z</time></trkpt>
      <trkpt lat="29.8017" lon="99.747905"><time>2026-05-02T22:35:57.122Z</time></trkpt>
      <trkpt lat="29.8017" lon="99.747905"><time>2026-05-02T22:35:57.139Z</time></trkpt>
      <trkpt lat="29.8017" lon="99.747905"><time>2026-05-02T22:35:57.155Z</time></trkpt>
      <trkpt lat="29.801697" lon="99.7479"><time>2026-05-02T22:35:57.172Z</time></trkpt>
      <trkpt lat="29.801697" lon="99.7479"><time>2026-05-02T22:35:57.189Z</time></trkpt>
      <trkpt lat="29.801697" lon="99.7479"><time>2026-05-02T22:35:57.205Z</time></trkpt>
      <trkpt lat="29.801697" lon="99.7479"><time>2026-05-02T22:35:57.222Z</time></trkpt>
      <trkpt lat="29.801697" lon="99.7479"><time>2026-05-02T22:35:57.239Z</time></trkpt>
      <trkpt lat="29.801697" lon="99.7479"><time>2026-05-02T22:35:57.255Z</time></trkpt>
      <trkpt lat="29.801694" lon="99.747896"><time>2026-05-02T22:35:57.272Z</time></trkpt>
      <trkpt lat="29.801694" lon="99.747896"><time>2026-05-02T22:35:57.289Z</time></trkpt>
      <trkpt lat="29.801694" lon="99.747896"><time>2026-05-02T22:35:57.305Z</time></trkpt>
      <trkpt lat="29.801694" lon="99.747896"><time>2026-05-02T22:35:57.322Z</time></trkpt>
      <trkpt lat="29.801694" lon="99.747896"><time>2026-05-02T22:35:57.339Z</time></trkpt>
      <trkpt lat="29.801694" lon="99.747896"><time>2026-05-02T22:35:57.355Z</time></trkpt>
      <trkpt lat="29.801691" lon="99.747891"><time>2026-05-02T22:35:57.372Z</time></trkpt>
      <trkpt lat="29.801691" lon="99.747891"><time>2026-05-02T22:35:57.389Z</time></trkpt>
      <trkpt lat="29.801691" lon="99.747891"><time>2026-05-02T22:35:57.406Z</time></trkpt>
      <trkpt lat="29.801691" lon="99.747891"><time>2026-05-02T22:35:57.422Z</time></trkpt>
      <trkpt lat="29.801691" lon="99.747891"><time>2026-05-02T22:35:57.439Z</time></trkpt>
      <trkpt lat="29.801691" lon="99.747891"><time>2026-05-02T22:35:57.456Z</time></trkpt>
      <trkpt lat="29.801688" lon="99.747885"><time>2026-05-02T22:35:57.472Z</time></trkpt>
      <trkpt lat="29.801688" lon="99.747885"><time>2026-05-02T22:35:57.489Z</time></trkpt>
      <trkpt lat="29.801688" lon="99.747885"><time>2026-05-02T22:35:57.506Z</time></trkpt>
      <trkpt lat="29.801688" lon="99.747885"><time>2026-05-02T22:35:57.522Z</time></trkpt>
      <trkpt lat="29.801688" lon="99.747885"><time>2026-05-02T22:35:57.539Z</time></trkpt>
      <trkpt lat="29.801688" lon="99.747885"><time>2026-05-02T22:35:57.556Z</time></trkpt>
      <trkpt lat="29.801685" lon="99.74788"><time>2026-05-02T22:35:57.572Z</time></trkpt>
      <trkpt lat="29.801685" lon="99.74788"><time>2026-05-02T22:35:57.589Z</time></trkpt>
      <trkpt lat="29.801685" lon="99.74788"><time>2026-05-02T22:35:57.606Z</time></trkpt>
      <trkpt lat="29.801685" lon="99.74788"><time>2026-05-02T22:35:57.622Z</time></trkpt>
      <trkpt lat="29.801685" lon="99.74788"><time>2026-05-02T22:35:57.639Z</time></trkpt>
      <trkpt lat="29.801685" lon="99.74788"><time>2026-05-02T22:35:57.656Z</time></trkpt>
      <trkpt lat="29.801682" lon="99.747875"><time>2026-05-02T22:35:57.672Z</time></trkpt>
      <trkpt lat="29.801682" lon="99.747875"><time>2026-05-02T22:35:57.689Z</time></trkpt>
      <trkpt lat="29.801682" lon="99.747875"><time>2026-05-02T22:35:57.706Z</time></trkpt>
      <trkpt lat="29.801682" lon="99.747875"><time>2026-05-02T22:35:57.723Z</time></trkpt>
      <trkpt lat="29.801682" lon="99.747875"><time>2026-05-02T22:35:57.739Z</time></trkpt>
      <trkpt lat="29.801682" lon="99.747875"><time>2026-05-02T22:35:57.756Z</time></trkpt>
      <trkpt lat="29.801679" lon="99.747869"><time>2026-05-02T22:35:57.773Z</time></trkpt>
      <trkpt lat="29.801679" lon="99.747869"><time>2026-05-02T22:35:57.789Z</time></trkpt>
      <trkpt lat="29.801679" lon="99.747869"><time>2026-05-02T22:35:57.806Z</time></trkpt>
      <trkpt lat="29.801679" lon="99.747869"><time>2026-05-02T22:35:57.823Z</time></trkpt>
      <trkpt lat="29.801679" lon="99.747869"><time>2026-05-02T22:35:57.839Z</time></trkpt>
      <trkpt lat="29.801679" lon="99.747869"><time>2026-05-02T22:35:57.856Z</time></trkpt>
      <trkpt lat="29.801676" lon="99.747864"><time>2026-05-02T22:35:57.873Z</time></trkpt>
      <trkpt lat="29.801676" lon="99.747864"><time>2026-05-02T22:35:57.889Z</time></trkpt>
      <trkpt lat="29.801676" lon="99.747864"><time>2026-05-02T22:35:57.906Z</time></trkpt>
      <trkpt lat="29.801676" lon="99.747864"><time>2026-05-02T22:35:57.923Z</time></trkpt>
      <trkpt lat="29.801676" lon="99.747864"><time>2026-05-02T22:35:57.939Z</time></trkpt>
      <trkpt lat="29.801676" lon="99.747864"><time>2026-05-02T22:35:57.956Z</time></trkpt>
      <trkpt lat="29.801673" lon="99.747858"><time>2026-05-02T22:35:57.973Z</time></trkpt>
      <trkpt lat="29.801673" lon="99.747858"><time>2026-05-02T22:35:57.989Z</time></trkpt>
      <trkpt lat="29.801673" lon="99.747858"><time>2026-05-02T22:35:58.006Z</time></trkpt>
      <trkpt lat="29.801673" lon="99.747858"><time>2026-05-02T22:35:58.023Z</time></trkpt>
      <trkpt lat="29.801673" lon="99.747858"><time>2026-05-02T22:35:58.040Z</time></trkpt>
      <trkpt lat="29.801673" lon="99.747858"><time>2026-05-02T22:35:58.056Z</time></trkpt>
      <trkpt lat="29.801669" lon="99.747853"><time>2026-05-02T22:35:58.073Z</time></trkpt>
      <trkpt lat="29.801669" lon="99.747853"><time>2026-05-02T22:35:58.090Z</time></trkpt>
      <trkpt lat="29.801669" lon="99.747853"><time>2026-05-02T22:35:58.106Z</time></trkpt>
      <trkpt lat="29.801669" lon="99.747853"><time>2026-05-02T22:35:58.123Z</time></trkpt>
      <trkpt lat="29.801669" lon="99.747853"><time>2026-05-02T22:35:58.140Z</time></trkpt>
      <trkpt lat="29.801669" lon="99.747853"><time>2026-05-02T22:35:58.156Z</time></trkpt>
      <trkpt lat="29.801666" lon="99.747847"><time>2026-05-02T22:35:58.173Z</time></trkpt>
      <trkpt lat="29.801666" lon="99.747847"><time>2026-05-02T22:35:58.190Z</time></trkpt>
      <trkpt lat="29.801666" lon="99.747847"><time>2026-05-02T22:35:58.206Z</time></trkpt>
      <trkpt lat="29.801666" lon="99.747847"><time>2026-05-02T22:35:58.223Z</time></trkpt>
      <trkpt lat="29.801666" lon="99.747847"><time>2026-05-02T22:35:58.240Z</time></trkpt>
      <trkpt lat="29.801666" lon="99.747847"><time>2026-05-02T22:35:58.256Z</time></trkpt>
      <trkpt lat="29.801662" lon="99.747841"><time>2026-05-02T22:35:58.273Z</time></trkpt>
      <trkpt lat="29.801662" lon="99.747841"><time>2026-05-02T22:35:58.290Z</time></trkpt>
      <trkpt lat="29.801662" lon="99.747841"><time>2026-05-02T22:35:58.306Z</time></trkpt>
      <trkpt lat="29.801662" lon="99.747841"><time>2026-05-02T22:35:58.323Z</time></trkpt>
      <trkpt lat="29.801662" lon="99.747841"><time>2026-05-02T22:35:58.340Z</time></trkpt>
      <trkpt lat="29.801662" lon="99.747841"><time>2026-05-02T22:35:58.356Z</time></trkpt>
      <trkpt lat="29.801658" lon="99.747835"><time>2026-05-02T22:35:58.373Z</time></trkpt>
      <trkpt lat="29.801658" lon="99.747835"><time>2026-05-02T22:35:58.390Z</time></trkpt>
      <trkpt lat="29.801658" lon="99.747835"><time>2026-05-02T22:35:58.407Z</time></trkpt>
      <trkpt lat="29.801658" lon="99.747835"><time>2026-05-02T22:35:58.423Z</time></trkpt>
      <trkpt lat="29.801658" lon="99.747835"><time>2026-05-02T22:35:58.440Z</time></trkpt>
      <trkpt lat="29.801658" lon="99.747835"><time>2026-05-02T22:35:58.457Z</time></trkpt>
      <trkpt lat="29.801655" lon="99.747829"><time>2026-05-02T22:35:58.473Z</time></trkpt>
      <trkpt lat="29.801655" lon="99.747829"><time>2026-05-02T22:35:58.490Z</time></trkpt>
      <trkpt lat="29.801655" lon="99.747829"><time>2026-05-02T22:35:58.507Z</time></trkpt>
      <trkpt lat="29.801655" lon="99.747829"><time>2026-05-02T22:35:58.523Z</time></trkpt>
      <trkpt lat="29.801655" lon="99.747829"><time>2026-05-02T22:35:58.540Z</time></trkpt>
      <trkpt lat="29.801655" lon="99.747829"><time>2026-05-02T22:35:58.557Z</time></trkpt>
      <trkpt lat="29.801651" lon="99.747823"><time>2026-05-02T22:35:58.573Z</time></trkpt>
      <trkpt lat="29.801651" lon="99.747823"><time>2026-05-02T22:35:58.590Z</time></trkpt>
      <trkpt lat="29.801651" lon="99.747823"><time>2026-05-02T22:35:58.607Z</time></trkpt>
      <trkpt lat="29.801651" lon="99.747823"><time>2026-05-02T22:35:58.623Z</time></trkpt>
      <trkpt lat="29.801651" lon="99.747823"><time>2026-05-02T22:35:58.640Z</time></trkpt>
      <trkpt lat="29.801651" lon="99.747823"><time>2026-05-02T22:35:58.657Z</time></trkpt>
      <trkpt lat="29.801647" lon="99.747816"><time>2026-05-02T22:35:58.673Z</time></trkpt>
      <trkpt lat="29.801647" lon="99.747816"><time>2026-05-02T22:35:58.690Z</time></trkpt>
      <trkpt lat="29.801647" lon="99.747816"><time>2026-05-02T22:35:58.707Z</time></trkpt>
      <trkpt lat="29.801647" lon="99.747816"><time>2026-05-02T22:35:58.724Z</time></trkpt>
      <trkpt lat="29.801647" lon="99.747816"><time>2026-05-02T22:35:58.740Z</time></trkpt>
      <trkpt lat="29.801647" lon="99.747816"><time>2026-05-02T22:35:58.757Z</time></trkpt>
      <trkpt lat="29.801643" lon="99.74781"><time>2026-05-02T22:35:58.774Z</time></trkpt>
      <trkpt lat="29.801643" lon="99.74781"><time>2026-05-02T22:35:58.790Z</time></trkpt>
      <trkpt lat="29.801643" lon="99.74781"><time>2026-05-02T22:35:58.807Z</time></trkpt>
      <trkpt lat="29.801643" lon="99.74781"><time>2026-05-02T22:35:58.824Z</time></trkpt>
      <trkpt lat="29.801643" lon="99.74781"><time>2026-05-02T22:35:58.840Z</time></trkpt>
      <trkpt lat="29.801639" lon="99.747803"><time>2026-05-02T22:35:58.857Z</time></trkpt>
      <trkpt lat="29.801639" lon="99.747803"><time>2026-05-02T22:35:58.874Z</time></trkpt>
      <trkpt lat="29.801639" lon="99.747803"><time>2026-05-02T22:35:58.890Z</time></trkpt>
      <trkpt lat="29.801639" lon="99.747803"><time>2026-05-02T22:35:58.907Z</time></trkpt>
      <trkpt lat="29.801639" lon="99.747803"><time>2026-05-02T22:35:58.924Z</time></trkpt>
      <trkpt lat="29.801639" lon="99.747803"><time>2026-05-02T22:35:58.940Z</time></trkpt>
      <trkpt lat="29.801635" lon="99.747797"><time>2026-05-02T22:35:58.957Z</time></trkpt>
      <trkpt lat="29.801635" lon="99.747797"><time>2026-05-02T22:35:58.974Z</time></trkpt>
      <trkpt lat="29.801635" lon="99.747797"><time>2026-05-02T22:35:58.990Z</time></trkpt>
      <trkpt lat="29.801635" lon="99.747797"><time>2026-05-02T22:35:59.007Z</time></trkpt>
      <trkpt lat="29.801635" lon="99.747797"><time>2026-05-02T22:35:59.024Z</time></trkpt>
      <trkpt lat="29.801635" lon="99.747797"><time>2026-05-02T22:35:59.041Z</time></trkpt>
      <trkpt lat="29.801631" lon="99.74779"><time>2026-05-02T22:35:59.057Z</time></trkpt>
      <trkpt lat="29.801631" lon="99.74779"><time>2026-05-02T22:35:59.074Z</time></trkpt>
      <trkpt lat="29.801631" lon="99.74779"><time>2026-05-02T22:35:59.091Z</time></trkpt>
      <trkpt lat="29.801631" lon="99.74779"><time>2026-05-02T22:35:59.107Z</time></trkpt>
      <trkpt lat="29.801631" lon="99.74779"><time>2026-05-02T22:35:59.124Z</time></trkpt>
      <trkpt lat="29.801631" lon="99.74779"><time>2026-05-02T22:35:59.141Z</time></trkpt>
      <trkpt lat="29.801627" lon="99.747783"><time>2026-05-02T22:35:59.157Z</time></trkpt>
      <trkpt lat="29.801627" lon="99.747783"><time>2026-05-02T22:35:59.174Z</time></trkpt>
      <trkpt lat="29.801627" lon="99.747783"><time>2026-05-02T22:35:59.191Z</time></trkpt>
      <trkpt lat="29.801627" lon="99.747783"><time>2026-05-02T22:35:59.207Z</time></trkpt>
      <trkpt lat="29.801627" lon="99.747783"><time>2026-05-02T22:35:59.224Z</time></trkpt>
      <trkpt lat="29.801627" lon="99.747783"><time>2026-05-02T22:35:59.241Z</time></trkpt>
      <trkpt lat="29.801627" lon="99.747783"><time>2026-05-02T22:35:59.257Z</time></trkpt>
      <trkpt lat="29.801623" lon="99.747777"><time>2026-05-02T22:35:59.274Z</time></trkpt>
      <trkpt lat="29.801623" lon="99.747777"><time>2026-05-02T22:35:59.291Z</time></trkpt>
      <trkpt lat="29.801623" lon="99.747777"><time>2026-05-02T22:35:59.307Z</time></trkpt>
      <trkpt lat="29.801623" lon="99.747777"><time>2026-05-02T22:35:59.324Z</time></trkpt>
      <trkpt lat="29.801623" lon="99.747777"><time>2026-05-02T22:35:59.341Z</time></trkpt>
      <trkpt lat="29.801619" lon="99.747769"><time>2026-05-02T22:35:59.358Z</time></trkpt>
      <trkpt lat="29.801619" lon="99.747769"><time>2026-05-02T22:35:59.374Z</time></trkpt>
      <trkpt lat="29.801619" lon="99.747769"><time>2026-05-02T22:35:59.391Z</time></trkpt>
      <trkpt lat="29.801619" lon="99.747769"><time>2026-05-02T22:35:59.408Z</time></trkpt>
      <trkpt lat="29.801619" lon="99.747769"><time>2026-05-02T22:35:59.424Z</time></trkpt>
      <trkpt lat="29.801619" lon="99.747769"><time>2026-05-02T22:35:59.441Z</time></trkpt>
      <trkpt lat="29.801615" lon="99.747762"><time>2026-05-02T22:35:59.458Z</time></trkpt>
      <trkpt lat="29.801615" lon="99.747762"><time>2026-05-02T22:35:59.474Z</time></trkpt>
      <trkpt lat="29.801615" lon="99.747762"><time>2026-05-02T22:35:59.491Z</time></trkpt>
      <trkpt lat="29.801615" lon="99.747762"><time>2026-05-02T22:35:59.508Z</time></trkpt>
      <trkpt lat="29.801615" lon="99.747762"><time>2026-05-02T22:35:59.524Z</time></trkpt>
      <trkpt lat="29.801615" lon="99.747762"><time>2026-05-02T22:35:59.541Z</time></trkpt>
      <trkpt lat="29.80161" lon="99.747755"><time>2026-05-02T22:35:59.558Z</time></trkpt>
      <trkpt lat="29.80161" lon="99.747755"><time>2026-05-02T22:35:59.574Z</time></trkpt>
      <trkpt lat="29.80161" lon="99.747755"><time>2026-05-02T22:35:59.591Z</time></trkpt>
      <trkpt lat="29.80161" lon="99.747755"><time>2026-05-02T22:35:59.608Z</time></trkpt>
      <trkpt lat="29.80161" lon="99.747755"><time>2026-05-02T22:35:59.624Z</time></trkpt>
      <trkpt lat="29.80161" lon="99.747755"><time>2026-05-02T22:35:59.641Z</time></trkpt>
      <trkpt lat="29.801606" lon="99.747748"><time>2026-05-02T22:35:59.658Z</time></trkpt>
      <trkpt lat="29.801606" lon="99.747748"><time>2026-05-02T22:35:59.675Z</time></trkpt>
      <trkpt lat="29.801606" lon="99.747748"><time>2026-05-02T22:35:59.691Z</time></trkpt>
      <trkpt lat="29.801606" lon="99.747748"><time>2026-05-02T22:35:59.708Z</time></trkpt>
      <trkpt lat="29.801606" lon="99.747748"><time>2026-05-02T22:35:59.725Z</time></trkpt>
      <trkpt lat="29.801606" lon="99.747748"><time>2026-05-02T22:35:59.741Z</time></trkpt>
      <trkpt lat="29.801602" lon="99.747741"><time>2026-05-02T22:35:59.758Z</time></trkpt>
      <trkpt lat="29.801602" lon="99.747741"><time>2026-05-02T22:35:59.775Z</time></trkpt>
      <trkpt lat="29.801602" lon="99.747741"><time>2026-05-02T22:35:59.791Z</time></trkpt>
      <trkpt lat="29.801602" lon="99.747741"><time>2026-05-02T22:35:59.808Z</time></trkpt>
      <trkpt lat="29.801602" lon="99.747741"><time>2026-05-02T22:35:59.825Z</time></trkpt>
      <trkpt lat="29.801602" lon="99.747741"><time>2026-05-02T22:35:59.841Z</time></trkpt>
      <trkpt lat="29.801597" lon="99.747733"><time>2026-05-02T22:35:59.858Z</time></trkpt>
      <trkpt lat="29.801597" lon="99.747733"><time>2026-05-02T22:35:59.875Z</time></trkpt>
      <trkpt lat="29.801597" lon="99.747733"><time>2026-05-02T22:35:59.891Z</time></trkpt>
      <trkpt lat="29.801597" lon="99.747733"><time>2026-05-02T22:35:59.908Z</time></trkpt>
      <trkpt lat="29.801597" lon="99.747733"><time>2026-05-02T22:35:59.925Z</time></trkpt>
      <trkpt lat="29.801597" lon="99.747733"><time>2026-05-02T22:35:59.941Z</time></trkpt>
      <trkpt lat="29.801593" lon="99.747725"><time>2026-05-02T22:35:59.958Z</time></trkpt>
      <trkpt lat="29.801593" lon="99.747725"><time>2026-05-02T22:35:59.975Z</time></trkpt>
      <trkpt lat="29.801593" lon="99.747725"><time>2026-05-02T22:35:59.992Z</time></trkpt>
      <trkpt lat="29.801593" lon="99.747725"><time>2026-05-02T22:36:00.008Z</time></trkpt>
      <trkpt lat="29.801593" lon="99.747725"><time>2026-05-02T22:36:00.025Z</time></trkpt>
      <trkpt lat="29.801593" lon="99.747725"><time>2026-05-02T22:36:00.042Z</time></trkpt>
      <trkpt lat="29.801589" lon="99.747718"><time>2026-05-02T22:36:00.058Z</time></trkpt>
      <trkpt lat="29.801589" lon="99.747718"><time>2026-05-02T22:36:00.075Z</time></trkpt>
      <trkpt lat="29.801589" lon="99.747718"><time>2026-05-02T22:36:00.092Z</time></trkpt>
      <trkpt lat="29.801589" lon="99.747718"><time>2026-05-02T22:36:00.108Z</time></trkpt>
      <trkpt lat="29.801589" lon="99.747718"><time>2026-05-02T22:36:00.125Z</time></trkpt>
      <trkpt lat="29.801589" lon="99.747718"><time>2026-05-02T22:36:00.142Z</time></trkpt>
      <trkpt lat="29.801584" lon="99.74771"><time>2026-05-02T22:36:00.158Z</time></trkpt>
      <trkpt lat="29.801584" lon="99.74771"><time>2026-05-02T22:36:00.175Z</time></trkpt>
      <trkpt lat="29.801584" lon="99.74771"><time>2026-05-02T22:36:00.192Z</time></trkpt>
      <trkpt lat="29.801584" lon="99.74771"><time>2026-05-02T22:36:00.208Z</time></trkpt>
      <trkpt lat="29.801584" lon="99.74771"><time>2026-05-02T22:36:00.225Z</time></trkpt>
      <trkpt lat="29.801584" lon="99.74771"><time>2026-05-02T22:36:00.242Z</time></trkpt>
      <trkpt lat="29.801579" lon="99.747702"><time>2026-05-02T22:36:00.258Z</time></trkpt>
      <trkpt lat="29.801579" lon="99.747702"><time>2026-05-02T22:36:00.275Z</time></trkpt>
      <trkpt lat="29.801579" lon="99.747702"><time>2026-05-02T22:36:00.292Z</time></trkpt>
      <trkpt lat="29.801579" lon="99.747702"><time>2026-05-02T22:36:00.309Z</time></trkpt>
      <trkpt lat="29.801579" lon="99.747702"><time>2026-05-02T22:36:00.325Z</time></trkpt>
      <trkpt lat="29.801579" lon="99.747702"><time>2026-05-02T22:36:00.342Z</time></trkpt>
      <trkpt lat="29.801575" lon="99.747694"><time>2026-05-02T22:36:00.359Z</time></trkpt>
      <trkpt lat="29.801575" lon="99.747694"><time>2026-05-02T22:36:00.375Z</time></trkpt>
      <trkpt lat="29.801575" lon="99.747694"><time>2026-05-02T22:36:00.392Z</time></trkpt>
      <trkpt lat="29.801575" lon="99.747694"><time>2026-05-02T22:36:00.409Z</time></trkpt>
      <trkpt lat="29.801575" lon="99.747694"><time>2026-05-02T22:36:00.425Z</time></trkpt>
      <trkpt lat="29.801575" lon="99.747694"><time>2026-05-02T22:36:00.442Z</time></trkpt>
      <trkpt lat="29.80157" lon="99.747686"><time>2026-05-02T22:36:00.459Z</time></trkpt>
      <trkpt lat="29.80157" lon="99.747686"><time>2026-05-02T22:36:00.475Z</time></trkpt>
      <trkpt lat="29.80157" lon="99.747686"><time>2026-05-02T22:36:00.492Z</time></trkpt>
      <trkpt lat="29.80157" lon="99.747686"><time>2026-05-02T22:36:00.509Z</time></trkpt>
      <trkpt lat="29.80157" lon="99.747686"><time>2026-05-02T22:36:00.525Z</time></trkpt>
      <trkpt lat="29.80157" lon="99.747686"><time>2026-05-02T22:36:00.542Z</time></trkpt>
      <trkpt lat="29.801566" lon="99.747678"><time>2026-05-02T22:36:00.559Z</time></trkpt>
      <trkpt lat="29.801566" lon="99.747678"><time>2026-05-02T22:36:00.575Z</time></trkpt>
      <trkpt lat="29.801566" lon="99.747678"><time>2026-05-02T22:36:00.592Z</time></trkpt>
      <trkpt lat="29.801566" lon="99.747678"><time>2026-05-02T22:36:00.609Z</time></trkpt>
      <trkpt lat="29.801566" lon="99.747678"><time>2026-05-02T22:36:00.626Z</time></trkpt>
      <trkpt lat="29.801566" lon="99.747678"><time>2026-05-02T22:36:00.642Z</time></trkpt>
      <trkpt lat="29.801561" lon="99.74767"><time>2026-05-02T22:36:00.659Z</time></trkpt>
      <trkpt lat="29.801561" lon="99.74767"><time>2026-05-02T22:36:00.676Z</time></trkpt>
      <trkpt lat="29.801561" lon="99.74767"><time>2026-05-02T22:36:00.692Z</time></trkpt>
      <trkpt lat="29.801561" lon="99.74767"><time>2026-05-02T22:36:00.709Z</time></trkpt>
      <trkpt lat="29.801561" lon="99.74767"><time>2026-05-02T22:36:00.726Z</time></trkpt>
      <trkpt lat="29.801561" lon="99.74767"><time>2026-05-02T22:36:00.742Z</time></trkpt>
      <trkpt lat="29.801556" lon="99.747662"><time>2026-05-02T22:36:00.759Z</time></trkpt>
      <trkpt lat="29.801556" lon="99.747662"><time>2026-05-02T22:36:00.776Z</time></trkpt>
      <trkpt lat="29.801556" lon="99.747662"><time>2026-05-02T22:36:00.792Z</time></trkpt>
      <trkpt lat="29.801556" lon="99.747662"><time>2026-05-02T22:36:00.809Z</time></trkpt>
      <trkpt lat="29.801556" lon="99.747662"><time>2026-05-02T22:36:00.826Z</time></trkpt>
      <trkpt lat="29.801556" lon="99.747662"><time>2026-05-02T22:36:00.842Z</time></trkpt>
      <trkpt lat="29.801552" lon="99.747654"><time>2026-05-02T22:36:00.859Z</time></trkpt>
      <trkpt lat="29.801552" lon="99.747654"><time>2026-05-02T22:36:00.876Z</time></trkpt>
      <trkpt lat="29.801552" lon="99.747654"><time>2026-05-02T22:36:00.892Z</time></trkpt>
      <trkpt lat="29.801552" lon="99.747654"><time>2026-05-02T22:36:00.909Z</time></trkpt>
      <trkpt lat="29.801552" lon="99.747654"><time>2026-05-02T22:36:00.926Z</time></trkpt>
      <trkpt lat="29.801552" lon="99.747654"><time>2026-05-02T22:36:00.943Z</time></trkpt>
      <trkpt lat="29.801547" lon="99.747646"><time>2026-05-02T22:36:00.959Z</time></trkpt>
      <trkpt lat="29.801547" lon="99.747646"><time>2026-05-02T22:36:00.976Z</time></trkpt>
      <trkpt lat="29.801547" lon="99.747646"><time>2026-05-02T22:36:00.993Z</time></trkpt>
      <trkpt lat="29.801547" lon="99.747646"><time>2026-05-02T22:36:01.009Z</time></trkpt>
      <trkpt lat="29.801547" lon="99.747646"><time>2026-05-02T22:36:01.026Z</time></trkpt>
      <trkpt lat="29.801547" lon="99.747646"><time>2026-05-02T22:36:01.043Z</time></trkpt>
      <trkpt lat="29.801542" lon="99.747638"><time>2026-05-02T22:36:01.059Z</time></trkpt>
      <trkpt lat="29.801542" lon="99.747638"><time>2026-05-02T22:36:01.076Z</time></trkpt>
      <trkpt lat="29.801542" lon="99.747638"><time>2026-05-02T22:36:01.093Z</time></trkpt>
      <trkpt lat="29.801542" lon="99.747638"><time>2026-05-02T22:36:01.109Z</time></trkpt>
      <trkpt lat="29.801542" lon="99.747638"><time>2026-05-02T22:36:01.126Z</time></trkpt>
      <trkpt lat="29.801542" lon="99.747638"><time>2026-05-02T22:36:01.143Z</time></trkpt>
      <trkpt lat="29.801538" lon="99.74763"><time>2026-05-02T22:36:01.159Z</time></trkpt>
      <trkpt lat="29.801538" lon="99.74763"><time>2026-05-02T22:36:01.176Z</time></trkpt>
      <trkpt lat="29.801538" lon="99.74763"><time>2026-05-02T22:36:01.193Z</time></trkpt>
      <trkpt lat="29.801538" lon="99.74763"><time>2026-05-02T22:36:01.209Z</time></trkpt>
      <trkpt lat="29.801538" lon="99.74763"><time>2026-05-02T22:36:01.226Z</time></trkpt>
      <trkpt lat="29.801538" lon="99.74763"><time>2026-05-02T22:36:01.243Z</time></trkpt>
      <trkpt lat="29.801533" lon="99.747622"><time>2026-05-02T22:36:01.260Z</time></trkpt>
      <trkpt lat="29.801533" lon="99.747622"><time>2026-05-02T22:36:01.276Z</time></trkpt>
      <trkpt lat="29.801533" lon="99.747622"><time>2026-05-02T22:36:01.293Z</time></trkpt>
      <trkpt lat="29.801533" lon="99.747622"><time>2026-05-02T22:36:01.310Z</time></trkpt>
      <trkpt lat="29.801533" lon="99.747622"><time>2026-05-02T22:36:01.326Z</time></trkpt>
      <trkpt lat="29.801533" lon="99.747622"><time>2026-05-02T22:36:01.343Z</time></trkpt>
      <trkpt lat="29.801529" lon="99.747614"><time>2026-05-02T22:36:01.360Z</time></trkpt>
      <trkpt lat="29.801529" lon="99.747614"><time>2026-05-02T22:36:01.376Z</time></trkpt>
      <trkpt lat="29.801529" lon="99.747614"><time>2026-05-02T22:36:01.393Z</time></trkpt>
      <trkpt lat="29.801529" lon="99.747614"><time>2026-05-02T22:36:01.410Z</time></trkpt>
      <trkpt lat="29.801529" lon="99.747614"><time>2026-05-02T22:36:01.426Z</time></trkpt>
      <trkpt lat="29.801529" lon="99.747614"><time>2026-05-02T22:36:01.443Z</time></trkpt>
      <trkpt lat="29.801524" lon="99.747605"><time>2026-05-02T22:36:01.460Z</time></trkpt>
      <trkpt lat="29.801524" lon="99.747605"><time>2026-05-02T22:36:01.476Z</time></trkpt>
      <trkpt lat="29.801524" lon="99.747605"><time>2026-05-02T22:36:01.493Z</time></trkpt>
      <trkpt lat="29.801524" lon="99.747605"><time>2026-05-02T22:36:01.510Z</time></trkpt>
      <trkpt lat="29.801524" lon="99.747605"><time>2026-05-02T22:36:01.526Z</time></trkpt>
      <trkpt lat="29.801524" lon="99.747605"><time>2026-05-02T22:36:01.543Z</time></trkpt>
      <trkpt lat="29.801519" lon="99.747597"><time>2026-05-02T22:36:01.560Z</time></trkpt>
      <trkpt lat="29.801519" lon="99.747597"><time>2026-05-02T22:36:01.577Z</time></trkpt>
      <trkpt lat="29.801519" lon="99.747597"><time>2026-05-02T22:36:01.593Z</time></trkpt>
      <trkpt lat="29.801519" lon="99.747597"><time>2026-05-02T22:36:01.610Z</time></trkpt>
      <trkpt lat="29.801519" lon="99.747597"><time>2026-05-02T22:36:01.627Z</time></trkpt>
      <trkpt lat="29.801519" lon="99.747597"><time>2026-05-02T22:36:01.643Z</time></trkpt>
      <trkpt lat="29.801515" lon="99.747589"><time>2026-05-02T22:36:01.660Z</time></trkpt>
      <trkpt lat="29.801515" lon="99.747589"><time>2026-05-02T22:36:01.677Z</time></trkpt>
      <trkpt lat="29.801515" lon="99.747589"><time>2026-05-02T22:36:01.693Z</time></trkpt>
      <trkpt lat="29.801515" lon="99.747589"><time>2026-05-02T22:36:01.710Z</time></trkpt>
      <trkpt lat="29.801515" lon="99.747589"><time>2026-05-02T22:36:01.727Z</time></trkpt>
      <trkpt lat="29.801515" lon="99.747589"><time>2026-05-02T22:36:01.743Z</time></trkpt>
      <trkpt lat="29.80151" lon="99.74758"><time>2026-05-02T22:36:01.760Z</time></trkpt>
      <trkpt lat="29.80151" lon="99.74758"><time>2026-05-02T22:36:01.777Z</time></trkpt>
      <trkpt lat="29.80151" lon="99.74758"><time>2026-05-02T22:36:01.793Z</time></trkpt>
      <trkpt lat="29.80151" lon="99.74758"><time>2026-05-02T22:36:01.810Z</time></trkpt>
      <trkpt lat="29.80151" lon="99.74758"><time>2026-05-02T22:36:01.827Z</time></trkpt>
      <trkpt lat="29.80151" lon="99.74758"><time>2026-05-02T22:36:01.843Z</time></trkpt>
      <trkpt lat="29.801505" lon="99.747572"><time>2026-05-02T22:36:01.860Z</time></trkpt>
      <trkpt lat="29.801505" lon="99.747572"><time>2026-05-02T22:36:01.877Z</time></trkpt>
      <trkpt lat="29.801505" lon="99.747572"><time>2026-05-02T22:36:01.894Z</time></trkpt>
      <trkpt lat="29.801505" lon="99.747572"><time>2026-05-02T22:36:01.910Z</time></trkpt>
      <trkpt lat="29.801505" lon="99.747572"><time>2026-05-02T22:36:01.927Z</time></trkpt>
      <trkpt lat="29.801505" lon="99.747572"><time>2026-05-02T22:36:01.944Z</time></trkpt>
      <trkpt lat="29.801501" lon="99.747563"><time>2026-05-02T22:36:01.960Z</time></trkpt>
      <trkpt lat="29.801501" lon="99.747563"><time>2026-05-02T22:36:01.977Z</time></trkpt>
      <trkpt lat="29.801501" lon="99.747563"><time>2026-05-02T22:36:01.994Z</time></trkpt>
      <trkpt lat="29.801501" lon="99.747563"><time>2026-05-02T22:36:02.010Z</time></trkpt>
      <trkpt lat="29.801501" lon="99.747563"><time>2026-05-02T22:36:02.027Z</time></trkpt>
      <trkpt lat="29.801501" lon="99.747563"><time>2026-05-02T22:36:02.044Z</time></trkpt>
      <trkpt lat="29.801496" lon="99.747555"><time>2026-05-02T22:36:02.060Z</time></trkpt>
      <trkpt lat="29.801496" lon="99.747555"><time>2026-05-02T22:36:02.077Z</time></trkpt>
      <trkpt lat="29.801496" lon="99.747555"><time>2026-05-02T22:36:02.094Z</time></trkpt>
      <trkpt lat="29.801496" lon="99.747555"><time>2026-05-02T22:36:02.110Z</time></trkpt>
      <trkpt lat="29.801496" lon="99.747555"><time>2026-05-02T22:36:02.127Z</time></trkpt>
      <trkpt lat="29.801496" lon="99.747555"><time>2026-05-02T22:36:02.144Z</time></trkpt>
      <trkpt lat="29.801491" lon="99.747546"><time>2026-05-02T22:36:02.160Z</time></trkpt>
      <trkpt lat="29.801491" lon="99.747546"><time>2026-05-02T22:36:02.177Z</time></trkpt>
      <trkpt lat="29.801491" lon="99.747546"><time>2026-05-02T22:36:02.194Z</time></trkpt>
      <trkpt lat="29.801491" lon="99.747546"><time>2026-05-02T22:36:02.211Z</time></trkpt>
      <trkpt lat="29.801491" lon="99.747546"><time>2026-05-02T22:36:02.227Z</time></trkpt>
      <trkpt lat="29.801491" lon="99.747546"><time>2026-05-02T22:36:02.244Z</time></trkpt>
      <trkpt lat="29.801487" lon="99.747538"><time>2026-05-02T22:36:02.261Z</time></trkpt>
      <trkpt lat="29.801487" lon="99.747538"><time>2026-05-02T22:36:02.277Z</time></trkpt>
      <trkpt lat="29.801487" lon="99.747538"><time>2026-05-02T22:36:02.294Z</time></trkpt>
      <trkpt lat="29.801487" lon="99.747538"><time>2026-05-02T22:36:02.311Z</time></trkpt>
      <trkpt lat="29.801487" lon="99.747538"><time>2026-05-02T22:36:02.327Z</time></trkpt>
      <trkpt lat="29.801487" lon="99.747538"><time>2026-05-02T22:36:02.344Z</time></trkpt>
      <trkpt lat="29.801482" lon="99.747529"><time>2026-05-02T22:36:02.361Z</time></trkpt>
      <trkpt lat="29.801482" lon="99.747529"><time>2026-05-02T22:36:02.377Z</time></trkpt>
      <trkpt lat="29.801482" lon="99.747529"><time>2026-05-02T22:36:02.394Z</time></trkpt>
      <trkpt lat="29.801482" lon="99.747529"><time>2026-05-02T22:36:02.411Z</time></trkpt>
      <trkpt lat="29.801482" lon="99.747529"><time>2026-05-02T22:36:02.427Z</time></trkpt>
      <trkpt lat="29.801482" lon="99.747529"><time>2026-05-02T22:36:02.444Z</time></trkpt>
      <trkpt lat="29.801477" lon="99.747521"><time>2026-05-02T22:36:02.461Z</time></trkpt>
      <trkpt lat="29.801477" lon="99.747521"><time>2026-05-02T22:36:02.477Z</time></trkpt>
      <trkpt lat="29.801477" lon="99.747521"><time>2026-05-02T22:36:02.494Z</time></trkpt>
      <trkpt lat="29.801477" lon="99.747521"><time>2026-05-02T22:36:02.511Z</time></trkpt>
      <trkpt lat="29.801477" lon="99.747521"><time>2026-05-02T22:36:02.528Z</time></trkpt>
      <trkpt lat="29.801477" lon="99.747521"><time>2026-05-02T22:36:02.544Z</time></trkpt>
      <trkpt lat="29.801472" lon="99.747512"><time>2026-05-02T22:36:02.561Z</time></trkpt>
      <trkpt lat="29.801472" lon="99.747512"><time>2026-05-02T22:36:02.578Z</time></trkpt>
      <trkpt lat="29.801472" lon="99.747512"><time>2026-05-02T22:36:02.594Z</time></trkpt>
      <trkpt lat="29.801472" lon="99.747512"><time>2026-05-02T22:36:02.611Z</time></trkpt>
      <trkpt lat="29.801472" lon="99.747512"><time>2026-05-02T22:36:02.628Z</time></trkpt>
      <trkpt lat="29.801472" lon="99.747512"><time>2026-05-02T22:36:02.644Z</time></trkpt>
      <trkpt lat="29.801468" lon="99.747503"><time>2026-05-02T22:36:02.661Z</time></trkpt>
      <trkpt lat="29.801468" lon="99.747503"><time>2026-05-02T22:36:02.678Z</time></trkpt>
      <trkpt lat="29.801468" lon="99.747503"><time>2026-05-02T22:36:02.694Z</time></trkpt>
      <trkpt lat="29.801468" lon="99.747503"><time>2026-05-02T22:36:02.711Z</time></trkpt>
      <trkpt lat="29.801468" lon="99.747503"><time>2026-05-02T22:36:02.728Z</time></trkpt>
      <trkpt lat="29.801468" lon="99.747503"><time>2026-05-02T22:36:02.744Z</time></trkpt>
      <trkpt lat="29.801463" lon="99.747495"><time>2026-05-02T22:36:02.761Z</time></trkpt>
      <trkpt lat="29.801463" lon="99.747495"><time>2026-05-02T22:36:02.778Z</time></trkpt>
      <trkpt lat="29.801463" lon="99.747495"><time>2026-05-02T22:36:02.794Z</time></trkpt>
      <trkpt lat="29.801463" lon="99.747495"><time>2026-05-02T22:36:02.811Z</time></trkpt>
      <trkpt lat="29.801463" lon="99.747495"><time>2026-05-02T22:36:02.828Z</time></trkpt>
      <trkpt lat="29.801463" lon="99.747495"><time>2026-05-02T22:36:02.845Z</time></trkpt>
      <trkpt lat="29.801458" lon="99.747486"><time>2026-05-02T22:36:02.861Z</time></trkpt>
      <trkpt lat="29.801458" lon="99.747486"><time>2026-05-02T22:36:02.878Z</time></trkpt>
      <trkpt lat="29.801458" lon="99.747486"><time>2026-05-02T22:36:02.895Z</time></trkpt>
      <trkpt lat="29.801458" lon="99.747486"><time>2026-05-02T22:36:02.911Z</time></trkpt>
      <trkpt lat="29.801458" lon="99.747486"><time>2026-05-02T22:36:02.928Z</time></trkpt>
      <trkpt lat="29.801458" lon="99.747486"><time>2026-05-02T22:36:02.945Z</time></trkpt>
      <trkpt lat="29.801453" lon="99.747477"><time>2026-05-02T22:36:02.961Z</time></trkpt>
      <trkpt lat="29.801453" lon="99.747477"><time>2026-05-02T22:36:02.978Z</time></trkpt>
      <trkpt lat="29.801453" lon="99.747477"><time>2026-05-02T22:36:02.995Z</time></trkpt>
      <trkpt lat="29.801453" lon="99.747477"><time>2026-05-02T22:36:03.011Z</time></trkpt>
      <trkpt lat="29.801453" lon="99.747477"><time>2026-05-02T22:36:03.028Z</time></trkpt>
      <trkpt lat="29.801453" lon="99.747477"><time>2026-05-02T22:36:03.045Z</time></trkpt>
      <trkpt lat="29.801448" lon="99.747468"><time>2026-05-02T22:36:03.061Z</time></trkpt>
      <trkpt lat="29.801448" lon="99.747468"><time>2026-05-02T22:36:03.078Z</time></trkpt>
      <trkpt lat="29.801448" lon="99.747468"><time>2026-05-02T22:36:03.095Z</time></trkpt>
      <trkpt lat="29.801448" lon="99.747468"><time>2026-05-02T22:36:03.111Z</time></trkpt>
      <trkpt lat="29.801448" lon="99.747468"><time>2026-05-02T22:36:03.128Z</time></trkpt>
      <trkpt lat="29.801448" lon="99.747468"><time>2026-05-02T22:36:03.145Z</time></trkpt>
      <trkpt lat="29.801444" lon="99.747459"><time>2026-05-02T22:36:03.162Z</time></trkpt>
      <trkpt lat="29.801444" lon="99.747459"><time>2026-05-02T22:36:03.178Z</time></trkpt>
      <trkpt lat="29.801444" lon="99.747459"><time>2026-05-02T22:36:03.195Z</time></trkpt>
      <trkpt lat="29.801444" lon="99.747459"><time>2026-05-02T22:36:03.212Z</time></trkpt>
      <trkpt lat="29.801444" lon="99.747459"><time>2026-05-02T22:36:03.228Z</time></trkpt>
      <trkpt lat="29.801444" lon="99.747459"><time>2026-05-02T22:36:03.245Z</time></trkpt>
      <trkpt lat="29.801439" lon="99.74745"><time>2026-05-02T22:36:03.262Z</time></trkpt>
      <trkpt lat="29.801439" lon="99.74745"><time>2026-05-02T22:36:03.278Z</time></trkpt>
      <trkpt lat="29.801439" lon="99.74745"><time>2026-05-02T22:36:03.295Z</time></trkpt>
      <trkpt lat="29.801439" lon="99.74745"><time>2026-05-02T22:36:03.312Z</time></trkpt>
      <trkpt lat="29.801439" lon="99.74745"><time>2026-05-02T22:36:03.328Z</time></trkpt>
      <trkpt lat="29.801439" lon="99.74745"><time>2026-05-02T22:36:03.345Z</time></trkpt>
      <trkpt lat="29.801434" lon="99.747441"><time>2026-05-02T22:36:03.362Z</time></trkpt>
      <trkpt lat="29.801434" lon="99.747441"><time>2026-05-02T22:36:03.378Z</time></trkpt>
      <trkpt lat="29.801434" lon="99.747441"><time>2026-05-02T22:36:03.395Z</time></trkpt>
      <trkpt lat="29.801434" lon="99.747441"><time>2026-05-02T22:36:03.412Z</time></trkpt>
      <trkpt lat="29.801434" lon="99.747441"><time>2026-05-02T22:36:03.428Z</time></trkpt>
      <trkpt lat="29.801434" lon="99.747441"><time>2026-05-02T22:36:03.445Z</time></trkpt>
      <trkpt lat="29.801429" lon="99.747432"><time>2026-05-02T22:36:03.462Z</time></trkpt>
      <trkpt lat="29.801429" lon="99.747432"><time>2026-05-02T22:36:03.479Z</time></trkpt>
      <trkpt lat="29.801429" lon="99.747432"><time>2026-05-02T22:36:03.495Z</time></trkpt>
      <trkpt lat="29.801429" lon="99.747432"><time>2026-05-02T22:36:03.512Z</time></trkpt>
      <trkpt lat="29.801429" lon="99.747432"><time>2026-05-02T22:36:03.529Z</time></trkpt>
      <trkpt lat="29.801429" lon="99.747432"><time>2026-05-02T22:36:03.545Z</time></trkpt>
      <trkpt lat="29.801424" lon="99.747423"><time>2026-05-02T22:36:03.562Z</time></trkpt>
      <trkpt lat="29.801424" lon="99.747423"><time>2026-05-02T22:36:03.579Z</time></trkpt>
      <trkpt lat="29.801424" lon="99.747423"><time>2026-05-02T22:36:03.595Z</time></trkpt>
      <trkpt lat="29.801424" lon="99.747423"><time>2026-05-02T22:36:03.612Z</time></trkpt>
      <trkpt lat="29.801424" lon="99.747423"><time>2026-05-02T22:36:03.629Z</time></trkpt>
      <trkpt lat="29.801424" lon="99.747423"><time>2026-05-02T22:36:03.645Z</time></trkpt>
      <trkpt lat="29.801419" lon="99.747414"><time>2026-05-02T22:36:03.662Z</time></trkpt>
      <trkpt lat="29.801419" lon="99.747414"><time>2026-05-02T22:36:03.679Z</time></trkpt>
      <trkpt lat="29.801419" lon="99.747414"><time>2026-05-02T22:36:03.695Z</time></trkpt>
      <trkpt lat="29.801419" lon="99.747414"><time>2026-05-02T22:36:03.712Z</time></trkpt>
      <trkpt lat="29.801419" lon="99.747414"><time>2026-05-02T22:36:03.729Z</time></trkpt>
      <trkpt lat="29.801419" lon="99.747414"><time>2026-05-02T22:36:03.745Z</time></trkpt>
      <trkpt lat="29.801414" lon="99.747404"><time>2026-05-02T22:36:03.762Z</time></trkpt>
      <trkpt lat="29.801414" lon="99.747404"><time>2026-05-02T22:36:03.779Z</time></trkpt>
      <trkpt lat="29.801414" lon="99.747404"><time>2026-05-02T22:36:03.796Z</time></trkpt>
      <trkpt lat="29.801414" lon="99.747404"><time>2026-05-02T22:36:03.812Z</time></trkpt>
      <trkpt lat="29.801414" lon="99.747404"><time>2026-05-02T22:36:03.829Z</time></trkpt>
      <trkpt lat="29.801414" lon="99.747404"><time>2026-05-02T22:36:03.846Z</time></trkpt>
      <trkpt lat="29.80141" lon="99.747396"><time>2026-05-02T22:36:03.862Z</time></trkpt>
      <trkpt lat="29.80141" lon="99.747396"><time>2026-05-02T22:36:03.879Z</time></trkpt>
      <trkpt lat="29.80141" lon="99.747396"><time>2026-05-02T22:36:03.896Z</time></trkpt>
      <trkpt lat="29.80141" lon="99.747396"><time>2026-05-02T22:36:03.912Z</time></trkpt>
      <trkpt lat="29.80141" lon="99.747396"><time>2026-05-02T22:36:03.929Z</time></trkpt>
      <trkpt lat="29.80141" lon="99.747396"><time>2026-05-02T22:36:03.946Z</time></trkpt>
      <trkpt lat="29.801405" lon="99.747386"><time>2026-05-02T22:36:03.962Z</time></trkpt>
      <trkpt lat="29.801405" lon="99.747386"><time>2026-05-02T22:36:03.979Z</time></trkpt>
      <trkpt lat="29.801405" lon="99.747386"><time>2026-05-02T22:36:03.996Z</time></trkpt>
      <trkpt lat="29.801405" lon="99.747386"><time>2026-05-02T22:36:04.012Z</time></trkpt>
      <trkpt lat="29.801405" lon="99.747386"><time>2026-05-02T22:36:04.029Z</time></trkpt>
      <trkpt lat="29.801405" lon="99.747386"><time>2026-05-02T22:36:04.046Z</time></trkpt>
      <trkpt lat="29.8014" lon="99.747377"><time>2026-05-02T22:36:04.062Z</time></trkpt>
      <trkpt lat="29.8014" lon="99.747377"><time>2026-05-02T22:36:04.079Z</time></trkpt>
      <trkpt lat="29.8014" lon="99.747377"><time>2026-05-02T22:36:04.096Z</time></trkpt>
      <trkpt lat="29.8014" lon="99.747377"><time>2026-05-02T22:36:04.113Z</time></trkpt>
      <trkpt lat="29.8014" lon="99.747377"><time>2026-05-02T22:36:04.129Z</time></trkpt>
      <trkpt lat="29.8014" lon="99.747377"><time>2026-05-02T22:36:04.146Z</time></trkpt>
      <trkpt lat="29.801396" lon="99.747368"><time>2026-05-02T22:36:04.163Z</time></trkpt>
      <trkpt lat="29.801396" lon="99.747368"><time>2026-05-02T22:36:04.179Z</time></trkpt>
      <trkpt lat="29.801396" lon="99.747368"><time>2026-05-02T22:36:04.196Z</time></trkpt>
      <trkpt lat="29.801396" lon="99.747368"><time>2026-05-02T22:36:04.213Z</time></trkpt>
      <trkpt lat="29.801396" lon="99.747368"><time>2026-05-02T22:36:04.229Z</time></trkpt>
      <trkpt lat="29.801396" lon="99.747368"><time>2026-05-02T22:36:04.246Z</time></trkpt>
      <trkpt lat="29.801391" lon="99.747359"><time>2026-05-02T22:36:04.263Z</time></trkpt>
      <trkpt lat="29.801391" lon="99.747359"><time>2026-05-02T22:36:04.279Z</time></trkpt>
      <trkpt lat="29.801391" lon="99.747359"><time>2026-05-02T22:36:04.296Z</time></trkpt>
      <trkpt lat="29.801391" lon="99.747359"><time>2026-05-02T22:36:04.313Z</time></trkpt>
      <trkpt lat="29.801391" lon="99.747359"><time>2026-05-02T22:36:04.329Z</time></trkpt>
      <trkpt lat="29.801391" lon="99.747359"><time>2026-05-02T22:36:04.346Z</time></trkpt>
      <trkpt lat="29.801386" lon="99.74735"><time>2026-05-02T22:36:04.363Z</time></trkpt>
      <trkpt lat="29.801386" lon="99.74735"><time>2026-05-02T22:36:04.379Z</time></trkpt>
      <trkpt lat="29.801386" lon="99.74735"><time>2026-05-02T22:36:04.396Z</time></trkpt>
      <trkpt lat="29.801386" lon="99.74735"><time>2026-05-02T22:36:04.413Z</time></trkpt>
      <trkpt lat="29.801386" lon="99.74735"><time>2026-05-02T22:36:04.430Z</time></trkpt>
      <trkpt lat="29.801386" lon="99.74735"><time>2026-05-02T22:36:04.446Z</time></trkpt>
      <trkpt lat="29.801381" lon="99.747341"><time>2026-05-02T22:36:04.463Z</time></trkpt>
      <trkpt lat="29.801381" lon="99.747341"><time>2026-05-02T22:36:04.480Z</time></trkpt>
      <trkpt lat="29.801381" lon="99.747341"><time>2026-05-02T22:36:04.496Z</time></trkpt>
      <trkpt lat="29.801381" lon="99.747341"><time>2026-05-02T22:36:04.513Z</time></trkpt>
      <trkpt lat="29.801381" lon="99.747341"><time>2026-05-02T22:36:04.530Z</time></trkpt>
      <trkpt lat="29.801381" lon="99.747341"><time>2026-05-02T22:36:04.546Z</time></trkpt>
      <trkpt lat="29.801377" lon="99.747332"><time>2026-05-02T22:36:04.563Z</time></trkpt>
      <trkpt lat="29.801377" lon="99.747332"><time>2026-05-02T22:36:04.580Z</time></trkpt>
      <trkpt lat="29.801377" lon="99.747332"><time>2026-05-02T22:36:04.596Z</time></trkpt>
      <trkpt lat="29.801377" lon="99.747332"><time>2026-05-02T22:36:04.613Z</time></trkpt>
      <trkpt lat="29.801377" lon="99.747332"><time>2026-05-02T22:36:04.630Z</time></trkpt>
      <trkpt lat="29.801377" lon="99.747332"><time>2026-05-02T22:36:04.646Z</time></trkpt>
      <trkpt lat="29.801372" lon="99.747322"><time>2026-05-02T22:36:04.663Z</time></trkpt>
      <trkpt lat="29.801372" lon="99.747322"><time>2026-05-02T22:36:04.680Z</time></trkpt>
      <trkpt lat="29.801372" lon="99.747322"><time>2026-05-02T22:36:04.696Z</time></trkpt>
      <trkpt lat="29.801372" lon="99.747322"><time>2026-05-02T22:36:04.713Z</time></trkpt>
      <trkpt lat="29.801372" lon="99.747322"><time>2026-05-02T22:36:04.730Z</time></trkpt>
      <trkpt lat="29.801372" lon="99.747322"><time>2026-05-02T22:36:04.747Z</time></trkpt>
      <trkpt lat="29.801367" lon="99.747313"><time>2026-05-02T22:36:04.763Z</time></trkpt>
      <trkpt lat="29.801367" lon="99.747313"><time>2026-05-02T22:36:04.780Z</time></trkpt>
      <trkpt lat="29.801367" lon="99.747313"><time>2026-05-02T22:36:04.797Z</time></trkpt>
      <trkpt lat="29.801367" lon="99.747313"><time>2026-05-02T22:36:04.813Z</time></trkpt>
    </trkseg>
  </trk>
</gpx>
