<?xml version="1.0" encoding="UTF-8"?>
<gpx version="1.1" creator="Kairos" xmlns="http://www.topografix.com/GPX/1/1">
  <trk>
    <name>sidecar-srt-1529a1959471b977</name>
    <trkseg>
      <trkpt lat="29.764813" lon="99.007768"><time>2026-05-01T08:12:11.000Z</time></trkpt>
      <trkpt lat="29.764813" lon="99.007768"><time>2026-05-01T08:12:11.016Z</time></trkpt>
      <trkpt lat="29.764813" lon="99.007768"><time>2026-05-01T08:12:11.032Z</time></trkpt>
      <trkpt lat="29.764813" lon="99.007768"><time>2026-05-01T08:12:11.049Z</time></trkpt>
      <trkpt lat="29.764813" lon="99.007768"><time>2026-05-01T08:12:11.066Z</time></trkpt>
      <trkpt lat="29.764813" lon="99.007768"><time>2026-05-01T08:12:11.082Z</time></trkpt>
      <trkpt lat="29.764813" lon="99.007768"><time>2026-05-01T08:12:11.099Z</time></trkpt>
      <trkpt lat="29.764813" lon="99.007768"><time>2026-05-01T08:12:11.116Z</time></trkpt>
      <trkpt lat="29.764813" lon="99.007768"><time>2026-05-01T08:12:11.132Z</time></trkpt>
      <trkpt lat="29.764813" lon="99.007768"><time>2026-05-01T08:12:11.149Z</time></trkpt>
      <trkpt lat="29.764813" lon="99.007768"><time>2026-05-01T08:12:11.166Z</time></trkpt>
      <trkpt lat="29.764813" lon="99.007768"><time>2026-05-01T08:12:11.182Z</time></trkpt>
      <trkpt lat="29.764813" lon="99.007768"><time>2026-05-01T08:12:11.199Z</time></trkpt>
      <trkpt lat="29.764813" lon="99.007768"><time>2026-05-01T08:12:11.216Z</time></trkpt>
      <trkpt lat="29.764813" lon="99.007768"><time>2026-05-01T08:12:11.232Z</time></trkpt>
      <trkpt lat="29.764813" lon="99.007767"><time>2026-05-01T08:12:11.249Z</time></trkpt>
      <trkpt lat="29.764813" lon="99.007767"><time>2026-05-01T08:12:11.266Z</time></trkpt>
      <trkpt lat="29.764813" lon="99.007767"><time>2026-05-01T08:12:11.282Z</time></trkpt>
      <trkpt lat="29.764813" lon="99.007767"><time>2026-05-01T08:12:11.299Z</time></trkpt>
      <trkpt lat="29.764813" lon="99.007767"><time>2026-05-01T08:12:11.316Z</time></trkpt>
      <trkpt lat="29.764813" lon="99.007767"><time>2026-05-01T08:12:11.333Z</time></trkpt>
      <trkpt lat="29.764813" lon="99.007768"><time>2026-05-01T08:12:11.349Z</time></trkpt>
      <trkpt lat="29.764813" lon="99.007768"><time>2026-05-01T08:12:11.366Z</time></trkpt>
      <trkpt lat="29.764813" lon="99.007768"><time>2026-05-01T08:12:11.383Z</time></trkpt>
      <trkpt lat="29.764813" lon="99.007768"><time>2026-05-01T08:12:11.399Z</time></trkpt>
      <trkpt lat="29.764813" lon="99.007768"><time>2026-05-01T08:12:11.416Z</time></trkpt>
      <trkpt lat="29.764813" lon="99.007768"><time>2026-05-01T08:12:11.433Z</time></trkpt>
      <trkpt lat="29.764814" lon="99.007767"><time>2026-05-01T08:12:11.449Z</time></trkpt>
      <trkpt lat="29.764814" lon="99.007767"><time>2026-05-01T08:12:11.466Z</time></trkpt>
      <trkpt lat="29.764814" lon="99.007767"><time>2026-05-01T08:12:11.483Z</time></trkpt>
      <trkpt lat="29.764814" lon="99.007767"><time>2026-05-01T08:12:11.499Z</time></trkpt>
      <trkpt lat="29.764814" lon="99.007767"><time>2026-05-01T08:12:11.516Z</time></trkpt>
      <trkpt lat="29.764814" lon="99.007767"><time>2026-05-01T08:12:11.533Z</time></trkpt>
      <trkpt lat="29.764814" lon="99.007768"><time>2026-05-01T08:12:11.549Z</time></trkpt>
      <trkpt lat="29.764814" lon="99.007768"><time>2026-05-01T08:12:11.566Z</time></trkpt>
      <trkpt lat="29.764814" lon="99.007768"><time>2026-05-01T08:12:11.583Z</time></trkpt>
      <trkpt lat="29.764814" lon="99.007768"><time>2026-05-01T08:12:11.599Z</time></trkpt>
      <trkpt lat="29.764814" lon="99.007768"><time>2026-05-01T08:12:11.616Z</time></trkpt>
      <trkpt lat="29.764814" lon="99.007768"><time>2026-05-01T08:12:11.633Z</time></trkpt>
      <trkpt lat="29.764814" lon="99.007768"><time>2026-05-01T08:12:11.650Z</time></trkpt>
      <trkpt lat="29.764814" lon="99.007768"><time>2026-05-01T08:12:11.666Z</time></trkpt>
      <trkpt lat="29.764814" lon="99.007768"><time>2026-05-01T08:12:11.683Z</time></trkpt>
      <trkpt lat="29.764814" lon="99.007768"><time>2026-05-01T08:12:11.700Z</time></trkpt>
      <trkpt lat="29.764814" lon="99.007768"><time>2026-05-01T08:12:11.716Z</time></trkpt>
      <trkpt lat="29.764814" lon="99.007768"><time>2026-05-01T08:12:11.733Z</time></trkpt>
      <trkpt lat="29.764814" lon="99.007768"><time>2026-05-01T08:12:11.750Z</time></trkpt>
      <trkpt lat="29.764814" lon="99.007768"><time>2026-05-01T08:12:11.766Z</time></trkpt>
      <trkpt lat="29.764814" lon="99.007768"><time>2026-05-01T08:12:11.783Z</time></trkpt>
      <trkpt lat="29.764814" lon="99.007768"><time>2026-05-01T08:12:11.800Z</time></trkpt>
      <trkpt lat="29.764814" lon="99.007768"><time>2026-05-01T08:12:11.816Z</time></trkpt>
      <trkpt lat="29.764814" lon="99.007768"><time>2026-05-01T08:12:11.833Z</time></trkpt>
      <trkpt lat="29.764813" lon="99.007769"><time>2026-05-01T08:12:11.850Z</time></trkpt>
      <trkpt lat="29.764813" lon="99.007769"><time>2026-05-01T08:12:11.866Z</time></trkpt>
      <trkpt lat="29.764813" lon="99.007769"><time>2026-05-01T08:12:11.883Z</time></trkpt>
      <trkpt lat="29.764813" lon="99.007769"><time>2026-05-01T08:12:11.900Z</time></trkpt>
      <trkpt lat="29.764813" lon="99.007769"><time>2026-05-01T08:12:11.916Z</time></trkpt>
      <trkpt lat="29.764813" lon="99.007769"><time>2026-05-01T08:12:11.933Z</time></trkpt>
      <trkpt lat="29.764814" lon="99.00777"><time>2026-05-01T08:12:11.950Z</time></trkpt>
      <trkpt lat="29.764814" lon="99.00777"><time>2026-05-01T08:12:11.967Z</time></trkpt>
      <trkpt lat="29.764814" lon="99.00777"><time>2026-05-01T08:12:11.983Z</time></trkpt>
      <trkpt lat="29.764814" lon="99.00777"><time>2026-05-01T08:12:12.000Z</time></trkpt>
      <trkpt lat="29.764814" lon="99.00777"><time>2026-05-01T08:12:12.017Z</time></trkpt>
      <trkpt lat="29.764814" lon="99.00777"><time>2026-05-01T08:12:12.033Z</time></trkpt>
      <trkpt lat="29.764813" lon="99.007771"><time>2026-05-01T08:12:12.050Z</time></trkpt>
      <trkpt lat="29.764813" lon="99.007771"><time>2026-05-01T08:12:12.067Z</time></trkpt>
      <trkpt lat="29.764813" lon="99.007771"><time>2026-05-01T08:12:12.083Z</time></trkpt>
      <trkpt lat="29.764813" lon="99.007771"><time>2026-05-01T08:12:12.100Z</time></trkpt>
      <trkpt lat="29.764813" lon="99.007771"><time>2026-05-01T08:12:12.117Z</time></trkpt>
      <trkpt lat="29.764813" lon="99.007771"><time>2026-05-01T08:12:12.133Z</time></trkpt>
      <trkpt lat="29.764813" lon="99.007772"><time>2026-05-01T08:12:12.150Z</time></trkpt>
      <trkpt lat="29.764813" lon="99.007772"><time>2026-05-01T08:12:12.167Z</time></trkpt>
      <trkpt lat="29.764813" lon="99.007772"><time>2026-05-01T08:12:12.183Z</time></trkpt>
      <trkpt lat="29.764813" lon="99.007772"><time>2026-05-01T08:12:12.200Z</time></trkpt>
      <trkpt lat="29.764813" lon="99.007772"><time>2026-05-01T08:12:12.217Z</time></trkpt>
      <trkpt lat="29.764813" lon="99.007772"><time>2026-05-01T08:12:12.233Z</time></trkpt>
      <trkpt lat="29.764813" lon="99.007774"><time>2026-05-01T08:12:12.250Z</time></trkpt>
      <trkpt lat="29.764813" lon="99.007774"><time>2026-05-01T08:12:12.267Z</time></trkpt>
      <trkpt lat="29.764813" lon="99.007774"><time>2026-05-01T08:12:12.284Z</time></trkpt>
      <trkpt lat="29.764813" lon="99.007774"><time>2026-05-01T08:12:12.300Z</time></trkpt>
      <trkpt lat="29.764813" lon="99.007774"><time>2026-05-01T08:12:12.317Z</time></trkpt>
      <trkpt lat="29.764813" lon="99.007774"><time>2026-05-01T08:12:12.334Z</time></trkpt>
      <trkpt lat="29.764813" lon="99.007776"><time>2026-05-01T08:12:12.350Z</time></trkpt>
      <trkpt lat="29.764813" lon="99.007776"><time>2026-05-01T08:12:12.367Z</time></trkpt>
      <trkpt lat="29.764813" lon="99.007776"><time>2026-05-01T08:12:12.384Z</time></trkpt>
      <trkpt lat="29.764813" lon="99.007776"><time>2026-05-01T08:12:12.400Z</time></trkpt>
      <trkpt lat="29.764813" lon="99.007776"><time>2026-05-01T08:12:12.417Z</time></trkpt>
      <trkpt lat="29.764813" lon="99.007776"><time>2026-05-01T08:12:12.434Z</time></trkpt>
      <trkpt lat="29.764813" lon="99.007779"><time>2026-05-01T08:12:12.450Z</time></trkpt>
      <trkpt lat="29.764813" lon="99.007779"><time>2026-05-01T08:12:12.467Z</time></trkpt>
      <trkpt lat="29.764813" lon="99.007779"><time>2026-05-01T08:12:12.484Z</time></trkpt>
      <trkpt lat="29.764813" lon="99.007779"><time>2026-05-01T08:12:12.500Z</time></trkpt>
      <trkpt lat="29.764813" lon="99.007779"><time>2026-05-01T08:12:12.517Z</time></trkpt>
      <trkpt lat="29.764813" lon="99.007779"><time>2026-05-01T08:12:12.534Z</time></trkpt>
      <trkpt lat="29.764812" lon="99.007781"><time>2026-05-01T08:12:12.550Z</time></trkpt>
      <trkpt lat="29.764812" lon="99.007781"><time>2026-05-01T08:12:12.567Z</time></trkpt>
      <trkpt lat="29.764812" lon="99.007781"><time>2026-05-01T08:12:12.584Z</time></trkpt>
      <trkpt lat="29.764812" lon="99.007781"><time>2026-05-01T08:12:12.601Z</time></trkpt>
      <trkpt lat="29.764812" lon="99.007781"><time>2026-05-01T08:12:12.617Z</time></trkpt>
      <trkpt lat="29.764812" lon="99.007781"><time>2026-05-01T08:12:12.634Z</time></trkpt>
      <trkpt lat="29.764812" lon="99.007785"><time>2026-05-01T08:12:12.651Z</time></trkpt>
      <trkpt lat="29.764812" lon="99.007785"><time>2026-05-01T08:12:12.667Z</time></trkpt>
      <trkpt lat="29.764812" lon="99.007785"><time>2026-05-01T08:12:12.684Z</time></trkpt>
      <trkpt lat="29.764812" lon="99.007785"><time>2026-05-01T08:12:12.701Z</time></trkpt>
      <trkpt lat="29.764812" lon="99.007785"><time>2026-05-01T08:12:12.717Z</time></trkpt>
      <trkpt lat="29.764812" lon="99.007785"><time>2026-05-01T08:12:12.734Z</time></trkpt>
      <trkpt lat="29.764811" lon="99.007788"><time>2026-05-01T08:12:12.751Z</time></trkpt>
      <trkpt lat="29.764811" lon="99.007788"><time>2026-05-01T08:12:12.767Z</time></trkpt>
      <trkpt lat="29.764811" lon="99.007788"><time>2026-05-01T08:12:12.784Z</time></trkpt>
      <trkpt lat="29.764811" lon="99.007788"><time>2026-05-01T08:12:12.801Z</time></trkpt>
      <trkpt lat="29.764811" lon="99.007788"><time>2026-05-01T08:12:12.817Z</time></trkpt>
      <trkpt lat="29.764811" lon="99.007788"><time>2026-05-01T08:12:12.834Z</time></trkpt>
      <trkpt lat="29.764811" lon="99.007792"><time>2026-05-01T08:12:12.851Z</time></trkpt>
      <trkpt lat="29.764811" lon="99.007792"><time>2026-05-01T08:12:12.867Z</time></trkpt>
      <trkpt lat="29.764811" lon="99.007792"><time>2026-05-01T08:12:12.884Z</time></trkpt>
      <trkpt lat="29.764811" lon="99.007792"><time>2026-05-01T08:12:12.901Z</time></trkpt>
      <trkpt lat="29.764811" lon="99.007792"><time>2026-05-01T08:12:12.917Z</time></trkpt>
      <trkpt lat="29.764811" lon="99.007792"><time>2026-05-01T08:12:12.934Z</time></trkpt>
      <trkpt lat="29.76481" lon="99.007795"><time>2026-05-01T08:12:12.951Z</time></trkpt>
      <trkpt lat="29.76481" lon="99.007795"><time>2026-05-01T08:12:12.968Z</time></trkpt>
      <trkpt lat="29.76481" lon="99.007795"><time>2026-05-01T08:12:12.984Z</time></trkpt>
      <trkpt lat="29.76481" lon="99.007795"><time>2026-05-01T08:12:13.001Z</time></trkpt>
      <trkpt lat="29.76481" lon="99.007795"><time>2026-05-01T08:12:13.018Z</time></trkpt>
      <trkpt lat="29.76481" lon="99.007795"><time>2026-05-01T08:12:13.034Z</time></trkpt>
      <trkpt lat="29.764809" lon="99.007799"><time>2026-05-01T08:12:13.051Z</time></trkpt>
      <trkpt lat="29.764809" lon="99.007799"><time>2026-05-01T08:12:13.068Z</time></trkpt>
      <trkpt lat="29.764809" lon="99.007799"><time>2026-05-01T08:12:13.084Z</time></trkpt>
      <trkpt lat="29.764809" lon="99.007799"><time>2026-05-01T08:12:13.101Z</time></trkpt>
      <trkpt lat="29.764809" lon="99.007799"><time>2026-05-01T08:12:13.118Z</time></trkpt>
      <trkpt lat="29.764809" lon="99.007799"><time>2026-05-01T08:12:13.134Z</time></trkpt>
      <trkpt lat="29.764809" lon="99.007804"><time>2026-05-01T08:12:13.151Z</time></trkpt>
      <trkpt lat="29.764809" lon="99.007804"><time>2026-05-01T08:12:13.168Z</time></trkpt>
      <trkpt lat="29.764809" lon="99.007804"><time>2026-05-01T08:12:13.184Z</time></trkpt>
      <trkpt lat="29.764809" lon="99.007804"><time>2026-05-01T08:12:13.201Z</time></trkpt>
      <trkpt lat="29.764809" lon="99.007804"><time>2026-05-01T08:12:13.218Z</time></trkpt>
      <trkpt lat="29.764809" lon="99.007804"><time>2026-05-01T08:12:13.234Z</time></trkpt>
      <trkpt lat="29.764808" lon="99.007808"><time>2026-05-01T08:12:13.251Z</time></trkpt>
      <trkpt lat="29.764808" lon="99.007808"><time>2026-05-01T08:12:13.268Z</time></trkpt>
      <trkpt lat="29.764808" lon="99.007808"><time>2026-05-01T08:12:13.285Z</time></trkpt>
      <trkpt lat="29.764808" lon="99.007808"><time>2026-05-01T08:12:13.301Z</time></trkpt>
      <trkpt lat="29.764808" lon="99.007808"><time>2026-05-01T08:12:13.318Z</time></trkpt>
      <trkpt lat="29.764808" lon="99.007808"><time>2026-05-01T08:12:13.335Z</time></trkpt>
      <trkpt lat="29.764807" lon="99.007813"><time>2026-05-01T08:12:13.351Z</time></trkpt>
      <trkpt lat="29.764807" lon="99.007813"><time>2026-05-01T08:12:13.368Z</time></trkpt>
      <trkpt lat="29.764807" lon="99.007813"><time>2026-05-01T08:12:13.385Z</time></trkpt>
      <trkpt lat="29.764807" lon="99.007813"><time>2026-05-01T08:12:13.401Z</time></trkpt>
      <trkpt lat="29.764807" lon="99.007813"><time>2026-05-01T08:12:13.418Z</time></trkpt>
      <trkpt lat="29.764807" lon="99.007813"><time>2026-05-01T08:12:13.435Z</time></trkpt>
      <trkpt lat="29.764806" lon="99.007818"><time>2026-05-01T08:12:13.451Z</time></trkpt>
      <trkpt lat="29.764806" lon="99.007818"><time>2026-05-01T08:12:13.468Z</time></trkpt>
      <trkpt lat="29.764806" lon="99.007818"><time>2026-05-01T08:12:13.485Z</time></trkpt>
      <trkpt lat="29.764806" lon="99.007818"><time>2026-05-01T08:12:13.501Z</time></trkpt>
      <trkpt lat="29.764806" lon="99.007818"><time>2026-05-01T08:12:13.518Z</time></trkpt>
      <trkpt lat="29.764806" lon="99.007818"><time>2026-05-01T08:12:13.535Z</time></trkpt>
      <trkpt lat="29.764805" lon="99.007823"><time>2026-05-01T08:12:13.551Z</time></trkpt>
      <trkpt lat="29.764805" lon="99.007823"><time>2026-05-01T08:12:13.568Z</time></trkpt>
      <trkpt lat="29.764805" lon="99.007823"><time>2026-05-01T08:12:13.585Z</time></trkpt>
      <trkpt lat="29.764805" lon="99.007823"><time>2026-05-01T08:12:13.602Z</time></trkpt>
      <trkpt lat="29.764805" lon="99.007823"><time>2026-05-01T08:12:13.618Z</time></trkpt>
      <trkpt lat="29.764805" lon="99.007823"><time>2026-05-01T08:12:13.635Z</time></trkpt>
      <trkpt lat="29.764804" lon="99.007829"><time>2026-05-01T08:12:13.652Z</time></trkpt>
      <trkpt lat="29.764804" lon="99.007829"><time>2026-05-01T08:12:13.668Z</time></trkpt>
      <trkpt lat="29.764804" lon="99.007829"><time>2026-05-01T08:12:13.685Z</time></trkpt>
      <trkpt lat="29.764804" lon="99.007829"><time>2026-05-01T08:12:13.702Z</time></trkpt>
      <trkpt lat="29.764804" lon="99.007829"><time>2026-05-01T08:12:13.718Z</time></trkpt>
      <trkpt lat="29.764804" lon="99.007829"><time>2026-05-01T08:12:13.735Z</time></trkpt>
      <trkpt lat="29.764803" lon="99.007834"><time>2026-05-01T08:12:13.752Z</time></trkpt>
      <trkpt lat="29.764803" lon="99.007834"><time>2026-05-01T08:12:13.768Z</time></trkpt>
      <trkpt lat="29.764803" lon="99.007834"><time>2026-05-01T08:12:13.785Z</time></trkpt>
      <trkpt lat="29.764803" lon="99.007834"><time>2026-05-01T08:12:13.802Z</time></trkpt>
      <trkpt lat="29.764803" lon="99.007834"><time>2026-05-01T08:12:13.818Z</time></trkpt>
      <trkpt lat="29.764803" lon="99.007834"><time>2026-05-01T08:12:13.835Z</time></trkpt>
      <trkpt lat="29.764802" lon="99.00784"><time>2026-05-01T08:12:13.852Z</time></trkpt>
      <trkpt lat="29.764802" lon="99.00784"><time>2026-05-01T08:12:13.868Z</time></trkpt>
      <trkpt lat="29.764802" lon="99.00784"><time>2026-05-01T08:12:13.885Z</time></trkpt>
      <trkpt lat="29.764802" lon="99.00784"><time>2026-05-01T08:12:13.902Z</time></trkpt>
      <trkpt lat="29.764802" lon="99.00784"><time>2026-05-01T08:12:13.919Z</time></trkpt>
      <trkpt lat="29.764802" lon="99.00784"><time>2026-05-01T08:12:13.935Z</time></trkpt>
      <trkpt lat="29.764802" lon="99.007846"><time>2026-05-01T08:12:13.952Z</time></trkpt>
      <trkpt lat="29.764802" lon="99.007846"><time>2026-05-01T08:12:13.969Z</time></trkpt>
      <trkpt lat="29.764802" lon="99.007846"><time>2026-05-01T08:12:13.985Z</time></trkpt>
      <trkpt lat="29.764802" lon="99.007846"><time>2026-05-01T08:12:14.002Z</time></trkpt>
      <trkpt lat="29.764802" lon="99.007846"><time>2026-05-01T08:12:14.019Z</time></trkpt>
      <trkpt lat="29.764802" lon="99.007846"><time>2026-05-01T08:12:14.035Z</time></trkpt>
      <trkpt lat="29.764801" lon="99.007852"><time>2026-05-01T08:12:14.052Z</time></trkpt>
      <trkpt lat="29.764801" lon="99.007852"><time>2026-05-01T08:12:14.069Z</time></trkpt>
      <trkpt lat="29.764801" lon="99.007852"><time>2026-05-01T08:12:14.085Z</time></trkpt>
      <trkpt lat="29.764801" lon="99.007852"><time>2026-05-01T08:12:14.102Z</time></trkpt>
      <trkpt lat="29.764801" lon="99.007852"><time>2026-05-01T08:12:14.119Z</time></trkpt>
      <trkpt lat="29.764801" lon="99.007852"><time>2026-05-01T08:12:14.135Z</time></trkpt>
      <trkpt lat="29.7648" lon="99.007858"><time>2026-05-01T08:12:14.152Z</time></trkpt>
      <trkpt lat="29.7648" lon="99.007858"><time>2026-05-01T08:12:14.169Z</time></trkpt>
      <trkpt lat="29.7648" lon="99.007858"><time>2026-05-01T08:12:14.185Z</time></trkpt>
      <trkpt lat="29.7648" lon="99.007858"><time>2026-05-01T08:12:14.202Z</time></trkpt>
      <trkpt lat="29.7648" lon="99.007858"><time>2026-05-01T08:12:14.219Z</time></trkpt>
      <trkpt lat="29.7648" lon="99.007858"><time>2026-05-01T08:12:14.236Z</time></trkpt>
      <trkpt lat="29.764799" lon="99.007865"><time>2026-05-01T08:12:14.252Z</time></trkpt>
      <trkpt lat="29.764799" lon="99.007865"><time>2026-05-01T08:12:14.269Z</time></trkpt>
      <trkpt lat="29.764799" lon="99.007865"><time>2026-05-01T08:12:14.286Z</time></trkpt>
      <trkpt lat="29.764799" lon="99.007865"><time>2026-05-01T08:12:14.302Z</time></trkpt>
      <trkpt lat="29.764799" lon="99.007865"><time>2026-05-01T08:12:14.319Z</time></trkpt>
      <trkpt lat="29.764799" lon="99.007865"><time>2026-05-01T08:12:14.336Z</time></trkpt>
      <trkpt lat="29.764798" lon="99.007871"><time>2026-05-01T08:12:14.352Z</time></trkpt>
      <trkpt lat="29.764798" lon="99.007871"><time>2026-05-01T08:12:14.369Z</time></trkpt>
      <trkpt lat="29.764798" lon="99.007871"><time>2026-05-01T08:12:14.386Z</time></trkpt>
      <trkpt lat="29.764798" lon="99.007871"><time>2026-05-01T08:12:14.402Z</time></trkpt>
      <trkpt lat="29.764798" lon="99.007871"><time>2026-05-01T08:12:14.419Z</time></trkpt>
      <trkpt lat="29.764798" lon="99.007871"><time>2026-05-01T08:12:14.436Z</time></trkpt>
      <trkpt lat="29.764797" lon="99.007878"><time>2026-05-01T08:12:14.452Z</time></trkpt>
      <trkpt lat="29.764797" lon="99.007878"><time>2026-05-01T08:12:14.469Z</time></trkpt>
      <trkpt lat="29.764797" lon="99.007878"><time>2026-05-01T08:12:14.486Z</time></trkpt>
      <trkpt lat="29.764797" lon="99.007878"><time>2026-05-01T08:12:14.502Z</time></trkpt>
      <trkpt lat="29.764797" lon="99.007878"><time>2026-05-01T08:12:14.519Z</time></trkpt>
      <trkpt lat="29.764797" lon="99.007878"><time>2026-05-01T08:12:14.536Z</time></trkpt>
      <trkpt lat="29.764796" lon="99.007885"><time>2026-05-01T08:12:14.553Z</time></trkpt>
      <trkpt lat="29.764796" lon="99.007885"><time>2026-05-01T08:12:14.569Z</time></trkpt>
      <trkpt lat="29.764796" lon="99.007885"><time>2026-05-01T08:12:14.586Z</time></trkpt>
      <trkpt lat="29.764796" lon="99.007885"><time>2026-05-01T08:12:14.603Z</time></trkpt>
      <trkpt lat="29.764796" lon="99.007885"><time>2026-05-01T08:12:14.619Z</time></trkpt>
      <trkpt lat="29.764796" lon="99.007885"><time>2026-05-01T08:12:14.636Z</time></trkpt>
      <trkpt lat="29.764795" lon="99.007892"><time>2026-05-01T08:12:14.653Z</time></trkpt>
      <trkpt lat="29.764795" lon="99.007892"><time>2026-05-01T08:12:14.669Z</time></trkpt>
      <trkpt lat="29.764795" lon="99.007892"><time>2026-05-01T08:12:14.686Z</time></trkpt>
      <trkpt lat="29.764795" lon="99.007892"><time>2026-05-01T08:12:14.703Z</time></trkpt>
      <trkpt lat="29.764795" lon="99.007892"><time>2026-05-01T08:12:14.719Z</time></trkpt>
      <trkpt lat="29.764795" lon="99.007892"><time>2026-05-01T08:12:14.736Z</time></trkpt>
      <trkpt lat="29.764793" lon="99.007898"><time>2026-05-01T08:12:14.753Z</time></trkpt>
      <trkpt lat="29.764793" lon="99.007898"><time>2026-05-01T08:12:14.769Z</time></trkpt>
      <trkpt lat="29.764793" lon="99.007898"><time>2026-05-01T08:12:14.786Z</time></trkpt>
      <trkpt lat="29.764793" lon="99.007898"><time>2026-05-01T08:12:14.803Z</time></trkpt>
      <trkpt lat="29.764793" lon="99.007898"><time>2026-05-01T08:12:14.819Z</time></trkpt>
      <trkpt lat="29.764793" lon="99.007898"><time>2026-05-01T08:12:14.836Z</time></trkpt>
      <trkpt lat="29.764792" lon="99.007906"><time>2026-05-01T08:12:14.853Z</time></trkpt>
      <trkpt lat="29.764792" lon="99.007906"><time>2026-05-01T08:12:14.870Z</time></trkpt>
      <trkpt lat="29.764792" lon="99.007906"><time>2026-05-01T08:12:14.886Z</time></trkpt>
      <trkpt lat="29.764792" lon="99.007906"><time>2026-05-01T08:12:14.903Z</time></trkpt>
      <trkpt lat="29.764792" lon="99.007906"><time>2026-05-01T08:12:14.920Z</time></trkpt>
      <trkpt lat="29.764791" lon="99.007913"><time>2026-05-01T08:12:14.936Z</time></trkpt>
      <trkpt lat="29.764791" lon="99.007913"><time>2026-05-01T08:12:14.953Z</time></trkpt>
      <trkpt lat="29.764791" lon="99.007913"><time>2026-05-01T08:12:14.970Z</time></trkpt>
      <trkpt lat="29.764791" lon="99.007913"><time>2026-05-01T08:12:14.986Z</time></trkpt>
      <trkpt lat="29.764791" lon="99.007913"><time>2026-05-01T08:12:15.003Z</time></trkpt>
      <trkpt lat="29.764791" lon="99.007913"><time>2026-05-01T08:12:15.020Z</time></trkpt>
      <trkpt lat="29.764791" lon="99.007913"><time>2026-05-01T08:12:15.036Z</time></trkpt>
      <trkpt lat="29.76479" lon="99.007921"><time>2026-05-01T08:12:15.053Z</time></trkpt>
      <trkpt lat="29.76479" lon="99.007921"><time>2026-05-01T08:12:15.070Z</time></trkpt>
      <trkpt lat="29.76479" lon="99.007921"><time>2026-05-01T08:12:15.086Z</time></trkpt>
      <trkpt lat="29.76479" lon="99.007921"><time>2026-05-01T08:12:15.103Z</time></trkpt>
      <trkpt lat="29.76479" lon="99.007921"><time>2026-05-01T08:12:15.120Z</time></trkpt>
      <trkpt lat="29.764789" lon="99.007928"><time>2026-05-01T08:12:15.136Z</time></trkpt>
      <trkpt lat="29.764789" lon="99.007928"><time>2026-05-01T08:12:15.153Z</time></trkpt>
      <trkpt lat="29.764789" lon="99.007928"><time>2026-05-01T08:12:15.170Z</time></trkpt>
      <trkpt lat="29.764789" lon="99.007928"><time>2026-05-01T08:12:15.187Z</time></trkpt>
      <trkpt lat="29.764789" lon="99.007928"><time>2026-05-01T08:12:15.203Z</time></trkpt>
      <trkpt lat="29.764789" lon="99.007928"><time>2026-05-01T08:12:15.220Z</time></trkpt>
      <trkpt lat="29.764789" lon="99.007928"><time>2026-05-01T08:12:15.237Z</time></trkpt>
      <trkpt lat="29.764788" lon="99.007936"><time>2026-05-01T08:12:15.253Z</time></trkpt>
      <trkpt lat="29.764788" lon="99.007936"><time>2026-05-01T08:12:15.270Z</time></trkpt>
      <trkpt lat="29.764788" lon="99.007936"><time>2026-05-01T08:12:15.287Z</time></trkpt>
      <trkpt lat="29.764788" lon="99.007936"><time>2026-05-01T08:12:15.303Z</time></trkpt>
      <trkpt lat="29.764788" lon="99.007936"><time>2026-05-01T08:12:15.320Z</time></trkpt>
      <trkpt lat="29.764787" lon="99.007943"><time>2026-05-01T08:12:15.337Z</time></trkpt>
      <trkpt lat="29.764787" lon="99.007943"><time>2026-05-01T08:12:15.353Z</time></trkpt>
      <trkpt lat="29.764787" lon="99.007943"><time>2026-05-01T08:12:15.370Z</time></trkpt>
      <trkpt lat="29.764787" lon="99.007943"><time>2026-05-01T08:12:15.387Z</time></trkpt>
      <trkpt lat="29.764787" lon="99.007943"><time>2026-05-01T08:12:15.403Z</time></trkpt>
      <trkpt lat="29.764787" lon="99.007943"><time>2026-05-01T08:12:15.420Z</time></trkpt>
      <trkpt lat="29.764787" lon="99.007943"><time>2026-05-01T08:12:15.437Z</time></trkpt>
      <trkpt lat="29.764786" lon="99.007951"><time>2026-05-01T08:12:15.453Z</time></trkpt>
      <trkpt lat="29.764786" lon="99.007951"><time>2026-05-01T08:12:15.470Z</time></trkpt>
      <trkpt lat="29.764786" lon="99.007951"><time>2026-05-01T08:12:15.487Z</time></trkpt>
      <trkpt lat="29.764786" lon="99.007951"><time>2026-05-01T08:12:15.504Z</time></trkpt>
      <trkpt lat="29.764786" lon="99.007951"><time>2026-05-01T08:12:15.520Z</time></trkpt>
      <trkpt lat="29.764785" lon="99.007959"><time>2026-05-01T08:12:15.537Z</time></trkpt>
      <trkpt lat="29.764785" lon="99.007959"><time>2026-05-01T08:12:15.554Z</time></trkpt>
      <trkpt lat="29.764785" lon="99.007959"><time>2026-05-01T08:12:15.570Z</time></trkpt>
      <trkpt lat="29.764785" lon="99.007959"><time>2026-05-01T08:12:15.587Z</time></trkpt>
      <trkpt lat="29.764785" lon="99.007959"><time>2026-05-01T08:12:15.604Z</time></trkpt>
      <trkpt lat="29.764785" lon="99.007959"><time>2026-05-01T08:12:15.620Z</time></trkpt>
      <trkpt lat="29.764785" lon="99.007959"><time>2026-05-01T08:12:15.637Z</time></trkpt>
      <trkpt lat="29.764783" lon="99.007967"><time>2026-05-01T08:12:15.654Z</time></trkpt>
      <trkpt lat="29.764783" lon="99.007967"><time>2026-05-01T08:12:15.670Z</time></trkpt>
      <trkpt lat="29.764783" lon="99.007967"><time>2026-05-01T08:12:15.687Z</time></trkpt>
      <trkpt lat="29.764783" lon="99.007967"><time>2026-05-01T08:12:15.704Z</time></trkpt>
      <trkpt lat="29.764783" lon="99.007967"><time>2026-05-01T08:12:15.720Z</time></trkpt>
      <trkpt lat="29.764782" lon="99.007975"><time>2026-05-01T08:12:15.737Z</time></trkpt>
      <trkpt lat="29.764782" lon="99.007975"><time>2026-05-01T08:12:15.754Z</time></trkpt>
      <trkpt lat="29.764782" lon="99.007975"><time>2026-05-01T08:12:15.770Z</time></trkpt>
      <trkpt lat="29.764782" lon="99.007975"><time>2026-05-01T08:12:15.787Z</time></trkpt>
      <trkpt lat="29.764782" lon="99.007975"><time>2026-05-01T08:12:15.804Z</time></trkpt>
      <trkpt lat="29.764782" lon="99.007975"><time>2026-05-01T08:12:15.821Z</time></trkpt>
      <trkpt lat="29.764782" lon="99.007975"><time>2026-05-01T08:12:15.837Z</time></trkpt>
      <trkpt lat="29.764781" lon="99.007983"><time>2026-05-01T08:12:15.854Z</time></trkpt>
      <trkpt lat="29.764781" lon="99.007983"><time>2026-05-01T08:12:15.871Z</time></trkpt>
      <trkpt lat="29.764781" lon="99.007983"><time>2026-05-01T08:12:15.887Z</time></trkpt>
      <trkpt lat="29.764781" lon="99.007983"><time>2026-05-01T08:12:15.904Z</time></trkpt>
      <trkpt lat="29.764781" lon="99.007983"><time>2026-05-01T08:12:15.921Z</time></trkpt>
      <trkpt lat="29.764781" lon="99.007983"><time>2026-05-01T08:12:15.937Z</time></trkpt>
      <trkpt lat="29.76478" lon="99.007992"><time>2026-05-01T08:12:15.954Z</time></trkpt>
      <trkpt lat="29.76478" lon="99.007992"><time>2026-05-01T08:12:15.971Z</time></trkpt>
      <trkpt lat="29.76478" lon="99.007992"><time>2026-05-01T08:12:15.987Z</time></trkpt>
      <trkpt lat="29.76478" lon="99.007992"><time>2026-05-01T08:12:16.004Z</time></trkpt>
      <trkpt lat="29.76478" lon="99.007992"><time>2026-05-01T08:12:16.021Z</time></trkpt>
      <trkpt lat="29.76478" lon="99.007992"><time>2026-05-01T08:12:16.037Z</time></trkpt>
      <trkpt lat="29.764779" lon="99.008"><time>2026-05-01T08:12:16.054Z</time></trkpt>
      <trkpt lat="29.764779" lon="99.008"><time>2026-05-01T08:12:16.071Z</time></trkpt>
      <trkpt lat="29.764779" lon="99.008"><time>2026-05-01T08:12:16.087Z</time></trkpt>
      <trkpt lat="29.764779" lon="99.008"><time>2026-05-01T08:12:16.104Z</time></trkpt>
      <trkpt lat="29.764779" lon="99.008"><time>2026-05-01T08:12:16.121Z</time></trkpt>
      <trkpt lat="29.764777" lon="99.008008"><time>2026-05-01T08:12:16.138Z</time></trkpt>
      <trkpt lat="29.764777" lon="99.008008"><time>2026-05-01T08:12:16.154Z</time></trkpt>
      <trkpt lat="29.764777" lon="99.008008"><time>2026-05-01T08:12:16.171Z</time></trkpt>
      <trkpt lat="29.764777" lon="99.008008"><time>2026-05-01T08:12:16.188Z</time></trkpt>
      <trkpt lat="29.764777" lon="99.008008"><time>2026-05-01T08:12:16.204Z</time></trkpt>
      <trkpt lat="29.764777" lon="99.008008"><time>2026-05-01T08:12:16.221Z</time></trkpt>
      <trkpt lat="29.764776" lon="99.008016"><time>2026-05-01T08:12:16.238Z</time></trkpt>
      <trkpt lat="29.764776" lon="99.008016"><time>2026-05-01T08:12:16.254Z</time></trkpt>
      <trkpt lat="29.764776" lon="99.008016"><time>2026-05-01T08:12:16.271Z</time></trkpt>
      <trkpt lat="29.764776" lon="99.008016"><time>2026-05-01T08:12:16.288Z</time></trkpt>
      <trkpt lat="29.764776" lon="99.008016"><time>2026-05-01T08:12:16.304Z</time></trkpt>
      <trkpt lat="29.764776" lon="99.008016"><time>2026-05-01T08:12:16.321Z</time></trkpt>
      <trkpt lat="29.764775" lon="99.008025"><time>2026-05-01T08:12:16.338Z</time></trkpt>
      <trkpt lat="29.764775" lon="99.008025"><time>2026-05-01T08:12:16.354Z</time></trkpt>
      <trkpt lat="29.764775" lon="99.008025"><time>2026-05-01T08:12:16.371Z</time></trkpt>
      <trkpt lat="29.764775" lon="99.008025"><time>2026-05-01T08:12:16.388Z</time></trkpt>
      <trkpt lat="29.764775" lon="99.008025"><time>2026-05-01T08:12:16.404Z</time></trkpt>
      <trkpt lat="29.764775" lon="99.008025"><time>2026-05-01T08:12:16.421Z</time></trkpt>
      <trkpt lat="29.764774" lon="99.008034"><time>2026-05-01T08:12:16.438Z</time></trkpt>
      <trkpt lat="29.764774" lon="99.008034"><time>2026-05-01T08:12:16.455Z</time></trkpt>
      <trkpt lat="29.764774" lon="99.008034"><time>2026-05-01T08:12:16.471Z</time></trkpt>
      <trkpt lat="29.764774" lon="99.008034"><time>2026-05-01T08:12:16.488Z</time></trkpt>
      <trkpt lat="29.764774" lon="99.008034"><time>2026-05-01T08:12:16.505Z</time></trkpt>
      <trkpt lat="29.764774" lon="99.008034"><time>2026-05-01T08:12:16.521Z</time></trkpt>
      <trkpt lat="29.764772" lon="99.008042"><time>2026-05-01T08:12:16.538Z</time></trkpt>
      <trkpt lat="29.764772" lon="99.008042"><time>2026-05-01T08:12:16.555Z</time></trkpt>
      <trkpt lat="29.764772" lon="99.008042"><time>2026-05-01T08:12:16.571Z</time></trkpt>
      <trkpt lat="29.764772" lon="99.008042"><time>2026-05-01T08:12:16.588Z</time></trkpt>
      <trkpt lat="29.764772" lon="99.008042"><time>2026-05-01T08:12:16.605Z</time></trkpt>
      <trkpt lat="29.764772" lon="99.008042"><time>2026-05-01T08:12:16.621Z</time></trkpt>
      <trkpt lat="29.764772" lon="99.008042"><time>2026-05-01T08:12:16.638Z</time></trkpt>
      <trkpt lat="29.764771" lon="99.008051"><time>2026-05-01T08:12:16.655Z</time></trkpt>
      <trkpt lat="29.764771" lon="99.008051"><time>2026-05-01T08:12:16.671Z</time></trkpt>
      <trkpt lat="29.764771" lon="99.008051"><time>2026-05-01T08:12:16.688Z</time></trkpt>
      <trkpt lat="29.764771" lon="99.008051"><time>2026-05-01T08:12:16.705Z</time></trkpt>
      <trkpt lat="29.764771" lon="99.008051"><time>2026-05-01T08:12:16.721Z</time></trkpt>
      <trkpt lat="29.764769" lon="99.008059"><time>2026-05-01T08:12:16.738Z</time></trkpt>
      <trkpt lat="29.764769" lon="99.008059"><time>2026-05-01T08:12:16.755Z</time></trkpt>
      <trkpt lat="29.764769" lon="99.008059"><time>2026-05-01T08:12:16.772Z</time></trkpt>
      <trkpt lat="29.764769" lon="99.008059"><time>2026-05-01T08:12:16.788Z</time></trkpt>
      <trkpt lat="29.764769" lon="99.008059"><time>2026-05-01T08:12:16.805Z</time></trkpt>
      <trkpt lat="29.764769" lon="99.008059"><time>2026-05-01T08:12:16.822Z</time></trkpt>
      <trkpt lat="29.764768" lon="99.008068"><time>2026-05-01T08:12:16.838Z</time></trkpt>
      <trkpt lat="29.764768" lon="99.008068"><time>2026-05-01T08:12:16.855Z</time></trkpt>
      <trkpt lat="29.764768" lon="99.008068"><time>2026-05-01T08:12:16.872Z</time></trkpt>
      <trkpt lat="29.764768" lon="99.008068"><time>2026-05-01T08:12:16.888Z</time></trkpt>
      <trkpt lat="29.764768" lon="99.008068"><time>2026-05-01T08:12:16.905Z</time></trkpt>
      <trkpt lat="29.764768" lon="99.008068"><time>2026-05-01T08:12:16.922Z</time></trkpt>
      <trkpt lat="29.764766" lon="99.008077"><time>2026-05-01T08:12:16.938Z</time></trkpt>
      <trkpt lat="29.764766" lon="99.008077"><time>2026-05-01T08:12:16.955Z</time></trkpt>
      <trkpt lat="29.764766" lon="99.008077"><time>2026-05-01T08:12:16.972Z</time></trkpt>
      <trkpt lat="29.764766" lon="99.008077"><time>2026-05-01T08:12:16.988Z</time></trkpt>
      <trkpt lat="29.764766" lon="99.008077"><time>2026-05-01T08:12:17.005Z</time></trkpt>
      <trkpt lat="29.764766" lon="99.008077"><time>2026-05-01T08:12:17.022Z</time></trkpt>
      <trkpt lat="29.764765" lon="99.008085"><time>2026-05-01T08:12:17.038Z</time></trkpt>
      <trkpt lat="29.764765" lon="99.008085"><time>2026-05-01T08:12:17.055Z</time></trkpt>
      <trkpt lat="29.764765" lon="99.008085"><time>2026-05-01T08:12:17.072Z</time></trkpt>
      <trkpt lat="29.764765" lon="99.008085"><time>2026-05-01T08:12:17.089Z</time></trkpt>
      <trkpt lat="29.764765" lon="99.008085"><time>2026-05-01T08:12:17.105Z</time></trkpt>
      <trkpt lat="29.764765" lon="99.008085"><time>2026-05-01T08:12:17.122Z</time></trkpt>
      <trkpt lat="29.764763" lon="99.008094"><time>2026-05-01T08:12:17.139Z</time></trkpt>
      <trkpt lat="29.764763" lon="99.008094"><time>2026-05-01T08:12:17.155Z</time></trkpt>
      <trkpt lat="29.764763" lon="99.008094"><time>2026-05-01T08:12:17.172Z</time></trkpt>
      <trkpt lat="29.764763" lon="99.008094"><time>2026-05-01T08:12:17.189Z</time></trkpt>
      <trkpt lat="29.764763" lon="99.008094"><time>2026-05-01T08:12:17.205Z</time></trkpt>
      <trkpt lat="29.764763" lon="99.008094"><time>2026-05-01T08:12:17.222Z</time></trkpt>
      <trkpt lat="29.764762" lon="99.008103"><time>2026-05-01T08:12:17.239Z</time></trkpt>
      <trkpt lat="29.764762" lon="99.008103"><time>2026-05-01T08:12:17.255Z</time></trkpt>
      <trkpt lat="29.764762" lon="99.008103"><time>2026-05-01T08:12:17.272Z</time></trkpt>
      <trkpt lat="29.764762" lon="99.008103"><time>2026-05-01T08:12:17.289Z</time></trkpt>
      <trkpt lat="29.764762" lon="99.008103"><time>2026-05-01T08:12:17.305Z</time></trkpt>
      <trkpt lat="29.764762" lon="99.008103"><time>2026-05-01T08:12:17.322Z</time></trkpt>
      <trkpt lat="29.76476" lon="99.008112"><time>2026-05-01T08:12:17.339Z</time></trkpt>
      <trkpt lat="29.76476" lon="99.008112"><time>2026-05-01T08:12:17.355Z</time></trkpt>
      <trkpt lat="29.76476" lon="99.008112"><time>2026-05-01T08:12:17.372Z</time></trkpt>
      <trkpt lat="29.76476" lon="99.008112"><time>2026-05-01T08:12:17.389Z</time></trkpt>
      <trkpt lat="29.76476" lon="99.008112"><time>2026-05-01T08:12:17.406Z</time></trkpt>
      <trkpt lat="29.76476" lon="99.008112"><time>2026-05-01T08:12:17.422Z</time></trkpt>
      <trkpt lat="29.764759" lon="99.008121"><time>2026-05-01T08:12:17.439Z</time></trkpt>
      <trkpt lat="29.764759" lon="99.008121"><time>2026-05-01T08:12:17.456Z</time></trkpt>
      <trkpt lat="29.764759" lon="99.008121"><time>2026-05-01T08:12:17.472Z</time></trkpt>
      <trkpt lat="29.764759" lon="99.008121"><time>2026-05-01T08:12:17.489Z</time></trkpt>
      <trkpt lat="29.764759" lon="99.008121"><time>2026-05-01T08:12:17.506Z</time></trkpt>
      <trkpt lat="29.764759" lon="99.008121"><time>2026-05-01T08:12:17.522Z</time></trkpt>
      <trkpt lat="29.764757" lon="99.008129"><time>2026-05-01T08:12:17.539Z</time></trkpt>
      <trkpt lat="29.764757" lon="99.008129"><time>2026-05-01T08:12:17.556Z</time></trkpt>
      <trkpt lat="29.764757" lon="99.008129"><time>2026-05-01T08:12:17.572Z</time></trkpt>
      <trkpt lat="29.764757" lon="99.008129"><time>2026-05-01T08:12:17.589Z</time></trkpt>
      <trkpt lat="29.764757" lon="99.008129"><time>2026-05-01T08:12:17.606Z</time></trkpt>
      <trkpt lat="29.764757" lon="99.008129"><time>2026-05-01T08:12:17.622Z</time></trkpt>
      <trkpt lat="29.764756" lon="99.008139"><time>2026-05-01T08:12:17.639Z</time></trkpt>
      <trkpt lat="29.764756" lon="99.008139"><time>2026-05-01T08:12:17.656Z</time></trkpt>
      <trkpt lat="29.764756" lon="99.008139"><time>2026-05-01T08:12:17.672Z</time></trkpt>
      <trkpt lat="29.764756" lon="99.008139"><time>2026-05-01T08:12:17.689Z</time></trkpt>
      <trkpt lat="29.764756" lon="99.008139"><time>2026-05-01T08:12:17.706Z</time></trkpt>
      <trkpt lat="29.764756" lon="99.008139"><time>2026-05-01T08:12:17.723Z</time></trkpt>
      <trkpt lat="29.764754" lon="99.008147"><time>2026-05-01T08:12:17.739Z</time></trkpt>
      <trkpt lat="29.764754" lon="99.008147"><time>2026-05-01T08:12:17.756Z</time></trkpt>
      <trkpt lat="29.764754" lon="99.008147"><time>2026-05-01T08:12:17.773Z</time></trkpt>
      <trkpt lat="29.764754" lon="99.008147"><time>2026-05-01T08:12:17.789Z</time></trkpt>
      <trkpt lat="29.764754" lon="99.008147"><time>2026-05-01T08:12:17.806Z</time></trkpt>
      <trkpt lat="29.764754" lon="99.008147"><time>2026-05-01T08:12:17.823Z</time></trkpt>
      <trkpt lat="29.764753" lon="99.008157"><time>2026-05-01T08:12:17.839Z</time></trkpt>
      <trkpt lat="29.764753" lon="99.008157"><time>2026-05-01T08:12:17.856Z</time></trkpt>
      <trkpt lat="29.764753" lon="99.008157"><time>2026-05-01T08:12:17.873Z</time></trkpt>
      <trkpt lat="29.764753" lon="99.008157"><time>2026-05-01T08:12:17.889Z</time></trkpt>
      <trkpt lat="29.764753" lon="99.008157"><time>2026-05-01T08:12:17.906Z</time></trkpt>
      <trkpt lat="29.764753" lon="99.008157"><time>2026-05-01T08:12:17.923Z</time></trkpt>
      <trkpt lat="29.764752" lon="99.008166"><time>2026-05-01T08:12:17.939Z</time></trkpt>
      <trkpt lat="29.764752" lon="99.008166"><time>2026-05-01T08:12:17.956Z</time></trkpt>
      <trkpt lat="29.764752" lon="99.008166"><time>2026-05-01T08:12:17.973Z</time></trkpt>
      <trkpt lat="29.764752" lon="99.008166"><time>2026-05-01T08:12:17.989Z</time></trkpt>
      <trkpt lat="29.764752" lon="99.008166"><time>2026-05-01T08:12:18.006Z</time></trkpt>
      <trkpt lat="29.764752" lon="99.008166"><time>2026-05-01T08:12:18.023Z</time></trkpt>
      <trkpt lat="29.76475" lon="99.008176"><time>2026-05-01T08:12:18.040Z</time></trkpt>
      <trkpt lat="29.76475" lon="99.008176"><time>2026-05-01T08:12:18.056Z</time></trkpt>
      <trkpt lat="29.76475" lon="99.008176"><time>2026-05-01T08:12:18.073Z</time></trkpt>
      <trkpt lat="29.76475" lon="99.008176"><time>2026-05-01T08:12:18.090Z</time></trkpt>
      <trkpt lat="29.76475" lon="99.008176"><time>2026-05-01T08:12:18.106Z</time></trkpt>
      <trkpt lat="29.76475" lon="99.008176"><time>2026-05-01T08:12:18.123Z</time></trkpt>
      <trkpt lat="29.764748" lon="99.008184"><time>2026-05-01T08:12:18.140Z</time></trkpt>
      <trkpt lat="29.764748" lon="99.008184"><time>2026-05-01T08:12:18.156Z</time></trkpt>
      <trkpt lat="29.764748" lon="99.008184"><time>2026-05-01T08:12:18.173Z</time></trkpt>
      <trkpt lat="29.764748" lon="99.008184"><time>2026-05-01T08:12:18.190Z</time></trkpt>
      <trkpt lat="29.764748" lon="99.008184"><time>2026-05-01T08:12:18.206Z</time></trkpt>
      <trkpt lat="29.764748" lon="99.008184"><time>2026-05-01T08:12:18.223Z</time></trkpt>
      <trkpt lat="29.764747" lon="99.008194"><time>2026-05-01T08:12:18.240Z</time></trkpt>
      <trkpt lat="29.764747" lon="99.008194"><time>2026-05-01T08:12:18.256Z</time></trkpt>
      <trkpt lat="29.764747" lon="99.008194"><time>2026-05-01T08:12:18.273Z</time></trkpt>
      <trkpt lat="29.764747" lon="99.008194"><time>2026-05-01T08:12:18.290Z</time></trkpt>
      <trkpt lat="29.764747" lon="99.008194"><time>2026-05-01T08:12:18.306Z</time></trkpt>
      <trkpt lat="29.764747" lon="99.008194"><time>2026-05-01T08:12:18.323Z</time></trkpt>
      <trkpt lat="29.764745" lon="99.008203"><time>2026-05-01T08:12:18.340Z</time></trkpt>
      <trkpt lat="29.764745" lon="99.008203"><time>2026-05-01T08:12:18.357Z</time></trkpt>
      <trkpt lat="29.764745" lon="99.008203"><time>2026-05-01T08:12:18.373Z</time></trkpt>
      <trkpt lat="29.764745" lon="99.008203"><time>2026-05-01T08:12:18.390Z</time></trkpt>
      <trkpt lat="29.764745" lon="99.008203"><time>2026-05-01T08:12:18.407Z</time></trkpt>
      <trkpt lat="29.764745" lon="99.008203"><time>2026-05-01T08:12:18.423Z</time></trkpt>
      <trkpt lat="29.764744" lon="99.008213"><time>2026-05-01T08:12:18.440Z</time></trkpt>
      <trkpt lat="29.764744" lon="99.008213"><time>2026-05-01T08:12:18.457Z</time></trkpt>
      <trkpt lat="29.764744" lon="99.008213"><time>2026-05-01T08:12:18.473Z</time></trkpt>
      <trkpt lat="29.764744" lon="99.008213"><time>2026-05-01T08:12:18.490Z</time></trkpt>
      <trkpt lat="29.764744" lon="99.008213"><time>2026-05-01T08:12:18.507Z</time></trkpt>
      <trkpt lat="29.764744" lon="99.008213"><time>2026-05-01T08:12:18.523Z</time></trkpt>
      <trkpt lat="29.764742" lon="99.008222"><time>2026-05-01T08:12:18.540Z</time></trkpt>
      <trkpt lat="29.764742" lon="99.008222"><time>2026-05-01T08:12:18.557Z</time></trkpt>
      <trkpt lat="29.764742" lon="99.008222"><time>2026-05-01T08:12:18.573Z</time></trkpt>
      <trkpt lat="29.764742" lon="99.008222"><time>2026-05-01T08:12:18.590Z</time></trkpt>
      <trkpt lat="29.764742" lon="99.008222"><time>2026-05-01T08:12:18.607Z</time></trkpt>
      <trkpt lat="29.764742" lon="99.008222"><time>2026-05-01T08:12:18.623Z</time></trkpt>
      <trkpt lat="29.76474" lon="99.008232"><time>2026-05-01T08:12:18.640Z</time></trkpt>
      <trkpt lat="29.76474" lon="99.008232"><time>2026-05-01T08:12:18.657Z</time></trkpt>
      <trkpt lat="29.76474" lon="99.008232"><time>2026-05-01T08:12:18.674Z</time></trkpt>
      <trkpt lat="29.76474" lon="99.008232"><time>2026-05-01T08:12:18.690Z</time></trkpt>
      <trkpt lat="29.76474" lon="99.008232"><time>2026-05-01T08:12:18.707Z</time></trkpt>
      <trkpt lat="29.76474" lon="99.008232"><time>2026-05-01T08:12:18.724Z</time></trkpt>
      <trkpt lat="29.764739" lon="99.008241"><time>2026-05-01T08:12:18.740Z</time></trkpt>
      <trkpt lat="29.764739" lon="99.008241"><time>2026-05-01T08:12:18.757Z</time></trkpt>
      <trkpt lat="29.764739" lon="99.008241"><time>2026-05-01T08:12:18.774Z</time></trkpt>
      <trkpt lat="29.764739" lon="99.008241"><time>2026-05-01T08:12:18.790Z</time></trkpt>
      <trkpt lat="29.764739" lon="99.008241"><time>2026-05-01T08:12:18.807Z</time></trkpt>
      <trkpt lat="29.764739" lon="99.008241"><time>2026-05-01T08:12:18.824Z</time></trkpt>
      <trkpt lat="29.764737" lon="99.00825"><time>2026-05-01T08:12:18.840Z</time></trkpt>
      <trkpt lat="29.764737" lon="99.00825"><time>2026-05-01T08:12:18.857Z</time></trkpt>
      <trkpt lat="29.764737" lon="99.00825"><time>2026-05-01T08:12:18.874Z</time></trkpt>
      <trkpt lat="29.764737" lon="99.00825"><time>2026-05-01T08:12:18.890Z</time></trkpt>
      <trkpt lat="29.764737" lon="99.00825"><time>2026-05-01T08:12:18.907Z</time></trkpt>
      <trkpt lat="29.764737" lon="99.00825"><time>2026-05-01T08:12:18.924Z</time></trkpt>
      <trkpt lat="29.764736" lon="99.008259"><time>2026-05-01T08:12:18.940Z</time></trkpt>
      <trkpt lat="29.764736" lon="99.008259"><time>2026-05-01T08:12:18.957Z</time></trkpt>
      <trkpt lat="29.764736" lon="99.008259"><time>2026-05-01T08:12:18.974Z</time></trkpt>
      <trkpt lat="29.764736" lon="99.008259"><time>2026-05-01T08:12:18.991Z</time></trkpt>
      <trkpt lat="29.764736" lon="99.008259"><time>2026-05-01T08:12:19.007Z</time></trkpt>
      <trkpt lat="29.764736" lon="99.008259"><time>2026-05-01T08:12:19.024Z</time></trkpt>
      <trkpt lat="29.764734" lon="99.008269"><time>2026-05-01T08:12:19.041Z</time></trkpt>
      <trkpt lat="29.764734" lon="99.008269"><time>2026-05-01T08:12:19.057Z</time></trkpt>
      <trkpt lat="29.764734" lon="99.008269"><time>2026-05-01T08:12:19.074Z</time></trkpt>
      <trkpt lat="29.764734" lon="99.008269"><time>2026-05-01T08:12:19.091Z</time></trkpt>
      <trkpt lat="29.764734" lon="99.008269"><time>2026-05-01T08:12:19.107Z</time></trkpt>
      <trkpt lat="29.764734" lon="99.008269"><time>2026-05-01T08:12:19.124Z</time></trkpt>
      <trkpt lat="29.764732" lon="99.008279"><time>2026-05-01T08:12:19.141Z</time></trkpt>
      <trkpt lat="29.764732" lon="99.008279"><time>2026-05-01T08:12:19.157Z</time></trkpt>
      <trkpt lat="29.764732" lon="99.008279"><time>2026-05-01T08:12:19.174Z</time></trkpt>
      <trkpt lat="29.764732" lon="99.008279"><time>2026-05-01T08:12:19.191Z</time></trkpt>
      <trkpt lat="29.764732" lon="99.008279"><time>2026-05-01T08:12:19.207Z</time></trkpt>
      <trkpt lat="29.764732" lon="99.008279"><time>2026-05-01T08:12:19.224Z</time></trkpt>
      <trkpt lat="29.764731" lon="99.008288"><time>2026-05-01T08:12:19.241Z</time></trkpt>
      <trkpt lat="29.764731" lon="99.008288"><time>2026-05-01T08:12:19.257Z</time></trkpt>
      <trkpt lat="29.764731" lon="99.008288"><time>2026-05-01T08:12:19.274Z</time></trkpt>
      <trkpt lat="29.764731" lon="99.008288"><time>2026-05-01T08:12:19.291Z</time></trkpt>
      <trkpt lat="29.764731" lon="99.008288"><time>2026-05-01T08:12:19.307Z</time></trkpt>
      <trkpt lat="29.764731" lon="99.008288"><time>2026-05-01T08:12:19.324Z</time></trkpt>
      <trkpt lat="29.764729" lon="99.008298"><time>2026-05-01T08:12:19.341Z</time></trkpt>
      <trkpt lat="29.764729" lon="99.008298"><time>2026-05-01T08:12:19.358Z</time></trkpt>
      <trkpt lat="29.764729" lon="99.008298"><time>2026-05-01T08:12:19.374Z</time></trkpt>
      <trkpt lat="29.764729" lon="99.008298"><time>2026-05-01T08:12:19.391Z</time></trkpt>
      <trkpt lat="29.764729" lon="99.008298"><time>2026-05-01T08:12:19.408Z</time></trkpt>
      <trkpt lat="29.764729" lon="99.008298"><time>2026-05-01T08:12:19.424Z</time></trkpt>
      <trkpt lat="29.764728" lon="99.008308"><time>2026-05-01T08:12:19.441Z</time></trkpt>
      <trkpt lat="29.764728" lon="99.008308"><time>2026-05-01T08:12:19.458Z</time></trkpt>
      <trkpt lat="29.764728" lon="99.008308"><time>2026-05-01T08:12:19.474Z</time></trkpt>
      <trkpt lat="29.764728" lon="99.008308"><time>2026-05-01T08:12:19.491Z</time></trkpt>
      <trkpt lat="29.764728" lon="99.008308"><time>2026-05-01T08:12:19.508Z</time></trkpt>
      <trkpt lat="29.764728" lon="99.008308"><time>2026-05-01T08:12:19.524Z</time></trkpt>
      <trkpt lat="29.764726" lon="99.008317"><time>2026-05-01T08:12:19.541Z</time></trkpt>
      <trkpt lat="29.764726" lon="99.008317"><time>2026-05-01T08:12:19.558Z</time></trkpt>
      <trkpt lat="29.764726" lon="99.008317"><time>2026-05-01T08:12:19.574Z</time></trkpt>
      <trkpt lat="29.764726" lon="99.008317"><time>2026-05-01T08:12:19.591Z</time></trkpt>
      <trkpt lat="29.764726" lon="99.008317"><time>2026-05-01T08:12:19.608Z</time></trkpt>
      <trkpt lat="29.764726" lon="99.008317"><time>2026-05-01T08:12:19.624Z</time></trkpt>
      <trkpt lat="29.764724" lon="99.008327"><time>2026-05-01T08:12:19.641Z</time></trkpt>
      <trkpt lat="29.764724" lon="99.008327"><time>2026-05-01T08:12:19.658Z</time></trkpt>
      <trkpt lat="29.764724" lon="99.008327"><time>2026-05-01T08:12:19.675Z</time></trkpt>
      <trkpt lat="29.764724" lon="99.008327"><time>2026-05-01T08:12:19.691Z</time></trkpt>
      <trkpt lat="29.764724" lon="99.008327"><time>2026-05-01T08:12:19.708Z</time></trkpt>
      <trkpt lat="29.764724" lon="99.008327"><time>2026-05-01T08:12:19.725Z</time></trkpt>
      <trkpt lat="29.764723" lon="99.008337"><time>2026-05-01T08:12:19.741Z</time></trkpt>
      <trkpt lat="29.764723" lon="99.008337"><time>2026-05-01T08:12:19.758Z</time></trkpt>
      <trkpt lat="29.764723" lon="99.008337"><time>2026-05-01T08:12:19.775Z</time></trkpt>
      <trkpt lat="29.764723" lon="99.008337"><time>2026-05-01T08:12:19.791Z</time></trkpt>
      <trkpt lat="29.764723" lon="99.008337"><time>2026-05-01T08:12:19.808Z</time></trkpt>
      <trkpt lat="29.764723" lon="99.008337"><time>2026-05-01T08:12:19.825Z</time></trkpt>
      <trkpt lat="29.764721" lon="99.008346"><time>2026-05-01T08:12:19.841Z</time></trkpt>
      <trkpt lat="29.764721" lon="99.008346"><time>2026-05-01T08:12:19.858Z</time></trkpt>
      <trkpt lat="29.764721" lon="99.008346"><time>2026-05-01T08:12:19.875Z</time></trkpt>
      <trkpt lat="29.764721" lon="99.008346"><time>2026-05-01T08:12:19.891Z</time></trkpt>
      <trkpt lat="29.764721" lon="99.008346"><time>2026-05-01T08:12:19.908Z</time></trkpt>
      <trkpt lat="29.764721" lon="99.008346"><time>2026-05-01T08:12:19.925Z</time></trkpt>
      <trkpt lat="29.764719" lon="99.008356"><time>2026-05-01T08:12:19.941Z</time></trkpt>
      <trkpt lat="29.764719" lon="99.008356"><time>2026-05-01T08:12:19.958Z</time></trkpt>
      <trkpt lat="29.764719" lon="99.008356"><time>2026-05-01T08:12:19.975Z</time></trkpt>
      <trkpt lat="29.764719" lon="99.008356"><time>2026-05-01T08:12:19.992Z</time></trkpt>
      <trkpt lat="29.764719" lon="99.008356"><time>2026-05-01T08:12:20.008Z</time></trkpt>
      <trkpt lat="29.764719" lon="99.008356"><time>2026-05-01T08:12:20.025Z</time></trkpt>
      <trkpt lat="29.764718" lon="99.008366"><time>2026-05-01T08:12:20.042Z</time></trkpt>
      <trkpt lat="29.764718" lon="99.008366"><time>2026-05-01T08:12:20.058Z</time></trkpt>
      <trkpt lat="29.764718" lon="99.008366"><time>2026-05-01T08:12:20.075Z</time></trkpt>
      <trkpt lat="29.764718" lon="99.008366"><time>2026-05-01T08:12:20.092Z</time></trkpt>
      <trkpt lat="29.764718" lon="99.008366"><time>2026-05-01T08:12:20.108Z</time></trkpt>
      <trkpt lat="29.764718" lon="99.008366"><time>2026-05-01T08:12:20.125Z</time></trkpt>
      <trkpt lat="29.764716" lon="99.008375"><time>2026-05-01T08:12:20.142Z</time></trkpt>
      <trkpt lat="29.764716" lon="99.008375"><time>2026-05-01T08:12:20.158Z</time></trkpt>
      <trkpt lat="29.764716" lon="99.008375"><time>2026-05-01T08:12:20.175Z</time></trkpt>
      <trkpt lat="29.764716" lon="99.008375"><time>2026-05-01T08:12:20.192Z</time></trkpt>
      <trkpt lat="29.764716" lon="99.008375"><time>2026-05-01T08:12:20.208Z</time></trkpt>
      <trkpt lat="29.764716" lon="99.008375"><time>2026-05-01T08:12:20.225Z</time></trkpt>
      <trkpt lat="29.764714" lon="99.008385"><time>2026-05-01T08:12:20.242Z</time></trkpt>
      <trkpt lat="29.764714" lon="99.008385"><time>2026-05-01T08:12:20.258Z</time></trkpt>
      <trkpt lat="29.764714" lon="99.008385"><time>2026-05-01T08:12:20.275Z</time></trkpt>
      <trkpt lat="29.764714" lon="99.008385"><time>2026-05-01T08:12:20.292Z</time></trkpt>
      <trkpt lat="29.764714" lon="99.008385"><time>2026-05-01T08:12:20.309Z</time></trkpt>
      <trkpt lat="29.764714" lon="99.008385"><time>2026-05-01T08:12:20.325Z</time></trkpt>
      <trkpt lat="29.764713" lon="99.008394"><time>2026-05-01T08:12:20.342Z</time></trkpt>
      <trkpt lat="29.764713" lon="99.008394"><time>2026-05-01T08:12:20.359Z</time></trkpt>
      <trkpt lat="29.764713" lon="99.008394"><time>2026-05-01T08:12:20.375Z</time></trkpt>
      <trkpt lat="29.764713" lon="99.008394"><time>2026-05-01T08:12:20.392Z</time></trkpt>
      <trkpt lat="29.764713" lon="99.008394"><time>2026-05-01T08:12:20.409Z</time></trkpt>
      <trkpt lat="29.764713" lon="99.008394"><time>2026-05-01T08:12:20.425Z</time></trkpt>
      <trkpt lat="29.764711" lon="99.008404"><time>2026-05-01T08:12:20.442Z</time></trkpt>
      <trkpt lat="29.764711" lon="99.008404"><time>2026-05-01T08:12:20.459Z</time></trkpt>
      <trkpt lat="29.764711" lon="99.008404"><time>2026-05-01T08:12:20.475Z</time></trkpt>
      <trkpt lat="29.764711" lon="99.008404"><time>2026-05-01T08:12:20.492Z</time></trkpt>
      <trkpt lat="29.764711" lon="99.008404"><time>2026-05-01T08:12:20.509Z</time></trkpt>
      <trkpt lat="29.764711" lon="99.008404"><time>2026-05-01T08:12:20.525Z</time></trkpt>
      <trkpt lat="29.764709" lon="99.008414"><time>2026-05-01T08:12:20.542Z</time></trkpt>
      <trkpt lat="29.764709" lon="99.008414"><time>2026-05-01T08:12:20.559Z</time></trkpt>
      <trkpt lat="29.764709" lon="99.008414"><time>2026-05-01T08:12:20.575Z</time></trkpt>
      <trkpt lat="29.764709" lon="99.008414"><time>2026-05-01T08:12:20.592Z</time></trkpt>
      <trkpt lat="29.764709" lon="99.008414"><time>2026-05-01T08:12:20.609Z</time></trkpt>
      <trkpt lat="29.764709" lon="99.008414"><time>2026-05-01T08:12:20.626Z</time></trkpt>
      <trkpt lat="29.764708" lon="99.008423"><time>2026-05-01T08:12:20.642Z</time></trkpt>
      <trkpt lat="29.764708" lon="99.008423"><time>2026-05-01T08:12:20.659Z</time></trkpt>
      <trkpt lat="29.764708" lon="99.008423"><time>2026-05-01T08:12:20.676Z</time></trkpt>
      <trkpt lat="29.764708" lon="99.008423"><time>2026-05-01T08:12:20.692Z</time></trkpt>
      <trkpt lat="29.764708" lon="99.008423"><time>2026-05-01T08:12:20.709Z</time></trkpt>
      <trkpt lat="29.764708" lon="99.008423"><time>2026-05-01T08:12:20.726Z</time></trkpt>
      <trkpt lat="29.764706" lon="99.008433"><time>2026-05-01T08:12:20.742Z</time></trkpt>
      <trkpt lat="29.764706" lon="99.008433"><time>2026-05-01T08:12:20.759Z</time></trkpt>
      <trkpt lat="29.764706" lon="99.008433"><time>2026-05-01T08:12:20.776Z</time></trkpt>
      <trkpt lat="29.764706" lon="99.008433"><time>2026-05-01T08:12:20.792Z</time></trkpt>
      <trkpt lat="29.764706" lon="99.008433"><time>2026-05-01T08:12:20.809Z</time></trkpt>
      <trkpt lat="29.764706" lon="99.008433"><time>2026-05-01T08:12:20.826Z</time></trkpt>
      <trkpt lat="29.764704" lon="99.008443"><time>2026-05-01T08:12:20.842Z</time></trkpt>
      <trkpt lat="29.764704" lon="99.008443"><time>2026-05-01T08:12:20.859Z</time></trkpt>
      <trkpt lat="29.764704" lon="99.008443"><time>2026-05-01T08:12:20.876Z</time></trkpt>
      <trkpt lat="29.764704" lon="99.008443"><time>2026-05-01T08:12:20.892Z</time></trkpt>
      <trkpt lat="29.764704" lon="99.008443"><time>2026-05-01T08:12:20.909Z</time></trkpt>
      <trkpt lat="29.764704" lon="99.008443"><time>2026-05-01T08:12:20.926Z</time></trkpt>
      <trkpt lat="29.764703" lon="99.008452"><time>2026-05-01T08:12:20.943Z</time></trkpt>
      <trkpt lat="29.764703" lon="99.008452"><time>2026-05-01T08:12:20.959Z</time></trkpt>
      <trkpt lat="29.764703" lon="99.008452"><time>2026-05-01T08:12:20.976Z</time></trkpt>
      <trkpt lat="29.764703" lon="99.008452"><time>2026-05-01T08:12:20.993Z</time></trkpt>
      <trkpt lat="29.764703" lon="99.008452"><time>2026-05-01T08:12:21.009Z</time></trkpt>
      <trkpt lat="29.764703" lon="99.008452"><time>2026-05-01T08:12:21.026Z</time></trkpt>
      <trkpt lat="29.764701" lon="99.008462"><time>2026-05-01T08:12:21.043Z</time></trkpt>
      <trkpt lat="29.764701" lon="99.008462"><time>2026-05-01T08:12:21.059Z</time></trkpt>
      <trkpt lat="29.764701" lon="99.008462"><time>2026-05-01T08:12:21.076Z</time></trkpt>
      <trkpt lat="29.764701" lon="99.008462"><time>2026-05-01T08:12:21.093Z</time></trkpt>
      <trkpt lat="29.764701" lon="99.008462"><time>2026-05-01T08:12:21.109Z</time></trkpt>
      <trkpt lat="29.764701" lon="99.008462"><time>2026-05-01T08:12:21.126Z</time></trkpt>
      <trkpt lat="29.764699" lon="99.008471"><time>2026-05-01T08:12:21.143Z</time></trkpt>
      <trkpt lat="29.764699" lon="99.008471"><time>2026-05-01T08:12:21.159Z</time></trkpt>
      <trkpt lat="29.764699" lon="99.008471"><time>2026-05-01T08:12:21.176Z</time></trkpt>
      <trkpt lat="29.764699" lon="99.008471"><time>2026-05-01T08:12:21.193Z</time></trkpt>
      <trkpt lat="29.764699" lon="99.008471"><time>2026-05-01T08:12:21.209Z</time></trkpt>
      <trkpt lat="29.764699" lon="99.008471"><time>2026-05-01T08:12:21.226Z</time></trkpt>
      <trkpt lat="29.764697" lon="99.008481"><time>2026-05-01T08:12:21.243Z</time></trkpt>
      <trkpt lat="29.764697" lon="99.008481"><time>2026-05-01T08:12:21.260Z</time></trkpt>
      <trkpt lat="29.764697" lon="99.008481"><time>2026-05-01T08:12:21.276Z</time></trkpt>
      <trkpt lat="29.764697" lon="99.008481"><time>2026-05-01T08:12:21.293Z</time></trkpt>
      <trkpt lat="29.764697" lon="99.008481"><time>2026-05-01T08:12:21.310Z</time></trkpt>
      <trkpt lat="29.764697" lon="99.008481"><time>2026-05-01T08:12:21.326Z</time></trkpt>
      <trkpt lat="29.764696" lon="99.008491"><time>2026-05-01T08:12:21.343Z</time></trkpt>
      <trkpt lat="29.764696" lon="99.008491"><time>2026-05-01T08:12:21.360Z</time></trkpt>
      <trkpt lat="29.764696" lon="99.008491"><time>2026-05-01T08:12:21.376Z</time></trkpt>
      <trkpt lat="29.764696" lon="99.008491"><time>2026-05-01T08:12:21.393Z</time></trkpt>
      <trkpt lat="29.764696" lon="99.008491"><time>2026-05-01T08:12:21.410Z</time></trkpt>
      <trkpt lat="29.764696" lon="99.008491"><time>2026-05-01T08:12:21.426Z</time></trkpt>
      <trkpt lat="29.764694" lon="99.008501"><time>2026-05-01T08:12:21.443Z</time></trkpt>
      <trkpt lat="29.764694" lon="99.008501"><time>2026-05-01T08:12:21.460Z</time></trkpt>
      <trkpt lat="29.764694" lon="99.008501"><time>2026-05-01T08:12:21.476Z</time></trkpt>
      <trkpt lat="29.764694" lon="99.008501"><time>2026-05-01T08:12:21.493Z</time></trkpt>
      <trkpt lat="29.764694" lon="99.008501"><time>2026-05-01T08:12:21.510Z</time></trkpt>
      <trkpt lat="29.764694" lon="99.008501"><time>2026-05-01T08:12:21.526Z</time></trkpt>
      <trkpt lat="29.764693" lon="99.00851"><time>2026-05-01T08:12:21.543Z</time></trkpt>
      <trkpt lat="29.764693" lon="99.00851"><time>2026-05-01T08:12:21.560Z</time></trkpt>
      <trkpt lat="29.764693" lon="99.00851"><time>2026-05-01T08:12:21.577Z</time></trkpt>
      <trkpt lat="29.764693" lon="99.00851"><time>2026-05-01T08:12:21.593Z</time></trkpt>
      <trkpt lat="29.764693" lon="99.00851"><time>2026-05-01T08:12:21.610Z</time></trkpt>
      <trkpt lat="29.764693" lon="99.00851"><time>2026-05-01T08:12:21.627Z</time></trkpt>
      <trkpt lat="29.764691" lon="99.00852"><time>2026-05-01T08:12:21.643Z</time></trkpt>
      <trkpt lat="29.764691" lon="99.00852"><time>2026-05-01T08:12:21.660Z</time></trkpt>
      <trkpt lat="29.764691" lon="99.00852"><time>2026-05-01T08:12:21.677Z</time></trkpt>
      <trkpt lat="29.764691" lon="99.00852"><time>2026-05-01T08:12:21.693Z</time></trkpt>
      <trkpt lat="29.764691" lon="99.00852"><time>2026-05-01T08:12:21.710Z</time></trkpt>
      <trkpt lat="29.764691" lon="99.00852"><time>2026-05-01T08:12:21.727Z</time></trkpt>
      <trkpt lat="29.764689" lon="99.00853"><time>2026-05-01T08:12:21.743Z</time></trkpt>
      <trkpt lat="29.764689" lon="99.00853"><time>2026-05-01T08:12:21.760Z</time></trkpt>
      <trkpt lat="29.764689" lon="99.00853"><time>2026-05-01T08:12:21.777Z</time></trkpt>
      <trkpt lat="29.764689" lon="99.00853"><time>2026-05-01T08:12:21.793Z</time></trkpt>
      <trkpt lat="29.764689" lon="99.00853"><time>2026-05-01T08:12:21.810Z</time></trkpt>
      <trkpt lat="29.764689" lon="99.00853"><time>2026-05-01T08:12:21.827Z</time></trkpt>
      <trkpt lat="29.764687" lon="99.00854"><time>2026-05-01T08:12:21.843Z</time></trkpt>
      <trkpt lat="29.764687" lon="99.00854"><time>2026-05-01T08:12:21.860Z</time></trkpt>
      <trkpt lat="29.764687" lon="99.00854"><time>2026-05-01T08:12:21.877Z</time></trkpt>
      <trkpt lat="29.764687" lon="99.00854"><time>2026-05-01T08:12:21.894Z</time></trkpt>
      <trkpt lat="29.764687" lon="99.00854"><time>2026-05-01T08:12:21.910Z</time></trkpt>
      <trkpt lat="29.764687" lon="99.00854"><time>2026-05-01T08:12:21.927Z</time></trkpt>
      <trkpt lat="29.764686" lon="99.008549"><time>2026-05-01T08:12:21.944Z</time></trkpt>
      <trkpt lat="29.764686" lon="99.008549"><time>2026-05-01T08:12:21.960Z</time></trkpt>
      <trkpt lat="29.764686" lon="99.008549"><time>2026-05-01T08:12:21.977Z</time></trkpt>
      <trkpt lat="29.764686" lon="99.008549"><time>2026-05-01T08:12:21.994Z</time></trkpt>
      <trkpt lat="29.764686" lon="99.008549"><time>2026-05-01T08:12:22.010Z</time></trkpt>
      <trkpt lat="29.764686" lon="99.008549"><time>2026-05-01T08:12:22.027Z</time></trkpt>
      <trkpt lat="29.764684" lon="99.00856"><time>2026-05-01T08:12:22.044Z</time></trkpt>
      <trkpt lat="29.764684" lon="99.00856"><time>2026-05-01T08:12:22.060Z</time></trkpt>
      <trkpt lat="29.764684" lon="99.00856"><time>2026-05-01T08:12:22.077Z</time></trkpt>
      <trkpt lat="29.764684" lon="99.00856"><time>2026-05-01T08:12:22.094Z</time></trkpt>
      <trkpt lat="29.764684" lon="99.00856"><time>2026-05-01T08:12:22.110Z</time></trkpt>
      <trkpt lat="29.764684" lon="99.00856"><time>2026-05-01T08:12:22.127Z</time></trkpt>
      <trkpt lat="29.764683" lon="99.008569"><time>2026-05-01T08:12:22.144Z</time></trkpt>
      <trkpt lat="29.764683" lon="99.008569"><time>2026-05-01T08:12:22.160Z</time></trkpt>
      <trkpt lat="29.764683" lon="99.008569"><time>2026-05-01T08:12:22.177Z</time></trkpt>
      <trkpt lat="29.764683" lon="99.008569"><time>2026-05-01T08:12:22.194Z</time></trkpt>
      <trkpt lat="29.764683" lon="99.008569"><time>2026-05-01T08:12:22.211Z</time></trkpt>
      <trkpt lat="29.764683" lon="99.008569"><time>2026-05-01T08:12:22.227Z</time></trkpt>
      <trkpt lat="29.764681" lon="99.00858"><time>2026-05-01T08:12:22.244Z</time></trkpt>
      <trkpt lat="29.764681" lon="99.00858"><time>2026-05-01T08:12:22.261Z</time></trkpt>
      <trkpt lat="29.764681" lon="99.00858"><time>2026-05-01T08:12:22.277Z</time></trkpt>
      <trkpt lat="29.764681" lon="99.00858"><time>2026-05-01T08:12:22.294Z</time></trkpt>
      <trkpt lat="29.764681" lon="99.00858"><time>2026-05-01T08:12:22.311Z</time></trkpt>
      <trkpt lat="29.764681" lon="99.00858"><time>2026-05-01T08:12:22.327Z</time></trkpt>
      <trkpt lat="29.764679" lon="99.00859"><time>2026-05-01T08:12:22.344Z</time></trkpt>
      <trkpt lat="29.764679" lon="99.00859"><time>2026-05-01T08:12:22.361Z</time></trkpt>
      <trkpt lat="29.764679" lon="99.00859"><time>2026-05-01T08:12:22.377Z</time></trkpt>
      <trkpt lat="29.764679" lon="99.00859"><time>2026-05-01T08:12:22.394Z</time></trkpt>
      <trkpt lat="29.764679" lon="99.00859"><time>2026-05-01T08:12:22.411Z</time></trkpt>
      <trkpt lat="29.764679" lon="99.00859"><time>2026-05-01T08:12:22.427Z</time></trkpt>
      <trkpt lat="29.764677" lon="99.0086"><time>2026-05-01T08:12:22.444Z</time></trkpt>
      <trkpt lat="29.764677" lon="99.0086"><time>2026-05-01T08:12:22.461Z</time></trkpt>
      <trkpt lat="29.764677" lon="99.0086"><time>2026-05-01T08:12:22.477Z</time></trkpt>
      <trkpt lat="29.764677" lon="99.0086"><time>2026-05-01T08:12:22.494Z</time></trkpt>
      <trkpt lat="29.764677" lon="99.0086"><time>2026-05-01T08:12:22.511Z</time></trkpt>
      <trkpt lat="29.764677" lon="99.0086"><time>2026-05-01T08:12:22.528Z</time></trkpt>
      <trkpt lat="29.764676" lon="99.008609"><time>2026-05-01T08:12:22.544Z</time></trkpt>
      <trkpt lat="29.764676" lon="99.008609"><time>2026-05-01T08:12:22.561Z</time></trkpt>
      <trkpt lat="29.764676" lon="99.008609"><time>2026-05-01T08:12:22.578Z</time></trkpt>
      <trkpt lat="29.764676" lon="99.008609"><time>2026-05-01T08:12:22.594Z</time></trkpt>
      <trkpt lat="29.764676" lon="99.008609"><time>2026-05-01T08:12:22.611Z</time></trkpt>
      <trkpt lat="29.764676" lon="99.008609"><time>2026-05-01T08:12:22.628Z</time></trkpt>
      <trkpt lat="29.764674" lon="99.00862"><time>2026-05-01T08:12:22.644Z</time></trkpt>
      <trkpt lat="29.764674" lon="99.00862"><time>2026-05-01T08:12:22.661Z</time></trkpt>
      <trkpt lat="29.764674" lon="99.00862"><time>2026-05-01T08:12:22.678Z</time></trkpt>
      <trkpt lat="29.764674" lon="99.00862"><time>2026-05-01T08:12:22.694Z</time></trkpt>
      <trkpt lat="29.764674" lon="99.00862"><time>2026-05-01T08:12:22.711Z</time></trkpt>
      <trkpt lat="29.764674" lon="99.00862"><time>2026-05-01T08:12:22.728Z</time></trkpt>
      <trkpt lat="29.764672" lon="99.00863"><time>2026-05-01T08:12:22.744Z</time></trkpt>
      <trkpt lat="29.764672" lon="99.00863"><time>2026-05-01T08:12:22.761Z</time></trkpt>
      <trkpt lat="29.764672" lon="99.00863"><time>2026-05-01T08:12:22.778Z</time></trkpt>
      <trkpt lat="29.764672" lon="99.00863"><time>2026-05-01T08:12:22.794Z</time></trkpt>
      <trkpt lat="29.764672" lon="99.00863"><time>2026-05-01T08:12:22.811Z</time></trkpt>
      <trkpt lat="29.764672" lon="99.00863"><time>2026-05-01T08:12:22.828Z</time></trkpt>
      <trkpt lat="29.76467" lon="99.00864"><time>2026-05-01T08:12:22.845Z</time></trkpt>
      <trkpt lat="29.76467" lon="99.00864"><time>2026-05-01T08:12:22.861Z</time></trkpt>
      <trkpt lat="29.76467" lon="99.00864"><time>2026-05-01T08:12:22.878Z</time></trkpt>
      <trkpt lat="29.76467" lon="99.00864"><time>2026-05-01T08:12:22.895Z</time></trkpt>
      <trkpt lat="29.76467" lon="99.00864"><time>2026-05-01T08:12:22.911Z</time></trkpt>
      <trkpt lat="29.76467" lon="99.00864"><time>2026-05-01T08:12:22.928Z</time></trkpt>
      <trkpt lat="29.764669" lon="99.008649"><time>2026-05-01T08:12:22.945Z</time></trkpt>
      <trkpt lat="29.764669" lon="99.008649"><time>2026-05-01T08:12:22.961Z</time></trkpt>
      <trkpt lat="29.764669" lon="99.008649"><time>2026-05-01T08:12:22.978Z</time></trkpt>
      <trkpt lat="29.764669" lon="99.008649"><time>2026-05-01T08:12:22.995Z</time></trkpt>
      <trkpt lat="29.764669" lon="99.008649"><time>2026-05-01T08:12:23.011Z</time></trkpt>
      <trkpt lat="29.764669" lon="99.008649"><time>2026-05-01T08:12:23.028Z</time></trkpt>
      <trkpt lat="29.764667" lon="99.008659"><time>2026-05-01T08:12:23.045Z</time></trkpt>
      <trkpt lat="29.764667" lon="99.008659"><time>2026-05-01T08:12:23.061Z</time></trkpt>
      <trkpt lat="29.764667" lon="99.008659"><time>2026-05-01T08:12:23.078Z</time></trkpt>
      <trkpt lat="29.764667" lon="99.008659"><time>2026-05-01T08:12:23.095Z</time></trkpt>
      <trkpt lat="29.764667" lon="99.008659"><time>2026-05-01T08:12:23.111Z</time></trkpt>
      <trkpt lat="29.764667" lon="99.008659"><time>2026-05-01T08:12:23.128Z</time></trkpt>
      <trkpt lat="29.764665" lon="99.008669"><time>2026-05-01T08:12:23.145Z</time></trkpt>
      <trkpt lat="29.764665" lon="99.008669"><time>2026-05-01T08:12:23.162Z</time></trkpt>
      <trkpt lat="29.764665" lon="99.008669"><time>2026-05-01T08:12:23.178Z</time></trkpt>
      <trkpt lat="29.764665" lon="99.008669"><time>2026-05-01T08:12:23.195Z</time></trkpt>
      <trkpt lat="29.764665" lon="99.008669"><time>2026-05-01T08:12:23.212Z</time></trkpt>
      <trkpt lat="29.764665" lon="99.008669"><time>2026-05-01T08:12:23.228Z</time></trkpt>
      <trkpt lat="29.764664" lon="99.008679"><time>2026-05-01T08:12:23.245Z</time></trkpt>
      <trkpt lat="29.764664" lon="99.008679"><time>2026-05-01T08:12:23.262Z</time></trkpt>
      <trkpt lat="29.764664" lon="99.008679"><time>2026-05-01T08:12:23.278Z</time></trkpt>
      <trkpt lat="29.764664" lon="99.008679"><time>2026-05-01T08:12:23.295Z</time></trkpt>
      <trkpt lat="29.764664" lon="99.008679"><time>2026-05-01T08:12:23.312Z</time></trkpt>
      <trkpt lat="29.764664" lon="99.008679"><time>2026-05-01T08:12:23.328Z</time></trkpt>
      <trkpt lat="29.764662" lon="99.008688"><time>2026-05-01T08:12:23.345Z</time></trkpt>
      <trkpt lat="29.764662" lon="99.008688"><time>2026-05-01T08:12:23.362Z</time></trkpt>
      <trkpt lat="29.764662" lon="99.008688"><time>2026-05-01T08:12:23.378Z</time></trkpt>
      <trkpt lat="29.764662" lon="99.008688"><time>2026-05-01T08:12:23.395Z</time></trkpt>
      <trkpt lat="29.764662" lon="99.008688"><time>2026-05-01T08:12:23.412Z</time></trkpt>
      <trkpt lat="29.764662" lon="99.008688"><time>2026-05-01T08:12:23.428Z</time></trkpt>
      <trkpt lat="29.76466" lon="99.008698"><time>2026-05-01T08:12:23.445Z</time></trkpt>
      <trkpt lat="29.76466" lon="99.008698"><time>2026-05-01T08:12:23.462Z</time></trkpt>
      <trkpt lat="29.76466" lon="99.008698"><time>2026-05-01T08:12:23.479Z</time></trkpt>
      <trkpt lat="29.76466" lon="99.008698"><time>2026-05-01T08:12:23.495Z</time></trkpt>
      <trkpt lat="29.76466" lon="99.008698"><time>2026-05-01T08:12:23.512Z</time></trkpt>
      <trkpt lat="29.76466" lon="99.008698"><time>2026-05-01T08:12:23.529Z</time></trkpt>
      <trkpt lat="29.764659" lon="99.008708"><time>2026-05-01T08:12:23.545Z</time></trkpt>
      <trkpt lat="29.764659" lon="99.008708"><time>2026-05-01T08:12:23.562Z</time></trkpt>
      <trkpt lat="29.764659" lon="99.008708"><time>2026-05-01T08:12:23.579Z</time></trkpt>
      <trkpt lat="29.764659" lon="99.008708"><time>2026-05-01T08:12:23.595Z</time></trkpt>
      <trkpt lat="29.764659" lon="99.008708"><time>2026-05-01T08:12:23.612Z</time></trkpt>
      <trkpt lat="29.764659" lon="99.008708"><time>2026-05-01T08:12:23.629Z</time></trkpt>
      <trkpt lat="29.764657" lon="99.008718"><time>2026-05-01T08:12:23.645Z</time></trkpt>
      <trkpt lat="29.764657" lon="99.008718"><time>2026-05-01T08:12:23.662Z</time></trkpt>
      <trkpt lat="29.764657" lon="99.008718"><time>2026-05-01T08:12:23.679Z</time></trkpt>
      <trkpt lat="29.764657" lon="99.008718"><time>2026-05-01T08:12:23.695Z</time></trkpt>
      <trkpt lat="29.764657" lon="99.008718"><time>2026-05-01T08:12:23.712Z</time></trkpt>
      <trkpt lat="29.764657" lon="99.008718"><time>2026-05-01T08:12:23.729Z</time></trkpt>
      <trkpt lat="29.764655" lon="99.008728"><time>2026-05-01T08:12:23.745Z</time></trkpt>
      <trkpt lat="29.764655" lon="99.008728"><time>2026-05-01T08:12:23.762Z</time></trkpt>
      <trkpt lat="29.764655" lon="99.008728"><time>2026-05-01T08:12:23.779Z</time></trkpt>
      <trkpt lat="29.764655" lon="99.008728"><time>2026-05-01T08:12:23.796Z</time></trkpt>
      <trkpt lat="29.764655" lon="99.008728"><time>2026-05-01T08:12:23.812Z</time></trkpt>
      <trkpt lat="29.764655" lon="99.008728"><time>2026-05-01T08:12:23.829Z</time></trkpt>
      <trkpt lat="29.764653" lon="99.008738"><time>2026-05-01T08:12:23.846Z</time></trkpt>
      <trkpt lat="29.764653" lon="99.008738"><time>2026-05-01T08:12:23.862Z</time></trkpt>
      <trkpt lat="29.764653" lon="99.008738"><time>2026-05-01T08:12:23.879Z</time></trkpt>
      <trkpt lat="29.764653" lon="99.008738"><time>2026-05-01T08:12:23.896Z</time></trkpt>
      <trkpt lat="29.764653" lon="99.008738"><time>2026-05-01T08:12:23.912Z</time></trkpt>
      <trkpt lat="29.764653" lon="99.008738"><time>2026-05-01T08:12:23.929Z</time></trkpt>
      <trkpt lat="29.764652" lon="99.008747"><time>2026-05-01T08:12:23.946Z</time></trkpt>
      <trkpt lat="29.764652" lon="99.008747"><time>2026-05-01T08:12:23.962Z</time></trkpt>
      <trkpt lat="29.764652" lon="99.008747"><time>2026-05-01T08:12:23.979Z</time></trkpt>
      <trkpt lat="29.764652" lon="99.008747"><time>2026-05-01T08:12:23.996Z</time></trkpt>
      <trkpt lat="29.764652" lon="99.008747"><time>2026-05-01T08:12:24.012Z</time></trkpt>
      <trkpt lat="29.764652" lon="99.008747"><time>2026-05-01T08:12:24.029Z</time></trkpt>
      <trkpt lat="29.76465" lon="99.008756"><time>2026-05-01T08:12:24.046Z</time></trkpt>
      <trkpt lat="29.76465" lon="99.008756"><time>2026-05-01T08:12:24.062Z</time></trkpt>
      <trkpt lat="29.76465" lon="99.008756"><time>2026-05-01T08:12:24.079Z</time></trkpt>
      <trkpt lat="29.76465" lon="99.008756"><time>2026-05-01T08:12:24.096Z</time></trkpt>
      <trkpt lat="29.76465" lon="99.008756"><time>2026-05-01T08:12:24.113Z</time></trkpt>
      <trkpt lat="29.76465" lon="99.008756"><time>2026-05-01T08:12:24.129Z</time></trkpt>
      <trkpt lat="29.764649" lon="99.008766"><time>2026-05-01T08:12:24.146Z</time></trkpt>
      <trkpt lat="29.764649" lon="99.008766"><time>2026-05-01T08:12:24.163Z</time></trkpt>
      <trkpt lat="29.764649" lon="99.008766"><time>2026-05-01T08:12:24.179Z</time></trkpt>
      <trkpt lat="29.764649" lon="99.008766"><time>2026-05-01T08:12:24.196Z</time></trkpt>
      <trkpt lat="29.764649" lon="99.008766"><time>2026-05-01T08:12:24.213Z</time></trkpt>
      <trkpt lat="29.764649" lon="99.008766"><time>2026-05-01T08:12:24.229Z</time></trkpt>
      <trkpt lat="29.764647" lon="99.008775"><time>2026-05-01T08:12:24.246Z</time></trkpt>
      <trkpt lat="29.764647" lon="99.008775"><time>2026-05-01T08:12:24.263Z</time></trkpt>
      <trkpt lat="29.764647" lon="99.008775"><time>2026-05-01T08:12:24.279Z</time></trkpt>
      <trkpt lat="29.764647" lon="99.008775"><time>2026-05-01T08:12:24.296Z</time></trkpt>
      <trkpt lat="29.764647" lon="99.008775"><time>2026-05-01T08:12:24.313Z</time></trkpt>
      <trkpt lat="29.764647" lon="99.008775"><time>2026-05-01T08:12:24.329Z</time></trkpt>
      <trkpt lat="29.764645" lon="99.008782"><time>2026-05-01T08:12:24.346Z</time></trkpt>
      <trkpt lat="29.764645" lon="99.008782"><time>2026-05-01T08:12:24.363Z</time></trkpt>
      <trkpt lat="29.764645" lon="99.008782"><time>2026-05-01T08:12:24.379Z</time></trkpt>
      <trkpt lat="29.764645" lon="99.008782"><time>2026-05-01T08:12:24.396Z</time></trkpt>
      <trkpt lat="29.764645" lon="99.008782"><time>2026-05-01T08:12:24.413Z</time></trkpt>
      <trkpt lat="29.764645" lon="99.008782"><time>2026-05-01T08:12:24.430Z</time></trkpt>
      <trkpt lat="29.764644" lon="99.00879"><time>2026-05-01T08:12:24.446Z</time></trkpt>
      <trkpt lat="29.764644" lon="99.00879"><time>2026-05-01T08:12:24.463Z</time></trkpt>
      <trkpt lat="29.764644" lon="99.00879"><time>2026-05-01T08:12:24.480Z</time></trkpt>
      <trkpt lat="29.764644" lon="99.00879"><time>2026-05-01T08:12:24.496Z</time></trkpt>
      <trkpt lat="29.764644" lon="99.00879"><time>2026-05-01T08:12:24.513Z</time></trkpt>
      <trkpt lat="29.764644" lon="99.00879"><time>2026-05-01T08:12:24.530Z</time></trkpt>
      <trkpt lat="29.764642" lon="99.008796"><time>2026-05-01T08:12:24.546Z</time></trkpt>
      <trkpt lat="29.764642" lon="99.008796"><time>2026-05-01T08:12:24.563Z</time></trkpt>
      <trkpt lat="29.764642" lon="99.008796"><time>2026-05-01T08:12:24.580Z</time></trkpt>
      <trkpt lat="29.764642" lon="99.008796"><time>2026-05-01T08:12:24.596Z</time></trkpt>
      <trkpt lat="29.764642" lon="99.008796"><time>2026-05-01T08:12:24.613Z</time></trkpt>
      <trkpt lat="29.764642" lon="99.008796"><time>2026-05-01T08:12:24.630Z</time></trkpt>
      <trkpt lat="29.764641" lon="99.008802"><time>2026-05-01T08:12:24.646Z</time></trkpt>
      <trkpt lat="29.764641" lon="99.008802"><time>2026-05-01T08:12:24.663Z</time></trkpt>
      <trkpt lat="29.764641" lon="99.008802"><time>2026-05-01T08:12:24.680Z</time></trkpt>
      <trkpt lat="29.764641" lon="99.008802"><time>2026-05-01T08:12:24.696Z</time></trkpt>
      <trkpt lat="29.764641" lon="99.008802"><time>2026-05-01T08:12:24.713Z</time></trkpt>
      <trkpt lat="29.764641" lon="99.008802"><time>2026-05-01T08:12:24.730Z</time></trkpt>
      <trkpt lat="29.76464" lon="99.008807"><time>2026-05-01T08:12:24.747Z</time></trkpt>
      <trkpt lat="29.76464" lon="99.008807"><time>2026-05-01T08:12:24.763Z</time></trkpt>
      <trkpt lat="29.76464" lon="99.008807"><time>2026-05-01T08:12:24.780Z</time></trkpt>
      <trkpt lat="29.76464" lon="99.008807"><time>2026-05-01T08:12:24.797Z</time></trkpt>
      <trkpt lat="29.76464" lon="99.008807"><time>2026-05-01T08:12:24.813Z</time></trkpt>
      <trkpt lat="29.76464" lon="99.008807"><time>2026-05-01T08:12:24.830Z</time></trkpt>
      <trkpt lat="29.764639" lon="99.008812"><time>2026-05-01T08:12:24.847Z</time></trkpt>
      <trkpt lat="29.764639" lon="99.008812"><time>2026-05-01T08:12:24.863Z</time></trkpt>
      <trkpt lat="29.764639" lon="99.008812"><time>2026-05-01T08:12:24.880Z</time></trkpt>
      <trkpt lat="29.764639" lon="99.008812"><time>2026-05-01T08:12:24.897Z</time></trkpt>
      <trkpt lat="29.764639" lon="99.008812"><time>2026-05-01T08:12:24.913Z</time></trkpt>
      <trkpt lat="29.764639" lon="99.008812"><time>2026-05-01T08:12:24.930Z</time></trkpt>
      <trkpt lat="29.764639" lon="99.008816"><time>2026-05-01T08:12:24.947Z</time></trkpt>
      <trkpt lat="29.764639" lon="99.008816"><time>2026-05-01T08:12:24.963Z</time></trkpt>
      <trkpt lat="29.764639" lon="99.008816"><time>2026-05-01T08:12:24.980Z</time></trkpt>
      <trkpt lat="29.764639" lon="99.008816"><time>2026-05-01T08:12:24.997Z</time></trkpt>
      <trkpt lat="29.764639" lon="99.008816"><time>2026-05-01T08:12:25.013Z</time></trkpt>
      <trkpt lat="29.764639" lon="99.008816"><time>2026-05-01T08:12:25.030Z</time></trkpt>
      <trkpt lat="29.764638" lon="99.008819"><time>2026-05-01T08:12:25.047Z</time></trkpt>
      <trkpt lat="29.764638" lon="99.008819"><time>2026-05-01T08:12:25.064Z</time></trkpt>
      <trkpt lat="29.764638" lon="99.008819"><time>2026-05-01T08:12:25.080Z</time></trkpt>
      <trkpt lat="29.764638" lon="99.008819"><time>2026-05-01T08:12:25.097Z</time></trkpt>
      <trkpt lat="29.764638" lon="99.008819"><time>2026-05-01T08:12:25.114Z</time></trkpt>
      <trkpt lat="29.764638" lon="99.008819"><time>2026-05-01T08:12:25.130Z</time></trkpt>
      <trkpt lat="29.764638" lon="99.008822"><time>2026-05-01T08:12:25.147Z</time></trkpt>
      <trkpt lat="29.764638" lon="99.008822"><time>2026-05-01T08:12:25.164Z</time></trkpt>
      <trkpt lat="29.764638" lon="99.008822"><time>2026-05-01T08:12:25.180Z</time></trkpt>
      <trkpt lat="29.764638" lon="99.008822"><time>2026-05-01T08:12:25.197Z</time></trkpt>
      <trkpt lat="29.764638" lon="99.008822"><time>2026-05-01T08:12:25.214Z</time></trkpt>
      <trkpt lat="29.764638" lon="99.008822"><time>2026-05-01T08:12:25.230Z</time></trkpt>
      <trkpt lat="29.764638" lon="99.008824"><time>2026-05-01T08:12:25.247Z</time></trkpt>
      <trkpt lat="29.764638" lon="99.008824"><time>2026-05-01T08:12:25.264Z</time></trkpt>
      <trkpt lat="29.764638" lon="99.008824"><time>2026-05-01T08:12:25.280Z</time></trkpt>
      <trkpt lat="29.764638" lon="99.008824"><time>2026-05-01T08:12:25.297Z</time></trkpt>
      <trkpt lat="29.764638" lon="99.008824"><time>2026-05-01T08:12:25.314Z</time></trkpt>
      <trkpt lat="29.764638" lon="99.008824"><time>2026-05-01T08:12:25.330Z</time></trkpt>
      <trkpt lat="29.764638" lon="99.008825"><time>2026-05-01T08:12:25.347Z</time></trkpt>
      <trkpt lat="29.764638" lon="99.008825"><time>2026-05-01T08:12:25.364Z</time></trkpt>
      <trkpt lat="29.764638" lon="99.008825"><time>2026-05-01T08:12:25.381Z</time></trkpt>
      <trkpt lat="29.764638" lon="99.008825"><time>2026-05-01T08:12:25.397Z</time></trkpt>
      <trkpt lat="29.764638" lon="99.008825"><time>2026-05-01T08:12:25.414Z</time></trkpt>
      <trkpt lat="29.764638" lon="99.008825"><time>2026-05-01T08:12:25.431Z</time></trkpt>
      <trkpt lat="29.764638" lon="99.008827"><time>2026-05-01T08:12:25.447Z</time></trkpt>
      <trkpt lat="29.764638" lon="99.008827"><time>2026-05-01T08:12:25.464Z</time></trkpt>
      <trkpt lat="29.764638" lon="99.008827"><time>2026-05-01T08:12:25.481Z</time></trkpt>
      <trkpt lat="29.764638" lon="99.008827"><time>2026-05-01T08:12:25.497Z</time></trkpt>
      <trkpt lat="29.764638" lon="99.008827"><time>2026-05-01T08:12:25.514Z</time></trkpt>
      <trkpt lat="29.764638" lon="99.008827"><time>2026-05-01T08:12:25.531Z</time></trkpt>
      <trkpt lat="29.764639" lon="99.008828"><time>2026-05-01T08:12:25.547Z</time></trkpt>
      <trkpt lat="29.764639" lon="99.008828"><time>2026-05-01T08:12:25.564Z</time></trkpt>
      <trkpt lat="29.764639" lon="99.008828"><time>2026-05-01T08:12:25.581Z</time></trkpt>
      <trkpt lat="29.764639" lon="99.008828"><time>2026-05-01T08:12:25.597Z</time></trkpt>
      <trkpt lat="29.764639" lon="99.008828"><time>2026-05-01T08:12:25.614Z</time></trkpt>
      <trkpt lat="29.764639" lon="99.008828"><time>2026-05-01T08:12:25.631Z</time></trkpt>
      <trkpt lat="29.764639" lon="99.008828"><time>2026-05-01T08:12:25.647Z</time></trkpt>
    </trkseg>
  </trk>
</gpx>
