<?xml version="1.0" encoding="UTF-8"?>
<gpx version="1.1" creator="Kairos" xmlns="http://www.topografix.com/GPX/1/1">
  <trk>
    <name>sidecar-srt-8869fa6a4ca0be6b</name>
    <trkseg>
      <trkpt lat="22.523593" lon="108.731783"><time>2026-04-25T01:51:38.000Z</time></trkpt>
      <trkpt lat="22.523593" lon="108.731783"><time>2026-04-25T01:51:38.016Z</time></trkpt>
      <trkpt lat="22.523593" lon="108.731783"><time>2026-04-25T01:51:38.032Z</time></trkpt>
      <trkpt lat="22.523593" lon="108.731783"><time>2026-04-25T01:51:38.049Z</time></trkpt>
      <trkpt lat="22.523593" lon="108.731783"><time>2026-04-25T01:51:38.066Z</time></trkpt>
      <trkpt lat="22.523593" lon="108.731783"><time>2026-04-25T01:51:38.082Z</time></trkpt>
      <trkpt lat="22.523593" lon="108.731783"><time>2026-04-25T01:51:38.099Z</time></trkpt>
      <trkpt lat="22.523593" lon="108.731783"><time>2026-04-25T01:51:38.116Z</time></trkpt>
      <trkpt lat="22.523593" lon="108.731783"><time>2026-04-25T01:51:38.132Z</time></trkpt>
      <trkpt lat="22.523593" lon="108.731783"><time>2026-04-25T01:51:38.149Z</time></trkpt>
      <trkpt lat="22.523594" lon="108.731783"><time>2026-04-25T01:51:38.166Z</time></trkpt>
      <trkpt lat="22.523594" lon="108.731783"><time>2026-04-25T01:51:38.182Z</time></trkpt>
      <trkpt lat="22.523594" lon="108.731783"><time>2026-04-25T01:51:38.199Z</time></trkpt>
      <trkpt lat="22.523594" lon="108.731783"><time>2026-04-25T01:51:38.216Z</time></trkpt>
      <trkpt lat="22.523594" lon="108.731783"><time>2026-04-25T01:51:38.232Z</time></trkpt>
      <trkpt lat="22.523594" lon="108.731783"><time>2026-04-25T01:51:38.249Z</time></trkpt>
      <trkpt lat="22.523594" lon="108.731783"><time>2026-04-25T01:51:38.266Z</time></trkpt>
      <trkpt lat="22.523594" lon="108.731783"><time>2026-04-25T01:51:38.282Z</time></trkpt>
      <trkpt lat="22.523594" lon="108.731783"><time>2026-04-25T01:51:38.299Z</time></trkpt>
      <trkpt lat="22.523594" lon="108.731783"><time>2026-04-25T01:51:38.316Z</time></trkpt>
      <trkpt lat="22.523594" lon="108.731783"><time>2026-04-25T01:51:38.332Z</time></trkpt>
      <trkpt lat="22.523594" lon="108.731783"><time>2026-04-25T01:51:38.349Z</time></trkpt>
      <trkpt lat="22.523594" lon="108.731783"><time>2026-04-25T01:51:38.366Z</time></trkpt>
      <trkpt lat="22.523594" lon="108.731783"><time>2026-04-25T01:51:38.382Z</time></trkpt>
      <trkpt lat="22.523594" lon="108.731783"><time>2026-04-25T01:51:38.399Z</time></trkpt>
      <trkpt lat="22.523594" lon="108.731783"><time>2026-04-25T01:51:38.416Z</time></trkpt>
      <trkpt lat="22.523594" lon="108.731783"><time>2026-04-25T01:51:38.433Z</time></trkpt>
      <trkpt lat="22.523594" lon="108.731783"><time>2026-04-25T01:51:38.449Z</time></trkpt>
      <trkpt lat="22.523594" lon="108.731782"><time>2026-04-25T01:51:38.466Z</time></trkpt>
      <trkpt lat="22.523594" lon="108.731782"><time>2026-04-25T01:51:38.483Z</time></trkpt>
      <trkpt lat="22.523594" lon="108.731782"><time>2026-04-25T01:51:38.499Z</time></trkpt>
      <trkpt lat="22.523594" lon="108.731782"><time>2026-04-25T01:51:38.516Z</time></trkpt>
      <trkpt lat="22.523594" lon="108.731782"><time>2026-04-25T01:51:38.533Z</time></trkpt>
      <trkpt lat="22.523594" lon="108.731782"><time>2026-04-25T01:51:38.549Z</time></trkpt>
      <trkpt lat="22.523594" lon="108.731781"><time>2026-04-25T01:51:38.566Z</time></trkpt>
      <trkpt lat="22.523594" lon="108.731781"><time>2026-04-25T01:51:38.583Z</time></trkpt>
      <trkpt lat="22.523594" lon="108.731781"><time>2026-04-25T01:51:38.599Z</time></trkpt>
      <trkpt lat="22.523594" lon="108.731781"><time>2026-04-25T01:51:38.616Z</time></trkpt>
      <trkpt lat="22.523594" lon="108.731781"><time>2026-04-25T01:51:38.633Z</time></trkpt>
      <trkpt lat="22.523594" lon="108.731781"><time>2026-04-25T01:51:38.649Z</time></trkpt>
      <trkpt lat="22.523595" lon="108.73178"><time>2026-04-25T01:51:38.666Z</time></trkpt>
      <trkpt lat="22.523595" lon="108.73178"><time>2026-04-25T01:51:38.683Z</time></trkpt>
      <trkpt lat="22.523595" lon="108.73178"><time>2026-04-25T01:51:38.699Z</time></trkpt>
      <trkpt lat="22.523595" lon="108.73178"><time>2026-04-25T01:51:38.716Z</time></trkpt>
      <trkpt lat="22.523595" lon="108.73178"><time>2026-04-25T01:51:38.733Z</time></trkpt>
      <trkpt lat="22.523595" lon="108.73178"><time>2026-04-25T01:51:38.749Z</time></trkpt>
      <trkpt lat="22.523596" lon="108.731778"><time>2026-04-25T01:51:38.766Z</time></trkpt>
      <trkpt lat="22.523596" lon="108.731778"><time>2026-04-25T01:51:38.783Z</time></trkpt>
      <trkpt lat="22.523596" lon="108.731778"><time>2026-04-25T01:51:38.799Z</time></trkpt>
      <trkpt lat="22.523596" lon="108.731778"><time>2026-04-25T01:51:38.816Z</time></trkpt>
      <trkpt lat="22.523596" lon="108.731778"><time>2026-04-25T01:51:38.833Z</time></trkpt>
      <trkpt lat="22.523596" lon="108.731778"><time>2026-04-25T01:51:38.850Z</time></trkpt>
      <trkpt lat="22.523597" lon="108.731776"><time>2026-04-25T01:51:38.866Z</time></trkpt>
      <trkpt lat="22.523597" lon="108.731776"><time>2026-04-25T01:51:38.883Z</time></trkpt>
      <trkpt lat="22.523597" lon="108.731776"><time>2026-04-25T01:51:38.900Z</time></trkpt>
      <trkpt lat="22.523597" lon="108.731776"><time>2026-04-25T01:51:38.916Z</time></trkpt>
      <trkpt lat="22.523597" lon="108.731776"><time>2026-04-25T01:51:38.933Z</time></trkpt>
      <trkpt lat="22.523597" lon="108.731776"><time>2026-04-25T01:51:38.950Z</time></trkpt>
      <trkpt lat="22.523599" lon="108.731773"><time>2026-04-25T01:51:38.966Z</time></trkpt>
      <trkpt lat="22.523599" lon="108.731773"><time>2026-04-25T01:51:38.983Z</time></trkpt>
      <trkpt lat="22.523599" lon="108.731773"><time>2026-04-25T01:51:39.000Z</time></trkpt>
      <trkpt lat="22.523599" lon="108.731773"><time>2026-04-25T01:51:39.016Z</time></trkpt>
      <trkpt lat="22.523599" lon="108.731773"><time>2026-04-25T01:51:39.033Z</time></trkpt>
      <trkpt lat="22.523599" lon="108.731773"><time>2026-04-25T01:51:39.050Z</time></trkpt>
      <trkpt lat="22.523601" lon="108.73177"><time>2026-04-25T01:51:39.066Z</time></trkpt>
      <trkpt lat="22.523601" lon="108.73177"><time>2026-04-25T01:51:39.083Z</time></trkpt>
      <trkpt lat="22.523601" lon="108.73177"><time>2026-04-25T01:51:39.100Z</time></trkpt>
      <trkpt lat="22.523601" lon="108.73177"><time>2026-04-25T01:51:39.116Z</time></trkpt>
      <trkpt lat="22.523601" lon="108.73177"><time>2026-04-25T01:51:39.133Z</time></trkpt>
      <trkpt lat="22.523601" lon="108.73177"><time>2026-04-25T01:51:39.150Z</time></trkpt>
      <trkpt lat="22.523603" lon="108.731767"><time>2026-04-25T01:51:39.166Z</time></trkpt>
      <trkpt lat="22.523603" lon="108.731767"><time>2026-04-25T01:51:39.183Z</time></trkpt>
      <trkpt lat="22.523603" lon="108.731767"><time>2026-04-25T01:51:39.200Z</time></trkpt>
      <trkpt lat="22.523603" lon="108.731767"><time>2026-04-25T01:51:39.216Z</time></trkpt>
      <trkpt lat="22.523603" lon="108.731767"><time>2026-04-25T01:51:39.233Z</time></trkpt>
      <trkpt lat="22.523603" lon="108.731767"><time>2026-04-25T01:51:39.250Z</time></trkpt>
      <trkpt lat="22.523606" lon="108.731763"><time>2026-04-25T01:51:39.267Z</time></trkpt>
      <trkpt lat="22.523606" lon="108.731763"><time>2026-04-25T01:51:39.283Z</time></trkpt>
      <trkpt lat="22.523606" lon="108.731763"><time>2026-04-25T01:51:39.300Z</time></trkpt>
      <trkpt lat="22.523606" lon="108.731763"><time>2026-04-25T01:51:39.317Z</time></trkpt>
      <trkpt lat="22.523606" lon="108.731763"><time>2026-04-25T01:51:39.333Z</time></trkpt>
      <trkpt lat="22.523606" lon="108.731763"><time>2026-04-25T01:51:39.350Z</time></trkpt>
      <trkpt lat="22.523608" lon="108.731758"><time>2026-04-25T01:51:39.367Z</time></trkpt>
      <trkpt lat="22.523608" lon="108.731758"><time>2026-04-25T01:51:39.383Z</time></trkpt>
      <trkpt lat="22.523608" lon="108.731758"><time>2026-04-25T01:51:39.400Z</time></trkpt>
      <trkpt lat="22.523608" lon="108.731758"><time>2026-04-25T01:51:39.417Z</time></trkpt>
      <trkpt lat="22.523608" lon="108.731758"><time>2026-04-25T01:51:39.433Z</time></trkpt>
      <trkpt lat="22.523608" lon="108.731758"><time>2026-04-25T01:51:39.450Z</time></trkpt>
      <trkpt lat="22.523611" lon="108.731753"><time>2026-04-25T01:51:39.467Z</time></trkpt>
      <trkpt lat="22.523611" lon="108.731753"><time>2026-04-25T01:51:39.483Z</time></trkpt>
      <trkpt lat="22.523611" lon="108.731753"><time>2026-04-25T01:51:39.500Z</time></trkpt>
      <trkpt lat="22.523611" lon="108.731753"><time>2026-04-25T01:51:39.517Z</time></trkpt>
      <trkpt lat="22.523611" lon="108.731753"><time>2026-04-25T01:51:39.533Z</time></trkpt>
      <trkpt lat="22.523611" lon="108.731753"><time>2026-04-25T01:51:39.550Z</time></trkpt>
      <trkpt lat="22.523614" lon="108.731748"><time>2026-04-25T01:51:39.567Z</time></trkpt>
      <trkpt lat="22.523614" lon="108.731748"><time>2026-04-25T01:51:39.583Z</time></trkpt>
      <trkpt lat="22.523614" lon="108.731748"><time>2026-04-25T01:51:39.600Z</time></trkpt>
      <trkpt lat="22.523614" lon="108.731748"><time>2026-04-25T01:51:39.617Z</time></trkpt>
      <trkpt lat="22.523614" lon="108.731748"><time>2026-04-25T01:51:39.633Z</time></trkpt>
      <trkpt lat="22.523614" lon="108.731748"><time>2026-04-25T01:51:39.650Z</time></trkpt>
      <trkpt lat="22.523618" lon="108.731742"><time>2026-04-25T01:51:39.667Z</time></trkpt>
      <trkpt lat="22.523618" lon="108.731742"><time>2026-04-25T01:51:39.684Z</time></trkpt>
      <trkpt lat="22.523618" lon="108.731742"><time>2026-04-25T01:51:39.700Z</time></trkpt>
      <trkpt lat="22.523618" lon="108.731742"><time>2026-04-25T01:51:39.717Z</time></trkpt>
      <trkpt lat="22.523618" lon="108.731742"><time>2026-04-25T01:51:39.734Z</time></trkpt>
      <trkpt lat="22.523618" lon="108.731742"><time>2026-04-25T01:51:39.750Z</time></trkpt>
      <trkpt lat="22.523621" lon="108.731736"><time>2026-04-25T01:51:39.767Z</time></trkpt>
      <trkpt lat="22.523621" lon="108.731736"><time>2026-04-25T01:51:39.784Z</time></trkpt>
      <trkpt lat="22.523621" lon="108.731736"><time>2026-04-25T01:51:39.800Z</time></trkpt>
      <trkpt lat="22.523621" lon="108.731736"><time>2026-04-25T01:51:39.817Z</time></trkpt>
      <trkpt lat="22.523621" lon="108.731736"><time>2026-04-25T01:51:39.834Z</time></trkpt>
      <trkpt lat="22.523621" lon="108.731736"><time>2026-04-25T01:51:39.850Z</time></trkpt>
      <trkpt lat="22.523625" lon="108.73173"><time>2026-04-25T01:51:39.867Z</time></trkpt>
      <trkpt lat="22.523625" lon="108.73173"><time>2026-04-25T01:51:39.884Z</time></trkpt>
      <trkpt lat="22.523625" lon="108.73173"><time>2026-04-25T01:51:39.900Z</time></trkpt>
      <trkpt lat="22.523625" lon="108.73173"><time>2026-04-25T01:51:39.917Z</time></trkpt>
      <trkpt lat="22.523625" lon="108.73173"><time>2026-04-25T01:51:39.934Z</time></trkpt>
      <trkpt lat="22.523625" lon="108.73173"><time>2026-04-25T01:51:39.950Z</time></trkpt>
      <trkpt lat="22.523629" lon="108.731723"><time>2026-04-25T01:51:39.967Z</time></trkpt>
      <trkpt lat="22.523629" lon="108.731723"><time>2026-04-25T01:51:39.984Z</time></trkpt>
      <trkpt lat="22.523629" lon="108.731723"><time>2026-04-25T01:51:40.000Z</time></trkpt>
      <trkpt lat="22.523629" lon="108.731723"><time>2026-04-25T01:51:40.017Z</time></trkpt>
      <trkpt lat="22.523629" lon="108.731723"><time>2026-04-25T01:51:40.034Z</time></trkpt>
      <trkpt lat="22.523629" lon="108.731723"><time>2026-04-25T01:51:40.050Z</time></trkpt>
      <trkpt lat="22.523634" lon="108.731715"><time>2026-04-25T01:51:40.067Z</time></trkpt>
      <trkpt lat="22.523634" lon="108.731715"><time>2026-04-25T01:51:40.084Z</time></trkpt>
      <trkpt lat="22.523634" lon="108.731715"><time>2026-04-25T01:51:40.101Z</time></trkpt>
      <trkpt lat="22.523634" lon="108.731715"><time>2026-04-25T01:51:40.117Z</time></trkpt>
      <trkpt lat="22.523634" lon="108.731715"><time>2026-04-25T01:51:40.134Z</time></trkpt>
      <trkpt lat="22.523634" lon="108.731715"><time>2026-04-25T01:51:40.151Z</time></trkpt>
      <trkpt lat="22.523639" lon="108.731707"><time>2026-04-25T01:51:40.167Z</time></trkpt>
      <trkpt lat="22.523639" lon="108.731707"><time>2026-04-25T01:51:40.184Z</time></trkpt>
      <trkpt lat="22.523639" lon="108.731707"><time>2026-04-25T01:51:40.201Z</time></trkpt>
      <trkpt lat="22.523639" lon="108.731707"><time>2026-04-25T01:51:40.217Z</time></trkpt>
      <trkpt lat="22.523639" lon="108.731707"><time>2026-04-25T01:51:40.234Z</time></trkpt>
      <trkpt lat="22.523639" lon="108.731707"><time>2026-04-25T01:51:40.251Z</time></trkpt>
      <trkpt lat="22.523643" lon="108.7317"><time>2026-04-25T01:51:40.267Z</time></trkpt>
      <trkpt lat="22.523643" lon="108.7317"><time>2026-04-25T01:51:40.284Z</time></trkpt>
      <trkpt lat="22.523643" lon="108.7317"><time>2026-04-25T01:51:40.301Z</time></trkpt>
      <trkpt lat="22.523643" lon="108.7317"><time>2026-04-25T01:51:40.317Z</time></trkpt>
      <trkpt lat="22.523643" lon="108.7317"><time>2026-04-25T01:51:40.334Z</time></trkpt>
      <trkpt lat="22.523643" lon="108.7317"><time>2026-04-25T01:51:40.351Z</time></trkpt>
      <trkpt lat="22.523649" lon="108.731691"><time>2026-04-25T01:51:40.367Z</time></trkpt>
      <trkpt lat="22.523649" lon="108.731691"><time>2026-04-25T01:51:40.384Z</time></trkpt>
      <trkpt lat="22.523649" lon="108.731691"><time>2026-04-25T01:51:40.401Z</time></trkpt>
      <trkpt lat="22.523649" lon="108.731691"><time>2026-04-25T01:51:40.417Z</time></trkpt>
      <trkpt lat="22.523649" lon="108.731691"><time>2026-04-25T01:51:40.434Z</time></trkpt>
      <trkpt lat="22.523649" lon="108.731691"><time>2026-04-25T01:51:40.451Z</time></trkpt>
      <trkpt lat="22.523657" lon="108.731684"><time>2026-04-25T01:51:40.467Z</time></trkpt>
      <trkpt lat="22.523657" lon="108.731684"><time>2026-04-25T01:51:40.484Z</time></trkpt>
      <trkpt lat="22.523657" lon="108.731684"><time>2026-04-25T01:51:40.501Z</time></trkpt>
      <trkpt lat="22.523657" lon="108.731684"><time>2026-04-25T01:51:40.518Z</time></trkpt>
      <trkpt lat="22.523657" lon="108.731684"><time>2026-04-25T01:51:40.534Z</time></trkpt>
      <trkpt lat="22.523657" lon="108.731684"><time>2026-04-25T01:51:40.551Z</time></trkpt>
      <trkpt lat="22.523663" lon="108.731674"><time>2026-04-25T01:51:40.568Z</time></trkpt>
      <trkpt lat="22.523663" lon="108.731674"><time>2026-04-25T01:51:40.584Z</time></trkpt>
      <trkpt lat="22.523663" lon="108.731674"><time>2026-04-25T01:51:40.601Z</time></trkpt>
      <trkpt lat="22.523663" lon="108.731674"><time>2026-04-25T01:51:40.618Z</time></trkpt>
      <trkpt lat="22.523663" lon="108.731674"><time>2026-04-25T01:51:40.634Z</time></trkpt>
      <trkpt lat="22.523663" lon="108.731674"><time>2026-04-25T01:51:40.651Z</time></trkpt>
      <trkpt lat="22.523668" lon="108.731665"><time>2026-04-25T01:51:40.668Z</time></trkpt>
      <trkpt lat="22.523668" lon="108.731665"><time>2026-04-25T01:51:40.684Z</time></trkpt>
      <trkpt lat="22.523668" lon="108.731665"><time>2026-04-25T01:51:40.701Z</time></trkpt>
      <trkpt lat="22.523668" lon="108.731665"><time>2026-04-25T01:51:40.718Z</time></trkpt>
      <trkpt lat="22.523668" lon="108.731665"><time>2026-04-25T01:51:40.734Z</time></trkpt>
      <trkpt lat="22.523668" lon="108.731665"><time>2026-04-25T01:51:40.751Z</time></trkpt>
      <trkpt lat="22.523674" lon="108.731655"><time>2026-04-25T01:51:40.768Z</time></trkpt>
      <trkpt lat="22.523674" lon="108.731655"><time>2026-04-25T01:51:40.784Z</time></trkpt>
      <trkpt lat="22.523674" lon="108.731655"><time>2026-04-25T01:51:40.801Z</time></trkpt>
      <trkpt lat="22.523674" lon="108.731655"><time>2026-04-25T01:51:40.818Z</time></trkpt>
      <trkpt lat="22.523674" lon="108.731655"><time>2026-04-25T01:51:40.834Z</time></trkpt>
      <trkpt lat="22.523674" lon="108.731655"><time>2026-04-25T01:51:40.851Z</time></trkpt>
      <trkpt lat="22.52368" lon="108.731645"><time>2026-04-25T01:51:40.868Z</time></trkpt>
      <trkpt lat="22.52368" lon="108.731645"><time>2026-04-25T01:51:40.884Z</time></trkpt>
      <trkpt lat="22.52368" lon="108.731645"><time>2026-04-25T01:51:40.901Z</time></trkpt>
      <trkpt lat="22.52368" lon="108.731645"><time>2026-04-25T01:51:40.918Z</time></trkpt>
      <trkpt lat="22.52368" lon="108.731645"><time>2026-04-25T01:51:40.935Z</time></trkpt>
      <trkpt lat="22.52368" lon="108.731645"><time>2026-04-25T01:51:40.951Z</time></trkpt>
      <trkpt lat="22.523686" lon="108.731635"><time>2026-04-25T01:51:40.968Z</time></trkpt>
      <trkpt lat="22.523686" lon="108.731635"><time>2026-04-25T01:51:40.985Z</time></trkpt>
      <trkpt lat="22.523686" lon="108.731635"><time>2026-04-25T01:51:41.001Z</time></trkpt>
      <trkpt lat="22.523686" lon="108.731635"><time>2026-04-25T01:51:41.018Z</time></trkpt>
      <trkpt lat="22.523686" lon="108.731635"><time>2026-04-25T01:51:41.035Z</time></trkpt>
      <trkpt lat="22.523686" lon="108.731635"><time>2026-04-25T01:51:41.051Z</time></trkpt>
      <trkpt lat="22.523693" lon="108.731624"><time>2026-04-25T01:51:41.068Z</time></trkpt>
      <trkpt lat="22.523693" lon="108.731624"><time>2026-04-25T01:51:41.085Z</time></trkpt>
      <trkpt lat="22.523693" lon="108.731624"><time>2026-04-25T01:51:41.101Z</time></trkpt>
      <trkpt lat="22.523693" lon="108.731624"><time>2026-04-25T01:51:41.118Z</time></trkpt>
      <trkpt lat="22.523693" lon="108.731624"><time>2026-04-25T01:51:41.135Z</time></trkpt>
      <trkpt lat="22.523693" lon="108.731624"><time>2026-04-25T01:51:41.151Z</time></trkpt>
      <trkpt lat="22.523699" lon="108.731614"><time>2026-04-25T01:51:41.168Z</time></trkpt>
      <trkpt lat="22.523699" lon="108.731614"><time>2026-04-25T01:51:41.185Z</time></trkpt>
      <trkpt lat="22.523699" lon="108.731614"><time>2026-04-25T01:51:41.201Z</time></trkpt>
      <trkpt lat="22.523699" lon="108.731614"><time>2026-04-25T01:51:41.218Z</time></trkpt>
      <trkpt lat="22.523699" lon="108.731614"><time>2026-04-25T01:51:41.235Z</time></trkpt>
      <trkpt lat="22.523699" lon="108.731614"><time>2026-04-25T01:51:41.251Z</time></trkpt>
      <trkpt lat="22.523705" lon="108.731604"><time>2026-04-25T01:51:41.268Z</time></trkpt>
      <trkpt lat="22.523705" lon="108.731604"><time>2026-04-25T01:51:41.285Z</time></trkpt>
      <trkpt lat="22.523705" lon="108.731604"><time>2026-04-25T01:51:41.301Z</time></trkpt>
      <trkpt lat="22.523705" lon="108.731604"><time>2026-04-25T01:51:41.318Z</time></trkpt>
      <trkpt lat="22.523705" lon="108.731604"><time>2026-04-25T01:51:41.335Z</time></trkpt>
      <trkpt lat="22.523705" lon="108.731604"><time>2026-04-25T01:51:41.352Z</time></trkpt>
      <trkpt lat="22.523711" lon="108.731593"><time>2026-04-25T01:51:41.368Z</time></trkpt>
      <trkpt lat="22.523711" lon="108.731593"><time>2026-04-25T01:51:41.385Z</time></trkpt>
      <trkpt lat="22.523711" lon="108.731593"><time>2026-04-25T01:51:41.402Z</time></trkpt>
      <trkpt lat="22.523711" lon="108.731593"><time>2026-04-25T01:51:41.418Z</time></trkpt>
      <trkpt lat="22.523711" lon="108.731593"><time>2026-04-25T01:51:41.435Z</time></trkpt>
      <trkpt lat="22.523711" lon="108.731593"><time>2026-04-25T01:51:41.452Z</time></trkpt>
      <trkpt lat="22.523719" lon="108.731582"><time>2026-04-25T01:51:41.468Z</time></trkpt>
      <trkpt lat="22.523719" lon="108.731582"><time>2026-04-25T01:51:41.485Z</time></trkpt>
      <trkpt lat="22.523719" lon="108.731582"><time>2026-04-25T01:51:41.502Z</time></trkpt>
      <trkpt lat="22.523719" lon="108.731582"><time>2026-04-25T01:51:41.518Z</time></trkpt>
      <trkpt lat="22.523719" lon="108.731582"><time>2026-04-25T01:51:41.535Z</time></trkpt>
      <trkpt lat="22.523719" lon="108.731582"><time>2026-04-25T01:51:41.552Z</time></trkpt>
      <trkpt lat="22.523725" lon="108.73157"><time>2026-04-25T01:51:41.568Z</time></trkpt>
      <trkpt lat="22.523725" lon="108.73157"><time>2026-04-25T01:51:41.585Z</time></trkpt>
      <trkpt lat="22.523725" lon="108.73157"><time>2026-04-25T01:51:41.602Z</time></trkpt>
      <trkpt lat="22.523725" lon="108.73157"><time>2026-04-25T01:51:41.618Z</time></trkpt>
      <trkpt lat="22.523725" lon="108.73157"><time>2026-04-25T01:51:41.635Z</time></trkpt>
      <trkpt lat="22.523725" lon="108.73157"><time>2026-04-25T01:51:41.652Z</time></trkpt>
      <trkpt lat="22.523732" lon="108.731559"><time>2026-04-25T01:51:41.668Z</time></trkpt>
      <trkpt lat="22.523732" lon="108.731559"><time>2026-04-25T01:51:41.685Z</time></trkpt>
      <trkpt lat="22.523732" lon="108.731559"><time>2026-04-25T01:51:41.702Z</time></trkpt>
      <trkpt lat="22.523732" lon="108.731559"><time>2026-04-25T01:51:41.718Z</time></trkpt>
      <trkpt lat="22.523732" lon="108.731559"><time>2026-04-25T01:51:41.735Z</time></trkpt>
      <trkpt lat="22.523732" lon="108.731559"><time>2026-04-25T01:51:41.752Z</time></trkpt>
      <trkpt lat="22.523739" lon="108.731547"><time>2026-04-25T01:51:41.769Z</time></trkpt>
      <trkpt lat="22.523739" lon="108.731547"><time>2026-04-25T01:51:41.785Z</time></trkpt>
      <trkpt lat="22.523739" lon="108.731547"><time>2026-04-25T01:51:41.802Z</time></trkpt>
      <trkpt lat="22.523739" lon="108.731547"><time>2026-04-25T01:51:41.819Z</time></trkpt>
      <trkpt lat="22.523739" lon="108.731547"><time>2026-04-25T01:51:41.835Z</time></trkpt>
      <trkpt lat="22.523739" lon="108.731547"><time>2026-04-25T01:51:41.852Z</time></trkpt>
      <trkpt lat="22.523745" lon="108.731536"><time>2026-04-25T01:51:41.869Z</time></trkpt>
      <trkpt lat="22.523745" lon="108.731536"><time>2026-04-25T01:51:41.885Z</time></trkpt>
      <trkpt lat="22.523745" lon="108.731536"><time>2026-04-25T01:51:41.902Z</time></trkpt>
      <trkpt lat="22.523745" lon="108.731536"><time>2026-04-25T01:51:41.919Z</time></trkpt>
      <trkpt lat="22.523745" lon="108.731536"><time>2026-04-25T01:51:41.935Z</time></trkpt>
      <trkpt lat="22.523745" lon="108.731536"><time>2026-04-25T01:51:41.952Z</time></trkpt>
      <trkpt lat="22.523753" lon="108.731524"><time>2026-04-25T01:51:41.969Z</time></trkpt>
      <trkpt lat="22.523753" lon="108.731524"><time>2026-04-25T01:51:41.985Z</time></trkpt>
      <trkpt lat="22.523753" lon="108.731524"><time>2026-04-25T01:51:42.002Z</time></trkpt>
      <trkpt lat="22.523753" lon="108.731524"><time>2026-04-25T01:51:42.019Z</time></trkpt>
      <trkpt lat="22.523753" lon="108.731524"><time>2026-04-25T01:51:42.035Z</time></trkpt>
      <trkpt lat="22.523753" lon="108.731524"><time>2026-04-25T01:51:42.052Z</time></trkpt>
      <trkpt lat="22.52376" lon="108.731512"><time>2026-04-25T01:51:42.069Z</time></trkpt>
      <trkpt lat="22.52376" lon="108.731512"><time>2026-04-25T01:51:42.085Z</time></trkpt>
      <trkpt lat="22.52376" lon="108.731512"><time>2026-04-25T01:51:42.102Z</time></trkpt>
      <trkpt lat="22.52376" lon="108.731512"><time>2026-04-25T01:51:42.119Z</time></trkpt>
      <trkpt lat="22.52376" lon="108.731512"><time>2026-04-25T01:51:42.135Z</time></trkpt>
      <trkpt lat="22.52376" lon="108.731512"><time>2026-04-25T01:51:42.152Z</time></trkpt>
      <trkpt lat="22.523767" lon="108.7315"><time>2026-04-25T01:51:42.169Z</time></trkpt>
      <trkpt lat="22.523767" lon="108.7315"><time>2026-04-25T01:51:42.186Z</time></trkpt>
      <trkpt lat="22.523767" lon="108.7315"><time>2026-04-25T01:51:42.202Z</time></trkpt>
      <trkpt lat="22.523767" lon="108.7315"><time>2026-04-25T01:51:42.219Z</time></trkpt>
      <trkpt lat="22.523767" lon="108.7315"><time>2026-04-25T01:51:42.236Z</time></trkpt>
      <trkpt lat="22.523767" lon="108.7315"><time>2026-04-25T01:51:42.252Z</time></trkpt>
      <trkpt lat="22.523774" lon="108.731488"><time>2026-04-25T01:51:42.269Z</time></trkpt>
      <trkpt lat="22.523774" lon="108.731488"><time>2026-04-25T01:51:42.286Z</time></trkpt>
      <trkpt lat="22.523774" lon="108.731488"><time>2026-04-25T01:51:42.302Z</time></trkpt>
      <trkpt lat="22.523774" lon="108.731488"><time>2026-04-25T01:51:42.319Z</time></trkpt>
      <trkpt lat="22.523774" lon="108.731488"><time>2026-04-25T01:51:42.336Z</time></trkpt>
      <trkpt lat="22.523774" lon="108.731488"><time>2026-04-25T01:51:42.352Z</time></trkpt>
      <trkpt lat="22.523782" lon="108.731475"><time>2026-04-25T01:51:42.369Z</time></trkpt>
      <trkpt lat="22.523782" lon="108.731475"><time>2026-04-25T01:51:42.386Z</time></trkpt>
      <trkpt lat="22.523782" lon="108.731475"><time>2026-04-25T01:51:42.402Z</time></trkpt>
      <trkpt lat="22.523782" lon="108.731475"><time>2026-04-25T01:51:42.419Z</time></trkpt>
      <trkpt lat="22.523782" lon="108.731475"><time>2026-04-25T01:51:42.436Z</time></trkpt>
      <trkpt lat="22.523782" lon="108.731475"><time>2026-04-25T01:51:42.452Z</time></trkpt>
      <trkpt lat="22.52379" lon="108.731463"><time>2026-04-25T01:51:42.469Z</time></trkpt>
      <trkpt lat="22.52379" lon="108.731463"><time>2026-04-25T01:51:42.486Z</time></trkpt>
      <trkpt lat="22.52379" lon="108.731463"><time>2026-04-25T01:51:42.502Z</time></trkpt>
      <trkpt lat="22.52379" lon="108.731463"><time>2026-04-25T01:51:42.519Z</time></trkpt>
      <trkpt lat="22.52379" lon="108.731463"><time>2026-04-25T01:51:42.536Z</time></trkpt>
      <trkpt lat="22.523797" lon="108.73145"><time>2026-04-25T01:51:42.552Z</time></trkpt>
      <trkpt lat="22.523797" lon="108.73145"><time>2026-04-25T01:51:42.569Z</time></trkpt>
      <trkpt lat="22.523797" lon="108.73145"><time>2026-04-25T01:51:42.586Z</time></trkpt>
      <trkpt lat="22.523797" lon="108.73145"><time>2026-04-25T01:51:42.603Z</time></trkpt>
      <trkpt lat="22.523797" lon="108.73145"><time>2026-04-25T01:51:42.619Z</time></trkpt>
      <trkpt lat="22.523797" lon="108.73145"><time>2026-04-25T01:51:42.636Z</time></trkpt>
      <trkpt lat="22.523797" lon="108.73145"><time>2026-04-25T01:51:42.653Z</time></trkpt>
      <trkpt lat="22.523805" lon="108.731437"><time>2026-04-25T01:51:42.669Z</time></trkpt>
      <trkpt lat="22.523805" lon="108.731437"><time>2026-04-25T01:51:42.686Z</time></trkpt>
      <trkpt lat="22.523805" lon="108.731437"><time>2026-04-25T01:51:42.703Z</time></trkpt>
      <trkpt lat="22.523805" lon="108.731437"><time>2026-04-25T01:51:42.719Z</time></trkpt>
      <trkpt lat="22.523805" lon="108.731437"><time>2026-04-25T01:51:42.736Z</time></trkpt>
      <trkpt lat="22.523805" lon="108.731437"><time>2026-04-25T01:51:42.753Z</time></trkpt>
      <trkpt lat="22.523813" lon="108.731424"><time>2026-04-25T01:51:42.769Z</time></trkpt>
      <trkpt lat="22.523813" lon="108.731424"><time>2026-04-25T01:51:42.786Z</time></trkpt>
      <trkpt lat="22.523813" lon="108.731424"><time>2026-04-25T01:51:42.803Z</time></trkpt>
      <trkpt lat="22.523813" lon="108.731424"><time>2026-04-25T01:51:42.819Z</time></trkpt>
      <trkpt lat="22.523813" lon="108.731424"><time>2026-04-25T01:51:42.836Z</time></trkpt>
      <trkpt lat="22.523821" lon="108.731411"><time>2026-04-25T01:51:42.853Z</time></trkpt>
      <trkpt lat="22.523821" lon="108.731411"><time>2026-04-25T01:51:42.869Z</time></trkpt>
      <trkpt lat="22.523821" lon="108.731411"><time>2026-04-25T01:51:42.886Z</time></trkpt>
      <trkpt lat="22.523821" lon="108.731411"><time>2026-04-25T01:51:42.903Z</time></trkpt>
      <trkpt lat="22.523821" lon="108.731411"><time>2026-04-25T01:51:42.919Z</time></trkpt>
      <trkpt lat="22.523821" lon="108.731411"><time>2026-04-25T01:51:42.936Z</time></trkpt>
      <trkpt lat="22.523829" lon="108.731398"><time>2026-04-25T01:51:42.953Z</time></trkpt>
      <trkpt lat="22.523829" lon="108.731398"><time>2026-04-25T01:51:42.969Z</time></trkpt>
      <trkpt lat="22.523829" lon="108.731398"><time>2026-04-25T01:51:42.986Z</time></trkpt>
      <trkpt lat="22.523829" lon="108.731398"><time>2026-04-25T01:51:43.003Z</time></trkpt>
      <trkpt lat="22.523829" lon="108.731398"><time>2026-04-25T01:51:43.020Z</time></trkpt>
      <trkpt lat="22.523829" lon="108.731398"><time>2026-04-25T01:51:43.036Z</time></trkpt>
      <trkpt lat="22.523837" lon="108.731385"><time>2026-04-25T01:51:43.053Z</time></trkpt>
      <trkpt lat="22.523837" lon="108.731385"><time>2026-04-25T01:51:43.070Z</time></trkpt>
      <trkpt lat="22.523837" lon="108.731385"><time>2026-04-25T01:51:43.086Z</time></trkpt>
      <trkpt lat="22.523837" lon="108.731385"><time>2026-04-25T01:51:43.103Z</time></trkpt>
      <trkpt lat="22.523837" lon="108.731385"><time>2026-04-25T01:51:43.120Z</time></trkpt>
      <trkpt lat="22.523837" lon="108.731385"><time>2026-04-25T01:51:43.136Z</time></trkpt>
      <trkpt lat="22.523846" lon="108.731371"><time>2026-04-25T01:51:43.153Z</time></trkpt>
      <trkpt lat="22.523846" lon="108.731371"><time>2026-04-25T01:51:43.170Z</time></trkpt>
      <trkpt lat="22.523846" lon="108.731371"><time>2026-04-25T01:51:43.186Z</time></trkpt>
      <trkpt lat="22.523846" lon="108.731371"><time>2026-04-25T01:51:43.203Z</time></trkpt>
      <trkpt lat="22.523846" lon="108.731371"><time>2026-04-25T01:51:43.220Z</time></trkpt>
      <trkpt lat="22.523846" lon="108.731371"><time>2026-04-25T01:51:43.236Z</time></trkpt>
      <trkpt lat="22.523854" lon="108.731358"><time>2026-04-25T01:51:43.253Z</time></trkpt>
      <trkpt lat="22.523854" lon="108.731358"><time>2026-04-25T01:51:43.270Z</time></trkpt>
      <trkpt lat="22.523854" lon="108.731358"><time>2026-04-25T01:51:43.286Z</time></trkpt>
      <trkpt lat="22.523854" lon="108.731358"><time>2026-04-25T01:51:43.303Z</time></trkpt>
      <trkpt lat="22.523854" lon="108.731358"><time>2026-04-25T01:51:43.320Z</time></trkpt>
      <trkpt lat="22.523854" lon="108.731358"><time>2026-04-25T01:51:43.336Z</time></trkpt>
      <trkpt lat="22.523862" lon="108.731344"><time>2026-04-25T01:51:43.353Z</time></trkpt>
      <trkpt lat="22.523862" lon="108.731344"><time>2026-04-25T01:51:43.370Z</time></trkpt>
      <trkpt lat="22.523862" lon="108.731344"><time>2026-04-25T01:51:43.386Z</time></trkpt>
      <trkpt lat="22.523862" lon="108.731344"><time>2026-04-25T01:51:43.403Z</time></trkpt>
      <trkpt lat="22.523862" lon="108.731344"><time>2026-04-25T01:51:43.420Z</time></trkpt>
      <trkpt lat="22.523862" lon="108.731344"><time>2026-04-25T01:51:43.437Z</time></trkpt>
      <trkpt lat="22.523871" lon="108.731331"><time>2026-04-25T01:51:43.453Z</time></trkpt>
      <trkpt lat="22.523871" lon="108.731331"><time>2026-04-25T01:51:43.470Z</time></trkpt>
      <trkpt lat="22.523871" lon="108.731331"><time>2026-04-25T01:51:43.487Z</time></trkpt>
      <trkpt lat="22.523871" lon="108.731331"><time>2026-04-25T01:51:43.503Z</time></trkpt>
      <trkpt lat="22.523871" lon="108.731331"><time>2026-04-25T01:51:43.520Z</time></trkpt>
      <trkpt lat="22.523871" lon="108.731331"><time>2026-04-25T01:51:43.537Z</time></trkpt>
      <trkpt lat="22.523879" lon="108.731317"><time>2026-04-25T01:51:43.553Z</time></trkpt>
      <trkpt lat="22.523879" lon="108.731317"><time>2026-04-25T01:51:43.570Z</time></trkpt>
      <trkpt lat="22.523879" lon="108.731317"><time>2026-04-25T01:51:43.587Z</time></trkpt>
      <trkpt lat="22.523879" lon="108.731317"><time>2026-04-25T01:51:43.603Z</time></trkpt>
      <trkpt lat="22.523879" lon="108.731317"><time>2026-04-25T01:51:43.620Z</time></trkpt>
      <trkpt lat="22.523879" lon="108.731317"><time>2026-04-25T01:51:43.637Z</time></trkpt>
      <trkpt lat="22.523888" lon="108.731303"><time>2026-04-25T01:51:43.653Z</time></trkpt>
      <trkpt lat="22.523888" lon="108.731303"><time>2026-04-25T01:51:43.670Z</time></trkpt>
      <trkpt lat="22.523888" lon="108.731303"><time>2026-04-25T01:51:43.687Z</time></trkpt>
      <trkpt lat="22.523888" lon="108.731303"><time>2026-04-25T01:51:43.703Z</time></trkpt>
      <trkpt lat="22.523888" lon="108.731303"><time>2026-04-25T01:51:43.720Z</time></trkpt>
      <trkpt lat="22.523888" lon="108.731303"><time>2026-04-25T01:51:43.737Z</time></trkpt>
      <trkpt lat="22.523897" lon="108.731289"><time>2026-04-25T01:51:43.753Z</time></trkpt>
      <trkpt lat="22.523897" lon="108.731289"><time>2026-04-25T01:51:43.770Z</time></trkpt>
      <trkpt lat="22.523897" lon="108.731289"><time>2026-04-25T01:51:43.787Z</time></trkpt>
      <trkpt lat="22.523897" lon="108.731289"><time>2026-04-25T01:51:43.803Z</time></trkpt>
      <trkpt lat="22.523897" lon="108.731289"><time>2026-04-25T01:51:43.820Z</time></trkpt>
      <trkpt lat="22.523897" lon="108.731289"><time>2026-04-25T01:51:43.837Z</time></trkpt>
      <trkpt lat="22.523905" lon="108.731274"><time>2026-04-25T01:51:43.854Z</time></trkpt>
      <trkpt lat="22.523905" lon="108.731274"><time>2026-04-25T01:51:43.870Z</time></trkpt>
      <trkpt lat="22.523905" lon="108.731274"><time>2026-04-25T01:51:43.887Z</time></trkpt>
      <trkpt lat="22.523905" lon="108.731274"><time>2026-04-25T01:51:43.904Z</time></trkpt>
      <trkpt lat="22.523905" lon="108.731274"><time>2026-04-25T01:51:43.920Z</time></trkpt>
      <trkpt lat="22.523905" lon="108.731274"><time>2026-04-25T01:51:43.937Z</time></trkpt>
      <trkpt lat="22.523914" lon="108.73126"><time>2026-04-25T01:51:43.954Z</time></trkpt>
      <trkpt lat="22.523914" lon="108.73126"><time>2026-04-25T01:51:43.970Z</time></trkpt>
      <trkpt lat="22.523914" lon="108.73126"><time>2026-04-25T01:51:43.987Z</time></trkpt>
      <trkpt lat="22.523914" lon="108.73126"><time>2026-04-25T01:51:44.004Z</time></trkpt>
      <trkpt lat="22.523914" lon="108.73126"><time>2026-04-25T01:51:44.020Z</time></trkpt>
      <trkpt lat="22.523914" lon="108.73126"><time>2026-04-25T01:51:44.037Z</time></trkpt>
      <trkpt lat="22.523923" lon="108.731246"><time>2026-04-25T01:51:44.054Z</time></trkpt>
      <trkpt lat="22.523923" lon="108.731246"><time>2026-04-25T01:51:44.070Z</time></trkpt>
      <trkpt lat="22.523923" lon="108.731246"><time>2026-04-25T01:51:44.087Z</time></trkpt>
      <trkpt lat="22.523923" lon="108.731246"><time>2026-04-25T01:51:44.104Z</time></trkpt>
      <trkpt lat="22.523923" lon="108.731246"><time>2026-04-25T01:51:44.120Z</time></trkpt>
      <trkpt lat="22.523923" lon="108.731246"><time>2026-04-25T01:51:44.137Z</time></trkpt>
      <trkpt lat="22.523932" lon="108.731231"><time>2026-04-25T01:51:44.154Z</time></trkpt>
      <trkpt lat="22.523932" lon="108.731231"><time>2026-04-25T01:51:44.170Z</time></trkpt>
      <trkpt lat="22.523932" lon="108.731231"><time>2026-04-25T01:51:44.187Z</time></trkpt>
      <trkpt lat="22.523932" lon="108.731231"><time>2026-04-25T01:51:44.204Z</time></trkpt>
      <trkpt lat="22.523932" lon="108.731231"><time>2026-04-25T01:51:44.220Z</time></trkpt>
      <trkpt lat="22.523932" lon="108.731231"><time>2026-04-25T01:51:44.237Z</time></trkpt>
      <trkpt lat="22.523941" lon="108.731216"><time>2026-04-25T01:51:44.254Z</time></trkpt>
      <trkpt lat="22.523941" lon="108.731216"><time>2026-04-25T01:51:44.271Z</time></trkpt>
      <trkpt lat="22.523941" lon="108.731216"><time>2026-04-25T01:51:44.287Z</time></trkpt>
      <trkpt lat="22.523941" lon="108.731216"><time>2026-04-25T01:51:44.304Z</time></trkpt>
      <trkpt lat="22.523941" lon="108.731216"><time>2026-04-25T01:51:44.321Z</time></trkpt>
      <trkpt lat="22.523941" lon="108.731216"><time>2026-04-25T01:51:44.337Z</time></trkpt>
      <trkpt lat="22.52395" lon="108.731201"><time>2026-04-25T01:51:44.354Z</time></trkpt>
      <trkpt lat="22.52395" lon="108.731201"><time>2026-04-25T01:51:44.371Z</time></trkpt>
      <trkpt lat="22.52395" lon="108.731201"><time>2026-04-25T01:51:44.387Z</time></trkpt>
      <trkpt lat="22.52395" lon="108.731201"><time>2026-04-25T01:51:44.404Z</time></trkpt>
      <trkpt lat="22.52395" lon="108.731201"><time>2026-04-25T01:51:44.421Z</time></trkpt>
      <trkpt lat="22.52395" lon="108.731201"><time>2026-04-25T01:51:44.437Z</time></trkpt>
      <trkpt lat="22.523959" lon="108.731186"><time>2026-04-25T01:51:44.454Z</time></trkpt>
      <trkpt lat="22.523959" lon="108.731186"><time>2026-04-25T01:51:44.471Z</time></trkpt>
      <trkpt lat="22.523959" lon="108.731186"><time>2026-04-25T01:51:44.487Z</time></trkpt>
      <trkpt lat="22.523959" lon="108.731186"><time>2026-04-25T01:51:44.504Z</time></trkpt>
      <trkpt lat="22.523959" lon="108.731186"><time>2026-04-25T01:51:44.521Z</time></trkpt>
      <trkpt lat="22.523959" lon="108.731186"><time>2026-04-25T01:51:44.537Z</time></trkpt>
      <trkpt lat="22.523969" lon="108.731171"><time>2026-04-25T01:51:44.554Z</time></trkpt>
      <trkpt lat="22.523969" lon="108.731171"><time>2026-04-25T01:51:44.571Z</time></trkpt>
      <trkpt lat="22.523969" lon="108.731171"><time>2026-04-25T01:51:44.587Z</time></trkpt>
      <trkpt lat="22.523969" lon="108.731171"><time>2026-04-25T01:51:44.604Z</time></trkpt>
      <trkpt lat="22.523969" lon="108.731171"><time>2026-04-25T01:51:44.621Z</time></trkpt>
      <trkpt lat="22.523969" lon="108.731171"><time>2026-04-25T01:51:44.637Z</time></trkpt>
      <trkpt lat="22.523978" lon="108.731155"><time>2026-04-25T01:51:44.654Z</time></trkpt>
      <trkpt lat="22.523978" lon="108.731155"><time>2026-04-25T01:51:44.671Z</time></trkpt>
      <trkpt lat="22.523978" lon="108.731155"><time>2026-04-25T01:51:44.688Z</time></trkpt>
      <trkpt lat="22.523978" lon="108.731155"><time>2026-04-25T01:51:44.704Z</time></trkpt>
      <trkpt lat="22.523978" lon="108.731155"><time>2026-04-25T01:51:44.721Z</time></trkpt>
      <trkpt lat="22.523978" lon="108.731155"><time>2026-04-25T01:51:44.738Z</time></trkpt>
      <trkpt lat="22.523987" lon="108.73114"><time>2026-04-25T01:51:44.754Z</time></trkpt>
      <trkpt lat="22.523987" lon="108.73114"><time>2026-04-25T01:51:44.771Z</time></trkpt>
      <trkpt lat="22.523987" lon="108.73114"><time>2026-04-25T01:51:44.788Z</time></trkpt>
      <trkpt lat="22.523987" lon="108.73114"><time>2026-04-25T01:51:44.804Z</time></trkpt>
      <trkpt lat="22.523987" lon="108.73114"><time>2026-04-25T01:51:44.821Z</time></trkpt>
      <trkpt lat="22.523987" lon="108.73114"><time>2026-04-25T01:51:44.838Z</time></trkpt>
      <trkpt lat="22.523996" lon="108.731124"><time>2026-04-25T01:51:44.854Z</time></trkpt>
      <trkpt lat="22.523996" lon="108.731124"><time>2026-04-25T01:51:44.871Z</time></trkpt>
      <trkpt lat="22.523996" lon="108.731124"><time>2026-04-25T01:51:44.888Z</time></trkpt>
      <trkpt lat="22.523996" lon="108.731124"><time>2026-04-25T01:51:44.904Z</time></trkpt>
      <trkpt lat="22.523996" lon="108.731124"><time>2026-04-25T01:51:44.921Z</time></trkpt>
      <trkpt lat="22.523996" lon="108.731124"><time>2026-04-25T01:51:44.938Z</time></trkpt>
      <trkpt lat="22.524006" lon="108.731109"><time>2026-04-25T01:51:44.954Z</time></trkpt>
      <trkpt lat="22.524006" lon="108.731109"><time>2026-04-25T01:51:44.971Z</time></trkpt>
      <trkpt lat="22.524006" lon="108.731109"><time>2026-04-25T01:51:44.988Z</time></trkpt>
      <trkpt lat="22.524006" lon="108.731109"><time>2026-04-25T01:51:45.004Z</time></trkpt>
      <trkpt lat="22.524006" lon="108.731109"><time>2026-04-25T01:51:45.021Z</time></trkpt>
      <trkpt lat="22.524006" lon="108.731109"><time>2026-04-25T01:51:45.038Z</time></trkpt>
      <trkpt lat="22.524015" lon="108.731093"><time>2026-04-25T01:51:45.054Z</time></trkpt>
      <trkpt lat="22.524015" lon="108.731093"><time>2026-04-25T01:51:45.071Z</time></trkpt>
      <trkpt lat="22.524015" lon="108.731093"><time>2026-04-25T01:51:45.088Z</time></trkpt>
      <trkpt lat="22.524015" lon="108.731093"><time>2026-04-25T01:51:45.105Z</time></trkpt>
      <trkpt lat="22.524015" lon="108.731093"><time>2026-04-25T01:51:45.121Z</time></trkpt>
      <trkpt lat="22.524015" lon="108.731093"><time>2026-04-25T01:51:45.138Z</time></trkpt>
      <trkpt lat="22.524024" lon="108.731078"><time>2026-04-25T01:51:45.155Z</time></trkpt>
      <trkpt lat="22.524024" lon="108.731078"><time>2026-04-25T01:51:45.171Z</time></trkpt>
      <trkpt lat="22.524024" lon="108.731078"><time>2026-04-25T01:51:45.188Z</time></trkpt>
      <trkpt lat="22.524024" lon="108.731078"><time>2026-04-25T01:51:45.205Z</time></trkpt>
      <trkpt lat="22.524024" lon="108.731078"><time>2026-04-25T01:51:45.221Z</time></trkpt>
      <trkpt lat="22.524024" lon="108.731078"><time>2026-04-25T01:51:45.238Z</time></trkpt>
      <trkpt lat="22.524033" lon="108.731062"><time>2026-04-25T01:51:45.255Z</time></trkpt>
      <trkpt lat="22.524033" lon="108.731062"><time>2026-04-25T01:51:45.271Z</time></trkpt>
      <trkpt lat="22.524033" lon="108.731062"><time>2026-04-25T01:51:45.288Z</time></trkpt>
      <trkpt lat="22.524033" lon="108.731062"><time>2026-04-25T01:51:45.305Z</time></trkpt>
      <trkpt lat="22.524033" lon="108.731062"><time>2026-04-25T01:51:45.321Z</time></trkpt>
      <trkpt lat="22.524033" lon="108.731062"><time>2026-04-25T01:51:45.338Z</time></trkpt>
      <trkpt lat="22.524043" lon="108.731046"><time>2026-04-25T01:51:45.355Z</time></trkpt>
      <trkpt lat="22.524043" lon="108.731046"><time>2026-04-25T01:51:45.371Z</time></trkpt>
      <trkpt lat="22.524043" lon="108.731046"><time>2026-04-25T01:51:45.388Z</time></trkpt>
      <trkpt lat="22.524043" lon="108.731046"><time>2026-04-25T01:51:45.405Z</time></trkpt>
      <trkpt lat="22.524043" lon="108.731046"><time>2026-04-25T01:51:45.421Z</time></trkpt>
      <trkpt lat="22.524043" lon="108.731046"><time>2026-04-25T01:51:45.438Z</time></trkpt>
      <trkpt lat="22.524053" lon="108.73103"><time>2026-04-25T01:51:45.455Z</time></trkpt>
      <trkpt lat="22.524053" lon="108.73103"><time>2026-04-25T01:51:45.471Z</time></trkpt>
      <trkpt lat="22.524053" lon="108.73103"><time>2026-04-25T01:51:45.488Z</time></trkpt>
      <trkpt lat="22.524053" lon="108.73103"><time>2026-04-25T01:51:45.505Z</time></trkpt>
      <trkpt lat="22.524053" lon="108.73103"><time>2026-04-25T01:51:45.522Z</time></trkpt>
      <trkpt lat="22.524053" lon="108.73103"><time>2026-04-25T01:51:45.538Z</time></trkpt>
      <trkpt lat="22.524062" lon="108.731014"><time>2026-04-25T01:51:45.555Z</time></trkpt>
      <trkpt lat="22.524062" lon="108.731014"><time>2026-04-25T01:51:45.572Z</time></trkpt>
      <trkpt lat="22.524062" lon="108.731014"><time>2026-04-25T01:51:45.588Z</time></trkpt>
      <trkpt lat="22.524062" lon="108.731014"><time>2026-04-25T01:51:45.605Z</time></trkpt>
      <trkpt lat="22.524062" lon="108.731014"><time>2026-04-25T01:51:45.622Z</time></trkpt>
      <trkpt lat="22.524062" lon="108.731014"><time>2026-04-25T01:51:45.638Z</time></trkpt>
      <trkpt lat="22.524071" lon="108.730999"><time>2026-04-25T01:51:45.655Z</time></trkpt>
      <trkpt lat="22.524071" lon="108.730999"><time>2026-04-25T01:51:45.672Z</time></trkpt>
      <trkpt lat="22.524071" lon="108.730999"><time>2026-04-25T01:51:45.688Z</time></trkpt>
      <trkpt lat="22.524071" lon="108.730999"><time>2026-04-25T01:51:45.705Z</time></trkpt>
      <trkpt lat="22.524071" lon="108.730999"><time>2026-04-25T01:51:45.722Z</time></trkpt>
      <trkpt lat="22.524071" lon="108.730999"><time>2026-04-25T01:51:45.738Z</time></trkpt>
      <trkpt lat="22.524081" lon="108.730983"><time>2026-04-25T01:51:45.755Z</time></trkpt>
      <trkpt lat="22.524081" lon="108.730983"><time>2026-04-25T01:51:45.772Z</time></trkpt>
      <trkpt lat="22.524081" lon="108.730983"><time>2026-04-25T01:51:45.788Z</time></trkpt>
      <trkpt lat="22.524081" lon="108.730983"><time>2026-04-25T01:51:45.805Z</time></trkpt>
      <trkpt lat="22.524081" lon="108.730983"><time>2026-04-25T01:51:45.822Z</time></trkpt>
      <trkpt lat="22.524081" lon="108.730983"><time>2026-04-25T01:51:45.838Z</time></trkpt>
      <trkpt lat="22.524091" lon="108.730966"><time>2026-04-25T01:51:45.855Z</time></trkpt>
      <trkpt lat="22.524091" lon="108.730966"><time>2026-04-25T01:51:45.872Z</time></trkpt>
      <trkpt lat="22.524091" lon="108.730966"><time>2026-04-25T01:51:45.888Z</time></trkpt>
      <trkpt lat="22.524091" lon="108.730966"><time>2026-04-25T01:51:45.905Z</time></trkpt>
      <trkpt lat="22.524091" lon="108.730966"><time>2026-04-25T01:51:45.922Z</time></trkpt>
      <trkpt lat="22.524091" lon="108.730966"><time>2026-04-25T01:51:45.939Z</time></trkpt>
      <trkpt lat="22.524101" lon="108.73095"><time>2026-04-25T01:51:45.955Z</time></trkpt>
      <trkpt lat="22.524101" lon="108.73095"><time>2026-04-25T01:51:45.972Z</time></trkpt>
      <trkpt lat="22.524101" lon="108.73095"><time>2026-04-25T01:51:45.989Z</time></trkpt>
      <trkpt lat="22.524101" lon="108.73095"><time>2026-04-25T01:51:46.005Z</time></trkpt>
      <trkpt lat="22.524101" lon="108.73095"><time>2026-04-25T01:51:46.022Z</time></trkpt>
      <trkpt lat="22.524101" lon="108.73095"><time>2026-04-25T01:51:46.039Z</time></trkpt>
      <trkpt lat="22.52411" lon="108.730934"><time>2026-04-25T01:51:46.055Z</time></trkpt>
      <trkpt lat="22.52411" lon="108.730934"><time>2026-04-25T01:51:46.072Z</time></trkpt>
      <trkpt lat="22.52411" lon="108.730934"><time>2026-04-25T01:51:46.089Z</time></trkpt>
      <trkpt lat="22.52411" lon="108.730934"><time>2026-04-25T01:51:46.105Z</time></trkpt>
      <trkpt lat="22.52411" lon="108.730934"><time>2026-04-25T01:51:46.122Z</time></trkpt>
      <trkpt lat="22.52411" lon="108.730934"><time>2026-04-25T01:51:46.139Z</time></trkpt>
      <trkpt lat="22.52412" lon="108.730918"><time>2026-04-25T01:51:46.155Z</time></trkpt>
      <trkpt lat="22.52412" lon="108.730918"><time>2026-04-25T01:51:46.172Z</time></trkpt>
      <trkpt lat="22.52412" lon="108.730918"><time>2026-04-25T01:51:46.189Z</time></trkpt>
      <trkpt lat="22.52412" lon="108.730918"><time>2026-04-25T01:51:46.205Z</time></trkpt>
      <trkpt lat="22.52412" lon="108.730918"><time>2026-04-25T01:51:46.222Z</time></trkpt>
      <trkpt lat="22.52412" lon="108.730918"><time>2026-04-25T01:51:46.239Z</time></trkpt>
      <trkpt lat="22.524129" lon="108.730902"><time>2026-04-25T01:51:46.255Z</time></trkpt>
      <trkpt lat="22.524129" lon="108.730902"><time>2026-04-25T01:51:46.272Z</time></trkpt>
      <trkpt lat="22.524129" lon="108.730902"><time>2026-04-25T01:51:46.289Z</time></trkpt>
      <trkpt lat="22.524129" lon="108.730902"><time>2026-04-25T01:51:46.305Z</time></trkpt>
      <trkpt lat="22.524129" lon="108.730902"><time>2026-04-25T01:51:46.322Z</time></trkpt>
      <trkpt lat="22.524129" lon="108.730902"><time>2026-04-25T01:51:46.339Z</time></trkpt>
      <trkpt lat="22.524139" lon="108.730885"><time>2026-04-25T01:51:46.356Z</time></trkpt>
      <trkpt lat="22.524139" lon="108.730885"><time>2026-04-25T01:51:46.372Z</time></trkpt>
      <trkpt lat="22.524139" lon="108.730885"><time>2026-04-25T01:51:46.389Z</time></trkpt>
      <trkpt lat="22.524139" lon="108.730885"><time>2026-04-25T01:51:46.406Z</time></trkpt>
      <trkpt lat="22.524139" lon="108.730885"><time>2026-04-25T01:51:46.422Z</time></trkpt>
      <trkpt lat="22.524139" lon="108.730885"><time>2026-04-25T01:51:46.439Z</time></trkpt>
      <trkpt lat="22.52415" lon="108.730868"><time>2026-04-25T01:51:46.456Z</time></trkpt>
      <trkpt lat="22.52415" lon="108.730868"><time>2026-04-25T01:51:46.472Z</time></trkpt>
      <trkpt lat="22.52415" lon="108.730868"><time>2026-04-25T01:51:46.489Z</time></trkpt>
      <trkpt lat="22.52415" lon="108.730868"><time>2026-04-25T01:51:46.506Z</time></trkpt>
      <trkpt lat="22.52415" lon="108.730868"><time>2026-04-25T01:51:46.522Z</time></trkpt>
      <trkpt lat="22.52415" lon="108.730868"><time>2026-04-25T01:51:46.539Z</time></trkpt>
      <trkpt lat="22.524159" lon="108.730851"><time>2026-04-25T01:51:46.556Z</time></trkpt>
      <trkpt lat="22.524159" lon="108.730851"><time>2026-04-25T01:51:46.572Z</time></trkpt>
      <trkpt lat="22.524159" lon="108.730851"><time>2026-04-25T01:51:46.589Z</time></trkpt>
      <trkpt lat="22.524159" lon="108.730851"><time>2026-04-25T01:51:46.606Z</time></trkpt>
      <trkpt lat="22.524159" lon="108.730851"><time>2026-04-25T01:51:46.622Z</time></trkpt>
      <trkpt lat="22.524159" lon="108.730851"><time>2026-04-25T01:51:46.639Z</time></trkpt>
      <trkpt lat="22.524169" lon="108.730835"><time>2026-04-25T01:51:46.656Z</time></trkpt>
      <trkpt lat="22.524169" lon="108.730835"><time>2026-04-25T01:51:46.672Z</time></trkpt>
      <trkpt lat="22.524169" lon="108.730835"><time>2026-04-25T01:51:46.689Z</time></trkpt>
      <trkpt lat="22.524169" lon="108.730835"><time>2026-04-25T01:51:46.706Z</time></trkpt>
      <trkpt lat="22.524169" lon="108.730835"><time>2026-04-25T01:51:46.722Z</time></trkpt>
      <trkpt lat="22.524169" lon="108.730835"><time>2026-04-25T01:51:46.739Z</time></trkpt>
      <trkpt lat="22.524179" lon="108.730819"><time>2026-04-25T01:51:46.756Z</time></trkpt>
      <trkpt lat="22.524179" lon="108.730819"><time>2026-04-25T01:51:46.773Z</time></trkpt>
      <trkpt lat="22.524179" lon="108.730819"><time>2026-04-25T01:51:46.789Z</time></trkpt>
      <trkpt lat="22.524179" lon="108.730819"><time>2026-04-25T01:51:46.806Z</time></trkpt>
      <trkpt lat="22.524179" lon="108.730819"><time>2026-04-25T01:51:46.823Z</time></trkpt>
      <trkpt lat="22.524179" lon="108.730819"><time>2026-04-25T01:51:46.839Z</time></trkpt>
      <trkpt lat="22.524189" lon="108.730801"><time>2026-04-25T01:51:46.856Z</time></trkpt>
      <trkpt lat="22.524189" lon="108.730801"><time>2026-04-25T01:51:46.873Z</time></trkpt>
      <trkpt lat="22.524189" lon="108.730801"><time>2026-04-25T01:51:46.889Z</time></trkpt>
      <trkpt lat="22.524189" lon="108.730801"><time>2026-04-25T01:51:46.906Z</time></trkpt>
      <trkpt lat="22.524189" lon="108.730801"><time>2026-04-25T01:51:46.923Z</time></trkpt>
      <trkpt lat="22.524189" lon="108.730801"><time>2026-04-25T01:51:46.939Z</time></trkpt>
      <trkpt lat="22.524199" lon="108.730784"><time>2026-04-25T01:51:46.956Z</time></trkpt>
      <trkpt lat="22.524199" lon="108.730784"><time>2026-04-25T01:51:46.973Z</time></trkpt>
      <trkpt lat="22.524199" lon="108.730784"><time>2026-04-25T01:51:46.989Z</time></trkpt>
      <trkpt lat="22.524199" lon="108.730784"><time>2026-04-25T01:51:47.006Z</time></trkpt>
      <trkpt lat="22.524199" lon="108.730784"><time>2026-04-25T01:51:47.023Z</time></trkpt>
      <trkpt lat="22.524199" lon="108.730784"><time>2026-04-25T01:51:47.039Z</time></trkpt>
      <trkpt lat="22.524209" lon="108.730768"><time>2026-04-25T01:51:47.056Z</time></trkpt>
      <trkpt lat="22.524209" lon="108.730768"><time>2026-04-25T01:51:47.073Z</time></trkpt>
      <trkpt lat="22.524209" lon="108.730768"><time>2026-04-25T01:51:47.089Z</time></trkpt>
      <trkpt lat="22.524209" lon="108.730768"><time>2026-04-25T01:51:47.106Z</time></trkpt>
      <trkpt lat="22.524209" lon="108.730768"><time>2026-04-25T01:51:47.123Z</time></trkpt>
      <trkpt lat="22.524209" lon="108.730768"><time>2026-04-25T01:51:47.139Z</time></trkpt>
      <trkpt lat="22.524219" lon="108.730751"><time>2026-04-25T01:51:47.156Z</time></trkpt>
      <trkpt lat="22.524219" lon="108.730751"><time>2026-04-25T01:51:47.173Z</time></trkpt>
      <trkpt lat="22.524219" lon="108.730751"><time>2026-04-25T01:51:47.190Z</time></trkpt>
      <trkpt lat="22.524219" lon="108.730751"><time>2026-04-25T01:51:47.206Z</time></trkpt>
      <trkpt lat="22.524219" lon="108.730751"><time>2026-04-25T01:51:47.223Z</time></trkpt>
      <trkpt lat="22.524219" lon="108.730751"><time>2026-04-25T01:51:47.240Z</time></trkpt>
      <trkpt lat="22.524229" lon="108.730735"><time>2026-04-25T01:51:47.256Z</time></trkpt>
      <trkpt lat="22.524229" lon="108.730735"><time>2026-04-25T01:51:47.273Z</time></trkpt>
      <trkpt lat="22.524229" lon="108.730735"><time>2026-04-25T01:51:47.290Z</time></trkpt>
      <trkpt lat="22.524229" lon="108.730735"><time>2026-04-25T01:51:47.306Z</time></trkpt>
      <trkpt lat="22.524229" lon="108.730735"><time>2026-04-25T01:51:47.323Z</time></trkpt>
      <trkpt lat="22.524229" lon="108.730735"><time>2026-04-25T01:51:47.340Z</time></trkpt>
      <trkpt lat="22.524239" lon="108.730718"><time>2026-04-25T01:51:47.356Z</time></trkpt>
      <trkpt lat="22.524239" lon="108.730718"><time>2026-04-25T01:51:47.373Z</time></trkpt>
      <trkpt lat="22.524239" lon="108.730718"><time>2026-04-25T01:51:47.390Z</time></trkpt>
      <trkpt lat="22.524239" lon="108.730718"><time>2026-04-25T01:51:47.406Z</time></trkpt>
      <trkpt lat="22.524239" lon="108.730718"><time>2026-04-25T01:51:47.423Z</time></trkpt>
      <trkpt lat="22.524239" lon="108.730718"><time>2026-04-25T01:51:47.440Z</time></trkpt>
      <trkpt lat="22.524249" lon="108.730701"><time>2026-04-25T01:51:47.456Z</time></trkpt>
      <trkpt lat="22.524249" lon="108.730701"><time>2026-04-25T01:51:47.473Z</time></trkpt>
      <trkpt lat="22.524249" lon="108.730701"><time>2026-04-25T01:51:47.490Z</time></trkpt>
      <trkpt lat="22.524249" lon="108.730701"><time>2026-04-25T01:51:47.506Z</time></trkpt>
      <trkpt lat="22.524249" lon="108.730701"><time>2026-04-25T01:51:47.523Z</time></trkpt>
      <trkpt lat="22.524249" lon="108.730701"><time>2026-04-25T01:51:47.540Z</time></trkpt>
      <trkpt lat="22.524261" lon="108.730685"><time>2026-04-25T01:51:47.556Z</time></trkpt>
      <trkpt lat="22.524261" lon="108.730685"><time>2026-04-25T01:51:47.573Z</time></trkpt>
      <trkpt lat="22.524261" lon="108.730685"><time>2026-04-25T01:51:47.590Z</time></trkpt>
      <trkpt lat="22.524261" lon="108.730685"><time>2026-04-25T01:51:47.607Z</time></trkpt>
      <trkpt lat="22.524261" lon="108.730685"><time>2026-04-25T01:51:47.623Z</time></trkpt>
      <trkpt lat="22.524261" lon="108.730685"><time>2026-04-25T01:51:47.640Z</time></trkpt>
      <trkpt lat="22.524271" lon="108.730669"><time>2026-04-25T01:51:47.657Z</time></trkpt>
      <trkpt lat="22.524271" lon="108.730669"><time>2026-04-25T01:51:47.673Z</time></trkpt>
      <trkpt lat="22.524271" lon="108.730669"><time>2026-04-25T01:51:47.690Z</time></trkpt>
      <trkpt lat="22.524271" lon="108.730669"><time>2026-04-25T01:51:47.707Z</time></trkpt>
      <trkpt lat="22.524271" lon="108.730669"><time>2026-04-25T01:51:47.723Z</time></trkpt>
      <trkpt lat="22.524271" lon="108.730669"><time>2026-04-25T01:51:47.740Z</time></trkpt>
      <trkpt lat="22.524281" lon="108.730652"><time>2026-04-25T01:51:47.757Z</time></trkpt>
      <trkpt lat="22.524281" lon="108.730652"><time>2026-04-25T01:51:47.773Z</time></trkpt>
      <trkpt lat="22.524281" lon="108.730652"><time>2026-04-25T01:51:47.790Z</time></trkpt>
      <trkpt lat="22.524281" lon="108.730652"><time>2026-04-25T01:51:47.807Z</time></trkpt>
      <trkpt lat="22.524281" lon="108.730652"><time>2026-04-25T01:51:47.823Z</time></trkpt>
      <trkpt lat="22.524281" lon="108.730652"><time>2026-04-25T01:51:47.840Z</time></trkpt>
      <trkpt lat="22.524291" lon="108.730636"><time>2026-04-25T01:51:47.857Z</time></trkpt>
      <trkpt lat="22.524291" lon="108.730636"><time>2026-04-25T01:51:47.873Z</time></trkpt>
      <trkpt lat="22.524291" lon="108.730636"><time>2026-04-25T01:51:47.890Z</time></trkpt>
      <trkpt lat="22.524291" lon="108.730636"><time>2026-04-25T01:51:47.907Z</time></trkpt>
      <trkpt lat="22.524291" lon="108.730636"><time>2026-04-25T01:51:47.923Z</time></trkpt>
      <trkpt lat="22.524291" lon="108.730636"><time>2026-04-25T01:51:47.940Z</time></trkpt>
      <trkpt lat="22.524302" lon="108.730618"><time>2026-04-25T01:51:47.957Z</time></trkpt>
      <trkpt lat="22.524302" lon="108.730618"><time>2026-04-25T01:51:47.973Z</time></trkpt>
      <trkpt lat="22.524302" lon="108.730618"><time>2026-04-25T01:51:47.990Z</time></trkpt>
      <trkpt lat="22.524302" lon="108.730618"><time>2026-04-25T01:51:48.007Z</time></trkpt>
      <trkpt lat="22.524302" lon="108.730618"><time>2026-04-25T01:51:48.024Z</time></trkpt>
      <trkpt lat="22.524302" lon="108.730618"><time>2026-04-25T01:51:48.040Z</time></trkpt>
      <trkpt lat="22.524312" lon="108.730601"><time>2026-04-25T01:51:48.057Z</time></trkpt>
      <trkpt lat="22.524312" lon="108.730601"><time>2026-04-25T01:51:48.074Z</time></trkpt>
      <trkpt lat="22.524312" lon="108.730601"><time>2026-04-25T01:51:48.090Z</time></trkpt>
      <trkpt lat="22.524312" lon="108.730601"><time>2026-04-25T01:51:48.107Z</time></trkpt>
      <trkpt lat="22.524312" lon="108.730601"><time>2026-04-25T01:51:48.124Z</time></trkpt>
      <trkpt lat="22.524312" lon="108.730601"><time>2026-04-25T01:51:48.140Z</time></trkpt>
      <trkpt lat="22.524322" lon="108.730585"><time>2026-04-25T01:51:48.157Z</time></trkpt>
      <trkpt lat="22.524322" lon="108.730585"><time>2026-04-25T01:51:48.174Z</time></trkpt>
      <trkpt lat="22.524322" lon="108.730585"><time>2026-04-25T01:51:48.190Z</time></trkpt>
      <trkpt lat="22.524322" lon="108.730585"><time>2026-04-25T01:51:48.207Z</time></trkpt>
      <trkpt lat="22.524322" lon="108.730585"><time>2026-04-25T01:51:48.224Z</time></trkpt>
      <trkpt lat="22.524322" lon="108.730585"><time>2026-04-25T01:51:48.240Z</time></trkpt>
      <trkpt lat="22.524332" lon="108.730568"><time>2026-04-25T01:51:48.257Z</time></trkpt>
      <trkpt lat="22.524332" lon="108.730568"><time>2026-04-25T01:51:48.274Z</time></trkpt>
      <trkpt lat="22.524332" lon="108.730568"><time>2026-04-25T01:51:48.290Z</time></trkpt>
      <trkpt lat="22.524332" lon="108.730568"><time>2026-04-25T01:51:48.307Z</time></trkpt>
      <trkpt lat="22.524332" lon="108.730568"><time>2026-04-25T01:51:48.324Z</time></trkpt>
      <trkpt lat="22.524332" lon="108.730568"><time>2026-04-25T01:51:48.340Z</time></trkpt>
      <trkpt lat="22.524343" lon="108.73055"><time>2026-04-25T01:51:48.357Z</time></trkpt>
      <trkpt lat="22.524343" lon="108.73055"><time>2026-04-25T01:51:48.374Z</time></trkpt>
      <trkpt lat="22.524343" lon="108.73055"><time>2026-04-25T01:51:48.390Z</time></trkpt>
      <trkpt lat="22.524343" lon="108.73055"><time>2026-04-25T01:51:48.407Z</time></trkpt>
      <trkpt lat="22.524343" lon="108.73055"><time>2026-04-25T01:51:48.424Z</time></trkpt>
      <trkpt lat="22.524343" lon="108.73055"><time>2026-04-25T01:51:48.441Z</time></trkpt>
      <trkpt lat="22.524353" lon="108.730532"><time>2026-04-25T01:51:48.457Z</time></trkpt>
      <trkpt lat="22.524353" lon="108.730532"><time>2026-04-25T01:51:48.474Z</time></trkpt>
      <trkpt lat="22.524353" lon="108.730532"><time>2026-04-25T01:51:48.491Z</time></trkpt>
      <trkpt lat="22.524353" lon="108.730532"><time>2026-04-25T01:51:48.507Z</time></trkpt>
      <trkpt lat="22.524353" lon="108.730532"><time>2026-04-25T01:51:48.524Z</time></trkpt>
      <trkpt lat="22.524353" lon="108.730532"><time>2026-04-25T01:51:48.541Z</time></trkpt>
      <trkpt lat="22.524364" lon="108.730515"><time>2026-04-25T01:51:48.557Z</time></trkpt>
      <trkpt lat="22.524364" lon="108.730515"><time>2026-04-25T01:51:48.574Z</time></trkpt>
      <trkpt lat="22.524364" lon="108.730515"><time>2026-04-25T01:51:48.591Z</time></trkpt>
      <trkpt lat="22.524364" lon="108.730515"><time>2026-04-25T01:51:48.607Z</time></trkpt>
      <trkpt lat="22.524364" lon="108.730515"><time>2026-04-25T01:51:48.624Z</time></trkpt>
      <trkpt lat="22.524364" lon="108.730515"><time>2026-04-25T01:51:48.641Z</time></trkpt>
      <trkpt lat="22.524374" lon="108.730498"><time>2026-04-25T01:51:48.657Z</time></trkpt>
      <trkpt lat="22.524374" lon="108.730498"><time>2026-04-25T01:51:48.674Z</time></trkpt>
      <trkpt lat="22.524374" lon="108.730498"><time>2026-04-25T01:51:48.691Z</time></trkpt>
      <trkpt lat="22.524374" lon="108.730498"><time>2026-04-25T01:51:48.707Z</time></trkpt>
      <trkpt lat="22.524374" lon="108.730498"><time>2026-04-25T01:51:48.724Z</time></trkpt>
      <trkpt lat="22.524374" lon="108.730498"><time>2026-04-25T01:51:48.741Z</time></trkpt>
      <trkpt lat="22.524384" lon="108.73048"><time>2026-04-25T01:51:48.757Z</time></trkpt>
      <trkpt lat="22.524384" lon="108.73048"><time>2026-04-25T01:51:48.774Z</time></trkpt>
      <trkpt lat="22.524384" lon="108.73048"><time>2026-04-25T01:51:48.791Z</time></trkpt>
      <trkpt lat="22.524384" lon="108.73048"><time>2026-04-25T01:51:48.807Z</time></trkpt>
      <trkpt lat="22.524384" lon="108.73048"><time>2026-04-25T01:51:48.824Z</time></trkpt>
      <trkpt lat="22.524384" lon="108.73048"><time>2026-04-25T01:51:48.841Z</time></trkpt>
      <trkpt lat="22.524394" lon="108.730464"><time>2026-04-25T01:51:48.858Z</time></trkpt>
      <trkpt lat="22.524394" lon="108.730464"><time>2026-04-25T01:51:48.874Z</time></trkpt>
      <trkpt lat="22.524394" lon="108.730464"><time>2026-04-25T01:51:48.891Z</time></trkpt>
      <trkpt lat="22.524394" lon="108.730464"><time>2026-04-25T01:51:48.908Z</time></trkpt>
      <trkpt lat="22.524394" lon="108.730464"><time>2026-04-25T01:51:48.924Z</time></trkpt>
      <trkpt lat="22.524394" lon="108.730464"><time>2026-04-25T01:51:48.941Z</time></trkpt>
      <trkpt lat="22.524405" lon="108.730446"><time>2026-04-25T01:51:48.958Z</time></trkpt>
      <trkpt lat="22.524405" lon="108.730446"><time>2026-04-25T01:51:48.974Z</time></trkpt>
      <trkpt lat="22.524405" lon="108.730446"><time>2026-04-25T01:51:48.991Z</time></trkpt>
      <trkpt lat="22.524405" lon="108.730446"><time>2026-04-25T01:51:49.008Z</time></trkpt>
      <trkpt lat="22.524405" lon="108.730446"><time>2026-04-25T01:51:49.024Z</time></trkpt>
      <trkpt lat="22.524405" lon="108.730446"><time>2026-04-25T01:51:49.041Z</time></trkpt>
      <trkpt lat="22.524416" lon="108.730428"><time>2026-04-25T01:51:49.058Z</time></trkpt>
      <trkpt lat="22.524416" lon="108.730428"><time>2026-04-25T01:51:49.074Z</time></trkpt>
      <trkpt lat="22.524416" lon="108.730428"><time>2026-04-25T01:51:49.091Z</time></trkpt>
      <trkpt lat="22.524416" lon="108.730428"><time>2026-04-25T01:51:49.108Z</time></trkpt>
      <trkpt lat="22.524416" lon="108.730428"><time>2026-04-25T01:51:49.124Z</time></trkpt>
      <trkpt lat="22.524416" lon="108.730428"><time>2026-04-25T01:51:49.141Z</time></trkpt>
      <trkpt lat="22.524426" lon="108.730411"><time>2026-04-25T01:51:49.158Z</time></trkpt>
      <trkpt lat="22.524426" lon="108.730411"><time>2026-04-25T01:51:49.174Z</time></trkpt>
      <trkpt lat="22.524426" lon="108.730411"><time>2026-04-25T01:51:49.191Z</time></trkpt>
      <trkpt lat="22.524426" lon="108.730411"><time>2026-04-25T01:51:49.208Z</time></trkpt>
      <trkpt lat="22.524426" lon="108.730411"><time>2026-04-25T01:51:49.224Z</time></trkpt>
      <trkpt lat="22.524426" lon="108.730411"><time>2026-04-25T01:51:49.241Z</time></trkpt>
      <trkpt lat="22.524437" lon="108.730393"><time>2026-04-25T01:51:49.258Z</time></trkpt>
      <trkpt lat="22.524437" lon="108.730393"><time>2026-04-25T01:51:49.275Z</time></trkpt>
      <trkpt lat="22.524437" lon="108.730393"><time>2026-04-25T01:51:49.291Z</time></trkpt>
      <trkpt lat="22.524437" lon="108.730393"><time>2026-04-25T01:51:49.308Z</time></trkpt>
      <trkpt lat="22.524437" lon="108.730393"><time>2026-04-25T01:51:49.325Z</time></trkpt>
      <trkpt lat="22.524437" lon="108.730393"><time>2026-04-25T01:51:49.341Z</time></trkpt>
      <trkpt lat="22.524447" lon="108.730377"><time>2026-04-25T01:51:49.358Z</time></trkpt>
      <trkpt lat="22.524447" lon="108.730377"><time>2026-04-25T01:51:49.375Z</time></trkpt>
      <trkpt lat="22.524447" lon="108.730377"><time>2026-04-25T01:51:49.391Z</time></trkpt>
      <trkpt lat="22.524447" lon="108.730377"><time>2026-04-25T01:51:49.408Z</time></trkpt>
      <trkpt lat="22.524447" lon="108.730377"><time>2026-04-25T01:51:49.425Z</time></trkpt>
      <trkpt lat="22.524447" lon="108.730377"><time>2026-04-25T01:51:49.441Z</time></trkpt>
      <trkpt lat="22.524458" lon="108.730358"><time>2026-04-25T01:51:49.458Z</time></trkpt>
      <trkpt lat="22.524458" lon="108.730358"><time>2026-04-25T01:51:49.475Z</time></trkpt>
      <trkpt lat="22.524458" lon="108.730358"><time>2026-04-25T01:51:49.491Z</time></trkpt>
      <trkpt lat="22.524458" lon="108.730358"><time>2026-04-25T01:51:49.508Z</time></trkpt>
      <trkpt lat="22.524458" lon="108.730358"><time>2026-04-25T01:51:49.525Z</time></trkpt>
      <trkpt lat="22.524458" lon="108.730358"><time>2026-04-25T01:51:49.541Z</time></trkpt>
      <trkpt lat="22.52447" lon="108.730341"><time>2026-04-25T01:51:49.558Z</time></trkpt>
      <trkpt lat="22.52447" lon="108.730341"><time>2026-04-25T01:51:49.575Z</time></trkpt>
      <trkpt lat="22.52447" lon="108.730341"><time>2026-04-25T01:51:49.591Z</time></trkpt>
      <trkpt lat="22.52447" lon="108.730341"><time>2026-04-25T01:51:49.608Z</time></trkpt>
      <trkpt lat="22.52447" lon="108.730341"><time>2026-04-25T01:51:49.625Z</time></trkpt>
      <trkpt lat="22.52447" lon="108.730341"><time>2026-04-25T01:51:49.641Z</time></trkpt>
      <trkpt lat="22.524481" lon="108.730324"><time>2026-04-25T01:51:49.658Z</time></trkpt>
      <trkpt lat="22.524481" lon="108.730324"><time>2026-04-25T01:51:49.675Z</time></trkpt>
      <trkpt lat="22.524481" lon="108.730324"><time>2026-04-25T01:51:49.692Z</time></trkpt>
      <trkpt lat="22.524481" lon="108.730324"><time>2026-04-25T01:51:49.708Z</time></trkpt>
      <trkpt lat="22.524481" lon="108.730324"><time>2026-04-25T01:51:49.725Z</time></trkpt>
      <trkpt lat="22.524481" lon="108.730324"><time>2026-04-25T01:51:49.742Z</time></trkpt>
      <trkpt lat="22.524492" lon="108.730306"><time>2026-04-25T01:51:49.758Z</time></trkpt>
      <trkpt lat="22.524492" lon="108.730306"><time>2026-04-25T01:51:49.775Z</time></trkpt>
      <trkpt lat="22.524492" lon="108.730306"><time>2026-04-25T01:51:49.792Z</time></trkpt>
      <trkpt lat="22.524492" lon="108.730306"><time>2026-04-25T01:51:49.808Z</time></trkpt>
      <trkpt lat="22.524492" lon="108.730306"><time>2026-04-25T01:51:49.825Z</time></trkpt>
      <trkpt lat="22.524492" lon="108.730306"><time>2026-04-25T01:51:49.842Z</time></trkpt>
      <trkpt lat="22.524502" lon="108.730289"><time>2026-04-25T01:51:49.858Z</time></trkpt>
      <trkpt lat="22.524502" lon="108.730289"><time>2026-04-25T01:51:49.875Z</time></trkpt>
      <trkpt lat="22.524502" lon="108.730289"><time>2026-04-25T01:51:49.892Z</time></trkpt>
      <trkpt lat="22.524502" lon="108.730289"><time>2026-04-25T01:51:49.908Z</time></trkpt>
      <trkpt lat="22.524502" lon="108.730289"><time>2026-04-25T01:51:49.925Z</time></trkpt>
      <trkpt lat="22.524502" lon="108.730289"><time>2026-04-25T01:51:49.942Z</time></trkpt>
      <trkpt lat="22.524513" lon="108.73027"><time>2026-04-25T01:51:49.958Z</time></trkpt>
      <trkpt lat="22.524513" lon="108.73027"><time>2026-04-25T01:51:49.975Z</time></trkpt>
      <trkpt lat="22.524513" lon="108.73027"><time>2026-04-25T01:51:49.992Z</time></trkpt>
      <trkpt lat="22.524513" lon="108.73027"><time>2026-04-25T01:51:50.008Z</time></trkpt>
      <trkpt lat="22.524513" lon="108.73027"><time>2026-04-25T01:51:50.025Z</time></trkpt>
      <trkpt lat="22.524513" lon="108.73027"><time>2026-04-25T01:51:50.042Z</time></trkpt>
      <trkpt lat="22.524524" lon="108.730252"><time>2026-04-25T01:51:50.058Z</time></trkpt>
      <trkpt lat="22.524524" lon="108.730252"><time>2026-04-25T01:51:50.075Z</time></trkpt>
      <trkpt lat="22.524524" lon="108.730252"><time>2026-04-25T01:51:50.092Z</time></trkpt>
      <trkpt lat="22.524524" lon="108.730252"><time>2026-04-25T01:51:50.109Z</time></trkpt>
      <trkpt lat="22.524524" lon="108.730252"><time>2026-04-25T01:51:50.125Z</time></trkpt>
      <trkpt lat="22.524524" lon="108.730252"><time>2026-04-25T01:51:50.142Z</time></trkpt>
      <trkpt lat="22.524535" lon="108.730234"><time>2026-04-25T01:51:50.159Z</time></trkpt>
      <trkpt lat="22.524535" lon="108.730234"><time>2026-04-25T01:51:50.175Z</time></trkpt>
      <trkpt lat="22.524535" lon="108.730234"><time>2026-04-25T01:51:50.192Z</time></trkpt>
      <trkpt lat="22.524535" lon="108.730234"><time>2026-04-25T01:51:50.209Z</time></trkpt>
      <trkpt lat="22.524535" lon="108.730234"><time>2026-04-25T01:51:50.225Z</time></trkpt>
      <trkpt lat="22.524535" lon="108.730234"><time>2026-04-25T01:51:50.242Z</time></trkpt>
      <trkpt lat="22.524546" lon="108.730216"><time>2026-04-25T01:51:50.259Z</time></trkpt>
      <trkpt lat="22.524546" lon="108.730216"><time>2026-04-25T01:51:50.275Z</time></trkpt>
      <trkpt lat="22.524546" lon="108.730216"><time>2026-04-25T01:51:50.292Z</time></trkpt>
      <trkpt lat="22.524546" lon="108.730216"><time>2026-04-25T01:51:50.309Z</time></trkpt>
      <trkpt lat="22.524546" lon="108.730216"><time>2026-04-25T01:51:50.325Z</time></trkpt>
      <trkpt lat="22.524546" lon="108.730216"><time>2026-04-25T01:51:50.342Z</time></trkpt>
      <trkpt lat="22.524557" lon="108.730198"><time>2026-04-25T01:51:50.359Z</time></trkpt>
      <trkpt lat="22.524557" lon="108.730198"><time>2026-04-25T01:51:50.375Z</time></trkpt>
      <trkpt lat="22.524557" lon="108.730198"><time>2026-04-25T01:51:50.392Z</time></trkpt>
      <trkpt lat="22.524557" lon="108.730198"><time>2026-04-25T01:51:50.409Z</time></trkpt>
      <trkpt lat="22.524557" lon="108.730198"><time>2026-04-25T01:51:50.425Z</time></trkpt>
      <trkpt lat="22.524557" lon="108.730198"><time>2026-04-25T01:51:50.442Z</time></trkpt>
      <trkpt lat="22.524567" lon="108.73018"><time>2026-04-25T01:51:50.459Z</time></trkpt>
      <trkpt lat="22.524567" lon="108.73018"><time>2026-04-25T01:51:50.475Z</time></trkpt>
      <trkpt lat="22.524567" lon="108.73018"><time>2026-04-25T01:51:50.492Z</time></trkpt>
      <trkpt lat="22.524567" lon="108.73018"><time>2026-04-25T01:51:50.509Z</time></trkpt>
      <trkpt lat="22.524567" lon="108.73018"><time>2026-04-25T01:51:50.526Z</time></trkpt>
      <trkpt lat="22.524567" lon="108.73018"><time>2026-04-25T01:51:50.542Z</time></trkpt>
      <trkpt lat="22.524578" lon="108.730163"><time>2026-04-25T01:51:50.559Z</time></trkpt>
      <trkpt lat="22.524578" lon="108.730163"><time>2026-04-25T01:51:50.576Z</time></trkpt>
      <trkpt lat="22.524578" lon="108.730163"><time>2026-04-25T01:51:50.592Z</time></trkpt>
      <trkpt lat="22.524578" lon="108.730163"><time>2026-04-25T01:51:50.609Z</time></trkpt>
      <trkpt lat="22.524578" lon="108.730163"><time>2026-04-25T01:51:50.626Z</time></trkpt>
      <trkpt lat="22.524578" lon="108.730163"><time>2026-04-25T01:51:50.642Z</time></trkpt>
      <trkpt lat="22.524589" lon="108.730143"><time>2026-04-25T01:51:50.659Z</time></trkpt>
      <trkpt lat="22.524589" lon="108.730143"><time>2026-04-25T01:51:50.676Z</time></trkpt>
      <trkpt lat="22.524589" lon="108.730143"><time>2026-04-25T01:51:50.692Z</time></trkpt>
      <trkpt lat="22.524589" lon="108.730143"><time>2026-04-25T01:51:50.709Z</time></trkpt>
      <trkpt lat="22.524589" lon="108.730143"><time>2026-04-25T01:51:50.726Z</time></trkpt>
      <trkpt lat="22.524589" lon="108.730143"><time>2026-04-25T01:51:50.742Z</time></trkpt>
      <trkpt lat="22.5246" lon="108.730125"><time>2026-04-25T01:51:50.759Z</time></trkpt>
      <trkpt lat="22.5246" lon="108.730125"><time>2026-04-25T01:51:50.776Z</time></trkpt>
      <trkpt lat="22.5246" lon="108.730125"><time>2026-04-25T01:51:50.792Z</time></trkpt>
      <trkpt lat="22.5246" lon="108.730125"><time>2026-04-25T01:51:50.809Z</time></trkpt>
      <trkpt lat="22.5246" lon="108.730125"><time>2026-04-25T01:51:50.826Z</time></trkpt>
      <trkpt lat="22.5246" lon="108.730125"><time>2026-04-25T01:51:50.842Z</time></trkpt>
      <trkpt lat="22.524611" lon="108.730106"><time>2026-04-25T01:51:50.859Z</time></trkpt>
      <trkpt lat="22.524611" lon="108.730106"><time>2026-04-25T01:51:50.876Z</time></trkpt>
      <trkpt lat="22.524611" lon="108.730106"><time>2026-04-25T01:51:50.892Z</time></trkpt>
      <trkpt lat="22.524611" lon="108.730106"><time>2026-04-25T01:51:50.909Z</time></trkpt>
      <trkpt lat="22.524611" lon="108.730106"><time>2026-04-25T01:51:50.926Z</time></trkpt>
      <trkpt lat="22.524611" lon="108.730106"><time>2026-04-25T01:51:50.943Z</time></trkpt>
      <trkpt lat="22.524622" lon="108.730088"><time>2026-04-25T01:51:50.959Z</time></trkpt>
      <trkpt lat="22.524622" lon="108.730088"><time>2026-04-25T01:51:50.976Z</time></trkpt>
      <trkpt lat="22.524622" lon="108.730088"><time>2026-04-25T01:51:50.993Z</time></trkpt>
      <trkpt lat="22.524622" lon="108.730088"><time>2026-04-25T01:51:51.009Z</time></trkpt>
      <trkpt lat="22.524622" lon="108.730088"><time>2026-04-25T01:51:51.026Z</time></trkpt>
      <trkpt lat="22.524622" lon="108.730088"><time>2026-04-25T01:51:51.043Z</time></trkpt>
      <trkpt lat="22.524633" lon="108.73007"><time>2026-04-25T01:51:51.059Z</time></trkpt>
      <trkpt lat="22.524633" lon="108.73007"><time>2026-04-25T01:51:51.076Z</time></trkpt>
      <trkpt lat="22.524633" lon="108.73007"><time>2026-04-25T01:51:51.093Z</time></trkpt>
      <trkpt lat="22.524633" lon="108.73007"><time>2026-04-25T01:51:51.109Z</time></trkpt>
      <trkpt lat="22.524633" lon="108.73007"><time>2026-04-25T01:51:51.126Z</time></trkpt>
      <trkpt lat="22.524633" lon="108.73007"><time>2026-04-25T01:51:51.143Z</time></trkpt>
      <trkpt lat="22.524644" lon="108.730051"><time>2026-04-25T01:51:51.159Z</time></trkpt>
      <trkpt lat="22.524644" lon="108.730051"><time>2026-04-25T01:51:51.176Z</time></trkpt>
      <trkpt lat="22.524644" lon="108.730051"><time>2026-04-25T01:51:51.193Z</time></trkpt>
      <trkpt lat="22.524644" lon="108.730051"><time>2026-04-25T01:51:51.209Z</time></trkpt>
      <trkpt lat="22.524644" lon="108.730051"><time>2026-04-25T01:51:51.226Z</time></trkpt>
      <trkpt lat="22.524644" lon="108.730051"><time>2026-04-25T01:51:51.243Z</time></trkpt>
      <trkpt lat="22.524656" lon="108.730033"><time>2026-04-25T01:51:51.259Z</time></trkpt>
      <trkpt lat="22.524656" lon="108.730033"><time>2026-04-25T01:51:51.276Z</time></trkpt>
      <trkpt lat="22.524656" lon="108.730033"><time>2026-04-25T01:51:51.293Z</time></trkpt>
      <trkpt lat="22.524656" lon="108.730033"><time>2026-04-25T01:51:51.309Z</time></trkpt>
      <trkpt lat="22.524656" lon="108.730033"><time>2026-04-25T01:51:51.326Z</time></trkpt>
      <trkpt lat="22.524656" lon="108.730033"><time>2026-04-25T01:51:51.343Z</time></trkpt>
      <trkpt lat="22.524667" lon="108.730014"><time>2026-04-25T01:51:51.360Z</time></trkpt>
      <trkpt lat="22.524667" lon="108.730014"><time>2026-04-25T01:51:51.376Z</time></trkpt>
      <trkpt lat="22.524667" lon="108.730014"><time>2026-04-25T01:51:51.393Z</time></trkpt>
      <trkpt lat="22.524667" lon="108.730014"><time>2026-04-25T01:51:51.410Z</time></trkpt>
      <trkpt lat="22.524667" lon="108.730014"><time>2026-04-25T01:51:51.426Z</time></trkpt>
      <trkpt lat="22.524667" lon="108.730014"><time>2026-04-25T01:51:51.443Z</time></trkpt>
      <trkpt lat="22.524678" lon="108.729997"><time>2026-04-25T01:51:51.460Z</time></trkpt>
      <trkpt lat="22.524678" lon="108.729997"><time>2026-04-25T01:51:51.476Z</time></trkpt>
      <trkpt lat="22.524678" lon="108.729997"><time>2026-04-25T01:51:51.493Z</time></trkpt>
      <trkpt lat="22.524678" lon="108.729997"><time>2026-04-25T01:51:51.510Z</time></trkpt>
      <trkpt lat="22.524678" lon="108.729997"><time>2026-04-25T01:51:51.526Z</time></trkpt>
      <trkpt lat="22.524678" lon="108.729997"><time>2026-04-25T01:51:51.543Z</time></trkpt>
      <trkpt lat="22.524689" lon="108.729977"><time>2026-04-25T01:51:51.560Z</time></trkpt>
      <trkpt lat="22.524689" lon="108.729977"><time>2026-04-25T01:51:51.576Z</time></trkpt>
      <trkpt lat="22.524689" lon="108.729977"><time>2026-04-25T01:51:51.593Z</time></trkpt>
      <trkpt lat="22.524689" lon="108.729977"><time>2026-04-25T01:51:51.610Z</time></trkpt>
      <trkpt lat="22.524689" lon="108.729977"><time>2026-04-25T01:51:51.626Z</time></trkpt>
      <trkpt lat="22.524689" lon="108.729977"><time>2026-04-25T01:51:51.643Z</time></trkpt>
      <trkpt lat="22.5247" lon="108.729959"><time>2026-04-25T01:51:51.660Z</time></trkpt>
      <trkpt lat="22.5247" lon="108.729959"><time>2026-04-25T01:51:51.676Z</time></trkpt>
      <trkpt lat="22.5247" lon="108.729959"><time>2026-04-25T01:51:51.693Z</time></trkpt>
      <trkpt lat="22.5247" lon="108.729959"><time>2026-04-25T01:51:51.710Z</time></trkpt>
      <trkpt lat="22.5247" lon="108.729959"><time>2026-04-25T01:51:51.726Z</time></trkpt>
      <trkpt lat="22.5247" lon="108.729959"><time>2026-04-25T01:51:51.743Z</time></trkpt>
      <trkpt lat="22.524711" lon="108.72994"><time>2026-04-25T01:51:51.760Z</time></trkpt>
      <trkpt lat="22.524711" lon="108.72994"><time>2026-04-25T01:51:51.777Z</time></trkpt>
      <trkpt lat="22.524711" lon="108.72994"><time>2026-04-25T01:51:51.793Z</time></trkpt>
      <trkpt lat="22.524711" lon="108.72994"><time>2026-04-25T01:51:51.810Z</time></trkpt>
      <trkpt lat="22.524711" lon="108.72994"><time>2026-04-25T01:51:51.827Z</time></trkpt>
      <trkpt lat="22.524711" lon="108.72994"><time>2026-04-25T01:51:51.843Z</time></trkpt>
      <trkpt lat="22.524722" lon="108.729922"><time>2026-04-25T01:51:51.860Z</time></trkpt>
      <trkpt lat="22.524722" lon="108.729922"><time>2026-04-25T01:51:51.877Z</time></trkpt>
      <trkpt lat="22.524722" lon="108.729922"><time>2026-04-25T01:51:51.893Z</time></trkpt>
      <trkpt lat="22.524722" lon="108.729922"><time>2026-04-25T01:51:51.910Z</time></trkpt>
      <trkpt lat="22.524722" lon="108.729922"><time>2026-04-25T01:51:51.927Z</time></trkpt>
      <trkpt lat="22.524722" lon="108.729922"><time>2026-04-25T01:51:51.943Z</time></trkpt>
      <trkpt lat="22.524733" lon="108.729903"><time>2026-04-25T01:51:51.960Z</time></trkpt>
      <trkpt lat="22.524733" lon="108.729903"><time>2026-04-25T01:51:51.977Z</time></trkpt>
      <trkpt lat="22.524733" lon="108.729903"><time>2026-04-25T01:51:51.993Z</time></trkpt>
      <trkpt lat="22.524733" lon="108.729903"><time>2026-04-25T01:51:52.010Z</time></trkpt>
      <trkpt lat="22.524733" lon="108.729903"><time>2026-04-25T01:51:52.027Z</time></trkpt>
      <trkpt lat="22.524733" lon="108.729903"><time>2026-04-25T01:51:52.043Z</time></trkpt>
      <trkpt lat="22.524744" lon="108.729884"><time>2026-04-25T01:51:52.060Z</time></trkpt>
      <trkpt lat="22.524744" lon="108.729884"><time>2026-04-25T01:51:52.077Z</time></trkpt>
      <trkpt lat="22.524744" lon="108.729884"><time>2026-04-25T01:51:52.093Z</time></trkpt>
      <trkpt lat="22.524744" lon="108.729884"><time>2026-04-25T01:51:52.110Z</time></trkpt>
      <trkpt lat="22.524744" lon="108.729884"><time>2026-04-25T01:51:52.127Z</time></trkpt>
      <trkpt lat="22.524744" lon="108.729884"><time>2026-04-25T01:51:52.143Z</time></trkpt>
      <trkpt lat="22.524755" lon="108.729865"><time>2026-04-25T01:51:52.160Z</time></trkpt>
      <trkpt lat="22.524755" lon="108.729865"><time>2026-04-25T01:51:52.177Z</time></trkpt>
      <trkpt lat="22.524755" lon="108.729865"><time>2026-04-25T01:51:52.194Z</time></trkpt>
      <trkpt lat="22.524755" lon="108.729865"><time>2026-04-25T01:51:52.210Z</time></trkpt>
      <trkpt lat="22.524755" lon="108.729865"><time>2026-04-25T01:51:52.227Z</time></trkpt>
      <trkpt lat="22.524755" lon="108.729865"><time>2026-04-25T01:51:52.244Z</time></trkpt>
      <trkpt lat="22.524766" lon="108.729847"><time>2026-04-25T01:51:52.260Z</time></trkpt>
      <trkpt lat="22.524766" lon="108.729847"><time>2026-04-25T01:51:52.277Z</time></trkpt>
      <trkpt lat="22.524766" lon="108.729847"><time>2026-04-25T01:51:52.294Z</time></trkpt>
      <trkpt lat="22.524766" lon="108.729847"><time>2026-04-25T01:51:52.310Z</time></trkpt>
      <trkpt lat="22.524766" lon="108.729847"><time>2026-04-25T01:51:52.327Z</time></trkpt>
      <trkpt lat="22.524766" lon="108.729847"><time>2026-04-25T01:51:52.344Z</time></trkpt>
      <trkpt lat="22.524777" lon="108.729828"><time>2026-04-25T01:51:52.360Z</time></trkpt>
      <trkpt lat="22.524777" lon="108.729828"><time>2026-04-25T01:51:52.377Z</time></trkpt>
      <trkpt lat="22.524777" lon="108.729828"><time>2026-04-25T01:51:52.394Z</time></trkpt>
      <trkpt lat="22.524777" lon="108.729828"><time>2026-04-25T01:51:52.410Z</time></trkpt>
      <trkpt lat="22.524777" lon="108.729828"><time>2026-04-25T01:51:52.427Z</time></trkpt>
      <trkpt lat="22.524777" lon="108.729828"><time>2026-04-25T01:51:52.444Z</time></trkpt>
      <trkpt lat="22.524788" lon="108.729809"><time>2026-04-25T01:51:52.460Z</time></trkpt>
      <trkpt lat="22.524788" lon="108.729809"><time>2026-04-25T01:51:52.477Z</time></trkpt>
      <trkpt lat="22.524788" lon="108.729809"><time>2026-04-25T01:51:52.494Z</time></trkpt>
      <trkpt lat="22.524788" lon="108.729809"><time>2026-04-25T01:51:52.510Z</time></trkpt>
      <trkpt lat="22.524788" lon="108.729809"><time>2026-04-25T01:51:52.527Z</time></trkpt>
      <trkpt lat="22.524788" lon="108.729809"><time>2026-04-25T01:51:52.544Z</time></trkpt>
      <trkpt lat="22.524799" lon="108.729791"><time>2026-04-25T01:51:52.560Z</time></trkpt>
      <trkpt lat="22.524799" lon="108.729791"><time>2026-04-25T01:51:52.577Z</time></trkpt>
      <trkpt lat="22.524799" lon="108.729791"><time>2026-04-25T01:51:52.594Z</time></trkpt>
      <trkpt lat="22.524799" lon="108.729791"><time>2026-04-25T01:51:52.611Z</time></trkpt>
      <trkpt lat="22.524799" lon="108.729791"><time>2026-04-25T01:51:52.627Z</time></trkpt>
      <trkpt lat="22.524799" lon="108.729791"><time>2026-04-25T01:51:52.644Z</time></trkpt>
      <trkpt lat="22.52481" lon="108.729772"><time>2026-04-25T01:51:52.661Z</time></trkpt>
      <trkpt lat="22.52481" lon="108.729772"><time>2026-04-25T01:51:52.677Z</time></trkpt>
      <trkpt lat="22.52481" lon="108.729772"><time>2026-04-25T01:51:52.694Z</time></trkpt>
      <trkpt lat="22.52481" lon="108.729772"><time>2026-04-25T01:51:52.711Z</time></trkpt>
      <trkpt lat="22.52481" lon="108.729772"><time>2026-04-25T01:51:52.727Z</time></trkpt>
      <trkpt lat="22.52481" lon="108.729772"><time>2026-04-25T01:51:52.744Z</time></trkpt>
      <trkpt lat="22.524825" lon="108.729754"><time>2026-04-25T01:51:52.761Z</time></trkpt>
      <trkpt lat="22.524825" lon="108.729754"><time>2026-04-25T01:51:52.777Z</time></trkpt>
      <trkpt lat="22.524825" lon="108.729754"><time>2026-04-25T01:51:52.794Z</time></trkpt>
      <trkpt lat="22.524825" lon="108.729754"><time>2026-04-25T01:51:52.811Z</time></trkpt>
      <trkpt lat="22.524825" lon="108.729754"><time>2026-04-25T01:51:52.827Z</time></trkpt>
      <trkpt lat="22.524825" lon="108.729754"><time>2026-04-25T01:51:52.844Z</time></trkpt>
      <trkpt lat="22.524836" lon="108.729735"><time>2026-04-25T01:51:52.861Z</time></trkpt>
      <trkpt lat="22.524836" lon="108.729735"><time>2026-04-25T01:51:52.877Z</time></trkpt>
      <trkpt lat="22.524836" lon="108.729735"><time>2026-04-25T01:51:52.894Z</time></trkpt>
      <trkpt lat="22.524836" lon="108.729735"><time>2026-04-25T01:51:52.911Z</time></trkpt>
      <trkpt lat="22.524836" lon="108.729735"><time>2026-04-25T01:51:52.927Z</time></trkpt>
      <trkpt lat="22.524836" lon="108.729735"><time>2026-04-25T01:51:52.944Z</time></trkpt>
      <trkpt lat="22.524847" lon="108.729716"><time>2026-04-25T01:51:52.961Z</time></trkpt>
      <trkpt lat="22.524847" lon="108.729716"><time>2026-04-25T01:51:52.977Z</time></trkpt>
      <trkpt lat="22.524847" lon="108.729716"><time>2026-04-25T01:51:52.994Z</time></trkpt>
      <trkpt lat="22.524847" lon="108.729716"><time>2026-04-25T01:51:53.011Z</time></trkpt>
      <trkpt lat="22.524847" lon="108.729716"><time>2026-04-25T01:51:53.028Z</time></trkpt>
      <trkpt lat="22.524847" lon="108.729716"><time>2026-04-25T01:51:53.044Z</time></trkpt>
      <trkpt lat="22.524858" lon="108.729698"><time>2026-04-25T01:51:53.061Z</time></trkpt>
      <trkpt lat="22.524858" lon="108.729698"><time>2026-04-25T01:51:53.078Z</time></trkpt>
      <trkpt lat="22.524858" lon="108.729698"><time>2026-04-25T01:51:53.094Z</time></trkpt>
      <trkpt lat="22.524858" lon="108.729698"><time>2026-04-25T01:51:53.111Z</time></trkpt>
      <trkpt lat="22.524858" lon="108.729698"><time>2026-04-25T01:51:53.128Z</time></trkpt>
      <trkpt lat="22.524858" lon="108.729698"><time>2026-04-25T01:51:53.144Z</time></trkpt>
      <trkpt lat="22.524869" lon="108.72968"><time>2026-04-25T01:51:53.161Z</time></trkpt>
      <trkpt lat="22.524869" lon="108.72968"><time>2026-04-25T01:51:53.178Z</time></trkpt>
      <trkpt lat="22.524869" lon="108.72968"><time>2026-04-25T01:51:53.194Z</time></trkpt>
      <trkpt lat="22.524869" lon="108.72968"><time>2026-04-25T01:51:53.211Z</time></trkpt>
      <trkpt lat="22.524869" lon="108.72968"><time>2026-04-25T01:51:53.228Z</time></trkpt>
      <trkpt lat="22.524869" lon="108.72968"><time>2026-04-25T01:51:53.244Z</time></trkpt>
      <trkpt lat="22.524881" lon="108.729661"><time>2026-04-25T01:51:53.261Z</time></trkpt>
      <trkpt lat="22.524881" lon="108.729661"><time>2026-04-25T01:51:53.278Z</time></trkpt>
      <trkpt lat="22.524881" lon="108.729661"><time>2026-04-25T01:51:53.294Z</time></trkpt>
      <trkpt lat="22.524881" lon="108.729661"><time>2026-04-25T01:51:53.311Z</time></trkpt>
      <trkpt lat="22.524881" lon="108.729661"><time>2026-04-25T01:51:53.328Z</time></trkpt>
      <trkpt lat="22.524881" lon="108.729661"><time>2026-04-25T01:51:53.344Z</time></trkpt>
      <trkpt lat="22.524892" lon="108.729643"><time>2026-04-25T01:51:53.361Z</time></trkpt>
      <trkpt lat="22.524892" lon="108.729643"><time>2026-04-25T01:51:53.378Z</time></trkpt>
      <trkpt lat="22.524892" lon="108.729643"><time>2026-04-25T01:51:53.394Z</time></trkpt>
      <trkpt lat="22.524892" lon="108.729643"><time>2026-04-25T01:51:53.411Z</time></trkpt>
      <trkpt lat="22.524892" lon="108.729643"><time>2026-04-25T01:51:53.428Z</time></trkpt>
      <trkpt lat="22.524892" lon="108.729643"><time>2026-04-25T01:51:53.445Z</time></trkpt>
      <trkpt lat="22.524903" lon="108.729624"><time>2026-04-25T01:51:53.461Z</time></trkpt>
      <trkpt lat="22.524903" lon="108.729624"><time>2026-04-25T01:51:53.478Z</time></trkpt>
      <trkpt lat="22.524903" lon="108.729624"><time>2026-04-25T01:51:53.495Z</time></trkpt>
      <trkpt lat="22.524903" lon="108.729624"><time>2026-04-25T01:51:53.511Z</time></trkpt>
      <trkpt lat="22.524903" lon="108.729624"><time>2026-04-25T01:51:53.528Z</time></trkpt>
      <trkpt lat="22.524903" lon="108.729624"><time>2026-04-25T01:51:53.545Z</time></trkpt>
      <trkpt lat="22.524914" lon="108.729605"><time>2026-04-25T01:51:53.561Z</time></trkpt>
      <trkpt lat="22.524914" lon="108.729605"><time>2026-04-25T01:51:53.578Z</time></trkpt>
      <trkpt lat="22.524914" lon="108.729605"><time>2026-04-25T01:51:53.595Z</time></trkpt>
      <trkpt lat="22.524914" lon="108.729605"><time>2026-04-25T01:51:53.611Z</time></trkpt>
      <trkpt lat="22.524914" lon="108.729605"><time>2026-04-25T01:51:53.628Z</time></trkpt>
      <trkpt lat="22.524914" lon="108.729605"><time>2026-04-25T01:51:53.645Z</time></trkpt>
    </trkseg>
  </trk>
</gpx>
