<?xml version="1.0" encoding="UTF-8"?>
<gpx version="1.1" creator="Kairos" xmlns="http://www.topografix.com/GPX/1/1">
  <trk>
    <name>sidecar-srt-b1abc0a10526483a</name>
    <trkseg>
      <trkpt lat="24.684908" lon="102.94234"><time>2026-04-26T08:41:18.000Z</time></trkpt>
      <trkpt lat="24.684908" lon="102.94234"><time>2026-04-26T08:41:18.016Z</time></trkpt>
      <trkpt lat="24.684908" lon="102.94234"><time>2026-04-26T08:41:18.032Z</time></trkpt>
      <trkpt lat="24.684908" lon="102.94234"><time>2026-04-26T08:41:18.049Z</time></trkpt>
      <trkpt lat="24.684908" lon="102.94234"><time>2026-04-26T08:41:18.066Z</time></trkpt>
      <trkpt lat="24.684908" lon="102.94234"><time>2026-04-26T08:41:18.082Z</time></trkpt>
      <trkpt lat="24.684915" lon="102.942338"><time>2026-04-26T08:41:18.099Z</time></trkpt>
      <trkpt lat="24.684915" lon="102.942338"><time>2026-04-26T08:41:18.116Z</time></trkpt>
      <trkpt lat="24.684915" lon="102.942338"><time>2026-04-26T08:41:18.132Z</time></trkpt>
      <trkpt lat="24.684915" lon="102.942338"><time>2026-04-26T08:41:18.149Z</time></trkpt>
      <trkpt lat="24.684915" lon="102.942338"><time>2026-04-26T08:41:18.166Z</time></trkpt>
      <trkpt lat="24.684915" lon="102.942338"><time>2026-04-26T08:41:18.182Z</time></trkpt>
      <trkpt lat="24.684924" lon="102.942335"><time>2026-04-26T08:41:18.199Z</time></trkpt>
      <trkpt lat="24.684924" lon="102.942335"><time>2026-04-26T08:41:18.216Z</time></trkpt>
      <trkpt lat="24.684924" lon="102.942335"><time>2026-04-26T08:41:18.232Z</time></trkpt>
      <trkpt lat="24.684924" lon="102.942335"><time>2026-04-26T08:41:18.249Z</time></trkpt>
      <trkpt lat="24.684924" lon="102.942335"><time>2026-04-26T08:41:18.266Z</time></trkpt>
      <trkpt lat="24.684924" lon="102.942335"><time>2026-04-26T08:41:18.282Z</time></trkpt>
      <trkpt lat="24.68493" lon="102.942332"><time>2026-04-26T08:41:18.299Z</time></trkpt>
      <trkpt lat="24.68493" lon="102.942332"><time>2026-04-26T08:41:18.316Z</time></trkpt>
      <trkpt lat="24.68493" lon="102.942332"><time>2026-04-26T08:41:18.333Z</time></trkpt>
      <trkpt lat="24.68493" lon="102.942332"><time>2026-04-26T08:41:18.349Z</time></trkpt>
      <trkpt lat="24.68493" lon="102.942332"><time>2026-04-26T08:41:18.366Z</time></trkpt>
      <trkpt lat="24.68493" lon="102.942332"><time>2026-04-26T08:41:18.383Z</time></trkpt>
      <trkpt lat="24.684937" lon="102.942329"><time>2026-04-26T08:41:18.399Z</time></trkpt>
      <trkpt lat="24.684937" lon="102.942329"><time>2026-04-26T08:41:18.416Z</time></trkpt>
      <trkpt lat="24.684937" lon="102.942329"><time>2026-04-26T08:41:18.433Z</time></trkpt>
      <trkpt lat="24.684937" lon="102.942329"><time>2026-04-26T08:41:18.449Z</time></trkpt>
      <trkpt lat="24.684937" lon="102.942329"><time>2026-04-26T08:41:18.466Z</time></trkpt>
      <trkpt lat="24.684937" lon="102.942329"><time>2026-04-26T08:41:18.483Z</time></trkpt>
      <trkpt lat="24.684943" lon="102.942326"><time>2026-04-26T08:41:18.499Z</time></trkpt>
      <trkpt lat="24.684943" lon="102.942326"><time>2026-04-26T08:41:18.516Z</time></trkpt>
      <trkpt lat="24.684943" lon="102.942326"><time>2026-04-26T08:41:18.533Z</time></trkpt>
      <trkpt lat="24.684943" lon="102.942326"><time>2026-04-26T08:41:18.549Z</time></trkpt>
      <trkpt lat="24.684943" lon="102.942326"><time>2026-04-26T08:41:18.566Z</time></trkpt>
      <trkpt lat="24.684943" lon="102.942326"><time>2026-04-26T08:41:18.583Z</time></trkpt>
      <trkpt lat="24.68495" lon="102.942322"><time>2026-04-26T08:41:18.599Z</time></trkpt>
      <trkpt lat="24.68495" lon="102.942322"><time>2026-04-26T08:41:18.616Z</time></trkpt>
      <trkpt lat="24.68495" lon="102.942322"><time>2026-04-26T08:41:18.633Z</time></trkpt>
      <trkpt lat="24.68495" lon="102.942322"><time>2026-04-26T08:41:18.650Z</time></trkpt>
      <trkpt lat="24.68495" lon="102.942322"><time>2026-04-26T08:41:18.666Z</time></trkpt>
      <trkpt lat="24.68495" lon="102.942322"><time>2026-04-26T08:41:18.683Z</time></trkpt>
      <trkpt lat="24.684957" lon="102.942319"><time>2026-04-26T08:41:18.700Z</time></trkpt>
      <trkpt lat="24.684957" lon="102.942319"><time>2026-04-26T08:41:18.716Z</time></trkpt>
      <trkpt lat="24.684957" lon="102.942319"><time>2026-04-26T08:41:18.733Z</time></trkpt>
      <trkpt lat="24.684957" lon="102.942319"><time>2026-04-26T08:41:18.750Z</time></trkpt>
      <trkpt lat="24.684957" lon="102.942319"><time>2026-04-26T08:41:18.766Z</time></trkpt>
      <trkpt lat="24.684957" lon="102.942319"><time>2026-04-26T08:41:18.783Z</time></trkpt>
      <trkpt lat="24.684963" lon="102.942315"><time>2026-04-26T08:41:18.800Z</time></trkpt>
      <trkpt lat="24.684963" lon="102.942315"><time>2026-04-26T08:41:18.816Z</time></trkpt>
      <trkpt lat="24.684963" lon="102.942315"><time>2026-04-26T08:41:18.833Z</time></trkpt>
      <trkpt lat="24.684963" lon="102.942315"><time>2026-04-26T08:41:18.850Z</time></trkpt>
      <trkpt lat="24.684963" lon="102.942315"><time>2026-04-26T08:41:18.866Z</time></trkpt>
      <trkpt lat="24.684963" lon="102.942315"><time>2026-04-26T08:41:18.883Z</time></trkpt>
      <trkpt lat="24.684969" lon="102.942312"><time>2026-04-26T08:41:18.900Z</time></trkpt>
      <trkpt lat="24.684969" lon="102.942312"><time>2026-04-26T08:41:18.916Z</time></trkpt>
      <trkpt lat="24.684969" lon="102.942312"><time>2026-04-26T08:41:18.933Z</time></trkpt>
      <trkpt lat="24.684969" lon="102.942312"><time>2026-04-26T08:41:18.950Z</time></trkpt>
      <trkpt lat="24.684969" lon="102.942312"><time>2026-04-26T08:41:18.967Z</time></trkpt>
      <trkpt lat="24.684969" lon="102.942312"><time>2026-04-26T08:41:18.983Z</time></trkpt>
      <trkpt lat="24.684976" lon="102.942308"><time>2026-04-26T08:41:19.000Z</time></trkpt>
      <trkpt lat="24.684976" lon="102.942308"><time>2026-04-26T08:41:19.017Z</time></trkpt>
      <trkpt lat="24.684976" lon="102.942308"><time>2026-04-26T08:41:19.033Z</time></trkpt>
      <trkpt lat="24.684976" lon="102.942308"><time>2026-04-26T08:41:19.050Z</time></trkpt>
      <trkpt lat="24.684976" lon="102.942308"><time>2026-04-26T08:41:19.067Z</time></trkpt>
      <trkpt lat="24.684976" lon="102.942308"><time>2026-04-26T08:41:19.083Z</time></trkpt>
      <trkpt lat="24.684982" lon="102.942305"><time>2026-04-26T08:41:19.100Z</time></trkpt>
      <trkpt lat="24.684982" lon="102.942305"><time>2026-04-26T08:41:19.117Z</time></trkpt>
      <trkpt lat="24.684982" lon="102.942305"><time>2026-04-26T08:41:19.133Z</time></trkpt>
      <trkpt lat="24.684982" lon="102.942305"><time>2026-04-26T08:41:19.150Z</time></trkpt>
      <trkpt lat="24.684982" lon="102.942305"><time>2026-04-26T08:41:19.167Z</time></trkpt>
      <trkpt lat="24.684982" lon="102.942305"><time>2026-04-26T08:41:19.183Z</time></trkpt>
      <trkpt lat="24.68499" lon="102.9423"><time>2026-04-26T08:41:19.200Z</time></trkpt>
      <trkpt lat="24.68499" lon="102.9423"><time>2026-04-26T08:41:19.217Z</time></trkpt>
      <trkpt lat="24.68499" lon="102.9423"><time>2026-04-26T08:41:19.233Z</time></trkpt>
      <trkpt lat="24.68499" lon="102.9423"><time>2026-04-26T08:41:19.250Z</time></trkpt>
      <trkpt lat="24.68499" lon="102.9423"><time>2026-04-26T08:41:19.267Z</time></trkpt>
      <trkpt lat="24.68499" lon="102.9423"><time>2026-04-26T08:41:19.284Z</time></trkpt>
      <trkpt lat="24.684996" lon="102.942297"><time>2026-04-26T08:41:19.300Z</time></trkpt>
      <trkpt lat="24.684996" lon="102.942297"><time>2026-04-26T08:41:19.317Z</time></trkpt>
      <trkpt lat="24.684996" lon="102.942297"><time>2026-04-26T08:41:19.334Z</time></trkpt>
      <trkpt lat="24.684996" lon="102.942297"><time>2026-04-26T08:41:19.350Z</time></trkpt>
      <trkpt lat="24.684996" lon="102.942297"><time>2026-04-26T08:41:19.367Z</time></trkpt>
      <trkpt lat="24.684996" lon="102.942297"><time>2026-04-26T08:41:19.384Z</time></trkpt>
      <trkpt lat="24.685005" lon="102.942292"><time>2026-04-26T08:41:19.400Z</time></trkpt>
      <trkpt lat="24.685005" lon="102.942292"><time>2026-04-26T08:41:19.417Z</time></trkpt>
      <trkpt lat="24.685005" lon="102.942292"><time>2026-04-26T08:41:19.434Z</time></trkpt>
      <trkpt lat="24.685005" lon="102.942292"><time>2026-04-26T08:41:19.450Z</time></trkpt>
      <trkpt lat="24.685005" lon="102.942292"><time>2026-04-26T08:41:19.467Z</time></trkpt>
      <trkpt lat="24.685005" lon="102.942292"><time>2026-04-26T08:41:19.484Z</time></trkpt>
      <trkpt lat="24.685012" lon="102.942288"><time>2026-04-26T08:41:19.500Z</time></trkpt>
      <trkpt lat="24.685012" lon="102.942288"><time>2026-04-26T08:41:19.517Z</time></trkpt>
      <trkpt lat="24.685012" lon="102.942288"><time>2026-04-26T08:41:19.534Z</time></trkpt>
      <trkpt lat="24.685012" lon="102.942288"><time>2026-04-26T08:41:19.550Z</time></trkpt>
      <trkpt lat="24.685012" lon="102.942288"><time>2026-04-26T08:41:19.567Z</time></trkpt>
      <trkpt lat="24.685012" lon="102.942288"><time>2026-04-26T08:41:19.584Z</time></trkpt>
      <trkpt lat="24.68502" lon="102.942283"><time>2026-04-26T08:41:19.601Z</time></trkpt>
      <trkpt lat="24.68502" lon="102.942283"><time>2026-04-26T08:41:19.617Z</time></trkpt>
      <trkpt lat="24.68502" lon="102.942283"><time>2026-04-26T08:41:19.634Z</time></trkpt>
      <trkpt lat="24.68502" lon="102.942283"><time>2026-04-26T08:41:19.651Z</time></trkpt>
      <trkpt lat="24.68502" lon="102.942283"><time>2026-04-26T08:41:19.667Z</time></trkpt>
      <trkpt lat="24.68502" lon="102.942283"><time>2026-04-26T08:41:19.684Z</time></trkpt>
      <trkpt lat="24.685029" lon="102.942278"><time>2026-04-26T08:41:19.701Z</time></trkpt>
      <trkpt lat="24.685029" lon="102.942278"><time>2026-04-26T08:41:19.717Z</time></trkpt>
      <trkpt lat="24.685029" lon="102.942278"><time>2026-04-26T08:41:19.734Z</time></trkpt>
      <trkpt lat="24.685029" lon="102.942278"><time>2026-04-26T08:41:19.751Z</time></trkpt>
      <trkpt lat="24.685029" lon="102.942278"><time>2026-04-26T08:41:19.767Z</time></trkpt>
      <trkpt lat="24.685029" lon="102.942278"><time>2026-04-26T08:41:19.784Z</time></trkpt>
      <trkpt lat="24.685038" lon="102.942273"><time>2026-04-26T08:41:19.801Z</time></trkpt>
      <trkpt lat="24.685038" lon="102.942273"><time>2026-04-26T08:41:19.817Z</time></trkpt>
      <trkpt lat="24.685038" lon="102.942273"><time>2026-04-26T08:41:19.834Z</time></trkpt>
      <trkpt lat="24.685038" lon="102.942273"><time>2026-04-26T08:41:19.851Z</time></trkpt>
      <trkpt lat="24.685038" lon="102.942273"><time>2026-04-26T08:41:19.867Z</time></trkpt>
      <trkpt lat="24.685038" lon="102.942273"><time>2026-04-26T08:41:19.884Z</time></trkpt>
      <trkpt lat="24.685045" lon="102.942269"><time>2026-04-26T08:41:19.901Z</time></trkpt>
      <trkpt lat="24.685045" lon="102.942269"><time>2026-04-26T08:41:19.918Z</time></trkpt>
      <trkpt lat="24.685045" lon="102.942269"><time>2026-04-26T08:41:19.934Z</time></trkpt>
      <trkpt lat="24.685045" lon="102.942269"><time>2026-04-26T08:41:19.951Z</time></trkpt>
      <trkpt lat="24.685045" lon="102.942269"><time>2026-04-26T08:41:19.968Z</time></trkpt>
      <trkpt lat="24.685045" lon="102.942269"><time>2026-04-26T08:41:19.984Z</time></trkpt>
      <trkpt lat="24.685056" lon="102.942262"><time>2026-04-26T08:41:20.001Z</time></trkpt>
      <trkpt lat="24.685056" lon="102.942262"><time>2026-04-26T08:41:20.018Z</time></trkpt>
      <trkpt lat="24.685056" lon="102.942262"><time>2026-04-26T08:41:20.034Z</time></trkpt>
      <trkpt lat="24.685056" lon="102.942262"><time>2026-04-26T08:41:20.051Z</time></trkpt>
      <trkpt lat="24.685056" lon="102.942262"><time>2026-04-26T08:41:20.068Z</time></trkpt>
      <trkpt lat="24.685056" lon="102.942262"><time>2026-04-26T08:41:20.084Z</time></trkpt>
      <trkpt lat="24.685065" lon="102.942257"><time>2026-04-26T08:41:20.101Z</time></trkpt>
      <trkpt lat="24.685065" lon="102.942257"><time>2026-04-26T08:41:20.118Z</time></trkpt>
      <trkpt lat="24.685065" lon="102.942257"><time>2026-04-26T08:41:20.134Z</time></trkpt>
      <trkpt lat="24.685065" lon="102.942257"><time>2026-04-26T08:41:20.151Z</time></trkpt>
      <trkpt lat="24.685065" lon="102.942257"><time>2026-04-26T08:41:20.168Z</time></trkpt>
      <trkpt lat="24.685065" lon="102.942257"><time>2026-04-26T08:41:20.184Z</time></trkpt>
      <trkpt lat="24.685075" lon="102.942251"><time>2026-04-26T08:41:20.201Z</time></trkpt>
      <trkpt lat="24.685075" lon="102.942251"><time>2026-04-26T08:41:20.218Z</time></trkpt>
      <trkpt lat="24.685075" lon="102.942251"><time>2026-04-26T08:41:20.234Z</time></trkpt>
      <trkpt lat="24.685075" lon="102.942251"><time>2026-04-26T08:41:20.251Z</time></trkpt>
      <trkpt lat="24.685075" lon="102.942251"><time>2026-04-26T08:41:20.268Z</time></trkpt>
      <trkpt lat="24.685075" lon="102.942251"><time>2026-04-26T08:41:20.285Z</time></trkpt>
      <trkpt lat="24.685084" lon="102.942246"><time>2026-04-26T08:41:20.301Z</time></trkpt>
      <trkpt lat="24.685084" lon="102.942246"><time>2026-04-26T08:41:20.318Z</time></trkpt>
      <trkpt lat="24.685084" lon="102.942246"><time>2026-04-26T08:41:20.335Z</time></trkpt>
      <trkpt lat="24.685084" lon="102.942246"><time>2026-04-26T08:41:20.351Z</time></trkpt>
      <trkpt lat="24.685084" lon="102.942246"><time>2026-04-26T08:41:20.368Z</time></trkpt>
      <trkpt lat="24.685084" lon="102.942246"><time>2026-04-26T08:41:20.385Z</time></trkpt>
      <trkpt lat="24.685096" lon="102.94224"><time>2026-04-26T08:41:20.401Z</time></trkpt>
      <trkpt lat="24.685096" lon="102.94224"><time>2026-04-26T08:41:20.418Z</time></trkpt>
      <trkpt lat="24.685096" lon="102.94224"><time>2026-04-26T08:41:20.435Z</time></trkpt>
      <trkpt lat="24.685096" lon="102.94224"><time>2026-04-26T08:41:20.451Z</time></trkpt>
      <trkpt lat="24.685096" lon="102.94224"><time>2026-04-26T08:41:20.468Z</time></trkpt>
      <trkpt lat="24.685096" lon="102.94224"><time>2026-04-26T08:41:20.485Z</time></trkpt>
      <trkpt lat="24.685106" lon="102.942234"><time>2026-04-26T08:41:20.501Z</time></trkpt>
      <trkpt lat="24.685106" lon="102.942234"><time>2026-04-26T08:41:20.518Z</time></trkpt>
      <trkpt lat="24.685106" lon="102.942234"><time>2026-04-26T08:41:20.535Z</time></trkpt>
      <trkpt lat="24.685106" lon="102.942234"><time>2026-04-26T08:41:20.551Z</time></trkpt>
      <trkpt lat="24.685106" lon="102.942234"><time>2026-04-26T08:41:20.568Z</time></trkpt>
      <trkpt lat="24.685106" lon="102.942234"><time>2026-04-26T08:41:20.585Z</time></trkpt>
      <trkpt lat="24.685117" lon="102.942228"><time>2026-04-26T08:41:20.602Z</time></trkpt>
      <trkpt lat="24.685117" lon="102.942228"><time>2026-04-26T08:41:20.618Z</time></trkpt>
      <trkpt lat="24.685117" lon="102.942228"><time>2026-04-26T08:41:20.635Z</time></trkpt>
      <trkpt lat="24.685117" lon="102.942228"><time>2026-04-26T08:41:20.652Z</time></trkpt>
      <trkpt lat="24.685117" lon="102.942228"><time>2026-04-26T08:41:20.668Z</time></trkpt>
      <trkpt lat="24.685117" lon="102.942228"><time>2026-04-26T08:41:20.685Z</time></trkpt>
      <trkpt lat="24.685127" lon="102.942222"><time>2026-04-26T08:41:20.702Z</time></trkpt>
      <trkpt lat="24.685127" lon="102.942222"><time>2026-04-26T08:41:20.718Z</time></trkpt>
      <trkpt lat="24.685127" lon="102.942222"><time>2026-04-26T08:41:20.735Z</time></trkpt>
      <trkpt lat="24.685127" lon="102.942222"><time>2026-04-26T08:41:20.752Z</time></trkpt>
      <trkpt lat="24.685127" lon="102.942222"><time>2026-04-26T08:41:20.768Z</time></trkpt>
      <trkpt lat="24.685127" lon="102.942222"><time>2026-04-26T08:41:20.785Z</time></trkpt>
      <trkpt lat="24.68514" lon="102.942215"><time>2026-04-26T08:41:20.802Z</time></trkpt>
      <trkpt lat="24.68514" lon="102.942215"><time>2026-04-26T08:41:20.818Z</time></trkpt>
      <trkpt lat="24.68514" lon="102.942215"><time>2026-04-26T08:41:20.835Z</time></trkpt>
      <trkpt lat="24.68514" lon="102.942215"><time>2026-04-26T08:41:20.852Z</time></trkpt>
      <trkpt lat="24.68514" lon="102.942215"><time>2026-04-26T08:41:20.868Z</time></trkpt>
      <trkpt lat="24.68514" lon="102.942215"><time>2026-04-26T08:41:20.885Z</time></trkpt>
      <trkpt lat="24.68515" lon="102.94221"><time>2026-04-26T08:41:20.902Z</time></trkpt>
      <trkpt lat="24.68515" lon="102.94221"><time>2026-04-26T08:41:20.919Z</time></trkpt>
      <trkpt lat="24.68515" lon="102.94221"><time>2026-04-26T08:41:20.935Z</time></trkpt>
      <trkpt lat="24.68515" lon="102.94221"><time>2026-04-26T08:41:20.952Z</time></trkpt>
      <trkpt lat="24.68515" lon="102.94221"><time>2026-04-26T08:41:20.969Z</time></trkpt>
      <trkpt lat="24.68515" lon="102.94221"><time>2026-04-26T08:41:20.985Z</time></trkpt>
      <trkpt lat="24.685163" lon="102.942203"><time>2026-04-26T08:41:21.002Z</time></trkpt>
      <trkpt lat="24.685163" lon="102.942203"><time>2026-04-26T08:41:21.019Z</time></trkpt>
      <trkpt lat="24.685163" lon="102.942203"><time>2026-04-26T08:41:21.035Z</time></trkpt>
      <trkpt lat="24.685163" lon="102.942203"><time>2026-04-26T08:41:21.052Z</time></trkpt>
      <trkpt lat="24.685163" lon="102.942203"><time>2026-04-26T08:41:21.069Z</time></trkpt>
      <trkpt lat="24.685163" lon="102.942203"><time>2026-04-26T08:41:21.085Z</time></trkpt>
      <trkpt lat="24.685174" lon="102.942197"><time>2026-04-26T08:41:21.102Z</time></trkpt>
      <trkpt lat="24.685174" lon="102.942197"><time>2026-04-26T08:41:21.119Z</time></trkpt>
      <trkpt lat="24.685174" lon="102.942197"><time>2026-04-26T08:41:21.135Z</time></trkpt>
      <trkpt lat="24.685174" lon="102.942197"><time>2026-04-26T08:41:21.152Z</time></trkpt>
      <trkpt lat="24.685174" lon="102.942197"><time>2026-04-26T08:41:21.169Z</time></trkpt>
      <trkpt lat="24.685174" lon="102.942197"><time>2026-04-26T08:41:21.185Z</time></trkpt>
      <trkpt lat="24.685187" lon="102.94219"><time>2026-04-26T08:41:21.202Z</time></trkpt>
      <trkpt lat="24.685187" lon="102.94219"><time>2026-04-26T08:41:21.219Z</time></trkpt>
      <trkpt lat="24.685187" lon="102.94219"><time>2026-04-26T08:41:21.236Z</time></trkpt>
      <trkpt lat="24.685187" lon="102.94219"><time>2026-04-26T08:41:21.252Z</time></trkpt>
      <trkpt lat="24.685187" lon="102.94219"><time>2026-04-26T08:41:21.269Z</time></trkpt>
      <trkpt lat="24.685187" lon="102.94219"><time>2026-04-26T08:41:21.286Z</time></trkpt>
      <trkpt lat="24.685198" lon="102.942184"><time>2026-04-26T08:41:21.302Z</time></trkpt>
      <trkpt lat="24.685198" lon="102.942184"><time>2026-04-26T08:41:21.319Z</time></trkpt>
      <trkpt lat="24.685198" lon="102.942184"><time>2026-04-26T08:41:21.336Z</time></trkpt>
      <trkpt lat="24.685198" lon="102.942184"><time>2026-04-26T08:41:21.352Z</time></trkpt>
      <trkpt lat="24.685198" lon="102.942184"><time>2026-04-26T08:41:21.369Z</time></trkpt>
      <trkpt lat="24.685198" lon="102.942184"><time>2026-04-26T08:41:21.386Z</time></trkpt>
      <trkpt lat="24.685213" lon="102.942176"><time>2026-04-26T08:41:21.402Z</time></trkpt>
      <trkpt lat="24.685213" lon="102.942176"><time>2026-04-26T08:41:21.419Z</time></trkpt>
      <trkpt lat="24.685213" lon="102.942176"><time>2026-04-26T08:41:21.436Z</time></trkpt>
      <trkpt lat="24.685213" lon="102.942176"><time>2026-04-26T08:41:21.452Z</time></trkpt>
      <trkpt lat="24.685213" lon="102.942176"><time>2026-04-26T08:41:21.469Z</time></trkpt>
      <trkpt lat="24.685213" lon="102.942176"><time>2026-04-26T08:41:21.486Z</time></trkpt>
      <trkpt lat="24.685224" lon="102.94217"><time>2026-04-26T08:41:21.502Z</time></trkpt>
      <trkpt lat="24.685224" lon="102.94217"><time>2026-04-26T08:41:21.519Z</time></trkpt>
      <trkpt lat="24.685224" lon="102.94217"><time>2026-04-26T08:41:21.536Z</time></trkpt>
      <trkpt lat="24.685224" lon="102.94217"><time>2026-04-26T08:41:21.553Z</time></trkpt>
      <trkpt lat="24.685224" lon="102.94217"><time>2026-04-26T08:41:21.569Z</time></trkpt>
      <trkpt lat="24.685224" lon="102.94217"><time>2026-04-26T08:41:21.586Z</time></trkpt>
      <trkpt lat="24.685239" lon="102.942165"><time>2026-04-26T08:41:21.603Z</time></trkpt>
      <trkpt lat="24.685239" lon="102.942165"><time>2026-04-26T08:41:21.619Z</time></trkpt>
      <trkpt lat="24.685239" lon="102.942165"><time>2026-04-26T08:41:21.636Z</time></trkpt>
      <trkpt lat="24.685239" lon="102.942165"><time>2026-04-26T08:41:21.653Z</time></trkpt>
      <trkpt lat="24.685239" lon="102.942165"><time>2026-04-26T08:41:21.669Z</time></trkpt>
      <trkpt lat="24.685239" lon="102.942165"><time>2026-04-26T08:41:21.686Z</time></trkpt>
      <trkpt lat="24.685253" lon="102.942158"><time>2026-04-26T08:41:21.703Z</time></trkpt>
      <trkpt lat="24.685253" lon="102.942158"><time>2026-04-26T08:41:21.719Z</time></trkpt>
      <trkpt lat="24.685253" lon="102.942158"><time>2026-04-26T08:41:21.736Z</time></trkpt>
      <trkpt lat="24.685253" lon="102.942158"><time>2026-04-26T08:41:21.753Z</time></trkpt>
      <trkpt lat="24.685253" lon="102.942158"><time>2026-04-26T08:41:21.769Z</time></trkpt>
      <trkpt lat="24.685253" lon="102.942158"><time>2026-04-26T08:41:21.786Z</time></trkpt>
      <trkpt lat="24.685267" lon="102.942151"><time>2026-04-26T08:41:21.803Z</time></trkpt>
      <trkpt lat="24.685267" lon="102.942151"><time>2026-04-26T08:41:21.819Z</time></trkpt>
      <trkpt lat="24.685267" lon="102.942151"><time>2026-04-26T08:41:21.836Z</time></trkpt>
      <trkpt lat="24.685267" lon="102.942151"><time>2026-04-26T08:41:21.853Z</time></trkpt>
      <trkpt lat="24.685267" lon="102.942151"><time>2026-04-26T08:41:21.870Z</time></trkpt>
      <trkpt lat="24.685279" lon="102.942144"><time>2026-04-26T08:41:21.886Z</time></trkpt>
      <trkpt lat="24.685279" lon="102.942144"><time>2026-04-26T08:41:21.903Z</time></trkpt>
      <trkpt lat="24.685279" lon="102.942144"><time>2026-04-26T08:41:21.920Z</time></trkpt>
      <trkpt lat="24.685279" lon="102.942144"><time>2026-04-26T08:41:21.936Z</time></trkpt>
      <trkpt lat="24.685279" lon="102.942144"><time>2026-04-26T08:41:21.953Z</time></trkpt>
      <trkpt lat="24.685279" lon="102.942144"><time>2026-04-26T08:41:21.970Z</time></trkpt>
      <trkpt lat="24.685279" lon="102.942144"><time>2026-04-26T08:41:21.986Z</time></trkpt>
      <trkpt lat="24.685295" lon="102.942137"><time>2026-04-26T08:41:22.003Z</time></trkpt>
      <trkpt lat="24.685295" lon="102.942137"><time>2026-04-26T08:41:22.020Z</time></trkpt>
      <trkpt lat="24.685295" lon="102.942137"><time>2026-04-26T08:41:22.036Z</time></trkpt>
      <trkpt lat="24.685295" lon="102.942137"><time>2026-04-26T08:41:22.053Z</time></trkpt>
      <trkpt lat="24.685295" lon="102.942137"><time>2026-04-26T08:41:22.070Z</time></trkpt>
      <trkpt lat="24.685295" lon="102.942137"><time>2026-04-26T08:41:22.086Z</time></trkpt>
      <trkpt lat="24.685307" lon="102.942131"><time>2026-04-26T08:41:22.103Z</time></trkpt>
      <trkpt lat="24.685307" lon="102.942131"><time>2026-04-26T08:41:22.120Z</time></trkpt>
      <trkpt lat="24.685307" lon="102.942131"><time>2026-04-26T08:41:22.136Z</time></trkpt>
      <trkpt lat="24.685307" lon="102.942131"><time>2026-04-26T08:41:22.153Z</time></trkpt>
      <trkpt lat="24.685307" lon="102.942131"><time>2026-04-26T08:41:22.170Z</time></trkpt>
      <trkpt lat="24.685324" lon="102.942122"><time>2026-04-26T08:41:22.187Z</time></trkpt>
      <trkpt lat="24.685324" lon="102.942122"><time>2026-04-26T08:41:22.203Z</time></trkpt>
      <trkpt lat="24.685324" lon="102.942122"><time>2026-04-26T08:41:22.220Z</time></trkpt>
      <trkpt lat="24.685324" lon="102.942122"><time>2026-04-26T08:41:22.237Z</time></trkpt>
      <trkpt lat="24.685324" lon="102.942122"><time>2026-04-26T08:41:22.253Z</time></trkpt>
      <trkpt lat="24.685324" lon="102.942122"><time>2026-04-26T08:41:22.270Z</time></trkpt>
      <trkpt lat="24.685336" lon="102.942116"><time>2026-04-26T08:41:22.287Z</time></trkpt>
      <trkpt lat="24.685336" lon="102.942116"><time>2026-04-26T08:41:22.303Z</time></trkpt>
      <trkpt lat="24.685336" lon="102.942116"><time>2026-04-26T08:41:22.320Z</time></trkpt>
      <trkpt lat="24.685336" lon="102.942116"><time>2026-04-26T08:41:22.337Z</time></trkpt>
      <trkpt lat="24.685336" lon="102.942116"><time>2026-04-26T08:41:22.353Z</time></trkpt>
      <trkpt lat="24.685336" lon="102.942116"><time>2026-04-26T08:41:22.370Z</time></trkpt>
      <trkpt lat="24.685354" lon="102.942108"><time>2026-04-26T08:41:22.387Z</time></trkpt>
      <trkpt lat="24.685354" lon="102.942108"><time>2026-04-26T08:41:22.403Z</time></trkpt>
      <trkpt lat="24.685354" lon="102.942108"><time>2026-04-26T08:41:22.420Z</time></trkpt>
      <trkpt lat="24.685354" lon="102.942108"><time>2026-04-26T08:41:22.437Z</time></trkpt>
      <trkpt lat="24.685354" lon="102.942108"><time>2026-04-26T08:41:22.453Z</time></trkpt>
      <trkpt lat="24.685354" lon="102.942108"><time>2026-04-26T08:41:22.470Z</time></trkpt>
      <trkpt lat="24.685367" lon="102.942101"><time>2026-04-26T08:41:22.487Z</time></trkpt>
      <trkpt lat="24.685367" lon="102.942101"><time>2026-04-26T08:41:22.504Z</time></trkpt>
      <trkpt lat="24.685367" lon="102.942101"><time>2026-04-26T08:41:22.520Z</time></trkpt>
      <trkpt lat="24.685367" lon="102.942101"><time>2026-04-26T08:41:22.537Z</time></trkpt>
      <trkpt lat="24.685367" lon="102.942101"><time>2026-04-26T08:41:22.554Z</time></trkpt>
      <trkpt lat="24.685367" lon="102.942101"><time>2026-04-26T08:41:22.570Z</time></trkpt>
      <trkpt lat="24.685384" lon="102.942093"><time>2026-04-26T08:41:22.587Z</time></trkpt>
      <trkpt lat="24.685384" lon="102.942093"><time>2026-04-26T08:41:22.604Z</time></trkpt>
      <trkpt lat="24.685384" lon="102.942093"><time>2026-04-26T08:41:22.620Z</time></trkpt>
      <trkpt lat="24.685384" lon="102.942093"><time>2026-04-26T08:41:22.637Z</time></trkpt>
      <trkpt lat="24.685384" lon="102.942093"><time>2026-04-26T08:41:22.654Z</time></trkpt>
      <trkpt lat="24.685384" lon="102.942093"><time>2026-04-26T08:41:22.670Z</time></trkpt>
      <trkpt lat="24.6854" lon="102.942086"><time>2026-04-26T08:41:22.687Z</time></trkpt>
      <trkpt lat="24.6854" lon="102.942086"><time>2026-04-26T08:41:22.704Z</time></trkpt>
      <trkpt lat="24.6854" lon="102.942086"><time>2026-04-26T08:41:22.720Z</time></trkpt>
      <trkpt lat="24.6854" lon="102.942086"><time>2026-04-26T08:41:22.737Z</time></trkpt>
      <trkpt lat="24.6854" lon="102.942086"><time>2026-04-26T08:41:22.754Z</time></trkpt>
      <trkpt lat="24.6854" lon="102.942086"><time>2026-04-26T08:41:22.770Z</time></trkpt>
      <trkpt lat="24.685416" lon="102.942078"><time>2026-04-26T08:41:22.787Z</time></trkpt>
      <trkpt lat="24.685416" lon="102.942078"><time>2026-04-26T08:41:22.804Z</time></trkpt>
      <trkpt lat="24.685416" lon="102.942078"><time>2026-04-26T08:41:22.821Z</time></trkpt>
      <trkpt lat="24.685416" lon="102.942078"><time>2026-04-26T08:41:22.837Z</time></trkpt>
      <trkpt lat="24.685416" lon="102.942078"><time>2026-04-26T08:41:22.854Z</time></trkpt>
      <trkpt lat="24.685416" lon="102.942078"><time>2026-04-26T08:41:22.871Z</time></trkpt>
      <trkpt lat="24.68543" lon="102.942072"><time>2026-04-26T08:41:22.887Z</time></trkpt>
      <trkpt lat="24.68543" lon="102.942072"><time>2026-04-26T08:41:22.904Z</time></trkpt>
      <trkpt lat="24.68543" lon="102.942072"><time>2026-04-26T08:41:22.921Z</time></trkpt>
      <trkpt lat="24.68543" lon="102.942072"><time>2026-04-26T08:41:22.937Z</time></trkpt>
      <trkpt lat="24.68543" lon="102.942072"><time>2026-04-26T08:41:22.954Z</time></trkpt>
      <trkpt lat="24.68543" lon="102.942072"><time>2026-04-26T08:41:22.971Z</time></trkpt>
      <trkpt lat="24.685448" lon="102.942064"><time>2026-04-26T08:41:22.987Z</time></trkpt>
      <trkpt lat="24.685448" lon="102.942064"><time>2026-04-26T08:41:23.004Z</time></trkpt>
      <trkpt lat="24.685448" lon="102.942064"><time>2026-04-26T08:41:23.021Z</time></trkpt>
      <trkpt lat="24.685448" lon="102.942064"><time>2026-04-26T08:41:23.037Z</time></trkpt>
      <trkpt lat="24.685448" lon="102.942064"><time>2026-04-26T08:41:23.054Z</time></trkpt>
      <trkpt lat="24.685448" lon="102.942064"><time>2026-04-26T08:41:23.071Z</time></trkpt>
      <trkpt lat="24.685462" lon="102.942057"><time>2026-04-26T08:41:23.087Z</time></trkpt>
      <trkpt lat="24.685462" lon="102.942057"><time>2026-04-26T08:41:23.104Z</time></trkpt>
      <trkpt lat="24.685462" lon="102.942057"><time>2026-04-26T08:41:23.121Z</time></trkpt>
      <trkpt lat="24.685462" lon="102.942057"><time>2026-04-26T08:41:23.138Z</time></trkpt>
      <trkpt lat="24.685462" lon="102.942057"><time>2026-04-26T08:41:23.154Z</time></trkpt>
      <trkpt lat="24.685462" lon="102.942057"><time>2026-04-26T08:41:23.171Z</time></trkpt>
      <trkpt lat="24.685481" lon="102.942049"><time>2026-04-26T08:41:23.188Z</time></trkpt>
      <trkpt lat="24.685481" lon="102.942049"><time>2026-04-26T08:41:23.204Z</time></trkpt>
      <trkpt lat="24.685481" lon="102.942049"><time>2026-04-26T08:41:23.221Z</time></trkpt>
      <trkpt lat="24.685481" lon="102.942049"><time>2026-04-26T08:41:23.238Z</time></trkpt>
      <trkpt lat="24.685481" lon="102.942049"><time>2026-04-26T08:41:23.254Z</time></trkpt>
      <trkpt lat="24.685481" lon="102.942049"><time>2026-04-26T08:41:23.271Z</time></trkpt>
      <trkpt lat="24.685497" lon="102.942042"><time>2026-04-26T08:41:23.288Z</time></trkpt>
      <trkpt lat="24.685497" lon="102.942042"><time>2026-04-26T08:41:23.304Z</time></trkpt>
      <trkpt lat="24.685497" lon="102.942042"><time>2026-04-26T08:41:23.321Z</time></trkpt>
      <trkpt lat="24.685497" lon="102.942042"><time>2026-04-26T08:41:23.338Z</time></trkpt>
      <trkpt lat="24.685497" lon="102.942042"><time>2026-04-26T08:41:23.354Z</time></trkpt>
      <trkpt lat="24.685497" lon="102.942042"><time>2026-04-26T08:41:23.371Z</time></trkpt>
      <trkpt lat="24.685514" lon="102.942035"><time>2026-04-26T08:41:23.388Z</time></trkpt>
      <trkpt lat="24.685514" lon="102.942035"><time>2026-04-26T08:41:23.404Z</time></trkpt>
      <trkpt lat="24.685514" lon="102.942035"><time>2026-04-26T08:41:23.421Z</time></trkpt>
      <trkpt lat="24.685514" lon="102.942035"><time>2026-04-26T08:41:23.438Z</time></trkpt>
      <trkpt lat="24.685514" lon="102.942035"><time>2026-04-26T08:41:23.455Z</time></trkpt>
      <trkpt lat="24.685514" lon="102.942035"><time>2026-04-26T08:41:23.471Z</time></trkpt>
      <trkpt lat="24.685529" lon="102.942028"><time>2026-04-26T08:41:23.488Z</time></trkpt>
      <trkpt lat="24.685529" lon="102.942028"><time>2026-04-26T08:41:23.505Z</time></trkpt>
      <trkpt lat="24.685529" lon="102.942028"><time>2026-04-26T08:41:23.521Z</time></trkpt>
      <trkpt lat="24.685529" lon="102.942028"><time>2026-04-26T08:41:23.538Z</time></trkpt>
      <trkpt lat="24.685529" lon="102.942028"><time>2026-04-26T08:41:23.555Z</time></trkpt>
      <trkpt lat="24.685529" lon="102.942028"><time>2026-04-26T08:41:23.571Z</time></trkpt>
      <trkpt lat="24.685548" lon="102.94202"><time>2026-04-26T08:41:23.588Z</time></trkpt>
      <trkpt lat="24.685548" lon="102.94202"><time>2026-04-26T08:41:23.605Z</time></trkpt>
      <trkpt lat="24.685548" lon="102.94202"><time>2026-04-26T08:41:23.621Z</time></trkpt>
      <trkpt lat="24.685548" lon="102.94202"><time>2026-04-26T08:41:23.638Z</time></trkpt>
    </trkseg>
  </trk>
</gpx>
