<?xml version="1.0" encoding="UTF-8"?>
<gpx version="1.1" creator="Kairos" xmlns="http://www.topografix.com/GPX/1/1">
  <trk>
    <name>sidecar-srt-fc43b2905df1263d</name>
    <trkseg>
      <trkpt lat="29.749068" lon="99.561083"><time>2026-05-02T07:43:44.000Z</time></trkpt>
      <trkpt lat="29.749068" lon="99.561083"><time>2026-05-02T07:43:44.016Z</time></trkpt>
      <trkpt lat="29.749068" lon="99.561083"><time>2026-05-02T07:43:44.032Z</time></trkpt>
      <trkpt lat="29.749068" lon="99.561083"><time>2026-05-02T07:43:44.049Z</time></trkpt>
      <trkpt lat="29.749068" lon="99.561083"><time>2026-05-02T07:43:44.066Z</time></trkpt>
      <trkpt lat="29.749068" lon="99.561083"><time>2026-05-02T07:43:44.082Z</time></trkpt>
      <trkpt lat="29.749068" lon="99.561083"><time>2026-05-02T07:43:44.099Z</time></trkpt>
      <trkpt lat="29.749068" lon="99.561083"><time>2026-05-02T07:43:44.116Z</time></trkpt>
      <trkpt lat="29.749068" lon="99.561083"><time>2026-05-02T07:43:44.132Z</time></trkpt>
      <trkpt lat="29.749068" lon="99.561083"><time>2026-05-02T07:43:44.149Z</time></trkpt>
      <trkpt lat="29.749068" lon="99.561083"><time>2026-05-02T07:43:44.166Z</time></trkpt>
      <trkpt lat="29.749068" lon="99.561083"><time>2026-05-02T07:43:44.182Z</time></trkpt>
      <trkpt lat="29.749068" lon="99.561083"><time>2026-05-02T07:43:44.199Z</time></trkpt>
      <trkpt lat="29.749068" lon="99.561083"><time>2026-05-02T07:43:44.216Z</time></trkpt>
      <trkpt lat="29.749068" lon="99.561083"><time>2026-05-02T07:43:44.232Z</time></trkpt>
      <trkpt lat="29.749068" lon="99.561082"><time>2026-05-02T07:43:44.249Z</time></trkpt>
      <trkpt lat="29.749068" lon="99.561082"><time>2026-05-02T07:43:44.266Z</time></trkpt>
      <trkpt lat="29.749068" lon="99.561082"><time>2026-05-02T07:43:44.282Z</time></trkpt>
      <trkpt lat="29.749068" lon="99.561082"><time>2026-05-02T07:43:44.299Z</time></trkpt>
      <trkpt lat="29.749068" lon="99.561082"><time>2026-05-02T07:43:44.316Z</time></trkpt>
      <trkpt lat="29.749068" lon="99.561082"><time>2026-05-02T07:43:44.333Z</time></trkpt>
      <trkpt lat="29.749068" lon="99.561082"><time>2026-05-02T07:43:44.349Z</time></trkpt>
      <trkpt lat="29.749068" lon="99.561082"><time>2026-05-02T07:43:44.366Z</time></trkpt>
      <trkpt lat="29.749068" lon="99.561082"><time>2026-05-02T07:43:44.383Z</time></trkpt>
      <trkpt lat="29.749068" lon="99.561082"><time>2026-05-02T07:43:44.399Z</time></trkpt>
      <trkpt lat="29.749068" lon="99.561082"><time>2026-05-02T07:43:44.416Z</time></trkpt>
      <trkpt lat="29.749068" lon="99.561082"><time>2026-05-02T07:43:44.433Z</time></trkpt>
      <trkpt lat="29.749067" lon="99.56108"><time>2026-05-02T07:43:44.449Z</time></trkpt>
      <trkpt lat="29.749067" lon="99.56108"><time>2026-05-02T07:43:44.466Z</time></trkpt>
      <trkpt lat="29.749067" lon="99.56108"><time>2026-05-02T07:43:44.483Z</time></trkpt>
      <trkpt lat="29.749067" lon="99.56108"><time>2026-05-02T07:43:44.499Z</time></trkpt>
      <trkpt lat="29.749067" lon="99.56108"><time>2026-05-02T07:43:44.516Z</time></trkpt>
      <trkpt lat="29.749067" lon="99.56108"><time>2026-05-02T07:43:44.533Z</time></trkpt>
      <trkpt lat="29.749067" lon="99.561079"><time>2026-05-02T07:43:44.549Z</time></trkpt>
      <trkpt lat="29.749067" lon="99.561079"><time>2026-05-02T07:43:44.566Z</time></trkpt>
      <trkpt lat="29.749067" lon="99.561079"><time>2026-05-02T07:43:44.583Z</time></trkpt>
      <trkpt lat="29.749067" lon="99.561079"><time>2026-05-02T07:43:44.599Z</time></trkpt>
      <trkpt lat="29.749067" lon="99.561079"><time>2026-05-02T07:43:44.616Z</time></trkpt>
      <trkpt lat="29.749067" lon="99.561079"><time>2026-05-02T07:43:44.633Z</time></trkpt>
      <trkpt lat="29.749067" lon="99.561077"><time>2026-05-02T07:43:44.650Z</time></trkpt>
      <trkpt lat="29.749067" lon="99.561077"><time>2026-05-02T07:43:44.666Z</time></trkpt>
      <trkpt lat="29.749067" lon="99.561077"><time>2026-05-02T07:43:44.683Z</time></trkpt>
      <trkpt lat="29.749067" lon="99.561077"><time>2026-05-02T07:43:44.700Z</time></trkpt>
      <trkpt lat="29.749067" lon="99.561077"><time>2026-05-02T07:43:44.716Z</time></trkpt>
      <trkpt lat="29.749067" lon="99.561077"><time>2026-05-02T07:43:44.733Z</time></trkpt>
      <trkpt lat="29.749067" lon="99.561075"><time>2026-05-02T07:43:44.750Z</time></trkpt>
      <trkpt lat="29.749067" lon="99.561075"><time>2026-05-02T07:43:44.766Z</time></trkpt>
      <trkpt lat="29.749067" lon="99.561075"><time>2026-05-02T07:43:44.783Z</time></trkpt>
      <trkpt lat="29.749067" lon="99.561075"><time>2026-05-02T07:43:44.800Z</time></trkpt>
      <trkpt lat="29.749067" lon="99.561075"><time>2026-05-02T07:43:44.816Z</time></trkpt>
      <trkpt lat="29.749067" lon="99.561075"><time>2026-05-02T07:43:44.833Z</time></trkpt>
      <trkpt lat="29.749067" lon="99.561072"><time>2026-05-02T07:43:44.850Z</time></trkpt>
      <trkpt lat="29.749067" lon="99.561072"><time>2026-05-02T07:43:44.866Z</time></trkpt>
      <trkpt lat="29.749067" lon="99.561072"><time>2026-05-02T07:43:44.883Z</time></trkpt>
      <trkpt lat="29.749067" lon="99.561072"><time>2026-05-02T07:43:44.900Z</time></trkpt>
      <trkpt lat="29.749067" lon="99.561072"><time>2026-05-02T07:43:44.916Z</time></trkpt>
      <trkpt lat="29.749067" lon="99.561072"><time>2026-05-02T07:43:44.933Z</time></trkpt>
      <trkpt lat="29.749066" lon="99.561069"><time>2026-05-02T07:43:44.950Z</time></trkpt>
      <trkpt lat="29.749066" lon="99.561069"><time>2026-05-02T07:43:44.967Z</time></trkpt>
      <trkpt lat="29.749066" lon="99.561069"><time>2026-05-02T07:43:44.983Z</time></trkpt>
      <trkpt lat="29.749066" lon="99.561069"><time>2026-05-02T07:43:45.000Z</time></trkpt>
      <trkpt lat="29.749066" lon="99.561069"><time>2026-05-02T07:43:45.017Z</time></trkpt>
      <trkpt lat="29.749066" lon="99.561069"><time>2026-05-02T07:43:45.033Z</time></trkpt>
      <trkpt lat="29.749066" lon="99.561066"><time>2026-05-02T07:43:45.050Z</time></trkpt>
      <trkpt lat="29.749066" lon="99.561066"><time>2026-05-02T07:43:45.067Z</time></trkpt>
      <trkpt lat="29.749066" lon="99.561066"><time>2026-05-02T07:43:45.083Z</time></trkpt>
      <trkpt lat="29.749066" lon="99.561066"><time>2026-05-02T07:43:45.100Z</time></trkpt>
      <trkpt lat="29.749066" lon="99.561066"><time>2026-05-02T07:43:45.117Z</time></trkpt>
      <trkpt lat="29.749066" lon="99.561066"><time>2026-05-02T07:43:45.133Z</time></trkpt>
      <trkpt lat="29.749066" lon="99.561062"><time>2026-05-02T07:43:45.150Z</time></trkpt>
      <trkpt lat="29.749066" lon="99.561062"><time>2026-05-02T07:43:45.167Z</time></trkpt>
      <trkpt lat="29.749066" lon="99.561062"><time>2026-05-02T07:43:45.183Z</time></trkpt>
      <trkpt lat="29.749066" lon="99.561062"><time>2026-05-02T07:43:45.200Z</time></trkpt>
      <trkpt lat="29.749066" lon="99.561062"><time>2026-05-02T07:43:45.217Z</time></trkpt>
      <trkpt lat="29.749066" lon="99.561062"><time>2026-05-02T07:43:45.233Z</time></trkpt>
      <trkpt lat="29.749065" lon="99.561059"><time>2026-05-02T07:43:45.250Z</time></trkpt>
      <trkpt lat="29.749065" lon="99.561059"><time>2026-05-02T07:43:45.267Z</time></trkpt>
      <trkpt lat="29.749065" lon="99.561059"><time>2026-05-02T07:43:45.284Z</time></trkpt>
      <trkpt lat="29.749065" lon="99.561059"><time>2026-05-02T07:43:45.300Z</time></trkpt>
      <trkpt lat="29.749065" lon="99.561059"><time>2026-05-02T07:43:45.317Z</time></trkpt>
      <trkpt lat="29.749065" lon="99.561059"><time>2026-05-02T07:43:45.334Z</time></trkpt>
      <trkpt lat="29.749065" lon="99.561055"><time>2026-05-02T07:43:45.350Z</time></trkpt>
      <trkpt lat="29.749065" lon="99.561055"><time>2026-05-02T07:43:45.367Z</time></trkpt>
      <trkpt lat="29.749065" lon="99.561055"><time>2026-05-02T07:43:45.384Z</time></trkpt>
      <trkpt lat="29.749065" lon="99.561055"><time>2026-05-02T07:43:45.400Z</time></trkpt>
      <trkpt lat="29.749065" lon="99.561055"><time>2026-05-02T07:43:45.417Z</time></trkpt>
      <trkpt lat="29.749065" lon="99.561055"><time>2026-05-02T07:43:45.434Z</time></trkpt>
      <trkpt lat="29.749065" lon="99.56105"><time>2026-05-02T07:43:45.450Z</time></trkpt>
      <trkpt lat="29.749065" lon="99.56105"><time>2026-05-02T07:43:45.467Z</time></trkpt>
      <trkpt lat="29.749065" lon="99.56105"><time>2026-05-02T07:43:45.484Z</time></trkpt>
      <trkpt lat="29.749065" lon="99.56105"><time>2026-05-02T07:43:45.500Z</time></trkpt>
      <trkpt lat="29.749065" lon="99.56105"><time>2026-05-02T07:43:45.517Z</time></trkpt>
      <trkpt lat="29.749065" lon="99.56105"><time>2026-05-02T07:43:45.534Z</time></trkpt>
      <trkpt lat="29.749064" lon="99.561046"><time>2026-05-02T07:43:45.550Z</time></trkpt>
      <trkpt lat="29.749064" lon="99.561046"><time>2026-05-02T07:43:45.567Z</time></trkpt>
      <trkpt lat="29.749064" lon="99.561046"><time>2026-05-02T07:43:45.584Z</time></trkpt>
      <trkpt lat="29.749064" lon="99.561046"><time>2026-05-02T07:43:45.601Z</time></trkpt>
      <trkpt lat="29.749064" lon="99.561046"><time>2026-05-02T07:43:45.617Z</time></trkpt>
      <trkpt lat="29.749064" lon="99.561046"><time>2026-05-02T07:43:45.634Z</time></trkpt>
      <trkpt lat="29.749064" lon="99.561041"><time>2026-05-02T07:43:45.651Z</time></trkpt>
      <trkpt lat="29.749064" lon="99.561041"><time>2026-05-02T07:43:45.667Z</time></trkpt>
      <trkpt lat="29.749064" lon="99.561041"><time>2026-05-02T07:43:45.684Z</time></trkpt>
      <trkpt lat="29.749064" lon="99.561041"><time>2026-05-02T07:43:45.701Z</time></trkpt>
      <trkpt lat="29.749064" lon="99.561041"><time>2026-05-02T07:43:45.717Z</time></trkpt>
      <trkpt lat="29.749064" lon="99.561041"><time>2026-05-02T07:43:45.734Z</time></trkpt>
      <trkpt lat="29.749063" lon="99.561036"><time>2026-05-02T07:43:45.751Z</time></trkpt>
      <trkpt lat="29.749063" lon="99.561036"><time>2026-05-02T07:43:45.767Z</time></trkpt>
      <trkpt lat="29.749063" lon="99.561036"><time>2026-05-02T07:43:45.784Z</time></trkpt>
      <trkpt lat="29.749063" lon="99.561036"><time>2026-05-02T07:43:45.801Z</time></trkpt>
      <trkpt lat="29.749063" lon="99.561036"><time>2026-05-02T07:43:45.817Z</time></trkpt>
      <trkpt lat="29.749063" lon="99.561036"><time>2026-05-02T07:43:45.834Z</time></trkpt>
      <trkpt lat="29.749063" lon="99.561031"><time>2026-05-02T07:43:45.851Z</time></trkpt>
      <trkpt lat="29.749063" lon="99.561031"><time>2026-05-02T07:43:45.867Z</time></trkpt>
      <trkpt lat="29.749063" lon="99.561031"><time>2026-05-02T07:43:45.884Z</time></trkpt>
      <trkpt lat="29.749063" lon="99.561031"><time>2026-05-02T07:43:45.901Z</time></trkpt>
      <trkpt lat="29.749063" lon="99.561031"><time>2026-05-02T07:43:45.917Z</time></trkpt>
      <trkpt lat="29.749063" lon="99.561031"><time>2026-05-02T07:43:45.934Z</time></trkpt>
      <trkpt lat="29.749062" lon="99.561025"><time>2026-05-02T07:43:45.951Z</time></trkpt>
      <trkpt lat="29.749062" lon="99.561025"><time>2026-05-02T07:43:45.968Z</time></trkpt>
      <trkpt lat="29.749062" lon="99.561025"><time>2026-05-02T07:43:45.984Z</time></trkpt>
      <trkpt lat="29.749062" lon="99.561025"><time>2026-05-02T07:43:46.001Z</time></trkpt>
      <trkpt lat="29.749062" lon="99.561025"><time>2026-05-02T07:43:46.018Z</time></trkpt>
      <trkpt lat="29.749062" lon="99.561025"><time>2026-05-02T07:43:46.034Z</time></trkpt>
      <trkpt lat="29.749062" lon="99.56102"><time>2026-05-02T07:43:46.051Z</time></trkpt>
      <trkpt lat="29.749062" lon="99.56102"><time>2026-05-02T07:43:46.068Z</time></trkpt>
      <trkpt lat="29.749062" lon="99.56102"><time>2026-05-02T07:43:46.084Z</time></trkpt>
      <trkpt lat="29.749062" lon="99.56102"><time>2026-05-02T07:43:46.101Z</time></trkpt>
      <trkpt lat="29.749062" lon="99.56102"><time>2026-05-02T07:43:46.118Z</time></trkpt>
      <trkpt lat="29.749062" lon="99.56102"><time>2026-05-02T07:43:46.134Z</time></trkpt>
      <trkpt lat="29.749061" lon="99.561014"><time>2026-05-02T07:43:46.151Z</time></trkpt>
      <trkpt lat="29.749061" lon="99.561014"><time>2026-05-02T07:43:46.168Z</time></trkpt>
      <trkpt lat="29.749061" lon="99.561014"><time>2026-05-02T07:43:46.184Z</time></trkpt>
      <trkpt lat="29.749061" lon="99.561014"><time>2026-05-02T07:43:46.201Z</time></trkpt>
      <trkpt lat="29.749061" lon="99.561014"><time>2026-05-02T07:43:46.218Z</time></trkpt>
      <trkpt lat="29.749061" lon="99.561014"><time>2026-05-02T07:43:46.234Z</time></trkpt>
      <trkpt lat="29.749061" lon="99.561008"><time>2026-05-02T07:43:46.251Z</time></trkpt>
      <trkpt lat="29.749061" lon="99.561008"><time>2026-05-02T07:43:46.268Z</time></trkpt>
      <trkpt lat="29.749061" lon="99.561008"><time>2026-05-02T07:43:46.285Z</time></trkpt>
      <trkpt lat="29.749061" lon="99.561008"><time>2026-05-02T07:43:46.301Z</time></trkpt>
      <trkpt lat="29.749061" lon="99.561008"><time>2026-05-02T07:43:46.318Z</time></trkpt>
      <trkpt lat="29.749061" lon="99.561008"><time>2026-05-02T07:43:46.335Z</time></trkpt>
      <trkpt lat="29.74906" lon="99.561002"><time>2026-05-02T07:43:46.351Z</time></trkpt>
      <trkpt lat="29.74906" lon="99.561002"><time>2026-05-02T07:43:46.368Z</time></trkpt>
      <trkpt lat="29.74906" lon="99.561002"><time>2026-05-02T07:43:46.385Z</time></trkpt>
      <trkpt lat="29.74906" lon="99.561002"><time>2026-05-02T07:43:46.401Z</time></trkpt>
      <trkpt lat="29.74906" lon="99.561002"><time>2026-05-02T07:43:46.418Z</time></trkpt>
      <trkpt lat="29.74906" lon="99.561002"><time>2026-05-02T07:43:46.435Z</time></trkpt>
      <trkpt lat="29.749059" lon="99.560996"><time>2026-05-02T07:43:46.451Z</time></trkpt>
      <trkpt lat="29.749059" lon="99.560996"><time>2026-05-02T07:43:46.468Z</time></trkpt>
      <trkpt lat="29.749059" lon="99.560996"><time>2026-05-02T07:43:46.485Z</time></trkpt>
      <trkpt lat="29.749059" lon="99.560996"><time>2026-05-02T07:43:46.501Z</time></trkpt>
      <trkpt lat="29.749059" lon="99.560996"><time>2026-05-02T07:43:46.518Z</time></trkpt>
      <trkpt lat="29.749059" lon="99.560996"><time>2026-05-02T07:43:46.535Z</time></trkpt>
      <trkpt lat="29.749059" lon="99.560989"><time>2026-05-02T07:43:46.551Z</time></trkpt>
      <trkpt lat="29.749059" lon="99.560989"><time>2026-05-02T07:43:46.568Z</time></trkpt>
      <trkpt lat="29.749059" lon="99.560989"><time>2026-05-02T07:43:46.585Z</time></trkpt>
      <trkpt lat="29.749059" lon="99.560989"><time>2026-05-02T07:43:46.602Z</time></trkpt>
      <trkpt lat="29.749059" lon="99.560989"><time>2026-05-02T07:43:46.618Z</time></trkpt>
      <trkpt lat="29.749059" lon="99.560989"><time>2026-05-02T07:43:46.635Z</time></trkpt>
      <trkpt lat="29.749058" lon="99.560982"><time>2026-05-02T07:43:46.652Z</time></trkpt>
      <trkpt lat="29.749058" lon="99.560982"><time>2026-05-02T07:43:46.668Z</time></trkpt>
      <trkpt lat="29.749058" lon="99.560982"><time>2026-05-02T07:43:46.685Z</time></trkpt>
      <trkpt lat="29.749058" lon="99.560982"><time>2026-05-02T07:43:46.702Z</time></trkpt>
      <trkpt lat="29.749058" lon="99.560982"><time>2026-05-02T07:43:46.718Z</time></trkpt>
      <trkpt lat="29.749058" lon="99.560982"><time>2026-05-02T07:43:46.735Z</time></trkpt>
      <trkpt lat="29.749058" lon="99.560976"><time>2026-05-02T07:43:46.752Z</time></trkpt>
      <trkpt lat="29.749058" lon="99.560976"><time>2026-05-02T07:43:46.768Z</time></trkpt>
      <trkpt lat="29.749058" lon="99.560976"><time>2026-05-02T07:43:46.785Z</time></trkpt>
      <trkpt lat="29.749058" lon="99.560976"><time>2026-05-02T07:43:46.802Z</time></trkpt>
      <trkpt lat="29.749058" lon="99.560976"><time>2026-05-02T07:43:46.818Z</time></trkpt>
      <trkpt lat="29.749058" lon="99.560976"><time>2026-05-02T07:43:46.835Z</time></trkpt>
      <trkpt lat="29.749057" lon="99.560969"><time>2026-05-02T07:43:46.852Z</time></trkpt>
      <trkpt lat="29.749057" lon="99.560969"><time>2026-05-02T07:43:46.868Z</time></trkpt>
      <trkpt lat="29.749057" lon="99.560969"><time>2026-05-02T07:43:46.885Z</time></trkpt>
      <trkpt lat="29.749057" lon="99.560969"><time>2026-05-02T07:43:46.902Z</time></trkpt>
      <trkpt lat="29.749057" lon="99.560969"><time>2026-05-02T07:43:46.919Z</time></trkpt>
      <trkpt lat="29.749057" lon="99.560969"><time>2026-05-02T07:43:46.935Z</time></trkpt>
      <trkpt lat="29.749056" lon="99.560962"><time>2026-05-02T07:43:46.952Z</time></trkpt>
      <trkpt lat="29.749056" lon="99.560962"><time>2026-05-02T07:43:46.969Z</time></trkpt>
      <trkpt lat="29.749056" lon="99.560962"><time>2026-05-02T07:43:46.985Z</time></trkpt>
      <trkpt lat="29.749056" lon="99.560962"><time>2026-05-02T07:43:47.002Z</time></trkpt>
      <trkpt lat="29.749056" lon="99.560962"><time>2026-05-02T07:43:47.019Z</time></trkpt>
      <trkpt lat="29.749056" lon="99.560962"><time>2026-05-02T07:43:47.035Z</time></trkpt>
      <trkpt lat="29.749055" lon="99.560955"><time>2026-05-02T07:43:47.052Z</time></trkpt>
      <trkpt lat="29.749055" lon="99.560955"><time>2026-05-02T07:43:47.069Z</time></trkpt>
      <trkpt lat="29.749055" lon="99.560955"><time>2026-05-02T07:43:47.085Z</time></trkpt>
      <trkpt lat="29.749055" lon="99.560955"><time>2026-05-02T07:43:47.102Z</time></trkpt>
      <trkpt lat="29.749055" lon="99.560955"><time>2026-05-02T07:43:47.119Z</time></trkpt>
      <trkpt lat="29.749055" lon="99.560955"><time>2026-05-02T07:43:47.135Z</time></trkpt>
      <trkpt lat="29.749055" lon="99.560948"><time>2026-05-02T07:43:47.152Z</time></trkpt>
      <trkpt lat="29.749055" lon="99.560948"><time>2026-05-02T07:43:47.169Z</time></trkpt>
      <trkpt lat="29.749055" lon="99.560948"><time>2026-05-02T07:43:47.185Z</time></trkpt>
      <trkpt lat="29.749055" lon="99.560948"><time>2026-05-02T07:43:47.202Z</time></trkpt>
      <trkpt lat="29.749055" lon="99.560948"><time>2026-05-02T07:43:47.219Z</time></trkpt>
      <trkpt lat="29.749055" lon="99.560948"><time>2026-05-02T07:43:47.236Z</time></trkpt>
      <trkpt lat="29.749054" lon="99.56094"><time>2026-05-02T07:43:47.252Z</time></trkpt>
      <trkpt lat="29.749054" lon="99.56094"><time>2026-05-02T07:43:47.269Z</time></trkpt>
      <trkpt lat="29.749054" lon="99.56094"><time>2026-05-02T07:43:47.286Z</time></trkpt>
      <trkpt lat="29.749054" lon="99.56094"><time>2026-05-02T07:43:47.302Z</time></trkpt>
      <trkpt lat="29.749054" lon="99.56094"><time>2026-05-02T07:43:47.319Z</time></trkpt>
      <trkpt lat="29.749054" lon="99.56094"><time>2026-05-02T07:43:47.336Z</time></trkpt>
      <trkpt lat="29.749053" lon="99.560933"><time>2026-05-02T07:43:47.352Z</time></trkpt>
      <trkpt lat="29.749053" lon="99.560933"><time>2026-05-02T07:43:47.369Z</time></trkpt>
      <trkpt lat="29.749053" lon="99.560933"><time>2026-05-02T07:43:47.386Z</time></trkpt>
      <trkpt lat="29.749053" lon="99.560933"><time>2026-05-02T07:43:47.402Z</time></trkpt>
      <trkpt lat="29.749053" lon="99.560933"><time>2026-05-02T07:43:47.419Z</time></trkpt>
      <trkpt lat="29.749053" lon="99.560933"><time>2026-05-02T07:43:47.436Z</time></trkpt>
      <trkpt lat="29.749052" lon="99.560926"><time>2026-05-02T07:43:47.452Z</time></trkpt>
      <trkpt lat="29.749052" lon="99.560926"><time>2026-05-02T07:43:47.469Z</time></trkpt>
      <trkpt lat="29.749052" lon="99.560926"><time>2026-05-02T07:43:47.486Z</time></trkpt>
      <trkpt lat="29.749052" lon="99.560926"><time>2026-05-02T07:43:47.502Z</time></trkpt>
      <trkpt lat="29.749052" lon="99.560926"><time>2026-05-02T07:43:47.519Z</time></trkpt>
      <trkpt lat="29.749052" lon="99.560926"><time>2026-05-02T07:43:47.536Z</time></trkpt>
      <trkpt lat="29.749051" lon="99.560918"><time>2026-05-02T07:43:47.553Z</time></trkpt>
      <trkpt lat="29.749051" lon="99.560918"><time>2026-05-02T07:43:47.569Z</time></trkpt>
      <trkpt lat="29.749051" lon="99.560918"><time>2026-05-02T07:43:47.586Z</time></trkpt>
      <trkpt lat="29.749051" lon="99.560918"><time>2026-05-02T07:43:47.603Z</time></trkpt>
      <trkpt lat="29.749051" lon="99.560918"><time>2026-05-02T07:43:47.619Z</time></trkpt>
      <trkpt lat="29.749051" lon="99.560918"><time>2026-05-02T07:43:47.636Z</time></trkpt>
      <trkpt lat="29.74905" lon="99.56091"><time>2026-05-02T07:43:47.653Z</time></trkpt>
      <trkpt lat="29.74905" lon="99.56091"><time>2026-05-02T07:43:47.669Z</time></trkpt>
      <trkpt lat="29.74905" lon="99.56091"><time>2026-05-02T07:43:47.686Z</time></trkpt>
      <trkpt lat="29.74905" lon="99.56091"><time>2026-05-02T07:43:47.703Z</time></trkpt>
      <trkpt lat="29.74905" lon="99.56091"><time>2026-05-02T07:43:47.719Z</time></trkpt>
      <trkpt lat="29.74905" lon="99.56091"><time>2026-05-02T07:43:47.736Z</time></trkpt>
      <trkpt lat="29.749049" lon="99.560902"><time>2026-05-02T07:43:47.753Z</time></trkpt>
      <trkpt lat="29.749049" lon="99.560902"><time>2026-05-02T07:43:47.769Z</time></trkpt>
      <trkpt lat="29.749049" lon="99.560902"><time>2026-05-02T07:43:47.786Z</time></trkpt>
      <trkpt lat="29.749049" lon="99.560902"><time>2026-05-02T07:43:47.803Z</time></trkpt>
      <trkpt lat="29.749049" lon="99.560902"><time>2026-05-02T07:43:47.819Z</time></trkpt>
      <trkpt lat="29.749049" lon="99.560902"><time>2026-05-02T07:43:47.836Z</time></trkpt>
      <trkpt lat="29.749048" lon="99.560894"><time>2026-05-02T07:43:47.853Z</time></trkpt>
      <trkpt lat="29.749048" lon="99.560894"><time>2026-05-02T07:43:47.870Z</time></trkpt>
      <trkpt lat="29.749048" lon="99.560894"><time>2026-05-02T07:43:47.886Z</time></trkpt>
      <trkpt lat="29.749048" lon="99.560894"><time>2026-05-02T07:43:47.903Z</time></trkpt>
      <trkpt lat="29.749048" lon="99.560894"><time>2026-05-02T07:43:47.920Z</time></trkpt>
      <trkpt lat="29.749048" lon="99.560894"><time>2026-05-02T07:43:47.936Z</time></trkpt>
      <trkpt lat="29.749047" lon="99.560886"><time>2026-05-02T07:43:47.953Z</time></trkpt>
      <trkpt lat="29.749047" lon="99.560886"><time>2026-05-02T07:43:47.970Z</time></trkpt>
      <trkpt lat="29.749047" lon="99.560886"><time>2026-05-02T07:43:47.986Z</time></trkpt>
      <trkpt lat="29.749047" lon="99.560886"><time>2026-05-02T07:43:48.003Z</time></trkpt>
      <trkpt lat="29.749047" lon="99.560886"><time>2026-05-02T07:43:48.020Z</time></trkpt>
      <trkpt lat="29.749047" lon="99.560886"><time>2026-05-02T07:43:48.036Z</time></trkpt>
      <trkpt lat="29.749046" lon="99.560878"><time>2026-05-02T07:43:48.053Z</time></trkpt>
      <trkpt lat="29.749046" lon="99.560878"><time>2026-05-02T07:43:48.070Z</time></trkpt>
      <trkpt lat="29.749046" lon="99.560878"><time>2026-05-02T07:43:48.086Z</time></trkpt>
      <trkpt lat="29.749046" lon="99.560878"><time>2026-05-02T07:43:48.103Z</time></trkpt>
      <trkpt lat="29.749046" lon="99.560878"><time>2026-05-02T07:43:48.120Z</time></trkpt>
      <trkpt lat="29.749046" lon="99.560878"><time>2026-05-02T07:43:48.136Z</time></trkpt>
      <trkpt lat="29.749045" lon="99.56087"><time>2026-05-02T07:43:48.153Z</time></trkpt>
      <trkpt lat="29.749045" lon="99.56087"><time>2026-05-02T07:43:48.170Z</time></trkpt>
      <trkpt lat="29.749045" lon="99.56087"><time>2026-05-02T07:43:48.187Z</time></trkpt>
      <trkpt lat="29.749045" lon="99.56087"><time>2026-05-02T07:43:48.203Z</time></trkpt>
      <trkpt lat="29.749045" lon="99.56087"><time>2026-05-02T07:43:48.220Z</time></trkpt>
      <trkpt lat="29.749045" lon="99.56087"><time>2026-05-02T07:43:48.237Z</time></trkpt>
      <trkpt lat="29.749044" lon="99.560862"><time>2026-05-02T07:43:48.253Z</time></trkpt>
      <trkpt lat="29.749044" lon="99.560862"><time>2026-05-02T07:43:48.270Z</time></trkpt>
      <trkpt lat="29.749044" lon="99.560862"><time>2026-05-02T07:43:48.287Z</time></trkpt>
      <trkpt lat="29.749044" lon="99.560862"><time>2026-05-02T07:43:48.303Z</time></trkpt>
      <trkpt lat="29.749044" lon="99.560862"><time>2026-05-02T07:43:48.320Z</time></trkpt>
      <trkpt lat="29.749044" lon="99.560862"><time>2026-05-02T07:43:48.337Z</time></trkpt>
      <trkpt lat="29.749043" lon="99.560853"><time>2026-05-02T07:43:48.353Z</time></trkpt>
      <trkpt lat="29.749043" lon="99.560853"><time>2026-05-02T07:43:48.370Z</time></trkpt>
      <trkpt lat="29.749043" lon="99.560853"><time>2026-05-02T07:43:48.387Z</time></trkpt>
      <trkpt lat="29.749043" lon="99.560853"><time>2026-05-02T07:43:48.403Z</time></trkpt>
      <trkpt lat="29.749043" lon="99.560853"><time>2026-05-02T07:43:48.420Z</time></trkpt>
      <trkpt lat="29.749043" lon="99.560846"><time>2026-05-02T07:43:48.437Z</time></trkpt>
      <trkpt lat="29.749043" lon="99.560846"><time>2026-05-02T07:43:48.453Z</time></trkpt>
      <trkpt lat="29.749043" lon="99.560846"><time>2026-05-02T07:43:48.470Z</time></trkpt>
      <trkpt lat="29.749043" lon="99.560846"><time>2026-05-02T07:43:48.487Z</time></trkpt>
      <trkpt lat="29.749043" lon="99.560846"><time>2026-05-02T07:43:48.504Z</time></trkpt>
      <trkpt lat="29.749043" lon="99.560846"><time>2026-05-02T07:43:48.520Z</time></trkpt>
      <trkpt lat="29.749043" lon="99.560846"><time>2026-05-02T07:43:48.537Z</time></trkpt>
      <trkpt lat="29.749042" lon="99.560837"><time>2026-05-02T07:43:48.554Z</time></trkpt>
      <trkpt lat="29.749042" lon="99.560837"><time>2026-05-02T07:43:48.570Z</time></trkpt>
      <trkpt lat="29.749042" lon="99.560837"><time>2026-05-02T07:43:48.587Z</time></trkpt>
      <trkpt lat="29.749042" lon="99.560837"><time>2026-05-02T07:43:48.604Z</time></trkpt>
      <trkpt lat="29.749042" lon="99.560837"><time>2026-05-02T07:43:48.620Z</time></trkpt>
      <trkpt lat="29.749042" lon="99.560837"><time>2026-05-02T07:43:48.637Z</time></trkpt>
      <trkpt lat="29.749041" lon="99.560829"><time>2026-05-02T07:43:48.654Z</time></trkpt>
      <trkpt lat="29.749041" lon="99.560829"><time>2026-05-02T07:43:48.670Z</time></trkpt>
      <trkpt lat="29.749041" lon="99.560829"><time>2026-05-02T07:43:48.687Z</time></trkpt>
      <trkpt lat="29.749041" lon="99.560829"><time>2026-05-02T07:43:48.704Z</time></trkpt>
      <trkpt lat="29.749041" lon="99.560829"><time>2026-05-02T07:43:48.720Z</time></trkpt>
      <trkpt lat="29.749041" lon="99.560829"><time>2026-05-02T07:43:48.737Z</time></trkpt>
      <trkpt lat="29.74904" lon="99.56082"><time>2026-05-02T07:43:48.754Z</time></trkpt>
      <trkpt lat="29.74904" lon="99.56082"><time>2026-05-02T07:43:48.770Z</time></trkpt>
      <trkpt lat="29.74904" lon="99.56082"><time>2026-05-02T07:43:48.787Z</time></trkpt>
      <trkpt lat="29.74904" lon="99.56082"><time>2026-05-02T07:43:48.804Z</time></trkpt>
      <trkpt lat="29.74904" lon="99.56082"><time>2026-05-02T07:43:48.821Z</time></trkpt>
      <trkpt lat="29.749039" lon="99.560812"><time>2026-05-02T07:43:48.837Z</time></trkpt>
      <trkpt lat="29.749039" lon="99.560812"><time>2026-05-02T07:43:48.854Z</time></trkpt>
      <trkpt lat="29.749039" lon="99.560812"><time>2026-05-02T07:43:48.871Z</time></trkpt>
      <trkpt lat="29.749039" lon="99.560812"><time>2026-05-02T07:43:48.887Z</time></trkpt>
      <trkpt lat="29.749039" lon="99.560812"><time>2026-05-02T07:43:48.904Z</time></trkpt>
      <trkpt lat="29.749039" lon="99.560812"><time>2026-05-02T07:43:48.921Z</time></trkpt>
      <trkpt lat="29.749038" lon="99.560803"><time>2026-05-02T07:43:48.937Z</time></trkpt>
      <trkpt lat="29.749038" lon="99.560803"><time>2026-05-02T07:43:48.954Z</time></trkpt>
      <trkpt lat="29.749038" lon="99.560803"><time>2026-05-02T07:43:48.971Z</time></trkpt>
      <trkpt lat="29.749038" lon="99.560803"><time>2026-05-02T07:43:48.987Z</time></trkpt>
      <trkpt lat="29.749038" lon="99.560803"><time>2026-05-02T07:43:49.004Z</time></trkpt>
      <trkpt lat="29.749038" lon="99.560803"><time>2026-05-02T07:43:49.021Z</time></trkpt>
      <trkpt lat="29.749037" lon="99.560794"><time>2026-05-02T07:43:49.037Z</time></trkpt>
      <trkpt lat="29.749037" lon="99.560794"><time>2026-05-02T07:43:49.054Z</time></trkpt>
      <trkpt lat="29.749037" lon="99.560794"><time>2026-05-02T07:43:49.071Z</time></trkpt>
      <trkpt lat="29.749037" lon="99.560794"><time>2026-05-02T07:43:49.087Z</time></trkpt>
      <trkpt lat="29.749037" lon="99.560794"><time>2026-05-02T07:43:49.104Z</time></trkpt>
      <trkpt lat="29.749037" lon="99.560794"><time>2026-05-02T07:43:49.121Z</time></trkpt>
      <trkpt lat="29.749036" lon="99.560785"><time>2026-05-02T07:43:49.138Z</time></trkpt>
      <trkpt lat="29.749036" lon="99.560785"><time>2026-05-02T07:43:49.154Z</time></trkpt>
      <trkpt lat="29.749036" lon="99.560785"><time>2026-05-02T07:43:49.171Z</time></trkpt>
      <trkpt lat="29.749036" lon="99.560785"><time>2026-05-02T07:43:49.188Z</time></trkpt>
      <trkpt lat="29.749036" lon="99.560785"><time>2026-05-02T07:43:49.204Z</time></trkpt>
      <trkpt lat="29.749036" lon="99.560785"><time>2026-05-02T07:43:49.221Z</time></trkpt>
      <trkpt lat="29.749035" lon="99.560776"><time>2026-05-02T07:43:49.238Z</time></trkpt>
      <trkpt lat="29.749035" lon="99.560776"><time>2026-05-02T07:43:49.254Z</time></trkpt>
      <trkpt lat="29.749035" lon="99.560776"><time>2026-05-02T07:43:49.271Z</time></trkpt>
      <trkpt lat="29.749035" lon="99.560776"><time>2026-05-02T07:43:49.288Z</time></trkpt>
      <trkpt lat="29.749035" lon="99.560776"><time>2026-05-02T07:43:49.304Z</time></trkpt>
      <trkpt lat="29.749035" lon="99.560776"><time>2026-05-02T07:43:49.321Z</time></trkpt>
      <trkpt lat="29.749034" lon="99.560767"><time>2026-05-02T07:43:49.338Z</time></trkpt>
      <trkpt lat="29.749034" lon="99.560767"><time>2026-05-02T07:43:49.354Z</time></trkpt>
      <trkpt lat="29.749034" lon="99.560767"><time>2026-05-02T07:43:49.371Z</time></trkpt>
      <trkpt lat="29.749034" lon="99.560767"><time>2026-05-02T07:43:49.388Z</time></trkpt>
      <trkpt lat="29.749034" lon="99.560767"><time>2026-05-02T07:43:49.404Z</time></trkpt>
      <trkpt lat="29.749034" lon="99.560767"><time>2026-05-02T07:43:49.421Z</time></trkpt>
      <trkpt lat="29.749033" lon="99.560758"><time>2026-05-02T07:43:49.438Z</time></trkpt>
      <trkpt lat="29.749033" lon="99.560758"><time>2026-05-02T07:43:49.455Z</time></trkpt>
      <trkpt lat="29.749033" lon="99.560758"><time>2026-05-02T07:43:49.471Z</time></trkpt>
      <trkpt lat="29.749033" lon="99.560758"><time>2026-05-02T07:43:49.488Z</time></trkpt>
      <trkpt lat="29.749033" lon="99.560758"><time>2026-05-02T07:43:49.505Z</time></trkpt>
      <trkpt lat="29.749033" lon="99.560758"><time>2026-05-02T07:43:49.521Z</time></trkpt>
      <trkpt lat="29.749032" lon="99.560749"><time>2026-05-02T07:43:49.538Z</time></trkpt>
      <trkpt lat="29.749032" lon="99.560749"><time>2026-05-02T07:43:49.555Z</time></trkpt>
      <trkpt lat="29.749032" lon="99.560749"><time>2026-05-02T07:43:49.571Z</time></trkpt>
      <trkpt lat="29.749032" lon="99.560749"><time>2026-05-02T07:43:49.588Z</time></trkpt>
      <trkpt lat="29.749032" lon="99.560749"><time>2026-05-02T07:43:49.605Z</time></trkpt>
      <trkpt lat="29.749032" lon="99.560749"><time>2026-05-02T07:43:49.621Z</time></trkpt>
      <trkpt lat="29.749031" lon="99.56074"><time>2026-05-02T07:43:49.638Z</time></trkpt>
      <trkpt lat="29.749031" lon="99.56074"><time>2026-05-02T07:43:49.655Z</time></trkpt>
      <trkpt lat="29.749031" lon="99.56074"><time>2026-05-02T07:43:49.671Z</time></trkpt>
      <trkpt lat="29.749031" lon="99.56074"><time>2026-05-02T07:43:49.688Z</time></trkpt>
      <trkpt lat="29.749031" lon="99.56074"><time>2026-05-02T07:43:49.705Z</time></trkpt>
      <trkpt lat="29.749031" lon="99.56074"><time>2026-05-02T07:43:49.721Z</time></trkpt>
      <trkpt lat="29.74903" lon="99.560731"><time>2026-05-02T07:43:49.738Z</time></trkpt>
      <trkpt lat="29.74903" lon="99.560731"><time>2026-05-02T07:43:49.755Z</time></trkpt>
      <trkpt lat="29.74903" lon="99.560731"><time>2026-05-02T07:43:49.772Z</time></trkpt>
      <trkpt lat="29.74903" lon="99.560731"><time>2026-05-02T07:43:49.788Z</time></trkpt>
      <trkpt lat="29.74903" lon="99.560731"><time>2026-05-02T07:43:49.805Z</time></trkpt>
      <trkpt lat="29.74903" lon="99.560731"><time>2026-05-02T07:43:49.822Z</time></trkpt>
      <trkpt lat="29.749029" lon="99.560722"><time>2026-05-02T07:43:49.838Z</time></trkpt>
      <trkpt lat="29.749029" lon="99.560722"><time>2026-05-02T07:43:49.855Z</time></trkpt>
      <trkpt lat="29.749029" lon="99.560722"><time>2026-05-02T07:43:49.872Z</time></trkpt>
      <trkpt lat="29.749029" lon="99.560722"><time>2026-05-02T07:43:49.888Z</time></trkpt>
      <trkpt lat="29.749029" lon="99.560722"><time>2026-05-02T07:43:49.905Z</time></trkpt>
      <trkpt lat="29.749029" lon="99.560722"><time>2026-05-02T07:43:49.922Z</time></trkpt>
      <trkpt lat="29.749028" lon="99.560713"><time>2026-05-02T07:43:49.938Z</time></trkpt>
      <trkpt lat="29.749028" lon="99.560713"><time>2026-05-02T07:43:49.955Z</time></trkpt>
      <trkpt lat="29.749028" lon="99.560713"><time>2026-05-02T07:43:49.972Z</time></trkpt>
      <trkpt lat="29.749028" lon="99.560713"><time>2026-05-02T07:43:49.988Z</time></trkpt>
      <trkpt lat="29.749028" lon="99.560713"><time>2026-05-02T07:43:50.005Z</time></trkpt>
      <trkpt lat="29.749028" lon="99.560713"><time>2026-05-02T07:43:50.022Z</time></trkpt>
      <trkpt lat="29.749027" lon="99.560704"><time>2026-05-02T07:43:50.038Z</time></trkpt>
      <trkpt lat="29.749027" lon="99.560704"><time>2026-05-02T07:43:50.055Z</time></trkpt>
      <trkpt lat="29.749027" lon="99.560704"><time>2026-05-02T07:43:50.072Z</time></trkpt>
      <trkpt lat="29.749027" lon="99.560704"><time>2026-05-02T07:43:50.089Z</time></trkpt>
      <trkpt lat="29.749027" lon="99.560704"><time>2026-05-02T07:43:50.105Z</time></trkpt>
      <trkpt lat="29.749027" lon="99.560704"><time>2026-05-02T07:43:50.122Z</time></trkpt>
      <trkpt lat="29.749026" lon="99.560695"><time>2026-05-02T07:43:50.139Z</time></trkpt>
      <trkpt lat="29.749026" lon="99.560695"><time>2026-05-02T07:43:50.155Z</time></trkpt>
      <trkpt lat="29.749026" lon="99.560695"><time>2026-05-02T07:43:50.172Z</time></trkpt>
      <trkpt lat="29.749026" lon="99.560695"><time>2026-05-02T07:43:50.189Z</time></trkpt>
      <trkpt lat="29.749026" lon="99.560695"><time>2026-05-02T07:43:50.205Z</time></trkpt>
      <trkpt lat="29.749026" lon="99.560695"><time>2026-05-02T07:43:50.222Z</time></trkpt>
      <trkpt lat="29.749025" lon="99.560685"><time>2026-05-02T07:43:50.239Z</time></trkpt>
      <trkpt lat="29.749025" lon="99.560685"><time>2026-05-02T07:43:50.255Z</time></trkpt>
      <trkpt lat="29.749025" lon="99.560685"><time>2026-05-02T07:43:50.272Z</time></trkpt>
      <trkpt lat="29.749025" lon="99.560685"><time>2026-05-02T07:43:50.289Z</time></trkpt>
      <trkpt lat="29.749025" lon="99.560685"><time>2026-05-02T07:43:50.305Z</time></trkpt>
      <trkpt lat="29.749025" lon="99.560685"><time>2026-05-02T07:43:50.322Z</time></trkpt>
      <trkpt lat="29.749023" lon="99.560676"><time>2026-05-02T07:43:50.339Z</time></trkpt>
      <trkpt lat="29.749023" lon="99.560676"><time>2026-05-02T07:43:50.355Z</time></trkpt>
      <trkpt lat="29.749023" lon="99.560676"><time>2026-05-02T07:43:50.372Z</time></trkpt>
      <trkpt lat="29.749023" lon="99.560676"><time>2026-05-02T07:43:50.389Z</time></trkpt>
      <trkpt lat="29.749023" lon="99.560676"><time>2026-05-02T07:43:50.406Z</time></trkpt>
      <trkpt lat="29.749023" lon="99.560676"><time>2026-05-02T07:43:50.422Z</time></trkpt>
      <trkpt lat="29.749022" lon="99.560666"><time>2026-05-02T07:43:50.439Z</time></trkpt>
      <trkpt lat="29.749022" lon="99.560666"><time>2026-05-02T07:43:50.456Z</time></trkpt>
      <trkpt lat="29.749022" lon="99.560666"><time>2026-05-02T07:43:50.472Z</time></trkpt>
      <trkpt lat="29.749022" lon="99.560666"><time>2026-05-02T07:43:50.489Z</time></trkpt>
      <trkpt lat="29.749022" lon="99.560666"><time>2026-05-02T07:43:50.506Z</time></trkpt>
      <trkpt lat="29.749022" lon="99.560666"><time>2026-05-02T07:43:50.522Z</time></trkpt>
      <trkpt lat="29.749021" lon="99.560657"><time>2026-05-02T07:43:50.539Z</time></trkpt>
      <trkpt lat="29.749021" lon="99.560657"><time>2026-05-02T07:43:50.556Z</time></trkpt>
      <trkpt lat="29.749021" lon="99.560657"><time>2026-05-02T07:43:50.572Z</time></trkpt>
      <trkpt lat="29.749021" lon="99.560657"><time>2026-05-02T07:43:50.589Z</time></trkpt>
      <trkpt lat="29.749021" lon="99.560657"><time>2026-05-02T07:43:50.606Z</time></trkpt>
      <trkpt lat="29.749021" lon="99.560657"><time>2026-05-02T07:43:50.622Z</time></trkpt>
      <trkpt lat="29.74902" lon="99.560647"><time>2026-05-02T07:43:50.639Z</time></trkpt>
      <trkpt lat="29.74902" lon="99.560647"><time>2026-05-02T07:43:50.656Z</time></trkpt>
      <trkpt lat="29.74902" lon="99.560647"><time>2026-05-02T07:43:50.672Z</time></trkpt>
      <trkpt lat="29.74902" lon="99.560647"><time>2026-05-02T07:43:50.689Z</time></trkpt>
      <trkpt lat="29.74902" lon="99.560647"><time>2026-05-02T07:43:50.706Z</time></trkpt>
      <trkpt lat="29.74902" lon="99.560647"><time>2026-05-02T07:43:50.723Z</time></trkpt>
      <trkpt lat="29.749019" lon="99.560638"><time>2026-05-02T07:43:50.739Z</time></trkpt>
      <trkpt lat="29.749019" lon="99.560638"><time>2026-05-02T07:43:50.756Z</time></trkpt>
      <trkpt lat="29.749019" lon="99.560638"><time>2026-05-02T07:43:50.773Z</time></trkpt>
      <trkpt lat="29.749019" lon="99.560638"><time>2026-05-02T07:43:50.789Z</time></trkpt>
      <trkpt lat="29.749019" lon="99.560638"><time>2026-05-02T07:43:50.806Z</time></trkpt>
      <trkpt lat="29.749019" lon="99.560638"><time>2026-05-02T07:43:50.823Z</time></trkpt>
      <trkpt lat="29.749018" lon="99.560628"><time>2026-05-02T07:43:50.839Z</time></trkpt>
      <trkpt lat="29.749018" lon="99.560628"><time>2026-05-02T07:43:50.856Z</time></trkpt>
      <trkpt lat="29.749018" lon="99.560628"><time>2026-05-02T07:43:50.873Z</time></trkpt>
      <trkpt lat="29.749018" lon="99.560628"><time>2026-05-02T07:43:50.889Z</time></trkpt>
      <trkpt lat="29.749018" lon="99.560628"><time>2026-05-02T07:43:50.906Z</time></trkpt>
      <trkpt lat="29.749018" lon="99.560628"><time>2026-05-02T07:43:50.923Z</time></trkpt>
      <trkpt lat="29.749017" lon="99.560619"><time>2026-05-02T07:43:50.939Z</time></trkpt>
      <trkpt lat="29.749017" lon="99.560619"><time>2026-05-02T07:43:50.956Z</time></trkpt>
      <trkpt lat="29.749017" lon="99.560619"><time>2026-05-02T07:43:50.973Z</time></trkpt>
      <trkpt lat="29.749017" lon="99.560619"><time>2026-05-02T07:43:50.989Z</time></trkpt>
      <trkpt lat="29.749017" lon="99.560619"><time>2026-05-02T07:43:51.006Z</time></trkpt>
      <trkpt lat="29.749017" lon="99.560619"><time>2026-05-02T07:43:51.023Z</time></trkpt>
      <trkpt lat="29.749016" lon="99.560609"><time>2026-05-02T07:43:51.040Z</time></trkpt>
      <trkpt lat="29.749016" lon="99.560609"><time>2026-05-02T07:43:51.056Z</time></trkpt>
      <trkpt lat="29.749016" lon="99.560609"><time>2026-05-02T07:43:51.073Z</time></trkpt>
      <trkpt lat="29.749016" lon="99.560609"><time>2026-05-02T07:43:51.090Z</time></trkpt>
      <trkpt lat="29.749016" lon="99.560609"><time>2026-05-02T07:43:51.106Z</time></trkpt>
      <trkpt lat="29.749016" lon="99.560609"><time>2026-05-02T07:43:51.123Z</time></trkpt>
      <trkpt lat="29.749015" lon="99.5606"><time>2026-05-02T07:43:51.140Z</time></trkpt>
      <trkpt lat="29.749015" lon="99.5606"><time>2026-05-02T07:43:51.156Z</time></trkpt>
      <trkpt lat="29.749015" lon="99.5606"><time>2026-05-02T07:43:51.173Z</time></trkpt>
      <trkpt lat="29.749015" lon="99.5606"><time>2026-05-02T07:43:51.190Z</time></trkpt>
      <trkpt lat="29.749015" lon="99.5606"><time>2026-05-02T07:43:51.206Z</time></trkpt>
      <trkpt lat="29.749015" lon="99.5606"><time>2026-05-02T07:43:51.223Z</time></trkpt>
      <trkpt lat="29.749014" lon="99.56059"><time>2026-05-02T07:43:51.240Z</time></trkpt>
      <trkpt lat="29.749014" lon="99.56059"><time>2026-05-02T07:43:51.256Z</time></trkpt>
      <trkpt lat="29.749014" lon="99.56059"><time>2026-05-02T07:43:51.273Z</time></trkpt>
      <trkpt lat="29.749014" lon="99.56059"><time>2026-05-02T07:43:51.290Z</time></trkpt>
      <trkpt lat="29.749014" lon="99.56059"><time>2026-05-02T07:43:51.306Z</time></trkpt>
      <trkpt lat="29.749014" lon="99.56059"><time>2026-05-02T07:43:51.323Z</time></trkpt>
      <trkpt lat="29.749013" lon="99.560581"><time>2026-05-02T07:43:51.340Z</time></trkpt>
      <trkpt lat="29.749013" lon="99.560581"><time>2026-05-02T07:43:51.357Z</time></trkpt>
      <trkpt lat="29.749013" lon="99.560581"><time>2026-05-02T07:43:51.373Z</time></trkpt>
      <trkpt lat="29.749013" lon="99.560581"><time>2026-05-02T07:43:51.390Z</time></trkpt>
      <trkpt lat="29.749013" lon="99.560581"><time>2026-05-02T07:43:51.407Z</time></trkpt>
      <trkpt lat="29.749013" lon="99.560581"><time>2026-05-02T07:43:51.423Z</time></trkpt>
      <trkpt lat="29.749012" lon="99.560571"><time>2026-05-02T07:43:51.440Z</time></trkpt>
      <trkpt lat="29.749012" lon="99.560571"><time>2026-05-02T07:43:51.457Z</time></trkpt>
      <trkpt lat="29.749012" lon="99.560571"><time>2026-05-02T07:43:51.473Z</time></trkpt>
      <trkpt lat="29.749012" lon="99.560571"><time>2026-05-02T07:43:51.490Z</time></trkpt>
      <trkpt lat="29.749012" lon="99.560571"><time>2026-05-02T07:43:51.507Z</time></trkpt>
      <trkpt lat="29.749012" lon="99.560571"><time>2026-05-02T07:43:51.523Z</time></trkpt>
      <trkpt lat="29.74901" lon="99.560561"><time>2026-05-02T07:43:51.540Z</time></trkpt>
      <trkpt lat="29.74901" lon="99.560561"><time>2026-05-02T07:43:51.557Z</time></trkpt>
      <trkpt lat="29.74901" lon="99.560561"><time>2026-05-02T07:43:51.573Z</time></trkpt>
      <trkpt lat="29.74901" lon="99.560561"><time>2026-05-02T07:43:51.590Z</time></trkpt>
      <trkpt lat="29.74901" lon="99.560561"><time>2026-05-02T07:43:51.607Z</time></trkpt>
      <trkpt lat="29.74901" lon="99.560561"><time>2026-05-02T07:43:51.623Z</time></trkpt>
      <trkpt lat="29.749009" lon="99.560551"><time>2026-05-02T07:43:51.640Z</time></trkpt>
      <trkpt lat="29.749009" lon="99.560551"><time>2026-05-02T07:43:51.657Z</time></trkpt>
      <trkpt lat="29.749009" lon="99.560551"><time>2026-05-02T07:43:51.674Z</time></trkpt>
      <trkpt lat="29.749009" lon="99.560551"><time>2026-05-02T07:43:51.690Z</time></trkpt>
      <trkpt lat="29.749009" lon="99.560551"><time>2026-05-02T07:43:51.707Z</time></trkpt>
      <trkpt lat="29.749009" lon="99.560551"><time>2026-05-02T07:43:51.724Z</time></trkpt>
      <trkpt lat="29.749008" lon="99.560542"><time>2026-05-02T07:43:51.740Z</time></trkpt>
      <trkpt lat="29.749008" lon="99.560542"><time>2026-05-02T07:43:51.757Z</time></trkpt>
      <trkpt lat="29.749008" lon="99.560542"><time>2026-05-02T07:43:51.774Z</time></trkpt>
      <trkpt lat="29.749008" lon="99.560542"><time>2026-05-02T07:43:51.790Z</time></trkpt>
      <trkpt lat="29.749008" lon="99.560542"><time>2026-05-02T07:43:51.807Z</time></trkpt>
      <trkpt lat="29.749008" lon="99.560542"><time>2026-05-02T07:43:51.824Z</time></trkpt>
      <trkpt lat="29.749007" lon="99.560532"><time>2026-05-02T07:43:51.840Z</time></trkpt>
      <trkpt lat="29.749007" lon="99.560532"><time>2026-05-02T07:43:51.857Z</time></trkpt>
      <trkpt lat="29.749007" lon="99.560532"><time>2026-05-02T07:43:51.874Z</time></trkpt>
      <trkpt lat="29.749007" lon="99.560532"><time>2026-05-02T07:43:51.890Z</time></trkpt>
      <trkpt lat="29.749007" lon="99.560532"><time>2026-05-02T07:43:51.907Z</time></trkpt>
      <trkpt lat="29.749007" lon="99.560532"><time>2026-05-02T07:43:51.924Z</time></trkpt>
      <trkpt lat="29.749006" lon="99.560523"><time>2026-05-02T07:43:51.940Z</time></trkpt>
      <trkpt lat="29.749006" lon="99.560523"><time>2026-05-02T07:43:51.957Z</time></trkpt>
      <trkpt lat="29.749006" lon="99.560523"><time>2026-05-02T07:43:51.974Z</time></trkpt>
      <trkpt lat="29.749006" lon="99.560523"><time>2026-05-02T07:43:51.991Z</time></trkpt>
      <trkpt lat="29.749006" lon="99.560523"><time>2026-05-02T07:43:52.007Z</time></trkpt>
      <trkpt lat="29.749006" lon="99.560523"><time>2026-05-02T07:43:52.024Z</time></trkpt>
      <trkpt lat="29.749004" lon="99.560513"><time>2026-05-02T07:43:52.041Z</time></trkpt>
      <trkpt lat="29.749004" lon="99.560513"><time>2026-05-02T07:43:52.057Z</time></trkpt>
      <trkpt lat="29.749004" lon="99.560513"><time>2026-05-02T07:43:52.074Z</time></trkpt>
      <trkpt lat="29.749004" lon="99.560513"><time>2026-05-02T07:43:52.091Z</time></trkpt>
      <trkpt lat="29.749004" lon="99.560513"><time>2026-05-02T07:43:52.107Z</time></trkpt>
      <trkpt lat="29.749004" lon="99.560513"><time>2026-05-02T07:43:52.124Z</time></trkpt>
      <trkpt lat="29.749003" lon="99.560503"><time>2026-05-02T07:43:52.141Z</time></trkpt>
      <trkpt lat="29.749003" lon="99.560503"><time>2026-05-02T07:43:52.157Z</time></trkpt>
      <trkpt lat="29.749003" lon="99.560503"><time>2026-05-02T07:43:52.174Z</time></trkpt>
      <trkpt lat="29.749003" lon="99.560503"><time>2026-05-02T07:43:52.191Z</time></trkpt>
      <trkpt lat="29.749003" lon="99.560503"><time>2026-05-02T07:43:52.207Z</time></trkpt>
      <trkpt lat="29.749003" lon="99.560503"><time>2026-05-02T07:43:52.224Z</time></trkpt>
      <trkpt lat="29.749002" lon="99.560493"><time>2026-05-02T07:43:52.241Z</time></trkpt>
      <trkpt lat="29.749002" lon="99.560493"><time>2026-05-02T07:43:52.257Z</time></trkpt>
      <trkpt lat="29.749002" lon="99.560493"><time>2026-05-02T07:43:52.274Z</time></trkpt>
      <trkpt lat="29.749002" lon="99.560493"><time>2026-05-02T07:43:52.291Z</time></trkpt>
      <trkpt lat="29.749002" lon="99.560493"><time>2026-05-02T07:43:52.307Z</time></trkpt>
      <trkpt lat="29.749002" lon="99.560493"><time>2026-05-02T07:43:52.324Z</time></trkpt>
      <trkpt lat="29.749001" lon="99.560483"><time>2026-05-02T07:43:52.341Z</time></trkpt>
      <trkpt lat="29.749001" lon="99.560483"><time>2026-05-02T07:43:52.358Z</time></trkpt>
      <trkpt lat="29.749001" lon="99.560483"><time>2026-05-02T07:43:52.374Z</time></trkpt>
      <trkpt lat="29.749001" lon="99.560483"><time>2026-05-02T07:43:52.391Z</time></trkpt>
      <trkpt lat="29.749001" lon="99.560483"><time>2026-05-02T07:43:52.408Z</time></trkpt>
      <trkpt lat="29.749001" lon="99.560483"><time>2026-05-02T07:43:52.424Z</time></trkpt>
      <trkpt lat="29.749" lon="99.560473"><time>2026-05-02T07:43:52.441Z</time></trkpt>
      <trkpt lat="29.749" lon="99.560473"><time>2026-05-02T07:43:52.458Z</time></trkpt>
      <trkpt lat="29.749" lon="99.560473"><time>2026-05-02T07:43:52.474Z</time></trkpt>
      <trkpt lat="29.749" lon="99.560473"><time>2026-05-02T07:43:52.491Z</time></trkpt>
      <trkpt lat="29.749" lon="99.560473"><time>2026-05-02T07:43:52.508Z</time></trkpt>
      <trkpt lat="29.749" lon="99.560473"><time>2026-05-02T07:43:52.524Z</time></trkpt>
      <trkpt lat="29.748998" lon="99.560463"><time>2026-05-02T07:43:52.541Z</time></trkpt>
      <trkpt lat="29.748998" lon="99.560463"><time>2026-05-02T07:43:52.558Z</time></trkpt>
      <trkpt lat="29.748998" lon="99.560463"><time>2026-05-02T07:43:52.574Z</time></trkpt>
      <trkpt lat="29.748998" lon="99.560463"><time>2026-05-02T07:43:52.591Z</time></trkpt>
      <trkpt lat="29.748998" lon="99.560463"><time>2026-05-02T07:43:52.608Z</time></trkpt>
    </trkseg>
  </trk>
</gpx>
