<?xml version="1.0" encoding="UTF-8"?>
<gpx version="1.1" creator="Kairos" xmlns="http://www.topografix.com/GPX/1/1">
  <trk>
    <name>sidecar-srt-b4c9044f1bcee46c</name>
    <trkseg>
      <trkpt lat="28.016374" lon="98.629265"><time>2026-04-28T11:09:42.000Z</time></trkpt>
      <trkpt lat="28.016374" lon="98.629265"><time>2026-04-28T11:09:42.016Z</time></trkpt>
      <trkpt lat="28.016374" lon="98.629265"><time>2026-04-28T11:09:42.032Z</time></trkpt>
      <trkpt lat="28.016374" lon="98.629265"><time>2026-04-28T11:09:42.049Z</time></trkpt>
      <trkpt lat="28.016374" lon="98.629265"><time>2026-04-28T11:09:42.066Z</time></trkpt>
      <trkpt lat="28.016374" lon="98.629265"><time>2026-04-28T11:09:42.082Z</time></trkpt>
      <trkpt lat="28.016374" lon="98.629265"><time>2026-04-28T11:09:42.099Z</time></trkpt>
      <trkpt lat="28.016374" lon="98.629265"><time>2026-04-28T11:09:42.116Z</time></trkpt>
      <trkpt lat="28.016374" lon="98.629265"><time>2026-04-28T11:09:42.132Z</time></trkpt>
      <trkpt lat="28.016374" lon="98.629265"><time>2026-04-28T11:09:42.149Z</time></trkpt>
      <trkpt lat="28.016374" lon="98.629265"><time>2026-04-28T11:09:42.166Z</time></trkpt>
      <trkpt lat="28.016374" lon="98.629265"><time>2026-04-28T11:09:42.182Z</time></trkpt>
      <trkpt lat="28.016374" lon="98.629265"><time>2026-04-28T11:09:42.199Z</time></trkpt>
      <trkpt lat="28.016374" lon="98.629265"><time>2026-04-28T11:09:42.216Z</time></trkpt>
      <trkpt lat="28.016374" lon="98.629265"><time>2026-04-28T11:09:42.232Z</time></trkpt>
      <trkpt lat="28.016374" lon="98.629265"><time>2026-04-28T11:09:42.249Z</time></trkpt>
      <trkpt lat="28.016374" lon="98.629265"><time>2026-04-28T11:09:42.266Z</time></trkpt>
      <trkpt lat="28.016374" lon="98.629265"><time>2026-04-28T11:09:42.282Z</time></trkpt>
      <trkpt lat="28.016374" lon="98.629265"><time>2026-04-28T11:09:42.299Z</time></trkpt>
      <trkpt lat="28.016374" lon="98.629265"><time>2026-04-28T11:09:42.316Z</time></trkpt>
      <trkpt lat="28.016374" lon="98.629265"><time>2026-04-28T11:09:42.333Z</time></trkpt>
      <trkpt lat="28.016374" lon="98.629265"><time>2026-04-28T11:09:42.349Z</time></trkpt>
      <trkpt lat="28.016374" lon="98.629264"><time>2026-04-28T11:09:42.366Z</time></trkpt>
      <trkpt lat="28.016374" lon="98.629264"><time>2026-04-28T11:09:42.383Z</time></trkpt>
      <trkpt lat="28.016374" lon="98.629264"><time>2026-04-28T11:09:42.399Z</time></trkpt>
      <trkpt lat="28.016374" lon="98.629264"><time>2026-04-28T11:09:42.416Z</time></trkpt>
      <trkpt lat="28.016374" lon="98.629264"><time>2026-04-28T11:09:42.433Z</time></trkpt>
      <trkpt lat="28.016374" lon="98.629264"><time>2026-04-28T11:09:42.449Z</time></trkpt>
      <trkpt lat="28.016375" lon="98.629264"><time>2026-04-28T11:09:42.466Z</time></trkpt>
      <trkpt lat="28.016375" lon="98.629264"><time>2026-04-28T11:09:42.483Z</time></trkpt>
      <trkpt lat="28.016375" lon="98.629264"><time>2026-04-28T11:09:42.499Z</time></trkpt>
      <trkpt lat="28.016375" lon="98.629264"><time>2026-04-28T11:09:42.516Z</time></trkpt>
      <trkpt lat="28.016375" lon="98.629264"><time>2026-04-28T11:09:42.533Z</time></trkpt>
      <trkpt lat="28.016375" lon="98.629264"><time>2026-04-28T11:09:42.549Z</time></trkpt>
      <trkpt lat="28.016375" lon="98.629264"><time>2026-04-28T11:09:42.566Z</time></trkpt>
      <trkpt lat="28.016375" lon="98.629264"><time>2026-04-28T11:09:42.583Z</time></trkpt>
      <trkpt lat="28.016375" lon="98.629264"><time>2026-04-28T11:09:42.599Z</time></trkpt>
      <trkpt lat="28.016375" lon="98.629264"><time>2026-04-28T11:09:42.616Z</time></trkpt>
      <trkpt lat="28.016375" lon="98.629264"><time>2026-04-28T11:09:42.633Z</time></trkpt>
      <trkpt lat="28.016375" lon="98.629264"><time>2026-04-28T11:09:42.650Z</time></trkpt>
      <trkpt lat="28.016376" lon="98.629264"><time>2026-04-28T11:09:42.666Z</time></trkpt>
      <trkpt lat="28.016376" lon="98.629264"><time>2026-04-28T11:09:42.683Z</time></trkpt>
      <trkpt lat="28.016376" lon="98.629264"><time>2026-04-28T11:09:42.700Z</time></trkpt>
      <trkpt lat="28.016376" lon="98.629264"><time>2026-04-28T11:09:42.716Z</time></trkpt>
      <trkpt lat="28.016376" lon="98.629264"><time>2026-04-28T11:09:42.733Z</time></trkpt>
      <trkpt lat="28.016376" lon="98.629264"><time>2026-04-28T11:09:42.750Z</time></trkpt>
      <trkpt lat="28.016377" lon="98.629264"><time>2026-04-28T11:09:42.766Z</time></trkpt>
      <trkpt lat="28.016377" lon="98.629264"><time>2026-04-28T11:09:42.783Z</time></trkpt>
      <trkpt lat="28.016377" lon="98.629264"><time>2026-04-28T11:09:42.800Z</time></trkpt>
      <trkpt lat="28.016377" lon="98.629264"><time>2026-04-28T11:09:42.816Z</time></trkpt>
      <trkpt lat="28.016377" lon="98.629264"><time>2026-04-28T11:09:42.833Z</time></trkpt>
      <trkpt lat="28.016377" lon="98.629264"><time>2026-04-28T11:09:42.850Z</time></trkpt>
      <trkpt lat="28.016379" lon="98.629264"><time>2026-04-28T11:09:42.866Z</time></trkpt>
      <trkpt lat="28.016379" lon="98.629264"><time>2026-04-28T11:09:42.883Z</time></trkpt>
      <trkpt lat="28.016379" lon="98.629264"><time>2026-04-28T11:09:42.900Z</time></trkpt>
      <trkpt lat="28.016379" lon="98.629264"><time>2026-04-28T11:09:42.916Z</time></trkpt>
      <trkpt lat="28.016379" lon="98.629264"><time>2026-04-28T11:09:42.933Z</time></trkpt>
      <trkpt lat="28.016379" lon="98.629264"><time>2026-04-28T11:09:42.950Z</time></trkpt>
      <trkpt lat="28.016381" lon="98.629263"><time>2026-04-28T11:09:42.966Z</time></trkpt>
      <trkpt lat="28.016381" lon="98.629263"><time>2026-04-28T11:09:42.983Z</time></trkpt>
      <trkpt lat="28.016381" lon="98.629263"><time>2026-04-28T11:09:43.000Z</time></trkpt>
      <trkpt lat="28.016381" lon="98.629263"><time>2026-04-28T11:09:43.017Z</time></trkpt>
      <trkpt lat="28.016381" lon="98.629263"><time>2026-04-28T11:09:43.033Z</time></trkpt>
      <trkpt lat="28.016381" lon="98.629263"><time>2026-04-28T11:09:43.050Z</time></trkpt>
      <trkpt lat="28.016383" lon="98.629263"><time>2026-04-28T11:09:43.067Z</time></trkpt>
      <trkpt lat="28.016383" lon="98.629263"><time>2026-04-28T11:09:43.083Z</time></trkpt>
      <trkpt lat="28.016383" lon="98.629263"><time>2026-04-28T11:09:43.100Z</time></trkpt>
      <trkpt lat="28.016383" lon="98.629263"><time>2026-04-28T11:09:43.117Z</time></trkpt>
      <trkpt lat="28.016383" lon="98.629263"><time>2026-04-28T11:09:43.133Z</time></trkpt>
      <trkpt lat="28.016383" lon="98.629263"><time>2026-04-28T11:09:43.150Z</time></trkpt>
      <trkpt lat="28.016385" lon="98.629263"><time>2026-04-28T11:09:43.167Z</time></trkpt>
      <trkpt lat="28.016385" lon="98.629263"><time>2026-04-28T11:09:43.183Z</time></trkpt>
      <trkpt lat="28.016385" lon="98.629263"><time>2026-04-28T11:09:43.200Z</time></trkpt>
      <trkpt lat="28.016385" lon="98.629263"><time>2026-04-28T11:09:43.217Z</time></trkpt>
      <trkpt lat="28.016385" lon="98.629263"><time>2026-04-28T11:09:43.233Z</time></trkpt>
      <trkpt lat="28.016385" lon="98.629263"><time>2026-04-28T11:09:43.250Z</time></trkpt>
      <trkpt lat="28.016387" lon="98.629263"><time>2026-04-28T11:09:43.267Z</time></trkpt>
      <trkpt lat="28.016387" lon="98.629263"><time>2026-04-28T11:09:43.283Z</time></trkpt>
      <trkpt lat="28.016387" lon="98.629263"><time>2026-04-28T11:09:43.300Z</time></trkpt>
      <trkpt lat="28.016387" lon="98.629263"><time>2026-04-28T11:09:43.317Z</time></trkpt>
      <trkpt lat="28.016387" lon="98.629263"><time>2026-04-28T11:09:43.334Z</time></trkpt>
      <trkpt lat="28.016387" lon="98.629263"><time>2026-04-28T11:09:43.350Z</time></trkpt>
      <trkpt lat="28.01639" lon="98.629263"><time>2026-04-28T11:09:43.367Z</time></trkpt>
      <trkpt lat="28.01639" lon="98.629263"><time>2026-04-28T11:09:43.384Z</time></trkpt>
      <trkpt lat="28.01639" lon="98.629263"><time>2026-04-28T11:09:43.400Z</time></trkpt>
      <trkpt lat="28.01639" lon="98.629263"><time>2026-04-28T11:09:43.417Z</time></trkpt>
      <trkpt lat="28.01639" lon="98.629263"><time>2026-04-28T11:09:43.434Z</time></trkpt>
      <trkpt lat="28.01639" lon="98.629263"><time>2026-04-28T11:09:43.450Z</time></trkpt>
      <trkpt lat="28.016393" lon="98.629263"><time>2026-04-28T11:09:43.467Z</time></trkpt>
      <trkpt lat="28.016393" lon="98.629263"><time>2026-04-28T11:09:43.484Z</time></trkpt>
      <trkpt lat="28.016393" lon="98.629263"><time>2026-04-28T11:09:43.500Z</time></trkpt>
      <trkpt lat="28.016393" lon="98.629263"><time>2026-04-28T11:09:43.517Z</time></trkpt>
      <trkpt lat="28.016393" lon="98.629263"><time>2026-04-28T11:09:43.534Z</time></trkpt>
      <trkpt lat="28.016393" lon="98.629263"><time>2026-04-28T11:09:43.550Z</time></trkpt>
      <trkpt lat="28.016397" lon="98.629263"><time>2026-04-28T11:09:43.567Z</time></trkpt>
      <trkpt lat="28.016397" lon="98.629263"><time>2026-04-28T11:09:43.584Z</time></trkpt>
      <trkpt lat="28.016397" lon="98.629263"><time>2026-04-28T11:09:43.600Z</time></trkpt>
      <trkpt lat="28.016397" lon="98.629263"><time>2026-04-28T11:09:43.617Z</time></trkpt>
      <trkpt lat="28.016397" lon="98.629263"><time>2026-04-28T11:09:43.634Z</time></trkpt>
      <trkpt lat="28.016397" lon="98.629263"><time>2026-04-28T11:09:43.651Z</time></trkpt>
      <trkpt lat="28.0164" lon="98.629262"><time>2026-04-28T11:09:43.667Z</time></trkpt>
      <trkpt lat="28.0164" lon="98.629262"><time>2026-04-28T11:09:43.684Z</time></trkpt>
      <trkpt lat="28.0164" lon="98.629262"><time>2026-04-28T11:09:43.701Z</time></trkpt>
      <trkpt lat="28.0164" lon="98.629262"><time>2026-04-28T11:09:43.717Z</time></trkpt>
      <trkpt lat="28.0164" lon="98.629262"><time>2026-04-28T11:09:43.734Z</time></trkpt>
      <trkpt lat="28.0164" lon="98.629262"><time>2026-04-28T11:09:43.751Z</time></trkpt>
      <trkpt lat="28.016404" lon="98.629262"><time>2026-04-28T11:09:43.767Z</time></trkpt>
      <trkpt lat="28.016404" lon="98.629262"><time>2026-04-28T11:09:43.784Z</time></trkpt>
      <trkpt lat="28.016404" lon="98.629262"><time>2026-04-28T11:09:43.801Z</time></trkpt>
      <trkpt lat="28.016404" lon="98.629262"><time>2026-04-28T11:09:43.817Z</time></trkpt>
      <trkpt lat="28.016404" lon="98.629262"><time>2026-04-28T11:09:43.834Z</time></trkpt>
      <trkpt lat="28.016404" lon="98.629262"><time>2026-04-28T11:09:43.851Z</time></trkpt>
      <trkpt lat="28.016408" lon="98.629262"><time>2026-04-28T11:09:43.867Z</time></trkpt>
      <trkpt lat="28.016408" lon="98.629262"><time>2026-04-28T11:09:43.884Z</time></trkpt>
      <trkpt lat="28.016408" lon="98.629262"><time>2026-04-28T11:09:43.901Z</time></trkpt>
      <trkpt lat="28.016408" lon="98.629262"><time>2026-04-28T11:09:43.917Z</time></trkpt>
      <trkpt lat="28.016408" lon="98.629262"><time>2026-04-28T11:09:43.934Z</time></trkpt>
      <trkpt lat="28.016408" lon="98.629262"><time>2026-04-28T11:09:43.951Z</time></trkpt>
      <trkpt lat="28.016412" lon="98.629262"><time>2026-04-28T11:09:43.968Z</time></trkpt>
      <trkpt lat="28.016412" lon="98.629262"><time>2026-04-28T11:09:43.984Z</time></trkpt>
      <trkpt lat="28.016412" lon="98.629262"><time>2026-04-28T11:09:44.001Z</time></trkpt>
      <trkpt lat="28.016412" lon="98.629262"><time>2026-04-28T11:09:44.018Z</time></trkpt>
      <trkpt lat="28.016412" lon="98.629262"><time>2026-04-28T11:09:44.034Z</time></trkpt>
      <trkpt lat="28.016412" lon="98.629262"><time>2026-04-28T11:09:44.051Z</time></trkpt>
      <trkpt lat="28.016417" lon="98.629261"><time>2026-04-28T11:09:44.068Z</time></trkpt>
      <trkpt lat="28.016417" lon="98.629261"><time>2026-04-28T11:09:44.084Z</time></trkpt>
      <trkpt lat="28.016417" lon="98.629261"><time>2026-04-28T11:09:44.101Z</time></trkpt>
      <trkpt lat="28.016417" lon="98.629261"><time>2026-04-28T11:09:44.118Z</time></trkpt>
      <trkpt lat="28.016417" lon="98.629261"><time>2026-04-28T11:09:44.134Z</time></trkpt>
      <trkpt lat="28.016417" lon="98.629261"><time>2026-04-28T11:09:44.151Z</time></trkpt>
      <trkpt lat="28.016421" lon="98.629261"><time>2026-04-28T11:09:44.168Z</time></trkpt>
      <trkpt lat="28.016421" lon="98.629261"><time>2026-04-28T11:09:44.184Z</time></trkpt>
      <trkpt lat="28.016421" lon="98.629261"><time>2026-04-28T11:09:44.201Z</time></trkpt>
      <trkpt lat="28.016421" lon="98.629261"><time>2026-04-28T11:09:44.218Z</time></trkpt>
      <trkpt lat="28.016421" lon="98.629261"><time>2026-04-28T11:09:44.234Z</time></trkpt>
      <trkpt lat="28.016421" lon="98.629261"><time>2026-04-28T11:09:44.251Z</time></trkpt>
      <trkpt lat="28.016426" lon="98.629261"><time>2026-04-28T11:09:44.268Z</time></trkpt>
      <trkpt lat="28.016426" lon="98.629261"><time>2026-04-28T11:09:44.285Z</time></trkpt>
      <trkpt lat="28.016426" lon="98.629261"><time>2026-04-28T11:09:44.301Z</time></trkpt>
      <trkpt lat="28.016426" lon="98.629261"><time>2026-04-28T11:09:44.318Z</time></trkpt>
      <trkpt lat="28.016426" lon="98.629261"><time>2026-04-28T11:09:44.335Z</time></trkpt>
      <trkpt lat="28.016426" lon="98.629261"><time>2026-04-28T11:09:44.351Z</time></trkpt>
      <trkpt lat="28.016431" lon="98.62926"><time>2026-04-28T11:09:44.368Z</time></trkpt>
      <trkpt lat="28.016431" lon="98.62926"><time>2026-04-28T11:09:44.385Z</time></trkpt>
      <trkpt lat="28.016431" lon="98.62926"><time>2026-04-28T11:09:44.401Z</time></trkpt>
      <trkpt lat="28.016431" lon="98.62926"><time>2026-04-28T11:09:44.418Z</time></trkpt>
      <trkpt lat="28.016431" lon="98.62926"><time>2026-04-28T11:09:44.435Z</time></trkpt>
      <trkpt lat="28.016431" lon="98.62926"><time>2026-04-28T11:09:44.451Z</time></trkpt>
      <trkpt lat="28.016436" lon="98.62926"><time>2026-04-28T11:09:44.468Z</time></trkpt>
      <trkpt lat="28.016436" lon="98.62926"><time>2026-04-28T11:09:44.485Z</time></trkpt>
      <trkpt lat="28.016436" lon="98.62926"><time>2026-04-28T11:09:44.501Z</time></trkpt>
      <trkpt lat="28.016436" lon="98.62926"><time>2026-04-28T11:09:44.518Z</time></trkpt>
      <trkpt lat="28.016436" lon="98.62926"><time>2026-04-28T11:09:44.535Z</time></trkpt>
      <trkpt lat="28.016436" lon="98.62926"><time>2026-04-28T11:09:44.551Z</time></trkpt>
      <trkpt lat="28.016441" lon="98.629259"><time>2026-04-28T11:09:44.568Z</time></trkpt>
      <trkpt lat="28.016441" lon="98.629259"><time>2026-04-28T11:09:44.585Z</time></trkpt>
      <trkpt lat="28.016441" lon="98.629259"><time>2026-04-28T11:09:44.602Z</time></trkpt>
      <trkpt lat="28.016441" lon="98.629259"><time>2026-04-28T11:09:44.618Z</time></trkpt>
      <trkpt lat="28.016441" lon="98.629259"><time>2026-04-28T11:09:44.635Z</time></trkpt>
      <trkpt lat="28.016441" lon="98.629259"><time>2026-04-28T11:09:44.652Z</time></trkpt>
      <trkpt lat="28.016448" lon="98.629259"><time>2026-04-28T11:09:44.668Z</time></trkpt>
      <trkpt lat="28.016448" lon="98.629259"><time>2026-04-28T11:09:44.685Z</time></trkpt>
      <trkpt lat="28.016448" lon="98.629259"><time>2026-04-28T11:09:44.702Z</time></trkpt>
      <trkpt lat="28.016448" lon="98.629259"><time>2026-04-28T11:09:44.718Z</time></trkpt>
      <trkpt lat="28.016448" lon="98.629259"><time>2026-04-28T11:09:44.735Z</time></trkpt>
      <trkpt lat="28.016448" lon="98.629259"><time>2026-04-28T11:09:44.752Z</time></trkpt>
      <trkpt lat="28.016454" lon="98.629259"><time>2026-04-28T11:09:44.768Z</time></trkpt>
      <trkpt lat="28.016454" lon="98.629259"><time>2026-04-28T11:09:44.785Z</time></trkpt>
      <trkpt lat="28.016454" lon="98.629259"><time>2026-04-28T11:09:44.802Z</time></trkpt>
      <trkpt lat="28.016454" lon="98.629259"><time>2026-04-28T11:09:44.818Z</time></trkpt>
      <trkpt lat="28.016454" lon="98.629259"><time>2026-04-28T11:09:44.835Z</time></trkpt>
      <trkpt lat="28.016454" lon="98.629259"><time>2026-04-28T11:09:44.852Z</time></trkpt>
      <trkpt lat="28.01646" lon="98.629258"><time>2026-04-28T11:09:44.868Z</time></trkpt>
      <trkpt lat="28.01646" lon="98.629258"><time>2026-04-28T11:09:44.885Z</time></trkpt>
      <trkpt lat="28.01646" lon="98.629258"><time>2026-04-28T11:09:44.902Z</time></trkpt>
      <trkpt lat="28.01646" lon="98.629258"><time>2026-04-28T11:09:44.919Z</time></trkpt>
      <trkpt lat="28.01646" lon="98.629258"><time>2026-04-28T11:09:44.935Z</time></trkpt>
      <trkpt lat="28.01646" lon="98.629258"><time>2026-04-28T11:09:44.952Z</time></trkpt>
      <trkpt lat="28.016467" lon="98.629258"><time>2026-04-28T11:09:44.969Z</time></trkpt>
      <trkpt lat="28.016467" lon="98.629258"><time>2026-04-28T11:09:44.985Z</time></trkpt>
      <trkpt lat="28.016467" lon="98.629258"><time>2026-04-28T11:09:45.002Z</time></trkpt>
      <trkpt lat="28.016467" lon="98.629258"><time>2026-04-28T11:09:45.019Z</time></trkpt>
      <trkpt lat="28.016467" lon="98.629258"><time>2026-04-28T11:09:45.035Z</time></trkpt>
      <trkpt lat="28.016467" lon="98.629258"><time>2026-04-28T11:09:45.052Z</time></trkpt>
      <trkpt lat="28.016475" lon="98.629257"><time>2026-04-28T11:09:45.069Z</time></trkpt>
      <trkpt lat="28.016475" lon="98.629257"><time>2026-04-28T11:09:45.085Z</time></trkpt>
      <trkpt lat="28.016475" lon="98.629257"><time>2026-04-28T11:09:45.102Z</time></trkpt>
      <trkpt lat="28.016475" lon="98.629257"><time>2026-04-28T11:09:45.119Z</time></trkpt>
      <trkpt lat="28.016475" lon="98.629257"><time>2026-04-28T11:09:45.135Z</time></trkpt>
      <trkpt lat="28.016475" lon="98.629257"><time>2026-04-28T11:09:45.152Z</time></trkpt>
      <trkpt lat="28.01648" lon="98.629239"><time>2026-04-28T11:09:45.169Z</time></trkpt>
      <trkpt lat="28.01648" lon="98.629239"><time>2026-04-28T11:09:45.185Z</time></trkpt>
      <trkpt lat="28.01648" lon="98.629239"><time>2026-04-28T11:09:45.202Z</time></trkpt>
      <trkpt lat="28.01648" lon="98.629239"><time>2026-04-28T11:09:45.219Z</time></trkpt>
      <trkpt lat="28.01648" lon="98.629239"><time>2026-04-28T11:09:45.236Z</time></trkpt>
      <trkpt lat="28.01648" lon="98.629239"><time>2026-04-28T11:09:45.252Z</time></trkpt>
      <trkpt lat="28.016488" lon="98.629238"><time>2026-04-28T11:09:45.269Z</time></trkpt>
      <trkpt lat="28.016488" lon="98.629238"><time>2026-04-28T11:09:45.286Z</time></trkpt>
      <trkpt lat="28.016488" lon="98.629238"><time>2026-04-28T11:09:45.302Z</time></trkpt>
      <trkpt lat="28.016488" lon="98.629238"><time>2026-04-28T11:09:45.319Z</time></trkpt>
      <trkpt lat="28.016488" lon="98.629238"><time>2026-04-28T11:09:45.336Z</time></trkpt>
      <trkpt lat="28.016488" lon="98.629238"><time>2026-04-28T11:09:45.352Z</time></trkpt>
      <trkpt lat="28.016497" lon="98.629237"><time>2026-04-28T11:09:45.369Z</time></trkpt>
      <trkpt lat="28.016497" lon="98.629237"><time>2026-04-28T11:09:45.386Z</time></trkpt>
      <trkpt lat="28.016497" lon="98.629237"><time>2026-04-28T11:09:45.402Z</time></trkpt>
      <trkpt lat="28.016497" lon="98.629237"><time>2026-04-28T11:09:45.419Z</time></trkpt>
      <trkpt lat="28.016497" lon="98.629237"><time>2026-04-28T11:09:45.436Z</time></trkpt>
      <trkpt lat="28.016497" lon="98.629237"><time>2026-04-28T11:09:45.452Z</time></trkpt>
      <trkpt lat="28.016505" lon="98.629237"><time>2026-04-28T11:09:45.469Z</time></trkpt>
      <trkpt lat="28.016505" lon="98.629237"><time>2026-04-28T11:09:45.486Z</time></trkpt>
      <trkpt lat="28.016505" lon="98.629237"><time>2026-04-28T11:09:45.502Z</time></trkpt>
      <trkpt lat="28.016505" lon="98.629237"><time>2026-04-28T11:09:45.519Z</time></trkpt>
      <trkpt lat="28.016505" lon="98.629237"><time>2026-04-28T11:09:45.536Z</time></trkpt>
      <trkpt lat="28.016505" lon="98.629237"><time>2026-04-28T11:09:45.553Z</time></trkpt>
      <trkpt lat="28.016514" lon="98.629236"><time>2026-04-28T11:09:45.569Z</time></trkpt>
      <trkpt lat="28.016514" lon="98.629236"><time>2026-04-28T11:09:45.586Z</time></trkpt>
      <trkpt lat="28.016514" lon="98.629236"><time>2026-04-28T11:09:45.603Z</time></trkpt>
      <trkpt lat="28.016514" lon="98.629236"><time>2026-04-28T11:09:45.619Z</time></trkpt>
      <trkpt lat="28.016514" lon="98.629236"><time>2026-04-28T11:09:45.636Z</time></trkpt>
      <trkpt lat="28.016514" lon="98.629236"><time>2026-04-28T11:09:45.653Z</time></trkpt>
      <trkpt lat="28.016524" lon="98.629235"><time>2026-04-28T11:09:45.669Z</time></trkpt>
      <trkpt lat="28.016524" lon="98.629235"><time>2026-04-28T11:09:45.686Z</time></trkpt>
      <trkpt lat="28.016524" lon="98.629235"><time>2026-04-28T11:09:45.703Z</time></trkpt>
      <trkpt lat="28.016524" lon="98.629235"><time>2026-04-28T11:09:45.719Z</time></trkpt>
      <trkpt lat="28.016524" lon="98.629235"><time>2026-04-28T11:09:45.736Z</time></trkpt>
      <trkpt lat="28.016524" lon="98.629235"><time>2026-04-28T11:09:45.753Z</time></trkpt>
      <trkpt lat="28.016533" lon="98.629234"><time>2026-04-28T11:09:45.769Z</time></trkpt>
      <trkpt lat="28.016533" lon="98.629234"><time>2026-04-28T11:09:45.786Z</time></trkpt>
      <trkpt lat="28.016533" lon="98.629234"><time>2026-04-28T11:09:45.803Z</time></trkpt>
      <trkpt lat="28.016533" lon="98.629234"><time>2026-04-28T11:09:45.819Z</time></trkpt>
      <trkpt lat="28.016533" lon="98.629234"><time>2026-04-28T11:09:45.836Z</time></trkpt>
      <trkpt lat="28.016533" lon="98.629234"><time>2026-04-28T11:09:45.853Z</time></trkpt>
      <trkpt lat="28.016543" lon="98.629233"><time>2026-04-28T11:09:45.870Z</time></trkpt>
      <trkpt lat="28.016543" lon="98.629233"><time>2026-04-28T11:09:45.886Z</time></trkpt>
      <trkpt lat="28.016543" lon="98.629233"><time>2026-04-28T11:09:45.903Z</time></trkpt>
      <trkpt lat="28.016543" lon="98.629233"><time>2026-04-28T11:09:45.920Z</time></trkpt>
      <trkpt lat="28.016543" lon="98.629233"><time>2026-04-28T11:09:45.936Z</time></trkpt>
      <trkpt lat="28.016543" lon="98.629233"><time>2026-04-28T11:09:45.953Z</time></trkpt>
      <trkpt lat="28.016553" lon="98.629233"><time>2026-04-28T11:09:45.970Z</time></trkpt>
      <trkpt lat="28.016553" lon="98.629233"><time>2026-04-28T11:09:45.986Z</time></trkpt>
      <trkpt lat="28.016553" lon="98.629233"><time>2026-04-28T11:09:46.003Z</time></trkpt>
      <trkpt lat="28.016553" lon="98.629233"><time>2026-04-28T11:09:46.020Z</time></trkpt>
      <trkpt lat="28.016553" lon="98.629233"><time>2026-04-28T11:09:46.036Z</time></trkpt>
      <trkpt lat="28.016553" lon="98.629233"><time>2026-04-28T11:09:46.053Z</time></trkpt>
      <trkpt lat="28.016563" lon="98.629232"><time>2026-04-28T11:09:46.070Z</time></trkpt>
      <trkpt lat="28.016563" lon="98.629232"><time>2026-04-28T11:09:46.086Z</time></trkpt>
      <trkpt lat="28.016563" lon="98.629232"><time>2026-04-28T11:09:46.103Z</time></trkpt>
      <trkpt lat="28.016563" lon="98.629232"><time>2026-04-28T11:09:46.120Z</time></trkpt>
      <trkpt lat="28.016563" lon="98.629232"><time>2026-04-28T11:09:46.136Z</time></trkpt>
      <trkpt lat="28.016563" lon="98.629232"><time>2026-04-28T11:09:46.153Z</time></trkpt>
      <trkpt lat="28.016573" lon="98.629231"><time>2026-04-28T11:09:46.170Z</time></trkpt>
      <trkpt lat="28.016573" lon="98.629231"><time>2026-04-28T11:09:46.187Z</time></trkpt>
      <trkpt lat="28.016573" lon="98.629231"><time>2026-04-28T11:09:46.203Z</time></trkpt>
      <trkpt lat="28.016573" lon="98.629231"><time>2026-04-28T11:09:46.220Z</time></trkpt>
      <trkpt lat="28.016573" lon="98.629231"><time>2026-04-28T11:09:46.237Z</time></trkpt>
      <trkpt lat="28.016573" lon="98.629231"><time>2026-04-28T11:09:46.253Z</time></trkpt>
      <trkpt lat="28.016584" lon="98.62923"><time>2026-04-28T11:09:46.270Z</time></trkpt>
      <trkpt lat="28.016584" lon="98.62923"><time>2026-04-28T11:09:46.287Z</time></trkpt>
      <trkpt lat="28.016584" lon="98.62923"><time>2026-04-28T11:09:46.303Z</time></trkpt>
      <trkpt lat="28.016584" lon="98.62923"><time>2026-04-28T11:09:46.320Z</time></trkpt>
      <trkpt lat="28.016584" lon="98.62923"><time>2026-04-28T11:09:46.337Z</time></trkpt>
      <trkpt lat="28.016584" lon="98.62923"><time>2026-04-28T11:09:46.353Z</time></trkpt>
      <trkpt lat="28.016595" lon="98.629229"><time>2026-04-28T11:09:46.370Z</time></trkpt>
      <trkpt lat="28.016595" lon="98.629229"><time>2026-04-28T11:09:46.387Z</time></trkpt>
      <trkpt lat="28.016595" lon="98.629229"><time>2026-04-28T11:09:46.403Z</time></trkpt>
      <trkpt lat="28.016595" lon="98.629229"><time>2026-04-28T11:09:46.420Z</time></trkpt>
      <trkpt lat="28.016595" lon="98.629229"><time>2026-04-28T11:09:46.437Z</time></trkpt>
      <trkpt lat="28.016595" lon="98.629229"><time>2026-04-28T11:09:46.453Z</time></trkpt>
      <trkpt lat="28.016606" lon="98.629228"><time>2026-04-28T11:09:46.470Z</time></trkpt>
      <trkpt lat="28.016606" lon="98.629228"><time>2026-04-28T11:09:46.487Z</time></trkpt>
      <trkpt lat="28.016606" lon="98.629228"><time>2026-04-28T11:09:46.504Z</time></trkpt>
      <trkpt lat="28.016606" lon="98.629228"><time>2026-04-28T11:09:46.520Z</time></trkpt>
      <trkpt lat="28.016606" lon="98.629228"><time>2026-04-28T11:09:46.537Z</time></trkpt>
      <trkpt lat="28.016606" lon="98.629228"><time>2026-04-28T11:09:46.554Z</time></trkpt>
      <trkpt lat="28.016617" lon="98.629227"><time>2026-04-28T11:09:46.570Z</time></trkpt>
      <trkpt lat="28.016617" lon="98.629227"><time>2026-04-28T11:09:46.587Z</time></trkpt>
      <trkpt lat="28.016617" lon="98.629227"><time>2026-04-28T11:09:46.604Z</time></trkpt>
      <trkpt lat="28.016617" lon="98.629227"><time>2026-04-28T11:09:46.620Z</time></trkpt>
      <trkpt lat="28.016617" lon="98.629227"><time>2026-04-28T11:09:46.637Z</time></trkpt>
      <trkpt lat="28.016617" lon="98.629227"><time>2026-04-28T11:09:46.654Z</time></trkpt>
      <trkpt lat="28.016628" lon="98.629226"><time>2026-04-28T11:09:46.670Z</time></trkpt>
      <trkpt lat="28.016628" lon="98.629226"><time>2026-04-28T11:09:46.687Z</time></trkpt>
      <trkpt lat="28.016628" lon="98.629226"><time>2026-04-28T11:09:46.704Z</time></trkpt>
      <trkpt lat="28.016628" lon="98.629226"><time>2026-04-28T11:09:46.720Z</time></trkpt>
      <trkpt lat="28.016628" lon="98.629226"><time>2026-04-28T11:09:46.737Z</time></trkpt>
      <trkpt lat="28.016628" lon="98.629226"><time>2026-04-28T11:09:46.754Z</time></trkpt>
      <trkpt lat="28.01664" lon="98.629225"><time>2026-04-28T11:09:46.770Z</time></trkpt>
      <trkpt lat="28.01664" lon="98.629225"><time>2026-04-28T11:09:46.787Z</time></trkpt>
      <trkpt lat="28.01664" lon="98.629225"><time>2026-04-28T11:09:46.804Z</time></trkpt>
      <trkpt lat="28.01664" lon="98.629225"><time>2026-04-28T11:09:46.821Z</time></trkpt>
      <trkpt lat="28.01664" lon="98.629225"><time>2026-04-28T11:09:46.837Z</time></trkpt>
      <trkpt lat="28.01664" lon="98.629225"><time>2026-04-28T11:09:46.854Z</time></trkpt>
      <trkpt lat="28.016652" lon="98.629224"><time>2026-04-28T11:09:46.871Z</time></trkpt>
      <trkpt lat="28.016652" lon="98.629224"><time>2026-04-28T11:09:46.887Z</time></trkpt>
      <trkpt lat="28.016652" lon="98.629224"><time>2026-04-28T11:09:46.904Z</time></trkpt>
      <trkpt lat="28.016652" lon="98.629224"><time>2026-04-28T11:09:46.921Z</time></trkpt>
      <trkpt lat="28.016652" lon="98.629224"><time>2026-04-28T11:09:46.937Z</time></trkpt>
      <trkpt lat="28.016652" lon="98.629224"><time>2026-04-28T11:09:46.954Z</time></trkpt>
      <trkpt lat="28.016664" lon="98.629223"><time>2026-04-28T11:09:46.971Z</time></trkpt>
      <trkpt lat="28.016664" lon="98.629223"><time>2026-04-28T11:09:46.987Z</time></trkpt>
      <trkpt lat="28.016664" lon="98.629223"><time>2026-04-28T11:09:47.004Z</time></trkpt>
      <trkpt lat="28.016664" lon="98.629223"><time>2026-04-28T11:09:47.021Z</time></trkpt>
      <trkpt lat="28.016664" lon="98.629223"><time>2026-04-28T11:09:47.037Z</time></trkpt>
      <trkpt lat="28.016664" lon="98.629223"><time>2026-04-28T11:09:47.054Z</time></trkpt>
      <trkpt lat="28.016676" lon="98.629222"><time>2026-04-28T11:09:47.071Z</time></trkpt>
      <trkpt lat="28.016676" lon="98.629222"><time>2026-04-28T11:09:47.087Z</time></trkpt>
      <trkpt lat="28.016676" lon="98.629222"><time>2026-04-28T11:09:47.104Z</time></trkpt>
      <trkpt lat="28.016676" lon="98.629222"><time>2026-04-28T11:09:47.121Z</time></trkpt>
      <trkpt lat="28.016676" lon="98.629222"><time>2026-04-28T11:09:47.138Z</time></trkpt>
      <trkpt lat="28.016676" lon="98.629222"><time>2026-04-28T11:09:47.154Z</time></trkpt>
      <trkpt lat="28.016689" lon="98.629221"><time>2026-04-28T11:09:47.171Z</time></trkpt>
      <trkpt lat="28.016689" lon="98.629221"><time>2026-04-28T11:09:47.188Z</time></trkpt>
      <trkpt lat="28.016689" lon="98.629221"><time>2026-04-28T11:09:47.204Z</time></trkpt>
      <trkpt lat="28.016689" lon="98.629221"><time>2026-04-28T11:09:47.221Z</time></trkpt>
      <trkpt lat="28.016689" lon="98.629221"><time>2026-04-28T11:09:47.238Z</time></trkpt>
      <trkpt lat="28.016689" lon="98.629221"><time>2026-04-28T11:09:47.254Z</time></trkpt>
      <trkpt lat="28.016701" lon="98.62922"><time>2026-04-28T11:09:47.271Z</time></trkpt>
      <trkpt lat="28.016701" lon="98.62922"><time>2026-04-28T11:09:47.288Z</time></trkpt>
      <trkpt lat="28.016701" lon="98.62922"><time>2026-04-28T11:09:47.304Z</time></trkpt>
      <trkpt lat="28.016701" lon="98.62922"><time>2026-04-28T11:09:47.321Z</time></trkpt>
      <trkpt lat="28.016701" lon="98.62922"><time>2026-04-28T11:09:47.338Z</time></trkpt>
      <trkpt lat="28.016701" lon="98.62922"><time>2026-04-28T11:09:47.354Z</time></trkpt>
      <trkpt lat="28.016714" lon="98.629219"><time>2026-04-28T11:09:47.371Z</time></trkpt>
      <trkpt lat="28.016714" lon="98.629219"><time>2026-04-28T11:09:47.388Z</time></trkpt>
      <trkpt lat="28.016714" lon="98.629219"><time>2026-04-28T11:09:47.404Z</time></trkpt>
      <trkpt lat="28.016714" lon="98.629219"><time>2026-04-28T11:09:47.421Z</time></trkpt>
      <trkpt lat="28.016714" lon="98.629219"><time>2026-04-28T11:09:47.438Z</time></trkpt>
      <trkpt lat="28.016714" lon="98.629219"><time>2026-04-28T11:09:47.455Z</time></trkpt>
      <trkpt lat="28.016727" lon="98.629217"><time>2026-04-28T11:09:47.471Z</time></trkpt>
      <trkpt lat="28.016727" lon="98.629217"><time>2026-04-28T11:09:47.488Z</time></trkpt>
      <trkpt lat="28.016727" lon="98.629217"><time>2026-04-28T11:09:47.505Z</time></trkpt>
      <trkpt lat="28.016727" lon="98.629217"><time>2026-04-28T11:09:47.521Z</time></trkpt>
      <trkpt lat="28.016727" lon="98.629217"><time>2026-04-28T11:09:47.538Z</time></trkpt>
      <trkpt lat="28.016727" lon="98.629217"><time>2026-04-28T11:09:47.555Z</time></trkpt>
      <trkpt lat="28.01674" lon="98.629216"><time>2026-04-28T11:09:47.571Z</time></trkpt>
      <trkpt lat="28.01674" lon="98.629216"><time>2026-04-28T11:09:47.588Z</time></trkpt>
      <trkpt lat="28.01674" lon="98.629216"><time>2026-04-28T11:09:47.605Z</time></trkpt>
      <trkpt lat="28.01674" lon="98.629216"><time>2026-04-28T11:09:47.621Z</time></trkpt>
      <trkpt lat="28.01674" lon="98.629216"><time>2026-04-28T11:09:47.638Z</time></trkpt>
      <trkpt lat="28.01674" lon="98.629216"><time>2026-04-28T11:09:47.655Z</time></trkpt>
      <trkpt lat="28.016753" lon="98.629215"><time>2026-04-28T11:09:47.671Z</time></trkpt>
      <trkpt lat="28.016753" lon="98.629215"><time>2026-04-28T11:09:47.688Z</time></trkpt>
      <trkpt lat="28.016753" lon="98.629215"><time>2026-04-28T11:09:47.705Z</time></trkpt>
      <trkpt lat="28.016753" lon="98.629215"><time>2026-04-28T11:09:47.721Z</time></trkpt>
      <trkpt lat="28.016753" lon="98.629215"><time>2026-04-28T11:09:47.738Z</time></trkpt>
      <trkpt lat="28.016753" lon="98.629215"><time>2026-04-28T11:09:47.755Z</time></trkpt>
      <trkpt lat="28.016767" lon="98.629214"><time>2026-04-28T11:09:47.772Z</time></trkpt>
      <trkpt lat="28.016767" lon="98.629214"><time>2026-04-28T11:09:47.788Z</time></trkpt>
      <trkpt lat="28.016767" lon="98.629214"><time>2026-04-28T11:09:47.805Z</time></trkpt>
      <trkpt lat="28.016767" lon="98.629214"><time>2026-04-28T11:09:47.822Z</time></trkpt>
      <trkpt lat="28.016767" lon="98.629214"><time>2026-04-28T11:09:47.838Z</time></trkpt>
      <trkpt lat="28.016767" lon="98.629214"><time>2026-04-28T11:09:47.855Z</time></trkpt>
      <trkpt lat="28.01678" lon="98.629213"><time>2026-04-28T11:09:47.872Z</time></trkpt>
      <trkpt lat="28.01678" lon="98.629213"><time>2026-04-28T11:09:47.888Z</time></trkpt>
      <trkpt lat="28.01678" lon="98.629213"><time>2026-04-28T11:09:47.905Z</time></trkpt>
      <trkpt lat="28.01678" lon="98.629213"><time>2026-04-28T11:09:47.922Z</time></trkpt>
      <trkpt lat="28.01678" lon="98.629213"><time>2026-04-28T11:09:47.938Z</time></trkpt>
      <trkpt lat="28.01678" lon="98.629213"><time>2026-04-28T11:09:47.955Z</time></trkpt>
      <trkpt lat="28.016794" lon="98.629212"><time>2026-04-28T11:09:47.972Z</time></trkpt>
      <trkpt lat="28.016794" lon="98.629212"><time>2026-04-28T11:09:47.988Z</time></trkpt>
      <trkpt lat="28.016794" lon="98.629212"><time>2026-04-28T11:09:48.005Z</time></trkpt>
      <trkpt lat="28.016794" lon="98.629212"><time>2026-04-28T11:09:48.022Z</time></trkpt>
      <trkpt lat="28.016794" lon="98.629212"><time>2026-04-28T11:09:48.038Z</time></trkpt>
      <trkpt lat="28.016794" lon="98.629212"><time>2026-04-28T11:09:48.055Z</time></trkpt>
      <trkpt lat="28.016808" lon="98.62921"><time>2026-04-28T11:09:48.072Z</time></trkpt>
      <trkpt lat="28.016808" lon="98.62921"><time>2026-04-28T11:09:48.089Z</time></trkpt>
      <trkpt lat="28.016808" lon="98.62921"><time>2026-04-28T11:09:48.105Z</time></trkpt>
      <trkpt lat="28.016808" lon="98.62921"><time>2026-04-28T11:09:48.122Z</time></trkpt>
      <trkpt lat="28.016808" lon="98.62921"><time>2026-04-28T11:09:48.139Z</time></trkpt>
      <trkpt lat="28.016808" lon="98.62921"><time>2026-04-28T11:09:48.155Z</time></trkpt>
      <trkpt lat="28.016822" lon="98.629209"><time>2026-04-28T11:09:48.172Z</time></trkpt>
      <trkpt lat="28.016822" lon="98.629209"><time>2026-04-28T11:09:48.189Z</time></trkpt>
      <trkpt lat="28.016822" lon="98.629209"><time>2026-04-28T11:09:48.205Z</time></trkpt>
      <trkpt lat="28.016822" lon="98.629209"><time>2026-04-28T11:09:48.222Z</time></trkpt>
      <trkpt lat="28.016822" lon="98.629209"><time>2026-04-28T11:09:48.239Z</time></trkpt>
      <trkpt lat="28.016822" lon="98.629209"><time>2026-04-28T11:09:48.255Z</time></trkpt>
      <trkpt lat="28.016836" lon="98.629208"><time>2026-04-28T11:09:48.272Z</time></trkpt>
      <trkpt lat="28.016836" lon="98.629208"><time>2026-04-28T11:09:48.289Z</time></trkpt>
      <trkpt lat="28.016836" lon="98.629208"><time>2026-04-28T11:09:48.305Z</time></trkpt>
      <trkpt lat="28.016836" lon="98.629208"><time>2026-04-28T11:09:48.322Z</time></trkpt>
      <trkpt lat="28.016836" lon="98.629208"><time>2026-04-28T11:09:48.339Z</time></trkpt>
      <trkpt lat="28.016836" lon="98.629208"><time>2026-04-28T11:09:48.355Z</time></trkpt>
      <trkpt lat="28.01685" lon="98.629207"><time>2026-04-28T11:09:48.372Z</time></trkpt>
      <trkpt lat="28.01685" lon="98.629207"><time>2026-04-28T11:09:48.389Z</time></trkpt>
      <trkpt lat="28.01685" lon="98.629207"><time>2026-04-28T11:09:48.406Z</time></trkpt>
      <trkpt lat="28.01685" lon="98.629207"><time>2026-04-28T11:09:48.422Z</time></trkpt>
      <trkpt lat="28.01685" lon="98.629207"><time>2026-04-28T11:09:48.439Z</time></trkpt>
      <trkpt lat="28.01685" lon="98.629207"><time>2026-04-28T11:09:48.456Z</time></trkpt>
      <trkpt lat="28.016865" lon="98.629205"><time>2026-04-28T11:09:48.472Z</time></trkpt>
      <trkpt lat="28.016865" lon="98.629205"><time>2026-04-28T11:09:48.489Z</time></trkpt>
      <trkpt lat="28.016865" lon="98.629205"><time>2026-04-28T11:09:48.506Z</time></trkpt>
      <trkpt lat="28.016865" lon="98.629205"><time>2026-04-28T11:09:48.522Z</time></trkpt>
      <trkpt lat="28.016865" lon="98.629205"><time>2026-04-28T11:09:48.539Z</time></trkpt>
      <trkpt lat="28.016865" lon="98.629205"><time>2026-04-28T11:09:48.556Z</time></trkpt>
      <trkpt lat="28.016879" lon="98.629204"><time>2026-04-28T11:09:48.572Z</time></trkpt>
      <trkpt lat="28.016879" lon="98.629204"><time>2026-04-28T11:09:48.589Z</time></trkpt>
      <trkpt lat="28.016879" lon="98.629204"><time>2026-04-28T11:09:48.606Z</time></trkpt>
      <trkpt lat="28.016879" lon="98.629204"><time>2026-04-28T11:09:48.622Z</time></trkpt>
      <trkpt lat="28.016879" lon="98.629204"><time>2026-04-28T11:09:48.639Z</time></trkpt>
      <trkpt lat="28.016879" lon="98.629204"><time>2026-04-28T11:09:48.656Z</time></trkpt>
      <trkpt lat="28.016893" lon="98.629203"><time>2026-04-28T11:09:48.672Z</time></trkpt>
      <trkpt lat="28.016893" lon="98.629203"><time>2026-04-28T11:09:48.689Z</time></trkpt>
      <trkpt lat="28.016893" lon="98.629203"><time>2026-04-28T11:09:48.706Z</time></trkpt>
      <trkpt lat="28.016893" lon="98.629203"><time>2026-04-28T11:09:48.723Z</time></trkpt>
      <trkpt lat="28.016893" lon="98.629203"><time>2026-04-28T11:09:48.739Z</time></trkpt>
      <trkpt lat="28.016893" lon="98.629203"><time>2026-04-28T11:09:48.756Z</time></trkpt>
      <trkpt lat="28.016908" lon="98.629202"><time>2026-04-28T11:09:48.773Z</time></trkpt>
      <trkpt lat="28.016908" lon="98.629202"><time>2026-04-28T11:09:48.789Z</time></trkpt>
      <trkpt lat="28.016908" lon="98.629202"><time>2026-04-28T11:09:48.806Z</time></trkpt>
      <trkpt lat="28.016908" lon="98.629202"><time>2026-04-28T11:09:48.823Z</time></trkpt>
      <trkpt lat="28.016908" lon="98.629202"><time>2026-04-28T11:09:48.839Z</time></trkpt>
      <trkpt lat="28.016908" lon="98.629202"><time>2026-04-28T11:09:48.856Z</time></trkpt>
      <trkpt lat="28.016923" lon="98.629201"><time>2026-04-28T11:09:48.873Z</time></trkpt>
      <trkpt lat="28.016923" lon="98.629201"><time>2026-04-28T11:09:48.889Z</time></trkpt>
      <trkpt lat="28.016923" lon="98.629201"><time>2026-04-28T11:09:48.906Z</time></trkpt>
      <trkpt lat="28.016923" lon="98.629201"><time>2026-04-28T11:09:48.923Z</time></trkpt>
      <trkpt lat="28.016923" lon="98.629201"><time>2026-04-28T11:09:48.939Z</time></trkpt>
      <trkpt lat="28.016923" lon="98.629201"><time>2026-04-28T11:09:48.956Z</time></trkpt>
      <trkpt lat="28.016938" lon="98.629199"><time>2026-04-28T11:09:48.973Z</time></trkpt>
      <trkpt lat="28.016938" lon="98.629199"><time>2026-04-28T11:09:48.989Z</time></trkpt>
      <trkpt lat="28.016938" lon="98.629199"><time>2026-04-28T11:09:49.006Z</time></trkpt>
      <trkpt lat="28.016938" lon="98.629199"><time>2026-04-28T11:09:49.023Z</time></trkpt>
      <trkpt lat="28.016938" lon="98.629199"><time>2026-04-28T11:09:49.040Z</time></trkpt>
      <trkpt lat="28.016938" lon="98.629199"><time>2026-04-28T11:09:49.056Z</time></trkpt>
      <trkpt lat="28.016953" lon="98.629198"><time>2026-04-28T11:09:49.073Z</time></trkpt>
      <trkpt lat="28.016953" lon="98.629198"><time>2026-04-28T11:09:49.090Z</time></trkpt>
      <trkpt lat="28.016953" lon="98.629198"><time>2026-04-28T11:09:49.106Z</time></trkpt>
      <trkpt lat="28.016953" lon="98.629198"><time>2026-04-28T11:09:49.123Z</time></trkpt>
      <trkpt lat="28.016953" lon="98.629198"><time>2026-04-28T11:09:49.140Z</time></trkpt>
      <trkpt lat="28.016953" lon="98.629198"><time>2026-04-28T11:09:49.156Z</time></trkpt>
      <trkpt lat="28.016968" lon="98.629197"><time>2026-04-28T11:09:49.173Z</time></trkpt>
      <trkpt lat="28.016968" lon="98.629197"><time>2026-04-28T11:09:49.190Z</time></trkpt>
      <trkpt lat="28.016968" lon="98.629197"><time>2026-04-28T11:09:49.206Z</time></trkpt>
      <trkpt lat="28.016968" lon="98.629197"><time>2026-04-28T11:09:49.223Z</time></trkpt>
      <trkpt lat="28.016968" lon="98.629197"><time>2026-04-28T11:09:49.240Z</time></trkpt>
      <trkpt lat="28.016968" lon="98.629197"><time>2026-04-28T11:09:49.256Z</time></trkpt>
      <trkpt lat="28.016983" lon="98.629196"><time>2026-04-28T11:09:49.273Z</time></trkpt>
      <trkpt lat="28.016983" lon="98.629196"><time>2026-04-28T11:09:49.290Z</time></trkpt>
      <trkpt lat="28.016983" lon="98.629196"><time>2026-04-28T11:09:49.306Z</time></trkpt>
      <trkpt lat="28.016983" lon="98.629196"><time>2026-04-28T11:09:49.323Z</time></trkpt>
      <trkpt lat="28.016983" lon="98.629196"><time>2026-04-28T11:09:49.340Z</time></trkpt>
      <trkpt lat="28.016983" lon="98.629196"><time>2026-04-28T11:09:49.357Z</time></trkpt>
      <trkpt lat="28.016999" lon="98.629194"><time>2026-04-28T11:09:49.373Z</time></trkpt>
      <trkpt lat="28.016999" lon="98.629194"><time>2026-04-28T11:09:49.390Z</time></trkpt>
      <trkpt lat="28.016999" lon="98.629194"><time>2026-04-28T11:09:49.407Z</time></trkpt>
      <trkpt lat="28.016999" lon="98.629194"><time>2026-04-28T11:09:49.423Z</time></trkpt>
      <trkpt lat="28.016999" lon="98.629194"><time>2026-04-28T11:09:49.440Z</time></trkpt>
      <trkpt lat="28.016999" lon="98.629194"><time>2026-04-28T11:09:49.457Z</time></trkpt>
      <trkpt lat="28.017014" lon="98.629193"><time>2026-04-28T11:09:49.473Z</time></trkpt>
      <trkpt lat="28.017014" lon="98.629193"><time>2026-04-28T11:09:49.490Z</time></trkpt>
      <trkpt lat="28.017014" lon="98.629193"><time>2026-04-28T11:09:49.507Z</time></trkpt>
      <trkpt lat="28.017014" lon="98.629193"><time>2026-04-28T11:09:49.523Z</time></trkpt>
      <trkpt lat="28.017014" lon="98.629193"><time>2026-04-28T11:09:49.540Z</time></trkpt>
      <trkpt lat="28.017014" lon="98.629193"><time>2026-04-28T11:09:49.557Z</time></trkpt>
      <trkpt lat="28.01703" lon="98.629192"><time>2026-04-28T11:09:49.573Z</time></trkpt>
      <trkpt lat="28.01703" lon="98.629192"><time>2026-04-28T11:09:49.590Z</time></trkpt>
      <trkpt lat="28.01703" lon="98.629192"><time>2026-04-28T11:09:49.607Z</time></trkpt>
      <trkpt lat="28.01703" lon="98.629192"><time>2026-04-28T11:09:49.623Z</time></trkpt>
      <trkpt lat="28.01703" lon="98.629192"><time>2026-04-28T11:09:49.640Z</time></trkpt>
      <trkpt lat="28.01703" lon="98.629192"><time>2026-04-28T11:09:49.657Z</time></trkpt>
      <trkpt lat="28.017046" lon="98.629191"><time>2026-04-28T11:09:49.673Z</time></trkpt>
      <trkpt lat="28.017046" lon="98.629191"><time>2026-04-28T11:09:49.690Z</time></trkpt>
      <trkpt lat="28.017046" lon="98.629191"><time>2026-04-28T11:09:49.707Z</time></trkpt>
      <trkpt lat="28.017046" lon="98.629191"><time>2026-04-28T11:09:49.724Z</time></trkpt>
      <trkpt lat="28.017046" lon="98.629191"><time>2026-04-28T11:09:49.740Z</time></trkpt>
      <trkpt lat="28.017046" lon="98.629191"><time>2026-04-28T11:09:49.757Z</time></trkpt>
      <trkpt lat="28.017062" lon="98.629189"><time>2026-04-28T11:09:49.774Z</time></trkpt>
      <trkpt lat="28.017062" lon="98.629189"><time>2026-04-28T11:09:49.790Z</time></trkpt>
      <trkpt lat="28.017062" lon="98.629189"><time>2026-04-28T11:09:49.807Z</time></trkpt>
      <trkpt lat="28.017062" lon="98.629189"><time>2026-04-28T11:09:49.824Z</time></trkpt>
      <trkpt lat="28.017062" lon="98.629189"><time>2026-04-28T11:09:49.840Z</time></trkpt>
      <trkpt lat="28.017062" lon="98.629189"><time>2026-04-28T11:09:49.857Z</time></trkpt>
      <trkpt lat="28.017077" lon="98.629188"><time>2026-04-28T11:09:49.874Z</time></trkpt>
      <trkpt lat="28.017077" lon="98.629188"><time>2026-04-28T11:09:49.890Z</time></trkpt>
      <trkpt lat="28.017077" lon="98.629188"><time>2026-04-28T11:09:49.907Z</time></trkpt>
      <trkpt lat="28.017077" lon="98.629188"><time>2026-04-28T11:09:49.924Z</time></trkpt>
      <trkpt lat="28.017077" lon="98.629188"><time>2026-04-28T11:09:49.940Z</time></trkpt>
      <trkpt lat="28.017077" lon="98.629188"><time>2026-04-28T11:09:49.957Z</time></trkpt>
      <trkpt lat="28.017093" lon="98.629187"><time>2026-04-28T11:09:49.974Z</time></trkpt>
      <trkpt lat="28.017093" lon="98.629187"><time>2026-04-28T11:09:49.990Z</time></trkpt>
      <trkpt lat="28.017093" lon="98.629187"><time>2026-04-28T11:09:50.007Z</time></trkpt>
      <trkpt lat="28.017093" lon="98.629187"><time>2026-04-28T11:09:50.024Z</time></trkpt>
      <trkpt lat="28.017093" lon="98.629187"><time>2026-04-28T11:09:50.041Z</time></trkpt>
      <trkpt lat="28.017093" lon="98.629187"><time>2026-04-28T11:09:50.057Z</time></trkpt>
      <trkpt lat="28.017109" lon="98.629186"><time>2026-04-28T11:09:50.074Z</time></trkpt>
      <trkpt lat="28.017109" lon="98.629186"><time>2026-04-28T11:09:50.091Z</time></trkpt>
      <trkpt lat="28.017109" lon="98.629186"><time>2026-04-28T11:09:50.107Z</time></trkpt>
      <trkpt lat="28.017109" lon="98.629186"><time>2026-04-28T11:09:50.124Z</time></trkpt>
      <trkpt lat="28.017109" lon="98.629186"><time>2026-04-28T11:09:50.141Z</time></trkpt>
      <trkpt lat="28.017109" lon="98.629186"><time>2026-04-28T11:09:50.157Z</time></trkpt>
      <trkpt lat="28.017125" lon="98.629178"><time>2026-04-28T11:09:50.174Z</time></trkpt>
      <trkpt lat="28.017125" lon="98.629178"><time>2026-04-28T11:09:50.191Z</time></trkpt>
      <trkpt lat="28.017125" lon="98.629178"><time>2026-04-28T11:09:50.207Z</time></trkpt>
      <trkpt lat="28.017125" lon="98.629178"><time>2026-04-28T11:09:50.224Z</time></trkpt>
      <trkpt lat="28.017125" lon="98.629178"><time>2026-04-28T11:09:50.241Z</time></trkpt>
      <trkpt lat="28.017125" lon="98.629178"><time>2026-04-28T11:09:50.257Z</time></trkpt>
      <trkpt lat="28.017141" lon="98.629177"><time>2026-04-28T11:09:50.274Z</time></trkpt>
      <trkpt lat="28.017141" lon="98.629177"><time>2026-04-28T11:09:50.291Z</time></trkpt>
      <trkpt lat="28.017141" lon="98.629177"><time>2026-04-28T11:09:50.307Z</time></trkpt>
      <trkpt lat="28.017141" lon="98.629177"><time>2026-04-28T11:09:50.324Z</time></trkpt>
      <trkpt lat="28.017141" lon="98.629177"><time>2026-04-28T11:09:50.341Z</time></trkpt>
      <trkpt lat="28.017141" lon="98.629177"><time>2026-04-28T11:09:50.358Z</time></trkpt>
      <trkpt lat="28.017157" lon="98.629176"><time>2026-04-28T11:09:50.374Z</time></trkpt>
      <trkpt lat="28.017157" lon="98.629176"><time>2026-04-28T11:09:50.391Z</time></trkpt>
      <trkpt lat="28.017157" lon="98.629176"><time>2026-04-28T11:09:50.408Z</time></trkpt>
      <trkpt lat="28.017157" lon="98.629176"><time>2026-04-28T11:09:50.424Z</time></trkpt>
      <trkpt lat="28.017157" lon="98.629176"><time>2026-04-28T11:09:50.441Z</time></trkpt>
      <trkpt lat="28.017157" lon="98.629176"><time>2026-04-28T11:09:50.458Z</time></trkpt>
      <trkpt lat="28.017173" lon="98.629174"><time>2026-04-28T11:09:50.474Z</time></trkpt>
      <trkpt lat="28.017173" lon="98.629174"><time>2026-04-28T11:09:50.491Z</time></trkpt>
      <trkpt lat="28.017173" lon="98.629174"><time>2026-04-28T11:09:50.508Z</time></trkpt>
      <trkpt lat="28.017173" lon="98.629174"><time>2026-04-28T11:09:50.524Z</time></trkpt>
      <trkpt lat="28.017173" lon="98.629174"><time>2026-04-28T11:09:50.541Z</time></trkpt>
      <trkpt lat="28.017173" lon="98.629174"><time>2026-04-28T11:09:50.558Z</time></trkpt>
      <trkpt lat="28.017188" lon="98.629173"><time>2026-04-28T11:09:50.574Z</time></trkpt>
      <trkpt lat="28.017188" lon="98.629173"><time>2026-04-28T11:09:50.591Z</time></trkpt>
      <trkpt lat="28.017188" lon="98.629173"><time>2026-04-28T11:09:50.608Z</time></trkpt>
      <trkpt lat="28.017188" lon="98.629173"><time>2026-04-28T11:09:50.624Z</time></trkpt>
      <trkpt lat="28.017188" lon="98.629173"><time>2026-04-28T11:09:50.641Z</time></trkpt>
      <trkpt lat="28.017188" lon="98.629173"><time>2026-04-28T11:09:50.658Z</time></trkpt>
      <trkpt lat="28.017205" lon="98.629172"><time>2026-04-28T11:09:50.675Z</time></trkpt>
      <trkpt lat="28.017205" lon="98.629172"><time>2026-04-28T11:09:50.691Z</time></trkpt>
      <trkpt lat="28.017205" lon="98.629172"><time>2026-04-28T11:09:50.708Z</time></trkpt>
      <trkpt lat="28.017205" lon="98.629172"><time>2026-04-28T11:09:50.725Z</time></trkpt>
      <trkpt lat="28.017205" lon="98.629172"><time>2026-04-28T11:09:50.741Z</time></trkpt>
      <trkpt lat="28.017205" lon="98.629172"><time>2026-04-28T11:09:50.758Z</time></trkpt>
      <trkpt lat="28.017221" lon="98.62917"><time>2026-04-28T11:09:50.775Z</time></trkpt>
      <trkpt lat="28.017221" lon="98.62917"><time>2026-04-28T11:09:50.791Z</time></trkpt>
      <trkpt lat="28.017221" lon="98.62917"><time>2026-04-28T11:09:50.808Z</time></trkpt>
      <trkpt lat="28.017221" lon="98.62917"><time>2026-04-28T11:09:50.825Z</time></trkpt>
      <trkpt lat="28.017221" lon="98.62917"><time>2026-04-28T11:09:50.841Z</time></trkpt>
      <trkpt lat="28.017221" lon="98.62917"><time>2026-04-28T11:09:50.858Z</time></trkpt>
      <trkpt lat="28.017237" lon="98.629169"><time>2026-04-28T11:09:50.875Z</time></trkpt>
      <trkpt lat="28.017237" lon="98.629169"><time>2026-04-28T11:09:50.891Z</time></trkpt>
      <trkpt lat="28.017237" lon="98.629169"><time>2026-04-28T11:09:50.908Z</time></trkpt>
      <trkpt lat="28.017237" lon="98.629169"><time>2026-04-28T11:09:50.925Z</time></trkpt>
      <trkpt lat="28.017237" lon="98.629169"><time>2026-04-28T11:09:50.941Z</time></trkpt>
      <trkpt lat="28.017237" lon="98.629169"><time>2026-04-28T11:09:50.958Z</time></trkpt>
      <trkpt lat="28.017253" lon="98.629168"><time>2026-04-28T11:09:50.975Z</time></trkpt>
      <trkpt lat="28.017253" lon="98.629168"><time>2026-04-28T11:09:50.992Z</time></trkpt>
      <trkpt lat="28.017253" lon="98.629168"><time>2026-04-28T11:09:51.008Z</time></trkpt>
      <trkpt lat="28.017253" lon="98.629168"><time>2026-04-28T11:09:51.025Z</time></trkpt>
      <trkpt lat="28.017253" lon="98.629168"><time>2026-04-28T11:09:51.042Z</time></trkpt>
      <trkpt lat="28.017253" lon="98.629168"><time>2026-04-28T11:09:51.058Z</time></trkpt>
      <trkpt lat="28.01727" lon="98.629166"><time>2026-04-28T11:09:51.075Z</time></trkpt>
      <trkpt lat="28.01727" lon="98.629166"><time>2026-04-28T11:09:51.092Z</time></trkpt>
      <trkpt lat="28.01727" lon="98.629166"><time>2026-04-28T11:09:51.108Z</time></trkpt>
      <trkpt lat="28.01727" lon="98.629166"><time>2026-04-28T11:09:51.125Z</time></trkpt>
      <trkpt lat="28.01727" lon="98.629166"><time>2026-04-28T11:09:51.142Z</time></trkpt>
      <trkpt lat="28.01727" lon="98.629166"><time>2026-04-28T11:09:51.158Z</time></trkpt>
      <trkpt lat="28.017287" lon="98.629165"><time>2026-04-28T11:09:51.175Z</time></trkpt>
      <trkpt lat="28.017287" lon="98.629165"><time>2026-04-28T11:09:51.192Z</time></trkpt>
      <trkpt lat="28.017287" lon="98.629165"><time>2026-04-28T11:09:51.208Z</time></trkpt>
      <trkpt lat="28.017287" lon="98.629165"><time>2026-04-28T11:09:51.225Z</time></trkpt>
      <trkpt lat="28.017287" lon="98.629165"><time>2026-04-28T11:09:51.242Z</time></trkpt>
      <trkpt lat="28.017287" lon="98.629165"><time>2026-04-28T11:09:51.258Z</time></trkpt>
      <trkpt lat="28.017303" lon="98.629164"><time>2026-04-28T11:09:51.275Z</time></trkpt>
      <trkpt lat="28.017303" lon="98.629164"><time>2026-04-28T11:09:51.292Z</time></trkpt>
      <trkpt lat="28.017303" lon="98.629164"><time>2026-04-28T11:09:51.309Z</time></trkpt>
      <trkpt lat="28.017303" lon="98.629164"><time>2026-04-28T11:09:51.325Z</time></trkpt>
      <trkpt lat="28.017303" lon="98.629164"><time>2026-04-28T11:09:51.342Z</time></trkpt>
      <trkpt lat="28.017303" lon="98.629164"><time>2026-04-28T11:09:51.359Z</time></trkpt>
      <trkpt lat="28.01732" lon="98.629162"><time>2026-04-28T11:09:51.375Z</time></trkpt>
      <trkpt lat="28.01732" lon="98.629162"><time>2026-04-28T11:09:51.392Z</time></trkpt>
      <trkpt lat="28.01732" lon="98.629162"><time>2026-04-28T11:09:51.409Z</time></trkpt>
      <trkpt lat="28.01732" lon="98.629162"><time>2026-04-28T11:09:51.425Z</time></trkpt>
      <trkpt lat="28.01732" lon="98.629162"><time>2026-04-28T11:09:51.442Z</time></trkpt>
      <trkpt lat="28.01732" lon="98.629162"><time>2026-04-28T11:09:51.459Z</time></trkpt>
      <trkpt lat="28.017336" lon="98.629161"><time>2026-04-28T11:09:51.475Z</time></trkpt>
      <trkpt lat="28.017336" lon="98.629161"><time>2026-04-28T11:09:51.492Z</time></trkpt>
      <trkpt lat="28.017336" lon="98.629161"><time>2026-04-28T11:09:51.509Z</time></trkpt>
      <trkpt lat="28.017336" lon="98.629161"><time>2026-04-28T11:09:51.525Z</time></trkpt>
      <trkpt lat="28.017336" lon="98.629161"><time>2026-04-28T11:09:51.542Z</time></trkpt>
      <trkpt lat="28.017336" lon="98.629161"><time>2026-04-28T11:09:51.559Z</time></trkpt>
      <trkpt lat="28.017353" lon="98.62916"><time>2026-04-28T11:09:51.575Z</time></trkpt>
      <trkpt lat="28.017353" lon="98.62916"><time>2026-04-28T11:09:51.592Z</time></trkpt>
      <trkpt lat="28.017353" lon="98.62916"><time>2026-04-28T11:09:51.609Z</time></trkpt>
      <trkpt lat="28.017353" lon="98.62916"><time>2026-04-28T11:09:51.626Z</time></trkpt>
      <trkpt lat="28.017353" lon="98.62916"><time>2026-04-28T11:09:51.642Z</time></trkpt>
      <trkpt lat="28.017353" lon="98.62916"><time>2026-04-28T11:09:51.659Z</time></trkpt>
      <trkpt lat="28.017369" lon="98.629158"><time>2026-04-28T11:09:51.676Z</time></trkpt>
      <trkpt lat="28.017369" lon="98.629158"><time>2026-04-28T11:09:51.692Z</time></trkpt>
      <trkpt lat="28.017369" lon="98.629158"><time>2026-04-28T11:09:51.709Z</time></trkpt>
      <trkpt lat="28.017369" lon="98.629158"><time>2026-04-28T11:09:51.726Z</time></trkpt>
      <trkpt lat="28.017369" lon="98.629158"><time>2026-04-28T11:09:51.742Z</time></trkpt>
      <trkpt lat="28.017369" lon="98.629158"><time>2026-04-28T11:09:51.759Z</time></trkpt>
      <trkpt lat="28.017386" lon="98.629157"><time>2026-04-28T11:09:51.776Z</time></trkpt>
      <trkpt lat="28.017386" lon="98.629157"><time>2026-04-28T11:09:51.792Z</time></trkpt>
      <trkpt lat="28.017386" lon="98.629157"><time>2026-04-28T11:09:51.809Z</time></trkpt>
      <trkpt lat="28.017386" lon="98.629157"><time>2026-04-28T11:09:51.826Z</time></trkpt>
      <trkpt lat="28.017386" lon="98.629157"><time>2026-04-28T11:09:51.842Z</time></trkpt>
      <trkpt lat="28.017386" lon="98.629157"><time>2026-04-28T11:09:51.859Z</time></trkpt>
      <trkpt lat="28.017402" lon="98.629155"><time>2026-04-28T11:09:51.876Z</time></trkpt>
      <trkpt lat="28.017402" lon="98.629155"><time>2026-04-28T11:09:51.892Z</time></trkpt>
      <trkpt lat="28.017402" lon="98.629155"><time>2026-04-28T11:09:51.909Z</time></trkpt>
      <trkpt lat="28.017402" lon="98.629155"><time>2026-04-28T11:09:51.926Z</time></trkpt>
      <trkpt lat="28.017402" lon="98.629155"><time>2026-04-28T11:09:51.943Z</time></trkpt>
      <trkpt lat="28.017402" lon="98.629155"><time>2026-04-28T11:09:51.959Z</time></trkpt>
      <trkpt lat="28.017419" lon="98.629154"><time>2026-04-28T11:09:51.976Z</time></trkpt>
      <trkpt lat="28.017419" lon="98.629154"><time>2026-04-28T11:09:51.993Z</time></trkpt>
      <trkpt lat="28.017419" lon="98.629154"><time>2026-04-28T11:09:52.009Z</time></trkpt>
      <trkpt lat="28.017419" lon="98.629154"><time>2026-04-28T11:09:52.026Z</time></trkpt>
      <trkpt lat="28.017419" lon="98.629154"><time>2026-04-28T11:09:52.043Z</time></trkpt>
      <trkpt lat="28.017419" lon="98.629154"><time>2026-04-28T11:09:52.059Z</time></trkpt>
      <trkpt lat="28.017435" lon="98.629153"><time>2026-04-28T11:09:52.076Z</time></trkpt>
      <trkpt lat="28.017435" lon="98.629153"><time>2026-04-28T11:09:52.093Z</time></trkpt>
      <trkpt lat="28.017435" lon="98.629153"><time>2026-04-28T11:09:52.109Z</time></trkpt>
      <trkpt lat="28.017435" lon="98.629153"><time>2026-04-28T11:09:52.126Z</time></trkpt>
      <trkpt lat="28.017435" lon="98.629153"><time>2026-04-28T11:09:52.143Z</time></trkpt>
      <trkpt lat="28.017435" lon="98.629153"><time>2026-04-28T11:09:52.159Z</time></trkpt>
      <trkpt lat="28.017452" lon="98.629151"><time>2026-04-28T11:09:52.176Z</time></trkpt>
      <trkpt lat="28.017452" lon="98.629151"><time>2026-04-28T11:09:52.193Z</time></trkpt>
      <trkpt lat="28.017452" lon="98.629151"><time>2026-04-28T11:09:52.209Z</time></trkpt>
      <trkpt lat="28.017452" lon="98.629151"><time>2026-04-28T11:09:52.226Z</time></trkpt>
      <trkpt lat="28.017452" lon="98.629151"><time>2026-04-28T11:09:52.243Z</time></trkpt>
      <trkpt lat="28.017452" lon="98.629151"><time>2026-04-28T11:09:52.260Z</time></trkpt>
      <trkpt lat="28.017469" lon="98.62915"><time>2026-04-28T11:09:52.276Z</time></trkpt>
      <trkpt lat="28.017469" lon="98.62915"><time>2026-04-28T11:09:52.293Z</time></trkpt>
      <trkpt lat="28.017469" lon="98.62915"><time>2026-04-28T11:09:52.310Z</time></trkpt>
      <trkpt lat="28.017469" lon="98.62915"><time>2026-04-28T11:09:52.326Z</time></trkpt>
      <trkpt lat="28.017469" lon="98.62915"><time>2026-04-28T11:09:52.343Z</time></trkpt>
      <trkpt lat="28.017469" lon="98.62915"><time>2026-04-28T11:09:52.360Z</time></trkpt>
      <trkpt lat="28.017486" lon="98.629149"><time>2026-04-28T11:09:52.376Z</time></trkpt>
      <trkpt lat="28.017486" lon="98.629149"><time>2026-04-28T11:09:52.393Z</time></trkpt>
      <trkpt lat="28.017486" lon="98.629149"><time>2026-04-28T11:09:52.410Z</time></trkpt>
      <trkpt lat="28.017486" lon="98.629149"><time>2026-04-28T11:09:52.426Z</time></trkpt>
      <trkpt lat="28.017486" lon="98.629149"><time>2026-04-28T11:09:52.443Z</time></trkpt>
      <trkpt lat="28.017486" lon="98.629149"><time>2026-04-28T11:09:52.460Z</time></trkpt>
      <trkpt lat="28.017501" lon="98.629147"><time>2026-04-28T11:09:52.476Z</time></trkpt>
      <trkpt lat="28.017501" lon="98.629147"><time>2026-04-28T11:09:52.493Z</time></trkpt>
      <trkpt lat="28.017501" lon="98.629147"><time>2026-04-28T11:09:52.510Z</time></trkpt>
      <trkpt lat="28.017501" lon="98.629147"><time>2026-04-28T11:09:52.526Z</time></trkpt>
      <trkpt lat="28.017501" lon="98.629147"><time>2026-04-28T11:09:52.543Z</time></trkpt>
      <trkpt lat="28.017501" lon="98.629147"><time>2026-04-28T11:09:52.560Z</time></trkpt>
      <trkpt lat="28.017519" lon="98.629146"><time>2026-04-28T11:09:52.577Z</time></trkpt>
      <trkpt lat="28.017519" lon="98.629146"><time>2026-04-28T11:09:52.593Z</time></trkpt>
      <trkpt lat="28.017519" lon="98.629146"><time>2026-04-28T11:09:52.610Z</time></trkpt>
      <trkpt lat="28.017519" lon="98.629146"><time>2026-04-28T11:09:52.627Z</time></trkpt>
      <trkpt lat="28.017519" lon="98.629146"><time>2026-04-28T11:09:52.643Z</time></trkpt>
      <trkpt lat="28.017519" lon="98.629146"><time>2026-04-28T11:09:52.660Z</time></trkpt>
      <trkpt lat="28.017535" lon="98.629145"><time>2026-04-28T11:09:52.677Z</time></trkpt>
      <trkpt lat="28.017535" lon="98.629145"><time>2026-04-28T11:09:52.693Z</time></trkpt>
      <trkpt lat="28.017535" lon="98.629145"><time>2026-04-28T11:09:52.710Z</time></trkpt>
      <trkpt lat="28.017535" lon="98.629145"><time>2026-04-28T11:09:52.727Z</time></trkpt>
      <trkpt lat="28.017535" lon="98.629145"><time>2026-04-28T11:09:52.743Z</time></trkpt>
      <trkpt lat="28.017535" lon="98.629145"><time>2026-04-28T11:09:52.760Z</time></trkpt>
      <trkpt lat="28.017552" lon="98.629143"><time>2026-04-28T11:09:52.777Z</time></trkpt>
      <trkpt lat="28.017552" lon="98.629143"><time>2026-04-28T11:09:52.793Z</time></trkpt>
      <trkpt lat="28.017552" lon="98.629143"><time>2026-04-28T11:09:52.810Z</time></trkpt>
      <trkpt lat="28.017552" lon="98.629143"><time>2026-04-28T11:09:52.827Z</time></trkpt>
      <trkpt lat="28.017552" lon="98.629143"><time>2026-04-28T11:09:52.843Z</time></trkpt>
      <trkpt lat="28.017552" lon="98.629143"><time>2026-04-28T11:09:52.860Z</time></trkpt>
      <trkpt lat="28.017569" lon="98.629142"><time>2026-04-28T11:09:52.877Z</time></trkpt>
      <trkpt lat="28.017569" lon="98.629142"><time>2026-04-28T11:09:52.894Z</time></trkpt>
      <trkpt lat="28.017569" lon="98.629142"><time>2026-04-28T11:09:52.910Z</time></trkpt>
      <trkpt lat="28.017569" lon="98.629142"><time>2026-04-28T11:09:52.927Z</time></trkpt>
      <trkpt lat="28.017569" lon="98.629142"><time>2026-04-28T11:09:52.944Z</time></trkpt>
      <trkpt lat="28.017569" lon="98.629142"><time>2026-04-28T11:09:52.960Z</time></trkpt>
      <trkpt lat="28.017586" lon="98.629141"><time>2026-04-28T11:09:52.977Z</time></trkpt>
      <trkpt lat="28.017586" lon="98.629141"><time>2026-04-28T11:09:52.994Z</time></trkpt>
      <trkpt lat="28.017586" lon="98.629141"><time>2026-04-28T11:09:53.010Z</time></trkpt>
      <trkpt lat="28.017586" lon="98.629141"><time>2026-04-28T11:09:53.027Z</time></trkpt>
      <trkpt lat="28.017586" lon="98.629141"><time>2026-04-28T11:09:53.044Z</time></trkpt>
      <trkpt lat="28.017586" lon="98.629141"><time>2026-04-28T11:09:53.060Z</time></trkpt>
      <trkpt lat="28.017603" lon="98.629139"><time>2026-04-28T11:09:53.077Z</time></trkpt>
      <trkpt lat="28.017603" lon="98.629139"><time>2026-04-28T11:09:53.094Z</time></trkpt>
      <trkpt lat="28.017603" lon="98.629139"><time>2026-04-28T11:09:53.110Z</time></trkpt>
      <trkpt lat="28.017603" lon="98.629139"><time>2026-04-28T11:09:53.127Z</time></trkpt>
      <trkpt lat="28.017603" lon="98.629139"><time>2026-04-28T11:09:53.144Z</time></trkpt>
      <trkpt lat="28.017603" lon="98.629139"><time>2026-04-28T11:09:53.160Z</time></trkpt>
      <trkpt lat="28.017618" lon="98.629138"><time>2026-04-28T11:09:53.177Z</time></trkpt>
      <trkpt lat="28.017618" lon="98.629138"><time>2026-04-28T11:09:53.194Z</time></trkpt>
      <trkpt lat="28.017618" lon="98.629138"><time>2026-04-28T11:09:53.211Z</time></trkpt>
      <trkpt lat="28.017618" lon="98.629138"><time>2026-04-28T11:09:53.227Z</time></trkpt>
      <trkpt lat="28.017618" lon="98.629138"><time>2026-04-28T11:09:53.244Z</time></trkpt>
      <trkpt lat="28.017618" lon="98.629138"><time>2026-04-28T11:09:53.261Z</time></trkpt>
      <trkpt lat="28.017636" lon="98.629136"><time>2026-04-28T11:09:53.277Z</time></trkpt>
      <trkpt lat="28.017636" lon="98.629136"><time>2026-04-28T11:09:53.294Z</time></trkpt>
      <trkpt lat="28.017636" lon="98.629136"><time>2026-04-28T11:09:53.311Z</time></trkpt>
      <trkpt lat="28.017636" lon="98.629136"><time>2026-04-28T11:09:53.327Z</time></trkpt>
      <trkpt lat="28.017636" lon="98.629136"><time>2026-04-28T11:09:53.344Z</time></trkpt>
      <trkpt lat="28.017636" lon="98.629136"><time>2026-04-28T11:09:53.361Z</time></trkpt>
      <trkpt lat="28.017652" lon="98.629135"><time>2026-04-28T11:09:53.377Z</time></trkpt>
      <trkpt lat="28.017652" lon="98.629135"><time>2026-04-28T11:09:53.394Z</time></trkpt>
      <trkpt lat="28.017652" lon="98.629135"><time>2026-04-28T11:09:53.411Z</time></trkpt>
      <trkpt lat="28.017652" lon="98.629135"><time>2026-04-28T11:09:53.427Z</time></trkpt>
      <trkpt lat="28.017652" lon="98.629135"><time>2026-04-28T11:09:53.444Z</time></trkpt>
      <trkpt lat="28.017652" lon="98.629135"><time>2026-04-28T11:09:53.461Z</time></trkpt>
      <trkpt lat="28.01767" lon="98.629134"><time>2026-04-28T11:09:53.477Z</time></trkpt>
      <trkpt lat="28.01767" lon="98.629134"><time>2026-04-28T11:09:53.494Z</time></trkpt>
      <trkpt lat="28.01767" lon="98.629134"><time>2026-04-28T11:09:53.511Z</time></trkpt>
      <trkpt lat="28.01767" lon="98.629134"><time>2026-04-28T11:09:53.528Z</time></trkpt>
      <trkpt lat="28.01767" lon="98.629134"><time>2026-04-28T11:09:53.544Z</time></trkpt>
      <trkpt lat="28.01767" lon="98.629134"><time>2026-04-28T11:09:53.561Z</time></trkpt>
      <trkpt lat="28.017686" lon="98.629132"><time>2026-04-28T11:09:53.578Z</time></trkpt>
      <trkpt lat="28.017686" lon="98.629132"><time>2026-04-28T11:09:53.594Z</time></trkpt>
      <trkpt lat="28.017686" lon="98.629132"><time>2026-04-28T11:09:53.611Z</time></trkpt>
      <trkpt lat="28.017686" lon="98.629132"><time>2026-04-28T11:09:53.628Z</time></trkpt>
      <trkpt lat="28.017686" lon="98.629132"><time>2026-04-28T11:09:53.644Z</time></trkpt>
      <trkpt lat="28.017686" lon="98.629132"><time>2026-04-28T11:09:53.661Z</time></trkpt>
      <trkpt lat="28.017703" lon="98.629131"><time>2026-04-28T11:09:53.678Z</time></trkpt>
      <trkpt lat="28.017703" lon="98.629131"><time>2026-04-28T11:09:53.694Z</time></trkpt>
      <trkpt lat="28.017703" lon="98.629131"><time>2026-04-28T11:09:53.711Z</time></trkpt>
      <trkpt lat="28.017703" lon="98.629131"><time>2026-04-28T11:09:53.728Z</time></trkpt>
      <trkpt lat="28.017703" lon="98.629131"><time>2026-04-28T11:09:53.744Z</time></trkpt>
      <trkpt lat="28.017703" lon="98.629131"><time>2026-04-28T11:09:53.761Z</time></trkpt>
      <trkpt lat="28.01772" lon="98.629129"><time>2026-04-28T11:09:53.778Z</time></trkpt>
      <trkpt lat="28.01772" lon="98.629129"><time>2026-04-28T11:09:53.794Z</time></trkpt>
      <trkpt lat="28.01772" lon="98.629129"><time>2026-04-28T11:09:53.811Z</time></trkpt>
      <trkpt lat="28.01772" lon="98.629129"><time>2026-04-28T11:09:53.828Z</time></trkpt>
      <trkpt lat="28.01772" lon="98.629129"><time>2026-04-28T11:09:53.845Z</time></trkpt>
      <trkpt lat="28.01772" lon="98.629129"><time>2026-04-28T11:09:53.861Z</time></trkpt>
      <trkpt lat="28.017737" lon="98.629128"><time>2026-04-28T11:09:53.878Z</time></trkpt>
      <trkpt lat="28.017737" lon="98.629128"><time>2026-04-28T11:09:53.895Z</time></trkpt>
      <trkpt lat="28.017737" lon="98.629128"><time>2026-04-28T11:09:53.911Z</time></trkpt>
      <trkpt lat="28.017737" lon="98.629128"><time>2026-04-28T11:09:53.928Z</time></trkpt>
      <trkpt lat="28.017737" lon="98.629128"><time>2026-04-28T11:09:53.945Z</time></trkpt>
      <trkpt lat="28.017737" lon="98.629128"><time>2026-04-28T11:09:53.961Z</time></trkpt>
      <trkpt lat="28.017754" lon="98.629126"><time>2026-04-28T11:09:53.978Z</time></trkpt>
      <trkpt lat="28.017754" lon="98.629126"><time>2026-04-28T11:09:53.995Z</time></trkpt>
      <trkpt lat="28.017754" lon="98.629126"><time>2026-04-28T11:09:54.011Z</time></trkpt>
      <trkpt lat="28.017754" lon="98.629126"><time>2026-04-28T11:09:54.028Z</time></trkpt>
      <trkpt lat="28.017754" lon="98.629126"><time>2026-04-28T11:09:54.045Z</time></trkpt>
      <trkpt lat="28.017754" lon="98.629126"><time>2026-04-28T11:09:54.061Z</time></trkpt>
      <trkpt lat="28.017771" lon="98.629129"><time>2026-04-28T11:09:54.078Z</time></trkpt>
      <trkpt lat="28.017771" lon="98.629129"><time>2026-04-28T11:09:54.095Z</time></trkpt>
      <trkpt lat="28.017771" lon="98.629129"><time>2026-04-28T11:09:54.111Z</time></trkpt>
      <trkpt lat="28.017771" lon="98.629129"><time>2026-04-28T11:09:54.128Z</time></trkpt>
      <trkpt lat="28.017771" lon="98.629129"><time>2026-04-28T11:09:54.145Z</time></trkpt>
      <trkpt lat="28.017771" lon="98.629129"><time>2026-04-28T11:09:54.162Z</time></trkpt>
      <trkpt lat="28.017788" lon="98.629128"><time>2026-04-28T11:09:54.178Z</time></trkpt>
      <trkpt lat="28.017788" lon="98.629128"><time>2026-04-28T11:09:54.195Z</time></trkpt>
      <trkpt lat="28.017788" lon="98.629128"><time>2026-04-28T11:09:54.212Z</time></trkpt>
      <trkpt lat="28.017788" lon="98.629128"><time>2026-04-28T11:09:54.228Z</time></trkpt>
      <trkpt lat="28.017788" lon="98.629128"><time>2026-04-28T11:09:54.245Z</time></trkpt>
      <trkpt lat="28.017788" lon="98.629128"><time>2026-04-28T11:09:54.262Z</time></trkpt>
      <trkpt lat="28.017805" lon="98.629126"><time>2026-04-28T11:09:54.278Z</time></trkpt>
      <trkpt lat="28.017805" lon="98.629126"><time>2026-04-28T11:09:54.295Z</time></trkpt>
      <trkpt lat="28.017805" lon="98.629126"><time>2026-04-28T11:09:54.312Z</time></trkpt>
      <trkpt lat="28.017805" lon="98.629126"><time>2026-04-28T11:09:54.328Z</time></trkpt>
      <trkpt lat="28.017805" lon="98.629126"><time>2026-04-28T11:09:54.345Z</time></trkpt>
      <trkpt lat="28.017805" lon="98.629126"><time>2026-04-28T11:09:54.362Z</time></trkpt>
      <trkpt lat="28.017822" lon="98.629125"><time>2026-04-28T11:09:54.378Z</time></trkpt>
      <trkpt lat="28.017822" lon="98.629125"><time>2026-04-28T11:09:54.395Z</time></trkpt>
      <trkpt lat="28.017822" lon="98.629125"><time>2026-04-28T11:09:54.412Z</time></trkpt>
      <trkpt lat="28.017822" lon="98.629125"><time>2026-04-28T11:09:54.428Z</time></trkpt>
      <trkpt lat="28.017822" lon="98.629125"><time>2026-04-28T11:09:54.445Z</time></trkpt>
      <trkpt lat="28.017822" lon="98.629125"><time>2026-04-28T11:09:54.462Z</time></trkpt>
      <trkpt lat="28.017838" lon="98.629123"><time>2026-04-28T11:09:54.479Z</time></trkpt>
      <trkpt lat="28.017838" lon="98.629123"><time>2026-04-28T11:09:54.495Z</time></trkpt>
      <trkpt lat="28.017838" lon="98.629123"><time>2026-04-28T11:09:54.512Z</time></trkpt>
      <trkpt lat="28.017838" lon="98.629123"><time>2026-04-28T11:09:54.529Z</time></trkpt>
      <trkpt lat="28.017838" lon="98.629123"><time>2026-04-28T11:09:54.545Z</time></trkpt>
      <trkpt lat="28.017838" lon="98.629123"><time>2026-04-28T11:09:54.562Z</time></trkpt>
      <trkpt lat="28.017855" lon="98.629122"><time>2026-04-28T11:09:54.579Z</time></trkpt>
      <trkpt lat="28.017855" lon="98.629122"><time>2026-04-28T11:09:54.595Z</time></trkpt>
      <trkpt lat="28.017855" lon="98.629122"><time>2026-04-28T11:09:54.612Z</time></trkpt>
      <trkpt lat="28.017855" lon="98.629122"><time>2026-04-28T11:09:54.629Z</time></trkpt>
      <trkpt lat="28.017855" lon="98.629122"><time>2026-04-28T11:09:54.645Z</time></trkpt>
      <trkpt lat="28.017855" lon="98.629122"><time>2026-04-28T11:09:54.662Z</time></trkpt>
      <trkpt lat="28.017872" lon="98.629121"><time>2026-04-28T11:09:54.679Z</time></trkpt>
      <trkpt lat="28.017872" lon="98.629121"><time>2026-04-28T11:09:54.695Z</time></trkpt>
      <trkpt lat="28.017872" lon="98.629121"><time>2026-04-28T11:09:54.712Z</time></trkpt>
      <trkpt lat="28.017872" lon="98.629121"><time>2026-04-28T11:09:54.729Z</time></trkpt>
      <trkpt lat="28.017872" lon="98.629121"><time>2026-04-28T11:09:54.745Z</time></trkpt>
      <trkpt lat="28.017872" lon="98.629121"><time>2026-04-28T11:09:54.762Z</time></trkpt>
      <trkpt lat="28.017888" lon="98.629119"><time>2026-04-28T11:09:54.779Z</time></trkpt>
      <trkpt lat="28.017888" lon="98.629119"><time>2026-04-28T11:09:54.796Z</time></trkpt>
      <trkpt lat="28.017888" lon="98.629119"><time>2026-04-28T11:09:54.812Z</time></trkpt>
      <trkpt lat="28.017888" lon="98.629119"><time>2026-04-28T11:09:54.829Z</time></trkpt>
      <trkpt lat="28.017888" lon="98.629119"><time>2026-04-28T11:09:54.846Z</time></trkpt>
      <trkpt lat="28.017888" lon="98.629119"><time>2026-04-28T11:09:54.862Z</time></trkpt>
      <trkpt lat="28.017906" lon="98.629118"><time>2026-04-28T11:09:54.879Z</time></trkpt>
      <trkpt lat="28.017906" lon="98.629118"><time>2026-04-28T11:09:54.896Z</time></trkpt>
      <trkpt lat="28.017906" lon="98.629118"><time>2026-04-28T11:09:54.912Z</time></trkpt>
      <trkpt lat="28.017906" lon="98.629118"><time>2026-04-28T11:09:54.929Z</time></trkpt>
      <trkpt lat="28.017906" lon="98.629118"><time>2026-04-28T11:09:54.946Z</time></trkpt>
      <trkpt lat="28.017906" lon="98.629118"><time>2026-04-28T11:09:54.962Z</time></trkpt>
      <trkpt lat="28.017922" lon="98.629116"><time>2026-04-28T11:09:54.979Z</time></trkpt>
      <trkpt lat="28.017922" lon="98.629116"><time>2026-04-28T11:09:54.996Z</time></trkpt>
      <trkpt lat="28.017922" lon="98.629116"><time>2026-04-28T11:09:55.012Z</time></trkpt>
      <trkpt lat="28.017922" lon="98.629116"><time>2026-04-28T11:09:55.029Z</time></trkpt>
      <trkpt lat="28.017922" lon="98.629116"><time>2026-04-28T11:09:55.046Z</time></trkpt>
      <trkpt lat="28.017922" lon="98.629116"><time>2026-04-28T11:09:55.062Z</time></trkpt>
      <trkpt lat="28.017939" lon="98.629115"><time>2026-04-28T11:09:55.079Z</time></trkpt>
      <trkpt lat="28.017939" lon="98.629115"><time>2026-04-28T11:09:55.096Z</time></trkpt>
      <trkpt lat="28.017939" lon="98.629115"><time>2026-04-28T11:09:55.113Z</time></trkpt>
      <trkpt lat="28.017939" lon="98.629115"><time>2026-04-28T11:09:55.129Z</time></trkpt>
      <trkpt lat="28.017939" lon="98.629115"><time>2026-04-28T11:09:55.146Z</time></trkpt>
      <trkpt lat="28.017939" lon="98.629115"><time>2026-04-28T11:09:55.163Z</time></trkpt>
      <trkpt lat="28.017956" lon="98.629114"><time>2026-04-28T11:09:55.179Z</time></trkpt>
      <trkpt lat="28.017956" lon="98.629114"><time>2026-04-28T11:09:55.196Z</time></trkpt>
      <trkpt lat="28.017956" lon="98.629114"><time>2026-04-28T11:09:55.213Z</time></trkpt>
      <trkpt lat="28.017956" lon="98.629114"><time>2026-04-28T11:09:55.229Z</time></trkpt>
      <trkpt lat="28.017956" lon="98.629114"><time>2026-04-28T11:09:55.246Z</time></trkpt>
      <trkpt lat="28.017956" lon="98.629114"><time>2026-04-28T11:09:55.263Z</time></trkpt>
      <trkpt lat="28.017973" lon="98.629112"><time>2026-04-28T11:09:55.279Z</time></trkpt>
      <trkpt lat="28.017973" lon="98.629112"><time>2026-04-28T11:09:55.296Z</time></trkpt>
      <trkpt lat="28.017973" lon="98.629112"><time>2026-04-28T11:09:55.313Z</time></trkpt>
      <trkpt lat="28.017973" lon="98.629112"><time>2026-04-28T11:09:55.329Z</time></trkpt>
      <trkpt lat="28.017973" lon="98.629112"><time>2026-04-28T11:09:55.346Z</time></trkpt>
      <trkpt lat="28.017973" lon="98.629112"><time>2026-04-28T11:09:55.363Z</time></trkpt>
      <trkpt lat="28.017989" lon="98.629111"><time>2026-04-28T11:09:55.379Z</time></trkpt>
      <trkpt lat="28.017989" lon="98.629111"><time>2026-04-28T11:09:55.396Z</time></trkpt>
      <trkpt lat="28.017989" lon="98.629111"><time>2026-04-28T11:09:55.413Z</time></trkpt>
      <trkpt lat="28.017989" lon="98.629111"><time>2026-04-28T11:09:55.430Z</time></trkpt>
      <trkpt lat="28.017989" lon="98.629111"><time>2026-04-28T11:09:55.446Z</time></trkpt>
      <trkpt lat="28.017989" lon="98.629111"><time>2026-04-28T11:09:55.463Z</time></trkpt>
      <trkpt lat="28.018006" lon="98.629109"><time>2026-04-28T11:09:55.480Z</time></trkpt>
      <trkpt lat="28.018006" lon="98.629109"><time>2026-04-28T11:09:55.496Z</time></trkpt>
      <trkpt lat="28.018006" lon="98.629109"><time>2026-04-28T11:09:55.513Z</time></trkpt>
      <trkpt lat="28.018006" lon="98.629109"><time>2026-04-28T11:09:55.530Z</time></trkpt>
      <trkpt lat="28.018006" lon="98.629109"><time>2026-04-28T11:09:55.546Z</time></trkpt>
      <trkpt lat="28.018006" lon="98.629109"><time>2026-04-28T11:09:55.563Z</time></trkpt>
      <trkpt lat="28.018023" lon="98.629108"><time>2026-04-28T11:09:55.580Z</time></trkpt>
      <trkpt lat="28.018023" lon="98.629108"><time>2026-04-28T11:09:55.596Z</time></trkpt>
      <trkpt lat="28.018023" lon="98.629108"><time>2026-04-28T11:09:55.613Z</time></trkpt>
      <trkpt lat="28.018023" lon="98.629108"><time>2026-04-28T11:09:55.630Z</time></trkpt>
      <trkpt lat="28.018023" lon="98.629108"><time>2026-04-28T11:09:55.646Z</time></trkpt>
      <trkpt lat="28.018023" lon="98.629108"><time>2026-04-28T11:09:55.663Z</time></trkpt>
      <trkpt lat="28.01804" lon="98.629107"><time>2026-04-28T11:09:55.680Z</time></trkpt>
      <trkpt lat="28.01804" lon="98.629107"><time>2026-04-28T11:09:55.696Z</time></trkpt>
      <trkpt lat="28.01804" lon="98.629107"><time>2026-04-28T11:09:55.713Z</time></trkpt>
      <trkpt lat="28.01804" lon="98.629107"><time>2026-04-28T11:09:55.730Z</time></trkpt>
      <trkpt lat="28.01804" lon="98.629107"><time>2026-04-28T11:09:55.747Z</time></trkpt>
      <trkpt lat="28.01804" lon="98.629107"><time>2026-04-28T11:09:55.763Z</time></trkpt>
      <trkpt lat="28.018057" lon="98.629105"><time>2026-04-28T11:09:55.780Z</time></trkpt>
      <trkpt lat="28.018057" lon="98.629105"><time>2026-04-28T11:09:55.797Z</time></trkpt>
      <trkpt lat="28.018057" lon="98.629105"><time>2026-04-28T11:09:55.813Z</time></trkpt>
      <trkpt lat="28.018057" lon="98.629105"><time>2026-04-28T11:09:55.830Z</time></trkpt>
      <trkpt lat="28.018057" lon="98.629105"><time>2026-04-28T11:09:55.847Z</time></trkpt>
      <trkpt lat="28.018057" lon="98.629105"><time>2026-04-28T11:09:55.863Z</time></trkpt>
      <trkpt lat="28.018074" lon="98.629104"><time>2026-04-28T11:09:55.880Z</time></trkpt>
      <trkpt lat="28.018074" lon="98.629104"><time>2026-04-28T11:09:55.897Z</time></trkpt>
      <trkpt lat="28.018074" lon="98.629104"><time>2026-04-28T11:09:55.913Z</time></trkpt>
      <trkpt lat="28.018074" lon="98.629104"><time>2026-04-28T11:09:55.930Z</time></trkpt>
      <trkpt lat="28.018074" lon="98.629104"><time>2026-04-28T11:09:55.947Z</time></trkpt>
      <trkpt lat="28.018074" lon="98.629104"><time>2026-04-28T11:09:55.963Z</time></trkpt>
      <trkpt lat="28.018091" lon="98.629103"><time>2026-04-28T11:09:55.980Z</time></trkpt>
      <trkpt lat="28.018091" lon="98.629103"><time>2026-04-28T11:09:55.997Z</time></trkpt>
      <trkpt lat="28.018091" lon="98.629103"><time>2026-04-28T11:09:56.013Z</time></trkpt>
      <trkpt lat="28.018091" lon="98.629103"><time>2026-04-28T11:09:56.030Z</time></trkpt>
      <trkpt lat="28.018091" lon="98.629103"><time>2026-04-28T11:09:56.047Z</time></trkpt>
      <trkpt lat="28.018091" lon="98.629103"><time>2026-04-28T11:09:56.063Z</time></trkpt>
      <trkpt lat="28.018108" lon="98.629101"><time>2026-04-28T11:09:56.080Z</time></trkpt>
      <trkpt lat="28.018108" lon="98.629101"><time>2026-04-28T11:09:56.097Z</time></trkpt>
      <trkpt lat="28.018108" lon="98.629101"><time>2026-04-28T11:09:56.114Z</time></trkpt>
      <trkpt lat="28.018108" lon="98.629101"><time>2026-04-28T11:09:56.130Z</time></trkpt>
      <trkpt lat="28.018108" lon="98.629101"><time>2026-04-28T11:09:56.147Z</time></trkpt>
      <trkpt lat="28.018108" lon="98.629101"><time>2026-04-28T11:09:56.164Z</time></trkpt>
      <trkpt lat="28.018123" lon="98.6291"><time>2026-04-28T11:09:56.180Z</time></trkpt>
      <trkpt lat="28.018123" lon="98.6291"><time>2026-04-28T11:09:56.197Z</time></trkpt>
      <trkpt lat="28.018123" lon="98.6291"><time>2026-04-28T11:09:56.214Z</time></trkpt>
      <trkpt lat="28.018123" lon="98.6291"><time>2026-04-28T11:09:56.230Z</time></trkpt>
      <trkpt lat="28.018123" lon="98.6291"><time>2026-04-28T11:09:56.247Z</time></trkpt>
      <trkpt lat="28.018123" lon="98.6291"><time>2026-04-28T11:09:56.264Z</time></trkpt>
      <trkpt lat="28.018141" lon="98.629099"><time>2026-04-28T11:09:56.280Z</time></trkpt>
      <trkpt lat="28.018141" lon="98.629099"><time>2026-04-28T11:09:56.297Z</time></trkpt>
      <trkpt lat="28.018141" lon="98.629099"><time>2026-04-28T11:09:56.314Z</time></trkpt>
      <trkpt lat="28.018141" lon="98.629099"><time>2026-04-28T11:09:56.330Z</time></trkpt>
      <trkpt lat="28.018141" lon="98.629099"><time>2026-04-28T11:09:56.347Z</time></trkpt>
      <trkpt lat="28.018141" lon="98.629099"><time>2026-04-28T11:09:56.364Z</time></trkpt>
      <trkpt lat="28.018157" lon="98.629097"><time>2026-04-28T11:09:56.380Z</time></trkpt>
      <trkpt lat="28.018157" lon="98.629097"><time>2026-04-28T11:09:56.397Z</time></trkpt>
      <trkpt lat="28.018157" lon="98.629097"><time>2026-04-28T11:09:56.414Z</time></trkpt>
      <trkpt lat="28.018157" lon="98.629097"><time>2026-04-28T11:09:56.431Z</time></trkpt>
      <trkpt lat="28.018157" lon="98.629097"><time>2026-04-28T11:09:56.447Z</time></trkpt>
      <trkpt lat="28.018157" lon="98.629097"><time>2026-04-28T11:09:56.464Z</time></trkpt>
      <trkpt lat="28.018173" lon="98.629096"><time>2026-04-28T11:09:56.481Z</time></trkpt>
      <trkpt lat="28.018173" lon="98.629096"><time>2026-04-28T11:09:56.497Z</time></trkpt>
      <trkpt lat="28.018173" lon="98.629096"><time>2026-04-28T11:09:56.514Z</time></trkpt>
      <trkpt lat="28.018173" lon="98.629096"><time>2026-04-28T11:09:56.531Z</time></trkpt>
      <trkpt lat="28.018173" lon="98.629096"><time>2026-04-28T11:09:56.547Z</time></trkpt>
      <trkpt lat="28.018173" lon="98.629096"><time>2026-04-28T11:09:56.564Z</time></trkpt>
      <trkpt lat="28.01819" lon="98.629095"><time>2026-04-28T11:09:56.581Z</time></trkpt>
      <trkpt lat="28.01819" lon="98.629095"><time>2026-04-28T11:09:56.597Z</time></trkpt>
      <trkpt lat="28.01819" lon="98.629095"><time>2026-04-28T11:09:56.614Z</time></trkpt>
      <trkpt lat="28.01819" lon="98.629095"><time>2026-04-28T11:09:56.631Z</time></trkpt>
      <trkpt lat="28.01819" lon="98.629095"><time>2026-04-28T11:09:56.647Z</time></trkpt>
      <trkpt lat="28.01819" lon="98.629095"><time>2026-04-28T11:09:56.664Z</time></trkpt>
      <trkpt lat="28.018206" lon="98.629094"><time>2026-04-28T11:09:56.681Z</time></trkpt>
      <trkpt lat="28.018206" lon="98.629094"><time>2026-04-28T11:09:56.697Z</time></trkpt>
      <trkpt lat="28.018206" lon="98.629094"><time>2026-04-28T11:09:56.714Z</time></trkpt>
      <trkpt lat="28.018206" lon="98.629094"><time>2026-04-28T11:09:56.731Z</time></trkpt>
      <trkpt lat="28.018206" lon="98.629094"><time>2026-04-28T11:09:56.748Z</time></trkpt>
      <trkpt lat="28.018206" lon="98.629094"><time>2026-04-28T11:09:56.764Z</time></trkpt>
      <trkpt lat="28.018223" lon="98.629092"><time>2026-04-28T11:09:56.781Z</time></trkpt>
      <trkpt lat="28.018223" lon="98.629092"><time>2026-04-28T11:09:56.798Z</time></trkpt>
      <trkpt lat="28.018223" lon="98.629092"><time>2026-04-28T11:09:56.814Z</time></trkpt>
      <trkpt lat="28.018223" lon="98.629092"><time>2026-04-28T11:09:56.831Z</time></trkpt>
      <trkpt lat="28.018223" lon="98.629092"><time>2026-04-28T11:09:56.848Z</time></trkpt>
      <trkpt lat="28.018223" lon="98.629092"><time>2026-04-28T11:09:56.864Z</time></trkpt>
      <trkpt lat="28.018239" lon="98.629091"><time>2026-04-28T11:09:56.881Z</time></trkpt>
      <trkpt lat="28.018239" lon="98.629091"><time>2026-04-28T11:09:56.898Z</time></trkpt>
      <trkpt lat="28.018239" lon="98.629091"><time>2026-04-28T11:09:56.914Z</time></trkpt>
      <trkpt lat="28.018239" lon="98.629091"><time>2026-04-28T11:09:56.931Z</time></trkpt>
      <trkpt lat="28.018239" lon="98.629091"><time>2026-04-28T11:09:56.948Z</time></trkpt>
      <trkpt lat="28.018239" lon="98.629091"><time>2026-04-28T11:09:56.964Z</time></trkpt>
      <trkpt lat="28.018255" lon="98.62909"><time>2026-04-28T11:09:56.981Z</time></trkpt>
      <trkpt lat="28.018255" lon="98.62909"><time>2026-04-28T11:09:56.998Z</time></trkpt>
      <trkpt lat="28.018255" lon="98.62909"><time>2026-04-28T11:09:57.014Z</time></trkpt>
      <trkpt lat="28.018255" lon="98.62909"><time>2026-04-28T11:09:57.031Z</time></trkpt>
      <trkpt lat="28.018255" lon="98.62909"><time>2026-04-28T11:09:57.048Z</time></trkpt>
      <trkpt lat="28.018255" lon="98.62909"><time>2026-04-28T11:09:57.065Z</time></trkpt>
      <trkpt lat="28.018272" lon="98.629088"><time>2026-04-28T11:09:57.081Z</time></trkpt>
      <trkpt lat="28.018272" lon="98.629088"><time>2026-04-28T11:09:57.098Z</time></trkpt>
      <trkpt lat="28.018272" lon="98.629088"><time>2026-04-28T11:09:57.115Z</time></trkpt>
      <trkpt lat="28.018272" lon="98.629088"><time>2026-04-28T11:09:57.131Z</time></trkpt>
      <trkpt lat="28.018272" lon="98.629088"><time>2026-04-28T11:09:57.148Z</time></trkpt>
      <trkpt lat="28.018272" lon="98.629088"><time>2026-04-28T11:09:57.165Z</time></trkpt>
      <trkpt lat="28.018289" lon="98.629087"><time>2026-04-28T11:09:57.181Z</time></trkpt>
      <trkpt lat="28.018289" lon="98.629087"><time>2026-04-28T11:09:57.198Z</time></trkpt>
      <trkpt lat="28.018289" lon="98.629087"><time>2026-04-28T11:09:57.215Z</time></trkpt>
      <trkpt lat="28.018289" lon="98.629087"><time>2026-04-28T11:09:57.231Z</time></trkpt>
      <trkpt lat="28.018289" lon="98.629087"><time>2026-04-28T11:09:57.248Z</time></trkpt>
      <trkpt lat="28.018289" lon="98.629087"><time>2026-04-28T11:09:57.265Z</time></trkpt>
      <trkpt lat="28.018305" lon="98.629085"><time>2026-04-28T11:09:57.281Z</time></trkpt>
      <trkpt lat="28.018305" lon="98.629085"><time>2026-04-28T11:09:57.298Z</time></trkpt>
      <trkpt lat="28.018305" lon="98.629085"><time>2026-04-28T11:09:57.315Z</time></trkpt>
      <trkpt lat="28.018305" lon="98.629085"><time>2026-04-28T11:09:57.331Z</time></trkpt>
      <trkpt lat="28.018305" lon="98.629085"><time>2026-04-28T11:09:57.348Z</time></trkpt>
      <trkpt lat="28.018322" lon="98.629084"><time>2026-04-28T11:09:57.365Z</time></trkpt>
      <trkpt lat="28.018322" lon="98.629084"><time>2026-04-28T11:09:57.382Z</time></trkpt>
      <trkpt lat="28.018322" lon="98.629084"><time>2026-04-28T11:09:57.398Z</time></trkpt>
      <trkpt lat="28.018322" lon="98.629084"><time>2026-04-28T11:09:57.415Z</time></trkpt>
      <trkpt lat="28.018322" lon="98.629084"><time>2026-04-28T11:09:57.432Z</time></trkpt>
      <trkpt lat="28.018322" lon="98.629084"><time>2026-04-28T11:09:57.448Z</time></trkpt>
      <trkpt lat="28.018322" lon="98.629084"><time>2026-04-28T11:09:57.465Z</time></trkpt>
      <trkpt lat="28.018338" lon="98.629083"><time>2026-04-28T11:09:57.482Z</time></trkpt>
      <trkpt lat="28.018338" lon="98.629083"><time>2026-04-28T11:09:57.498Z</time></trkpt>
      <trkpt lat="28.018338" lon="98.629083"><time>2026-04-28T11:09:57.515Z</time></trkpt>
      <trkpt lat="28.018338" lon="98.629083"><time>2026-04-28T11:09:57.532Z</time></trkpt>
      <trkpt lat="28.018338" lon="98.629083"><time>2026-04-28T11:09:57.548Z</time></trkpt>
      <trkpt lat="28.018354" lon="98.629082"><time>2026-04-28T11:09:57.565Z</time></trkpt>
      <trkpt lat="28.018354" lon="98.629082"><time>2026-04-28T11:09:57.582Z</time></trkpt>
      <trkpt lat="28.018354" lon="98.629082"><time>2026-04-28T11:09:57.598Z</time></trkpt>
      <trkpt lat="28.018354" lon="98.629082"><time>2026-04-28T11:09:57.615Z</time></trkpt>
      <trkpt lat="28.018354" lon="98.629082"><time>2026-04-28T11:09:57.632Z</time></trkpt>
      <trkpt lat="28.018354" lon="98.629082"><time>2026-04-28T11:09:57.648Z</time></trkpt>
      <trkpt lat="28.018371" lon="98.62908"><time>2026-04-28T11:09:57.665Z</time></trkpt>
      <trkpt lat="28.018371" lon="98.62908"><time>2026-04-28T11:09:57.682Z</time></trkpt>
      <trkpt lat="28.018371" lon="98.62908"><time>2026-04-28T11:09:57.699Z</time></trkpt>
      <trkpt lat="28.018371" lon="98.62908"><time>2026-04-28T11:09:57.715Z</time></trkpt>
      <trkpt lat="28.018371" lon="98.62908"><time>2026-04-28T11:09:57.732Z</time></trkpt>
      <trkpt lat="28.018371" lon="98.62908"><time>2026-04-28T11:09:57.749Z</time></trkpt>
      <trkpt lat="28.018388" lon="98.629079"><time>2026-04-28T11:09:57.765Z</time></trkpt>
      <trkpt lat="28.018388" lon="98.629079"><time>2026-04-28T11:09:57.782Z</time></trkpt>
      <trkpt lat="28.018388" lon="98.629079"><time>2026-04-28T11:09:57.799Z</time></trkpt>
      <trkpt lat="28.018388" lon="98.629079"><time>2026-04-28T11:09:57.815Z</time></trkpt>
      <trkpt lat="28.018388" lon="98.629079"><time>2026-04-28T11:09:57.832Z</time></trkpt>
      <trkpt lat="28.018388" lon="98.629079"><time>2026-04-28T11:09:57.849Z</time></trkpt>
      <trkpt lat="28.018405" lon="98.629084"><time>2026-04-28T11:09:57.865Z</time></trkpt>
      <trkpt lat="28.018405" lon="98.629084"><time>2026-04-28T11:09:57.882Z</time></trkpt>
      <trkpt lat="28.018405" lon="98.629084"><time>2026-04-28T11:09:57.899Z</time></trkpt>
      <trkpt lat="28.018405" lon="98.629084"><time>2026-04-28T11:09:57.915Z</time></trkpt>
      <trkpt lat="28.018405" lon="98.629084"><time>2026-04-28T11:09:57.932Z</time></trkpt>
      <trkpt lat="28.018405" lon="98.629084"><time>2026-04-28T11:09:57.949Z</time></trkpt>
      <trkpt lat="28.018422" lon="98.629083"><time>2026-04-28T11:09:57.965Z</time></trkpt>
      <trkpt lat="28.018422" lon="98.629083"><time>2026-04-28T11:09:57.982Z</time></trkpt>
      <trkpt lat="28.018422" lon="98.629083"><time>2026-04-28T11:09:57.999Z</time></trkpt>
      <trkpt lat="28.018422" lon="98.629083"><time>2026-04-28T11:09:58.016Z</time></trkpt>
      <trkpt lat="28.018422" lon="98.629083"><time>2026-04-28T11:09:58.032Z</time></trkpt>
      <trkpt lat="28.018422" lon="98.629083"><time>2026-04-28T11:09:58.049Z</time></trkpt>
      <trkpt lat="28.018438" lon="98.629081"><time>2026-04-28T11:09:58.066Z</time></trkpt>
      <trkpt lat="28.018438" lon="98.629081"><time>2026-04-28T11:09:58.082Z</time></trkpt>
      <trkpt lat="28.018438" lon="98.629081"><time>2026-04-28T11:09:58.099Z</time></trkpt>
      <trkpt lat="28.018438" lon="98.629081"><time>2026-04-28T11:09:58.116Z</time></trkpt>
      <trkpt lat="28.018438" lon="98.629081"><time>2026-04-28T11:09:58.132Z</time></trkpt>
      <trkpt lat="28.018438" lon="98.629081"><time>2026-04-28T11:09:58.149Z</time></trkpt>
      <trkpt lat="28.018455" lon="98.62908"><time>2026-04-28T11:09:58.166Z</time></trkpt>
      <trkpt lat="28.018455" lon="98.62908"><time>2026-04-28T11:09:58.182Z</time></trkpt>
      <trkpt lat="28.018455" lon="98.62908"><time>2026-04-28T11:09:58.199Z</time></trkpt>
      <trkpt lat="28.018455" lon="98.62908"><time>2026-04-28T11:09:58.216Z</time></trkpt>
      <trkpt lat="28.018455" lon="98.62908"><time>2026-04-28T11:09:58.232Z</time></trkpt>
      <trkpt lat="28.018455" lon="98.62908"><time>2026-04-28T11:09:58.249Z</time></trkpt>
      <trkpt lat="28.018471" lon="98.629079"><time>2026-04-28T11:09:58.266Z</time></trkpt>
      <trkpt lat="28.018471" lon="98.629079"><time>2026-04-28T11:09:58.282Z</time></trkpt>
      <trkpt lat="28.018471" lon="98.629079"><time>2026-04-28T11:09:58.299Z</time></trkpt>
      <trkpt lat="28.018471" lon="98.629079"><time>2026-04-28T11:09:58.316Z</time></trkpt>
      <trkpt lat="28.018471" lon="98.629079"><time>2026-04-28T11:09:58.333Z</time></trkpt>
      <trkpt lat="28.018471" lon="98.629079"><time>2026-04-28T11:09:58.349Z</time></trkpt>
      <trkpt lat="28.018488" lon="98.629078"><time>2026-04-28T11:09:58.366Z</time></trkpt>
      <trkpt lat="28.018488" lon="98.629078"><time>2026-04-28T11:09:58.383Z</time></trkpt>
      <trkpt lat="28.018488" lon="98.629078"><time>2026-04-28T11:09:58.399Z</time></trkpt>
      <trkpt lat="28.018488" lon="98.629078"><time>2026-04-28T11:09:58.416Z</time></trkpt>
      <trkpt lat="28.018488" lon="98.629078"><time>2026-04-28T11:09:58.433Z</time></trkpt>
      <trkpt lat="28.018488" lon="98.629078"><time>2026-04-28T11:09:58.449Z</time></trkpt>
      <trkpt lat="28.018504" lon="98.629076"><time>2026-04-28T11:09:58.466Z</time></trkpt>
      <trkpt lat="28.018504" lon="98.629076"><time>2026-04-28T11:09:58.483Z</time></trkpt>
      <trkpt lat="28.018504" lon="98.629076"><time>2026-04-28T11:09:58.499Z</time></trkpt>
      <trkpt lat="28.018504" lon="98.629076"><time>2026-04-28T11:09:58.516Z</time></trkpt>
      <trkpt lat="28.018504" lon="98.629076"><time>2026-04-28T11:09:58.533Z</time></trkpt>
      <trkpt lat="28.018504" lon="98.629076"><time>2026-04-28T11:09:58.549Z</time></trkpt>
      <trkpt lat="28.018521" lon="98.629075"><time>2026-04-28T11:09:58.566Z</time></trkpt>
      <trkpt lat="28.018521" lon="98.629075"><time>2026-04-28T11:09:58.583Z</time></trkpt>
      <trkpt lat="28.018521" lon="98.629075"><time>2026-04-28T11:09:58.599Z</time></trkpt>
      <trkpt lat="28.018521" lon="98.629075"><time>2026-04-28T11:09:58.616Z</time></trkpt>
      <trkpt lat="28.018521" lon="98.629075"><time>2026-04-28T11:09:58.633Z</time></trkpt>
      <trkpt lat="28.018521" lon="98.629075"><time>2026-04-28T11:09:58.650Z</time></trkpt>
      <trkpt lat="28.018538" lon="98.629074"><time>2026-04-28T11:09:58.666Z</time></trkpt>
      <trkpt lat="28.018538" lon="98.629074"><time>2026-04-28T11:09:58.683Z</time></trkpt>
      <trkpt lat="28.018538" lon="98.629074"><time>2026-04-28T11:09:58.700Z</time></trkpt>
      <trkpt lat="28.018538" lon="98.629074"><time>2026-04-28T11:09:58.716Z</time></trkpt>
      <trkpt lat="28.018538" lon="98.629074"><time>2026-04-28T11:09:58.733Z</time></trkpt>
      <trkpt lat="28.018538" lon="98.629074"><time>2026-04-28T11:09:58.750Z</time></trkpt>
      <trkpt lat="28.018554" lon="98.629073"><time>2026-04-28T11:09:58.766Z</time></trkpt>
      <trkpt lat="28.018554" lon="98.629073"><time>2026-04-28T11:09:58.783Z</time></trkpt>
      <trkpt lat="28.018554" lon="98.629073"><time>2026-04-28T11:09:58.800Z</time></trkpt>
      <trkpt lat="28.018554" lon="98.629073"><time>2026-04-28T11:09:58.816Z</time></trkpt>
      <trkpt lat="28.018554" lon="98.629073"><time>2026-04-28T11:09:58.833Z</time></trkpt>
      <trkpt lat="28.018554" lon="98.629073"><time>2026-04-28T11:09:58.850Z</time></trkpt>
      <trkpt lat="28.01857" lon="98.629071"><time>2026-04-28T11:09:58.866Z</time></trkpt>
      <trkpt lat="28.01857" lon="98.629071"><time>2026-04-28T11:09:58.883Z</time></trkpt>
      <trkpt lat="28.01857" lon="98.629071"><time>2026-04-28T11:09:58.900Z</time></trkpt>
      <trkpt lat="28.01857" lon="98.629071"><time>2026-04-28T11:09:58.916Z</time></trkpt>
      <trkpt lat="28.01857" lon="98.629071"><time>2026-04-28T11:09:58.933Z</time></trkpt>
      <trkpt lat="28.01857" lon="98.629071"><time>2026-04-28T11:09:58.950Z</time></trkpt>
      <trkpt lat="28.018587" lon="98.62907"><time>2026-04-28T11:09:58.967Z</time></trkpt>
      <trkpt lat="28.018587" lon="98.62907"><time>2026-04-28T11:09:58.983Z</time></trkpt>
      <trkpt lat="28.018587" lon="98.62907"><time>2026-04-28T11:09:59.000Z</time></trkpt>
      <trkpt lat="28.018587" lon="98.62907"><time>2026-04-28T11:09:59.017Z</time></trkpt>
      <trkpt lat="28.018587" lon="98.62907"><time>2026-04-28T11:09:59.033Z</time></trkpt>
      <trkpt lat="28.018587" lon="98.62907"><time>2026-04-28T11:09:59.050Z</time></trkpt>
      <trkpt lat="28.018603" lon="98.629069"><time>2026-04-28T11:09:59.067Z</time></trkpt>
      <trkpt lat="28.018603" lon="98.629069"><time>2026-04-28T11:09:59.083Z</time></trkpt>
    </trkseg>
  </trk>
</gpx>
