<?xml version="1.0" encoding="UTF-8"?>
<gpx version="1.1" creator="Kairos" xmlns="http://www.topografix.com/GPX/1/1">
  <trk>
    <name>sidecar-srt-9f6eaa1d90b1a1d9</name>
    <trkseg>
      <trkpt lat="29.710287" lon="98.002319"><time>2026-05-01T02:39:11.000Z</time></trkpt>
      <trkpt lat="29.710287" lon="98.002319"><time>2026-05-01T02:39:11.016Z</time></trkpt>
      <trkpt lat="29.710287" lon="98.002319"><time>2026-05-01T02:39:11.032Z</time></trkpt>
      <trkpt lat="29.710287" lon="98.002319"><time>2026-05-01T02:39:11.049Z</time></trkpt>
      <trkpt lat="29.710287" lon="98.002319"><time>2026-05-01T02:39:11.066Z</time></trkpt>
      <trkpt lat="29.710287" lon="98.002319"><time>2026-05-01T02:39:11.082Z</time></trkpt>
      <trkpt lat="29.710287" lon="98.002319"><time>2026-05-01T02:39:11.099Z</time></trkpt>
      <trkpt lat="29.710287" lon="98.002319"><time>2026-05-01T02:39:11.116Z</time></trkpt>
      <trkpt lat="29.710287" lon="98.002319"><time>2026-05-01T02:39:11.132Z</time></trkpt>
      <trkpt lat="29.710287" lon="98.002319"><time>2026-05-01T02:39:11.149Z</time></trkpt>
      <trkpt lat="29.710287" lon="98.002319"><time>2026-05-01T02:39:11.166Z</time></trkpt>
      <trkpt lat="29.710287" lon="98.002319"><time>2026-05-01T02:39:11.182Z</time></trkpt>
      <trkpt lat="29.710287" lon="98.002319"><time>2026-05-01T02:39:11.199Z</time></trkpt>
      <trkpt lat="29.710287" lon="98.002319"><time>2026-05-01T02:39:11.216Z</time></trkpt>
      <trkpt lat="29.710287" lon="98.002319"><time>2026-05-01T02:39:11.232Z</time></trkpt>
      <trkpt lat="29.710287" lon="98.002319"><time>2026-05-01T02:39:11.249Z</time></trkpt>
      <trkpt lat="29.710287" lon="98.002319"><time>2026-05-01T02:39:11.266Z</time></trkpt>
      <trkpt lat="29.710287" lon="98.002319"><time>2026-05-01T02:39:11.282Z</time></trkpt>
      <trkpt lat="29.710287" lon="98.002319"><time>2026-05-01T02:39:11.299Z</time></trkpt>
      <trkpt lat="29.710287" lon="98.002319"><time>2026-05-01T02:39:11.316Z</time></trkpt>
      <trkpt lat="29.710287" lon="98.002319"><time>2026-05-01T02:39:11.333Z</time></trkpt>
      <trkpt lat="29.710287" lon="98.002319"><time>2026-05-01T02:39:11.349Z</time></trkpt>
      <trkpt lat="29.710287" lon="98.002319"><time>2026-05-01T02:39:11.366Z</time></trkpt>
      <trkpt lat="29.710287" lon="98.002319"><time>2026-05-01T02:39:11.383Z</time></trkpt>
      <trkpt lat="29.710287" lon="98.002319"><time>2026-05-01T02:39:11.399Z</time></trkpt>
      <trkpt lat="29.710287" lon="98.002319"><time>2026-05-01T02:39:11.416Z</time></trkpt>
      <trkpt lat="29.710287" lon="98.002319"><time>2026-05-01T02:39:11.433Z</time></trkpt>
      <trkpt lat="29.710287" lon="98.002319"><time>2026-05-01T02:39:11.449Z</time></trkpt>
      <trkpt lat="29.710287" lon="98.002319"><time>2026-05-01T02:39:11.466Z</time></trkpt>
      <trkpt lat="29.710287" lon="98.002319"><time>2026-05-01T02:39:11.483Z</time></trkpt>
      <trkpt lat="29.710287" lon="98.002319"><time>2026-05-01T02:39:11.499Z</time></trkpt>
      <trkpt lat="29.710287" lon="98.002319"><time>2026-05-01T02:39:11.516Z</time></trkpt>
      <trkpt lat="29.710287" lon="98.002319"><time>2026-05-01T02:39:11.533Z</time></trkpt>
      <trkpt lat="29.710287" lon="98.002319"><time>2026-05-01T02:39:11.549Z</time></trkpt>
      <trkpt lat="29.710287" lon="98.002319"><time>2026-05-01T02:39:11.566Z</time></trkpt>
      <trkpt lat="29.710287" lon="98.002319"><time>2026-05-01T02:39:11.583Z</time></trkpt>
      <trkpt lat="29.710287" lon="98.002319"><time>2026-05-01T02:39:11.599Z</time></trkpt>
      <trkpt lat="29.710287" lon="98.002319"><time>2026-05-01T02:39:11.616Z</time></trkpt>
      <trkpt lat="29.710287" lon="98.002319"><time>2026-05-01T02:39:11.633Z</time></trkpt>
      <trkpt lat="29.710287" lon="98.002319"><time>2026-05-01T02:39:11.650Z</time></trkpt>
      <trkpt lat="29.710287" lon="98.002319"><time>2026-05-01T02:39:11.666Z</time></trkpt>
      <trkpt lat="29.710287" lon="98.002319"><time>2026-05-01T02:39:11.683Z</time></trkpt>
      <trkpt lat="29.710287" lon="98.002319"><time>2026-05-01T02:39:11.700Z</time></trkpt>
      <trkpt lat="29.710287" lon="98.002319"><time>2026-05-01T02:39:11.716Z</time></trkpt>
      <trkpt lat="29.710287" lon="98.002319"><time>2026-05-01T02:39:11.733Z</time></trkpt>
      <trkpt lat="29.710287" lon="98.002319"><time>2026-05-01T02:39:11.750Z</time></trkpt>
      <trkpt lat="29.710287" lon="98.002319"><time>2026-05-01T02:39:11.766Z</time></trkpt>
      <trkpt lat="29.710287" lon="98.002319"><time>2026-05-01T02:39:11.783Z</time></trkpt>
      <trkpt lat="29.710288" lon="98.002319"><time>2026-05-01T02:39:11.800Z</time></trkpt>
      <trkpt lat="29.710288" lon="98.002319"><time>2026-05-01T02:39:11.816Z</time></trkpt>
      <trkpt lat="29.710288" lon="98.002319"><time>2026-05-01T02:39:11.833Z</time></trkpt>
      <trkpt lat="29.710288" lon="98.002319"><time>2026-05-01T02:39:11.850Z</time></trkpt>
      <trkpt lat="29.710288" lon="98.002319"><time>2026-05-01T02:39:11.866Z</time></trkpt>
      <trkpt lat="29.710288" lon="98.002319"><time>2026-05-01T02:39:11.883Z</time></trkpt>
      <trkpt lat="29.710288" lon="98.002319"><time>2026-05-01T02:39:11.900Z</time></trkpt>
      <trkpt lat="29.710288" lon="98.002319"><time>2026-05-01T02:39:11.916Z</time></trkpt>
      <trkpt lat="29.710288" lon="98.002319"><time>2026-05-01T02:39:11.933Z</time></trkpt>
      <trkpt lat="29.710288" lon="98.002319"><time>2026-05-01T02:39:11.950Z</time></trkpt>
      <trkpt lat="29.710288" lon="98.002319"><time>2026-05-01T02:39:11.967Z</time></trkpt>
      <trkpt lat="29.710288" lon="98.002319"><time>2026-05-01T02:39:11.983Z</time></trkpt>
      <trkpt lat="29.710288" lon="98.002319"><time>2026-05-01T02:39:12.000Z</time></trkpt>
      <trkpt lat="29.710288" lon="98.002319"><time>2026-05-01T02:39:12.017Z</time></trkpt>
      <trkpt lat="29.710288" lon="98.002319"><time>2026-05-01T02:39:12.033Z</time></trkpt>
      <trkpt lat="29.710288" lon="98.002319"><time>2026-05-01T02:39:12.050Z</time></trkpt>
      <trkpt lat="29.710288" lon="98.002319"><time>2026-05-01T02:39:12.067Z</time></trkpt>
      <trkpt lat="29.710288" lon="98.002319"><time>2026-05-01T02:39:12.083Z</time></trkpt>
      <trkpt lat="29.710287" lon="98.00232"><time>2026-05-01T02:39:12.100Z</time></trkpt>
      <trkpt lat="29.710287" lon="98.00232"><time>2026-05-01T02:39:12.117Z</time></trkpt>
      <trkpt lat="29.710287" lon="98.00232"><time>2026-05-01T02:39:12.133Z</time></trkpt>
      <trkpt lat="29.710287" lon="98.00232"><time>2026-05-01T02:39:12.150Z</time></trkpt>
      <trkpt lat="29.710287" lon="98.00232"><time>2026-05-01T02:39:12.167Z</time></trkpt>
      <trkpt lat="29.710287" lon="98.00232"><time>2026-05-01T02:39:12.183Z</time></trkpt>
      <trkpt lat="29.710287" lon="98.00232"><time>2026-05-01T02:39:12.200Z</time></trkpt>
      <trkpt lat="29.710287" lon="98.00232"><time>2026-05-01T02:39:12.217Z</time></trkpt>
      <trkpt lat="29.710287" lon="98.00232"><time>2026-05-01T02:39:12.233Z</time></trkpt>
      <trkpt lat="29.710287" lon="98.00232"><time>2026-05-01T02:39:12.250Z</time></trkpt>
      <trkpt lat="29.710287" lon="98.00232"><time>2026-05-01T02:39:12.267Z</time></trkpt>
      <trkpt lat="29.710287" lon="98.00232"><time>2026-05-01T02:39:12.283Z</time></trkpt>
      <trkpt lat="29.710287" lon="98.002319"><time>2026-05-01T02:39:12.300Z</time></trkpt>
      <trkpt lat="29.710287" lon="98.002319"><time>2026-05-01T02:39:12.317Z</time></trkpt>
      <trkpt lat="29.710287" lon="98.002319"><time>2026-05-01T02:39:12.334Z</time></trkpt>
      <trkpt lat="29.710287" lon="98.002319"><time>2026-05-01T02:39:12.350Z</time></trkpt>
      <trkpt lat="29.710287" lon="98.002319"><time>2026-05-01T02:39:12.367Z</time></trkpt>
      <trkpt lat="29.710287" lon="98.002319"><time>2026-05-01T02:39:12.384Z</time></trkpt>
      <trkpt lat="29.710287" lon="98.002319"><time>2026-05-01T02:39:12.400Z</time></trkpt>
      <trkpt lat="29.710287" lon="98.002319"><time>2026-05-01T02:39:12.417Z</time></trkpt>
      <trkpt lat="29.710287" lon="98.002319"><time>2026-05-01T02:39:12.434Z</time></trkpt>
      <trkpt lat="29.710287" lon="98.002319"><time>2026-05-01T02:39:12.450Z</time></trkpt>
      <trkpt lat="29.710287" lon="98.002319"><time>2026-05-01T02:39:12.467Z</time></trkpt>
      <trkpt lat="29.710287" lon="98.002319"><time>2026-05-01T02:39:12.484Z</time></trkpt>
      <trkpt lat="29.710287" lon="98.002319"><time>2026-05-01T02:39:12.500Z</time></trkpt>
      <trkpt lat="29.710287" lon="98.002319"><time>2026-05-01T02:39:12.517Z</time></trkpt>
      <trkpt lat="29.710287" lon="98.002319"><time>2026-05-01T02:39:12.534Z</time></trkpt>
      <trkpt lat="29.710287" lon="98.002319"><time>2026-05-01T02:39:12.550Z</time></trkpt>
      <trkpt lat="29.710287" lon="98.002319"><time>2026-05-01T02:39:12.567Z</time></trkpt>
      <trkpt lat="29.710287" lon="98.002319"><time>2026-05-01T02:39:12.584Z</time></trkpt>
      <trkpt lat="29.710287" lon="98.002319"><time>2026-05-01T02:39:12.600Z</time></trkpt>
      <trkpt lat="29.710287" lon="98.002319"><time>2026-05-01T02:39:12.617Z</time></trkpt>
      <trkpt lat="29.710287" lon="98.002319"><time>2026-05-01T02:39:12.634Z</time></trkpt>
      <trkpt lat="29.710287" lon="98.002319"><time>2026-05-01T02:39:12.651Z</time></trkpt>
      <trkpt lat="29.710287" lon="98.002319"><time>2026-05-01T02:39:12.667Z</time></trkpt>
      <trkpt lat="29.710287" lon="98.002319"><time>2026-05-01T02:39:12.684Z</time></trkpt>
      <trkpt lat="29.710287" lon="98.00232"><time>2026-05-01T02:39:12.701Z</time></trkpt>
      <trkpt lat="29.710287" lon="98.00232"><time>2026-05-01T02:39:12.717Z</time></trkpt>
      <trkpt lat="29.710287" lon="98.00232"><time>2026-05-01T02:39:12.734Z</time></trkpt>
      <trkpt lat="29.710287" lon="98.00232"><time>2026-05-01T02:39:12.751Z</time></trkpt>
      <trkpt lat="29.710287" lon="98.00232"><time>2026-05-01T02:39:12.767Z</time></trkpt>
      <trkpt lat="29.710287" lon="98.00232"><time>2026-05-01T02:39:12.784Z</time></trkpt>
      <trkpt lat="29.710287" lon="98.00232"><time>2026-05-01T02:39:12.801Z</time></trkpt>
      <trkpt lat="29.710287" lon="98.00232"><time>2026-05-01T02:39:12.817Z</time></trkpt>
      <trkpt lat="29.710287" lon="98.00232"><time>2026-05-01T02:39:12.834Z</time></trkpt>
      <trkpt lat="29.710287" lon="98.00232"><time>2026-05-01T02:39:12.851Z</time></trkpt>
      <trkpt lat="29.710287" lon="98.00232"><time>2026-05-01T02:39:12.867Z</time></trkpt>
      <trkpt lat="29.710287" lon="98.00232"><time>2026-05-01T02:39:12.884Z</time></trkpt>
      <trkpt lat="29.710287" lon="98.00232"><time>2026-05-01T02:39:12.901Z</time></trkpt>
      <trkpt lat="29.710287" lon="98.00232"><time>2026-05-01T02:39:12.917Z</time></trkpt>
      <trkpt lat="29.710287" lon="98.00232"><time>2026-05-01T02:39:12.934Z</time></trkpt>
      <trkpt lat="29.710287" lon="98.00232"><time>2026-05-01T02:39:12.951Z</time></trkpt>
      <trkpt lat="29.710287" lon="98.00232"><time>2026-05-01T02:39:12.968Z</time></trkpt>
      <trkpt lat="29.710287" lon="98.00232"><time>2026-05-01T02:39:12.984Z</time></trkpt>
      <trkpt lat="29.710287" lon="98.00232"><time>2026-05-01T02:39:13.001Z</time></trkpt>
      <trkpt lat="29.710287" lon="98.00232"><time>2026-05-01T02:39:13.018Z</time></trkpt>
      <trkpt lat="29.710287" lon="98.00232"><time>2026-05-01T02:39:13.034Z</time></trkpt>
      <trkpt lat="29.710287" lon="98.00232"><time>2026-05-01T02:39:13.051Z</time></trkpt>
      <trkpt lat="29.710287" lon="98.00232"><time>2026-05-01T02:39:13.068Z</time></trkpt>
      <trkpt lat="29.710287" lon="98.00232"><time>2026-05-01T02:39:13.084Z</time></trkpt>
      <trkpt lat="29.710287" lon="98.00232"><time>2026-05-01T02:39:13.101Z</time></trkpt>
      <trkpt lat="29.710287" lon="98.00232"><time>2026-05-01T02:39:13.118Z</time></trkpt>
      <trkpt lat="29.710287" lon="98.00232"><time>2026-05-01T02:39:13.134Z</time></trkpt>
      <trkpt lat="29.710287" lon="98.00232"><time>2026-05-01T02:39:13.151Z</time></trkpt>
      <trkpt lat="29.710287" lon="98.00232"><time>2026-05-01T02:39:13.168Z</time></trkpt>
      <trkpt lat="29.710287" lon="98.00232"><time>2026-05-01T02:39:13.184Z</time></trkpt>
      <trkpt lat="29.710287" lon="98.00232"><time>2026-05-01T02:39:13.201Z</time></trkpt>
      <trkpt lat="29.710287" lon="98.00232"><time>2026-05-01T02:39:13.218Z</time></trkpt>
      <trkpt lat="29.710287" lon="98.00232"><time>2026-05-01T02:39:13.234Z</time></trkpt>
      <trkpt lat="29.710287" lon="98.00232"><time>2026-05-01T02:39:13.251Z</time></trkpt>
      <trkpt lat="29.710287" lon="98.00232"><time>2026-05-01T02:39:13.268Z</time></trkpt>
      <trkpt lat="29.710287" lon="98.00232"><time>2026-05-01T02:39:13.285Z</time></trkpt>
      <trkpt lat="29.710287" lon="98.00232"><time>2026-05-01T02:39:13.301Z</time></trkpt>
      <trkpt lat="29.710287" lon="98.00232"><time>2026-05-01T02:39:13.318Z</time></trkpt>
      <trkpt lat="29.710287" lon="98.00232"><time>2026-05-01T02:39:13.335Z</time></trkpt>
      <trkpt lat="29.710287" lon="98.00232"><time>2026-05-01T02:39:13.351Z</time></trkpt>
      <trkpt lat="29.710287" lon="98.00232"><time>2026-05-01T02:39:13.368Z</time></trkpt>
      <trkpt lat="29.710287" lon="98.00232"><time>2026-05-01T02:39:13.385Z</time></trkpt>
      <trkpt lat="29.710287" lon="98.00232"><time>2026-05-01T02:39:13.401Z</time></trkpt>
      <trkpt lat="29.710287" lon="98.00232"><time>2026-05-01T02:39:13.418Z</time></trkpt>
      <trkpt lat="29.710287" lon="98.00232"><time>2026-05-01T02:39:13.435Z</time></trkpt>
      <trkpt lat="29.710287" lon="98.00232"><time>2026-05-01T02:39:13.451Z</time></trkpt>
      <trkpt lat="29.710287" lon="98.00232"><time>2026-05-01T02:39:13.468Z</time></trkpt>
      <trkpt lat="29.710287" lon="98.002319"><time>2026-05-01T02:39:13.485Z</time></trkpt>
      <trkpt lat="29.710287" lon="98.002319"><time>2026-05-01T02:39:13.501Z</time></trkpt>
      <trkpt lat="29.710287" lon="98.002319"><time>2026-05-01T02:39:13.518Z</time></trkpt>
      <trkpt lat="29.710287" lon="98.002319"><time>2026-05-01T02:39:13.535Z</time></trkpt>
      <trkpt lat="29.710287" lon="98.002319"><time>2026-05-01T02:39:13.551Z</time></trkpt>
      <trkpt lat="29.710287" lon="98.002319"><time>2026-05-01T02:39:13.568Z</time></trkpt>
      <trkpt lat="29.710287" lon="98.002319"><time>2026-05-01T02:39:13.585Z</time></trkpt>
      <trkpt lat="29.710287" lon="98.002319"><time>2026-05-01T02:39:13.602Z</time></trkpt>
      <trkpt lat="29.710287" lon="98.002319"><time>2026-05-01T02:39:13.618Z</time></trkpt>
      <trkpt lat="29.710287" lon="98.002319"><time>2026-05-01T02:39:13.635Z</time></trkpt>
      <trkpt lat="29.710287" lon="98.002319"><time>2026-05-01T02:39:13.652Z</time></trkpt>
      <trkpt lat="29.710287" lon="98.002319"><time>2026-05-01T02:39:13.668Z</time></trkpt>
      <trkpt lat="29.710287" lon="98.002319"><time>2026-05-01T02:39:13.685Z</time></trkpt>
      <trkpt lat="29.710287" lon="98.002319"><time>2026-05-01T02:39:13.702Z</time></trkpt>
      <trkpt lat="29.710287" lon="98.002319"><time>2026-05-01T02:39:13.718Z</time></trkpt>
      <trkpt lat="29.710287" lon="98.002319"><time>2026-05-01T02:39:13.735Z</time></trkpt>
      <trkpt lat="29.710287" lon="98.002319"><time>2026-05-01T02:39:13.752Z</time></trkpt>
      <trkpt lat="29.710287" lon="98.002319"><time>2026-05-01T02:39:13.768Z</time></trkpt>
      <trkpt lat="29.710287" lon="98.002319"><time>2026-05-01T02:39:13.785Z</time></trkpt>
      <trkpt lat="29.710287" lon="98.002319"><time>2026-05-01T02:39:13.802Z</time></trkpt>
      <trkpt lat="29.710287" lon="98.002319"><time>2026-05-01T02:39:13.818Z</time></trkpt>
      <trkpt lat="29.710287" lon="98.002319"><time>2026-05-01T02:39:13.835Z</time></trkpt>
      <trkpt lat="29.710287" lon="98.002319"><time>2026-05-01T02:39:13.852Z</time></trkpt>
      <trkpt lat="29.710287" lon="98.002319"><time>2026-05-01T02:39:13.868Z</time></trkpt>
      <trkpt lat="29.710287" lon="98.002319"><time>2026-05-01T02:39:13.885Z</time></trkpt>
      <trkpt lat="29.710287" lon="98.002319"><time>2026-05-01T02:39:13.902Z</time></trkpt>
      <trkpt lat="29.710287" lon="98.002319"><time>2026-05-01T02:39:13.919Z</time></trkpt>
      <trkpt lat="29.710287" lon="98.002319"><time>2026-05-01T02:39:13.935Z</time></trkpt>
      <trkpt lat="29.710287" lon="98.002319"><time>2026-05-01T02:39:13.952Z</time></trkpt>
      <trkpt lat="29.710287" lon="98.002319"><time>2026-05-01T02:39:13.969Z</time></trkpt>
      <trkpt lat="29.710287" lon="98.002319"><time>2026-05-01T02:39:13.985Z</time></trkpt>
      <trkpt lat="29.710287" lon="98.002319"><time>2026-05-01T02:39:14.002Z</time></trkpt>
      <trkpt lat="29.710287" lon="98.002319"><time>2026-05-01T02:39:14.019Z</time></trkpt>
      <trkpt lat="29.710287" lon="98.002319"><time>2026-05-01T02:39:14.035Z</time></trkpt>
      <trkpt lat="29.710287" lon="98.002319"><time>2026-05-01T02:39:14.052Z</time></trkpt>
      <trkpt lat="29.710287" lon="98.002319"><time>2026-05-01T02:39:14.069Z</time></trkpt>
      <trkpt lat="29.710287" lon="98.002319"><time>2026-05-01T02:39:14.085Z</time></trkpt>
      <trkpt lat="29.710287" lon="98.002319"><time>2026-05-01T02:39:14.102Z</time></trkpt>
      <trkpt lat="29.710287" lon="98.002319"><time>2026-05-01T02:39:14.119Z</time></trkpt>
      <trkpt lat="29.710287" lon="98.002319"><time>2026-05-01T02:39:14.135Z</time></trkpt>
      <trkpt lat="29.710287" lon="98.002319"><time>2026-05-01T02:39:14.152Z</time></trkpt>
      <trkpt lat="29.710287" lon="98.002319"><time>2026-05-01T02:39:14.169Z</time></trkpt>
      <trkpt lat="29.710287" lon="98.002319"><time>2026-05-01T02:39:14.185Z</time></trkpt>
      <trkpt lat="29.710287" lon="98.002319"><time>2026-05-01T02:39:14.202Z</time></trkpt>
      <trkpt lat="29.710287" lon="98.002319"><time>2026-05-01T02:39:14.219Z</time></trkpt>
      <trkpt lat="29.710287" lon="98.002319"><time>2026-05-01T02:39:14.236Z</time></trkpt>
      <trkpt lat="29.710287" lon="98.002319"><time>2026-05-01T02:39:14.252Z</time></trkpt>
      <trkpt lat="29.710287" lon="98.002319"><time>2026-05-01T02:39:14.269Z</time></trkpt>
      <trkpt lat="29.710287" lon="98.002319"><time>2026-05-01T02:39:14.286Z</time></trkpt>
      <trkpt lat="29.710287" lon="98.002319"><time>2026-05-01T02:39:14.302Z</time></trkpt>
      <trkpt lat="29.710287" lon="98.002319"><time>2026-05-01T02:39:14.319Z</time></trkpt>
      <trkpt lat="29.710287" lon="98.002319"><time>2026-05-01T02:39:14.336Z</time></trkpt>
      <trkpt lat="29.710287" lon="98.002319"><time>2026-05-01T02:39:14.352Z</time></trkpt>
      <trkpt lat="29.710287" lon="98.002319"><time>2026-05-01T02:39:14.369Z</time></trkpt>
      <trkpt lat="29.710288" lon="98.00232"><time>2026-05-01T02:39:14.386Z</time></trkpt>
      <trkpt lat="29.710288" lon="98.00232"><time>2026-05-01T02:39:14.402Z</time></trkpt>
      <trkpt lat="29.710288" lon="98.00232"><time>2026-05-01T02:39:14.419Z</time></trkpt>
      <trkpt lat="29.710288" lon="98.00232"><time>2026-05-01T02:39:14.436Z</time></trkpt>
      <trkpt lat="29.710288" lon="98.00232"><time>2026-05-01T02:39:14.452Z</time></trkpt>
      <trkpt lat="29.710288" lon="98.00232"><time>2026-05-01T02:39:14.469Z</time></trkpt>
      <trkpt lat="29.710288" lon="98.00232"><time>2026-05-01T02:39:14.486Z</time></trkpt>
      <trkpt lat="29.710288" lon="98.00232"><time>2026-05-01T02:39:14.502Z</time></trkpt>
      <trkpt lat="29.710288" lon="98.00232"><time>2026-05-01T02:39:14.519Z</time></trkpt>
      <trkpt lat="29.710288" lon="98.00232"><time>2026-05-01T02:39:14.536Z</time></trkpt>
      <trkpt lat="29.710288" lon="98.00232"><time>2026-05-01T02:39:14.553Z</time></trkpt>
      <trkpt lat="29.710288" lon="98.00232"><time>2026-05-01T02:39:14.569Z</time></trkpt>
      <trkpt lat="29.710288" lon="98.00232"><time>2026-05-01T02:39:14.586Z</time></trkpt>
      <trkpt lat="29.710288" lon="98.00232"><time>2026-05-01T02:39:14.603Z</time></trkpt>
      <trkpt lat="29.710288" lon="98.00232"><time>2026-05-01T02:39:14.619Z</time></trkpt>
      <trkpt lat="29.710288" lon="98.00232"><time>2026-05-01T02:39:14.636Z</time></trkpt>
      <trkpt lat="29.710288" lon="98.00232"><time>2026-05-01T02:39:14.653Z</time></trkpt>
      <trkpt lat="29.710288" lon="98.00232"><time>2026-05-01T02:39:14.669Z</time></trkpt>
      <trkpt lat="29.710288" lon="98.00232"><time>2026-05-01T02:39:14.686Z</time></trkpt>
      <trkpt lat="29.710288" lon="98.00232"><time>2026-05-01T02:39:14.703Z</time></trkpt>
      <trkpt lat="29.710288" lon="98.00232"><time>2026-05-01T02:39:14.719Z</time></trkpt>
      <trkpt lat="29.710288" lon="98.00232"><time>2026-05-01T02:39:14.736Z</time></trkpt>
      <trkpt lat="29.710288" lon="98.00232"><time>2026-05-01T02:39:14.753Z</time></trkpt>
      <trkpt lat="29.710288" lon="98.00232"><time>2026-05-01T02:39:14.769Z</time></trkpt>
      <trkpt lat="29.710287" lon="98.00232"><time>2026-05-01T02:39:14.786Z</time></trkpt>
      <trkpt lat="29.710287" lon="98.00232"><time>2026-05-01T02:39:14.803Z</time></trkpt>
      <trkpt lat="29.710287" lon="98.00232"><time>2026-05-01T02:39:14.819Z</time></trkpt>
      <trkpt lat="29.710287" lon="98.00232"><time>2026-05-01T02:39:14.836Z</time></trkpt>
      <trkpt lat="29.710287" lon="98.00232"><time>2026-05-01T02:39:14.853Z</time></trkpt>
      <trkpt lat="29.710287" lon="98.00232"><time>2026-05-01T02:39:14.870Z</time></trkpt>
      <trkpt lat="29.710287" lon="98.00232"><time>2026-05-01T02:39:14.886Z</time></trkpt>
      <trkpt lat="29.710287" lon="98.00232"><time>2026-05-01T02:39:14.903Z</time></trkpt>
      <trkpt lat="29.710287" lon="98.00232"><time>2026-05-01T02:39:14.920Z</time></trkpt>
      <trkpt lat="29.710287" lon="98.00232"><time>2026-05-01T02:39:14.936Z</time></trkpt>
      <trkpt lat="29.710287" lon="98.00232"><time>2026-05-01T02:39:14.953Z</time></trkpt>
      <trkpt lat="29.710287" lon="98.00232"><time>2026-05-01T02:39:14.970Z</time></trkpt>
      <trkpt lat="29.710287" lon="98.00232"><time>2026-05-01T02:39:14.986Z</time></trkpt>
      <trkpt lat="29.710287" lon="98.00232"><time>2026-05-01T02:39:15.003Z</time></trkpt>
      <trkpt lat="29.710287" lon="98.00232"><time>2026-05-01T02:39:15.020Z</time></trkpt>
      <trkpt lat="29.710287" lon="98.00232"><time>2026-05-01T02:39:15.036Z</time></trkpt>
      <trkpt lat="29.710287" lon="98.00232"><time>2026-05-01T02:39:15.053Z</time></trkpt>
      <trkpt lat="29.710287" lon="98.00232"><time>2026-05-01T02:39:15.070Z</time></trkpt>
      <trkpt lat="29.710287" lon="98.002319"><time>2026-05-01T02:39:15.086Z</time></trkpt>
      <trkpt lat="29.710287" lon="98.002319"><time>2026-05-01T02:39:15.103Z</time></trkpt>
      <trkpt lat="29.710287" lon="98.002319"><time>2026-05-01T02:39:15.120Z</time></trkpt>
      <trkpt lat="29.710287" lon="98.002319"><time>2026-05-01T02:39:15.136Z</time></trkpt>
      <trkpt lat="29.710287" lon="98.002319"><time>2026-05-01T02:39:15.153Z</time></trkpt>
      <trkpt lat="29.710287" lon="98.002319"><time>2026-05-01T02:39:15.170Z</time></trkpt>
      <trkpt lat="29.710287" lon="98.002319"><time>2026-05-01T02:39:15.187Z</time></trkpt>
      <trkpt lat="29.710287" lon="98.002319"><time>2026-05-01T02:39:15.203Z</time></trkpt>
      <trkpt lat="29.710287" lon="98.002319"><time>2026-05-01T02:39:15.220Z</time></trkpt>
      <trkpt lat="29.710287" lon="98.002319"><time>2026-05-01T02:39:15.237Z</time></trkpt>
      <trkpt lat="29.710287" lon="98.002319"><time>2026-05-01T02:39:15.253Z</time></trkpt>
      <trkpt lat="29.710287" lon="98.002319"><time>2026-05-01T02:39:15.270Z</time></trkpt>
      <trkpt lat="29.710287" lon="98.002319"><time>2026-05-01T02:39:15.287Z</time></trkpt>
      <trkpt lat="29.710287" lon="98.002319"><time>2026-05-01T02:39:15.303Z</time></trkpt>
      <trkpt lat="29.710287" lon="98.002319"><time>2026-05-01T02:39:15.320Z</time></trkpt>
      <trkpt lat="29.710287" lon="98.002319"><time>2026-05-01T02:39:15.337Z</time></trkpt>
      <trkpt lat="29.710287" lon="98.002319"><time>2026-05-01T02:39:15.353Z</time></trkpt>
      <trkpt lat="29.710287" lon="98.002319"><time>2026-05-01T02:39:15.370Z</time></trkpt>
      <trkpt lat="29.710287" lon="98.002319"><time>2026-05-01T02:39:15.387Z</time></trkpt>
      <trkpt lat="29.710287" lon="98.002319"><time>2026-05-01T02:39:15.403Z</time></trkpt>
      <trkpt lat="29.710287" lon="98.002319"><time>2026-05-01T02:39:15.420Z</time></trkpt>
      <trkpt lat="29.710287" lon="98.002319"><time>2026-05-01T02:39:15.437Z</time></trkpt>
      <trkpt lat="29.710287" lon="98.002319"><time>2026-05-01T02:39:15.453Z</time></trkpt>
      <trkpt lat="29.710287" lon="98.002319"><time>2026-05-01T02:39:15.470Z</time></trkpt>
      <trkpt lat="29.710287" lon="98.002319"><time>2026-05-01T02:39:15.487Z</time></trkpt>
      <trkpt lat="29.710287" lon="98.002319"><time>2026-05-01T02:39:15.504Z</time></trkpt>
      <trkpt lat="29.710287" lon="98.002319"><time>2026-05-01T02:39:15.520Z</time></trkpt>
      <trkpt lat="29.710287" lon="98.002319"><time>2026-05-01T02:39:15.537Z</time></trkpt>
      <trkpt lat="29.710287" lon="98.002319"><time>2026-05-01T02:39:15.554Z</time></trkpt>
      <trkpt lat="29.710287" lon="98.002319"><time>2026-05-01T02:39:15.570Z</time></trkpt>
      <trkpt lat="29.710287" lon="98.002319"><time>2026-05-01T02:39:15.587Z</time></trkpt>
      <trkpt lat="29.710287" lon="98.002319"><time>2026-05-01T02:39:15.604Z</time></trkpt>
      <trkpt lat="29.710287" lon="98.002319"><time>2026-05-01T02:39:15.620Z</time></trkpt>
      <trkpt lat="29.710287" lon="98.002319"><time>2026-05-01T02:39:15.637Z</time></trkpt>
      <trkpt lat="29.710287" lon="98.002319"><time>2026-05-01T02:39:15.654Z</time></trkpt>
      <trkpt lat="29.710287" lon="98.002319"><time>2026-05-01T02:39:15.670Z</time></trkpt>
      <trkpt lat="29.710288" lon="98.002319"><time>2026-05-01T02:39:15.687Z</time></trkpt>
      <trkpt lat="29.710288" lon="98.002319"><time>2026-05-01T02:39:15.704Z</time></trkpt>
      <trkpt lat="29.710288" lon="98.002319"><time>2026-05-01T02:39:15.720Z</time></trkpt>
      <trkpt lat="29.710288" lon="98.002319"><time>2026-05-01T02:39:15.737Z</time></trkpt>
      <trkpt lat="29.710288" lon="98.002319"><time>2026-05-01T02:39:15.754Z</time></trkpt>
      <trkpt lat="29.710288" lon="98.002319"><time>2026-05-01T02:39:15.770Z</time></trkpt>
      <trkpt lat="29.710288" lon="98.002319"><time>2026-05-01T02:39:15.787Z</time></trkpt>
      <trkpt lat="29.710288" lon="98.002319"><time>2026-05-01T02:39:15.804Z</time></trkpt>
      <trkpt lat="29.710288" lon="98.002319"><time>2026-05-01T02:39:15.821Z</time></trkpt>
      <trkpt lat="29.710288" lon="98.002319"><time>2026-05-01T02:39:15.837Z</time></trkpt>
      <trkpt lat="29.710288" lon="98.002319"><time>2026-05-01T02:39:15.854Z</time></trkpt>
      <trkpt lat="29.710288" lon="98.002319"><time>2026-05-01T02:39:15.871Z</time></trkpt>
      <trkpt lat="29.710288" lon="98.002319"><time>2026-05-01T02:39:15.887Z</time></trkpt>
      <trkpt lat="29.710288" lon="98.002319"><time>2026-05-01T02:39:15.904Z</time></trkpt>
      <trkpt lat="29.710288" lon="98.002319"><time>2026-05-01T02:39:15.921Z</time></trkpt>
      <trkpt lat="29.710288" lon="98.002319"><time>2026-05-01T02:39:15.937Z</time></trkpt>
      <trkpt lat="29.710288" lon="98.002319"><time>2026-05-01T02:39:15.954Z</time></trkpt>
      <trkpt lat="29.710288" lon="98.002319"><time>2026-05-01T02:39:15.971Z</time></trkpt>
      <trkpt lat="29.710288" lon="98.00232"><time>2026-05-01T02:39:15.987Z</time></trkpt>
      <trkpt lat="29.710288" lon="98.00232"><time>2026-05-01T02:39:16.004Z</time></trkpt>
      <trkpt lat="29.710288" lon="98.00232"><time>2026-05-01T02:39:16.021Z</time></trkpt>
      <trkpt lat="29.710288" lon="98.00232"><time>2026-05-01T02:39:16.037Z</time></trkpt>
      <trkpt lat="29.710288" lon="98.00232"><time>2026-05-01T02:39:16.054Z</time></trkpt>
      <trkpt lat="29.710288" lon="98.00232"><time>2026-05-01T02:39:16.071Z</time></trkpt>
      <trkpt lat="29.710288" lon="98.00232"><time>2026-05-01T02:39:16.087Z</time></trkpt>
      <trkpt lat="29.710288" lon="98.00232"><time>2026-05-01T02:39:16.104Z</time></trkpt>
      <trkpt lat="29.710288" lon="98.00232"><time>2026-05-01T02:39:16.121Z</time></trkpt>
      <trkpt lat="29.710288" lon="98.00232"><time>2026-05-01T02:39:16.138Z</time></trkpt>
      <trkpt lat="29.710288" lon="98.00232"><time>2026-05-01T02:39:16.154Z</time></trkpt>
      <trkpt lat="29.710288" lon="98.00232"><time>2026-05-01T02:39:16.171Z</time></trkpt>
      <trkpt lat="29.710288" lon="98.00232"><time>2026-05-01T02:39:16.188Z</time></trkpt>
      <trkpt lat="29.710288" lon="98.00232"><time>2026-05-01T02:39:16.204Z</time></trkpt>
      <trkpt lat="29.710288" lon="98.00232"><time>2026-05-01T02:39:16.221Z</time></trkpt>
      <trkpt lat="29.710288" lon="98.00232"><time>2026-05-01T02:39:16.238Z</time></trkpt>
      <trkpt lat="29.710288" lon="98.00232"><time>2026-05-01T02:39:16.254Z</time></trkpt>
      <trkpt lat="29.710288" lon="98.00232"><time>2026-05-01T02:39:16.271Z</time></trkpt>
      <trkpt lat="29.710288" lon="98.00232"><time>2026-05-01T02:39:16.288Z</time></trkpt>
      <trkpt lat="29.710288" lon="98.00232"><time>2026-05-01T02:39:16.304Z</time></trkpt>
      <trkpt lat="29.710288" lon="98.00232"><time>2026-05-01T02:39:16.321Z</time></trkpt>
      <trkpt lat="29.710288" lon="98.00232"><time>2026-05-01T02:39:16.338Z</time></trkpt>
      <trkpt lat="29.710288" lon="98.00232"><time>2026-05-01T02:39:16.354Z</time></trkpt>
      <trkpt lat="29.710288" lon="98.00232"><time>2026-05-01T02:39:16.371Z</time></trkpt>
      <trkpt lat="29.710288" lon="98.00232"><time>2026-05-01T02:39:16.388Z</time></trkpt>
      <trkpt lat="29.710288" lon="98.00232"><time>2026-05-01T02:39:16.404Z</time></trkpt>
      <trkpt lat="29.710288" lon="98.00232"><time>2026-05-01T02:39:16.421Z</time></trkpt>
      <trkpt lat="29.710288" lon="98.00232"><time>2026-05-01T02:39:16.438Z</time></trkpt>
      <trkpt lat="29.710288" lon="98.00232"><time>2026-05-01T02:39:16.455Z</time></trkpt>
      <trkpt lat="29.710288" lon="98.00232"><time>2026-05-01T02:39:16.471Z</time></trkpt>
      <trkpt lat="29.710288" lon="98.00232"><time>2026-05-01T02:39:16.488Z</time></trkpt>
      <trkpt lat="29.710288" lon="98.00232"><time>2026-05-01T02:39:16.505Z</time></trkpt>
      <trkpt lat="29.710288" lon="98.00232"><time>2026-05-01T02:39:16.521Z</time></trkpt>
      <trkpt lat="29.710288" lon="98.00232"><time>2026-05-01T02:39:16.538Z</time></trkpt>
      <trkpt lat="29.710288" lon="98.00232"><time>2026-05-01T02:39:16.555Z</time></trkpt>
      <trkpt lat="29.710288" lon="98.00232"><time>2026-05-01T02:39:16.571Z</time></trkpt>
      <trkpt lat="29.710288" lon="98.00232"><time>2026-05-01T02:39:16.588Z</time></trkpt>
      <trkpt lat="29.710288" lon="98.00232"><time>2026-05-01T02:39:16.605Z</time></trkpt>
      <trkpt lat="29.710288" lon="98.00232"><time>2026-05-01T02:39:16.621Z</time></trkpt>
      <trkpt lat="29.710288" lon="98.00232"><time>2026-05-01T02:39:16.638Z</time></trkpt>
      <trkpt lat="29.710288" lon="98.00232"><time>2026-05-01T02:39:16.655Z</time></trkpt>
      <trkpt lat="29.710288" lon="98.00232"><time>2026-05-01T02:39:16.671Z</time></trkpt>
      <trkpt lat="29.710288" lon="98.002319"><time>2026-05-01T02:39:16.688Z</time></trkpt>
      <trkpt lat="29.710288" lon="98.002319"><time>2026-05-01T02:39:16.705Z</time></trkpt>
      <trkpt lat="29.710288" lon="98.002319"><time>2026-05-01T02:39:16.721Z</time></trkpt>
      <trkpt lat="29.710288" lon="98.002319"><time>2026-05-01T02:39:16.738Z</time></trkpt>
      <trkpt lat="29.710288" lon="98.002319"><time>2026-05-01T02:39:16.755Z</time></trkpt>
      <trkpt lat="29.710288" lon="98.002319"><time>2026-05-01T02:39:16.772Z</time></trkpt>
      <trkpt lat="29.710288" lon="98.002319"><time>2026-05-01T02:39:16.788Z</time></trkpt>
      <trkpt lat="29.710288" lon="98.002319"><time>2026-05-01T02:39:16.805Z</time></trkpt>
      <trkpt lat="29.710288" lon="98.002319"><time>2026-05-01T02:39:16.822Z</time></trkpt>
      <trkpt lat="29.710288" lon="98.002319"><time>2026-05-01T02:39:16.838Z</time></trkpt>
      <trkpt lat="29.710288" lon="98.002319"><time>2026-05-01T02:39:16.855Z</time></trkpt>
      <trkpt lat="29.710288" lon="98.002319"><time>2026-05-01T02:39:16.872Z</time></trkpt>
      <trkpt lat="29.710288" lon="98.002319"><time>2026-05-01T02:39:16.888Z</time></trkpt>
      <trkpt lat="29.710288" lon="98.002319"><time>2026-05-01T02:39:16.905Z</time></trkpt>
      <trkpt lat="29.710288" lon="98.002319"><time>2026-05-01T02:39:16.922Z</time></trkpt>
      <trkpt lat="29.710288" lon="98.002319"><time>2026-05-01T02:39:16.938Z</time></trkpt>
      <trkpt lat="29.710288" lon="98.002319"><time>2026-05-01T02:39:16.955Z</time></trkpt>
      <trkpt lat="29.710288" lon="98.002319"><time>2026-05-01T02:39:16.972Z</time></trkpt>
      <trkpt lat="29.710288" lon="98.002319"><time>2026-05-01T02:39:16.988Z</time></trkpt>
      <trkpt lat="29.710288" lon="98.002319"><time>2026-05-01T02:39:17.005Z</time></trkpt>
      <trkpt lat="29.710288" lon="98.002319"><time>2026-05-01T02:39:17.022Z</time></trkpt>
      <trkpt lat="29.710288" lon="98.002319"><time>2026-05-01T02:39:17.038Z</time></trkpt>
      <trkpt lat="29.710288" lon="98.002319"><time>2026-05-01T02:39:17.055Z</time></trkpt>
      <trkpt lat="29.710288" lon="98.002319"><time>2026-05-01T02:39:17.072Z</time></trkpt>
      <trkpt lat="29.710288" lon="98.002319"><time>2026-05-01T02:39:17.089Z</time></trkpt>
      <trkpt lat="29.710288" lon="98.002319"><time>2026-05-01T02:39:17.105Z</time></trkpt>
      <trkpt lat="29.710288" lon="98.002319"><time>2026-05-01T02:39:17.122Z</time></trkpt>
      <trkpt lat="29.710288" lon="98.002319"><time>2026-05-01T02:39:17.139Z</time></trkpt>
      <trkpt lat="29.710288" lon="98.002319"><time>2026-05-01T02:39:17.155Z</time></trkpt>
      <trkpt lat="29.710288" lon="98.002319"><time>2026-05-01T02:39:17.172Z</time></trkpt>
      <trkpt lat="29.710288" lon="98.002319"><time>2026-05-01T02:39:17.189Z</time></trkpt>
      <trkpt lat="29.710288" lon="98.002319"><time>2026-05-01T02:39:17.205Z</time></trkpt>
      <trkpt lat="29.710288" lon="98.002319"><time>2026-05-01T02:39:17.222Z</time></trkpt>
      <trkpt lat="29.710288" lon="98.002319"><time>2026-05-01T02:39:17.239Z</time></trkpt>
      <trkpt lat="29.710288" lon="98.002319"><time>2026-05-01T02:39:17.255Z</time></trkpt>
      <trkpt lat="29.710288" lon="98.002319"><time>2026-05-01T02:39:17.272Z</time></trkpt>
      <trkpt lat="29.710287" lon="98.00232"><time>2026-05-01T02:39:17.289Z</time></trkpt>
      <trkpt lat="29.710287" lon="98.00232"><time>2026-05-01T02:39:17.305Z</time></trkpt>
      <trkpt lat="29.710287" lon="98.00232"><time>2026-05-01T02:39:17.322Z</time></trkpt>
      <trkpt lat="29.710287" lon="98.00232"><time>2026-05-01T02:39:17.339Z</time></trkpt>
      <trkpt lat="29.710287" lon="98.00232"><time>2026-05-01T02:39:17.355Z</time></trkpt>
      <trkpt lat="29.710287" lon="98.00232"><time>2026-05-01T02:39:17.372Z</time></trkpt>
      <trkpt lat="29.710287" lon="98.00232"><time>2026-05-01T02:39:17.389Z</time></trkpt>
      <trkpt lat="29.710287" lon="98.00232"><time>2026-05-01T02:39:17.406Z</time></trkpt>
      <trkpt lat="29.710287" lon="98.00232"><time>2026-05-01T02:39:17.422Z</time></trkpt>
      <trkpt lat="29.710287" lon="98.00232"><time>2026-05-01T02:39:17.439Z</time></trkpt>
      <trkpt lat="29.710287" lon="98.00232"><time>2026-05-01T02:39:17.456Z</time></trkpt>
      <trkpt lat="29.710287" lon="98.00232"><time>2026-05-01T02:39:17.472Z</time></trkpt>
      <trkpt lat="29.710287" lon="98.00232"><time>2026-05-01T02:39:17.489Z</time></trkpt>
      <trkpt lat="29.710287" lon="98.00232"><time>2026-05-01T02:39:17.506Z</time></trkpt>
      <trkpt lat="29.710287" lon="98.00232"><time>2026-05-01T02:39:17.522Z</time></trkpt>
      <trkpt lat="29.710287" lon="98.00232"><time>2026-05-01T02:39:17.539Z</time></trkpt>
      <trkpt lat="29.710287" lon="98.00232"><time>2026-05-01T02:39:17.556Z</time></trkpt>
      <trkpt lat="29.710287" lon="98.00232"><time>2026-05-01T02:39:17.572Z</time></trkpt>
      <trkpt lat="29.710287" lon="98.00232"><time>2026-05-01T02:39:17.589Z</time></trkpt>
      <trkpt lat="29.710287" lon="98.00232"><time>2026-05-01T02:39:17.606Z</time></trkpt>
      <trkpt lat="29.710287" lon="98.00232"><time>2026-05-01T02:39:17.622Z</time></trkpt>
      <trkpt lat="29.710287" lon="98.00232"><time>2026-05-01T02:39:17.639Z</time></trkpt>
      <trkpt lat="29.710287" lon="98.00232"><time>2026-05-01T02:39:17.656Z</time></trkpt>
      <trkpt lat="29.710287" lon="98.00232"><time>2026-05-01T02:39:17.672Z</time></trkpt>
      <trkpt lat="29.710287" lon="98.00232"><time>2026-05-01T02:39:17.689Z</time></trkpt>
      <trkpt lat="29.710287" lon="98.00232"><time>2026-05-01T02:39:17.706Z</time></trkpt>
      <trkpt lat="29.710287" lon="98.00232"><time>2026-05-01T02:39:17.723Z</time></trkpt>
      <trkpt lat="29.710287" lon="98.00232"><time>2026-05-01T02:39:17.739Z</time></trkpt>
      <trkpt lat="29.710287" lon="98.00232"><time>2026-05-01T02:39:17.756Z</time></trkpt>
      <trkpt lat="29.710287" lon="98.00232"><time>2026-05-01T02:39:17.773Z</time></trkpt>
      <trkpt lat="29.710287" lon="98.00232"><time>2026-05-01T02:39:17.789Z</time></trkpt>
      <trkpt lat="29.710287" lon="98.00232"><time>2026-05-01T02:39:17.806Z</time></trkpt>
      <trkpt lat="29.710287" lon="98.00232"><time>2026-05-01T02:39:17.823Z</time></trkpt>
      <trkpt lat="29.710287" lon="98.00232"><time>2026-05-01T02:39:17.839Z</time></trkpt>
      <trkpt lat="29.710287" lon="98.00232"><time>2026-05-01T02:39:17.856Z</time></trkpt>
      <trkpt lat="29.710287" lon="98.00232"><time>2026-05-01T02:39:17.873Z</time></trkpt>
      <trkpt lat="29.710287" lon="98.00232"><time>2026-05-01T02:39:17.889Z</time></trkpt>
      <trkpt lat="29.710287" lon="98.00232"><time>2026-05-01T02:39:17.906Z</time></trkpt>
      <trkpt lat="29.710287" lon="98.00232"><time>2026-05-01T02:39:17.923Z</time></trkpt>
      <trkpt lat="29.710287" lon="98.00232"><time>2026-05-01T02:39:17.939Z</time></trkpt>
      <trkpt lat="29.710287" lon="98.00232"><time>2026-05-01T02:39:17.956Z</time></trkpt>
      <trkpt lat="29.710287" lon="98.00232"><time>2026-05-01T02:39:17.973Z</time></trkpt>
      <trkpt lat="29.710287" lon="98.00232"><time>2026-05-01T02:39:17.989Z</time></trkpt>
      <trkpt lat="29.710287" lon="98.00232"><time>2026-05-01T02:39:18.006Z</time></trkpt>
      <trkpt lat="29.710287" lon="98.00232"><time>2026-05-01T02:39:18.023Z</time></trkpt>
      <trkpt lat="29.710287" lon="98.00232"><time>2026-05-01T02:39:18.040Z</time></trkpt>
      <trkpt lat="29.710287" lon="98.00232"><time>2026-05-01T02:39:18.056Z</time></trkpt>
      <trkpt lat="29.710287" lon="98.00232"><time>2026-05-01T02:39:18.073Z</time></trkpt>
      <trkpt lat="29.710287" lon="98.00232"><time>2026-05-01T02:39:18.090Z</time></trkpt>
      <trkpt lat="29.710287" lon="98.00232"><time>2026-05-01T02:39:18.106Z</time></trkpt>
      <trkpt lat="29.710287" lon="98.00232"><time>2026-05-01T02:39:18.123Z</time></trkpt>
      <trkpt lat="29.710287" lon="98.00232"><time>2026-05-01T02:39:18.140Z</time></trkpt>
      <trkpt lat="29.710287" lon="98.00232"><time>2026-05-01T02:39:18.156Z</time></trkpt>
      <trkpt lat="29.710287" lon="98.00232"><time>2026-05-01T02:39:18.173Z</time></trkpt>
      <trkpt lat="29.710287" lon="98.00232"><time>2026-05-01T02:39:18.190Z</time></trkpt>
      <trkpt lat="29.710287" lon="98.00232"><time>2026-05-01T02:39:18.206Z</time></trkpt>
      <trkpt lat="29.710287" lon="98.00232"><time>2026-05-01T02:39:18.223Z</time></trkpt>
      <trkpt lat="29.710287" lon="98.00232"><time>2026-05-01T02:39:18.240Z</time></trkpt>
      <trkpt lat="29.710287" lon="98.00232"><time>2026-05-01T02:39:18.256Z</time></trkpt>
      <trkpt lat="29.710287" lon="98.00232"><time>2026-05-01T02:39:18.273Z</time></trkpt>
      <trkpt lat="29.710287" lon="98.00232"><time>2026-05-01T02:39:18.290Z</time></trkpt>
      <trkpt lat="29.710287" lon="98.00232"><time>2026-05-01T02:39:18.306Z</time></trkpt>
      <trkpt lat="29.710287" lon="98.00232"><time>2026-05-01T02:39:18.323Z</time></trkpt>
      <trkpt lat="29.710287" lon="98.00232"><time>2026-05-01T02:39:18.340Z</time></trkpt>
      <trkpt lat="29.710287" lon="98.00232"><time>2026-05-01T02:39:18.357Z</time></trkpt>
      <trkpt lat="29.710287" lon="98.00232"><time>2026-05-01T02:39:18.373Z</time></trkpt>
      <trkpt lat="29.710287" lon="98.00232"><time>2026-05-01T02:39:18.390Z</time></trkpt>
      <trkpt lat="29.710287" lon="98.00232"><time>2026-05-01T02:39:18.407Z</time></trkpt>
      <trkpt lat="29.710287" lon="98.00232"><time>2026-05-01T02:39:18.423Z</time></trkpt>
      <trkpt lat="29.710287" lon="98.00232"><time>2026-05-01T02:39:18.440Z</time></trkpt>
      <trkpt lat="29.710287" lon="98.00232"><time>2026-05-01T02:39:18.457Z</time></trkpt>
      <trkpt lat="29.710287" lon="98.00232"><time>2026-05-01T02:39:18.473Z</time></trkpt>
      <trkpt lat="29.710287" lon="98.00232"><time>2026-05-01T02:39:18.490Z</time></trkpt>
      <trkpt lat="29.710287" lon="98.00232"><time>2026-05-01T02:39:18.507Z</time></trkpt>
      <trkpt lat="29.710287" lon="98.00232"><time>2026-05-01T02:39:18.523Z</time></trkpt>
      <trkpt lat="29.710287" lon="98.00232"><time>2026-05-01T02:39:18.540Z</time></trkpt>
      <trkpt lat="29.710287" lon="98.00232"><time>2026-05-01T02:39:18.557Z</time></trkpt>
      <trkpt lat="29.710287" lon="98.00232"><time>2026-05-01T02:39:18.573Z</time></trkpt>
      <trkpt lat="29.710287" lon="98.002319"><time>2026-05-01T02:39:18.590Z</time></trkpt>
      <trkpt lat="29.710287" lon="98.002319"><time>2026-05-01T02:39:18.607Z</time></trkpt>
      <trkpt lat="29.710287" lon="98.002319"><time>2026-05-01T02:39:18.623Z</time></trkpt>
      <trkpt lat="29.710287" lon="98.002319"><time>2026-05-01T02:39:18.640Z</time></trkpt>
      <trkpt lat="29.710287" lon="98.002319"><time>2026-05-01T02:39:18.657Z</time></trkpt>
      <trkpt lat="29.710287" lon="98.002319"><time>2026-05-01T02:39:18.674Z</time></trkpt>
      <trkpt lat="29.710287" lon="98.002319"><time>2026-05-01T02:39:18.690Z</time></trkpt>
      <trkpt lat="29.710287" lon="98.002319"><time>2026-05-01T02:39:18.707Z</time></trkpt>
      <trkpt lat="29.710287" lon="98.002319"><time>2026-05-01T02:39:18.724Z</time></trkpt>
      <trkpt lat="29.710287" lon="98.002319"><time>2026-05-01T02:39:18.740Z</time></trkpt>
      <trkpt lat="29.710287" lon="98.002319"><time>2026-05-01T02:39:18.757Z</time></trkpt>
      <trkpt lat="29.710287" lon="98.002319"><time>2026-05-01T02:39:18.774Z</time></trkpt>
      <trkpt lat="29.710287" lon="98.002319"><time>2026-05-01T02:39:18.790Z</time></trkpt>
      <trkpt lat="29.710287" lon="98.002319"><time>2026-05-01T02:39:18.807Z</time></trkpt>
      <trkpt lat="29.710287" lon="98.002319"><time>2026-05-01T02:39:18.824Z</time></trkpt>
      <trkpt lat="29.710287" lon="98.002319"><time>2026-05-01T02:39:18.840Z</time></trkpt>
      <trkpt lat="29.710287" lon="98.002319"><time>2026-05-01T02:39:18.857Z</time></trkpt>
      <trkpt lat="29.710287" lon="98.002319"><time>2026-05-01T02:39:18.874Z</time></trkpt>
      <trkpt lat="29.710287" lon="98.002319"><time>2026-05-01T02:39:18.890Z</time></trkpt>
      <trkpt lat="29.710287" lon="98.002319"><time>2026-05-01T02:39:18.907Z</time></trkpt>
      <trkpt lat="29.710287" lon="98.002319"><time>2026-05-01T02:39:18.924Z</time></trkpt>
      <trkpt lat="29.710287" lon="98.002319"><time>2026-05-01T02:39:18.940Z</time></trkpt>
      <trkpt lat="29.710287" lon="98.002319"><time>2026-05-01T02:39:18.957Z</time></trkpt>
      <trkpt lat="29.710287" lon="98.002319"><time>2026-05-01T02:39:18.974Z</time></trkpt>
      <trkpt lat="29.710287" lon="98.002319"><time>2026-05-01T02:39:18.990Z</time></trkpt>
      <trkpt lat="29.710287" lon="98.002319"><time>2026-05-01T02:39:19.007Z</time></trkpt>
      <trkpt lat="29.710287" lon="98.002319"><time>2026-05-01T02:39:19.024Z</time></trkpt>
      <trkpt lat="29.710287" lon="98.002319"><time>2026-05-01T02:39:19.041Z</time></trkpt>
      <trkpt lat="29.710287" lon="98.002319"><time>2026-05-01T02:39:19.057Z</time></trkpt>
      <trkpt lat="29.710287" lon="98.002319"><time>2026-05-01T02:39:19.074Z</time></trkpt>
      <trkpt lat="29.710287" lon="98.002319"><time>2026-05-01T02:39:19.091Z</time></trkpt>
      <trkpt lat="29.710287" lon="98.002319"><time>2026-05-01T02:39:19.107Z</time></trkpt>
      <trkpt lat="29.710287" lon="98.002319"><time>2026-05-01T02:39:19.124Z</time></trkpt>
      <trkpt lat="29.710287" lon="98.002319"><time>2026-05-01T02:39:19.141Z</time></trkpt>
      <trkpt lat="29.710287" lon="98.002319"><time>2026-05-01T02:39:19.157Z</time></trkpt>
      <trkpt lat="29.710287" lon="98.002319"><time>2026-05-01T02:39:19.174Z</time></trkpt>
      <trkpt lat="29.710287" lon="98.002319"><time>2026-05-01T02:39:19.191Z</time></trkpt>
      <trkpt lat="29.710287" lon="98.002319"><time>2026-05-01T02:39:19.207Z</time></trkpt>
      <trkpt lat="29.710287" lon="98.002319"><time>2026-05-01T02:39:19.224Z</time></trkpt>
      <trkpt lat="29.710287" lon="98.002319"><time>2026-05-01T02:39:19.241Z</time></trkpt>
      <trkpt lat="29.710287" lon="98.002319"><time>2026-05-01T02:39:19.257Z</time></trkpt>
      <trkpt lat="29.710287" lon="98.002319"><time>2026-05-01T02:39:19.274Z</time></trkpt>
      <trkpt lat="29.710287" lon="98.002319"><time>2026-05-01T02:39:19.291Z</time></trkpt>
      <trkpt lat="29.710287" lon="98.002319"><time>2026-05-01T02:39:19.307Z</time></trkpt>
      <trkpt lat="29.710287" lon="98.002319"><time>2026-05-01T02:39:19.324Z</time></trkpt>
      <trkpt lat="29.710287" lon="98.002319"><time>2026-05-01T02:39:19.341Z</time></trkpt>
      <trkpt lat="29.710287" lon="98.002319"><time>2026-05-01T02:39:19.358Z</time></trkpt>
      <trkpt lat="29.710287" lon="98.002319"><time>2026-05-01T02:39:19.374Z</time></trkpt>
      <trkpt lat="29.710288" lon="98.002319"><time>2026-05-01T02:39:19.391Z</time></trkpt>
      <trkpt lat="29.710288" lon="98.002319"><time>2026-05-01T02:39:19.408Z</time></trkpt>
      <trkpt lat="29.710288" lon="98.002319"><time>2026-05-01T02:39:19.424Z</time></trkpt>
      <trkpt lat="29.710288" lon="98.002319"><time>2026-05-01T02:39:19.441Z</time></trkpt>
      <trkpt lat="29.710288" lon="98.002319"><time>2026-05-01T02:39:19.458Z</time></trkpt>
      <trkpt lat="29.710288" lon="98.002319"><time>2026-05-01T02:39:19.474Z</time></trkpt>
      <trkpt lat="29.710288" lon="98.002319"><time>2026-05-01T02:39:19.491Z</time></trkpt>
      <trkpt lat="29.710288" lon="98.002319"><time>2026-05-01T02:39:19.508Z</time></trkpt>
      <trkpt lat="29.710288" lon="98.002319"><time>2026-05-01T02:39:19.524Z</time></trkpt>
      <trkpt lat="29.710288" lon="98.002319"><time>2026-05-01T02:39:19.541Z</time></trkpt>
      <trkpt lat="29.710288" lon="98.002319"><time>2026-05-01T02:39:19.558Z</time></trkpt>
      <trkpt lat="29.710288" lon="98.002319"><time>2026-05-01T02:39:19.574Z</time></trkpt>
      <trkpt lat="29.710288" lon="98.002319"><time>2026-05-01T02:39:19.591Z</time></trkpt>
      <trkpt lat="29.710288" lon="98.002319"><time>2026-05-01T02:39:19.608Z</time></trkpt>
      <trkpt lat="29.710288" lon="98.002319"><time>2026-05-01T02:39:19.624Z</time></trkpt>
      <trkpt lat="29.710288" lon="98.002319"><time>2026-05-01T02:39:19.641Z</time></trkpt>
      <trkpt lat="29.710288" lon="98.002319"><time>2026-05-01T02:39:19.658Z</time></trkpt>
      <trkpt lat="29.710288" lon="98.002319"><time>2026-05-01T02:39:19.675Z</time></trkpt>
      <trkpt lat="29.710288" lon="98.002319"><time>2026-05-01T02:39:19.691Z</time></trkpt>
      <trkpt lat="29.710288" lon="98.002319"><time>2026-05-01T02:39:19.708Z</time></trkpt>
      <trkpt lat="29.710288" lon="98.002319"><time>2026-05-01T02:39:19.725Z</time></trkpt>
      <trkpt lat="29.710288" lon="98.002319"><time>2026-05-01T02:39:19.741Z</time></trkpt>
      <trkpt lat="29.710288" lon="98.002319"><time>2026-05-01T02:39:19.758Z</time></trkpt>
      <trkpt lat="29.710288" lon="98.002319"><time>2026-05-01T02:39:19.775Z</time></trkpt>
      <trkpt lat="29.710288" lon="98.002319"><time>2026-05-01T02:39:19.791Z</time></trkpt>
      <trkpt lat="29.710288" lon="98.002319"><time>2026-05-01T02:39:19.808Z</time></trkpt>
      <trkpt lat="29.710288" lon="98.002319"><time>2026-05-01T02:39:19.825Z</time></trkpt>
      <trkpt lat="29.710288" lon="98.002319"><time>2026-05-01T02:39:19.841Z</time></trkpt>
      <trkpt lat="29.710288" lon="98.002319"><time>2026-05-01T02:39:19.858Z</time></trkpt>
      <trkpt lat="29.710288" lon="98.002319"><time>2026-05-01T02:39:19.875Z</time></trkpt>
      <trkpt lat="29.710288" lon="98.002319"><time>2026-05-01T02:39:19.891Z</time></trkpt>
      <trkpt lat="29.710288" lon="98.002319"><time>2026-05-01T02:39:19.908Z</time></trkpt>
      <trkpt lat="29.710288" lon="98.002319"><time>2026-05-01T02:39:19.925Z</time></trkpt>
      <trkpt lat="29.710288" lon="98.002319"><time>2026-05-01T02:39:19.941Z</time></trkpt>
      <trkpt lat="29.710288" lon="98.002319"><time>2026-05-01T02:39:19.958Z</time></trkpt>
      <trkpt lat="29.710288" lon="98.002319"><time>2026-05-01T02:39:19.975Z</time></trkpt>
      <trkpt lat="29.710288" lon="98.002319"><time>2026-05-01T02:39:19.992Z</time></trkpt>
      <trkpt lat="29.710288" lon="98.002319"><time>2026-05-01T02:39:20.008Z</time></trkpt>
      <trkpt lat="29.710288" lon="98.002319"><time>2026-05-01T02:39:20.025Z</time></trkpt>
      <trkpt lat="29.710288" lon="98.002319"><time>2026-05-01T02:39:20.042Z</time></trkpt>
      <trkpt lat="29.710288" lon="98.002319"><time>2026-05-01T02:39:20.058Z</time></trkpt>
      <trkpt lat="29.710288" lon="98.002319"><time>2026-05-01T02:39:20.075Z</time></trkpt>
      <trkpt lat="29.710288" lon="98.002318"><time>2026-05-01T02:39:20.092Z</time></trkpt>
      <trkpt lat="29.710288" lon="98.002318"><time>2026-05-01T02:39:20.108Z</time></trkpt>
      <trkpt lat="29.710288" lon="98.002318"><time>2026-05-01T02:39:20.125Z</time></trkpt>
      <trkpt lat="29.710288" lon="98.002318"><time>2026-05-01T02:39:20.142Z</time></trkpt>
      <trkpt lat="29.710288" lon="98.002318"><time>2026-05-01T02:39:20.158Z</time></trkpt>
      <trkpt lat="29.710288" lon="98.002318"><time>2026-05-01T02:39:20.175Z</time></trkpt>
      <trkpt lat="29.710288" lon="98.002318"><time>2026-05-01T02:39:20.192Z</time></trkpt>
      <trkpt lat="29.710288" lon="98.002318"><time>2026-05-01T02:39:20.208Z</time></trkpt>
      <trkpt lat="29.710288" lon="98.002318"><time>2026-05-01T02:39:20.225Z</time></trkpt>
      <trkpt lat="29.710288" lon="98.002318"><time>2026-05-01T02:39:20.242Z</time></trkpt>
      <trkpt lat="29.710288" lon="98.002318"><time>2026-05-01T02:39:20.258Z</time></trkpt>
      <trkpt lat="29.710288" lon="98.002318"><time>2026-05-01T02:39:20.275Z</time></trkpt>
      <trkpt lat="29.710288" lon="98.002318"><time>2026-05-01T02:39:20.292Z</time></trkpt>
      <trkpt lat="29.710288" lon="98.002318"><time>2026-05-01T02:39:20.309Z</time></trkpt>
      <trkpt lat="29.710288" lon="98.002318"><time>2026-05-01T02:39:20.325Z</time></trkpt>
      <trkpt lat="29.710288" lon="98.002318"><time>2026-05-01T02:39:20.342Z</time></trkpt>
      <trkpt lat="29.710288" lon="98.002318"><time>2026-05-01T02:39:20.359Z</time></trkpt>
    </trkseg>
  </trk>
</gpx>
