<?xml version="1.0" encoding="UTF-8"?>
<gpx version="1.1" creator="Kairos" xmlns="http://www.topografix.com/GPX/1/1">
  <trk>
    <name>sidecar-srt-c6e2504fb583f043</name>
    <trkseg>
      <trkpt lat="26.560366" lon="98.901965"><time>2026-04-28T00:42:23.000Z</time></trkpt>
      <trkpt lat="26.560366" lon="98.901965"><time>2026-04-28T00:42:23.016Z</time></trkpt>
      <trkpt lat="26.560366" lon="98.901965"><time>2026-04-28T00:42:23.032Z</time></trkpt>
      <trkpt lat="26.560366" lon="98.901965"><time>2026-04-28T00:42:23.049Z</time></trkpt>
      <trkpt lat="26.560366" lon="98.901965"><time>2026-04-28T00:42:23.066Z</time></trkpt>
      <trkpt lat="26.560366" lon="98.901965"><time>2026-04-28T00:42:23.082Z</time></trkpt>
      <trkpt lat="26.560366" lon="98.901965"><time>2026-04-28T00:42:23.099Z</time></trkpt>
      <trkpt lat="26.560368" lon="98.90195"><time>2026-04-28T00:42:23.116Z</time></trkpt>
      <trkpt lat="26.560368" lon="98.90195"><time>2026-04-28T00:42:23.132Z</time></trkpt>
      <trkpt lat="26.560368" lon="98.90195"><time>2026-04-28T00:42:23.149Z</time></trkpt>
      <trkpt lat="26.560368" lon="98.90195"><time>2026-04-28T00:42:23.166Z</time></trkpt>
      <trkpt lat="26.560368" lon="98.90195"><time>2026-04-28T00:42:23.182Z</time></trkpt>
      <trkpt lat="26.560368" lon="98.90195"><time>2026-04-28T00:42:23.199Z</time></trkpt>
      <trkpt lat="26.560371" lon="98.901935"><time>2026-04-28T00:42:23.216Z</time></trkpt>
      <trkpt lat="26.560371" lon="98.901935"><time>2026-04-28T00:42:23.232Z</time></trkpt>
      <trkpt lat="26.560371" lon="98.901935"><time>2026-04-28T00:42:23.249Z</time></trkpt>
      <trkpt lat="26.560371" lon="98.901935"><time>2026-04-28T00:42:23.266Z</time></trkpt>
      <trkpt lat="26.560371" lon="98.901935"><time>2026-04-28T00:42:23.282Z</time></trkpt>
      <trkpt lat="26.560371" lon="98.901935"><time>2026-04-28T00:42:23.299Z</time></trkpt>
      <trkpt lat="26.560373" lon="98.90192"><time>2026-04-28T00:42:23.316Z</time></trkpt>
      <trkpt lat="26.560373" lon="98.90192"><time>2026-04-28T00:42:23.332Z</time></trkpt>
      <trkpt lat="26.560373" lon="98.90192"><time>2026-04-28T00:42:23.349Z</time></trkpt>
      <trkpt lat="26.560373" lon="98.90192"><time>2026-04-28T00:42:23.366Z</time></trkpt>
      <trkpt lat="26.560373" lon="98.90192"><time>2026-04-28T00:42:23.382Z</time></trkpt>
      <trkpt lat="26.560376" lon="98.901904"><time>2026-04-28T00:42:23.399Z</time></trkpt>
      <trkpt lat="26.560376" lon="98.901904"><time>2026-04-28T00:42:23.416Z</time></trkpt>
      <trkpt lat="26.560376" lon="98.901904"><time>2026-04-28T00:42:23.433Z</time></trkpt>
      <trkpt lat="26.560376" lon="98.901904"><time>2026-04-28T00:42:23.449Z</time></trkpt>
      <trkpt lat="26.560376" lon="98.901904"><time>2026-04-28T00:42:23.466Z</time></trkpt>
      <trkpt lat="26.560376" lon="98.901904"><time>2026-04-28T00:42:23.483Z</time></trkpt>
      <trkpt lat="26.560379" lon="98.901887"><time>2026-04-28T00:42:23.499Z</time></trkpt>
      <trkpt lat="26.560379" lon="98.901887"><time>2026-04-28T00:42:23.516Z</time></trkpt>
      <trkpt lat="26.560379" lon="98.901887"><time>2026-04-28T00:42:23.533Z</time></trkpt>
      <trkpt lat="26.560379" lon="98.901887"><time>2026-04-28T00:42:23.549Z</time></trkpt>
      <trkpt lat="26.560379" lon="98.901887"><time>2026-04-28T00:42:23.566Z</time></trkpt>
      <trkpt lat="26.560379" lon="98.901887"><time>2026-04-28T00:42:23.583Z</time></trkpt>
      <trkpt lat="26.560379" lon="98.901887"><time>2026-04-28T00:42:23.599Z</time></trkpt>
      <trkpt lat="26.560381" lon="98.901871"><time>2026-04-28T00:42:23.616Z</time></trkpt>
      <trkpt lat="26.560381" lon="98.901871"><time>2026-04-28T00:42:23.633Z</time></trkpt>
      <trkpt lat="26.560381" lon="98.901871"><time>2026-04-28T00:42:23.649Z</time></trkpt>
      <trkpt lat="26.560381" lon="98.901871"><time>2026-04-28T00:42:23.666Z</time></trkpt>
      <trkpt lat="26.560381" lon="98.901871"><time>2026-04-28T00:42:23.683Z</time></trkpt>
      <trkpt lat="26.560384" lon="98.901856"><time>2026-04-28T00:42:23.699Z</time></trkpt>
      <trkpt lat="26.560384" lon="98.901856"><time>2026-04-28T00:42:23.716Z</time></trkpt>
      <trkpt lat="26.560384" lon="98.901856"><time>2026-04-28T00:42:23.733Z</time></trkpt>
      <trkpt lat="26.560384" lon="98.901856"><time>2026-04-28T00:42:23.749Z</time></trkpt>
      <trkpt lat="26.560384" lon="98.901856"><time>2026-04-28T00:42:23.766Z</time></trkpt>
      <trkpt lat="26.560384" lon="98.901856"><time>2026-04-28T00:42:23.783Z</time></trkpt>
      <trkpt lat="26.560387" lon="98.90184"><time>2026-04-28T00:42:23.799Z</time></trkpt>
      <trkpt lat="26.560387" lon="98.90184"><time>2026-04-28T00:42:23.816Z</time></trkpt>
      <trkpt lat="26.560387" lon="98.90184"><time>2026-04-28T00:42:23.833Z</time></trkpt>
      <trkpt lat="26.560387" lon="98.90184"><time>2026-04-28T00:42:23.850Z</time></trkpt>
      <trkpt lat="26.560387" lon="98.90184"><time>2026-04-28T00:42:23.866Z</time></trkpt>
      <trkpt lat="26.560387" lon="98.90184"><time>2026-04-28T00:42:23.883Z</time></trkpt>
      <trkpt lat="26.56039" lon="98.901824"><time>2026-04-28T00:42:23.900Z</time></trkpt>
      <trkpt lat="26.56039" lon="98.901824"><time>2026-04-28T00:42:23.916Z</time></trkpt>
      <trkpt lat="26.56039" lon="98.901824"><time>2026-04-28T00:42:23.933Z</time></trkpt>
      <trkpt lat="26.56039" lon="98.901824"><time>2026-04-28T00:42:23.950Z</time></trkpt>
      <trkpt lat="26.56039" lon="98.901824"><time>2026-04-28T00:42:23.966Z</time></trkpt>
      <trkpt lat="26.56039" lon="98.901824"><time>2026-04-28T00:42:23.983Z</time></trkpt>
      <trkpt lat="26.560393" lon="98.901809"><time>2026-04-28T00:42:24.000Z</time></trkpt>
      <trkpt lat="26.560393" lon="98.901809"><time>2026-04-28T00:42:24.016Z</time></trkpt>
      <trkpt lat="26.560393" lon="98.901809"><time>2026-04-28T00:42:24.033Z</time></trkpt>
      <trkpt lat="26.560393" lon="98.901809"><time>2026-04-28T00:42:24.050Z</time></trkpt>
      <trkpt lat="26.560393" lon="98.901809"><time>2026-04-28T00:42:24.066Z</time></trkpt>
      <trkpt lat="26.560393" lon="98.901809"><time>2026-04-28T00:42:24.083Z</time></trkpt>
      <trkpt lat="26.560396" lon="98.901793"><time>2026-04-28T00:42:24.100Z</time></trkpt>
      <trkpt lat="26.560396" lon="98.901793"><time>2026-04-28T00:42:24.116Z</time></trkpt>
      <trkpt lat="26.560396" lon="98.901793"><time>2026-04-28T00:42:24.133Z</time></trkpt>
      <trkpt lat="26.560396" lon="98.901793"><time>2026-04-28T00:42:24.150Z</time></trkpt>
      <trkpt lat="26.560396" lon="98.901793"><time>2026-04-28T00:42:24.166Z</time></trkpt>
      <trkpt lat="26.560396" lon="98.901793"><time>2026-04-28T00:42:24.183Z</time></trkpt>
      <trkpt lat="26.560398" lon="98.901777"><time>2026-04-28T00:42:24.200Z</time></trkpt>
      <trkpt lat="26.560398" lon="98.901777"><time>2026-04-28T00:42:24.216Z</time></trkpt>
      <trkpt lat="26.560398" lon="98.901777"><time>2026-04-28T00:42:24.233Z</time></trkpt>
      <trkpt lat="26.560398" lon="98.901777"><time>2026-04-28T00:42:24.250Z</time></trkpt>
      <trkpt lat="26.560398" lon="98.901777"><time>2026-04-28T00:42:24.267Z</time></trkpt>
      <trkpt lat="26.560398" lon="98.901777"><time>2026-04-28T00:42:24.283Z</time></trkpt>
      <trkpt lat="26.560401" lon="98.901762"><time>2026-04-28T00:42:24.300Z</time></trkpt>
      <trkpt lat="26.560401" lon="98.901762"><time>2026-04-28T00:42:24.317Z</time></trkpt>
      <trkpt lat="26.560401" lon="98.901762"><time>2026-04-28T00:42:24.333Z</time></trkpt>
      <trkpt lat="26.560401" lon="98.901762"><time>2026-04-28T00:42:24.350Z</time></trkpt>
      <trkpt lat="26.560401" lon="98.901762"><time>2026-04-28T00:42:24.367Z</time></trkpt>
      <trkpt lat="26.560401" lon="98.901762"><time>2026-04-28T00:42:24.383Z</time></trkpt>
      <trkpt lat="26.560404" lon="98.901746"><time>2026-04-28T00:42:24.400Z</time></trkpt>
      <trkpt lat="26.560404" lon="98.901746"><time>2026-04-28T00:42:24.417Z</time></trkpt>
      <trkpt lat="26.560404" lon="98.901746"><time>2026-04-28T00:42:24.433Z</time></trkpt>
      <trkpt lat="26.560404" lon="98.901746"><time>2026-04-28T00:42:24.450Z</time></trkpt>
      <trkpt lat="26.560404" lon="98.901746"><time>2026-04-28T00:42:24.467Z</time></trkpt>
      <trkpt lat="26.560404" lon="98.901746"><time>2026-04-28T00:42:24.483Z</time></trkpt>
      <trkpt lat="26.560407" lon="98.90173"><time>2026-04-28T00:42:24.500Z</time></trkpt>
      <trkpt lat="26.560407" lon="98.90173"><time>2026-04-28T00:42:24.517Z</time></trkpt>
      <trkpt lat="26.560407" lon="98.90173"><time>2026-04-28T00:42:24.533Z</time></trkpt>
      <trkpt lat="26.560407" lon="98.90173"><time>2026-04-28T00:42:24.550Z</time></trkpt>
      <trkpt lat="26.560407" lon="98.90173"><time>2026-04-28T00:42:24.567Z</time></trkpt>
      <trkpt lat="26.560407" lon="98.90173"><time>2026-04-28T00:42:24.583Z</time></trkpt>
      <trkpt lat="26.56041" lon="98.901715"><time>2026-04-28T00:42:24.600Z</time></trkpt>
      <trkpt lat="26.56041" lon="98.901715"><time>2026-04-28T00:42:24.617Z</time></trkpt>
      <trkpt lat="26.56041" lon="98.901715"><time>2026-04-28T00:42:24.633Z</time></trkpt>
      <trkpt lat="26.56041" lon="98.901715"><time>2026-04-28T00:42:24.650Z</time></trkpt>
      <trkpt lat="26.56041" lon="98.901715"><time>2026-04-28T00:42:24.667Z</time></trkpt>
      <trkpt lat="26.56041" lon="98.901715"><time>2026-04-28T00:42:24.684Z</time></trkpt>
      <trkpt lat="26.560413" lon="98.901699"><time>2026-04-28T00:42:24.700Z</time></trkpt>
      <trkpt lat="26.560413" lon="98.901699"><time>2026-04-28T00:42:24.717Z</time></trkpt>
      <trkpt lat="26.560413" lon="98.901699"><time>2026-04-28T00:42:24.734Z</time></trkpt>
      <trkpt lat="26.560413" lon="98.901699"><time>2026-04-28T00:42:24.750Z</time></trkpt>
      <trkpt lat="26.560413" lon="98.901699"><time>2026-04-28T00:42:24.767Z</time></trkpt>
      <trkpt lat="26.560413" lon="98.901699"><time>2026-04-28T00:42:24.784Z</time></trkpt>
      <trkpt lat="26.560416" lon="98.901683"><time>2026-04-28T00:42:24.800Z</time></trkpt>
      <trkpt lat="26.560416" lon="98.901683"><time>2026-04-28T00:42:24.817Z</time></trkpt>
      <trkpt lat="26.560416" lon="98.901683"><time>2026-04-28T00:42:24.834Z</time></trkpt>
      <trkpt lat="26.560416" lon="98.901683"><time>2026-04-28T00:42:24.850Z</time></trkpt>
      <trkpt lat="26.560416" lon="98.901683"><time>2026-04-28T00:42:24.867Z</time></trkpt>
      <trkpt lat="26.560416" lon="98.901683"><time>2026-04-28T00:42:24.884Z</time></trkpt>
      <trkpt lat="26.560419" lon="98.901668"><time>2026-04-28T00:42:24.900Z</time></trkpt>
      <trkpt lat="26.560419" lon="98.901668"><time>2026-04-28T00:42:24.917Z</time></trkpt>
      <trkpt lat="26.560419" lon="98.901668"><time>2026-04-28T00:42:24.934Z</time></trkpt>
      <trkpt lat="26.560419" lon="98.901668"><time>2026-04-28T00:42:24.950Z</time></trkpt>
      <trkpt lat="26.560419" lon="98.901668"><time>2026-04-28T00:42:24.967Z</time></trkpt>
      <trkpt lat="26.560419" lon="98.901668"><time>2026-04-28T00:42:24.984Z</time></trkpt>
      <trkpt lat="26.560421" lon="98.901652"><time>2026-04-28T00:42:25.000Z</time></trkpt>
      <trkpt lat="26.560421" lon="98.901652"><time>2026-04-28T00:42:25.017Z</time></trkpt>
      <trkpt lat="26.560421" lon="98.901652"><time>2026-04-28T00:42:25.034Z</time></trkpt>
      <trkpt lat="26.560421" lon="98.901652"><time>2026-04-28T00:42:25.050Z</time></trkpt>
      <trkpt lat="26.560421" lon="98.901652"><time>2026-04-28T00:42:25.067Z</time></trkpt>
      <trkpt lat="26.560421" lon="98.901652"><time>2026-04-28T00:42:25.084Z</time></trkpt>
      <trkpt lat="26.560424" lon="98.901636"><time>2026-04-28T00:42:25.101Z</time></trkpt>
      <trkpt lat="26.560424" lon="98.901636"><time>2026-04-28T00:42:25.117Z</time></trkpt>
      <trkpt lat="26.560424" lon="98.901636"><time>2026-04-28T00:42:25.134Z</time></trkpt>
      <trkpt lat="26.560424" lon="98.901636"><time>2026-04-28T00:42:25.151Z</time></trkpt>
      <trkpt lat="26.560424" lon="98.901636"><time>2026-04-28T00:42:25.167Z</time></trkpt>
      <trkpt lat="26.560424" lon="98.901636"><time>2026-04-28T00:42:25.184Z</time></trkpt>
      <trkpt lat="26.560427" lon="98.90162"><time>2026-04-28T00:42:25.201Z</time></trkpt>
      <trkpt lat="26.560427" lon="98.90162"><time>2026-04-28T00:42:25.217Z</time></trkpt>
      <trkpt lat="26.560427" lon="98.90162"><time>2026-04-28T00:42:25.234Z</time></trkpt>
      <trkpt lat="26.560427" lon="98.90162"><time>2026-04-28T00:42:25.251Z</time></trkpt>
      <trkpt lat="26.560427" lon="98.90162"><time>2026-04-28T00:42:25.267Z</time></trkpt>
      <trkpt lat="26.560427" lon="98.90162"><time>2026-04-28T00:42:25.284Z</time></trkpt>
      <trkpt lat="26.56043" lon="98.901605"><time>2026-04-28T00:42:25.301Z</time></trkpt>
      <trkpt lat="26.56043" lon="98.901605"><time>2026-04-28T00:42:25.317Z</time></trkpt>
      <trkpt lat="26.56043" lon="98.901605"><time>2026-04-28T00:42:25.334Z</time></trkpt>
      <trkpt lat="26.56043" lon="98.901605"><time>2026-04-28T00:42:25.351Z</time></trkpt>
      <trkpt lat="26.56043" lon="98.901605"><time>2026-04-28T00:42:25.367Z</time></trkpt>
      <trkpt lat="26.56043" lon="98.901605"><time>2026-04-28T00:42:25.384Z</time></trkpt>
      <trkpt lat="26.560433" lon="98.901589"><time>2026-04-28T00:42:25.401Z</time></trkpt>
      <trkpt lat="26.560433" lon="98.901589"><time>2026-04-28T00:42:25.417Z</time></trkpt>
      <trkpt lat="26.560433" lon="98.901589"><time>2026-04-28T00:42:25.434Z</time></trkpt>
      <trkpt lat="26.560433" lon="98.901589"><time>2026-04-28T00:42:25.451Z</time></trkpt>
      <trkpt lat="26.560433" lon="98.901589"><time>2026-04-28T00:42:25.467Z</time></trkpt>
      <trkpt lat="26.560433" lon="98.901589"><time>2026-04-28T00:42:25.484Z</time></trkpt>
      <trkpt lat="26.560436" lon="98.901573"><time>2026-04-28T00:42:25.501Z</time></trkpt>
      <trkpt lat="26.560436" lon="98.901573"><time>2026-04-28T00:42:25.518Z</time></trkpt>
      <trkpt lat="26.560436" lon="98.901573"><time>2026-04-28T00:42:25.534Z</time></trkpt>
      <trkpt lat="26.560436" lon="98.901573"><time>2026-04-28T00:42:25.551Z</time></trkpt>
      <trkpt lat="26.560436" lon="98.901573"><time>2026-04-28T00:42:25.568Z</time></trkpt>
      <trkpt lat="26.560436" lon="98.901573"><time>2026-04-28T00:42:25.584Z</time></trkpt>
      <trkpt lat="26.560439" lon="98.901558"><time>2026-04-28T00:42:25.601Z</time></trkpt>
      <trkpt lat="26.560439" lon="98.901558"><time>2026-04-28T00:42:25.618Z</time></trkpt>
      <trkpt lat="26.560439" lon="98.901558"><time>2026-04-28T00:42:25.634Z</time></trkpt>
      <trkpt lat="26.560439" lon="98.901558"><time>2026-04-28T00:42:25.651Z</time></trkpt>
      <trkpt lat="26.560439" lon="98.901558"><time>2026-04-28T00:42:25.668Z</time></trkpt>
      <trkpt lat="26.560439" lon="98.901558"><time>2026-04-28T00:42:25.684Z</time></trkpt>
      <trkpt lat="26.560441" lon="98.901542"><time>2026-04-28T00:42:25.701Z</time></trkpt>
      <trkpt lat="26.560441" lon="98.901542"><time>2026-04-28T00:42:25.718Z</time></trkpt>
      <trkpt lat="26.560441" lon="98.901542"><time>2026-04-28T00:42:25.734Z</time></trkpt>
      <trkpt lat="26.560441" lon="98.901542"><time>2026-04-28T00:42:25.751Z</time></trkpt>
      <trkpt lat="26.560441" lon="98.901542"><time>2026-04-28T00:42:25.768Z</time></trkpt>
      <trkpt lat="26.560441" lon="98.901542"><time>2026-04-28T00:42:25.784Z</time></trkpt>
      <trkpt lat="26.560444" lon="98.901526"><time>2026-04-28T00:42:25.801Z</time></trkpt>
      <trkpt lat="26.560444" lon="98.901526"><time>2026-04-28T00:42:25.818Z</time></trkpt>
      <trkpt lat="26.560444" lon="98.901526"><time>2026-04-28T00:42:25.834Z</time></trkpt>
      <trkpt lat="26.560444" lon="98.901526"><time>2026-04-28T00:42:25.851Z</time></trkpt>
      <trkpt lat="26.560444" lon="98.901526"><time>2026-04-28T00:42:25.868Z</time></trkpt>
      <trkpt lat="26.560444" lon="98.901526"><time>2026-04-28T00:42:25.884Z</time></trkpt>
      <trkpt lat="26.560447" lon="98.90151"><time>2026-04-28T00:42:25.901Z</time></trkpt>
      <trkpt lat="26.560447" lon="98.90151"><time>2026-04-28T00:42:25.918Z</time></trkpt>
      <trkpt lat="26.560447" lon="98.90151"><time>2026-04-28T00:42:25.935Z</time></trkpt>
      <trkpt lat="26.560447" lon="98.90151"><time>2026-04-28T00:42:25.951Z</time></trkpt>
      <trkpt lat="26.560447" lon="98.90151"><time>2026-04-28T00:42:25.968Z</time></trkpt>
      <trkpt lat="26.560447" lon="98.90151"><time>2026-04-28T00:42:25.985Z</time></trkpt>
      <trkpt lat="26.56045" lon="98.901494"><time>2026-04-28T00:42:26.001Z</time></trkpt>
      <trkpt lat="26.56045" lon="98.901494"><time>2026-04-28T00:42:26.018Z</time></trkpt>
      <trkpt lat="26.56045" lon="98.901494"><time>2026-04-28T00:42:26.035Z</time></trkpt>
      <trkpt lat="26.56045" lon="98.901494"><time>2026-04-28T00:42:26.051Z</time></trkpt>
      <trkpt lat="26.56045" lon="98.901494"><time>2026-04-28T00:42:26.068Z</time></trkpt>
      <trkpt lat="26.56045" lon="98.901494"><time>2026-04-28T00:42:26.085Z</time></trkpt>
      <trkpt lat="26.560453" lon="98.901478"><time>2026-04-28T00:42:26.101Z</time></trkpt>
      <trkpt lat="26.560453" lon="98.901478"><time>2026-04-28T00:42:26.118Z</time></trkpt>
      <trkpt lat="26.560453" lon="98.901478"><time>2026-04-28T00:42:26.135Z</time></trkpt>
      <trkpt lat="26.560453" lon="98.901478"><time>2026-04-28T00:42:26.151Z</time></trkpt>
      <trkpt lat="26.560453" lon="98.901478"><time>2026-04-28T00:42:26.168Z</time></trkpt>
      <trkpt lat="26.560453" lon="98.901478"><time>2026-04-28T00:42:26.185Z</time></trkpt>
      <trkpt lat="26.560456" lon="98.901463"><time>2026-04-28T00:42:26.201Z</time></trkpt>
      <trkpt lat="26.560456" lon="98.901463"><time>2026-04-28T00:42:26.218Z</time></trkpt>
      <trkpt lat="26.560456" lon="98.901463"><time>2026-04-28T00:42:26.235Z</time></trkpt>
      <trkpt lat="26.560456" lon="98.901463"><time>2026-04-28T00:42:26.251Z</time></trkpt>
      <trkpt lat="26.560456" lon="98.901463"><time>2026-04-28T00:42:26.268Z</time></trkpt>
      <trkpt lat="26.560456" lon="98.901463"><time>2026-04-28T00:42:26.285Z</time></trkpt>
      <trkpt lat="26.560459" lon="98.901447"><time>2026-04-28T00:42:26.301Z</time></trkpt>
      <trkpt lat="26.560459" lon="98.901447"><time>2026-04-28T00:42:26.318Z</time></trkpt>
      <trkpt lat="26.560459" lon="98.901447"><time>2026-04-28T00:42:26.335Z</time></trkpt>
      <trkpt lat="26.560459" lon="98.901447"><time>2026-04-28T00:42:26.352Z</time></trkpt>
      <trkpt lat="26.560459" lon="98.901447"><time>2026-04-28T00:42:26.368Z</time></trkpt>
      <trkpt lat="26.560459" lon="98.901447"><time>2026-04-28T00:42:26.385Z</time></trkpt>
      <trkpt lat="26.560462" lon="98.901431"><time>2026-04-28T00:42:26.402Z</time></trkpt>
      <trkpt lat="26.560462" lon="98.901431"><time>2026-04-28T00:42:26.418Z</time></trkpt>
      <trkpt lat="26.560462" lon="98.901431"><time>2026-04-28T00:42:26.435Z</time></trkpt>
      <trkpt lat="26.560462" lon="98.901431"><time>2026-04-28T00:42:26.452Z</time></trkpt>
      <trkpt lat="26.560462" lon="98.901431"><time>2026-04-28T00:42:26.468Z</time></trkpt>
      <trkpt lat="26.560462" lon="98.901431"><time>2026-04-28T00:42:26.485Z</time></trkpt>
      <trkpt lat="26.560465" lon="98.901415"><time>2026-04-28T00:42:26.502Z</time></trkpt>
      <trkpt lat="26.560465" lon="98.901415"><time>2026-04-28T00:42:26.518Z</time></trkpt>
      <trkpt lat="26.560465" lon="98.901415"><time>2026-04-28T00:42:26.535Z</time></trkpt>
      <trkpt lat="26.560465" lon="98.901415"><time>2026-04-28T00:42:26.552Z</time></trkpt>
      <trkpt lat="26.560465" lon="98.901415"><time>2026-04-28T00:42:26.568Z</time></trkpt>
      <trkpt lat="26.560465" lon="98.901415"><time>2026-04-28T00:42:26.585Z</time></trkpt>
      <trkpt lat="26.560468" lon="98.901399"><time>2026-04-28T00:42:26.602Z</time></trkpt>
      <trkpt lat="26.560468" lon="98.901399"><time>2026-04-28T00:42:26.618Z</time></trkpt>
      <trkpt lat="26.560468" lon="98.901399"><time>2026-04-28T00:42:26.635Z</time></trkpt>
      <trkpt lat="26.560468" lon="98.901399"><time>2026-04-28T00:42:26.652Z</time></trkpt>
      <trkpt lat="26.560468" lon="98.901399"><time>2026-04-28T00:42:26.668Z</time></trkpt>
      <trkpt lat="26.560468" lon="98.901399"><time>2026-04-28T00:42:26.685Z</time></trkpt>
      <trkpt lat="26.56047" lon="98.901383"><time>2026-04-28T00:42:26.702Z</time></trkpt>
      <trkpt lat="26.56047" lon="98.901383"><time>2026-04-28T00:42:26.718Z</time></trkpt>
      <trkpt lat="26.56047" lon="98.901383"><time>2026-04-28T00:42:26.735Z</time></trkpt>
      <trkpt lat="26.56047" lon="98.901383"><time>2026-04-28T00:42:26.752Z</time></trkpt>
      <trkpt lat="26.56047" lon="98.901383"><time>2026-04-28T00:42:26.769Z</time></trkpt>
      <trkpt lat="26.56047" lon="98.901383"><time>2026-04-28T00:42:26.785Z</time></trkpt>
      <trkpt lat="26.560473" lon="98.901367"><time>2026-04-28T00:42:26.802Z</time></trkpt>
      <trkpt lat="26.560473" lon="98.901367"><time>2026-04-28T00:42:26.819Z</time></trkpt>
      <trkpt lat="26.560473" lon="98.901367"><time>2026-04-28T00:42:26.835Z</time></trkpt>
      <trkpt lat="26.560473" lon="98.901367"><time>2026-04-28T00:42:26.852Z</time></trkpt>
      <trkpt lat="26.560473" lon="98.901367"><time>2026-04-28T00:42:26.869Z</time></trkpt>
      <trkpt lat="26.560473" lon="98.901367"><time>2026-04-28T00:42:26.885Z</time></trkpt>
      <trkpt lat="26.560476" lon="98.901351"><time>2026-04-28T00:42:26.902Z</time></trkpt>
      <trkpt lat="26.560476" lon="98.901351"><time>2026-04-28T00:42:26.919Z</time></trkpt>
      <trkpt lat="26.560476" lon="98.901351"><time>2026-04-28T00:42:26.935Z</time></trkpt>
      <trkpt lat="26.560476" lon="98.901351"><time>2026-04-28T00:42:26.952Z</time></trkpt>
      <trkpt lat="26.560476" lon="98.901351"><time>2026-04-28T00:42:26.969Z</time></trkpt>
      <trkpt lat="26.560476" lon="98.901351"><time>2026-04-28T00:42:26.985Z</time></trkpt>
      <trkpt lat="26.560479" lon="98.901335"><time>2026-04-28T00:42:27.002Z</time></trkpt>
      <trkpt lat="26.560479" lon="98.901335"><time>2026-04-28T00:42:27.019Z</time></trkpt>
      <trkpt lat="26.560479" lon="98.901335"><time>2026-04-28T00:42:27.035Z</time></trkpt>
      <trkpt lat="26.560479" lon="98.901335"><time>2026-04-28T00:42:27.052Z</time></trkpt>
      <trkpt lat="26.560479" lon="98.901335"><time>2026-04-28T00:42:27.069Z</time></trkpt>
      <trkpt lat="26.560479" lon="98.901335"><time>2026-04-28T00:42:27.085Z</time></trkpt>
      <trkpt lat="26.560482" lon="98.901319"><time>2026-04-28T00:42:27.102Z</time></trkpt>
      <trkpt lat="26.560482" lon="98.901319"><time>2026-04-28T00:42:27.119Z</time></trkpt>
      <trkpt lat="26.560482" lon="98.901319"><time>2026-04-28T00:42:27.135Z</time></trkpt>
      <trkpt lat="26.560482" lon="98.901319"><time>2026-04-28T00:42:27.152Z</time></trkpt>
      <trkpt lat="26.560482" lon="98.901319"><time>2026-04-28T00:42:27.169Z</time></trkpt>
      <trkpt lat="26.560482" lon="98.901319"><time>2026-04-28T00:42:27.186Z</time></trkpt>
      <trkpt lat="26.560485" lon="98.901302"><time>2026-04-28T00:42:27.202Z</time></trkpt>
      <trkpt lat="26.560485" lon="98.901302"><time>2026-04-28T00:42:27.219Z</time></trkpt>
      <trkpt lat="26.560485" lon="98.901302"><time>2026-04-28T00:42:27.236Z</time></trkpt>
      <trkpt lat="26.560485" lon="98.901302"><time>2026-04-28T00:42:27.252Z</time></trkpt>
      <trkpt lat="26.560485" lon="98.901302"><time>2026-04-28T00:42:27.269Z</time></trkpt>
      <trkpt lat="26.560485" lon="98.901302"><time>2026-04-28T00:42:27.286Z</time></trkpt>
      <trkpt lat="26.560488" lon="98.901286"><time>2026-04-28T00:42:27.302Z</time></trkpt>
      <trkpt lat="26.560488" lon="98.901286"><time>2026-04-28T00:42:27.319Z</time></trkpt>
      <trkpt lat="26.560488" lon="98.901286"><time>2026-04-28T00:42:27.336Z</time></trkpt>
      <trkpt lat="26.560488" lon="98.901286"><time>2026-04-28T00:42:27.352Z</time></trkpt>
      <trkpt lat="26.560488" lon="98.901286"><time>2026-04-28T00:42:27.369Z</time></trkpt>
      <trkpt lat="26.560488" lon="98.901286"><time>2026-04-28T00:42:27.386Z</time></trkpt>
      <trkpt lat="26.56049" lon="98.901268"><time>2026-04-28T00:42:27.402Z</time></trkpt>
    </trkseg>
  </trk>
</gpx>
