<?xml version="1.0" encoding="UTF-8"?>
<gpx version="1.1" creator="Kairos" xmlns="http://www.topografix.com/GPX/1/1">
  <trk>
    <name>sidecar-srt-f4e92cbbdc953508</name>
    <trkseg>
      <trkpt lat="29.517385" lon="101.720831"><time>2026-05-04T12:24:40.000Z</time></trkpt>
      <trkpt lat="29.517385" lon="101.720831"><time>2026-05-04T12:24:40.016Z</time></trkpt>
      <trkpt lat="29.517385" lon="101.720831"><time>2026-05-04T12:24:40.032Z</time></trkpt>
      <trkpt lat="29.517385" lon="101.720831"><time>2026-05-04T12:24:40.049Z</time></trkpt>
      <trkpt lat="29.517385" lon="101.720831"><time>2026-05-04T12:24:40.066Z</time></trkpt>
      <trkpt lat="29.517385" lon="101.720831"><time>2026-05-04T12:24:40.082Z</time></trkpt>
      <trkpt lat="29.517385" lon="101.720831"><time>2026-05-04T12:24:40.099Z</time></trkpt>
      <trkpt lat="29.517385" lon="101.720831"><time>2026-05-04T12:24:40.116Z</time></trkpt>
      <trkpt lat="29.517385" lon="101.720831"><time>2026-05-04T12:24:40.132Z</time></trkpt>
      <trkpt lat="29.517385" lon="101.720831"><time>2026-05-04T12:24:40.149Z</time></trkpt>
      <trkpt lat="29.517385" lon="101.720831"><time>2026-05-04T12:24:40.166Z</time></trkpt>
      <trkpt lat="29.517385" lon="101.720831"><time>2026-05-04T12:24:40.182Z</time></trkpt>
      <trkpt lat="29.517385" lon="101.720831"><time>2026-05-04T12:24:40.199Z</time></trkpt>
      <trkpt lat="29.517385" lon="101.720831"><time>2026-05-04T12:24:40.216Z</time></trkpt>
      <trkpt lat="29.517385" lon="101.720831"><time>2026-05-04T12:24:40.232Z</time></trkpt>
      <trkpt lat="29.517385" lon="101.720831"><time>2026-05-04T12:24:40.249Z</time></trkpt>
      <trkpt lat="29.517385" lon="101.720831"><time>2026-05-04T12:24:40.266Z</time></trkpt>
      <trkpt lat="29.517385" lon="101.720831"><time>2026-05-04T12:24:40.282Z</time></trkpt>
      <trkpt lat="29.517385" lon="101.720831"><time>2026-05-04T12:24:40.299Z</time></trkpt>
      <trkpt lat="29.517385" lon="101.720831"><time>2026-05-04T12:24:40.316Z</time></trkpt>
      <trkpt lat="29.517385" lon="101.720831"><time>2026-05-04T12:24:40.333Z</time></trkpt>
      <trkpt lat="29.517385" lon="101.720831"><time>2026-05-04T12:24:40.349Z</time></trkpt>
      <trkpt lat="29.517385" lon="101.720831"><time>2026-05-04T12:24:40.366Z</time></trkpt>
      <trkpt lat="29.517385" lon="101.720831"><time>2026-05-04T12:24:40.383Z</time></trkpt>
      <trkpt lat="29.517385" lon="101.720831"><time>2026-05-04T12:24:40.399Z</time></trkpt>
      <trkpt lat="29.517385" lon="101.720831"><time>2026-05-04T12:24:40.416Z</time></trkpt>
      <trkpt lat="29.517385" lon="101.720831"><time>2026-05-04T12:24:40.433Z</time></trkpt>
      <trkpt lat="29.517385" lon="101.720831"><time>2026-05-04T12:24:40.449Z</time></trkpt>
      <trkpt lat="29.517385" lon="101.720831"><time>2026-05-04T12:24:40.466Z</time></trkpt>
      <trkpt lat="29.517385" lon="101.720831"><time>2026-05-04T12:24:40.483Z</time></trkpt>
      <trkpt lat="29.517385" lon="101.720831"><time>2026-05-04T12:24:40.499Z</time></trkpt>
      <trkpt lat="29.517385" lon="101.720831"><time>2026-05-04T12:24:40.516Z</time></trkpt>
      <trkpt lat="29.517385" lon="101.720831"><time>2026-05-04T12:24:40.533Z</time></trkpt>
      <trkpt lat="29.517385" lon="101.720831"><time>2026-05-04T12:24:40.549Z</time></trkpt>
      <trkpt lat="29.517385" lon="101.720831"><time>2026-05-04T12:24:40.566Z</time></trkpt>
      <trkpt lat="29.517385" lon="101.720831"><time>2026-05-04T12:24:40.583Z</time></trkpt>
      <trkpt lat="29.517385" lon="101.720831"><time>2026-05-04T12:24:40.599Z</time></trkpt>
      <trkpt lat="29.517385" lon="101.720831"><time>2026-05-04T12:24:40.616Z</time></trkpt>
      <trkpt lat="29.517385" lon="101.720831"><time>2026-05-04T12:24:40.633Z</time></trkpt>
      <trkpt lat="29.517385" lon="101.720831"><time>2026-05-04T12:24:40.650Z</time></trkpt>
      <trkpt lat="29.517385" lon="101.720831"><time>2026-05-04T12:24:40.666Z</time></trkpt>
      <trkpt lat="29.517385" lon="101.720831"><time>2026-05-04T12:24:40.683Z</time></trkpt>
      <trkpt lat="29.517385" lon="101.720831"><time>2026-05-04T12:24:40.700Z</time></trkpt>
      <trkpt lat="29.517385" lon="101.720831"><time>2026-05-04T12:24:40.716Z</time></trkpt>
      <trkpt lat="29.517385" lon="101.720831"><time>2026-05-04T12:24:40.733Z</time></trkpt>
      <trkpt lat="29.517385" lon="101.720831"><time>2026-05-04T12:24:40.750Z</time></trkpt>
      <trkpt lat="29.517385" lon="101.720831"><time>2026-05-04T12:24:40.766Z</time></trkpt>
      <trkpt lat="29.517385" lon="101.720831"><time>2026-05-04T12:24:40.783Z</time></trkpt>
      <trkpt lat="29.517385" lon="101.720831"><time>2026-05-04T12:24:40.800Z</time></trkpt>
      <trkpt lat="29.517385" lon="101.720831"><time>2026-05-04T12:24:40.816Z</time></trkpt>
      <trkpt lat="29.517385" lon="101.720831"><time>2026-05-04T12:24:40.833Z</time></trkpt>
      <trkpt lat="29.517385" lon="101.720831"><time>2026-05-04T12:24:40.850Z</time></trkpt>
      <trkpt lat="29.517385" lon="101.720831"><time>2026-05-04T12:24:40.866Z</time></trkpt>
      <trkpt lat="29.517385" lon="101.720831"><time>2026-05-04T12:24:40.883Z</time></trkpt>
      <trkpt lat="29.517385" lon="101.720831"><time>2026-05-04T12:24:40.900Z</time></trkpt>
      <trkpt lat="29.517385" lon="101.720831"><time>2026-05-04T12:24:40.916Z</time></trkpt>
      <trkpt lat="29.517385" lon="101.720831"><time>2026-05-04T12:24:40.933Z</time></trkpt>
      <trkpt lat="29.517385" lon="101.720831"><time>2026-05-04T12:24:40.950Z</time></trkpt>
      <trkpt lat="29.517385" lon="101.720831"><time>2026-05-04T12:24:40.966Z</time></trkpt>
      <trkpt lat="29.517385" lon="101.720831"><time>2026-05-04T12:24:40.983Z</time></trkpt>
      <trkpt lat="29.517385" lon="101.720831"><time>2026-05-04T12:24:41.000Z</time></trkpt>
      <trkpt lat="29.517385" lon="101.720831"><time>2026-05-04T12:24:41.017Z</time></trkpt>
      <trkpt lat="29.517385" lon="101.720831"><time>2026-05-04T12:24:41.033Z</time></trkpt>
      <trkpt lat="29.517385" lon="101.720831"><time>2026-05-04T12:24:41.050Z</time></trkpt>
      <trkpt lat="29.517385" lon="101.720831"><time>2026-05-04T12:24:41.067Z</time></trkpt>
      <trkpt lat="29.517385" lon="101.720831"><time>2026-05-04T12:24:41.083Z</time></trkpt>
      <trkpt lat="29.517385" lon="101.720831"><time>2026-05-04T12:24:41.100Z</time></trkpt>
      <trkpt lat="29.517385" lon="101.720831"><time>2026-05-04T12:24:41.117Z</time></trkpt>
      <trkpt lat="29.517385" lon="101.720831"><time>2026-05-04T12:24:41.133Z</time></trkpt>
      <trkpt lat="29.517385" lon="101.720831"><time>2026-05-04T12:24:41.150Z</time></trkpt>
      <trkpt lat="29.517385" lon="101.720831"><time>2026-05-04T12:24:41.167Z</time></trkpt>
      <trkpt lat="29.517385" lon="101.720831"><time>2026-05-04T12:24:41.183Z</time></trkpt>
      <trkpt lat="29.517385" lon="101.720831"><time>2026-05-04T12:24:41.200Z</time></trkpt>
      <trkpt lat="29.517385" lon="101.720831"><time>2026-05-04T12:24:41.217Z</time></trkpt>
      <trkpt lat="29.517385" lon="101.720831"><time>2026-05-04T12:24:41.233Z</time></trkpt>
      <trkpt lat="29.517385" lon="101.720831"><time>2026-05-04T12:24:41.250Z</time></trkpt>
      <trkpt lat="29.517385" lon="101.720831"><time>2026-05-04T12:24:41.267Z</time></trkpt>
      <trkpt lat="29.517385" lon="101.720831"><time>2026-05-04T12:24:41.283Z</time></trkpt>
      <trkpt lat="29.517385" lon="101.720831"><time>2026-05-04T12:24:41.300Z</time></trkpt>
      <trkpt lat="29.517385" lon="101.720831"><time>2026-05-04T12:24:41.317Z</time></trkpt>
      <trkpt lat="29.517385" lon="101.720831"><time>2026-05-04T12:24:41.334Z</time></trkpt>
      <trkpt lat="29.517385" lon="101.720831"><time>2026-05-04T12:24:41.350Z</time></trkpt>
      <trkpt lat="29.517385" lon="101.720831"><time>2026-05-04T12:24:41.367Z</time></trkpt>
      <trkpt lat="29.517385" lon="101.720831"><time>2026-05-04T12:24:41.384Z</time></trkpt>
      <trkpt lat="29.517385" lon="101.720831"><time>2026-05-04T12:24:41.400Z</time></trkpt>
      <trkpt lat="29.517385" lon="101.720831"><time>2026-05-04T12:24:41.417Z</time></trkpt>
      <trkpt lat="29.517385" lon="101.720831"><time>2026-05-04T12:24:41.434Z</time></trkpt>
      <trkpt lat="29.517385" lon="101.720831"><time>2026-05-04T12:24:41.450Z</time></trkpt>
      <trkpt lat="29.517385" lon="101.720831"><time>2026-05-04T12:24:41.467Z</time></trkpt>
      <trkpt lat="29.517385" lon="101.720831"><time>2026-05-04T12:24:41.484Z</time></trkpt>
      <trkpt lat="29.517385" lon="101.720831"><time>2026-05-04T12:24:41.500Z</time></trkpt>
      <trkpt lat="29.517385" lon="101.720831"><time>2026-05-04T12:24:41.517Z</time></trkpt>
      <trkpt lat="29.517385" lon="101.720831"><time>2026-05-04T12:24:41.534Z</time></trkpt>
      <trkpt lat="29.517385" lon="101.720831"><time>2026-05-04T12:24:41.550Z</time></trkpt>
      <trkpt lat="29.517385" lon="101.720831"><time>2026-05-04T12:24:41.567Z</time></trkpt>
      <trkpt lat="29.517385" lon="101.720831"><time>2026-05-04T12:24:41.584Z</time></trkpt>
      <trkpt lat="29.517385" lon="101.720831"><time>2026-05-04T12:24:41.600Z</time></trkpt>
      <trkpt lat="29.517385" lon="101.720831"><time>2026-05-04T12:24:41.617Z</time></trkpt>
      <trkpt lat="29.517385" lon="101.720831"><time>2026-05-04T12:24:41.634Z</time></trkpt>
      <trkpt lat="29.517385" lon="101.720831"><time>2026-05-04T12:24:41.651Z</time></trkpt>
      <trkpt lat="29.517385" lon="101.720831"><time>2026-05-04T12:24:41.667Z</time></trkpt>
      <trkpt lat="29.517385" lon="101.720831"><time>2026-05-04T12:24:41.684Z</time></trkpt>
      <trkpt lat="29.517385" lon="101.720831"><time>2026-05-04T12:24:41.701Z</time></trkpt>
      <trkpt lat="29.517385" lon="101.720831"><time>2026-05-04T12:24:41.717Z</time></trkpt>
      <trkpt lat="29.517385" lon="101.720831"><time>2026-05-04T12:24:41.734Z</time></trkpt>
      <trkpt lat="29.517385" lon="101.720831"><time>2026-05-04T12:24:41.751Z</time></trkpt>
      <trkpt lat="29.517385" lon="101.720831"><time>2026-05-04T12:24:41.767Z</time></trkpt>
      <trkpt lat="29.517385" lon="101.720831"><time>2026-05-04T12:24:41.784Z</time></trkpt>
      <trkpt lat="29.517385" lon="101.720831"><time>2026-05-04T12:24:41.801Z</time></trkpt>
      <trkpt lat="29.517385" lon="101.720831"><time>2026-05-04T12:24:41.817Z</time></trkpt>
      <trkpt lat="29.517385" lon="101.720831"><time>2026-05-04T12:24:41.834Z</time></trkpt>
      <trkpt lat="29.517385" lon="101.720831"><time>2026-05-04T12:24:41.851Z</time></trkpt>
      <trkpt lat="29.517385" lon="101.720831"><time>2026-05-04T12:24:41.867Z</time></trkpt>
      <trkpt lat="29.517385" lon="101.720831"><time>2026-05-04T12:24:41.884Z</time></trkpt>
      <trkpt lat="29.517385" lon="101.720831"><time>2026-05-04T12:24:41.901Z</time></trkpt>
      <trkpt lat="29.517385" lon="101.720831"><time>2026-05-04T12:24:41.917Z</time></trkpt>
      <trkpt lat="29.517385" lon="101.720831"><time>2026-05-04T12:24:41.934Z</time></trkpt>
      <trkpt lat="29.517385" lon="101.720831"><time>2026-05-04T12:24:41.951Z</time></trkpt>
      <trkpt lat="29.517385" lon="101.720831"><time>2026-05-04T12:24:41.968Z</time></trkpt>
      <trkpt lat="29.517385" lon="101.720831"><time>2026-05-04T12:24:41.984Z</time></trkpt>
      <trkpt lat="29.517385" lon="101.720831"><time>2026-05-04T12:24:42.001Z</time></trkpt>
      <trkpt lat="29.517385" lon="101.720831"><time>2026-05-04T12:24:42.018Z</time></trkpt>
      <trkpt lat="29.517385" lon="101.720831"><time>2026-05-04T12:24:42.034Z</time></trkpt>
      <trkpt lat="29.517385" lon="101.720831"><time>2026-05-04T12:24:42.051Z</time></trkpt>
      <trkpt lat="29.517385" lon="101.720831"><time>2026-05-04T12:24:42.068Z</time></trkpt>
      <trkpt lat="29.517385" lon="101.720831"><time>2026-05-04T12:24:42.084Z</time></trkpt>
      <trkpt lat="29.517385" lon="101.720831"><time>2026-05-04T12:24:42.101Z</time></trkpt>
      <trkpt lat="29.517385" lon="101.720831"><time>2026-05-04T12:24:42.118Z</time></trkpt>
      <trkpt lat="29.517385" lon="101.720831"><time>2026-05-04T12:24:42.134Z</time></trkpt>
      <trkpt lat="29.517385" lon="101.720831"><time>2026-05-04T12:24:42.151Z</time></trkpt>
      <trkpt lat="29.517385" lon="101.720831"><time>2026-05-04T12:24:42.168Z</time></trkpt>
      <trkpt lat="29.517385" lon="101.720831"><time>2026-05-04T12:24:42.184Z</time></trkpt>
      <trkpt lat="29.517385" lon="101.720831"><time>2026-05-04T12:24:42.201Z</time></trkpt>
      <trkpt lat="29.517385" lon="101.720831"><time>2026-05-04T12:24:42.218Z</time></trkpt>
      <trkpt lat="29.517385" lon="101.720831"><time>2026-05-04T12:24:42.234Z</time></trkpt>
      <trkpt lat="29.517385" lon="101.720831"><time>2026-05-04T12:24:42.251Z</time></trkpt>
      <trkpt lat="29.517385" lon="101.720831"><time>2026-05-04T12:24:42.268Z</time></trkpt>
      <trkpt lat="29.517385" lon="101.720831"><time>2026-05-04T12:24:42.285Z</time></trkpt>
      <trkpt lat="29.517385" lon="101.720831"><time>2026-05-04T12:24:42.301Z</time></trkpt>
      <trkpt lat="29.517385" lon="101.720831"><time>2026-05-04T12:24:42.318Z</time></trkpt>
      <trkpt lat="29.517385" lon="101.720831"><time>2026-05-04T12:24:42.335Z</time></trkpt>
      <trkpt lat="29.517385" lon="101.720831"><time>2026-05-04T12:24:42.351Z</time></trkpt>
      <trkpt lat="29.517385" lon="101.720831"><time>2026-05-04T12:24:42.368Z</time></trkpt>
      <trkpt lat="29.517385" lon="101.720831"><time>2026-05-04T12:24:42.385Z</time></trkpt>
      <trkpt lat="29.517385" lon="101.720831"><time>2026-05-04T12:24:42.401Z</time></trkpt>
      <trkpt lat="29.517385" lon="101.720831"><time>2026-05-04T12:24:42.418Z</time></trkpt>
      <trkpt lat="29.517385" lon="101.720831"><time>2026-05-04T12:24:42.435Z</time></trkpt>
      <trkpt lat="29.517385" lon="101.720831"><time>2026-05-04T12:24:42.451Z</time></trkpt>
      <trkpt lat="29.517385" lon="101.720831"><time>2026-05-04T12:24:42.468Z</time></trkpt>
      <trkpt lat="29.517385" lon="101.720831"><time>2026-05-04T12:24:42.485Z</time></trkpt>
      <trkpt lat="29.517385" lon="101.720831"><time>2026-05-04T12:24:42.501Z</time></trkpt>
      <trkpt lat="29.517385" lon="101.720831"><time>2026-05-04T12:24:42.518Z</time></trkpt>
      <trkpt lat="29.517385" lon="101.720831"><time>2026-05-04T12:24:42.535Z</time></trkpt>
      <trkpt lat="29.517385" lon="101.720831"><time>2026-05-04T12:24:42.551Z</time></trkpt>
      <trkpt lat="29.517385" lon="101.720831"><time>2026-05-04T12:24:42.568Z</time></trkpt>
      <trkpt lat="29.517385" lon="101.720831"><time>2026-05-04T12:24:42.585Z</time></trkpt>
      <trkpt lat="29.517385" lon="101.720831"><time>2026-05-04T12:24:42.602Z</time></trkpt>
      <trkpt lat="29.517385" lon="101.720831"><time>2026-05-04T12:24:42.618Z</time></trkpt>
      <trkpt lat="29.517385" lon="101.720831"><time>2026-05-04T12:24:42.635Z</time></trkpt>
      <trkpt lat="29.517385" lon="101.720831"><time>2026-05-04T12:24:42.652Z</time></trkpt>
      <trkpt lat="29.517385" lon="101.720831"><time>2026-05-04T12:24:42.668Z</time></trkpt>
      <trkpt lat="29.517385" lon="101.720831"><time>2026-05-04T12:24:42.685Z</time></trkpt>
      <trkpt lat="29.517385" lon="101.720831"><time>2026-05-04T12:24:42.702Z</time></trkpt>
      <trkpt lat="29.517385" lon="101.720831"><time>2026-05-04T12:24:42.718Z</time></trkpt>
      <trkpt lat="29.517385" lon="101.720831"><time>2026-05-04T12:24:42.735Z</time></trkpt>
      <trkpt lat="29.517385" lon="101.720831"><time>2026-05-04T12:24:42.752Z</time></trkpt>
      <trkpt lat="29.517385" lon="101.720831"><time>2026-05-04T12:24:42.768Z</time></trkpt>
      <trkpt lat="29.517385" lon="101.720831"><time>2026-05-04T12:24:42.785Z</time></trkpt>
      <trkpt lat="29.517385" lon="101.720831"><time>2026-05-04T12:24:42.802Z</time></trkpt>
      <trkpt lat="29.517385" lon="101.720831"><time>2026-05-04T12:24:42.818Z</time></trkpt>
      <trkpt lat="29.517385" lon="101.720831"><time>2026-05-04T12:24:42.835Z</time></trkpt>
      <trkpt lat="29.517385" lon="101.720831"><time>2026-05-04T12:24:42.852Z</time></trkpt>
      <trkpt lat="29.517385" lon="101.720831"><time>2026-05-04T12:24:42.868Z</time></trkpt>
      <trkpt lat="29.517385" lon="101.720831"><time>2026-05-04T12:24:42.885Z</time></trkpt>
      <trkpt lat="29.517385" lon="101.720831"><time>2026-05-04T12:24:42.902Z</time></trkpt>
      <trkpt lat="29.517385" lon="101.720831"><time>2026-05-04T12:24:42.919Z</time></trkpt>
      <trkpt lat="29.517385" lon="101.720831"><time>2026-05-04T12:24:42.935Z</time></trkpt>
      <trkpt lat="29.517385" lon="101.720831"><time>2026-05-04T12:24:42.952Z</time></trkpt>
      <trkpt lat="29.517385" lon="101.720831"><time>2026-05-04T12:24:42.969Z</time></trkpt>
      <trkpt lat="29.517385" lon="101.720831"><time>2026-05-04T12:24:42.985Z</time></trkpt>
      <trkpt lat="29.517385" lon="101.720831"><time>2026-05-04T12:24:43.002Z</time></trkpt>
      <trkpt lat="29.517385" lon="101.720831"><time>2026-05-04T12:24:43.019Z</time></trkpt>
      <trkpt lat="29.517384" lon="101.720831"><time>2026-05-04T12:24:43.035Z</time></trkpt>
      <trkpt lat="29.517384" lon="101.720831"><time>2026-05-04T12:24:43.052Z</time></trkpt>
      <trkpt lat="29.517384" lon="101.720831"><time>2026-05-04T12:24:43.069Z</time></trkpt>
      <trkpt lat="29.517384" lon="101.720831"><time>2026-05-04T12:24:43.085Z</time></trkpt>
      <trkpt lat="29.517384" lon="101.720831"><time>2026-05-04T12:24:43.102Z</time></trkpt>
      <trkpt lat="29.517384" lon="101.720831"><time>2026-05-04T12:24:43.119Z</time></trkpt>
      <trkpt lat="29.517384" lon="101.720831"><time>2026-05-04T12:24:43.135Z</time></trkpt>
      <trkpt lat="29.517384" lon="101.720831"><time>2026-05-04T12:24:43.152Z</time></trkpt>
      <trkpt lat="29.517384" lon="101.720831"><time>2026-05-04T12:24:43.169Z</time></trkpt>
      <trkpt lat="29.517384" lon="101.720831"><time>2026-05-04T12:24:43.185Z</time></trkpt>
      <trkpt lat="29.517384" lon="101.720831"><time>2026-05-04T12:24:43.202Z</time></trkpt>
      <trkpt lat="29.517384" lon="101.720831"><time>2026-05-04T12:24:43.219Z</time></trkpt>
      <trkpt lat="29.517384" lon="101.720831"><time>2026-05-04T12:24:43.236Z</time></trkpt>
      <trkpt lat="29.517384" lon="101.720831"><time>2026-05-04T12:24:43.252Z</time></trkpt>
      <trkpt lat="29.517384" lon="101.720831"><time>2026-05-04T12:24:43.269Z</time></trkpt>
      <trkpt lat="29.517384" lon="101.720831"><time>2026-05-04T12:24:43.286Z</time></trkpt>
      <trkpt lat="29.517384" lon="101.720831"><time>2026-05-04T12:24:43.302Z</time></trkpt>
      <trkpt lat="29.517384" lon="101.720831"><time>2026-05-04T12:24:43.319Z</time></trkpt>
      <trkpt lat="29.517384" lon="101.720831"><time>2026-05-04T12:24:43.336Z</time></trkpt>
      <trkpt lat="29.517384" lon="101.720831"><time>2026-05-04T12:24:43.352Z</time></trkpt>
      <trkpt lat="29.517384" lon="101.720831"><time>2026-05-04T12:24:43.369Z</time></trkpt>
      <trkpt lat="29.517384" lon="101.720831"><time>2026-05-04T12:24:43.386Z</time></trkpt>
      <trkpt lat="29.517384" lon="101.720831"><time>2026-05-04T12:24:43.402Z</time></trkpt>
      <trkpt lat="29.517384" lon="101.720831"><time>2026-05-04T12:24:43.419Z</time></trkpt>
      <trkpt lat="29.517384" lon="101.720831"><time>2026-05-04T12:24:43.436Z</time></trkpt>
      <trkpt lat="29.517384" lon="101.720831"><time>2026-05-04T12:24:43.452Z</time></trkpt>
      <trkpt lat="29.517384" lon="101.720831"><time>2026-05-04T12:24:43.469Z</time></trkpt>
      <trkpt lat="29.517384" lon="101.720831"><time>2026-05-04T12:24:43.486Z</time></trkpt>
      <trkpt lat="29.517384" lon="101.720831"><time>2026-05-04T12:24:43.502Z</time></trkpt>
      <trkpt lat="29.517384" lon="101.720831"><time>2026-05-04T12:24:43.519Z</time></trkpt>
      <trkpt lat="29.517384" lon="101.720831"><time>2026-05-04T12:24:43.536Z</time></trkpt>
      <trkpt lat="29.517384" lon="101.720831"><time>2026-05-04T12:24:43.553Z</time></trkpt>
      <trkpt lat="29.517384" lon="101.720831"><time>2026-05-04T12:24:43.569Z</time></trkpt>
      <trkpt lat="29.517384" lon="101.720831"><time>2026-05-04T12:24:43.586Z</time></trkpt>
      <trkpt lat="29.517384" lon="101.720831"><time>2026-05-04T12:24:43.603Z</time></trkpt>
      <trkpt lat="29.517384" lon="101.720831"><time>2026-05-04T12:24:43.619Z</time></trkpt>
      <trkpt lat="29.517384" lon="101.720831"><time>2026-05-04T12:24:43.636Z</time></trkpt>
      <trkpt lat="29.517384" lon="101.720831"><time>2026-05-04T12:24:43.653Z</time></trkpt>
      <trkpt lat="29.517384" lon="101.720831"><time>2026-05-04T12:24:43.669Z</time></trkpt>
      <trkpt lat="29.517384" lon="101.720831"><time>2026-05-04T12:24:43.686Z</time></trkpt>
      <trkpt lat="29.517384" lon="101.720831"><time>2026-05-04T12:24:43.703Z</time></trkpt>
      <trkpt lat="29.517384" lon="101.720831"><time>2026-05-04T12:24:43.719Z</time></trkpt>
      <trkpt lat="29.517384" lon="101.720831"><time>2026-05-04T12:24:43.736Z</time></trkpt>
      <trkpt lat="29.517384" lon="101.720831"><time>2026-05-04T12:24:43.753Z</time></trkpt>
      <trkpt lat="29.517384" lon="101.720831"><time>2026-05-04T12:24:43.769Z</time></trkpt>
      <trkpt lat="29.517384" lon="101.720831"><time>2026-05-04T12:24:43.786Z</time></trkpt>
      <trkpt lat="29.517384" lon="101.720831"><time>2026-05-04T12:24:43.803Z</time></trkpt>
      <trkpt lat="29.517384" lon="101.720831"><time>2026-05-04T12:24:43.819Z</time></trkpt>
      <trkpt lat="29.517384" lon="101.720831"><time>2026-05-04T12:24:43.836Z</time></trkpt>
      <trkpt lat="29.517384" lon="101.720831"><time>2026-05-04T12:24:43.853Z</time></trkpt>
      <trkpt lat="29.517384" lon="101.720831"><time>2026-05-04T12:24:43.870Z</time></trkpt>
      <trkpt lat="29.517384" lon="101.720831"><time>2026-05-04T12:24:43.886Z</time></trkpt>
      <trkpt lat="29.517384" lon="101.720831"><time>2026-05-04T12:24:43.903Z</time></trkpt>
      <trkpt lat="29.517384" lon="101.720831"><time>2026-05-04T12:24:43.920Z</time></trkpt>
      <trkpt lat="29.517384" lon="101.72083"><time>2026-05-04T12:24:43.936Z</time></trkpt>
      <trkpt lat="29.517384" lon="101.72083"><time>2026-05-04T12:24:43.953Z</time></trkpt>
      <trkpt lat="29.517384" lon="101.72083"><time>2026-05-04T12:24:43.970Z</time></trkpt>
      <trkpt lat="29.517384" lon="101.72083"><time>2026-05-04T12:24:43.986Z</time></trkpt>
      <trkpt lat="29.517384" lon="101.72083"><time>2026-05-04T12:24:44.003Z</time></trkpt>
      <trkpt lat="29.517384" lon="101.72083"><time>2026-05-04T12:24:44.020Z</time></trkpt>
      <trkpt lat="29.517384" lon="101.72083"><time>2026-05-04T12:24:44.036Z</time></trkpt>
      <trkpt lat="29.517384" lon="101.72083"><time>2026-05-04T12:24:44.053Z</time></trkpt>
      <trkpt lat="29.517384" lon="101.72083"><time>2026-05-04T12:24:44.070Z</time></trkpt>
      <trkpt lat="29.517384" lon="101.72083"><time>2026-05-04T12:24:44.086Z</time></trkpt>
      <trkpt lat="29.517384" lon="101.72083"><time>2026-05-04T12:24:44.103Z</time></trkpt>
      <trkpt lat="29.517384" lon="101.72083"><time>2026-05-04T12:24:44.120Z</time></trkpt>
      <trkpt lat="29.517383" lon="101.72083"><time>2026-05-04T12:24:44.136Z</time></trkpt>
      <trkpt lat="29.517383" lon="101.72083"><time>2026-05-04T12:24:44.153Z</time></trkpt>
      <trkpt lat="29.517383" lon="101.72083"><time>2026-05-04T12:24:44.170Z</time></trkpt>
      <trkpt lat="29.517383" lon="101.72083"><time>2026-05-04T12:24:44.187Z</time></trkpt>
      <trkpt lat="29.517383" lon="101.72083"><time>2026-05-04T12:24:44.203Z</time></trkpt>
      <trkpt lat="29.517383" lon="101.72083"><time>2026-05-04T12:24:44.220Z</time></trkpt>
      <trkpt lat="29.517383" lon="101.72083"><time>2026-05-04T12:24:44.237Z</time></trkpt>
      <trkpt lat="29.517383" lon="101.72083"><time>2026-05-04T12:24:44.253Z</time></trkpt>
      <trkpt lat="29.517383" lon="101.72083"><time>2026-05-04T12:24:44.270Z</time></trkpt>
      <trkpt lat="29.517383" lon="101.72083"><time>2026-05-04T12:24:44.287Z</time></trkpt>
      <trkpt lat="29.517383" lon="101.72083"><time>2026-05-04T12:24:44.303Z</time></trkpt>
      <trkpt lat="29.517383" lon="101.72083"><time>2026-05-04T12:24:44.320Z</time></trkpt>
      <trkpt lat="29.517383" lon="101.720829"><time>2026-05-04T12:24:44.337Z</time></trkpt>
      <trkpt lat="29.517383" lon="101.720829"><time>2026-05-04T12:24:44.353Z</time></trkpt>
      <trkpt lat="29.517383" lon="101.720829"><time>2026-05-04T12:24:44.370Z</time></trkpt>
      <trkpt lat="29.517383" lon="101.720829"><time>2026-05-04T12:24:44.387Z</time></trkpt>
      <trkpt lat="29.517383" lon="101.720829"><time>2026-05-04T12:24:44.403Z</time></trkpt>
      <trkpt lat="29.517383" lon="101.720829"><time>2026-05-04T12:24:44.420Z</time></trkpt>
      <trkpt lat="29.517382" lon="101.720829"><time>2026-05-04T12:24:44.437Z</time></trkpt>
      <trkpt lat="29.517382" lon="101.720829"><time>2026-05-04T12:24:44.453Z</time></trkpt>
      <trkpt lat="29.517382" lon="101.720829"><time>2026-05-04T12:24:44.470Z</time></trkpt>
      <trkpt lat="29.517382" lon="101.720829"><time>2026-05-04T12:24:44.487Z</time></trkpt>
      <trkpt lat="29.517382" lon="101.720829"><time>2026-05-04T12:24:44.504Z</time></trkpt>
      <trkpt lat="29.517382" lon="101.720829"><time>2026-05-04T12:24:44.520Z</time></trkpt>
      <trkpt lat="29.517382" lon="101.720828"><time>2026-05-04T12:24:44.537Z</time></trkpt>
      <trkpt lat="29.517382" lon="101.720828"><time>2026-05-04T12:24:44.554Z</time></trkpt>
      <trkpt lat="29.517382" lon="101.720828"><time>2026-05-04T12:24:44.570Z</time></trkpt>
      <trkpt lat="29.517382" lon="101.720828"><time>2026-05-04T12:24:44.587Z</time></trkpt>
      <trkpt lat="29.517382" lon="101.720828"><time>2026-05-04T12:24:44.604Z</time></trkpt>
      <trkpt lat="29.517382" lon="101.720828"><time>2026-05-04T12:24:44.620Z</time></trkpt>
      <trkpt lat="29.517381" lon="101.720828"><time>2026-05-04T12:24:44.637Z</time></trkpt>
      <trkpt lat="29.517381" lon="101.720828"><time>2026-05-04T12:24:44.654Z</time></trkpt>
      <trkpt lat="29.517381" lon="101.720828"><time>2026-05-04T12:24:44.670Z</time></trkpt>
      <trkpt lat="29.517381" lon="101.720828"><time>2026-05-04T12:24:44.687Z</time></trkpt>
      <trkpt lat="29.517381" lon="101.720828"><time>2026-05-04T12:24:44.704Z</time></trkpt>
      <trkpt lat="29.517381" lon="101.720828"><time>2026-05-04T12:24:44.720Z</time></trkpt>
      <trkpt lat="29.517381" lon="101.720827"><time>2026-05-04T12:24:44.737Z</time></trkpt>
      <trkpt lat="29.517381" lon="101.720827"><time>2026-05-04T12:24:44.754Z</time></trkpt>
      <trkpt lat="29.517381" lon="101.720827"><time>2026-05-04T12:24:44.770Z</time></trkpt>
      <trkpt lat="29.517381" lon="101.720827"><time>2026-05-04T12:24:44.787Z</time></trkpt>
      <trkpt lat="29.517381" lon="101.720827"><time>2026-05-04T12:24:44.804Z</time></trkpt>
      <trkpt lat="29.517381" lon="101.720827"><time>2026-05-04T12:24:44.821Z</time></trkpt>
      <trkpt lat="29.51738" lon="101.720827"><time>2026-05-04T12:24:44.837Z</time></trkpt>
      <trkpt lat="29.51738" lon="101.720827"><time>2026-05-04T12:24:44.854Z</time></trkpt>
      <trkpt lat="29.51738" lon="101.720827"><time>2026-05-04T12:24:44.871Z</time></trkpt>
      <trkpt lat="29.51738" lon="101.720827"><time>2026-05-04T12:24:44.887Z</time></trkpt>
      <trkpt lat="29.51738" lon="101.720827"><time>2026-05-04T12:24:44.904Z</time></trkpt>
      <trkpt lat="29.51738" lon="101.720827"><time>2026-05-04T12:24:44.921Z</time></trkpt>
      <trkpt lat="29.51738" lon="101.720826"><time>2026-05-04T12:24:44.937Z</time></trkpt>
      <trkpt lat="29.51738" lon="101.720826"><time>2026-05-04T12:24:44.954Z</time></trkpt>
      <trkpt lat="29.51738" lon="101.720826"><time>2026-05-04T12:24:44.971Z</time></trkpt>
      <trkpt lat="29.51738" lon="101.720826"><time>2026-05-04T12:24:44.987Z</time></trkpt>
      <trkpt lat="29.51738" lon="101.720826"><time>2026-05-04T12:24:45.004Z</time></trkpt>
      <trkpt lat="29.51738" lon="101.720826"><time>2026-05-04T12:24:45.021Z</time></trkpt>
      <trkpt lat="29.517379" lon="101.720826"><time>2026-05-04T12:24:45.037Z</time></trkpt>
      <trkpt lat="29.517379" lon="101.720826"><time>2026-05-04T12:24:45.054Z</time></trkpt>
      <trkpt lat="29.517379" lon="101.720826"><time>2026-05-04T12:24:45.071Z</time></trkpt>
      <trkpt lat="29.517379" lon="101.720826"><time>2026-05-04T12:24:45.087Z</time></trkpt>
      <trkpt lat="29.517379" lon="101.720826"><time>2026-05-04T12:24:45.104Z</time></trkpt>
      <trkpt lat="29.517379" lon="101.720826"><time>2026-05-04T12:24:45.121Z</time></trkpt>
      <trkpt lat="29.517379" lon="101.720826"><time>2026-05-04T12:24:45.138Z</time></trkpt>
      <trkpt lat="29.517379" lon="101.720826"><time>2026-05-04T12:24:45.154Z</time></trkpt>
      <trkpt lat="29.517379" lon="101.720826"><time>2026-05-04T12:24:45.171Z</time></trkpt>
      <trkpt lat="29.517379" lon="101.720826"><time>2026-05-04T12:24:45.188Z</time></trkpt>
      <trkpt lat="29.517379" lon="101.720826"><time>2026-05-04T12:24:45.204Z</time></trkpt>
      <trkpt lat="29.517379" lon="101.720826"><time>2026-05-04T12:24:45.221Z</time></trkpt>
      <trkpt lat="29.517378" lon="101.720825"><time>2026-05-04T12:24:45.238Z</time></trkpt>
      <trkpt lat="29.517378" lon="101.720825"><time>2026-05-04T12:24:45.254Z</time></trkpt>
      <trkpt lat="29.517378" lon="101.720825"><time>2026-05-04T12:24:45.271Z</time></trkpt>
      <trkpt lat="29.517378" lon="101.720825"><time>2026-05-04T12:24:45.288Z</time></trkpt>
      <trkpt lat="29.517378" lon="101.720825"><time>2026-05-04T12:24:45.304Z</time></trkpt>
      <trkpt lat="29.517378" lon="101.720825"><time>2026-05-04T12:24:45.321Z</time></trkpt>
      <trkpt lat="29.517377" lon="101.720825"><time>2026-05-04T12:24:45.338Z</time></trkpt>
      <trkpt lat="29.517377" lon="101.720825"><time>2026-05-04T12:24:45.354Z</time></trkpt>
      <trkpt lat="29.517377" lon="101.720825"><time>2026-05-04T12:24:45.371Z</time></trkpt>
      <trkpt lat="29.517377" lon="101.720825"><time>2026-05-04T12:24:45.388Z</time></trkpt>
      <trkpt lat="29.517377" lon="101.720825"><time>2026-05-04T12:24:45.404Z</time></trkpt>
      <trkpt lat="29.517377" lon="101.720825"><time>2026-05-04T12:24:45.421Z</time></trkpt>
      <trkpt lat="29.517376" lon="101.720824"><time>2026-05-04T12:24:45.438Z</time></trkpt>
      <trkpt lat="29.517376" lon="101.720824"><time>2026-05-04T12:24:45.455Z</time></trkpt>
      <trkpt lat="29.517376" lon="101.720824"><time>2026-05-04T12:24:45.471Z</time></trkpt>
      <trkpt lat="29.517376" lon="101.720824"><time>2026-05-04T12:24:45.488Z</time></trkpt>
      <trkpt lat="29.517376" lon="101.720824"><time>2026-05-04T12:24:45.505Z</time></trkpt>
      <trkpt lat="29.517376" lon="101.720824"><time>2026-05-04T12:24:45.521Z</time></trkpt>
      <trkpt lat="29.517376" lon="101.720824"><time>2026-05-04T12:24:45.538Z</time></trkpt>
      <trkpt lat="29.517376" lon="101.720824"><time>2026-05-04T12:24:45.555Z</time></trkpt>
      <trkpt lat="29.517376" lon="101.720824"><time>2026-05-04T12:24:45.571Z</time></trkpt>
      <trkpt lat="29.517376" lon="101.720824"><time>2026-05-04T12:24:45.588Z</time></trkpt>
      <trkpt lat="29.517376" lon="101.720824"><time>2026-05-04T12:24:45.605Z</time></trkpt>
      <trkpt lat="29.517376" lon="101.720824"><time>2026-05-04T12:24:45.621Z</time></trkpt>
      <trkpt lat="29.517375" lon="101.720823"><time>2026-05-04T12:24:45.638Z</time></trkpt>
      <trkpt lat="29.517375" lon="101.720823"><time>2026-05-04T12:24:45.655Z</time></trkpt>
      <trkpt lat="29.517375" lon="101.720823"><time>2026-05-04T12:24:45.671Z</time></trkpt>
      <trkpt lat="29.517375" lon="101.720823"><time>2026-05-04T12:24:45.688Z</time></trkpt>
      <trkpt lat="29.517375" lon="101.720823"><time>2026-05-04T12:24:45.705Z</time></trkpt>
      <trkpt lat="29.517375" lon="101.720823"><time>2026-05-04T12:24:45.721Z</time></trkpt>
      <trkpt lat="29.517374" lon="101.720823"><time>2026-05-04T12:24:45.738Z</time></trkpt>
      <trkpt lat="29.517374" lon="101.720823"><time>2026-05-04T12:24:45.755Z</time></trkpt>
      <trkpt lat="29.517374" lon="101.720823"><time>2026-05-04T12:24:45.772Z</time></trkpt>
      <trkpt lat="29.517374" lon="101.720823"><time>2026-05-04T12:24:45.788Z</time></trkpt>
      <trkpt lat="29.517374" lon="101.720823"><time>2026-05-04T12:24:45.805Z</time></trkpt>
      <trkpt lat="29.517374" lon="101.720823"><time>2026-05-04T12:24:45.822Z</time></trkpt>
      <trkpt lat="29.517373" lon="101.720822"><time>2026-05-04T12:24:45.838Z</time></trkpt>
      <trkpt lat="29.517373" lon="101.720822"><time>2026-05-04T12:24:45.855Z</time></trkpt>
      <trkpt lat="29.517373" lon="101.720822"><time>2026-05-04T12:24:45.872Z</time></trkpt>
      <trkpt lat="29.517373" lon="101.720822"><time>2026-05-04T12:24:45.888Z</time></trkpt>
      <trkpt lat="29.517373" lon="101.720822"><time>2026-05-04T12:24:45.905Z</time></trkpt>
      <trkpt lat="29.517373" lon="101.720822"><time>2026-05-04T12:24:45.922Z</time></trkpt>
      <trkpt lat="29.517371" lon="101.720822"><time>2026-05-04T12:24:45.938Z</time></trkpt>
      <trkpt lat="29.517371" lon="101.720822"><time>2026-05-04T12:24:45.955Z</time></trkpt>
      <trkpt lat="29.517371" lon="101.720822"><time>2026-05-04T12:24:45.972Z</time></trkpt>
      <trkpt lat="29.517371" lon="101.720822"><time>2026-05-04T12:24:45.988Z</time></trkpt>
      <trkpt lat="29.517371" lon="101.720822"><time>2026-05-04T12:24:46.005Z</time></trkpt>
      <trkpt lat="29.517371" lon="101.720822"><time>2026-05-04T12:24:46.022Z</time></trkpt>
      <trkpt lat="29.51737" lon="101.720821"><time>2026-05-04T12:24:46.038Z</time></trkpt>
      <trkpt lat="29.51737" lon="101.720821"><time>2026-05-04T12:24:46.055Z</time></trkpt>
      <trkpt lat="29.51737" lon="101.720821"><time>2026-05-04T12:24:46.072Z</time></trkpt>
      <trkpt lat="29.51737" lon="101.720821"><time>2026-05-04T12:24:46.089Z</time></trkpt>
      <trkpt lat="29.51737" lon="101.720821"><time>2026-05-04T12:24:46.105Z</time></trkpt>
      <trkpt lat="29.51737" lon="101.720821"><time>2026-05-04T12:24:46.122Z</time></trkpt>
      <trkpt lat="29.517369" lon="101.720821"><time>2026-05-04T12:24:46.139Z</time></trkpt>
      <trkpt lat="29.517369" lon="101.720821"><time>2026-05-04T12:24:46.155Z</time></trkpt>
      <trkpt lat="29.517369" lon="101.720821"><time>2026-05-04T12:24:46.172Z</time></trkpt>
      <trkpt lat="29.517369" lon="101.720821"><time>2026-05-04T12:24:46.189Z</time></trkpt>
      <trkpt lat="29.517369" lon="101.720821"><time>2026-05-04T12:24:46.205Z</time></trkpt>
      <trkpt lat="29.517369" lon="101.720821"><time>2026-05-04T12:24:46.222Z</time></trkpt>
      <trkpt lat="29.517367" lon="101.72082"><time>2026-05-04T12:24:46.239Z</time></trkpt>
      <trkpt lat="29.517367" lon="101.72082"><time>2026-05-04T12:24:46.255Z</time></trkpt>
      <trkpt lat="29.517367" lon="101.72082"><time>2026-05-04T12:24:46.272Z</time></trkpt>
      <trkpt lat="29.517367" lon="101.72082"><time>2026-05-04T12:24:46.289Z</time></trkpt>
      <trkpt lat="29.517367" lon="101.72082"><time>2026-05-04T12:24:46.305Z</time></trkpt>
      <trkpt lat="29.517367" lon="101.72082"><time>2026-05-04T12:24:46.322Z</time></trkpt>
      <trkpt lat="29.517365" lon="101.72082"><time>2026-05-04T12:24:46.339Z</time></trkpt>
      <trkpt lat="29.517365" lon="101.72082"><time>2026-05-04T12:24:46.355Z</time></trkpt>
      <trkpt lat="29.517365" lon="101.72082"><time>2026-05-04T12:24:46.372Z</time></trkpt>
      <trkpt lat="29.517365" lon="101.72082"><time>2026-05-04T12:24:46.389Z</time></trkpt>
      <trkpt lat="29.517365" lon="101.72082"><time>2026-05-04T12:24:46.406Z</time></trkpt>
      <trkpt lat="29.517365" lon="101.72082"><time>2026-05-04T12:24:46.422Z</time></trkpt>
      <trkpt lat="29.517363" lon="101.720819"><time>2026-05-04T12:24:46.439Z</time></trkpt>
      <trkpt lat="29.517363" lon="101.720819"><time>2026-05-04T12:24:46.456Z</time></trkpt>
      <trkpt lat="29.517363" lon="101.720819"><time>2026-05-04T12:24:46.472Z</time></trkpt>
      <trkpt lat="29.517363" lon="101.720819"><time>2026-05-04T12:24:46.489Z</time></trkpt>
      <trkpt lat="29.517363" lon="101.720819"><time>2026-05-04T12:24:46.506Z</time></trkpt>
      <trkpt lat="29.517363" lon="101.720819"><time>2026-05-04T12:24:46.522Z</time></trkpt>
      <trkpt lat="29.517361" lon="101.720819"><time>2026-05-04T12:24:46.539Z</time></trkpt>
      <trkpt lat="29.517361" lon="101.720819"><time>2026-05-04T12:24:46.556Z</time></trkpt>
      <trkpt lat="29.517361" lon="101.720819"><time>2026-05-04T12:24:46.572Z</time></trkpt>
      <trkpt lat="29.517361" lon="101.720819"><time>2026-05-04T12:24:46.589Z</time></trkpt>
      <trkpt lat="29.517361" lon="101.720819"><time>2026-05-04T12:24:46.606Z</time></trkpt>
      <trkpt lat="29.517361" lon="101.720819"><time>2026-05-04T12:24:46.622Z</time></trkpt>
      <trkpt lat="29.517358" lon="101.720819"><time>2026-05-04T12:24:46.639Z</time></trkpt>
      <trkpt lat="29.517358" lon="101.720819"><time>2026-05-04T12:24:46.656Z</time></trkpt>
      <trkpt lat="29.517358" lon="101.720819"><time>2026-05-04T12:24:46.672Z</time></trkpt>
      <trkpt lat="29.517358" lon="101.720819"><time>2026-05-04T12:24:46.689Z</time></trkpt>
      <trkpt lat="29.517358" lon="101.720819"><time>2026-05-04T12:24:46.706Z</time></trkpt>
      <trkpt lat="29.517358" lon="101.720819"><time>2026-05-04T12:24:46.723Z</time></trkpt>
      <trkpt lat="29.517356" lon="101.720819"><time>2026-05-04T12:24:46.739Z</time></trkpt>
      <trkpt lat="29.517356" lon="101.720819"><time>2026-05-04T12:24:46.756Z</time></trkpt>
      <trkpt lat="29.517356" lon="101.720819"><time>2026-05-04T12:24:46.773Z</time></trkpt>
      <trkpt lat="29.517356" lon="101.720819"><time>2026-05-04T12:24:46.789Z</time></trkpt>
      <trkpt lat="29.517356" lon="101.720819"><time>2026-05-04T12:24:46.806Z</time></trkpt>
      <trkpt lat="29.517356" lon="101.720819"><time>2026-05-04T12:24:46.823Z</time></trkpt>
      <trkpt lat="29.517353" lon="101.720819"><time>2026-05-04T12:24:46.839Z</time></trkpt>
      <trkpt lat="29.517353" lon="101.720819"><time>2026-05-04T12:24:46.856Z</time></trkpt>
      <trkpt lat="29.517353" lon="101.720819"><time>2026-05-04T12:24:46.873Z</time></trkpt>
      <trkpt lat="29.517353" lon="101.720819"><time>2026-05-04T12:24:46.889Z</time></trkpt>
      <trkpt lat="29.517353" lon="101.720819"><time>2026-05-04T12:24:46.906Z</time></trkpt>
      <trkpt lat="29.517353" lon="101.720819"><time>2026-05-04T12:24:46.923Z</time></trkpt>
      <trkpt lat="29.51735" lon="101.720819"><time>2026-05-04T12:24:46.939Z</time></trkpt>
      <trkpt lat="29.51735" lon="101.720819"><time>2026-05-04T12:24:46.956Z</time></trkpt>
      <trkpt lat="29.51735" lon="101.720819"><time>2026-05-04T12:24:46.973Z</time></trkpt>
      <trkpt lat="29.51735" lon="101.720819"><time>2026-05-04T12:24:46.989Z</time></trkpt>
      <trkpt lat="29.51735" lon="101.720819"><time>2026-05-04T12:24:47.006Z</time></trkpt>
      <trkpt lat="29.51735" lon="101.720819"><time>2026-05-04T12:24:47.023Z</time></trkpt>
      <trkpt lat="29.517346" lon="101.720819"><time>2026-05-04T12:24:47.040Z</time></trkpt>
      <trkpt lat="29.517346" lon="101.720819"><time>2026-05-04T12:24:47.056Z</time></trkpt>
      <trkpt lat="29.517346" lon="101.720819"><time>2026-05-04T12:24:47.073Z</time></trkpt>
      <trkpt lat="29.517346" lon="101.720819"><time>2026-05-04T12:24:47.090Z</time></trkpt>
      <trkpt lat="29.517346" lon="101.720819"><time>2026-05-04T12:24:47.106Z</time></trkpt>
      <trkpt lat="29.517346" lon="101.720819"><time>2026-05-04T12:24:47.123Z</time></trkpt>
      <trkpt lat="29.517343" lon="101.720819"><time>2026-05-04T12:24:47.140Z</time></trkpt>
      <trkpt lat="29.517343" lon="101.720819"><time>2026-05-04T12:24:47.156Z</time></trkpt>
      <trkpt lat="29.517343" lon="101.720819"><time>2026-05-04T12:24:47.173Z</time></trkpt>
      <trkpt lat="29.517343" lon="101.720819"><time>2026-05-04T12:24:47.190Z</time></trkpt>
      <trkpt lat="29.517343" lon="101.720819"><time>2026-05-04T12:24:47.206Z</time></trkpt>
      <trkpt lat="29.517343" lon="101.720819"><time>2026-05-04T12:24:47.223Z</time></trkpt>
      <trkpt lat="29.51734" lon="101.72082"><time>2026-05-04T12:24:47.240Z</time></trkpt>
      <trkpt lat="29.51734" lon="101.72082"><time>2026-05-04T12:24:47.256Z</time></trkpt>
      <trkpt lat="29.51734" lon="101.72082"><time>2026-05-04T12:24:47.273Z</time></trkpt>
      <trkpt lat="29.51734" lon="101.72082"><time>2026-05-04T12:24:47.290Z</time></trkpt>
      <trkpt lat="29.51734" lon="101.72082"><time>2026-05-04T12:24:47.306Z</time></trkpt>
      <trkpt lat="29.51734" lon="101.72082"><time>2026-05-04T12:24:47.323Z</time></trkpt>
      <trkpt lat="29.517336" lon="101.720821"><time>2026-05-04T12:24:47.340Z</time></trkpt>
      <trkpt lat="29.517336" lon="101.720821"><time>2026-05-04T12:24:47.356Z</time></trkpt>
      <trkpt lat="29.517336" lon="101.720821"><time>2026-05-04T12:24:47.373Z</time></trkpt>
      <trkpt lat="29.517336" lon="101.720821"><time>2026-05-04T12:24:47.390Z</time></trkpt>
      <trkpt lat="29.517336" lon="101.720821"><time>2026-05-04T12:24:47.407Z</time></trkpt>
      <trkpt lat="29.517336" lon="101.720821"><time>2026-05-04T12:24:47.423Z</time></trkpt>
      <trkpt lat="29.517332" lon="101.720822"><time>2026-05-04T12:24:47.440Z</time></trkpt>
      <trkpt lat="29.517332" lon="101.720822"><time>2026-05-04T12:24:47.457Z</time></trkpt>
      <trkpt lat="29.517332" lon="101.720822"><time>2026-05-04T12:24:47.473Z</time></trkpt>
      <trkpt lat="29.517332" lon="101.720822"><time>2026-05-04T12:24:47.490Z</time></trkpt>
      <trkpt lat="29.517332" lon="101.720822"><time>2026-05-04T12:24:47.507Z</time></trkpt>
      <trkpt lat="29.517332" lon="101.720822"><time>2026-05-04T12:24:47.523Z</time></trkpt>
      <trkpt lat="29.517328" lon="101.720823"><time>2026-05-04T12:24:47.540Z</time></trkpt>
      <trkpt lat="29.517328" lon="101.720823"><time>2026-05-04T12:24:47.557Z</time></trkpt>
      <trkpt lat="29.517328" lon="101.720823"><time>2026-05-04T12:24:47.573Z</time></trkpt>
      <trkpt lat="29.517328" lon="101.720823"><time>2026-05-04T12:24:47.590Z</time></trkpt>
      <trkpt lat="29.517328" lon="101.720823"><time>2026-05-04T12:24:47.607Z</time></trkpt>
      <trkpt lat="29.517328" lon="101.720823"><time>2026-05-04T12:24:47.623Z</time></trkpt>
      <trkpt lat="29.517324" lon="101.720824"><time>2026-05-04T12:24:47.640Z</time></trkpt>
      <trkpt lat="29.517324" lon="101.720824"><time>2026-05-04T12:24:47.657Z</time></trkpt>
      <trkpt lat="29.517324" lon="101.720824"><time>2026-05-04T12:24:47.673Z</time></trkpt>
      <trkpt lat="29.517324" lon="101.720824"><time>2026-05-04T12:24:47.690Z</time></trkpt>
      <trkpt lat="29.517324" lon="101.720824"><time>2026-05-04T12:24:47.707Z</time></trkpt>
      <trkpt lat="29.517324" lon="101.720824"><time>2026-05-04T12:24:47.724Z</time></trkpt>
      <trkpt lat="29.51732" lon="101.720825"><time>2026-05-04T12:24:47.740Z</time></trkpt>
      <trkpt lat="29.51732" lon="101.720825"><time>2026-05-04T12:24:47.757Z</time></trkpt>
      <trkpt lat="29.51732" lon="101.720825"><time>2026-05-04T12:24:47.774Z</time></trkpt>
      <trkpt lat="29.51732" lon="101.720825"><time>2026-05-04T12:24:47.790Z</time></trkpt>
      <trkpt lat="29.51732" lon="101.720825"><time>2026-05-04T12:24:47.807Z</time></trkpt>
      <trkpt lat="29.51732" lon="101.720825"><time>2026-05-04T12:24:47.824Z</time></trkpt>
      <trkpt lat="29.517316" lon="101.720827"><time>2026-05-04T12:24:47.840Z</time></trkpt>
      <trkpt lat="29.517316" lon="101.720827"><time>2026-05-04T12:24:47.857Z</time></trkpt>
      <trkpt lat="29.517316" lon="101.720827"><time>2026-05-04T12:24:47.874Z</time></trkpt>
      <trkpt lat="29.517316" lon="101.720827"><time>2026-05-04T12:24:47.890Z</time></trkpt>
      <trkpt lat="29.517316" lon="101.720827"><time>2026-05-04T12:24:47.907Z</time></trkpt>
      <trkpt lat="29.517316" lon="101.720827"><time>2026-05-04T12:24:47.924Z</time></trkpt>
      <trkpt lat="29.517312" lon="101.720828"><time>2026-05-04T12:24:47.940Z</time></trkpt>
      <trkpt lat="29.517312" lon="101.720828"><time>2026-05-04T12:24:47.957Z</time></trkpt>
      <trkpt lat="29.517312" lon="101.720828"><time>2026-05-04T12:24:47.974Z</time></trkpt>
      <trkpt lat="29.517312" lon="101.720828"><time>2026-05-04T12:24:47.990Z</time></trkpt>
      <trkpt lat="29.517312" lon="101.720828"><time>2026-05-04T12:24:48.007Z</time></trkpt>
      <trkpt lat="29.517312" lon="101.720828"><time>2026-05-04T12:24:48.024Z</time></trkpt>
      <trkpt lat="29.517308" lon="101.720829"><time>2026-05-04T12:24:48.041Z</time></trkpt>
      <trkpt lat="29.517308" lon="101.720829"><time>2026-05-04T12:24:48.057Z</time></trkpt>
      <trkpt lat="29.517308" lon="101.720829"><time>2026-05-04T12:24:48.074Z</time></trkpt>
      <trkpt lat="29.517308" lon="101.720829"><time>2026-05-04T12:24:48.091Z</time></trkpt>
      <trkpt lat="29.517308" lon="101.720829"><time>2026-05-04T12:24:48.107Z</time></trkpt>
      <trkpt lat="29.517308" lon="101.720829"><time>2026-05-04T12:24:48.124Z</time></trkpt>
      <trkpt lat="29.517304" lon="101.720831"><time>2026-05-04T12:24:48.141Z</time></trkpt>
      <trkpt lat="29.517304" lon="101.720831"><time>2026-05-04T12:24:48.157Z</time></trkpt>
      <trkpt lat="29.517304" lon="101.720831"><time>2026-05-04T12:24:48.174Z</time></trkpt>
      <trkpt lat="29.517304" lon="101.720831"><time>2026-05-04T12:24:48.191Z</time></trkpt>
      <trkpt lat="29.517304" lon="101.720831"><time>2026-05-04T12:24:48.207Z</time></trkpt>
      <trkpt lat="29.517304" lon="101.720831"><time>2026-05-04T12:24:48.224Z</time></trkpt>
      <trkpt lat="29.5173" lon="101.720832"><time>2026-05-04T12:24:48.241Z</time></trkpt>
      <trkpt lat="29.5173" lon="101.720832"><time>2026-05-04T12:24:48.257Z</time></trkpt>
      <trkpt lat="29.5173" lon="101.720832"><time>2026-05-04T12:24:48.274Z</time></trkpt>
      <trkpt lat="29.5173" lon="101.720832"><time>2026-05-04T12:24:48.291Z</time></trkpt>
      <trkpt lat="29.5173" lon="101.720832"><time>2026-05-04T12:24:48.307Z</time></trkpt>
      <trkpt lat="29.5173" lon="101.720832"><time>2026-05-04T12:24:48.324Z</time></trkpt>
      <trkpt lat="29.517296" lon="101.720834"><time>2026-05-04T12:24:48.341Z</time></trkpt>
      <trkpt lat="29.517296" lon="101.720834"><time>2026-05-04T12:24:48.358Z</time></trkpt>
      <trkpt lat="29.517296" lon="101.720834"><time>2026-05-04T12:24:48.374Z</time></trkpt>
      <trkpt lat="29.517296" lon="101.720834"><time>2026-05-04T12:24:48.391Z</time></trkpt>
      <trkpt lat="29.517296" lon="101.720834"><time>2026-05-04T12:24:48.408Z</time></trkpt>
      <trkpt lat="29.517296" lon="101.720834"><time>2026-05-04T12:24:48.424Z</time></trkpt>
      <trkpt lat="29.517293" lon="101.720835"><time>2026-05-04T12:24:48.441Z</time></trkpt>
      <trkpt lat="29.517293" lon="101.720835"><time>2026-05-04T12:24:48.458Z</time></trkpt>
      <trkpt lat="29.517293" lon="101.720835"><time>2026-05-04T12:24:48.474Z</time></trkpt>
      <trkpt lat="29.517293" lon="101.720835"><time>2026-05-04T12:24:48.491Z</time></trkpt>
      <trkpt lat="29.517293" lon="101.720835"><time>2026-05-04T12:24:48.508Z</time></trkpt>
      <trkpt lat="29.517293" lon="101.720835"><time>2026-05-04T12:24:48.524Z</time></trkpt>
      <trkpt lat="29.517289" lon="101.720836"><time>2026-05-04T12:24:48.541Z</time></trkpt>
      <trkpt lat="29.517289" lon="101.720836"><time>2026-05-04T12:24:48.558Z</time></trkpt>
      <trkpt lat="29.517289" lon="101.720836"><time>2026-05-04T12:24:48.574Z</time></trkpt>
      <trkpt lat="29.517289" lon="101.720836"><time>2026-05-04T12:24:48.591Z</time></trkpt>
      <trkpt lat="29.517289" lon="101.720836"><time>2026-05-04T12:24:48.608Z</time></trkpt>
      <trkpt lat="29.517289" lon="101.720836"><time>2026-05-04T12:24:48.624Z</time></trkpt>
      <trkpt lat="29.517286" lon="101.720838"><time>2026-05-04T12:24:48.641Z</time></trkpt>
      <trkpt lat="29.517286" lon="101.720838"><time>2026-05-04T12:24:48.658Z</time></trkpt>
      <trkpt lat="29.517286" lon="101.720838"><time>2026-05-04T12:24:48.675Z</time></trkpt>
      <trkpt lat="29.517286" lon="101.720838"><time>2026-05-04T12:24:48.691Z</time></trkpt>
      <trkpt lat="29.517286" lon="101.720838"><time>2026-05-04T12:24:48.708Z</time></trkpt>
      <trkpt lat="29.517286" lon="101.720838"><time>2026-05-04T12:24:48.725Z</time></trkpt>
      <trkpt lat="29.517282" lon="101.720839"><time>2026-05-04T12:24:48.741Z</time></trkpt>
      <trkpt lat="29.517282" lon="101.720839"><time>2026-05-04T12:24:48.758Z</time></trkpt>
      <trkpt lat="29.517282" lon="101.720839"><time>2026-05-04T12:24:48.775Z</time></trkpt>
      <trkpt lat="29.517282" lon="101.720839"><time>2026-05-04T12:24:48.791Z</time></trkpt>
      <trkpt lat="29.517282" lon="101.720839"><time>2026-05-04T12:24:48.808Z</time></trkpt>
      <trkpt lat="29.517282" lon="101.720839"><time>2026-05-04T12:24:48.825Z</time></trkpt>
      <trkpt lat="29.517279" lon="101.720841"><time>2026-05-04T12:24:48.841Z</time></trkpt>
      <trkpt lat="29.517279" lon="101.720841"><time>2026-05-04T12:24:48.858Z</time></trkpt>
      <trkpt lat="29.517279" lon="101.720841"><time>2026-05-04T12:24:48.875Z</time></trkpt>
      <trkpt lat="29.517279" lon="101.720841"><time>2026-05-04T12:24:48.891Z</time></trkpt>
      <trkpt lat="29.517279" lon="101.720841"><time>2026-05-04T12:24:48.908Z</time></trkpt>
      <trkpt lat="29.517279" lon="101.720841"><time>2026-05-04T12:24:48.925Z</time></trkpt>
      <trkpt lat="29.517275" lon="101.720842"><time>2026-05-04T12:24:48.941Z</time></trkpt>
      <trkpt lat="29.517275" lon="101.720842"><time>2026-05-04T12:24:48.958Z</time></trkpt>
      <trkpt lat="29.517275" lon="101.720842"><time>2026-05-04T12:24:48.975Z</time></trkpt>
      <trkpt lat="29.517275" lon="101.720842"><time>2026-05-04T12:24:48.992Z</time></trkpt>
      <trkpt lat="29.517275" lon="101.720842"><time>2026-05-04T12:24:49.008Z</time></trkpt>
      <trkpt lat="29.517275" lon="101.720842"><time>2026-05-04T12:24:49.025Z</time></trkpt>
      <trkpt lat="29.517271" lon="101.720843"><time>2026-05-04T12:24:49.042Z</time></trkpt>
      <trkpt lat="29.517271" lon="101.720843"><time>2026-05-04T12:24:49.058Z</time></trkpt>
      <trkpt lat="29.517271" lon="101.720843"><time>2026-05-04T12:24:49.075Z</time></trkpt>
      <trkpt lat="29.517271" lon="101.720843"><time>2026-05-04T12:24:49.092Z</time></trkpt>
      <trkpt lat="29.517271" lon="101.720843"><time>2026-05-04T12:24:49.108Z</time></trkpt>
      <trkpt lat="29.517271" lon="101.720843"><time>2026-05-04T12:24:49.125Z</time></trkpt>
    </trkseg>
  </trk>
</gpx>
