<?xml version="1.0" encoding="UTF-8"?>
<gpx version="1.1" creator="Kairos" xmlns="http://www.topografix.com/GPX/1/1">
  <trk>
    <name>sidecar-srt-cdba244630a4e85c</name>
    <trkseg>
      <trkpt lat="29.517235" lon="101.720802"><time>2026-05-04T09:39:27.000Z</time></trkpt>
      <trkpt lat="29.517235" lon="101.720802"><time>2026-05-04T09:39:27.016Z</time></trkpt>
      <trkpt lat="29.517235" lon="101.720802"><time>2026-05-04T09:39:27.032Z</time></trkpt>
      <trkpt lat="29.517235" lon="101.720801"><time>2026-05-04T09:39:27.049Z</time></trkpt>
      <trkpt lat="29.517235" lon="101.720801"><time>2026-05-04T09:39:27.066Z</time></trkpt>
      <trkpt lat="29.517235" lon="101.720801"><time>2026-05-04T09:39:27.082Z</time></trkpt>
      <trkpt lat="29.517235" lon="101.720801"><time>2026-05-04T09:39:27.099Z</time></trkpt>
      <trkpt lat="29.517235" lon="101.720801"><time>2026-05-04T09:39:27.116Z</time></trkpt>
      <trkpt lat="29.517235" lon="101.720801"><time>2026-05-04T09:39:27.132Z</time></trkpt>
      <trkpt lat="29.517235" lon="101.720801"><time>2026-05-04T09:39:27.149Z</time></trkpt>
      <trkpt lat="29.517235" lon="101.720801"><time>2026-05-04T09:39:27.166Z</time></trkpt>
      <trkpt lat="29.517235" lon="101.720801"><time>2026-05-04T09:39:27.182Z</time></trkpt>
      <trkpt lat="29.517235" lon="101.720801"><time>2026-05-04T09:39:27.199Z</time></trkpt>
      <trkpt lat="29.517235" lon="101.720801"><time>2026-05-04T09:39:27.216Z</time></trkpt>
      <trkpt lat="29.517235" lon="101.720801"><time>2026-05-04T09:39:27.232Z</time></trkpt>
      <trkpt lat="29.517235" lon="101.720801"><time>2026-05-04T09:39:27.249Z</time></trkpt>
      <trkpt lat="29.517235" lon="101.720801"><time>2026-05-04T09:39:27.266Z</time></trkpt>
      <trkpt lat="29.517235" lon="101.720801"><time>2026-05-04T09:39:27.282Z</time></trkpt>
      <trkpt lat="29.517235" lon="101.720801"><time>2026-05-04T09:39:27.299Z</time></trkpt>
      <trkpt lat="29.517235" lon="101.720801"><time>2026-05-04T09:39:27.316Z</time></trkpt>
      <trkpt lat="29.517235" lon="101.720801"><time>2026-05-04T09:39:27.333Z</time></trkpt>
      <trkpt lat="29.517235" lon="101.720801"><time>2026-05-04T09:39:27.349Z</time></trkpt>
      <trkpt lat="29.517235" lon="101.720801"><time>2026-05-04T09:39:27.366Z</time></trkpt>
      <trkpt lat="29.517235" lon="101.720801"><time>2026-05-04T09:39:27.383Z</time></trkpt>
      <trkpt lat="29.517235" lon="101.720801"><time>2026-05-04T09:39:27.399Z</time></trkpt>
      <trkpt lat="29.517235" lon="101.720801"><time>2026-05-04T09:39:27.416Z</time></trkpt>
      <trkpt lat="29.517235" lon="101.720801"><time>2026-05-04T09:39:27.433Z</time></trkpt>
      <trkpt lat="29.517235" lon="101.720801"><time>2026-05-04T09:39:27.449Z</time></trkpt>
      <trkpt lat="29.517235" lon="101.720801"><time>2026-05-04T09:39:27.466Z</time></trkpt>
      <trkpt lat="29.517235" lon="101.720801"><time>2026-05-04T09:39:27.483Z</time></trkpt>
      <trkpt lat="29.517235" lon="101.720801"><time>2026-05-04T09:39:27.499Z</time></trkpt>
      <trkpt lat="29.517235" lon="101.720801"><time>2026-05-04T09:39:27.516Z</time></trkpt>
      <trkpt lat="29.517235" lon="101.720801"><time>2026-05-04T09:39:27.533Z</time></trkpt>
      <trkpt lat="29.517236" lon="101.720801"><time>2026-05-04T09:39:27.549Z</time></trkpt>
      <trkpt lat="29.517236" lon="101.720801"><time>2026-05-04T09:39:27.566Z</time></trkpt>
      <trkpt lat="29.517236" lon="101.720801"><time>2026-05-04T09:39:27.583Z</time></trkpt>
      <trkpt lat="29.517236" lon="101.720801"><time>2026-05-04T09:39:27.599Z</time></trkpt>
      <trkpt lat="29.517236" lon="101.720801"><time>2026-05-04T09:39:27.616Z</time></trkpt>
      <trkpt lat="29.517236" lon="101.720801"><time>2026-05-04T09:39:27.633Z</time></trkpt>
      <trkpt lat="29.517236" lon="101.720801"><time>2026-05-04T09:39:27.650Z</time></trkpt>
      <trkpt lat="29.517236" lon="101.720801"><time>2026-05-04T09:39:27.666Z</time></trkpt>
      <trkpt lat="29.517236" lon="101.720801"><time>2026-05-04T09:39:27.683Z</time></trkpt>
      <trkpt lat="29.517236" lon="101.720801"><time>2026-05-04T09:39:27.700Z</time></trkpt>
      <trkpt lat="29.517236" lon="101.720801"><time>2026-05-04T09:39:27.716Z</time></trkpt>
      <trkpt lat="29.517236" lon="101.720801"><time>2026-05-04T09:39:27.733Z</time></trkpt>
      <trkpt lat="29.517236" lon="101.720801"><time>2026-05-04T09:39:27.750Z</time></trkpt>
      <trkpt lat="29.517236" lon="101.720801"><time>2026-05-04T09:39:27.766Z</time></trkpt>
      <trkpt lat="29.517236" lon="101.720801"><time>2026-05-04T09:39:27.783Z</time></trkpt>
      <trkpt lat="29.517236" lon="101.720801"><time>2026-05-04T09:39:27.800Z</time></trkpt>
      <trkpt lat="29.517236" lon="101.720801"><time>2026-05-04T09:39:27.816Z</time></trkpt>
      <trkpt lat="29.517236" lon="101.720801"><time>2026-05-04T09:39:27.833Z</time></trkpt>
      <trkpt lat="29.517236" lon="101.720801"><time>2026-05-04T09:39:27.850Z</time></trkpt>
      <trkpt lat="29.517236" lon="101.720801"><time>2026-05-04T09:39:27.866Z</time></trkpt>
      <trkpt lat="29.517236" lon="101.720801"><time>2026-05-04T09:39:27.883Z</time></trkpt>
      <trkpt lat="29.517236" lon="101.720801"><time>2026-05-04T09:39:27.900Z</time></trkpt>
      <trkpt lat="29.517236" lon="101.720801"><time>2026-05-04T09:39:27.916Z</time></trkpt>
      <trkpt lat="29.517236" lon="101.720801"><time>2026-05-04T09:39:27.933Z</time></trkpt>
      <trkpt lat="29.517236" lon="101.720801"><time>2026-05-04T09:39:27.950Z</time></trkpt>
      <trkpt lat="29.517236" lon="101.720801"><time>2026-05-04T09:39:27.967Z</time></trkpt>
      <trkpt lat="29.517236" lon="101.720801"><time>2026-05-04T09:39:27.983Z</time></trkpt>
      <trkpt lat="29.517236" lon="101.720801"><time>2026-05-04T09:39:28.000Z</time></trkpt>
      <trkpt lat="29.517236" lon="101.720801"><time>2026-05-04T09:39:28.017Z</time></trkpt>
      <trkpt lat="29.517236" lon="101.720801"><time>2026-05-04T09:39:28.033Z</time></trkpt>
      <trkpt lat="29.517236" lon="101.720801"><time>2026-05-04T09:39:28.050Z</time></trkpt>
      <trkpt lat="29.517236" lon="101.720801"><time>2026-05-04T09:39:28.067Z</time></trkpt>
      <trkpt lat="29.517236" lon="101.720801"><time>2026-05-04T09:39:28.083Z</time></trkpt>
      <trkpt lat="29.517236" lon="101.720801"><time>2026-05-04T09:39:28.100Z</time></trkpt>
      <trkpt lat="29.517236" lon="101.720801"><time>2026-05-04T09:39:28.117Z</time></trkpt>
      <trkpt lat="29.517236" lon="101.720801"><time>2026-05-04T09:39:28.133Z</time></trkpt>
      <trkpt lat="29.517236" lon="101.720801"><time>2026-05-04T09:39:28.150Z</time></trkpt>
      <trkpt lat="29.517236" lon="101.720801"><time>2026-05-04T09:39:28.167Z</time></trkpt>
      <trkpt lat="29.517236" lon="101.720801"><time>2026-05-04T09:39:28.183Z</time></trkpt>
      <trkpt lat="29.517236" lon="101.720801"><time>2026-05-04T09:39:28.200Z</time></trkpt>
      <trkpt lat="29.517236" lon="101.720801"><time>2026-05-04T09:39:28.217Z</time></trkpt>
      <trkpt lat="29.517236" lon="101.720801"><time>2026-05-04T09:39:28.233Z</time></trkpt>
      <trkpt lat="29.517236" lon="101.720801"><time>2026-05-04T09:39:28.250Z</time></trkpt>
      <trkpt lat="29.517236" lon="101.720801"><time>2026-05-04T09:39:28.267Z</time></trkpt>
      <trkpt lat="29.517236" lon="101.720801"><time>2026-05-04T09:39:28.284Z</time></trkpt>
      <trkpt lat="29.517236" lon="101.720801"><time>2026-05-04T09:39:28.300Z</time></trkpt>
      <trkpt lat="29.517236" lon="101.720801"><time>2026-05-04T09:39:28.317Z</time></trkpt>
      <trkpt lat="29.517236" lon="101.720801"><time>2026-05-04T09:39:28.334Z</time></trkpt>
      <trkpt lat="29.517236" lon="101.720801"><time>2026-05-04T09:39:28.350Z</time></trkpt>
      <trkpt lat="29.517236" lon="101.720801"><time>2026-05-04T09:39:28.367Z</time></trkpt>
      <trkpt lat="29.517236" lon="101.720801"><time>2026-05-04T09:39:28.384Z</time></trkpt>
      <trkpt lat="29.517236" lon="101.720801"><time>2026-05-04T09:39:28.400Z</time></trkpt>
      <trkpt lat="29.517236" lon="101.720801"><time>2026-05-04T09:39:28.417Z</time></trkpt>
      <trkpt lat="29.517236" lon="101.720801"><time>2026-05-04T09:39:28.434Z</time></trkpt>
      <trkpt lat="29.517236" lon="101.720801"><time>2026-05-04T09:39:28.450Z</time></trkpt>
      <trkpt lat="29.517236" lon="101.720801"><time>2026-05-04T09:39:28.467Z</time></trkpt>
      <trkpt lat="29.517236" lon="101.720801"><time>2026-05-04T09:39:28.484Z</time></trkpt>
      <trkpt lat="29.517236" lon="101.720801"><time>2026-05-04T09:39:28.500Z</time></trkpt>
      <trkpt lat="29.517236" lon="101.720801"><time>2026-05-04T09:39:28.517Z</time></trkpt>
      <trkpt lat="29.517236" lon="101.720801"><time>2026-05-04T09:39:28.534Z</time></trkpt>
      <trkpt lat="29.517236" lon="101.720801"><time>2026-05-04T09:39:28.550Z</time></trkpt>
      <trkpt lat="29.517236" lon="101.720801"><time>2026-05-04T09:39:28.567Z</time></trkpt>
      <trkpt lat="29.517236" lon="101.720801"><time>2026-05-04T09:39:28.584Z</time></trkpt>
      <trkpt lat="29.517236" lon="101.720801"><time>2026-05-04T09:39:28.600Z</time></trkpt>
      <trkpt lat="29.517236" lon="101.720801"><time>2026-05-04T09:39:28.617Z</time></trkpt>
      <trkpt lat="29.517236" lon="101.720801"><time>2026-05-04T09:39:28.634Z</time></trkpt>
      <trkpt lat="29.517236" lon="101.720801"><time>2026-05-04T09:39:28.651Z</time></trkpt>
      <trkpt lat="29.517236" lon="101.720801"><time>2026-05-04T09:39:28.667Z</time></trkpt>
      <trkpt lat="29.517236" lon="101.720801"><time>2026-05-04T09:39:28.684Z</time></trkpt>
      <trkpt lat="29.517236" lon="101.720801"><time>2026-05-04T09:39:28.701Z</time></trkpt>
      <trkpt lat="29.517236" lon="101.720801"><time>2026-05-04T09:39:28.717Z</time></trkpt>
      <trkpt lat="29.517236" lon="101.720801"><time>2026-05-04T09:39:28.734Z</time></trkpt>
      <trkpt lat="29.517236" lon="101.720801"><time>2026-05-04T09:39:28.751Z</time></trkpt>
      <trkpt lat="29.517236" lon="101.720801"><time>2026-05-04T09:39:28.767Z</time></trkpt>
      <trkpt lat="29.517236" lon="101.720801"><time>2026-05-04T09:39:28.784Z</time></trkpt>
      <trkpt lat="29.517236" lon="101.720801"><time>2026-05-04T09:39:28.801Z</time></trkpt>
      <trkpt lat="29.517236" lon="101.720801"><time>2026-05-04T09:39:28.817Z</time></trkpt>
      <trkpt lat="29.517236" lon="101.720801"><time>2026-05-04T09:39:28.834Z</time></trkpt>
      <trkpt lat="29.517236" lon="101.720801"><time>2026-05-04T09:39:28.851Z</time></trkpt>
      <trkpt lat="29.517236" lon="101.720801"><time>2026-05-04T09:39:28.867Z</time></trkpt>
      <trkpt lat="29.517236" lon="101.720801"><time>2026-05-04T09:39:28.884Z</time></trkpt>
      <trkpt lat="29.517236" lon="101.720801"><time>2026-05-04T09:39:28.901Z</time></trkpt>
      <trkpt lat="29.517236" lon="101.720801"><time>2026-05-04T09:39:28.917Z</time></trkpt>
      <trkpt lat="29.517236" lon="101.720801"><time>2026-05-04T09:39:28.934Z</time></trkpt>
      <trkpt lat="29.517236" lon="101.720801"><time>2026-05-04T09:39:28.951Z</time></trkpt>
      <trkpt lat="29.517236" lon="101.720801"><time>2026-05-04T09:39:28.968Z</time></trkpt>
      <trkpt lat="29.517236" lon="101.720801"><time>2026-05-04T09:39:28.984Z</time></trkpt>
      <trkpt lat="29.517236" lon="101.720801"><time>2026-05-04T09:39:29.001Z</time></trkpt>
      <trkpt lat="29.517236" lon="101.720801"><time>2026-05-04T09:39:29.018Z</time></trkpt>
      <trkpt lat="29.517236" lon="101.720801"><time>2026-05-04T09:39:29.034Z</time></trkpt>
      <trkpt lat="29.517236" lon="101.720802"><time>2026-05-04T09:39:29.051Z</time></trkpt>
      <trkpt lat="29.517236" lon="101.720802"><time>2026-05-04T09:39:29.068Z</time></trkpt>
      <trkpt lat="29.517236" lon="101.720802"><time>2026-05-04T09:39:29.084Z</time></trkpt>
      <trkpt lat="29.517236" lon="101.720802"><time>2026-05-04T09:39:29.101Z</time></trkpt>
      <trkpt lat="29.517236" lon="101.720802"><time>2026-05-04T09:39:29.118Z</time></trkpt>
      <trkpt lat="29.517236" lon="101.720802"><time>2026-05-04T09:39:29.134Z</time></trkpt>
      <trkpt lat="29.517236" lon="101.720802"><time>2026-05-04T09:39:29.151Z</time></trkpt>
      <trkpt lat="29.517236" lon="101.720802"><time>2026-05-04T09:39:29.168Z</time></trkpt>
      <trkpt lat="29.517236" lon="101.720802"><time>2026-05-04T09:39:29.184Z</time></trkpt>
      <trkpt lat="29.517236" lon="101.720802"><time>2026-05-04T09:39:29.201Z</time></trkpt>
      <trkpt lat="29.517236" lon="101.720802"><time>2026-05-04T09:39:29.218Z</time></trkpt>
      <trkpt lat="29.517236" lon="101.720802"><time>2026-05-04T09:39:29.234Z</time></trkpt>
      <trkpt lat="29.517236" lon="101.720802"><time>2026-05-04T09:39:29.251Z</time></trkpt>
      <trkpt lat="29.517236" lon="101.720802"><time>2026-05-04T09:39:29.268Z</time></trkpt>
      <trkpt lat="29.517236" lon="101.720802"><time>2026-05-04T09:39:29.285Z</time></trkpt>
      <trkpt lat="29.517236" lon="101.720802"><time>2026-05-04T09:39:29.301Z</time></trkpt>
      <trkpt lat="29.517236" lon="101.720802"><time>2026-05-04T09:39:29.318Z</time></trkpt>
      <trkpt lat="29.517236" lon="101.720802"><time>2026-05-04T09:39:29.335Z</time></trkpt>
      <trkpt lat="29.517236" lon="101.720802"><time>2026-05-04T09:39:29.351Z</time></trkpt>
      <trkpt lat="29.517236" lon="101.720802"><time>2026-05-04T09:39:29.368Z</time></trkpt>
      <trkpt lat="29.517236" lon="101.720802"><time>2026-05-04T09:39:29.385Z</time></trkpt>
      <trkpt lat="29.517236" lon="101.720802"><time>2026-05-04T09:39:29.401Z</time></trkpt>
      <trkpt lat="29.517236" lon="101.720802"><time>2026-05-04T09:39:29.418Z</time></trkpt>
      <trkpt lat="29.517236" lon="101.720802"><time>2026-05-04T09:39:29.435Z</time></trkpt>
      <trkpt lat="29.517236" lon="101.720802"><time>2026-05-04T09:39:29.451Z</time></trkpt>
      <trkpt lat="29.517236" lon="101.720802"><time>2026-05-04T09:39:29.468Z</time></trkpt>
      <trkpt lat="29.517236" lon="101.720802"><time>2026-05-04T09:39:29.485Z</time></trkpt>
      <trkpt lat="29.517236" lon="101.720802"><time>2026-05-04T09:39:29.501Z</time></trkpt>
      <trkpt lat="29.517236" lon="101.720802"><time>2026-05-04T09:39:29.518Z</time></trkpt>
      <trkpt lat="29.517236" lon="101.720802"><time>2026-05-04T09:39:29.535Z</time></trkpt>
      <trkpt lat="29.517235" lon="101.720801"><time>2026-05-04T09:39:29.551Z</time></trkpt>
      <trkpt lat="29.517235" lon="101.720801"><time>2026-05-04T09:39:29.568Z</time></trkpt>
      <trkpt lat="29.517235" lon="101.720801"><time>2026-05-04T09:39:29.585Z</time></trkpt>
      <trkpt lat="29.517235" lon="101.720801"><time>2026-05-04T09:39:29.602Z</time></trkpt>
      <trkpt lat="29.517235" lon="101.720801"><time>2026-05-04T09:39:29.618Z</time></trkpt>
      <trkpt lat="29.517235" lon="101.720801"><time>2026-05-04T09:39:29.635Z</time></trkpt>
      <trkpt lat="29.517235" lon="101.720801"><time>2026-05-04T09:39:29.652Z</time></trkpt>
      <trkpt lat="29.517235" lon="101.720801"><time>2026-05-04T09:39:29.668Z</time></trkpt>
      <trkpt lat="29.517235" lon="101.720801"><time>2026-05-04T09:39:29.685Z</time></trkpt>
      <trkpt lat="29.517235" lon="101.720801"><time>2026-05-04T09:39:29.702Z</time></trkpt>
      <trkpt lat="29.517235" lon="101.720801"><time>2026-05-04T09:39:29.718Z</time></trkpt>
      <trkpt lat="29.517235" lon="101.720801"><time>2026-05-04T09:39:29.735Z</time></trkpt>
      <trkpt lat="29.517234" lon="101.7208"><time>2026-05-04T09:39:29.752Z</time></trkpt>
      <trkpt lat="29.517234" lon="101.7208"><time>2026-05-04T09:39:29.768Z</time></trkpt>
      <trkpt lat="29.517234" lon="101.7208"><time>2026-05-04T09:39:29.785Z</time></trkpt>
      <trkpt lat="29.517234" lon="101.7208"><time>2026-05-04T09:39:29.802Z</time></trkpt>
      <trkpt lat="29.517234" lon="101.7208"><time>2026-05-04T09:39:29.818Z</time></trkpt>
      <trkpt lat="29.517234" lon="101.7208"><time>2026-05-04T09:39:29.835Z</time></trkpt>
      <trkpt lat="29.517232" lon="101.720798"><time>2026-05-04T09:39:29.852Z</time></trkpt>
      <trkpt lat="29.517232" lon="101.720798"><time>2026-05-04T09:39:29.868Z</time></trkpt>
      <trkpt lat="29.517232" lon="101.720798"><time>2026-05-04T09:39:29.885Z</time></trkpt>
      <trkpt lat="29.517232" lon="101.720798"><time>2026-05-04T09:39:29.902Z</time></trkpt>
      <trkpt lat="29.517232" lon="101.720798"><time>2026-05-04T09:39:29.919Z</time></trkpt>
      <trkpt lat="29.517232" lon="101.720798"><time>2026-05-04T09:39:29.935Z</time></trkpt>
      <trkpt lat="29.517231" lon="101.720797"><time>2026-05-04T09:39:29.952Z</time></trkpt>
      <trkpt lat="29.517231" lon="101.720797"><time>2026-05-04T09:39:29.969Z</time></trkpt>
      <trkpt lat="29.517231" lon="101.720797"><time>2026-05-04T09:39:29.985Z</time></trkpt>
      <trkpt lat="29.517231" lon="101.720797"><time>2026-05-04T09:39:30.002Z</time></trkpt>
      <trkpt lat="29.517231" lon="101.720797"><time>2026-05-04T09:39:30.019Z</time></trkpt>
      <trkpt lat="29.517231" lon="101.720797"><time>2026-05-04T09:39:30.035Z</time></trkpt>
      <trkpt lat="29.517229" lon="101.720795"><time>2026-05-04T09:39:30.052Z</time></trkpt>
      <trkpt lat="29.517229" lon="101.720795"><time>2026-05-04T09:39:30.069Z</time></trkpt>
      <trkpt lat="29.517229" lon="101.720795"><time>2026-05-04T09:39:30.085Z</time></trkpt>
      <trkpt lat="29.517229" lon="101.720795"><time>2026-05-04T09:39:30.102Z</time></trkpt>
      <trkpt lat="29.517229" lon="101.720795"><time>2026-05-04T09:39:30.119Z</time></trkpt>
      <trkpt lat="29.517229" lon="101.720795"><time>2026-05-04T09:39:30.135Z</time></trkpt>
      <trkpt lat="29.517227" lon="101.720793"><time>2026-05-04T09:39:30.152Z</time></trkpt>
      <trkpt lat="29.517227" lon="101.720793"><time>2026-05-04T09:39:30.169Z</time></trkpt>
      <trkpt lat="29.517227" lon="101.720793"><time>2026-05-04T09:39:30.185Z</time></trkpt>
      <trkpt lat="29.517227" lon="101.720793"><time>2026-05-04T09:39:30.202Z</time></trkpt>
      <trkpt lat="29.517227" lon="101.720793"><time>2026-05-04T09:39:30.219Z</time></trkpt>
      <trkpt lat="29.517227" lon="101.720793"><time>2026-05-04T09:39:30.236Z</time></trkpt>
      <trkpt lat="29.517224" lon="101.720791"><time>2026-05-04T09:39:30.252Z</time></trkpt>
      <trkpt lat="29.517224" lon="101.720791"><time>2026-05-04T09:39:30.269Z</time></trkpt>
      <trkpt lat="29.517224" lon="101.720791"><time>2026-05-04T09:39:30.286Z</time></trkpt>
      <trkpt lat="29.517224" lon="101.720791"><time>2026-05-04T09:39:30.302Z</time></trkpt>
      <trkpt lat="29.517224" lon="101.720791"><time>2026-05-04T09:39:30.319Z</time></trkpt>
      <trkpt lat="29.517224" lon="101.720791"><time>2026-05-04T09:39:30.336Z</time></trkpt>
      <trkpt lat="29.517222" lon="101.720789"><time>2026-05-04T09:39:30.352Z</time></trkpt>
      <trkpt lat="29.517222" lon="101.720789"><time>2026-05-04T09:39:30.369Z</time></trkpt>
      <trkpt lat="29.517222" lon="101.720789"><time>2026-05-04T09:39:30.386Z</time></trkpt>
      <trkpt lat="29.517222" lon="101.720789"><time>2026-05-04T09:39:30.402Z</time></trkpt>
      <trkpt lat="29.517222" lon="101.720789"><time>2026-05-04T09:39:30.419Z</time></trkpt>
      <trkpt lat="29.517222" lon="101.720789"><time>2026-05-04T09:39:30.436Z</time></trkpt>
      <trkpt lat="29.517219" lon="101.720786"><time>2026-05-04T09:39:30.452Z</time></trkpt>
      <trkpt lat="29.517219" lon="101.720786"><time>2026-05-04T09:39:30.469Z</time></trkpt>
      <trkpt lat="29.517219" lon="101.720786"><time>2026-05-04T09:39:30.486Z</time></trkpt>
      <trkpt lat="29.517219" lon="101.720786"><time>2026-05-04T09:39:30.502Z</time></trkpt>
      <trkpt lat="29.517219" lon="101.720786"><time>2026-05-04T09:39:30.519Z</time></trkpt>
      <trkpt lat="29.517219" lon="101.720786"><time>2026-05-04T09:39:30.536Z</time></trkpt>
      <trkpt lat="29.517217" lon="101.720784"><time>2026-05-04T09:39:30.553Z</time></trkpt>
      <trkpt lat="29.517217" lon="101.720784"><time>2026-05-04T09:39:30.569Z</time></trkpt>
      <trkpt lat="29.517217" lon="101.720784"><time>2026-05-04T09:39:30.586Z</time></trkpt>
      <trkpt lat="29.517217" lon="101.720784"><time>2026-05-04T09:39:30.603Z</time></trkpt>
      <trkpt lat="29.517217" lon="101.720784"><time>2026-05-04T09:39:30.619Z</time></trkpt>
      <trkpt lat="29.517217" lon="101.720784"><time>2026-05-04T09:39:30.636Z</time></trkpt>
      <trkpt lat="29.517214" lon="101.720782"><time>2026-05-04T09:39:30.653Z</time></trkpt>
      <trkpt lat="29.517214" lon="101.720782"><time>2026-05-04T09:39:30.669Z</time></trkpt>
      <trkpt lat="29.517214" lon="101.720782"><time>2026-05-04T09:39:30.686Z</time></trkpt>
      <trkpt lat="29.517214" lon="101.720782"><time>2026-05-04T09:39:30.703Z</time></trkpt>
      <trkpt lat="29.517214" lon="101.720782"><time>2026-05-04T09:39:30.719Z</time></trkpt>
      <trkpt lat="29.517214" lon="101.720782"><time>2026-05-04T09:39:30.736Z</time></trkpt>
      <trkpt lat="29.517211" lon="101.720779"><time>2026-05-04T09:39:30.753Z</time></trkpt>
      <trkpt lat="29.517211" lon="101.720779"><time>2026-05-04T09:39:30.769Z</time></trkpt>
      <trkpt lat="29.517211" lon="101.720779"><time>2026-05-04T09:39:30.786Z</time></trkpt>
      <trkpt lat="29.517211" lon="101.720779"><time>2026-05-04T09:39:30.803Z</time></trkpt>
      <trkpt lat="29.517211" lon="101.720779"><time>2026-05-04T09:39:30.819Z</time></trkpt>
      <trkpt lat="29.517211" lon="101.720779"><time>2026-05-04T09:39:30.836Z</time></trkpt>
      <trkpt lat="29.517208" lon="101.720777"><time>2026-05-04T09:39:30.853Z</time></trkpt>
      <trkpt lat="29.517208" lon="101.720777"><time>2026-05-04T09:39:30.870Z</time></trkpt>
      <trkpt lat="29.517208" lon="101.720777"><time>2026-05-04T09:39:30.886Z</time></trkpt>
      <trkpt lat="29.517208" lon="101.720777"><time>2026-05-04T09:39:30.903Z</time></trkpt>
      <trkpt lat="29.517208" lon="101.720777"><time>2026-05-04T09:39:30.920Z</time></trkpt>
      <trkpt lat="29.517208" lon="101.720777"><time>2026-05-04T09:39:30.936Z</time></trkpt>
      <trkpt lat="29.517205" lon="101.720775"><time>2026-05-04T09:39:30.953Z</time></trkpt>
      <trkpt lat="29.517205" lon="101.720775"><time>2026-05-04T09:39:30.970Z</time></trkpt>
      <trkpt lat="29.517205" lon="101.720775"><time>2026-05-04T09:39:30.986Z</time></trkpt>
      <trkpt lat="29.517205" lon="101.720775"><time>2026-05-04T09:39:31.003Z</time></trkpt>
      <trkpt lat="29.517205" lon="101.720775"><time>2026-05-04T09:39:31.020Z</time></trkpt>
      <trkpt lat="29.517205" lon="101.720775"><time>2026-05-04T09:39:31.036Z</time></trkpt>
      <trkpt lat="29.517202" lon="101.720773"><time>2026-05-04T09:39:31.053Z</time></trkpt>
      <trkpt lat="29.517202" lon="101.720773"><time>2026-05-04T09:39:31.070Z</time></trkpt>
      <trkpt lat="29.517202" lon="101.720773"><time>2026-05-04T09:39:31.086Z</time></trkpt>
      <trkpt lat="29.517202" lon="101.720773"><time>2026-05-04T09:39:31.103Z</time></trkpt>
      <trkpt lat="29.517202" lon="101.720773"><time>2026-05-04T09:39:31.120Z</time></trkpt>
      <trkpt lat="29.517202" lon="101.720773"><time>2026-05-04T09:39:31.136Z</time></trkpt>
      <trkpt lat="29.517199" lon="101.720771"><time>2026-05-04T09:39:31.153Z</time></trkpt>
      <trkpt lat="29.517199" lon="101.720771"><time>2026-05-04T09:39:31.170Z</time></trkpt>
      <trkpt lat="29.517199" lon="101.720771"><time>2026-05-04T09:39:31.187Z</time></trkpt>
      <trkpt lat="29.517199" lon="101.720771"><time>2026-05-04T09:39:31.203Z</time></trkpt>
      <trkpt lat="29.517199" lon="101.720771"><time>2026-05-04T09:39:31.220Z</time></trkpt>
      <trkpt lat="29.517199" lon="101.720771"><time>2026-05-04T09:39:31.237Z</time></trkpt>
      <trkpt lat="29.517195" lon="101.720769"><time>2026-05-04T09:39:31.253Z</time></trkpt>
      <trkpt lat="29.517195" lon="101.720769"><time>2026-05-04T09:39:31.270Z</time></trkpt>
      <trkpt lat="29.517195" lon="101.720769"><time>2026-05-04T09:39:31.287Z</time></trkpt>
      <trkpt lat="29.517195" lon="101.720769"><time>2026-05-04T09:39:31.303Z</time></trkpt>
      <trkpt lat="29.517195" lon="101.720769"><time>2026-05-04T09:39:31.320Z</time></trkpt>
      <trkpt lat="29.517195" lon="101.720769"><time>2026-05-04T09:39:31.337Z</time></trkpt>
      <trkpt lat="29.517192" lon="101.720767"><time>2026-05-04T09:39:31.353Z</time></trkpt>
      <trkpt lat="29.517192" lon="101.720767"><time>2026-05-04T09:39:31.370Z</time></trkpt>
      <trkpt lat="29.517192" lon="101.720767"><time>2026-05-04T09:39:31.387Z</time></trkpt>
      <trkpt lat="29.517192" lon="101.720767"><time>2026-05-04T09:39:31.403Z</time></trkpt>
      <trkpt lat="29.517192" lon="101.720767"><time>2026-05-04T09:39:31.420Z</time></trkpt>
      <trkpt lat="29.517192" lon="101.720767"><time>2026-05-04T09:39:31.437Z</time></trkpt>
      <trkpt lat="29.517189" lon="101.720765"><time>2026-05-04T09:39:31.453Z</time></trkpt>
      <trkpt lat="29.517189" lon="101.720765"><time>2026-05-04T09:39:31.470Z</time></trkpt>
      <trkpt lat="29.517189" lon="101.720765"><time>2026-05-04T09:39:31.487Z</time></trkpt>
      <trkpt lat="29.517189" lon="101.720765"><time>2026-05-04T09:39:31.504Z</time></trkpt>
      <trkpt lat="29.517189" lon="101.720765"><time>2026-05-04T09:39:31.520Z</time></trkpt>
      <trkpt lat="29.517189" lon="101.720765"><time>2026-05-04T09:39:31.537Z</time></trkpt>
      <trkpt lat="29.517186" lon="101.720764"><time>2026-05-04T09:39:31.554Z</time></trkpt>
      <trkpt lat="29.517186" lon="101.720764"><time>2026-05-04T09:39:31.570Z</time></trkpt>
      <trkpt lat="29.517186" lon="101.720764"><time>2026-05-04T09:39:31.587Z</time></trkpt>
      <trkpt lat="29.517186" lon="101.720764"><time>2026-05-04T09:39:31.604Z</time></trkpt>
      <trkpt lat="29.517186" lon="101.720764"><time>2026-05-04T09:39:31.620Z</time></trkpt>
      <trkpt lat="29.517186" lon="101.720764"><time>2026-05-04T09:39:31.637Z</time></trkpt>
      <trkpt lat="29.517183" lon="101.720762"><time>2026-05-04T09:39:31.654Z</time></trkpt>
      <trkpt lat="29.517183" lon="101.720762"><time>2026-05-04T09:39:31.670Z</time></trkpt>
      <trkpt lat="29.517183" lon="101.720762"><time>2026-05-04T09:39:31.687Z</time></trkpt>
      <trkpt lat="29.517183" lon="101.720762"><time>2026-05-04T09:39:31.704Z</time></trkpt>
      <trkpt lat="29.517183" lon="101.720762"><time>2026-05-04T09:39:31.720Z</time></trkpt>
      <trkpt lat="29.517183" lon="101.720762"><time>2026-05-04T09:39:31.737Z</time></trkpt>
      <trkpt lat="29.517179" lon="101.72076"><time>2026-05-04T09:39:31.754Z</time></trkpt>
      <trkpt lat="29.517179" lon="101.72076"><time>2026-05-04T09:39:31.770Z</time></trkpt>
      <trkpt lat="29.517179" lon="101.72076"><time>2026-05-04T09:39:31.787Z</time></trkpt>
      <trkpt lat="29.517179" lon="101.72076"><time>2026-05-04T09:39:31.804Z</time></trkpt>
      <trkpt lat="29.517179" lon="101.72076"><time>2026-05-04T09:39:31.821Z</time></trkpt>
      <trkpt lat="29.517179" lon="101.72076"><time>2026-05-04T09:39:31.837Z</time></trkpt>
      <trkpt lat="29.517176" lon="101.720759"><time>2026-05-04T09:39:31.854Z</time></trkpt>
      <trkpt lat="29.517176" lon="101.720759"><time>2026-05-04T09:39:31.871Z</time></trkpt>
      <trkpt lat="29.517176" lon="101.720759"><time>2026-05-04T09:39:31.887Z</time></trkpt>
      <trkpt lat="29.517176" lon="101.720759"><time>2026-05-04T09:39:31.904Z</time></trkpt>
      <trkpt lat="29.517176" lon="101.720759"><time>2026-05-04T09:39:31.921Z</time></trkpt>
      <trkpt lat="29.517176" lon="101.720759"><time>2026-05-04T09:39:31.937Z</time></trkpt>
      <trkpt lat="29.517173" lon="101.720757"><time>2026-05-04T09:39:31.954Z</time></trkpt>
      <trkpt lat="29.517173" lon="101.720757"><time>2026-05-04T09:39:31.971Z</time></trkpt>
      <trkpt lat="29.517173" lon="101.720757"><time>2026-05-04T09:39:31.987Z</time></trkpt>
      <trkpt lat="29.517173" lon="101.720757"><time>2026-05-04T09:39:32.004Z</time></trkpt>
      <trkpt lat="29.517173" lon="101.720757"><time>2026-05-04T09:39:32.021Z</time></trkpt>
      <trkpt lat="29.517173" lon="101.720757"><time>2026-05-04T09:39:32.037Z</time></trkpt>
      <trkpt lat="29.517169" lon="101.720756"><time>2026-05-04T09:39:32.054Z</time></trkpt>
      <trkpt lat="29.517169" lon="101.720756"><time>2026-05-04T09:39:32.071Z</time></trkpt>
      <trkpt lat="29.517169" lon="101.720756"><time>2026-05-04T09:39:32.087Z</time></trkpt>
      <trkpt lat="29.517169" lon="101.720756"><time>2026-05-04T09:39:32.104Z</time></trkpt>
      <trkpt lat="29.517169" lon="101.720756"><time>2026-05-04T09:39:32.121Z</time></trkpt>
      <trkpt lat="29.517166" lon="101.720754"><time>2026-05-04T09:39:32.138Z</time></trkpt>
      <trkpt lat="29.517166" lon="101.720754"><time>2026-05-04T09:39:32.154Z</time></trkpt>
      <trkpt lat="29.517166" lon="101.720754"><time>2026-05-04T09:39:32.171Z</time></trkpt>
      <trkpt lat="29.517166" lon="101.720754"><time>2026-05-04T09:39:32.188Z</time></trkpt>
      <trkpt lat="29.517166" lon="101.720754"><time>2026-05-04T09:39:32.204Z</time></trkpt>
      <trkpt lat="29.517166" lon="101.720754"><time>2026-05-04T09:39:32.221Z</time></trkpt>
      <trkpt lat="29.517166" lon="101.720754"><time>2026-05-04T09:39:32.238Z</time></trkpt>
      <trkpt lat="29.517162" lon="101.720753"><time>2026-05-04T09:39:32.254Z</time></trkpt>
      <trkpt lat="29.517162" lon="101.720753"><time>2026-05-04T09:39:32.271Z</time></trkpt>
      <trkpt lat="29.517162" lon="101.720753"><time>2026-05-04T09:39:32.288Z</time></trkpt>
      <trkpt lat="29.517162" lon="101.720753"><time>2026-05-04T09:39:32.304Z</time></trkpt>
      <trkpt lat="29.517162" lon="101.720753"><time>2026-05-04T09:39:32.321Z</time></trkpt>
      <trkpt lat="29.517158" lon="101.720752"><time>2026-05-04T09:39:32.338Z</time></trkpt>
      <trkpt lat="29.517158" lon="101.720752"><time>2026-05-04T09:39:32.354Z</time></trkpt>
      <trkpt lat="29.517158" lon="101.720752"><time>2026-05-04T09:39:32.371Z</time></trkpt>
      <trkpt lat="29.517158" lon="101.720752"><time>2026-05-04T09:39:32.388Z</time></trkpt>
      <trkpt lat="29.517158" lon="101.720752"><time>2026-05-04T09:39:32.404Z</time></trkpt>
      <trkpt lat="29.517158" lon="101.720752"><time>2026-05-04T09:39:32.421Z</time></trkpt>
      <trkpt lat="29.517158" lon="101.720752"><time>2026-05-04T09:39:32.438Z</time></trkpt>
      <trkpt lat="29.517155" lon="101.720751"><time>2026-05-04T09:39:32.455Z</time></trkpt>
      <trkpt lat="29.517155" lon="101.720751"><time>2026-05-04T09:39:32.471Z</time></trkpt>
      <trkpt lat="29.517155" lon="101.720751"><time>2026-05-04T09:39:32.488Z</time></trkpt>
      <trkpt lat="29.517155" lon="101.720751"><time>2026-05-04T09:39:32.505Z</time></trkpt>
      <trkpt lat="29.517155" lon="101.720751"><time>2026-05-04T09:39:32.521Z</time></trkpt>
      <trkpt lat="29.517151" lon="101.72075"><time>2026-05-04T09:39:32.538Z</time></trkpt>
      <trkpt lat="29.517151" lon="101.72075"><time>2026-05-04T09:39:32.555Z</time></trkpt>
      <trkpt lat="29.517151" lon="101.72075"><time>2026-05-04T09:39:32.571Z</time></trkpt>
      <trkpt lat="29.517151" lon="101.72075"><time>2026-05-04T09:39:32.588Z</time></trkpt>
      <trkpt lat="29.517151" lon="101.72075"><time>2026-05-04T09:39:32.605Z</time></trkpt>
      <trkpt lat="29.517151" lon="101.72075"><time>2026-05-04T09:39:32.621Z</time></trkpt>
      <trkpt lat="29.517148" lon="101.720749"><time>2026-05-04T09:39:32.638Z</time></trkpt>
      <trkpt lat="29.517148" lon="101.720749"><time>2026-05-04T09:39:32.655Z</time></trkpt>
      <trkpt lat="29.517148" lon="101.720749"><time>2026-05-04T09:39:32.671Z</time></trkpt>
      <trkpt lat="29.517148" lon="101.720749"><time>2026-05-04T09:39:32.688Z</time></trkpt>
      <trkpt lat="29.517148" lon="101.720749"><time>2026-05-04T09:39:32.705Z</time></trkpt>
      <trkpt lat="29.517148" lon="101.720749"><time>2026-05-04T09:39:32.721Z</time></trkpt>
      <trkpt lat="29.517144" lon="101.720748"><time>2026-05-04T09:39:32.738Z</time></trkpt>
      <trkpt lat="29.517144" lon="101.720748"><time>2026-05-04T09:39:32.755Z</time></trkpt>
      <trkpt lat="29.517144" lon="101.720748"><time>2026-05-04T09:39:32.772Z</time></trkpt>
      <trkpt lat="29.517144" lon="101.720748"><time>2026-05-04T09:39:32.788Z</time></trkpt>
      <trkpt lat="29.517144" lon="101.720748"><time>2026-05-04T09:39:32.805Z</time></trkpt>
      <trkpt lat="29.517144" lon="101.720748"><time>2026-05-04T09:39:32.822Z</time></trkpt>
      <trkpt lat="29.517144" lon="101.720748"><time>2026-05-04T09:39:32.838Z</time></trkpt>
      <trkpt lat="29.51714" lon="101.720747"><time>2026-05-04T09:39:32.855Z</time></trkpt>
      <trkpt lat="29.51714" lon="101.720747"><time>2026-05-04T09:39:32.872Z</time></trkpt>
      <trkpt lat="29.51714" lon="101.720747"><time>2026-05-04T09:39:32.888Z</time></trkpt>
      <trkpt lat="29.51714" lon="101.720747"><time>2026-05-04T09:39:32.905Z</time></trkpt>
      <trkpt lat="29.51714" lon="101.720747"><time>2026-05-04T09:39:32.922Z</time></trkpt>
      <trkpt lat="29.517137" lon="101.720746"><time>2026-05-04T09:39:32.938Z</time></trkpt>
      <trkpt lat="29.517137" lon="101.720746"><time>2026-05-04T09:39:32.955Z</time></trkpt>
      <trkpt lat="29.517137" lon="101.720746"><time>2026-05-04T09:39:32.972Z</time></trkpt>
      <trkpt lat="29.517137" lon="101.720746"><time>2026-05-04T09:39:32.988Z</time></trkpt>
      <trkpt lat="29.517137" lon="101.720746"><time>2026-05-04T09:39:33.005Z</time></trkpt>
      <trkpt lat="29.517137" lon="101.720746"><time>2026-05-04T09:39:33.022Z</time></trkpt>
      <trkpt lat="29.517133" lon="101.720745"><time>2026-05-04T09:39:33.038Z</time></trkpt>
      <trkpt lat="29.517133" lon="101.720745"><time>2026-05-04T09:39:33.055Z</time></trkpt>
      <trkpt lat="29.517133" lon="101.720745"><time>2026-05-04T09:39:33.072Z</time></trkpt>
      <trkpt lat="29.517133" lon="101.720745"><time>2026-05-04T09:39:33.089Z</time></trkpt>
      <trkpt lat="29.517133" lon="101.720745"><time>2026-05-04T09:39:33.105Z</time></trkpt>
      <trkpt lat="29.517133" lon="101.720745"><time>2026-05-04T09:39:33.122Z</time></trkpt>
      <trkpt lat="29.51713" lon="101.720745"><time>2026-05-04T09:39:33.139Z</time></trkpt>
      <trkpt lat="29.51713" lon="101.720745"><time>2026-05-04T09:39:33.155Z</time></trkpt>
      <trkpt lat="29.51713" lon="101.720745"><time>2026-05-04T09:39:33.172Z</time></trkpt>
      <trkpt lat="29.51713" lon="101.720745"><time>2026-05-04T09:39:33.189Z</time></trkpt>
      <trkpt lat="29.51713" lon="101.720745"><time>2026-05-04T09:39:33.205Z</time></trkpt>
      <trkpt lat="29.51713" lon="101.720745"><time>2026-05-04T09:39:33.222Z</time></trkpt>
      <trkpt lat="29.517127" lon="101.720744"><time>2026-05-04T09:39:33.239Z</time></trkpt>
      <trkpt lat="29.517127" lon="101.720744"><time>2026-05-04T09:39:33.255Z</time></trkpt>
      <trkpt lat="29.517127" lon="101.720744"><time>2026-05-04T09:39:33.272Z</time></trkpt>
      <trkpt lat="29.517127" lon="101.720744"><time>2026-05-04T09:39:33.289Z</time></trkpt>
      <trkpt lat="29.517127" lon="101.720744"><time>2026-05-04T09:39:33.305Z</time></trkpt>
      <trkpt lat="29.517127" lon="101.720744"><time>2026-05-04T09:39:33.322Z</time></trkpt>
      <trkpt lat="29.517123" lon="101.720744"><time>2026-05-04T09:39:33.339Z</time></trkpt>
      <trkpt lat="29.517123" lon="101.720744"><time>2026-05-04T09:39:33.355Z</time></trkpt>
      <trkpt lat="29.517123" lon="101.720744"><time>2026-05-04T09:39:33.372Z</time></trkpt>
      <trkpt lat="29.517123" lon="101.720744"><time>2026-05-04T09:39:33.389Z</time></trkpt>
      <trkpt lat="29.517123" lon="101.720744"><time>2026-05-04T09:39:33.406Z</time></trkpt>
      <trkpt lat="29.517123" lon="101.720744"><time>2026-05-04T09:39:33.422Z</time></trkpt>
      <trkpt lat="29.51712" lon="101.720743"><time>2026-05-04T09:39:33.439Z</time></trkpt>
      <trkpt lat="29.51712" lon="101.720743"><time>2026-05-04T09:39:33.456Z</time></trkpt>
      <trkpt lat="29.51712" lon="101.720743"><time>2026-05-04T09:39:33.472Z</time></trkpt>
      <trkpt lat="29.51712" lon="101.720743"><time>2026-05-04T09:39:33.489Z</time></trkpt>
      <trkpt lat="29.51712" lon="101.720743"><time>2026-05-04T09:39:33.506Z</time></trkpt>
      <trkpt lat="29.51712" lon="101.720743"><time>2026-05-04T09:39:33.522Z</time></trkpt>
      <trkpt lat="29.517117" lon="101.720743"><time>2026-05-04T09:39:33.539Z</time></trkpt>
      <trkpt lat="29.517117" lon="101.720743"><time>2026-05-04T09:39:33.556Z</time></trkpt>
      <trkpt lat="29.517117" lon="101.720743"><time>2026-05-04T09:39:33.572Z</time></trkpt>
      <trkpt lat="29.517117" lon="101.720743"><time>2026-05-04T09:39:33.589Z</time></trkpt>
      <trkpt lat="29.517117" lon="101.720743"><time>2026-05-04T09:39:33.606Z</time></trkpt>
      <trkpt lat="29.517117" lon="101.720743"><time>2026-05-04T09:39:33.622Z</time></trkpt>
      <trkpt lat="29.517114" lon="101.720742"><time>2026-05-04T09:39:33.639Z</time></trkpt>
      <trkpt lat="29.517114" lon="101.720742"><time>2026-05-04T09:39:33.656Z</time></trkpt>
      <trkpt lat="29.517114" lon="101.720742"><time>2026-05-04T09:39:33.672Z</time></trkpt>
      <trkpt lat="29.517114" lon="101.720742"><time>2026-05-04T09:39:33.689Z</time></trkpt>
      <trkpt lat="29.517114" lon="101.720742"><time>2026-05-04T09:39:33.706Z</time></trkpt>
      <trkpt lat="29.517114" lon="101.720742"><time>2026-05-04T09:39:33.723Z</time></trkpt>
      <trkpt lat="29.517111" lon="101.720742"><time>2026-05-04T09:39:33.739Z</time></trkpt>
      <trkpt lat="29.517111" lon="101.720742"><time>2026-05-04T09:39:33.756Z</time></trkpt>
      <trkpt lat="29.517111" lon="101.720742"><time>2026-05-04T09:39:33.773Z</time></trkpt>
      <trkpt lat="29.517111" lon="101.720742"><time>2026-05-04T09:39:33.789Z</time></trkpt>
      <trkpt lat="29.517111" lon="101.720742"><time>2026-05-04T09:39:33.806Z</time></trkpt>
      <trkpt lat="29.517111" lon="101.720742"><time>2026-05-04T09:39:33.823Z</time></trkpt>
      <trkpt lat="29.517108" lon="101.720742"><time>2026-05-04T09:39:33.839Z</time></trkpt>
      <trkpt lat="29.517108" lon="101.720742"><time>2026-05-04T09:39:33.856Z</time></trkpt>
      <trkpt lat="29.517108" lon="101.720742"><time>2026-05-04T09:39:33.873Z</time></trkpt>
      <trkpt lat="29.517108" lon="101.720742"><time>2026-05-04T09:39:33.889Z</time></trkpt>
      <trkpt lat="29.517108" lon="101.720742"><time>2026-05-04T09:39:33.906Z</time></trkpt>
      <trkpt lat="29.517108" lon="101.720742"><time>2026-05-04T09:39:33.923Z</time></trkpt>
      <trkpt lat="29.517105" lon="101.720741"><time>2026-05-04T09:39:33.939Z</time></trkpt>
      <trkpt lat="29.517105" lon="101.720741"><time>2026-05-04T09:39:33.956Z</time></trkpt>
      <trkpt lat="29.517105" lon="101.720741"><time>2026-05-04T09:39:33.973Z</time></trkpt>
      <trkpt lat="29.517105" lon="101.720741"><time>2026-05-04T09:39:33.989Z</time></trkpt>
      <trkpt lat="29.517105" lon="101.720741"><time>2026-05-04T09:39:34.006Z</time></trkpt>
      <trkpt lat="29.517105" lon="101.720741"><time>2026-05-04T09:39:34.023Z</time></trkpt>
      <trkpt lat="29.517102" lon="101.720741"><time>2026-05-04T09:39:34.040Z</time></trkpt>
      <trkpt lat="29.517102" lon="101.720741"><time>2026-05-04T09:39:34.056Z</time></trkpt>
      <trkpt lat="29.517102" lon="101.720741"><time>2026-05-04T09:39:34.073Z</time></trkpt>
      <trkpt lat="29.517102" lon="101.720741"><time>2026-05-04T09:39:34.090Z</time></trkpt>
      <trkpt lat="29.517102" lon="101.720741"><time>2026-05-04T09:39:34.106Z</time></trkpt>
      <trkpt lat="29.517102" lon="101.720741"><time>2026-05-04T09:39:34.123Z</time></trkpt>
      <trkpt lat="29.5171" lon="101.720741"><time>2026-05-04T09:39:34.140Z</time></trkpt>
      <trkpt lat="29.5171" lon="101.720741"><time>2026-05-04T09:39:34.156Z</time></trkpt>
      <trkpt lat="29.5171" lon="101.720741"><time>2026-05-04T09:39:34.173Z</time></trkpt>
      <trkpt lat="29.5171" lon="101.720741"><time>2026-05-04T09:39:34.190Z</time></trkpt>
      <trkpt lat="29.5171" lon="101.720741"><time>2026-05-04T09:39:34.206Z</time></trkpt>
      <trkpt lat="29.5171" lon="101.720741"><time>2026-05-04T09:39:34.223Z</time></trkpt>
      <trkpt lat="29.517097" lon="101.720741"><time>2026-05-04T09:39:34.240Z</time></trkpt>
      <trkpt lat="29.517097" lon="101.720741"><time>2026-05-04T09:39:34.256Z</time></trkpt>
      <trkpt lat="29.517097" lon="101.720741"><time>2026-05-04T09:39:34.273Z</time></trkpt>
      <trkpt lat="29.517097" lon="101.720741"><time>2026-05-04T09:39:34.290Z</time></trkpt>
      <trkpt lat="29.517097" lon="101.720741"><time>2026-05-04T09:39:34.306Z</time></trkpt>
      <trkpt lat="29.517097" lon="101.720741"><time>2026-05-04T09:39:34.323Z</time></trkpt>
      <trkpt lat="29.517094" lon="101.720742"><time>2026-05-04T09:39:34.340Z</time></trkpt>
      <trkpt lat="29.517094" lon="101.720742"><time>2026-05-04T09:39:34.357Z</time></trkpt>
      <trkpt lat="29.517094" lon="101.720742"><time>2026-05-04T09:39:34.373Z</time></trkpt>
      <trkpt lat="29.517094" lon="101.720742"><time>2026-05-04T09:39:34.390Z</time></trkpt>
      <trkpt lat="29.517094" lon="101.720742"><time>2026-05-04T09:39:34.407Z</time></trkpt>
      <trkpt lat="29.517094" lon="101.720742"><time>2026-05-04T09:39:34.423Z</time></trkpt>
      <trkpt lat="29.517092" lon="101.720742"><time>2026-05-04T09:39:34.440Z</time></trkpt>
      <trkpt lat="29.517092" lon="101.720742"><time>2026-05-04T09:39:34.457Z</time></trkpt>
      <trkpt lat="29.517092" lon="101.720742"><time>2026-05-04T09:39:34.473Z</time></trkpt>
      <trkpt lat="29.517092" lon="101.720742"><time>2026-05-04T09:39:34.490Z</time></trkpt>
      <trkpt lat="29.517092" lon="101.720742"><time>2026-05-04T09:39:34.507Z</time></trkpt>
      <trkpt lat="29.517092" lon="101.720742"><time>2026-05-04T09:39:34.523Z</time></trkpt>
      <trkpt lat="29.517089" lon="101.720742"><time>2026-05-04T09:39:34.540Z</time></trkpt>
      <trkpt lat="29.517089" lon="101.720742"><time>2026-05-04T09:39:34.557Z</time></trkpt>
      <trkpt lat="29.517089" lon="101.720742"><time>2026-05-04T09:39:34.573Z</time></trkpt>
      <trkpt lat="29.517089" lon="101.720742"><time>2026-05-04T09:39:34.590Z</time></trkpt>
      <trkpt lat="29.517089" lon="101.720742"><time>2026-05-04T09:39:34.607Z</time></trkpt>
      <trkpt lat="29.517089" lon="101.720742"><time>2026-05-04T09:39:34.623Z</time></trkpt>
      <trkpt lat="29.517086" lon="101.720743"><time>2026-05-04T09:39:34.640Z</time></trkpt>
      <trkpt lat="29.517086" lon="101.720743"><time>2026-05-04T09:39:34.657Z</time></trkpt>
      <trkpt lat="29.517086" lon="101.720743"><time>2026-05-04T09:39:34.674Z</time></trkpt>
      <trkpt lat="29.517086" lon="101.720743"><time>2026-05-04T09:39:34.690Z</time></trkpt>
      <trkpt lat="29.517086" lon="101.720743"><time>2026-05-04T09:39:34.707Z</time></trkpt>
      <trkpt lat="29.517086" lon="101.720743"><time>2026-05-04T09:39:34.724Z</time></trkpt>
      <trkpt lat="29.517083" lon="101.720743"><time>2026-05-04T09:39:34.740Z</time></trkpt>
      <trkpt lat="29.517083" lon="101.720743"><time>2026-05-04T09:39:34.757Z</time></trkpt>
      <trkpt lat="29.517083" lon="101.720743"><time>2026-05-04T09:39:34.774Z</time></trkpt>
      <trkpt lat="29.517083" lon="101.720743"><time>2026-05-04T09:39:34.790Z</time></trkpt>
      <trkpt lat="29.517083" lon="101.720743"><time>2026-05-04T09:39:34.807Z</time></trkpt>
      <trkpt lat="29.517083" lon="101.720743"><time>2026-05-04T09:39:34.824Z</time></trkpt>
      <trkpt lat="29.51708" lon="101.720744"><time>2026-05-04T09:39:34.840Z</time></trkpt>
      <trkpt lat="29.51708" lon="101.720744"><time>2026-05-04T09:39:34.857Z</time></trkpt>
      <trkpt lat="29.51708" lon="101.720744"><time>2026-05-04T09:39:34.874Z</time></trkpt>
      <trkpt lat="29.51708" lon="101.720744"><time>2026-05-04T09:39:34.890Z</time></trkpt>
      <trkpt lat="29.51708" lon="101.720744"><time>2026-05-04T09:39:34.907Z</time></trkpt>
      <trkpt lat="29.51708" lon="101.720744"><time>2026-05-04T09:39:34.924Z</time></trkpt>
      <trkpt lat="29.517077" lon="101.720744"><time>2026-05-04T09:39:34.940Z</time></trkpt>
      <trkpt lat="29.517077" lon="101.720744"><time>2026-05-04T09:39:34.957Z</time></trkpt>
      <trkpt lat="29.517077" lon="101.720744"><time>2026-05-04T09:39:34.974Z</time></trkpt>
      <trkpt lat="29.517077" lon="101.720744"><time>2026-05-04T09:39:34.990Z</time></trkpt>
      <trkpt lat="29.517077" lon="101.720744"><time>2026-05-04T09:39:35.007Z</time></trkpt>
      <trkpt lat="29.517077" lon="101.720744"><time>2026-05-04T09:39:35.024Z</time></trkpt>
      <trkpt lat="29.517074" lon="101.720744"><time>2026-05-04T09:39:35.041Z</time></trkpt>
      <trkpt lat="29.517074" lon="101.720744"><time>2026-05-04T09:39:35.057Z</time></trkpt>
      <trkpt lat="29.517074" lon="101.720744"><time>2026-05-04T09:39:35.074Z</time></trkpt>
      <trkpt lat="29.517074" lon="101.720744"><time>2026-05-04T09:39:35.091Z</time></trkpt>
      <trkpt lat="29.517074" lon="101.720744"><time>2026-05-04T09:39:35.107Z</time></trkpt>
      <trkpt lat="29.517074" lon="101.720744"><time>2026-05-04T09:39:35.124Z</time></trkpt>
      <trkpt lat="29.517071" lon="101.720745"><time>2026-05-04T09:39:35.141Z</time></trkpt>
      <trkpt lat="29.517071" lon="101.720745"><time>2026-05-04T09:39:35.157Z</time></trkpt>
      <trkpt lat="29.517071" lon="101.720745"><time>2026-05-04T09:39:35.174Z</time></trkpt>
      <trkpt lat="29.517071" lon="101.720745"><time>2026-05-04T09:39:35.191Z</time></trkpt>
      <trkpt lat="29.517071" lon="101.720745"><time>2026-05-04T09:39:35.207Z</time></trkpt>
      <trkpt lat="29.517071" lon="101.720745"><time>2026-05-04T09:39:35.224Z</time></trkpt>
      <trkpt lat="29.517068" lon="101.720745"><time>2026-05-04T09:39:35.241Z</time></trkpt>
      <trkpt lat="29.517068" lon="101.720745"><time>2026-05-04T09:39:35.257Z</time></trkpt>
      <trkpt lat="29.517068" lon="101.720745"><time>2026-05-04T09:39:35.274Z</time></trkpt>
      <trkpt lat="29.517068" lon="101.720745"><time>2026-05-04T09:39:35.291Z</time></trkpt>
      <trkpt lat="29.517068" lon="101.720745"><time>2026-05-04T09:39:35.307Z</time></trkpt>
      <trkpt lat="29.517068" lon="101.720745"><time>2026-05-04T09:39:35.324Z</time></trkpt>
      <trkpt lat="29.517065" lon="101.720746"><time>2026-05-04T09:39:35.341Z</time></trkpt>
      <trkpt lat="29.517065" lon="101.720746"><time>2026-05-04T09:39:35.358Z</time></trkpt>
      <trkpt lat="29.517065" lon="101.720746"><time>2026-05-04T09:39:35.374Z</time></trkpt>
      <trkpt lat="29.517065" lon="101.720746"><time>2026-05-04T09:39:35.391Z</time></trkpt>
      <trkpt lat="29.517065" lon="101.720746"><time>2026-05-04T09:39:35.408Z</time></trkpt>
      <trkpt lat="29.517065" lon="101.720746"><time>2026-05-04T09:39:35.424Z</time></trkpt>
      <trkpt lat="29.517062" lon="101.720747"><time>2026-05-04T09:39:35.441Z</time></trkpt>
      <trkpt lat="29.517062" lon="101.720747"><time>2026-05-04T09:39:35.458Z</time></trkpt>
      <trkpt lat="29.517062" lon="101.720747"><time>2026-05-04T09:39:35.474Z</time></trkpt>
      <trkpt lat="29.517062" lon="101.720747"><time>2026-05-04T09:39:35.491Z</time></trkpt>
      <trkpt lat="29.517062" lon="101.720747"><time>2026-05-04T09:39:35.508Z</time></trkpt>
      <trkpt lat="29.517062" lon="101.720747"><time>2026-05-04T09:39:35.524Z</time></trkpt>
      <trkpt lat="29.517059" lon="101.720747"><time>2026-05-04T09:39:35.541Z</time></trkpt>
      <trkpt lat="29.517059" lon="101.720747"><time>2026-05-04T09:39:35.558Z</time></trkpt>
      <trkpt lat="29.517059" lon="101.720747"><time>2026-05-04T09:39:35.574Z</time></trkpt>
      <trkpt lat="29.517059" lon="101.720747"><time>2026-05-04T09:39:35.591Z</time></trkpt>
      <trkpt lat="29.517059" lon="101.720747"><time>2026-05-04T09:39:35.608Z</time></trkpt>
      <trkpt lat="29.517059" lon="101.720747"><time>2026-05-04T09:39:35.624Z</time></trkpt>
      <trkpt lat="29.517056" lon="101.720748"><time>2026-05-04T09:39:35.641Z</time></trkpt>
      <trkpt lat="29.517056" lon="101.720748"><time>2026-05-04T09:39:35.658Z</time></trkpt>
      <trkpt lat="29.517056" lon="101.720748"><time>2026-05-04T09:39:35.675Z</time></trkpt>
      <trkpt lat="29.517056" lon="101.720748"><time>2026-05-04T09:39:35.691Z</time></trkpt>
      <trkpt lat="29.517056" lon="101.720748"><time>2026-05-04T09:39:35.708Z</time></trkpt>
      <trkpt lat="29.517056" lon="101.720748"><time>2026-05-04T09:39:35.725Z</time></trkpt>
      <trkpt lat="29.517053" lon="101.720749"><time>2026-05-04T09:39:35.741Z</time></trkpt>
      <trkpt lat="29.517053" lon="101.720749"><time>2026-05-04T09:39:35.758Z</time></trkpt>
      <trkpt lat="29.517053" lon="101.720749"><time>2026-05-04T09:39:35.775Z</time></trkpt>
      <trkpt lat="29.517053" lon="101.720749"><time>2026-05-04T09:39:35.791Z</time></trkpt>
      <trkpt lat="29.517053" lon="101.720749"><time>2026-05-04T09:39:35.808Z</time></trkpt>
      <trkpt lat="29.517053" lon="101.720749"><time>2026-05-04T09:39:35.825Z</time></trkpt>
      <trkpt lat="29.51705" lon="101.720749"><time>2026-05-04T09:39:35.841Z</time></trkpt>
      <trkpt lat="29.51705" lon="101.720749"><time>2026-05-04T09:39:35.858Z</time></trkpt>
      <trkpt lat="29.51705" lon="101.720749"><time>2026-05-04T09:39:35.875Z</time></trkpt>
      <trkpt lat="29.51705" lon="101.720749"><time>2026-05-04T09:39:35.891Z</time></trkpt>
      <trkpt lat="29.51705" lon="101.720749"><time>2026-05-04T09:39:35.908Z</time></trkpt>
      <trkpt lat="29.51705" lon="101.720749"><time>2026-05-04T09:39:35.925Z</time></trkpt>
      <trkpt lat="29.517047" lon="101.72075"><time>2026-05-04T09:39:35.941Z</time></trkpt>
      <trkpt lat="29.517047" lon="101.72075"><time>2026-05-04T09:39:35.958Z</time></trkpt>
      <trkpt lat="29.517047" lon="101.72075"><time>2026-05-04T09:39:35.975Z</time></trkpt>
      <trkpt lat="29.517047" lon="101.72075"><time>2026-05-04T09:39:35.992Z</time></trkpt>
      <trkpt lat="29.517047" lon="101.72075"><time>2026-05-04T09:39:36.008Z</time></trkpt>
      <trkpt lat="29.517047" lon="101.72075"><time>2026-05-04T09:39:36.025Z</time></trkpt>
      <trkpt lat="29.517045" lon="101.72075"><time>2026-05-04T09:39:36.042Z</time></trkpt>
      <trkpt lat="29.517045" lon="101.72075"><time>2026-05-04T09:39:36.058Z</time></trkpt>
      <trkpt lat="29.517045" lon="101.72075"><time>2026-05-04T09:39:36.075Z</time></trkpt>
      <trkpt lat="29.517045" lon="101.72075"><time>2026-05-04T09:39:36.092Z</time></trkpt>
      <trkpt lat="29.517045" lon="101.72075"><time>2026-05-04T09:39:36.108Z</time></trkpt>
      <trkpt lat="29.517045" lon="101.72075"><time>2026-05-04T09:39:36.125Z</time></trkpt>
      <trkpt lat="29.517042" lon="101.720751"><time>2026-05-04T09:39:36.142Z</time></trkpt>
      <trkpt lat="29.517042" lon="101.720751"><time>2026-05-04T09:39:36.158Z</time></trkpt>
      <trkpt lat="29.517042" lon="101.720751"><time>2026-05-04T09:39:36.175Z</time></trkpt>
      <trkpt lat="29.517042" lon="101.720751"><time>2026-05-04T09:39:36.192Z</time></trkpt>
      <trkpt lat="29.517042" lon="101.720751"><time>2026-05-04T09:39:36.208Z</time></trkpt>
      <trkpt lat="29.517042" lon="101.720751"><time>2026-05-04T09:39:36.225Z</time></trkpt>
      <trkpt lat="29.51704" lon="101.720751"><time>2026-05-04T09:39:36.242Z</time></trkpt>
      <trkpt lat="29.51704" lon="101.720751"><time>2026-05-04T09:39:36.258Z</time></trkpt>
      <trkpt lat="29.51704" lon="101.720751"><time>2026-05-04T09:39:36.275Z</time></trkpt>
      <trkpt lat="29.51704" lon="101.720751"><time>2026-05-04T09:39:36.292Z</time></trkpt>
      <trkpt lat="29.51704" lon="101.720751"><time>2026-05-04T09:39:36.309Z</time></trkpt>
      <trkpt lat="29.51704" lon="101.720751"><time>2026-05-04T09:39:36.325Z</time></trkpt>
      <trkpt lat="29.517038" lon="101.720752"><time>2026-05-04T09:39:36.342Z</time></trkpt>
      <trkpt lat="29.517038" lon="101.720752"><time>2026-05-04T09:39:36.359Z</time></trkpt>
      <trkpt lat="29.517038" lon="101.720752"><time>2026-05-04T09:39:36.375Z</time></trkpt>
      <trkpt lat="29.517038" lon="101.720752"><time>2026-05-04T09:39:36.392Z</time></trkpt>
      <trkpt lat="29.517038" lon="101.720752"><time>2026-05-04T09:39:36.409Z</time></trkpt>
      <trkpt lat="29.517038" lon="101.720752"><time>2026-05-04T09:39:36.425Z</time></trkpt>
      <trkpt lat="29.517036" lon="101.720752"><time>2026-05-04T09:39:36.442Z</time></trkpt>
      <trkpt lat="29.517036" lon="101.720752"><time>2026-05-04T09:39:36.459Z</time></trkpt>
      <trkpt lat="29.517036" lon="101.720752"><time>2026-05-04T09:39:36.475Z</time></trkpt>
      <trkpt lat="29.517036" lon="101.720752"><time>2026-05-04T09:39:36.492Z</time></trkpt>
      <trkpt lat="29.517036" lon="101.720752"><time>2026-05-04T09:39:36.509Z</time></trkpt>
      <trkpt lat="29.517036" lon="101.720752"><time>2026-05-04T09:39:36.525Z</time></trkpt>
      <trkpt lat="29.517034" lon="101.720752"><time>2026-05-04T09:39:36.542Z</time></trkpt>
      <trkpt lat="29.517034" lon="101.720752"><time>2026-05-04T09:39:36.559Z</time></trkpt>
      <trkpt lat="29.517034" lon="101.720752"><time>2026-05-04T09:39:36.575Z</time></trkpt>
      <trkpt lat="29.517034" lon="101.720752"><time>2026-05-04T09:39:36.592Z</time></trkpt>
      <trkpt lat="29.517034" lon="101.720752"><time>2026-05-04T09:39:36.609Z</time></trkpt>
      <trkpt lat="29.517034" lon="101.720752"><time>2026-05-04T09:39:36.626Z</time></trkpt>
      <trkpt lat="29.517032" lon="101.720753"><time>2026-05-04T09:39:36.642Z</time></trkpt>
      <trkpt lat="29.517032" lon="101.720753"><time>2026-05-04T09:39:36.659Z</time></trkpt>
      <trkpt lat="29.517032" lon="101.720753"><time>2026-05-04T09:39:36.676Z</time></trkpt>
      <trkpt lat="29.517032" lon="101.720753"><time>2026-05-04T09:39:36.692Z</time></trkpt>
      <trkpt lat="29.517032" lon="101.720753"><time>2026-05-04T09:39:36.709Z</time></trkpt>
      <trkpt lat="29.517032" lon="101.720753"><time>2026-05-04T09:39:36.726Z</time></trkpt>
      <trkpt lat="29.517031" lon="101.720753"><time>2026-05-04T09:39:36.742Z</time></trkpt>
      <trkpt lat="29.517031" lon="101.720753"><time>2026-05-04T09:39:36.759Z</time></trkpt>
      <trkpt lat="29.517031" lon="101.720753"><time>2026-05-04T09:39:36.776Z</time></trkpt>
      <trkpt lat="29.517031" lon="101.720753"><time>2026-05-04T09:39:36.792Z</time></trkpt>
      <trkpt lat="29.517031" lon="101.720753"><time>2026-05-04T09:39:36.809Z</time></trkpt>
      <trkpt lat="29.517031" lon="101.720753"><time>2026-05-04T09:39:36.826Z</time></trkpt>
      <trkpt lat="29.51703" lon="101.720753"><time>2026-05-04T09:39:36.842Z</time></trkpt>
      <trkpt lat="29.51703" lon="101.720753"><time>2026-05-04T09:39:36.859Z</time></trkpt>
      <trkpt lat="29.51703" lon="101.720753"><time>2026-05-04T09:39:36.876Z</time></trkpt>
      <trkpt lat="29.51703" lon="101.720753"><time>2026-05-04T09:39:36.892Z</time></trkpt>
      <trkpt lat="29.51703" lon="101.720753"><time>2026-05-04T09:39:36.909Z</time></trkpt>
      <trkpt lat="29.51703" lon="101.720753"><time>2026-05-04T09:39:36.926Z</time></trkpt>
      <trkpt lat="29.517028" lon="101.720753"><time>2026-05-04T09:39:36.943Z</time></trkpt>
      <trkpt lat="29.517028" lon="101.720753"><time>2026-05-04T09:39:36.959Z</time></trkpt>
      <trkpt lat="29.517028" lon="101.720753"><time>2026-05-04T09:39:36.976Z</time></trkpt>
      <trkpt lat="29.517028" lon="101.720753"><time>2026-05-04T09:39:36.993Z</time></trkpt>
      <trkpt lat="29.517028" lon="101.720753"><time>2026-05-04T09:39:37.009Z</time></trkpt>
      <trkpt lat="29.517028" lon="101.720753"><time>2026-05-04T09:39:37.026Z</time></trkpt>
      <trkpt lat="29.517027" lon="101.720753"><time>2026-05-04T09:39:37.043Z</time></trkpt>
      <trkpt lat="29.517027" lon="101.720753"><time>2026-05-04T09:39:37.059Z</time></trkpt>
      <trkpt lat="29.517027" lon="101.720753"><time>2026-05-04T09:39:37.076Z</time></trkpt>
      <trkpt lat="29.517027" lon="101.720753"><time>2026-05-04T09:39:37.093Z</time></trkpt>
      <trkpt lat="29.517027" lon="101.720753"><time>2026-05-04T09:39:37.109Z</time></trkpt>
      <trkpt lat="29.517027" lon="101.720753"><time>2026-05-04T09:39:37.126Z</time></trkpt>
      <trkpt lat="29.517026" lon="101.720753"><time>2026-05-04T09:39:37.143Z</time></trkpt>
      <trkpt lat="29.517026" lon="101.720753"><time>2026-05-04T09:39:37.159Z</time></trkpt>
      <trkpt lat="29.517026" lon="101.720753"><time>2026-05-04T09:39:37.176Z</time></trkpt>
      <trkpt lat="29.517026" lon="101.720753"><time>2026-05-04T09:39:37.193Z</time></trkpt>
      <trkpt lat="29.517026" lon="101.720753"><time>2026-05-04T09:39:37.209Z</time></trkpt>
      <trkpt lat="29.517026" lon="101.720753"><time>2026-05-04T09:39:37.226Z</time></trkpt>
      <trkpt lat="29.517025" lon="101.720753"><time>2026-05-04T09:39:37.243Z</time></trkpt>
      <trkpt lat="29.517025" lon="101.720753"><time>2026-05-04T09:39:37.260Z</time></trkpt>
      <trkpt lat="29.517025" lon="101.720753"><time>2026-05-04T09:39:37.276Z</time></trkpt>
      <trkpt lat="29.517025" lon="101.720753"><time>2026-05-04T09:39:37.293Z</time></trkpt>
      <trkpt lat="29.517025" lon="101.720753"><time>2026-05-04T09:39:37.310Z</time></trkpt>
      <trkpt lat="29.517025" lon="101.720753"><time>2026-05-04T09:39:37.326Z</time></trkpt>
      <trkpt lat="29.517025" lon="101.720753"><time>2026-05-04T09:39:37.343Z</time></trkpt>
      <trkpt lat="29.517025" lon="101.720753"><time>2026-05-04T09:39:37.360Z</time></trkpt>
      <trkpt lat="29.517025" lon="101.720753"><time>2026-05-04T09:39:37.376Z</time></trkpt>
      <trkpt lat="29.517025" lon="101.720753"><time>2026-05-04T09:39:37.393Z</time></trkpt>
      <trkpt lat="29.517025" lon="101.720753"><time>2026-05-04T09:39:37.410Z</time></trkpt>
      <trkpt lat="29.517025" lon="101.720753"><time>2026-05-04T09:39:37.426Z</time></trkpt>
      <trkpt lat="29.517024" lon="101.720753"><time>2026-05-04T09:39:37.443Z</time></trkpt>
      <trkpt lat="29.517024" lon="101.720753"><time>2026-05-04T09:39:37.460Z</time></trkpt>
      <trkpt lat="29.517024" lon="101.720753"><time>2026-05-04T09:39:37.476Z</time></trkpt>
      <trkpt lat="29.517024" lon="101.720753"><time>2026-05-04T09:39:37.493Z</time></trkpt>
      <trkpt lat="29.517024" lon="101.720753"><time>2026-05-04T09:39:37.510Z</time></trkpt>
      <trkpt lat="29.517024" lon="101.720753"><time>2026-05-04T09:39:37.526Z</time></trkpt>
      <trkpt lat="29.517023" lon="101.720754"><time>2026-05-04T09:39:37.543Z</time></trkpt>
      <trkpt lat="29.517023" lon="101.720754"><time>2026-05-04T09:39:37.560Z</time></trkpt>
      <trkpt lat="29.517023" lon="101.720754"><time>2026-05-04T09:39:37.577Z</time></trkpt>
      <trkpt lat="29.517023" lon="101.720754"><time>2026-05-04T09:39:37.593Z</time></trkpt>
      <trkpt lat="29.517023" lon="101.720754"><time>2026-05-04T09:39:37.610Z</time></trkpt>
      <trkpt lat="29.517023" lon="101.720754"><time>2026-05-04T09:39:37.627Z</time></trkpt>
      <trkpt lat="29.517023" lon="101.720754"><time>2026-05-04T09:39:37.643Z</time></trkpt>
      <trkpt lat="29.517023" lon="101.720754"><time>2026-05-04T09:39:37.660Z</time></trkpt>
      <trkpt lat="29.517023" lon="101.720754"><time>2026-05-04T09:39:37.677Z</time></trkpt>
      <trkpt lat="29.517023" lon="101.720754"><time>2026-05-04T09:39:37.693Z</time></trkpt>
      <trkpt lat="29.517023" lon="101.720754"><time>2026-05-04T09:39:37.710Z</time></trkpt>
      <trkpt lat="29.517023" lon="101.720754"><time>2026-05-04T09:39:37.727Z</time></trkpt>
      <trkpt lat="29.517023" lon="101.720754"><time>2026-05-04T09:39:37.743Z</time></trkpt>
      <trkpt lat="29.517023" lon="101.720754"><time>2026-05-04T09:39:37.760Z</time></trkpt>
      <trkpt lat="29.517023" lon="101.720754"><time>2026-05-04T09:39:37.777Z</time></trkpt>
      <trkpt lat="29.517023" lon="101.720754"><time>2026-05-04T09:39:37.793Z</time></trkpt>
      <trkpt lat="29.517023" lon="101.720754"><time>2026-05-04T09:39:37.810Z</time></trkpt>
      <trkpt lat="29.517023" lon="101.720754"><time>2026-05-04T09:39:37.827Z</time></trkpt>
      <trkpt lat="29.517023" lon="101.720755"><time>2026-05-04T09:39:37.843Z</time></trkpt>
      <trkpt lat="29.517023" lon="101.720755"><time>2026-05-04T09:39:37.860Z</time></trkpt>
      <trkpt lat="29.517023" lon="101.720755"><time>2026-05-04T09:39:37.877Z</time></trkpt>
      <trkpt lat="29.517023" lon="101.720755"><time>2026-05-04T09:39:37.894Z</time></trkpt>
      <trkpt lat="29.517023" lon="101.720755"><time>2026-05-04T09:39:37.910Z</time></trkpt>
      <trkpt lat="29.517023" lon="101.720755"><time>2026-05-04T09:39:37.927Z</time></trkpt>
      <trkpt lat="29.517022" lon="101.720755"><time>2026-05-04T09:39:37.944Z</time></trkpt>
      <trkpt lat="29.517022" lon="101.720755"><time>2026-05-04T09:39:37.960Z</time></trkpt>
      <trkpt lat="29.517022" lon="101.720755"><time>2026-05-04T09:39:37.977Z</time></trkpt>
      <trkpt lat="29.517022" lon="101.720755"><time>2026-05-04T09:39:37.994Z</time></trkpt>
      <trkpt lat="29.517022" lon="101.720755"><time>2026-05-04T09:39:38.010Z</time></trkpt>
      <trkpt lat="29.517022" lon="101.720755"><time>2026-05-04T09:39:38.027Z</time></trkpt>
      <trkpt lat="29.517023" lon="101.720756"><time>2026-05-04T09:39:38.044Z</time></trkpt>
      <trkpt lat="29.517023" lon="101.720756"><time>2026-05-04T09:39:38.060Z</time></trkpt>
      <trkpt lat="29.517023" lon="101.720756"><time>2026-05-04T09:39:38.077Z</time></trkpt>
      <trkpt lat="29.517023" lon="101.720756"><time>2026-05-04T09:39:38.094Z</time></trkpt>
      <trkpt lat="29.517023" lon="101.720756"><time>2026-05-04T09:39:38.110Z</time></trkpt>
      <trkpt lat="29.517023" lon="101.720756"><time>2026-05-04T09:39:38.127Z</time></trkpt>
      <trkpt lat="29.517023" lon="101.720756"><time>2026-05-04T09:39:38.144Z</time></trkpt>
      <trkpt lat="29.517023" lon="101.720756"><time>2026-05-04T09:39:38.160Z</time></trkpt>
      <trkpt lat="29.517023" lon="101.720756"><time>2026-05-04T09:39:38.177Z</time></trkpt>
      <trkpt lat="29.517023" lon="101.720756"><time>2026-05-04T09:39:38.194Z</time></trkpt>
      <trkpt lat="29.517023" lon="101.720756"><time>2026-05-04T09:39:38.211Z</time></trkpt>
      <trkpt lat="29.517023" lon="101.720756"><time>2026-05-04T09:39:38.227Z</time></trkpt>
      <trkpt lat="29.517023" lon="101.720757"><time>2026-05-04T09:39:38.244Z</time></trkpt>
      <trkpt lat="29.517023" lon="101.720757"><time>2026-05-04T09:39:38.261Z</time></trkpt>
      <trkpt lat="29.517023" lon="101.720757"><time>2026-05-04T09:39:38.277Z</time></trkpt>
      <trkpt lat="29.517023" lon="101.720757"><time>2026-05-04T09:39:38.294Z</time></trkpt>
      <trkpt lat="29.517023" lon="101.720757"><time>2026-05-04T09:39:38.311Z</time></trkpt>
      <trkpt lat="29.517023" lon="101.720757"><time>2026-05-04T09:39:38.327Z</time></trkpt>
      <trkpt lat="29.517024" lon="101.720758"><time>2026-05-04T09:39:38.344Z</time></trkpt>
      <trkpt lat="29.517024" lon="101.720758"><time>2026-05-04T09:39:38.361Z</time></trkpt>
      <trkpt lat="29.517024" lon="101.720758"><time>2026-05-04T09:39:38.377Z</time></trkpt>
      <trkpt lat="29.517024" lon="101.720758"><time>2026-05-04T09:39:38.394Z</time></trkpt>
      <trkpt lat="29.517024" lon="101.720758"><time>2026-05-04T09:39:38.411Z</time></trkpt>
      <trkpt lat="29.517024" lon="101.720758"><time>2026-05-04T09:39:38.427Z</time></trkpt>
      <trkpt lat="29.517024" lon="101.720759"><time>2026-05-04T09:39:38.444Z</time></trkpt>
      <trkpt lat="29.517024" lon="101.720759"><time>2026-05-04T09:39:38.461Z</time></trkpt>
      <trkpt lat="29.517024" lon="101.720759"><time>2026-05-04T09:39:38.477Z</time></trkpt>
      <trkpt lat="29.517024" lon="101.720759"><time>2026-05-04T09:39:38.494Z</time></trkpt>
      <trkpt lat="29.517024" lon="101.720759"><time>2026-05-04T09:39:38.511Z</time></trkpt>
      <trkpt lat="29.517024" lon="101.720759"><time>2026-05-04T09:39:38.528Z</time></trkpt>
      <trkpt lat="29.517025" lon="101.720759"><time>2026-05-04T09:39:38.544Z</time></trkpt>
      <trkpt lat="29.517025" lon="101.720759"><time>2026-05-04T09:39:38.561Z</time></trkpt>
      <trkpt lat="29.517025" lon="101.720759"><time>2026-05-04T09:39:38.578Z</time></trkpt>
      <trkpt lat="29.517025" lon="101.720759"><time>2026-05-04T09:39:38.594Z</time></trkpt>
      <trkpt lat="29.517025" lon="101.720759"><time>2026-05-04T09:39:38.611Z</time></trkpt>
      <trkpt lat="29.517025" lon="101.720759"><time>2026-05-04T09:39:38.628Z</time></trkpt>
      <trkpt lat="29.517025" lon="101.72076"><time>2026-05-04T09:39:38.644Z</time></trkpt>
      <trkpt lat="29.517025" lon="101.72076"><time>2026-05-04T09:39:38.661Z</time></trkpt>
      <trkpt lat="29.517025" lon="101.72076"><time>2026-05-04T09:39:38.678Z</time></trkpt>
      <trkpt lat="29.517025" lon="101.72076"><time>2026-05-04T09:39:38.694Z</time></trkpt>
      <trkpt lat="29.517025" lon="101.72076"><time>2026-05-04T09:39:38.711Z</time></trkpt>
      <trkpt lat="29.517025" lon="101.72076"><time>2026-05-04T09:39:38.728Z</time></trkpt>
    </trkseg>
  </trk>
</gpx>
