<?xml version="1.0" encoding="UTF-8"?>
<gpx version="1.1" creator="Kairos" xmlns="http://www.topografix.com/GPX/1/1">
  <trk>
    <name>sidecar-srt-da394c0e069f2bcb</name>
    <trkseg>
      <trkpt lat="29.859693" lon="99.414442"><time>2026-05-02T05:40:04.000Z</time></trkpt>
      <trkpt lat="29.859693" lon="99.414442"><time>2026-05-02T05:40:04.016Z</time></trkpt>
      <trkpt lat="29.859685" lon="99.414444"><time>2026-05-02T05:40:04.032Z</time></trkpt>
      <trkpt lat="29.859685" lon="99.414444"><time>2026-05-02T05:40:04.049Z</time></trkpt>
      <trkpt lat="29.859685" lon="99.414444"><time>2026-05-02T05:40:04.066Z</time></trkpt>
      <trkpt lat="29.859685" lon="99.414444"><time>2026-05-02T05:40:04.082Z</time></trkpt>
      <trkpt lat="29.859685" lon="99.414444"><time>2026-05-02T05:40:04.099Z</time></trkpt>
      <trkpt lat="29.859685" lon="99.414444"><time>2026-05-02T05:40:04.116Z</time></trkpt>
      <trkpt lat="29.859676" lon="99.414446"><time>2026-05-02T05:40:04.132Z</time></trkpt>
      <trkpt lat="29.859676" lon="99.414446"><time>2026-05-02T05:40:04.149Z</time></trkpt>
      <trkpt lat="29.859676" lon="99.414446"><time>2026-05-02T05:40:04.166Z</time></trkpt>
      <trkpt lat="29.859676" lon="99.414446"><time>2026-05-02T05:40:04.182Z</time></trkpt>
      <trkpt lat="29.859676" lon="99.414446"><time>2026-05-02T05:40:04.199Z</time></trkpt>
      <trkpt lat="29.859676" lon="99.414446"><time>2026-05-02T05:40:04.216Z</time></trkpt>
      <trkpt lat="29.859669" lon="99.414448"><time>2026-05-02T05:40:04.232Z</time></trkpt>
      <trkpt lat="29.859669" lon="99.414448"><time>2026-05-02T05:40:04.249Z</time></trkpt>
      <trkpt lat="29.859669" lon="99.414448"><time>2026-05-02T05:40:04.266Z</time></trkpt>
      <trkpt lat="29.859669" lon="99.414448"><time>2026-05-02T05:40:04.282Z</time></trkpt>
      <trkpt lat="29.859669" lon="99.414448"><time>2026-05-02T05:40:04.299Z</time></trkpt>
      <trkpt lat="29.859669" lon="99.414448"><time>2026-05-02T05:40:04.316Z</time></trkpt>
      <trkpt lat="29.859661" lon="99.414449"><time>2026-05-02T05:40:04.333Z</time></trkpt>
      <trkpt lat="29.859661" lon="99.414449"><time>2026-05-02T05:40:04.349Z</time></trkpt>
      <trkpt lat="29.859661" lon="99.414449"><time>2026-05-02T05:40:04.366Z</time></trkpt>
      <trkpt lat="29.859661" lon="99.414449"><time>2026-05-02T05:40:04.383Z</time></trkpt>
      <trkpt lat="29.859661" lon="99.414449"><time>2026-05-02T05:40:04.399Z</time></trkpt>
      <trkpt lat="29.859661" lon="99.414449"><time>2026-05-02T05:40:04.416Z</time></trkpt>
      <trkpt lat="29.859654" lon="99.414451"><time>2026-05-02T05:40:04.433Z</time></trkpt>
      <trkpt lat="29.859654" lon="99.414451"><time>2026-05-02T05:40:04.449Z</time></trkpt>
      <trkpt lat="29.859654" lon="99.414451"><time>2026-05-02T05:40:04.466Z</time></trkpt>
      <trkpt lat="29.859654" lon="99.414451"><time>2026-05-02T05:40:04.483Z</time></trkpt>
      <trkpt lat="29.859654" lon="99.414451"><time>2026-05-02T05:40:04.499Z</time></trkpt>
      <trkpt lat="29.859654" lon="99.414451"><time>2026-05-02T05:40:04.516Z</time></trkpt>
      <trkpt lat="29.859648" lon="99.414453"><time>2026-05-02T05:40:04.533Z</time></trkpt>
      <trkpt lat="29.859648" lon="99.414453"><time>2026-05-02T05:40:04.549Z</time></trkpt>
      <trkpt lat="29.859648" lon="99.414453"><time>2026-05-02T05:40:04.566Z</time></trkpt>
      <trkpt lat="29.859648" lon="99.414453"><time>2026-05-02T05:40:04.583Z</time></trkpt>
      <trkpt lat="29.859648" lon="99.414453"><time>2026-05-02T05:40:04.599Z</time></trkpt>
      <trkpt lat="29.859648" lon="99.414453"><time>2026-05-02T05:40:04.616Z</time></trkpt>
      <trkpt lat="29.859642" lon="99.414455"><time>2026-05-02T05:40:04.633Z</time></trkpt>
      <trkpt lat="29.859642" lon="99.414455"><time>2026-05-02T05:40:04.650Z</time></trkpt>
      <trkpt lat="29.859642" lon="99.414455"><time>2026-05-02T05:40:04.666Z</time></trkpt>
      <trkpt lat="29.859642" lon="99.414455"><time>2026-05-02T05:40:04.683Z</time></trkpt>
      <trkpt lat="29.859642" lon="99.414455"><time>2026-05-02T05:40:04.700Z</time></trkpt>
      <trkpt lat="29.859642" lon="99.414455"><time>2026-05-02T05:40:04.716Z</time></trkpt>
      <trkpt lat="29.859637" lon="99.414456"><time>2026-05-02T05:40:04.733Z</time></trkpt>
      <trkpt lat="29.859637" lon="99.414456"><time>2026-05-02T05:40:04.750Z</time></trkpt>
      <trkpt lat="29.859637" lon="99.414456"><time>2026-05-02T05:40:04.766Z</time></trkpt>
      <trkpt lat="29.859637" lon="99.414456"><time>2026-05-02T05:40:04.783Z</time></trkpt>
      <trkpt lat="29.859637" lon="99.414456"><time>2026-05-02T05:40:04.800Z</time></trkpt>
      <trkpt lat="29.859637" lon="99.414456"><time>2026-05-02T05:40:04.816Z</time></trkpt>
      <trkpt lat="29.859632" lon="99.414458"><time>2026-05-02T05:40:04.833Z</time></trkpt>
      <trkpt lat="29.859632" lon="99.414458"><time>2026-05-02T05:40:04.850Z</time></trkpt>
      <trkpt lat="29.859632" lon="99.414458"><time>2026-05-02T05:40:04.866Z</time></trkpt>
      <trkpt lat="29.859632" lon="99.414458"><time>2026-05-02T05:40:04.883Z</time></trkpt>
      <trkpt lat="29.859632" lon="99.414458"><time>2026-05-02T05:40:04.900Z</time></trkpt>
      <trkpt lat="29.859632" lon="99.414458"><time>2026-05-02T05:40:04.916Z</time></trkpt>
      <trkpt lat="29.859628" lon="99.414459"><time>2026-05-02T05:40:04.933Z</time></trkpt>
      <trkpt lat="29.859628" lon="99.414459"><time>2026-05-02T05:40:04.950Z</time></trkpt>
      <trkpt lat="29.859628" lon="99.414459"><time>2026-05-02T05:40:04.966Z</time></trkpt>
      <trkpt lat="29.859628" lon="99.414459"><time>2026-05-02T05:40:04.983Z</time></trkpt>
      <trkpt lat="29.859628" lon="99.414459"><time>2026-05-02T05:40:05.000Z</time></trkpt>
      <trkpt lat="29.859628" lon="99.414459"><time>2026-05-02T05:40:05.017Z</time></trkpt>
      <trkpt lat="29.859625" lon="99.414461"><time>2026-05-02T05:40:05.033Z</time></trkpt>
      <trkpt lat="29.859625" lon="99.414461"><time>2026-05-02T05:40:05.050Z</time></trkpt>
      <trkpt lat="29.859625" lon="99.414461"><time>2026-05-02T05:40:05.067Z</time></trkpt>
      <trkpt lat="29.859625" lon="99.414461"><time>2026-05-02T05:40:05.083Z</time></trkpt>
      <trkpt lat="29.859625" lon="99.414461"><time>2026-05-02T05:40:05.100Z</time></trkpt>
      <trkpt lat="29.859625" lon="99.414461"><time>2026-05-02T05:40:05.117Z</time></trkpt>
      <trkpt lat="29.859622" lon="99.414462"><time>2026-05-02T05:40:05.133Z</time></trkpt>
      <trkpt lat="29.859622" lon="99.414462"><time>2026-05-02T05:40:05.150Z</time></trkpt>
      <trkpt lat="29.859622" lon="99.414462"><time>2026-05-02T05:40:05.167Z</time></trkpt>
      <trkpt lat="29.859622" lon="99.414462"><time>2026-05-02T05:40:05.183Z</time></trkpt>
      <trkpt lat="29.859622" lon="99.414462"><time>2026-05-02T05:40:05.200Z</time></trkpt>
      <trkpt lat="29.859622" lon="99.414462"><time>2026-05-02T05:40:05.217Z</time></trkpt>
      <trkpt lat="29.85962" lon="99.414463"><time>2026-05-02T05:40:05.233Z</time></trkpt>
      <trkpt lat="29.85962" lon="99.414463"><time>2026-05-02T05:40:05.250Z</time></trkpt>
      <trkpt lat="29.85962" lon="99.414463"><time>2026-05-02T05:40:05.267Z</time></trkpt>
      <trkpt lat="29.85962" lon="99.414463"><time>2026-05-02T05:40:05.283Z</time></trkpt>
      <trkpt lat="29.85962" lon="99.414463"><time>2026-05-02T05:40:05.300Z</time></trkpt>
      <trkpt lat="29.85962" lon="99.414463"><time>2026-05-02T05:40:05.317Z</time></trkpt>
      <trkpt lat="29.859619" lon="99.414463"><time>2026-05-02T05:40:05.334Z</time></trkpt>
      <trkpt lat="29.859619" lon="99.414463"><time>2026-05-02T05:40:05.350Z</time></trkpt>
      <trkpt lat="29.859619" lon="99.414463"><time>2026-05-02T05:40:05.367Z</time></trkpt>
      <trkpt lat="29.859619" lon="99.414463"><time>2026-05-02T05:40:05.384Z</time></trkpt>
      <trkpt lat="29.859619" lon="99.414463"><time>2026-05-02T05:40:05.400Z</time></trkpt>
      <trkpt lat="29.859619" lon="99.414463"><time>2026-05-02T05:40:05.417Z</time></trkpt>
      <trkpt lat="29.859617" lon="99.414464"><time>2026-05-02T05:40:05.434Z</time></trkpt>
      <trkpt lat="29.859617" lon="99.414464"><time>2026-05-02T05:40:05.450Z</time></trkpt>
      <trkpt lat="29.859617" lon="99.414464"><time>2026-05-02T05:40:05.467Z</time></trkpt>
      <trkpt lat="29.859617" lon="99.414464"><time>2026-05-02T05:40:05.484Z</time></trkpt>
      <trkpt lat="29.859617" lon="99.414464"><time>2026-05-02T05:40:05.500Z</time></trkpt>
      <trkpt lat="29.859617" lon="99.414464"><time>2026-05-02T05:40:05.517Z</time></trkpt>
      <trkpt lat="29.859617" lon="99.414464"><time>2026-05-02T05:40:05.534Z</time></trkpt>
      <trkpt lat="29.859617" lon="99.414464"><time>2026-05-02T05:40:05.550Z</time></trkpt>
      <trkpt lat="29.859617" lon="99.414464"><time>2026-05-02T05:40:05.567Z</time></trkpt>
      <trkpt lat="29.859617" lon="99.414464"><time>2026-05-02T05:40:05.584Z</time></trkpt>
      <trkpt lat="29.859617" lon="99.414464"><time>2026-05-02T05:40:05.600Z</time></trkpt>
      <trkpt lat="29.859617" lon="99.414464"><time>2026-05-02T05:40:05.617Z</time></trkpt>
      <trkpt lat="29.859616" lon="99.414464"><time>2026-05-02T05:40:05.634Z</time></trkpt>
      <trkpt lat="29.859616" lon="99.414464"><time>2026-05-02T05:40:05.651Z</time></trkpt>
      <trkpt lat="29.859616" lon="99.414464"><time>2026-05-02T05:40:05.667Z</time></trkpt>
      <trkpt lat="29.859616" lon="99.414464"><time>2026-05-02T05:40:05.684Z</time></trkpt>
      <trkpt lat="29.859616" lon="99.414464"><time>2026-05-02T05:40:05.701Z</time></trkpt>
      <trkpt lat="29.859616" lon="99.414464"><time>2026-05-02T05:40:05.717Z</time></trkpt>
      <trkpt lat="29.859616" lon="99.414464"><time>2026-05-02T05:40:05.734Z</time></trkpt>
      <trkpt lat="29.859616" lon="99.414464"><time>2026-05-02T05:40:05.751Z</time></trkpt>
      <trkpt lat="29.859616" lon="99.414464"><time>2026-05-02T05:40:05.767Z</time></trkpt>
      <trkpt lat="29.859616" lon="99.414464"><time>2026-05-02T05:40:05.784Z</time></trkpt>
      <trkpt lat="29.859616" lon="99.414464"><time>2026-05-02T05:40:05.801Z</time></trkpt>
      <trkpt lat="29.859616" lon="99.414464"><time>2026-05-02T05:40:05.817Z</time></trkpt>
      <trkpt lat="29.859616" lon="99.414464"><time>2026-05-02T05:40:05.834Z</time></trkpt>
      <trkpt lat="29.859616" lon="99.414464"><time>2026-05-02T05:40:05.851Z</time></trkpt>
      <trkpt lat="29.859616" lon="99.414464"><time>2026-05-02T05:40:05.867Z</time></trkpt>
      <trkpt lat="29.859616" lon="99.414464"><time>2026-05-02T05:40:05.884Z</time></trkpt>
      <trkpt lat="29.859616" lon="99.414464"><time>2026-05-02T05:40:05.901Z</time></trkpt>
      <trkpt lat="29.859616" lon="99.414464"><time>2026-05-02T05:40:05.917Z</time></trkpt>
      <trkpt lat="29.859616" lon="99.414465"><time>2026-05-02T05:40:05.934Z</time></trkpt>
      <trkpt lat="29.859616" lon="99.414465"><time>2026-05-02T05:40:05.951Z</time></trkpt>
      <trkpt lat="29.859616" lon="99.414465"><time>2026-05-02T05:40:05.968Z</time></trkpt>
      <trkpt lat="29.859616" lon="99.414465"><time>2026-05-02T05:40:05.984Z</time></trkpt>
      <trkpt lat="29.859616" lon="99.414465"><time>2026-05-02T05:40:06.001Z</time></trkpt>
      <trkpt lat="29.859616" lon="99.414465"><time>2026-05-02T05:40:06.018Z</time></trkpt>
      <trkpt lat="29.859616" lon="99.414465"><time>2026-05-02T05:40:06.034Z</time></trkpt>
      <trkpt lat="29.859616" lon="99.414465"><time>2026-05-02T05:40:06.051Z</time></trkpt>
      <trkpt lat="29.859616" lon="99.414465"><time>2026-05-02T05:40:06.068Z</time></trkpt>
      <trkpt lat="29.859616" lon="99.414465"><time>2026-05-02T05:40:06.084Z</time></trkpt>
      <trkpt lat="29.859616" lon="99.414465"><time>2026-05-02T05:40:06.101Z</time></trkpt>
      <trkpt lat="29.859616" lon="99.414465"><time>2026-05-02T05:40:06.118Z</time></trkpt>
      <trkpt lat="29.859616" lon="99.414465"><time>2026-05-02T05:40:06.134Z</time></trkpt>
      <trkpt lat="29.859616" lon="99.414465"><time>2026-05-02T05:40:06.151Z</time></trkpt>
      <trkpt lat="29.859616" lon="99.414465"><time>2026-05-02T05:40:06.168Z</time></trkpt>
      <trkpt lat="29.859616" lon="99.414465"><time>2026-05-02T05:40:06.184Z</time></trkpt>
      <trkpt lat="29.859616" lon="99.414465"><time>2026-05-02T05:40:06.201Z</time></trkpt>
      <trkpt lat="29.859616" lon="99.414465"><time>2026-05-02T05:40:06.218Z</time></trkpt>
      <trkpt lat="29.859616" lon="99.414465"><time>2026-05-02T05:40:06.234Z</time></trkpt>
      <trkpt lat="29.859616" lon="99.414465"><time>2026-05-02T05:40:06.251Z</time></trkpt>
      <trkpt lat="29.859616" lon="99.414465"><time>2026-05-02T05:40:06.268Z</time></trkpt>
      <trkpt lat="29.859616" lon="99.414465"><time>2026-05-02T05:40:06.285Z</time></trkpt>
      <trkpt lat="29.859616" lon="99.414465"><time>2026-05-02T05:40:06.301Z</time></trkpt>
      <trkpt lat="29.859616" lon="99.414465"><time>2026-05-02T05:40:06.318Z</time></trkpt>
      <trkpt lat="29.859616" lon="99.414465"><time>2026-05-02T05:40:06.335Z</time></trkpt>
      <trkpt lat="29.859616" lon="99.414465"><time>2026-05-02T05:40:06.351Z</time></trkpt>
      <trkpt lat="29.859616" lon="99.414465"><time>2026-05-02T05:40:06.368Z</time></trkpt>
      <trkpt lat="29.859616" lon="99.414465"><time>2026-05-02T05:40:06.385Z</time></trkpt>
      <trkpt lat="29.859616" lon="99.414465"><time>2026-05-02T05:40:06.401Z</time></trkpt>
      <trkpt lat="29.859616" lon="99.414465"><time>2026-05-02T05:40:06.418Z</time></trkpt>
      <trkpt lat="29.859616" lon="99.414465"><time>2026-05-02T05:40:06.435Z</time></trkpt>
      <trkpt lat="29.859616" lon="99.414465"><time>2026-05-02T05:40:06.451Z</time></trkpt>
      <trkpt lat="29.859616" lon="99.414465"><time>2026-05-02T05:40:06.468Z</time></trkpt>
      <trkpt lat="29.859616" lon="99.414465"><time>2026-05-02T05:40:06.485Z</time></trkpt>
      <trkpt lat="29.859616" lon="99.414465"><time>2026-05-02T05:40:06.501Z</time></trkpt>
      <trkpt lat="29.859616" lon="99.414465"><time>2026-05-02T05:40:06.518Z</time></trkpt>
      <trkpt lat="29.859616" lon="99.414465"><time>2026-05-02T05:40:06.535Z</time></trkpt>
      <trkpt lat="29.859616" lon="99.414465"><time>2026-05-02T05:40:06.551Z</time></trkpt>
      <trkpt lat="29.859616" lon="99.414465"><time>2026-05-02T05:40:06.568Z</time></trkpt>
      <trkpt lat="29.859616" lon="99.414465"><time>2026-05-02T05:40:06.585Z</time></trkpt>
      <trkpt lat="29.859616" lon="99.414465"><time>2026-05-02T05:40:06.602Z</time></trkpt>
      <trkpt lat="29.859616" lon="99.414465"><time>2026-05-02T05:40:06.618Z</time></trkpt>
      <trkpt lat="29.859617" lon="99.414465"><time>2026-05-02T05:40:06.635Z</time></trkpt>
      <trkpt lat="29.859617" lon="99.414465"><time>2026-05-02T05:40:06.652Z</time></trkpt>
      <trkpt lat="29.859617" lon="99.414465"><time>2026-05-02T05:40:06.668Z</time></trkpt>
      <trkpt lat="29.859617" lon="99.414465"><time>2026-05-02T05:40:06.685Z</time></trkpt>
      <trkpt lat="29.859617" lon="99.414465"><time>2026-05-02T05:40:06.702Z</time></trkpt>
      <trkpt lat="29.859617" lon="99.414465"><time>2026-05-02T05:40:06.718Z</time></trkpt>
      <trkpt lat="29.859617" lon="99.414465"><time>2026-05-02T05:40:06.735Z</time></trkpt>
      <trkpt lat="29.859617" lon="99.414465"><time>2026-05-02T05:40:06.752Z</time></trkpt>
      <trkpt lat="29.859617" lon="99.414465"><time>2026-05-02T05:40:06.768Z</time></trkpt>
      <trkpt lat="29.859617" lon="99.414465"><time>2026-05-02T05:40:06.785Z</time></trkpt>
      <trkpt lat="29.859617" lon="99.414465"><time>2026-05-02T05:40:06.802Z</time></trkpt>
      <trkpt lat="29.859617" lon="99.414465"><time>2026-05-02T05:40:06.818Z</time></trkpt>
      <trkpt lat="29.859617" lon="99.414465"><time>2026-05-02T05:40:06.835Z</time></trkpt>
      <trkpt lat="29.859617" lon="99.414465"><time>2026-05-02T05:40:06.852Z</time></trkpt>
      <trkpt lat="29.859617" lon="99.414465"><time>2026-05-02T05:40:06.868Z</time></trkpt>
      <trkpt lat="29.859617" lon="99.414465"><time>2026-05-02T05:40:06.885Z</time></trkpt>
      <trkpt lat="29.859617" lon="99.414465"><time>2026-05-02T05:40:06.902Z</time></trkpt>
      <trkpt lat="29.859617" lon="99.414465"><time>2026-05-02T05:40:06.919Z</time></trkpt>
      <trkpt lat="29.859617" lon="99.414465"><time>2026-05-02T05:40:06.935Z</time></trkpt>
      <trkpt lat="29.859617" lon="99.414465"><time>2026-05-02T05:40:06.952Z</time></trkpt>
      <trkpt lat="29.859617" lon="99.414465"><time>2026-05-02T05:40:06.969Z</time></trkpt>
      <trkpt lat="29.859617" lon="99.414465"><time>2026-05-02T05:40:06.985Z</time></trkpt>
      <trkpt lat="29.859617" lon="99.414465"><time>2026-05-02T05:40:07.002Z</time></trkpt>
      <trkpt lat="29.859617" lon="99.414465"><time>2026-05-02T05:40:07.019Z</time></trkpt>
      <trkpt lat="29.859617" lon="99.414465"><time>2026-05-02T05:40:07.035Z</time></trkpt>
      <trkpt lat="29.859617" lon="99.414465"><time>2026-05-02T05:40:07.052Z</time></trkpt>
      <trkpt lat="29.859617" lon="99.414465"><time>2026-05-02T05:40:07.069Z</time></trkpt>
      <trkpt lat="29.859617" lon="99.414465"><time>2026-05-02T05:40:07.085Z</time></trkpt>
      <trkpt lat="29.859617" lon="99.414465"><time>2026-05-02T05:40:07.102Z</time></trkpt>
      <trkpt lat="29.859617" lon="99.414465"><time>2026-05-02T05:40:07.119Z</time></trkpt>
      <trkpt lat="29.859617" lon="99.414465"><time>2026-05-02T05:40:07.135Z</time></trkpt>
      <trkpt lat="29.859617" lon="99.414465"><time>2026-05-02T05:40:07.152Z</time></trkpt>
      <trkpt lat="29.859617" lon="99.414465"><time>2026-05-02T05:40:07.169Z</time></trkpt>
      <trkpt lat="29.859617" lon="99.414465"><time>2026-05-02T05:40:07.185Z</time></trkpt>
      <trkpt lat="29.859617" lon="99.414465"><time>2026-05-02T05:40:07.202Z</time></trkpt>
      <trkpt lat="29.859617" lon="99.414465"><time>2026-05-02T05:40:07.219Z</time></trkpt>
      <trkpt lat="29.859617" lon="99.414465"><time>2026-05-02T05:40:07.236Z</time></trkpt>
      <trkpt lat="29.859617" lon="99.414465"><time>2026-05-02T05:40:07.252Z</time></trkpt>
      <trkpt lat="29.859617" lon="99.414465"><time>2026-05-02T05:40:07.269Z</time></trkpt>
      <trkpt lat="29.859617" lon="99.414465"><time>2026-05-02T05:40:07.286Z</time></trkpt>
      <trkpt lat="29.859617" lon="99.414465"><time>2026-05-02T05:40:07.302Z</time></trkpt>
      <trkpt lat="29.859617" lon="99.414465"><time>2026-05-02T05:40:07.319Z</time></trkpt>
      <trkpt lat="29.859616" lon="99.414465"><time>2026-05-02T05:40:07.336Z</time></trkpt>
      <trkpt lat="29.859616" lon="99.414465"><time>2026-05-02T05:40:07.352Z</time></trkpt>
      <trkpt lat="29.859616" lon="99.414465"><time>2026-05-02T05:40:07.369Z</time></trkpt>
      <trkpt lat="29.859616" lon="99.414465"><time>2026-05-02T05:40:07.386Z</time></trkpt>
      <trkpt lat="29.859616" lon="99.414465"><time>2026-05-02T05:40:07.402Z</time></trkpt>
      <trkpt lat="29.859616" lon="99.414465"><time>2026-05-02T05:40:07.419Z</time></trkpt>
      <trkpt lat="29.859616" lon="99.414465"><time>2026-05-02T05:40:07.436Z</time></trkpt>
      <trkpt lat="29.859616" lon="99.414465"><time>2026-05-02T05:40:07.452Z</time></trkpt>
      <trkpt lat="29.859616" lon="99.414465"><time>2026-05-02T05:40:07.469Z</time></trkpt>
      <trkpt lat="29.859616" lon="99.414465"><time>2026-05-02T05:40:07.486Z</time></trkpt>
      <trkpt lat="29.859616" lon="99.414465"><time>2026-05-02T05:40:07.502Z</time></trkpt>
      <trkpt lat="29.859616" lon="99.414465"><time>2026-05-02T05:40:07.519Z</time></trkpt>
      <trkpt lat="29.859615" lon="99.414465"><time>2026-05-02T05:40:07.536Z</time></trkpt>
      <trkpt lat="29.859615" lon="99.414465"><time>2026-05-02T05:40:07.553Z</time></trkpt>
      <trkpt lat="29.859615" lon="99.414465"><time>2026-05-02T05:40:07.569Z</time></trkpt>
      <trkpt lat="29.859615" lon="99.414465"><time>2026-05-02T05:40:07.586Z</time></trkpt>
      <trkpt lat="29.859615" lon="99.414465"><time>2026-05-02T05:40:07.603Z</time></trkpt>
      <trkpt lat="29.859615" lon="99.414465"><time>2026-05-02T05:40:07.619Z</time></trkpt>
      <trkpt lat="29.859614" lon="99.414465"><time>2026-05-02T05:40:07.636Z</time></trkpt>
      <trkpt lat="29.859614" lon="99.414465"><time>2026-05-02T05:40:07.653Z</time></trkpt>
      <trkpt lat="29.859614" lon="99.414465"><time>2026-05-02T05:40:07.669Z</time></trkpt>
      <trkpt lat="29.859614" lon="99.414465"><time>2026-05-02T05:40:07.686Z</time></trkpt>
      <trkpt lat="29.859614" lon="99.414465"><time>2026-05-02T05:40:07.703Z</time></trkpt>
      <trkpt lat="29.859614" lon="99.414465"><time>2026-05-02T05:40:07.719Z</time></trkpt>
      <trkpt lat="29.859613" lon="99.414465"><time>2026-05-02T05:40:07.736Z</time></trkpt>
      <trkpt lat="29.859613" lon="99.414465"><time>2026-05-02T05:40:07.753Z</time></trkpt>
      <trkpt lat="29.859613" lon="99.414465"><time>2026-05-02T05:40:07.769Z</time></trkpt>
      <trkpt lat="29.859613" lon="99.414465"><time>2026-05-02T05:40:07.786Z</time></trkpt>
      <trkpt lat="29.859613" lon="99.414465"><time>2026-05-02T05:40:07.803Z</time></trkpt>
      <trkpt lat="29.859613" lon="99.414465"><time>2026-05-02T05:40:07.819Z</time></trkpt>
      <trkpt lat="29.859612" lon="99.414465"><time>2026-05-02T05:40:07.836Z</time></trkpt>
      <trkpt lat="29.859612" lon="99.414465"><time>2026-05-02T05:40:07.853Z</time></trkpt>
      <trkpt lat="29.859612" lon="99.414465"><time>2026-05-02T05:40:07.870Z</time></trkpt>
      <trkpt lat="29.859612" lon="99.414465"><time>2026-05-02T05:40:07.886Z</time></trkpt>
      <trkpt lat="29.859612" lon="99.414465"><time>2026-05-02T05:40:07.903Z</time></trkpt>
      <trkpt lat="29.859612" lon="99.414465"><time>2026-05-02T05:40:07.920Z</time></trkpt>
      <trkpt lat="29.859612" lon="99.414466"><time>2026-05-02T05:40:07.936Z</time></trkpt>
      <trkpt lat="29.859612" lon="99.414466"><time>2026-05-02T05:40:07.953Z</time></trkpt>
      <trkpt lat="29.859612" lon="99.414466"><time>2026-05-02T05:40:07.970Z</time></trkpt>
      <trkpt lat="29.859612" lon="99.414466"><time>2026-05-02T05:40:07.986Z</time></trkpt>
      <trkpt lat="29.859612" lon="99.414466"><time>2026-05-02T05:40:08.003Z</time></trkpt>
      <trkpt lat="29.859612" lon="99.414466"><time>2026-05-02T05:40:08.020Z</time></trkpt>
      <trkpt lat="29.859611" lon="99.414466"><time>2026-05-02T05:40:08.036Z</time></trkpt>
      <trkpt lat="29.859611" lon="99.414466"><time>2026-05-02T05:40:08.053Z</time></trkpt>
      <trkpt lat="29.859611" lon="99.414466"><time>2026-05-02T05:40:08.070Z</time></trkpt>
      <trkpt lat="29.859611" lon="99.414466"><time>2026-05-02T05:40:08.086Z</time></trkpt>
      <trkpt lat="29.859611" lon="99.414466"><time>2026-05-02T05:40:08.103Z</time></trkpt>
      <trkpt lat="29.859611" lon="99.414466"><time>2026-05-02T05:40:08.120Z</time></trkpt>
      <trkpt lat="29.859611" lon="99.414466"><time>2026-05-02T05:40:08.136Z</time></trkpt>
      <trkpt lat="29.859611" lon="99.414466"><time>2026-05-02T05:40:08.153Z</time></trkpt>
      <trkpt lat="29.859611" lon="99.414466"><time>2026-05-02T05:40:08.170Z</time></trkpt>
      <trkpt lat="29.859611" lon="99.414466"><time>2026-05-02T05:40:08.187Z</time></trkpt>
      <trkpt lat="29.859611" lon="99.414466"><time>2026-05-02T05:40:08.203Z</time></trkpt>
      <trkpt lat="29.859611" lon="99.414466"><time>2026-05-02T05:40:08.220Z</time></trkpt>
      <trkpt lat="29.859611" lon="99.414466"><time>2026-05-02T05:40:08.237Z</time></trkpt>
      <trkpt lat="29.859611" lon="99.414466"><time>2026-05-02T05:40:08.253Z</time></trkpt>
      <trkpt lat="29.859611" lon="99.414466"><time>2026-05-02T05:40:08.270Z</time></trkpt>
      <trkpt lat="29.859611" lon="99.414466"><time>2026-05-02T05:40:08.287Z</time></trkpt>
      <trkpt lat="29.859611" lon="99.414466"><time>2026-05-02T05:40:08.303Z</time></trkpt>
      <trkpt lat="29.859611" lon="99.414466"><time>2026-05-02T05:40:08.320Z</time></trkpt>
      <trkpt lat="29.859611" lon="99.414466"><time>2026-05-02T05:40:08.337Z</time></trkpt>
      <trkpt lat="29.859611" lon="99.414466"><time>2026-05-02T05:40:08.353Z</time></trkpt>
      <trkpt lat="29.859611" lon="99.414466"><time>2026-05-02T05:40:08.370Z</time></trkpt>
      <trkpt lat="29.859611" lon="99.414466"><time>2026-05-02T05:40:08.387Z</time></trkpt>
      <trkpt lat="29.859611" lon="99.414466"><time>2026-05-02T05:40:08.403Z</time></trkpt>
      <trkpt lat="29.859611" lon="99.414466"><time>2026-05-02T05:40:08.420Z</time></trkpt>
      <trkpt lat="29.859611" lon="99.414466"><time>2026-05-02T05:40:08.437Z</time></trkpt>
      <trkpt lat="29.859611" lon="99.414466"><time>2026-05-02T05:40:08.453Z</time></trkpt>
      <trkpt lat="29.859611" lon="99.414466"><time>2026-05-02T05:40:08.470Z</time></trkpt>
      <trkpt lat="29.859611" lon="99.414466"><time>2026-05-02T05:40:08.487Z</time></trkpt>
      <trkpt lat="29.859611" lon="99.414466"><time>2026-05-02T05:40:08.504Z</time></trkpt>
      <trkpt lat="29.859611" lon="99.414466"><time>2026-05-02T05:40:08.520Z</time></trkpt>
      <trkpt lat="29.859611" lon="99.414466"><time>2026-05-02T05:40:08.537Z</time></trkpt>
      <trkpt lat="29.859611" lon="99.414466"><time>2026-05-02T05:40:08.554Z</time></trkpt>
      <trkpt lat="29.859611" lon="99.414466"><time>2026-05-02T05:40:08.570Z</time></trkpt>
      <trkpt lat="29.859611" lon="99.414466"><time>2026-05-02T05:40:08.587Z</time></trkpt>
      <trkpt lat="29.859611" lon="99.414466"><time>2026-05-02T05:40:08.604Z</time></trkpt>
      <trkpt lat="29.859611" lon="99.414466"><time>2026-05-02T05:40:08.620Z</time></trkpt>
      <trkpt lat="29.859612" lon="99.414466"><time>2026-05-02T05:40:08.637Z</time></trkpt>
      <trkpt lat="29.859612" lon="99.414466"><time>2026-05-02T05:40:08.654Z</time></trkpt>
      <trkpt lat="29.859612" lon="99.414466"><time>2026-05-02T05:40:08.670Z</time></trkpt>
      <trkpt lat="29.859612" lon="99.414466"><time>2026-05-02T05:40:08.687Z</time></trkpt>
      <trkpt lat="29.859612" lon="99.414466"><time>2026-05-02T05:40:08.704Z</time></trkpt>
      <trkpt lat="29.859612" lon="99.414466"><time>2026-05-02T05:40:08.720Z</time></trkpt>
      <trkpt lat="29.859612" lon="99.414466"><time>2026-05-02T05:40:08.737Z</time></trkpt>
      <trkpt lat="29.859612" lon="99.414466"><time>2026-05-02T05:40:08.754Z</time></trkpt>
      <trkpt lat="29.859612" lon="99.414466"><time>2026-05-02T05:40:08.770Z</time></trkpt>
      <trkpt lat="29.859612" lon="99.414466"><time>2026-05-02T05:40:08.787Z</time></trkpt>
      <trkpt lat="29.859612" lon="99.414466"><time>2026-05-02T05:40:08.804Z</time></trkpt>
      <trkpt lat="29.859612" lon="99.414466"><time>2026-05-02T05:40:08.821Z</time></trkpt>
      <trkpt lat="29.859612" lon="99.414467"><time>2026-05-02T05:40:08.837Z</time></trkpt>
      <trkpt lat="29.859612" lon="99.414467"><time>2026-05-02T05:40:08.854Z</time></trkpt>
      <trkpt lat="29.859612" lon="99.414467"><time>2026-05-02T05:40:08.871Z</time></trkpt>
      <trkpt lat="29.859612" lon="99.414467"><time>2026-05-02T05:40:08.887Z</time></trkpt>
      <trkpt lat="29.859612" lon="99.414467"><time>2026-05-02T05:40:08.904Z</time></trkpt>
      <trkpt lat="29.859612" lon="99.414467"><time>2026-05-02T05:40:08.921Z</time></trkpt>
      <trkpt lat="29.859612" lon="99.414467"><time>2026-05-02T05:40:08.937Z</time></trkpt>
      <trkpt lat="29.859612" lon="99.414467"><time>2026-05-02T05:40:08.954Z</time></trkpt>
      <trkpt lat="29.859612" lon="99.414467"><time>2026-05-02T05:40:08.971Z</time></trkpt>
      <trkpt lat="29.859612" lon="99.414467"><time>2026-05-02T05:40:08.987Z</time></trkpt>
      <trkpt lat="29.859612" lon="99.414467"><time>2026-05-02T05:40:09.004Z</time></trkpt>
      <trkpt lat="29.859612" lon="99.414467"><time>2026-05-02T05:40:09.021Z</time></trkpt>
      <trkpt lat="29.859612" lon="99.414467"><time>2026-05-02T05:40:09.037Z</time></trkpt>
      <trkpt lat="29.859612" lon="99.414467"><time>2026-05-02T05:40:09.054Z</time></trkpt>
      <trkpt lat="29.859612" lon="99.414467"><time>2026-05-02T05:40:09.071Z</time></trkpt>
      <trkpt lat="29.859612" lon="99.414467"><time>2026-05-02T05:40:09.087Z</time></trkpt>
      <trkpt lat="29.859612" lon="99.414467"><time>2026-05-02T05:40:09.104Z</time></trkpt>
      <trkpt lat="29.859612" lon="99.414467"><time>2026-05-02T05:40:09.121Z</time></trkpt>
      <trkpt lat="29.859612" lon="99.414467"><time>2026-05-02T05:40:09.138Z</time></trkpt>
      <trkpt lat="29.859612" lon="99.414467"><time>2026-05-02T05:40:09.154Z</time></trkpt>
      <trkpt lat="29.859612" lon="99.414467"><time>2026-05-02T05:40:09.171Z</time></trkpt>
      <trkpt lat="29.859612" lon="99.414467"><time>2026-05-02T05:40:09.188Z</time></trkpt>
      <trkpt lat="29.859612" lon="99.414467"><time>2026-05-02T05:40:09.204Z</time></trkpt>
      <trkpt lat="29.859612" lon="99.414467"><time>2026-05-02T05:40:09.221Z</time></trkpt>
      <trkpt lat="29.859611" lon="99.414467"><time>2026-05-02T05:40:09.238Z</time></trkpt>
      <trkpt lat="29.859611" lon="99.414467"><time>2026-05-02T05:40:09.254Z</time></trkpt>
      <trkpt lat="29.859611" lon="99.414467"><time>2026-05-02T05:40:09.271Z</time></trkpt>
      <trkpt lat="29.859611" lon="99.414467"><time>2026-05-02T05:40:09.288Z</time></trkpt>
      <trkpt lat="29.859611" lon="99.414467"><time>2026-05-02T05:40:09.304Z</time></trkpt>
      <trkpt lat="29.859611" lon="99.414467"><time>2026-05-02T05:40:09.321Z</time></trkpt>
      <trkpt lat="29.859611" lon="99.414467"><time>2026-05-02T05:40:09.338Z</time></trkpt>
      <trkpt lat="29.859611" lon="99.414467"><time>2026-05-02T05:40:09.354Z</time></trkpt>
      <trkpt lat="29.859611" lon="99.414467"><time>2026-05-02T05:40:09.371Z</time></trkpt>
      <trkpt lat="29.859611" lon="99.414467"><time>2026-05-02T05:40:09.388Z</time></trkpt>
      <trkpt lat="29.859611" lon="99.414467"><time>2026-05-02T05:40:09.404Z</time></trkpt>
      <trkpt lat="29.859611" lon="99.414467"><time>2026-05-02T05:40:09.421Z</time></trkpt>
      <trkpt lat="29.85961" lon="99.414467"><time>2026-05-02T05:40:09.438Z</time></trkpt>
      <trkpt lat="29.85961" lon="99.414467"><time>2026-05-02T05:40:09.455Z</time></trkpt>
      <trkpt lat="29.85961" lon="99.414467"><time>2026-05-02T05:40:09.471Z</time></trkpt>
      <trkpt lat="29.85961" lon="99.414467"><time>2026-05-02T05:40:09.488Z</time></trkpt>
      <trkpt lat="29.85961" lon="99.414467"><time>2026-05-02T05:40:09.505Z</time></trkpt>
      <trkpt lat="29.85961" lon="99.414467"><time>2026-05-02T05:40:09.521Z</time></trkpt>
      <trkpt lat="29.85961" lon="99.414467"><time>2026-05-02T05:40:09.538Z</time></trkpt>
      <trkpt lat="29.85961" lon="99.414467"><time>2026-05-02T05:40:09.555Z</time></trkpt>
      <trkpt lat="29.85961" lon="99.414467"><time>2026-05-02T05:40:09.571Z</time></trkpt>
      <trkpt lat="29.85961" lon="99.414467"><time>2026-05-02T05:40:09.588Z</time></trkpt>
      <trkpt lat="29.85961" lon="99.414467"><time>2026-05-02T05:40:09.605Z</time></trkpt>
      <trkpt lat="29.85961" lon="99.414467"><time>2026-05-02T05:40:09.621Z</time></trkpt>
      <trkpt lat="29.859609" lon="99.414467"><time>2026-05-02T05:40:09.638Z</time></trkpt>
      <trkpt lat="29.859609" lon="99.414467"><time>2026-05-02T05:40:09.655Z</time></trkpt>
      <trkpt lat="29.859609" lon="99.414467"><time>2026-05-02T05:40:09.671Z</time></trkpt>
      <trkpt lat="29.859609" lon="99.414467"><time>2026-05-02T05:40:09.688Z</time></trkpt>
      <trkpt lat="29.859609" lon="99.414467"><time>2026-05-02T05:40:09.705Z</time></trkpt>
      <trkpt lat="29.859609" lon="99.414467"><time>2026-05-02T05:40:09.721Z</time></trkpt>
      <trkpt lat="29.859608" lon="99.414467"><time>2026-05-02T05:40:09.738Z</time></trkpt>
      <trkpt lat="29.859608" lon="99.414467"><time>2026-05-02T05:40:09.755Z</time></trkpt>
      <trkpt lat="29.859608" lon="99.414467"><time>2026-05-02T05:40:09.772Z</time></trkpt>
      <trkpt lat="29.859608" lon="99.414467"><time>2026-05-02T05:40:09.788Z</time></trkpt>
      <trkpt lat="29.859608" lon="99.414467"><time>2026-05-02T05:40:09.805Z</time></trkpt>
      <trkpt lat="29.859608" lon="99.414467"><time>2026-05-02T05:40:09.822Z</time></trkpt>
      <trkpt lat="29.859607" lon="99.414467"><time>2026-05-02T05:40:09.838Z</time></trkpt>
      <trkpt lat="29.859607" lon="99.414467"><time>2026-05-02T05:40:09.855Z</time></trkpt>
      <trkpt lat="29.859607" lon="99.414467"><time>2026-05-02T05:40:09.872Z</time></trkpt>
      <trkpt lat="29.859607" lon="99.414467"><time>2026-05-02T05:40:09.888Z</time></trkpt>
      <trkpt lat="29.859607" lon="99.414467"><time>2026-05-02T05:40:09.905Z</time></trkpt>
      <trkpt lat="29.859607" lon="99.414467"><time>2026-05-02T05:40:09.922Z</time></trkpt>
      <trkpt lat="29.859605" lon="99.414468"><time>2026-05-02T05:40:09.938Z</time></trkpt>
      <trkpt lat="29.859605" lon="99.414468"><time>2026-05-02T05:40:09.955Z</time></trkpt>
      <trkpt lat="29.859605" lon="99.414468"><time>2026-05-02T05:40:09.972Z</time></trkpt>
      <trkpt lat="29.859605" lon="99.414468"><time>2026-05-02T05:40:09.988Z</time></trkpt>
      <trkpt lat="29.859605" lon="99.414468"><time>2026-05-02T05:40:10.005Z</time></trkpt>
      <trkpt lat="29.859605" lon="99.414468"><time>2026-05-02T05:40:10.022Z</time></trkpt>
      <trkpt lat="29.859603" lon="99.414468"><time>2026-05-02T05:40:10.038Z</time></trkpt>
      <trkpt lat="29.859603" lon="99.414468"><time>2026-05-02T05:40:10.055Z</time></trkpt>
      <trkpt lat="29.859603" lon="99.414468"><time>2026-05-02T05:40:10.072Z</time></trkpt>
      <trkpt lat="29.859603" lon="99.414468"><time>2026-05-02T05:40:10.089Z</time></trkpt>
      <trkpt lat="29.859603" lon="99.414468"><time>2026-05-02T05:40:10.105Z</time></trkpt>
      <trkpt lat="29.859603" lon="99.414468"><time>2026-05-02T05:40:10.122Z</time></trkpt>
      <trkpt lat="29.859601" lon="99.414468"><time>2026-05-02T05:40:10.139Z</time></trkpt>
      <trkpt lat="29.859601" lon="99.414468"><time>2026-05-02T05:40:10.155Z</time></trkpt>
      <trkpt lat="29.859601" lon="99.414468"><time>2026-05-02T05:40:10.172Z</time></trkpt>
      <trkpt lat="29.859601" lon="99.414468"><time>2026-05-02T05:40:10.189Z</time></trkpt>
      <trkpt lat="29.859601" lon="99.414468"><time>2026-05-02T05:40:10.205Z</time></trkpt>
      <trkpt lat="29.859601" lon="99.414468"><time>2026-05-02T05:40:10.222Z</time></trkpt>
      <trkpt lat="29.859599" lon="99.414469"><time>2026-05-02T05:40:10.239Z</time></trkpt>
      <trkpt lat="29.859599" lon="99.414469"><time>2026-05-02T05:40:10.255Z</time></trkpt>
      <trkpt lat="29.859599" lon="99.414469"><time>2026-05-02T05:40:10.272Z</time></trkpt>
      <trkpt lat="29.859599" lon="99.414469"><time>2026-05-02T05:40:10.289Z</time></trkpt>
      <trkpt lat="29.859599" lon="99.414469"><time>2026-05-02T05:40:10.305Z</time></trkpt>
      <trkpt lat="29.859599" lon="99.414469"><time>2026-05-02T05:40:10.322Z</time></trkpt>
      <trkpt lat="29.859596" lon="99.41447"><time>2026-05-02T05:40:10.339Z</time></trkpt>
      <trkpt lat="29.859596" lon="99.41447"><time>2026-05-02T05:40:10.355Z</time></trkpt>
      <trkpt lat="29.859596" lon="99.41447"><time>2026-05-02T05:40:10.372Z</time></trkpt>
      <trkpt lat="29.859596" lon="99.41447"><time>2026-05-02T05:40:10.389Z</time></trkpt>
      <trkpt lat="29.859596" lon="99.41447"><time>2026-05-02T05:40:10.406Z</time></trkpt>
      <trkpt lat="29.859596" lon="99.41447"><time>2026-05-02T05:40:10.422Z</time></trkpt>
      <trkpt lat="29.859593" lon="99.41447"><time>2026-05-02T05:40:10.439Z</time></trkpt>
      <trkpt lat="29.859593" lon="99.41447"><time>2026-05-02T05:40:10.456Z</time></trkpt>
      <trkpt lat="29.859593" lon="99.41447"><time>2026-05-02T05:40:10.472Z</time></trkpt>
      <trkpt lat="29.859593" lon="99.41447"><time>2026-05-02T05:40:10.489Z</time></trkpt>
      <trkpt lat="29.859593" lon="99.41447"><time>2026-05-02T05:40:10.506Z</time></trkpt>
      <trkpt lat="29.859593" lon="99.41447"><time>2026-05-02T05:40:10.522Z</time></trkpt>
      <trkpt lat="29.85959" lon="99.414471"><time>2026-05-02T05:40:10.539Z</time></trkpt>
      <trkpt lat="29.85959" lon="99.414471"><time>2026-05-02T05:40:10.556Z</time></trkpt>
      <trkpt lat="29.85959" lon="99.414471"><time>2026-05-02T05:40:10.572Z</time></trkpt>
      <trkpt lat="29.85959" lon="99.414471"><time>2026-05-02T05:40:10.589Z</time></trkpt>
      <trkpt lat="29.85959" lon="99.414471"><time>2026-05-02T05:40:10.606Z</time></trkpt>
      <trkpt lat="29.85959" lon="99.414471"><time>2026-05-02T05:40:10.622Z</time></trkpt>
      <trkpt lat="29.859587" lon="99.414472"><time>2026-05-02T05:40:10.639Z</time></trkpt>
      <trkpt lat="29.859587" lon="99.414472"><time>2026-05-02T05:40:10.656Z</time></trkpt>
      <trkpt lat="29.859587" lon="99.414472"><time>2026-05-02T05:40:10.672Z</time></trkpt>
      <trkpt lat="29.859587" lon="99.414472"><time>2026-05-02T05:40:10.689Z</time></trkpt>
      <trkpt lat="29.859587" lon="99.414472"><time>2026-05-02T05:40:10.706Z</time></trkpt>
      <trkpt lat="29.859587" lon="99.414472"><time>2026-05-02T05:40:10.723Z</time></trkpt>
      <trkpt lat="29.859584" lon="99.414473"><time>2026-05-02T05:40:10.739Z</time></trkpt>
      <trkpt lat="29.859584" lon="99.414473"><time>2026-05-02T05:40:10.756Z</time></trkpt>
      <trkpt lat="29.859584" lon="99.414473"><time>2026-05-02T05:40:10.773Z</time></trkpt>
      <trkpt lat="29.859584" lon="99.414473"><time>2026-05-02T05:40:10.789Z</time></trkpt>
      <trkpt lat="29.859584" lon="99.414473"><time>2026-05-02T05:40:10.806Z</time></trkpt>
      <trkpt lat="29.859584" lon="99.414473"><time>2026-05-02T05:40:10.823Z</time></trkpt>
      <trkpt lat="29.859581" lon="99.414473"><time>2026-05-02T05:40:10.839Z</time></trkpt>
      <trkpt lat="29.859581" lon="99.414473"><time>2026-05-02T05:40:10.856Z</time></trkpt>
    </trkseg>
  </trk>
</gpx>
