<?xml version="1.0" encoding="UTF-8"?>
<gpx version="1.1" creator="Kairos" xmlns="http://www.topografix.com/GPX/1/1">
  <trk>
    <name>sidecar-srt-2b1a509b5afb0e9e</name>
    <trkseg>
      <trkpt lat="29.798153" lon="99.759874"><time>2026-05-02T22:32:07.000Z</time></trkpt>
      <trkpt lat="29.798155" lon="99.759868"><time>2026-05-02T22:32:07.016Z</time></trkpt>
      <trkpt lat="29.798155" lon="99.759868"><time>2026-05-02T22:32:07.032Z</time></trkpt>
      <trkpt lat="29.798155" lon="99.759868"><time>2026-05-02T22:32:07.049Z</time></trkpt>
      <trkpt lat="29.798155" lon="99.759868"><time>2026-05-02T22:32:07.066Z</time></trkpt>
      <trkpt lat="29.798155" lon="99.759868"><time>2026-05-02T22:32:07.082Z</time></trkpt>
      <trkpt lat="29.798155" lon="99.759868"><time>2026-05-02T22:32:07.099Z</time></trkpt>
      <trkpt lat="29.798156" lon="99.759864"><time>2026-05-02T22:32:07.116Z</time></trkpt>
      <trkpt lat="29.798156" lon="99.759864"><time>2026-05-02T22:32:07.132Z</time></trkpt>
      <trkpt lat="29.798156" lon="99.759864"><time>2026-05-02T22:32:07.149Z</time></trkpt>
      <trkpt lat="29.798156" lon="99.759864"><time>2026-05-02T22:32:07.166Z</time></trkpt>
      <trkpt lat="29.798156" lon="99.759864"><time>2026-05-02T22:32:07.182Z</time></trkpt>
      <trkpt lat="29.798156" lon="99.759864"><time>2026-05-02T22:32:07.199Z</time></trkpt>
      <trkpt lat="29.798158" lon="99.759859"><time>2026-05-02T22:32:07.216Z</time></trkpt>
      <trkpt lat="29.798158" lon="99.759859"><time>2026-05-02T22:32:07.232Z</time></trkpt>
      <trkpt lat="29.798158" lon="99.759859"><time>2026-05-02T22:32:07.249Z</time></trkpt>
      <trkpt lat="29.798158" lon="99.759859"><time>2026-05-02T22:32:07.266Z</time></trkpt>
      <trkpt lat="29.798158" lon="99.759859"><time>2026-05-02T22:32:07.282Z</time></trkpt>
      <trkpt lat="29.798158" lon="99.759859"><time>2026-05-02T22:32:07.299Z</time></trkpt>
      <trkpt lat="29.798159" lon="99.759856"><time>2026-05-02T22:32:07.316Z</time></trkpt>
      <trkpt lat="29.798159" lon="99.759856"><time>2026-05-02T22:32:07.333Z</time></trkpt>
      <trkpt lat="29.798159" lon="99.759856"><time>2026-05-02T22:32:07.349Z</time></trkpt>
      <trkpt lat="29.798159" lon="99.759856"><time>2026-05-02T22:32:07.366Z</time></trkpt>
      <trkpt lat="29.798159" lon="99.759856"><time>2026-05-02T22:32:07.383Z</time></trkpt>
      <trkpt lat="29.798159" lon="99.759856"><time>2026-05-02T22:32:07.399Z</time></trkpt>
      <trkpt lat="29.79816" lon="99.759853"><time>2026-05-02T22:32:07.416Z</time></trkpt>
      <trkpt lat="29.79816" lon="99.759853"><time>2026-05-02T22:32:07.433Z</time></trkpt>
      <trkpt lat="29.79816" lon="99.759853"><time>2026-05-02T22:32:07.449Z</time></trkpt>
      <trkpt lat="29.79816" lon="99.759853"><time>2026-05-02T22:32:07.466Z</time></trkpt>
      <trkpt lat="29.79816" lon="99.759853"><time>2026-05-02T22:32:07.483Z</time></trkpt>
      <trkpt lat="29.79816" lon="99.759853"><time>2026-05-02T22:32:07.499Z</time></trkpt>
      <trkpt lat="29.79816" lon="99.759851"><time>2026-05-02T22:32:07.516Z</time></trkpt>
      <trkpt lat="29.79816" lon="99.759851"><time>2026-05-02T22:32:07.533Z</time></trkpt>
      <trkpt lat="29.79816" lon="99.759851"><time>2026-05-02T22:32:07.549Z</time></trkpt>
      <trkpt lat="29.79816" lon="99.759851"><time>2026-05-02T22:32:07.566Z</time></trkpt>
      <trkpt lat="29.79816" lon="99.759851"><time>2026-05-02T22:32:07.583Z</time></trkpt>
      <trkpt lat="29.79816" lon="99.759851"><time>2026-05-02T22:32:07.599Z</time></trkpt>
      <trkpt lat="29.798161" lon="99.759849"><time>2026-05-02T22:32:07.616Z</time></trkpt>
      <trkpt lat="29.798161" lon="99.759849"><time>2026-05-02T22:32:07.633Z</time></trkpt>
      <trkpt lat="29.798161" lon="99.759849"><time>2026-05-02T22:32:07.649Z</time></trkpt>
      <trkpt lat="29.798161" lon="99.759849"><time>2026-05-02T22:32:07.666Z</time></trkpt>
      <trkpt lat="29.798161" lon="99.759849"><time>2026-05-02T22:32:07.683Z</time></trkpt>
      <trkpt lat="29.798161" lon="99.759849"><time>2026-05-02T22:32:07.700Z</time></trkpt>
      <trkpt lat="29.798161" lon="99.759848"><time>2026-05-02T22:32:07.716Z</time></trkpt>
      <trkpt lat="29.798161" lon="99.759848"><time>2026-05-02T22:32:07.733Z</time></trkpt>
      <trkpt lat="29.798161" lon="99.759848"><time>2026-05-02T22:32:07.750Z</time></trkpt>
      <trkpt lat="29.798161" lon="99.759848"><time>2026-05-02T22:32:07.766Z</time></trkpt>
      <trkpt lat="29.798161" lon="99.759848"><time>2026-05-02T22:32:07.783Z</time></trkpt>
      <trkpt lat="29.798161" lon="99.759848"><time>2026-05-02T22:32:07.800Z</time></trkpt>
      <trkpt lat="29.798162" lon="99.759847"><time>2026-05-02T22:32:07.816Z</time></trkpt>
      <trkpt lat="29.798162" lon="99.759847"><time>2026-05-02T22:32:07.833Z</time></trkpt>
      <trkpt lat="29.798162" lon="99.759847"><time>2026-05-02T22:32:07.850Z</time></trkpt>
      <trkpt lat="29.798162" lon="99.759847"><time>2026-05-02T22:32:07.866Z</time></trkpt>
      <trkpt lat="29.798162" lon="99.759847"><time>2026-05-02T22:32:07.883Z</time></trkpt>
      <trkpt lat="29.798162" lon="99.759847"><time>2026-05-02T22:32:07.900Z</time></trkpt>
      <trkpt lat="29.798162" lon="99.759846"><time>2026-05-02T22:32:07.916Z</time></trkpt>
      <trkpt lat="29.798162" lon="99.759846"><time>2026-05-02T22:32:07.933Z</time></trkpt>
      <trkpt lat="29.798162" lon="99.759846"><time>2026-05-02T22:32:07.950Z</time></trkpt>
      <trkpt lat="29.798162" lon="99.759846"><time>2026-05-02T22:32:07.966Z</time></trkpt>
      <trkpt lat="29.798162" lon="99.759846"><time>2026-05-02T22:32:07.983Z</time></trkpt>
      <trkpt lat="29.798162" lon="99.759846"><time>2026-05-02T22:32:08.000Z</time></trkpt>
      <trkpt lat="29.798162" lon="99.759846"><time>2026-05-02T22:32:08.017Z</time></trkpt>
      <trkpt lat="29.798162" lon="99.759846"><time>2026-05-02T22:32:08.033Z</time></trkpt>
      <trkpt lat="29.798162" lon="99.759846"><time>2026-05-02T22:32:08.050Z</time></trkpt>
      <trkpt lat="29.798162" lon="99.759846"><time>2026-05-02T22:32:08.067Z</time></trkpt>
      <trkpt lat="29.798162" lon="99.759846"><time>2026-05-02T22:32:08.083Z</time></trkpt>
      <trkpt lat="29.798162" lon="99.759846"><time>2026-05-02T22:32:08.100Z</time></trkpt>
      <trkpt lat="29.798162" lon="99.759846"><time>2026-05-02T22:32:08.117Z</time></trkpt>
      <trkpt lat="29.798162" lon="99.759846"><time>2026-05-02T22:32:08.133Z</time></trkpt>
      <trkpt lat="29.798162" lon="99.759846"><time>2026-05-02T22:32:08.150Z</time></trkpt>
      <trkpt lat="29.798162" lon="99.759846"><time>2026-05-02T22:32:08.167Z</time></trkpt>
      <trkpt lat="29.798162" lon="99.759846"><time>2026-05-02T22:32:08.183Z</time></trkpt>
      <trkpt lat="29.798162" lon="99.759846"><time>2026-05-02T22:32:08.200Z</time></trkpt>
      <trkpt lat="29.798162" lon="99.759846"><time>2026-05-02T22:32:08.217Z</time></trkpt>
      <trkpt lat="29.798162" lon="99.759846"><time>2026-05-02T22:32:08.233Z</time></trkpt>
      <trkpt lat="29.798162" lon="99.759846"><time>2026-05-02T22:32:08.250Z</time></trkpt>
      <trkpt lat="29.798162" lon="99.759846"><time>2026-05-02T22:32:08.267Z</time></trkpt>
      <trkpt lat="29.798162" lon="99.759846"><time>2026-05-02T22:32:08.283Z</time></trkpt>
      <trkpt lat="29.798162" lon="99.759846"><time>2026-05-02T22:32:08.300Z</time></trkpt>
      <trkpt lat="29.798162" lon="99.759845"><time>2026-05-02T22:32:08.317Z</time></trkpt>
      <trkpt lat="29.798162" lon="99.759845"><time>2026-05-02T22:32:08.334Z</time></trkpt>
      <trkpt lat="29.798162" lon="99.759845"><time>2026-05-02T22:32:08.350Z</time></trkpt>
      <trkpt lat="29.798162" lon="99.759845"><time>2026-05-02T22:32:08.367Z</time></trkpt>
      <trkpt lat="29.798162" lon="99.759845"><time>2026-05-02T22:32:08.384Z</time></trkpt>
      <trkpt lat="29.798162" lon="99.759845"><time>2026-05-02T22:32:08.400Z</time></trkpt>
      <trkpt lat="29.798162" lon="99.759845"><time>2026-05-02T22:32:08.417Z</time></trkpt>
      <trkpt lat="29.798162" lon="99.759845"><time>2026-05-02T22:32:08.434Z</time></trkpt>
      <trkpt lat="29.798162" lon="99.759845"><time>2026-05-02T22:32:08.450Z</time></trkpt>
      <trkpt lat="29.798162" lon="99.759845"><time>2026-05-02T22:32:08.467Z</time></trkpt>
      <trkpt lat="29.798162" lon="99.759845"><time>2026-05-02T22:32:08.484Z</time></trkpt>
      <trkpt lat="29.798162" lon="99.759845"><time>2026-05-02T22:32:08.500Z</time></trkpt>
      <trkpt lat="29.798162" lon="99.759845"><time>2026-05-02T22:32:08.517Z</time></trkpt>
      <trkpt lat="29.798162" lon="99.759845"><time>2026-05-02T22:32:08.534Z</time></trkpt>
      <trkpt lat="29.798162" lon="99.759845"><time>2026-05-02T22:32:08.550Z</time></trkpt>
      <trkpt lat="29.798162" lon="99.759845"><time>2026-05-02T22:32:08.567Z</time></trkpt>
      <trkpt lat="29.798162" lon="99.759845"><time>2026-05-02T22:32:08.584Z</time></trkpt>
      <trkpt lat="29.798162" lon="99.759845"><time>2026-05-02T22:32:08.600Z</time></trkpt>
      <trkpt lat="29.798162" lon="99.759846"><time>2026-05-02T22:32:08.617Z</time></trkpt>
      <trkpt lat="29.798162" lon="99.759846"><time>2026-05-02T22:32:08.634Z</time></trkpt>
      <trkpt lat="29.798162" lon="99.759846"><time>2026-05-02T22:32:08.651Z</time></trkpt>
      <trkpt lat="29.798162" lon="99.759846"><time>2026-05-02T22:32:08.667Z</time></trkpt>
      <trkpt lat="29.798162" lon="99.759846"><time>2026-05-02T22:32:08.684Z</time></trkpt>
      <trkpt lat="29.798162" lon="99.759846"><time>2026-05-02T22:32:08.701Z</time></trkpt>
      <trkpt lat="29.798162" lon="99.759846"><time>2026-05-02T22:32:08.717Z</time></trkpt>
      <trkpt lat="29.798162" lon="99.759846"><time>2026-05-02T22:32:08.734Z</time></trkpt>
      <trkpt lat="29.798162" lon="99.759846"><time>2026-05-02T22:32:08.751Z</time></trkpt>
      <trkpt lat="29.798162" lon="99.759846"><time>2026-05-02T22:32:08.767Z</time></trkpt>
      <trkpt lat="29.798162" lon="99.759846"><time>2026-05-02T22:32:08.784Z</time></trkpt>
      <trkpt lat="29.798162" lon="99.759846"><time>2026-05-02T22:32:08.801Z</time></trkpt>
      <trkpt lat="29.798161" lon="99.759846"><time>2026-05-02T22:32:08.817Z</time></trkpt>
      <trkpt lat="29.798161" lon="99.759846"><time>2026-05-02T22:32:08.834Z</time></trkpt>
      <trkpt lat="29.798161" lon="99.759846"><time>2026-05-02T22:32:08.851Z</time></trkpt>
      <trkpt lat="29.798161" lon="99.759846"><time>2026-05-02T22:32:08.867Z</time></trkpt>
      <trkpt lat="29.798161" lon="99.759846"><time>2026-05-02T22:32:08.884Z</time></trkpt>
      <trkpt lat="29.798161" lon="99.759846"><time>2026-05-02T22:32:08.901Z</time></trkpt>
      <trkpt lat="29.798161" lon="99.759847"><time>2026-05-02T22:32:08.917Z</time></trkpt>
      <trkpt lat="29.798161" lon="99.759847"><time>2026-05-02T22:32:08.934Z</time></trkpt>
      <trkpt lat="29.798161" lon="99.759847"><time>2026-05-02T22:32:08.951Z</time></trkpt>
      <trkpt lat="29.798161" lon="99.759847"><time>2026-05-02T22:32:08.968Z</time></trkpt>
      <trkpt lat="29.798161" lon="99.759847"><time>2026-05-02T22:32:08.984Z</time></trkpt>
      <trkpt lat="29.798161" lon="99.759847"><time>2026-05-02T22:32:09.001Z</time></trkpt>
      <trkpt lat="29.79816" lon="99.759849"><time>2026-05-02T22:32:09.018Z</time></trkpt>
      <trkpt lat="29.79816" lon="99.759849"><time>2026-05-02T22:32:09.034Z</time></trkpt>
      <trkpt lat="29.79816" lon="99.759849"><time>2026-05-02T22:32:09.051Z</time></trkpt>
      <trkpt lat="29.79816" lon="99.759849"><time>2026-05-02T22:32:09.068Z</time></trkpt>
      <trkpt lat="29.79816" lon="99.759849"><time>2026-05-02T22:32:09.084Z</time></trkpt>
      <trkpt lat="29.79816" lon="99.759849"><time>2026-05-02T22:32:09.101Z</time></trkpt>
      <trkpt lat="29.79816" lon="99.759851"><time>2026-05-02T22:32:09.118Z</time></trkpt>
      <trkpt lat="29.79816" lon="99.759851"><time>2026-05-02T22:32:09.134Z</time></trkpt>
      <trkpt lat="29.79816" lon="99.759851"><time>2026-05-02T22:32:09.151Z</time></trkpt>
      <trkpt lat="29.79816" lon="99.759851"><time>2026-05-02T22:32:09.168Z</time></trkpt>
      <trkpt lat="29.79816" lon="99.759851"><time>2026-05-02T22:32:09.184Z</time></trkpt>
      <trkpt lat="29.79816" lon="99.759851"><time>2026-05-02T22:32:09.201Z</time></trkpt>
      <trkpt lat="29.798159" lon="99.759854"><time>2026-05-02T22:32:09.218Z</time></trkpt>
      <trkpt lat="29.798159" lon="99.759854"><time>2026-05-02T22:32:09.234Z</time></trkpt>
      <trkpt lat="29.798159" lon="99.759854"><time>2026-05-02T22:32:09.251Z</time></trkpt>
      <trkpt lat="29.798159" lon="99.759854"><time>2026-05-02T22:32:09.268Z</time></trkpt>
      <trkpt lat="29.798159" lon="99.759854"><time>2026-05-02T22:32:09.285Z</time></trkpt>
      <trkpt lat="29.798159" lon="99.759854"><time>2026-05-02T22:32:09.301Z</time></trkpt>
      <trkpt lat="29.798158" lon="99.759857"><time>2026-05-02T22:32:09.318Z</time></trkpt>
      <trkpt lat="29.798158" lon="99.759857"><time>2026-05-02T22:32:09.335Z</time></trkpt>
      <trkpt lat="29.798158" lon="99.759857"><time>2026-05-02T22:32:09.351Z</time></trkpt>
      <trkpt lat="29.798158" lon="99.759857"><time>2026-05-02T22:32:09.368Z</time></trkpt>
      <trkpt lat="29.798158" lon="99.759857"><time>2026-05-02T22:32:09.385Z</time></trkpt>
      <trkpt lat="29.798158" lon="99.759857"><time>2026-05-02T22:32:09.401Z</time></trkpt>
      <trkpt lat="29.798157" lon="99.759861"><time>2026-05-02T22:32:09.418Z</time></trkpt>
      <trkpt lat="29.798157" lon="99.759861"><time>2026-05-02T22:32:09.435Z</time></trkpt>
      <trkpt lat="29.798157" lon="99.759861"><time>2026-05-02T22:32:09.451Z</time></trkpt>
      <trkpt lat="29.798157" lon="99.759861"><time>2026-05-02T22:32:09.468Z</time></trkpt>
      <trkpt lat="29.798157" lon="99.759861"><time>2026-05-02T22:32:09.485Z</time></trkpt>
      <trkpt lat="29.798157" lon="99.759861"><time>2026-05-02T22:32:09.501Z</time></trkpt>
      <trkpt lat="29.798155" lon="99.759865"><time>2026-05-02T22:32:09.518Z</time></trkpt>
      <trkpt lat="29.798155" lon="99.759865"><time>2026-05-02T22:32:09.535Z</time></trkpt>
      <trkpt lat="29.798155" lon="99.759865"><time>2026-05-02T22:32:09.551Z</time></trkpt>
      <trkpt lat="29.798155" lon="99.759865"><time>2026-05-02T22:32:09.568Z</time></trkpt>
      <trkpt lat="29.798155" lon="99.759865"><time>2026-05-02T22:32:09.585Z</time></trkpt>
      <trkpt lat="29.798155" lon="99.759865"><time>2026-05-02T22:32:09.602Z</time></trkpt>
      <trkpt lat="29.798154" lon="99.75987"><time>2026-05-02T22:32:09.618Z</time></trkpt>
      <trkpt lat="29.798154" lon="99.75987"><time>2026-05-02T22:32:09.635Z</time></trkpt>
      <trkpt lat="29.798154" lon="99.75987"><time>2026-05-02T22:32:09.652Z</time></trkpt>
      <trkpt lat="29.798154" lon="99.75987"><time>2026-05-02T22:32:09.668Z</time></trkpt>
      <trkpt lat="29.798154" lon="99.75987"><time>2026-05-02T22:32:09.685Z</time></trkpt>
      <trkpt lat="29.798154" lon="99.75987"><time>2026-05-02T22:32:09.702Z</time></trkpt>
      <trkpt lat="29.798152" lon="99.759874"><time>2026-05-02T22:32:09.718Z</time></trkpt>
      <trkpt lat="29.798152" lon="99.759874"><time>2026-05-02T22:32:09.735Z</time></trkpt>
      <trkpt lat="29.798152" lon="99.759874"><time>2026-05-02T22:32:09.752Z</time></trkpt>
      <trkpt lat="29.798152" lon="99.759874"><time>2026-05-02T22:32:09.768Z</time></trkpt>
      <trkpt lat="29.798152" lon="99.759874"><time>2026-05-02T22:32:09.785Z</time></trkpt>
      <trkpt lat="29.798152" lon="99.759874"><time>2026-05-02T22:32:09.802Z</time></trkpt>
      <trkpt lat="29.79815" lon="99.759879"><time>2026-05-02T22:32:09.818Z</time></trkpt>
      <trkpt lat="29.79815" lon="99.759879"><time>2026-05-02T22:32:09.835Z</time></trkpt>
      <trkpt lat="29.79815" lon="99.759879"><time>2026-05-02T22:32:09.852Z</time></trkpt>
      <trkpt lat="29.79815" lon="99.759879"><time>2026-05-02T22:32:09.868Z</time></trkpt>
      <trkpt lat="29.79815" lon="99.759879"><time>2026-05-02T22:32:09.885Z</time></trkpt>
      <trkpt lat="29.798149" lon="99.759884"><time>2026-05-02T22:32:09.902Z</time></trkpt>
      <trkpt lat="29.798149" lon="99.759884"><time>2026-05-02T22:32:09.919Z</time></trkpt>
      <trkpt lat="29.798149" lon="99.759884"><time>2026-05-02T22:32:09.935Z</time></trkpt>
      <trkpt lat="29.798149" lon="99.759884"><time>2026-05-02T22:32:09.952Z</time></trkpt>
      <trkpt lat="29.798149" lon="99.759884"><time>2026-05-02T22:32:09.969Z</time></trkpt>
      <trkpt lat="29.798149" lon="99.759884"><time>2026-05-02T22:32:09.985Z</time></trkpt>
      <trkpt lat="29.798147" lon="99.75989"><time>2026-05-02T22:32:10.002Z</time></trkpt>
      <trkpt lat="29.798147" lon="99.75989"><time>2026-05-02T22:32:10.019Z</time></trkpt>
      <trkpt lat="29.798147" lon="99.75989"><time>2026-05-02T22:32:10.035Z</time></trkpt>
      <trkpt lat="29.798147" lon="99.75989"><time>2026-05-02T22:32:10.052Z</time></trkpt>
      <trkpt lat="29.798147" lon="99.75989"><time>2026-05-02T22:32:10.069Z</time></trkpt>
      <trkpt lat="29.798147" lon="99.75989"><time>2026-05-02T22:32:10.085Z</time></trkpt>
      <trkpt lat="29.798145" lon="99.759896"><time>2026-05-02T22:32:10.102Z</time></trkpt>
      <trkpt lat="29.798145" lon="99.759896"><time>2026-05-02T22:32:10.119Z</time></trkpt>
      <trkpt lat="29.798145" lon="99.759896"><time>2026-05-02T22:32:10.135Z</time></trkpt>
      <trkpt lat="29.798145" lon="99.759896"><time>2026-05-02T22:32:10.152Z</time></trkpt>
      <trkpt lat="29.798145" lon="99.759896"><time>2026-05-02T22:32:10.169Z</time></trkpt>
      <trkpt lat="29.798145" lon="99.759896"><time>2026-05-02T22:32:10.185Z</time></trkpt>
      <trkpt lat="29.798143" lon="99.759902"><time>2026-05-02T22:32:10.202Z</time></trkpt>
      <trkpt lat="29.798143" lon="99.759902"><time>2026-05-02T22:32:10.219Z</time></trkpt>
      <trkpt lat="29.798143" lon="99.759902"><time>2026-05-02T22:32:10.236Z</time></trkpt>
      <trkpt lat="29.798143" lon="99.759902"><time>2026-05-02T22:32:10.252Z</time></trkpt>
      <trkpt lat="29.798143" lon="99.759902"><time>2026-05-02T22:32:10.269Z</time></trkpt>
      <trkpt lat="29.798143" lon="99.759902"><time>2026-05-02T22:32:10.286Z</time></trkpt>
      <trkpt lat="29.798141" lon="99.759908"><time>2026-05-02T22:32:10.302Z</time></trkpt>
      <trkpt lat="29.798141" lon="99.759908"><time>2026-05-02T22:32:10.319Z</time></trkpt>
      <trkpt lat="29.798141" lon="99.759908"><time>2026-05-02T22:32:10.336Z</time></trkpt>
      <trkpt lat="29.798141" lon="99.759908"><time>2026-05-02T22:32:10.352Z</time></trkpt>
      <trkpt lat="29.798141" lon="99.759908"><time>2026-05-02T22:32:10.369Z</time></trkpt>
      <trkpt lat="29.798141" lon="99.759908"><time>2026-05-02T22:32:10.386Z</time></trkpt>
      <trkpt lat="29.798139" lon="99.759915"><time>2026-05-02T22:32:10.402Z</time></trkpt>
      <trkpt lat="29.798139" lon="99.759915"><time>2026-05-02T22:32:10.419Z</time></trkpt>
      <trkpt lat="29.798139" lon="99.759915"><time>2026-05-02T22:32:10.436Z</time></trkpt>
      <trkpt lat="29.798139" lon="99.759915"><time>2026-05-02T22:32:10.452Z</time></trkpt>
      <trkpt lat="29.798139" lon="99.759915"><time>2026-05-02T22:32:10.469Z</time></trkpt>
      <trkpt lat="29.798139" lon="99.759915"><time>2026-05-02T22:32:10.486Z</time></trkpt>
      <trkpt lat="29.798136" lon="99.759922"><time>2026-05-02T22:32:10.502Z</time></trkpt>
      <trkpt lat="29.798136" lon="99.759922"><time>2026-05-02T22:32:10.519Z</time></trkpt>
      <trkpt lat="29.798136" lon="99.759922"><time>2026-05-02T22:32:10.536Z</time></trkpt>
      <trkpt lat="29.798136" lon="99.759922"><time>2026-05-02T22:32:10.553Z</time></trkpt>
      <trkpt lat="29.798136" lon="99.759922"><time>2026-05-02T22:32:10.569Z</time></trkpt>
      <trkpt lat="29.798136" lon="99.759922"><time>2026-05-02T22:32:10.586Z</time></trkpt>
      <trkpt lat="29.798134" lon="99.759929"><time>2026-05-02T22:32:10.603Z</time></trkpt>
      <trkpt lat="29.798134" lon="99.759929"><time>2026-05-02T22:32:10.619Z</time></trkpt>
      <trkpt lat="29.798134" lon="99.759929"><time>2026-05-02T22:32:10.636Z</time></trkpt>
      <trkpt lat="29.798134" lon="99.759929"><time>2026-05-02T22:32:10.653Z</time></trkpt>
      <trkpt lat="29.798134" lon="99.759929"><time>2026-05-02T22:32:10.669Z</time></trkpt>
      <trkpt lat="29.798134" lon="99.759929"><time>2026-05-02T22:32:10.686Z</time></trkpt>
      <trkpt lat="29.798131" lon="99.759937"><time>2026-05-02T22:32:10.703Z</time></trkpt>
      <trkpt lat="29.798131" lon="99.759937"><time>2026-05-02T22:32:10.719Z</time></trkpt>
      <trkpt lat="29.798131" lon="99.759937"><time>2026-05-02T22:32:10.736Z</time></trkpt>
      <trkpt lat="29.798131" lon="99.759937"><time>2026-05-02T22:32:10.753Z</time></trkpt>
      <trkpt lat="29.798131" lon="99.759937"><time>2026-05-02T22:32:10.769Z</time></trkpt>
      <trkpt lat="29.798131" lon="99.759937"><time>2026-05-02T22:32:10.786Z</time></trkpt>
      <trkpt lat="29.798129" lon="99.759944"><time>2026-05-02T22:32:10.803Z</time></trkpt>
      <trkpt lat="29.798129" lon="99.759944"><time>2026-05-02T22:32:10.819Z</time></trkpt>
      <trkpt lat="29.798129" lon="99.759944"><time>2026-05-02T22:32:10.836Z</time></trkpt>
      <trkpt lat="29.798129" lon="99.759944"><time>2026-05-02T22:32:10.853Z</time></trkpt>
      <trkpt lat="29.798129" lon="99.759944"><time>2026-05-02T22:32:10.870Z</time></trkpt>
      <trkpt lat="29.798129" lon="99.759944"><time>2026-05-02T22:32:10.886Z</time></trkpt>
      <trkpt lat="29.798126" lon="99.759953"><time>2026-05-02T22:32:10.903Z</time></trkpt>
      <trkpt lat="29.798126" lon="99.759953"><time>2026-05-02T22:32:10.920Z</time></trkpt>
      <trkpt lat="29.798126" lon="99.759953"><time>2026-05-02T22:32:10.936Z</time></trkpt>
      <trkpt lat="29.798126" lon="99.759953"><time>2026-05-02T22:32:10.953Z</time></trkpt>
      <trkpt lat="29.798126" lon="99.759953"><time>2026-05-02T22:32:10.970Z</time></trkpt>
      <trkpt lat="29.798126" lon="99.759953"><time>2026-05-02T22:32:10.986Z</time></trkpt>
      <trkpt lat="29.798123" lon="99.759961"><time>2026-05-02T22:32:11.003Z</time></trkpt>
      <trkpt lat="29.798123" lon="99.759961"><time>2026-05-02T22:32:11.020Z</time></trkpt>
      <trkpt lat="29.798123" lon="99.759961"><time>2026-05-02T22:32:11.036Z</time></trkpt>
      <trkpt lat="29.798123" lon="99.759961"><time>2026-05-02T22:32:11.053Z</time></trkpt>
      <trkpt lat="29.798123" lon="99.759961"><time>2026-05-02T22:32:11.070Z</time></trkpt>
      <trkpt lat="29.798123" lon="99.759961"><time>2026-05-02T22:32:11.086Z</time></trkpt>
      <trkpt lat="29.798121" lon="99.75997"><time>2026-05-02T22:32:11.103Z</time></trkpt>
      <trkpt lat="29.798121" lon="99.75997"><time>2026-05-02T22:32:11.120Z</time></trkpt>
      <trkpt lat="29.798121" lon="99.75997"><time>2026-05-02T22:32:11.136Z</time></trkpt>
      <trkpt lat="29.798121" lon="99.75997"><time>2026-05-02T22:32:11.153Z</time></trkpt>
      <trkpt lat="29.798121" lon="99.75997"><time>2026-05-02T22:32:11.170Z</time></trkpt>
      <trkpt lat="29.798121" lon="99.75997"><time>2026-05-02T22:32:11.187Z</time></trkpt>
      <trkpt lat="29.798118" lon="99.759979"><time>2026-05-02T22:32:11.203Z</time></trkpt>
      <trkpt lat="29.798118" lon="99.759979"><time>2026-05-02T22:32:11.220Z</time></trkpt>
      <trkpt lat="29.798118" lon="99.759979"><time>2026-05-02T22:32:11.237Z</time></trkpt>
      <trkpt lat="29.798118" lon="99.759979"><time>2026-05-02T22:32:11.253Z</time></trkpt>
      <trkpt lat="29.798118" lon="99.759979"><time>2026-05-02T22:32:11.270Z</time></trkpt>
      <trkpt lat="29.798118" lon="99.759979"><time>2026-05-02T22:32:11.287Z</time></trkpt>
      <trkpt lat="29.798115" lon="99.759989"><time>2026-05-02T22:32:11.303Z</time></trkpt>
      <trkpt lat="29.798115" lon="99.759989"><time>2026-05-02T22:32:11.320Z</time></trkpt>
      <trkpt lat="29.798115" lon="99.759989"><time>2026-05-02T22:32:11.337Z</time></trkpt>
      <trkpt lat="29.798115" lon="99.759989"><time>2026-05-02T22:32:11.353Z</time></trkpt>
      <trkpt lat="29.798115" lon="99.759989"><time>2026-05-02T22:32:11.370Z</time></trkpt>
      <trkpt lat="29.798115" lon="99.759989"><time>2026-05-02T22:32:11.387Z</time></trkpt>
      <trkpt lat="29.798111" lon="99.759998"><time>2026-05-02T22:32:11.403Z</time></trkpt>
      <trkpt lat="29.798111" lon="99.759998"><time>2026-05-02T22:32:11.420Z</time></trkpt>
      <trkpt lat="29.798111" lon="99.759998"><time>2026-05-02T22:32:11.437Z</time></trkpt>
      <trkpt lat="29.798111" lon="99.759998"><time>2026-05-02T22:32:11.453Z</time></trkpt>
      <trkpt lat="29.798111" lon="99.759998"><time>2026-05-02T22:32:11.470Z</time></trkpt>
      <trkpt lat="29.798111" lon="99.759998"><time>2026-05-02T22:32:11.487Z</time></trkpt>
      <trkpt lat="29.798108" lon="99.760008"><time>2026-05-02T22:32:11.504Z</time></trkpt>
      <trkpt lat="29.798108" lon="99.760008"><time>2026-05-02T22:32:11.520Z</time></trkpt>
      <trkpt lat="29.798108" lon="99.760008"><time>2026-05-02T22:32:11.537Z</time></trkpt>
      <trkpt lat="29.798108" lon="99.760008"><time>2026-05-02T22:32:11.554Z</time></trkpt>
      <trkpt lat="29.798108" lon="99.760008"><time>2026-05-02T22:32:11.570Z</time></trkpt>
      <trkpt lat="29.798108" lon="99.760008"><time>2026-05-02T22:32:11.587Z</time></trkpt>
      <trkpt lat="29.798105" lon="99.760018"><time>2026-05-02T22:32:11.604Z</time></trkpt>
      <trkpt lat="29.798105" lon="99.760018"><time>2026-05-02T22:32:11.620Z</time></trkpt>
      <trkpt lat="29.798105" lon="99.760018"><time>2026-05-02T22:32:11.637Z</time></trkpt>
      <trkpt lat="29.798105" lon="99.760018"><time>2026-05-02T22:32:11.654Z</time></trkpt>
      <trkpt lat="29.798105" lon="99.760018"><time>2026-05-02T22:32:11.670Z</time></trkpt>
      <trkpt lat="29.798105" lon="99.760018"><time>2026-05-02T22:32:11.687Z</time></trkpt>
      <trkpt lat="29.798102" lon="99.760028"><time>2026-05-02T22:32:11.704Z</time></trkpt>
      <trkpt lat="29.798102" lon="99.760028"><time>2026-05-02T22:32:11.720Z</time></trkpt>
      <trkpt lat="29.798102" lon="99.760028"><time>2026-05-02T22:32:11.737Z</time></trkpt>
      <trkpt lat="29.798102" lon="99.760028"><time>2026-05-02T22:32:11.754Z</time></trkpt>
      <trkpt lat="29.798102" lon="99.760028"><time>2026-05-02T22:32:11.770Z</time></trkpt>
      <trkpt lat="29.798102" lon="99.760028"><time>2026-05-02T22:32:11.787Z</time></trkpt>
      <trkpt lat="29.798099" lon="99.760039"><time>2026-05-02T22:32:11.804Z</time></trkpt>
      <trkpt lat="29.798099" lon="99.760039"><time>2026-05-02T22:32:11.821Z</time></trkpt>
      <trkpt lat="29.798099" lon="99.760039"><time>2026-05-02T22:32:11.837Z</time></trkpt>
      <trkpt lat="29.798099" lon="99.760039"><time>2026-05-02T22:32:11.854Z</time></trkpt>
      <trkpt lat="29.798099" lon="99.760039"><time>2026-05-02T22:32:11.871Z</time></trkpt>
      <trkpt lat="29.798099" lon="99.760039"><time>2026-05-02T22:32:11.887Z</time></trkpt>
      <trkpt lat="29.798095" lon="99.760049"><time>2026-05-02T22:32:11.904Z</time></trkpt>
      <trkpt lat="29.798095" lon="99.760049"><time>2026-05-02T22:32:11.921Z</time></trkpt>
      <trkpt lat="29.798095" lon="99.760049"><time>2026-05-02T22:32:11.937Z</time></trkpt>
      <trkpt lat="29.798095" lon="99.760049"><time>2026-05-02T22:32:11.954Z</time></trkpt>
      <trkpt lat="29.798095" lon="99.760049"><time>2026-05-02T22:32:11.971Z</time></trkpt>
      <trkpt lat="29.798095" lon="99.760049"><time>2026-05-02T22:32:11.987Z</time></trkpt>
      <trkpt lat="29.798092" lon="99.76006"><time>2026-05-02T22:32:12.004Z</time></trkpt>
      <trkpt lat="29.798092" lon="99.76006"><time>2026-05-02T22:32:12.021Z</time></trkpt>
      <trkpt lat="29.798092" lon="99.76006"><time>2026-05-02T22:32:12.037Z</time></trkpt>
      <trkpt lat="29.798092" lon="99.76006"><time>2026-05-02T22:32:12.054Z</time></trkpt>
      <trkpt lat="29.798092" lon="99.76006"><time>2026-05-02T22:32:12.071Z</time></trkpt>
      <trkpt lat="29.798092" lon="99.76006"><time>2026-05-02T22:32:12.087Z</time></trkpt>
      <trkpt lat="29.798088" lon="99.760071"><time>2026-05-02T22:32:12.104Z</time></trkpt>
      <trkpt lat="29.798088" lon="99.760071"><time>2026-05-02T22:32:12.121Z</time></trkpt>
      <trkpt lat="29.798088" lon="99.760071"><time>2026-05-02T22:32:12.138Z</time></trkpt>
      <trkpt lat="29.798088" lon="99.760071"><time>2026-05-02T22:32:12.154Z</time></trkpt>
      <trkpt lat="29.798088" lon="99.760071"><time>2026-05-02T22:32:12.171Z</time></trkpt>
      <trkpt lat="29.798088" lon="99.760071"><time>2026-05-02T22:32:12.188Z</time></trkpt>
      <trkpt lat="29.798085" lon="99.760082"><time>2026-05-02T22:32:12.204Z</time></trkpt>
      <trkpt lat="29.798085" lon="99.760082"><time>2026-05-02T22:32:12.221Z</time></trkpt>
      <trkpt lat="29.798085" lon="99.760082"><time>2026-05-02T22:32:12.238Z</time></trkpt>
      <trkpt lat="29.798085" lon="99.760082"><time>2026-05-02T22:32:12.254Z</time></trkpt>
      <trkpt lat="29.798085" lon="99.760082"><time>2026-05-02T22:32:12.271Z</time></trkpt>
      <trkpt lat="29.798085" lon="99.760082"><time>2026-05-02T22:32:12.288Z</time></trkpt>
      <trkpt lat="29.798081" lon="99.760094"><time>2026-05-02T22:32:12.304Z</time></trkpt>
      <trkpt lat="29.798081" lon="99.760094"><time>2026-05-02T22:32:12.321Z</time></trkpt>
      <trkpt lat="29.798081" lon="99.760094"><time>2026-05-02T22:32:12.338Z</time></trkpt>
      <trkpt lat="29.798081" lon="99.760094"><time>2026-05-02T22:32:12.354Z</time></trkpt>
      <trkpt lat="29.798081" lon="99.760094"><time>2026-05-02T22:32:12.371Z</time></trkpt>
      <trkpt lat="29.798081" lon="99.760094"><time>2026-05-02T22:32:12.388Z</time></trkpt>
      <trkpt lat="29.798077" lon="99.760105"><time>2026-05-02T22:32:12.404Z</time></trkpt>
      <trkpt lat="29.798077" lon="99.760105"><time>2026-05-02T22:32:12.421Z</time></trkpt>
      <trkpt lat="29.798077" lon="99.760105"><time>2026-05-02T22:32:12.438Z</time></trkpt>
      <trkpt lat="29.798077" lon="99.760105"><time>2026-05-02T22:32:12.455Z</time></trkpt>
      <trkpt lat="29.798077" lon="99.760105"><time>2026-05-02T22:32:12.471Z</time></trkpt>
      <trkpt lat="29.798077" lon="99.760105"><time>2026-05-02T22:32:12.488Z</time></trkpt>
      <trkpt lat="29.798074" lon="99.760117"><time>2026-05-02T22:32:12.505Z</time></trkpt>
      <trkpt lat="29.798074" lon="99.760117"><time>2026-05-02T22:32:12.521Z</time></trkpt>
      <trkpt lat="29.798074" lon="99.760117"><time>2026-05-02T22:32:12.538Z</time></trkpt>
      <trkpt lat="29.798074" lon="99.760117"><time>2026-05-02T22:32:12.555Z</time></trkpt>
      <trkpt lat="29.798074" lon="99.760117"><time>2026-05-02T22:32:12.571Z</time></trkpt>
      <trkpt lat="29.798074" lon="99.760117"><time>2026-05-02T22:32:12.588Z</time></trkpt>
      <trkpt lat="29.79807" lon="99.760129"><time>2026-05-02T22:32:12.605Z</time></trkpt>
      <trkpt lat="29.79807" lon="99.760129"><time>2026-05-02T22:32:12.621Z</time></trkpt>
      <trkpt lat="29.79807" lon="99.760129"><time>2026-05-02T22:32:12.638Z</time></trkpt>
      <trkpt lat="29.79807" lon="99.760129"><time>2026-05-02T22:32:12.655Z</time></trkpt>
      <trkpt lat="29.79807" lon="99.760129"><time>2026-05-02T22:32:12.671Z</time></trkpt>
      <trkpt lat="29.79807" lon="99.760129"><time>2026-05-02T22:32:12.688Z</time></trkpt>
      <trkpt lat="29.798066" lon="99.760141"><time>2026-05-02T22:32:12.705Z</time></trkpt>
      <trkpt lat="29.798066" lon="99.760141"><time>2026-05-02T22:32:12.721Z</time></trkpt>
      <trkpt lat="29.798066" lon="99.760141"><time>2026-05-02T22:32:12.738Z</time></trkpt>
      <trkpt lat="29.798066" lon="99.760141"><time>2026-05-02T22:32:12.755Z</time></trkpt>
      <trkpt lat="29.798066" lon="99.760141"><time>2026-05-02T22:32:12.772Z</time></trkpt>
      <trkpt lat="29.798066" lon="99.760141"><time>2026-05-02T22:32:12.788Z</time></trkpt>
      <trkpt lat="29.798062" lon="99.760153"><time>2026-05-02T22:32:12.805Z</time></trkpt>
      <trkpt lat="29.798062" lon="99.760153"><time>2026-05-02T22:32:12.822Z</time></trkpt>
      <trkpt lat="29.798062" lon="99.760153"><time>2026-05-02T22:32:12.838Z</time></trkpt>
      <trkpt lat="29.798062" lon="99.760153"><time>2026-05-02T22:32:12.855Z</time></trkpt>
      <trkpt lat="29.798062" lon="99.760153"><time>2026-05-02T22:32:12.872Z</time></trkpt>
      <trkpt lat="29.798062" lon="99.760153"><time>2026-05-02T22:32:12.888Z</time></trkpt>
      <trkpt lat="29.798058" lon="99.760166"><time>2026-05-02T22:32:12.905Z</time></trkpt>
      <trkpt lat="29.798058" lon="99.760166"><time>2026-05-02T22:32:12.922Z</time></trkpt>
      <trkpt lat="29.798058" lon="99.760166"><time>2026-05-02T22:32:12.938Z</time></trkpt>
      <trkpt lat="29.798058" lon="99.760166"><time>2026-05-02T22:32:12.955Z</time></trkpt>
      <trkpt lat="29.798058" lon="99.760166"><time>2026-05-02T22:32:12.972Z</time></trkpt>
      <trkpt lat="29.798058" lon="99.760166"><time>2026-05-02T22:32:12.988Z</time></trkpt>
      <trkpt lat="29.798054" lon="99.760179"><time>2026-05-02T22:32:13.005Z</time></trkpt>
      <trkpt lat="29.798054" lon="99.760179"><time>2026-05-02T22:32:13.022Z</time></trkpt>
      <trkpt lat="29.798054" lon="99.760179"><time>2026-05-02T22:32:13.038Z</time></trkpt>
      <trkpt lat="29.798054" lon="99.760179"><time>2026-05-02T22:32:13.055Z</time></trkpt>
      <trkpt lat="29.798054" lon="99.760179"><time>2026-05-02T22:32:13.072Z</time></trkpt>
      <trkpt lat="29.798054" lon="99.760179"><time>2026-05-02T22:32:13.089Z</time></trkpt>
      <trkpt lat="29.79805" lon="99.760192"><time>2026-05-02T22:32:13.105Z</time></trkpt>
      <trkpt lat="29.79805" lon="99.760192"><time>2026-05-02T22:32:13.122Z</time></trkpt>
      <trkpt lat="29.79805" lon="99.760192"><time>2026-05-02T22:32:13.139Z</time></trkpt>
      <trkpt lat="29.79805" lon="99.760192"><time>2026-05-02T22:32:13.155Z</time></trkpt>
      <trkpt lat="29.79805" lon="99.760192"><time>2026-05-02T22:32:13.172Z</time></trkpt>
      <trkpt lat="29.79805" lon="99.760192"><time>2026-05-02T22:32:13.189Z</time></trkpt>
      <trkpt lat="29.798045" lon="99.760205"><time>2026-05-02T22:32:13.205Z</time></trkpt>
      <trkpt lat="29.798045" lon="99.760205"><time>2026-05-02T22:32:13.222Z</time></trkpt>
      <trkpt lat="29.798045" lon="99.760205"><time>2026-05-02T22:32:13.239Z</time></trkpt>
      <trkpt lat="29.798045" lon="99.760205"><time>2026-05-02T22:32:13.255Z</time></trkpt>
      <trkpt lat="29.798045" lon="99.760205"><time>2026-05-02T22:32:13.272Z</time></trkpt>
      <trkpt lat="29.798045" lon="99.760205"><time>2026-05-02T22:32:13.289Z</time></trkpt>
      <trkpt lat="29.798041" lon="99.760218"><time>2026-05-02T22:32:13.305Z</time></trkpt>
      <trkpt lat="29.798041" lon="99.760218"><time>2026-05-02T22:32:13.322Z</time></trkpt>
      <trkpt lat="29.798041" lon="99.760218"><time>2026-05-02T22:32:13.339Z</time></trkpt>
      <trkpt lat="29.798041" lon="99.760218"><time>2026-05-02T22:32:13.355Z</time></trkpt>
      <trkpt lat="29.798041" lon="99.760218"><time>2026-05-02T22:32:13.372Z</time></trkpt>
      <trkpt lat="29.798041" lon="99.760218"><time>2026-05-02T22:32:13.389Z</time></trkpt>
      <trkpt lat="29.798037" lon="99.760231"><time>2026-05-02T22:32:13.406Z</time></trkpt>
      <trkpt lat="29.798037" lon="99.760231"><time>2026-05-02T22:32:13.422Z</time></trkpt>
      <trkpt lat="29.798037" lon="99.760231"><time>2026-05-02T22:32:13.439Z</time></trkpt>
      <trkpt lat="29.798037" lon="99.760231"><time>2026-05-02T22:32:13.456Z</time></trkpt>
      <trkpt lat="29.798037" lon="99.760231"><time>2026-05-02T22:32:13.472Z</time></trkpt>
      <trkpt lat="29.798037" lon="99.760231"><time>2026-05-02T22:32:13.489Z</time></trkpt>
      <trkpt lat="29.798032" lon="99.760245"><time>2026-05-02T22:32:13.506Z</time></trkpt>
      <trkpt lat="29.798032" lon="99.760245"><time>2026-05-02T22:32:13.522Z</time></trkpt>
      <trkpt lat="29.798032" lon="99.760245"><time>2026-05-02T22:32:13.539Z</time></trkpt>
      <trkpt lat="29.798032" lon="99.760245"><time>2026-05-02T22:32:13.556Z</time></trkpt>
      <trkpt lat="29.798032" lon="99.760245"><time>2026-05-02T22:32:13.572Z</time></trkpt>
      <trkpt lat="29.798032" lon="99.760245"><time>2026-05-02T22:32:13.589Z</time></trkpt>
      <trkpt lat="29.798028" lon="99.760258"><time>2026-05-02T22:32:13.606Z</time></trkpt>
      <trkpt lat="29.798028" lon="99.760258"><time>2026-05-02T22:32:13.622Z</time></trkpt>
      <trkpt lat="29.798028" lon="99.760258"><time>2026-05-02T22:32:13.639Z</time></trkpt>
      <trkpt lat="29.798028" lon="99.760258"><time>2026-05-02T22:32:13.656Z</time></trkpt>
      <trkpt lat="29.798028" lon="99.760258"><time>2026-05-02T22:32:13.672Z</time></trkpt>
      <trkpt lat="29.798028" lon="99.760258"><time>2026-05-02T22:32:13.689Z</time></trkpt>
      <trkpt lat="29.798024" lon="99.760272"><time>2026-05-02T22:32:13.706Z</time></trkpt>
      <trkpt lat="29.798024" lon="99.760272"><time>2026-05-02T22:32:13.723Z</time></trkpt>
      <trkpt lat="29.798024" lon="99.760272"><time>2026-05-02T22:32:13.739Z</time></trkpt>
      <trkpt lat="29.798024" lon="99.760272"><time>2026-05-02T22:32:13.756Z</time></trkpt>
      <trkpt lat="29.798024" lon="99.760272"><time>2026-05-02T22:32:13.773Z</time></trkpt>
      <trkpt lat="29.798024" lon="99.760272"><time>2026-05-02T22:32:13.789Z</time></trkpt>
      <trkpt lat="29.798019" lon="99.760286"><time>2026-05-02T22:32:13.806Z</time></trkpt>
      <trkpt lat="29.798019" lon="99.760286"><time>2026-05-02T22:32:13.823Z</time></trkpt>
      <trkpt lat="29.798019" lon="99.760286"><time>2026-05-02T22:32:13.839Z</time></trkpt>
      <trkpt lat="29.798019" lon="99.760286"><time>2026-05-02T22:32:13.856Z</time></trkpt>
      <trkpt lat="29.798019" lon="99.760286"><time>2026-05-02T22:32:13.873Z</time></trkpt>
      <trkpt lat="29.798019" lon="99.760286"><time>2026-05-02T22:32:13.889Z</time></trkpt>
      <trkpt lat="29.798015" lon="99.760299"><time>2026-05-02T22:32:13.906Z</time></trkpt>
      <trkpt lat="29.798015" lon="99.760299"><time>2026-05-02T22:32:13.923Z</time></trkpt>
      <trkpt lat="29.798015" lon="99.760299"><time>2026-05-02T22:32:13.939Z</time></trkpt>
      <trkpt lat="29.798015" lon="99.760299"><time>2026-05-02T22:32:13.956Z</time></trkpt>
      <trkpt lat="29.798015" lon="99.760299"><time>2026-05-02T22:32:13.973Z</time></trkpt>
      <trkpt lat="29.798015" lon="99.760299"><time>2026-05-02T22:32:13.989Z</time></trkpt>
      <trkpt lat="29.79801" lon="99.760313"><time>2026-05-02T22:32:14.006Z</time></trkpt>
      <trkpt lat="29.79801" lon="99.760313"><time>2026-05-02T22:32:14.023Z</time></trkpt>
      <trkpt lat="29.79801" lon="99.760313"><time>2026-05-02T22:32:14.039Z</time></trkpt>
      <trkpt lat="29.79801" lon="99.760313"><time>2026-05-02T22:32:14.056Z</time></trkpt>
      <trkpt lat="29.79801" lon="99.760313"><time>2026-05-02T22:32:14.073Z</time></trkpt>
      <trkpt lat="29.79801" lon="99.760313"><time>2026-05-02T22:32:14.090Z</time></trkpt>
      <trkpt lat="29.798005" lon="99.760327"><time>2026-05-02T22:32:14.106Z</time></trkpt>
      <trkpt lat="29.798005" lon="99.760327"><time>2026-05-02T22:32:14.123Z</time></trkpt>
      <trkpt lat="29.798005" lon="99.760327"><time>2026-05-02T22:32:14.140Z</time></trkpt>
      <trkpt lat="29.798005" lon="99.760327"><time>2026-05-02T22:32:14.156Z</time></trkpt>
      <trkpt lat="29.798005" lon="99.760327"><time>2026-05-02T22:32:14.173Z</time></trkpt>
      <trkpt lat="29.798005" lon="99.760327"><time>2026-05-02T22:32:14.190Z</time></trkpt>
      <trkpt lat="29.798001" lon="99.760342"><time>2026-05-02T22:32:14.206Z</time></trkpt>
      <trkpt lat="29.798001" lon="99.760342"><time>2026-05-02T22:32:14.223Z</time></trkpt>
      <trkpt lat="29.798001" lon="99.760342"><time>2026-05-02T22:32:14.240Z</time></trkpt>
      <trkpt lat="29.798001" lon="99.760342"><time>2026-05-02T22:32:14.256Z</time></trkpt>
      <trkpt lat="29.798001" lon="99.760342"><time>2026-05-02T22:32:14.273Z</time></trkpt>
      <trkpt lat="29.798001" lon="99.760342"><time>2026-05-02T22:32:14.290Z</time></trkpt>
      <trkpt lat="29.797996" lon="99.760356"><time>2026-05-02T22:32:14.306Z</time></trkpt>
      <trkpt lat="29.797996" lon="99.760356"><time>2026-05-02T22:32:14.323Z</time></trkpt>
      <trkpt lat="29.797996" lon="99.760356"><time>2026-05-02T22:32:14.340Z</time></trkpt>
      <trkpt lat="29.797996" lon="99.760356"><time>2026-05-02T22:32:14.356Z</time></trkpt>
      <trkpt lat="29.797996" lon="99.760356"><time>2026-05-02T22:32:14.373Z</time></trkpt>
      <trkpt lat="29.797996" lon="99.760356"><time>2026-05-02T22:32:14.390Z</time></trkpt>
      <trkpt lat="29.797992" lon="99.76037"><time>2026-05-02T22:32:14.407Z</time></trkpt>
      <trkpt lat="29.797992" lon="99.76037"><time>2026-05-02T22:32:14.423Z</time></trkpt>
      <trkpt lat="29.797992" lon="99.76037"><time>2026-05-02T22:32:14.440Z</time></trkpt>
      <trkpt lat="29.797992" lon="99.76037"><time>2026-05-02T22:32:14.457Z</time></trkpt>
      <trkpt lat="29.797992" lon="99.76037"><time>2026-05-02T22:32:14.473Z</time></trkpt>
      <trkpt lat="29.797992" lon="99.76037"><time>2026-05-02T22:32:14.490Z</time></trkpt>
      <trkpt lat="29.797987" lon="99.760385"><time>2026-05-02T22:32:14.507Z</time></trkpt>
      <trkpt lat="29.797987" lon="99.760385"><time>2026-05-02T22:32:14.523Z</time></trkpt>
      <trkpt lat="29.797987" lon="99.760385"><time>2026-05-02T22:32:14.540Z</time></trkpt>
      <trkpt lat="29.797987" lon="99.760385"><time>2026-05-02T22:32:14.557Z</time></trkpt>
      <trkpt lat="29.797987" lon="99.760385"><time>2026-05-02T22:32:14.573Z</time></trkpt>
      <trkpt lat="29.797987" lon="99.760385"><time>2026-05-02T22:32:14.590Z</time></trkpt>
      <trkpt lat="29.797982" lon="99.7604"><time>2026-05-02T22:32:14.607Z</time></trkpt>
      <trkpt lat="29.797982" lon="99.7604"><time>2026-05-02T22:32:14.623Z</time></trkpt>
      <trkpt lat="29.797982" lon="99.7604"><time>2026-05-02T22:32:14.640Z</time></trkpt>
      <trkpt lat="29.797982" lon="99.7604"><time>2026-05-02T22:32:14.657Z</time></trkpt>
      <trkpt lat="29.797982" lon="99.7604"><time>2026-05-02T22:32:14.673Z</time></trkpt>
      <trkpt lat="29.797982" lon="99.7604"><time>2026-05-02T22:32:14.690Z</time></trkpt>
      <trkpt lat="29.797977" lon="99.760414"><time>2026-05-02T22:32:14.707Z</time></trkpt>
      <trkpt lat="29.797977" lon="99.760414"><time>2026-05-02T22:32:14.724Z</time></trkpt>
      <trkpt lat="29.797977" lon="99.760414"><time>2026-05-02T22:32:14.740Z</time></trkpt>
      <trkpt lat="29.797977" lon="99.760414"><time>2026-05-02T22:32:14.757Z</time></trkpt>
      <trkpt lat="29.797977" lon="99.760414"><time>2026-05-02T22:32:14.774Z</time></trkpt>
      <trkpt lat="29.797977" lon="99.760414"><time>2026-05-02T22:32:14.790Z</time></trkpt>
      <trkpt lat="29.797973" lon="99.760429"><time>2026-05-02T22:32:14.807Z</time></trkpt>
      <trkpt lat="29.797973" lon="99.760429"><time>2026-05-02T22:32:14.824Z</time></trkpt>
      <trkpt lat="29.797973" lon="99.760429"><time>2026-05-02T22:32:14.840Z</time></trkpt>
      <trkpt lat="29.797973" lon="99.760429"><time>2026-05-02T22:32:14.857Z</time></trkpt>
      <trkpt lat="29.797973" lon="99.760429"><time>2026-05-02T22:32:14.874Z</time></trkpt>
      <trkpt lat="29.797973" lon="99.760429"><time>2026-05-02T22:32:14.890Z</time></trkpt>
      <trkpt lat="29.797968" lon="99.760444"><time>2026-05-02T22:32:14.907Z</time></trkpt>
      <trkpt lat="29.797968" lon="99.760444"><time>2026-05-02T22:32:14.924Z</time></trkpt>
      <trkpt lat="29.797968" lon="99.760444"><time>2026-05-02T22:32:14.940Z</time></trkpt>
      <trkpt lat="29.797968" lon="99.760444"><time>2026-05-02T22:32:14.957Z</time></trkpt>
      <trkpt lat="29.797968" lon="99.760444"><time>2026-05-02T22:32:14.974Z</time></trkpt>
      <trkpt lat="29.797968" lon="99.760444"><time>2026-05-02T22:32:14.990Z</time></trkpt>
      <trkpt lat="29.797964" lon="99.760458"><time>2026-05-02T22:32:15.007Z</time></trkpt>
      <trkpt lat="29.797964" lon="99.760458"><time>2026-05-02T22:32:15.024Z</time></trkpt>
      <trkpt lat="29.797964" lon="99.760458"><time>2026-05-02T22:32:15.041Z</time></trkpt>
      <trkpt lat="29.797964" lon="99.760458"><time>2026-05-02T22:32:15.057Z</time></trkpt>
      <trkpt lat="29.797964" lon="99.760458"><time>2026-05-02T22:32:15.074Z</time></trkpt>
      <trkpt lat="29.797964" lon="99.760458"><time>2026-05-02T22:32:15.091Z</time></trkpt>
      <trkpt lat="29.797959" lon="99.760474"><time>2026-05-02T22:32:15.107Z</time></trkpt>
      <trkpt lat="29.797959" lon="99.760474"><time>2026-05-02T22:32:15.124Z</time></trkpt>
      <trkpt lat="29.797959" lon="99.760474"><time>2026-05-02T22:32:15.141Z</time></trkpt>
      <trkpt lat="29.797959" lon="99.760474"><time>2026-05-02T22:32:15.157Z</time></trkpt>
      <trkpt lat="29.797959" lon="99.760474"><time>2026-05-02T22:32:15.174Z</time></trkpt>
      <trkpt lat="29.797959" lon="99.760474"><time>2026-05-02T22:32:15.191Z</time></trkpt>
      <trkpt lat="29.797954" lon="99.760489"><time>2026-05-02T22:32:15.207Z</time></trkpt>
      <trkpt lat="29.797954" lon="99.760489"><time>2026-05-02T22:32:15.224Z</time></trkpt>
      <trkpt lat="29.797954" lon="99.760489"><time>2026-05-02T22:32:15.241Z</time></trkpt>
      <trkpt lat="29.797954" lon="99.760489"><time>2026-05-02T22:32:15.257Z</time></trkpt>
      <trkpt lat="29.797954" lon="99.760489"><time>2026-05-02T22:32:15.274Z</time></trkpt>
      <trkpt lat="29.797954" lon="99.760489"><time>2026-05-02T22:32:15.291Z</time></trkpt>
      <trkpt lat="29.79795" lon="99.760504"><time>2026-05-02T22:32:15.307Z</time></trkpt>
      <trkpt lat="29.79795" lon="99.760504"><time>2026-05-02T22:32:15.324Z</time></trkpt>
      <trkpt lat="29.79795" lon="99.760504"><time>2026-05-02T22:32:15.341Z</time></trkpt>
      <trkpt lat="29.79795" lon="99.760504"><time>2026-05-02T22:32:15.358Z</time></trkpt>
      <trkpt lat="29.79795" lon="99.760504"><time>2026-05-02T22:32:15.374Z</time></trkpt>
      <trkpt lat="29.79795" lon="99.760504"><time>2026-05-02T22:32:15.391Z</time></trkpt>
      <trkpt lat="29.797943" lon="99.760522"><time>2026-05-02T22:32:15.408Z</time></trkpt>
      <trkpt lat="29.797943" lon="99.760522"><time>2026-05-02T22:32:15.424Z</time></trkpt>
      <trkpt lat="29.797943" lon="99.760522"><time>2026-05-02T22:32:15.441Z</time></trkpt>
      <trkpt lat="29.797943" lon="99.760522"><time>2026-05-02T22:32:15.458Z</time></trkpt>
      <trkpt lat="29.797943" lon="99.760522"><time>2026-05-02T22:32:15.474Z</time></trkpt>
      <trkpt lat="29.797943" lon="99.760522"><time>2026-05-02T22:32:15.491Z</time></trkpt>
      <trkpt lat="29.797939" lon="99.760537"><time>2026-05-02T22:32:15.508Z</time></trkpt>
      <trkpt lat="29.797939" lon="99.760537"><time>2026-05-02T22:32:15.524Z</time></trkpt>
      <trkpt lat="29.797939" lon="99.760537"><time>2026-05-02T22:32:15.541Z</time></trkpt>
      <trkpt lat="29.797939" lon="99.760537"><time>2026-05-02T22:32:15.558Z</time></trkpt>
      <trkpt lat="29.797939" lon="99.760537"><time>2026-05-02T22:32:15.574Z</time></trkpt>
      <trkpt lat="29.797939" lon="99.760537"><time>2026-05-02T22:32:15.591Z</time></trkpt>
      <trkpt lat="29.797934" lon="99.760552"><time>2026-05-02T22:32:15.608Z</time></trkpt>
      <trkpt lat="29.797934" lon="99.760552"><time>2026-05-02T22:32:15.624Z</time></trkpt>
      <trkpt lat="29.797934" lon="99.760552"><time>2026-05-02T22:32:15.641Z</time></trkpt>
      <trkpt lat="29.797934" lon="99.760552"><time>2026-05-02T22:32:15.658Z</time></trkpt>
      <trkpt lat="29.797934" lon="99.760552"><time>2026-05-02T22:32:15.675Z</time></trkpt>
      <trkpt lat="29.797934" lon="99.760552"><time>2026-05-02T22:32:15.691Z</time></trkpt>
      <trkpt lat="29.797929" lon="99.760567"><time>2026-05-02T22:32:15.708Z</time></trkpt>
      <trkpt lat="29.797929" lon="99.760567"><time>2026-05-02T22:32:15.725Z</time></trkpt>
      <trkpt lat="29.797929" lon="99.760567"><time>2026-05-02T22:32:15.741Z</time></trkpt>
      <trkpt lat="29.797929" lon="99.760567"><time>2026-05-02T22:32:15.758Z</time></trkpt>
      <trkpt lat="29.797929" lon="99.760567"><time>2026-05-02T22:32:15.775Z</time></trkpt>
      <trkpt lat="29.797929" lon="99.760567"><time>2026-05-02T22:32:15.791Z</time></trkpt>
      <trkpt lat="29.797925" lon="99.760582"><time>2026-05-02T22:32:15.808Z</time></trkpt>
      <trkpt lat="29.797925" lon="99.760582"><time>2026-05-02T22:32:15.825Z</time></trkpt>
      <trkpt lat="29.797925" lon="99.760582"><time>2026-05-02T22:32:15.841Z</time></trkpt>
      <trkpt lat="29.797925" lon="99.760582"><time>2026-05-02T22:32:15.858Z</time></trkpt>
      <trkpt lat="29.797925" lon="99.760582"><time>2026-05-02T22:32:15.875Z</time></trkpt>
      <trkpt lat="29.797925" lon="99.760582"><time>2026-05-02T22:32:15.891Z</time></trkpt>
      <trkpt lat="29.79792" lon="99.760597"><time>2026-05-02T22:32:15.908Z</time></trkpt>
      <trkpt lat="29.79792" lon="99.760597"><time>2026-05-02T22:32:15.925Z</time></trkpt>
      <trkpt lat="29.79792" lon="99.760597"><time>2026-05-02T22:32:15.941Z</time></trkpt>
      <trkpt lat="29.79792" lon="99.760597"><time>2026-05-02T22:32:15.958Z</time></trkpt>
      <trkpt lat="29.79792" lon="99.760597"><time>2026-05-02T22:32:15.975Z</time></trkpt>
      <trkpt lat="29.79792" lon="99.760597"><time>2026-05-02T22:32:15.992Z</time></trkpt>
      <trkpt lat="29.797919" lon="99.760616"><time>2026-05-02T22:32:16.008Z</time></trkpt>
      <trkpt lat="29.797919" lon="99.760616"><time>2026-05-02T22:32:16.025Z</time></trkpt>
      <trkpt lat="29.797919" lon="99.760616"><time>2026-05-02T22:32:16.042Z</time></trkpt>
      <trkpt lat="29.797919" lon="99.760616"><time>2026-05-02T22:32:16.058Z</time></trkpt>
      <trkpt lat="29.797919" lon="99.760616"><time>2026-05-02T22:32:16.075Z</time></trkpt>
      <trkpt lat="29.797919" lon="99.760616"><time>2026-05-02T22:32:16.092Z</time></trkpt>
      <trkpt lat="29.797915" lon="99.760631"><time>2026-05-02T22:32:16.108Z</time></trkpt>
      <trkpt lat="29.797915" lon="99.760631"><time>2026-05-02T22:32:16.125Z</time></trkpt>
      <trkpt lat="29.797915" lon="99.760631"><time>2026-05-02T22:32:16.142Z</time></trkpt>
      <trkpt lat="29.797915" lon="99.760631"><time>2026-05-02T22:32:16.158Z</time></trkpt>
      <trkpt lat="29.797915" lon="99.760631"><time>2026-05-02T22:32:16.175Z</time></trkpt>
      <trkpt lat="29.797915" lon="99.760631"><time>2026-05-02T22:32:16.192Z</time></trkpt>
      <trkpt lat="29.79791" lon="99.760646"><time>2026-05-02T22:32:16.208Z</time></trkpt>
      <trkpt lat="29.79791" lon="99.760646"><time>2026-05-02T22:32:16.225Z</time></trkpt>
      <trkpt lat="29.79791" lon="99.760646"><time>2026-05-02T22:32:16.242Z</time></trkpt>
      <trkpt lat="29.79791" lon="99.760646"><time>2026-05-02T22:32:16.258Z</time></trkpt>
      <trkpt lat="29.79791" lon="99.760646"><time>2026-05-02T22:32:16.275Z</time></trkpt>
      <trkpt lat="29.79791" lon="99.760646"><time>2026-05-02T22:32:16.292Z</time></trkpt>
      <trkpt lat="29.797906" lon="99.760661"><time>2026-05-02T22:32:16.309Z</time></trkpt>
      <trkpt lat="29.797906" lon="99.760661"><time>2026-05-02T22:32:16.325Z</time></trkpt>
      <trkpt lat="29.797906" lon="99.760661"><time>2026-05-02T22:32:16.342Z</time></trkpt>
      <trkpt lat="29.797906" lon="99.760661"><time>2026-05-02T22:32:16.359Z</time></trkpt>
      <trkpt lat="29.797906" lon="99.760661"><time>2026-05-02T22:32:16.375Z</time></trkpt>
    </trkseg>
  </trk>
</gpx>
