<?xml version="1.0" encoding="UTF-8"?>
<gpx version="1.1" creator="Kairos" xmlns="http://www.topografix.com/GPX/1/1">
  <trk>
    <name>sidecar-srt-42730b1665d64b4c</name>
    <trkseg>
      <trkpt lat="29.515993" lon="101.721105"><time>2026-05-04T11:17:37.000Z</time></trkpt>
      <trkpt lat="29.515993" lon="101.721105"><time>2026-05-04T11:17:37.016Z</time></trkpt>
      <trkpt lat="29.515993" lon="101.721105"><time>2026-05-04T11:17:37.032Z</time></trkpt>
      <trkpt lat="29.515993" lon="101.721105"><time>2026-05-04T11:17:37.049Z</time></trkpt>
      <trkpt lat="29.515993" lon="101.721105"><time>2026-05-04T11:17:37.066Z</time></trkpt>
      <trkpt lat="29.515993" lon="101.721105"><time>2026-05-04T11:17:37.082Z</time></trkpt>
      <trkpt lat="29.515993" lon="101.721105"><time>2026-05-04T11:17:37.099Z</time></trkpt>
      <trkpt lat="29.515993" lon="101.721105"><time>2026-05-04T11:17:37.116Z</time></trkpt>
      <trkpt lat="29.515993" lon="101.721105"><time>2026-05-04T11:17:37.132Z</time></trkpt>
      <trkpt lat="29.515993" lon="101.721105"><time>2026-05-04T11:17:37.149Z</time></trkpt>
      <trkpt lat="29.515993" lon="101.721105"><time>2026-05-04T11:17:37.166Z</time></trkpt>
      <trkpt lat="29.515993" lon="101.721105"><time>2026-05-04T11:17:37.182Z</time></trkpt>
      <trkpt lat="29.515993" lon="101.721105"><time>2026-05-04T11:17:37.199Z</time></trkpt>
      <trkpt lat="29.515993" lon="101.721105"><time>2026-05-04T11:17:37.216Z</time></trkpt>
      <trkpt lat="29.515993" lon="101.721105"><time>2026-05-04T11:17:37.232Z</time></trkpt>
      <trkpt lat="29.515993" lon="101.721105"><time>2026-05-04T11:17:37.249Z</time></trkpt>
      <trkpt lat="29.515993" lon="101.721105"><time>2026-05-04T11:17:37.266Z</time></trkpt>
      <trkpt lat="29.515993" lon="101.721105"><time>2026-05-04T11:17:37.282Z</time></trkpt>
      <trkpt lat="29.515993" lon="101.721105"><time>2026-05-04T11:17:37.299Z</time></trkpt>
      <trkpt lat="29.515993" lon="101.721105"><time>2026-05-04T11:17:37.316Z</time></trkpt>
    </trkseg>
  </trk>
</gpx>
