<?xml version="1.0" encoding="UTF-8"?>
<gpx version="1.1" creator="Kairos" xmlns="http://www.topografix.com/GPX/1/1">
  <trk>
    <name>sidecar-srt-e2b98f0f5559104b</name>
    <trkseg>
      <trkpt lat="29.517165" lon="101.720759"><time>2026-05-04T11:23:10.000Z</time></trkpt>
      <trkpt lat="29.517165" lon="101.720759"><time>2026-05-04T11:23:10.016Z</time></trkpt>
      <trkpt lat="29.517165" lon="101.720759"><time>2026-05-04T11:23:10.032Z</time></trkpt>
      <trkpt lat="29.517165" lon="101.720759"><time>2026-05-04T11:23:10.049Z</time></trkpt>
      <trkpt lat="29.517165" lon="101.720759"><time>2026-05-04T11:23:10.066Z</time></trkpt>
      <trkpt lat="29.517165" lon="101.720759"><time>2026-05-04T11:23:10.082Z</time></trkpt>
      <trkpt lat="29.517165" lon="101.720759"><time>2026-05-04T11:23:10.099Z</time></trkpt>
      <trkpt lat="29.517165" lon="101.720759"><time>2026-05-04T11:23:10.116Z</time></trkpt>
      <trkpt lat="29.517165" lon="101.720759"><time>2026-05-04T11:23:10.132Z</time></trkpt>
      <trkpt lat="29.517165" lon="101.720759"><time>2026-05-04T11:23:10.149Z</time></trkpt>
      <trkpt lat="29.517165" lon="101.720759"><time>2026-05-04T11:23:10.166Z</time></trkpt>
      <trkpt lat="29.517165" lon="101.720759"><time>2026-05-04T11:23:10.182Z</time></trkpt>
      <trkpt lat="29.517165" lon="101.720759"><time>2026-05-04T11:23:10.199Z</time></trkpt>
      <trkpt lat="29.517165" lon="101.720759"><time>2026-05-04T11:23:10.216Z</time></trkpt>
      <trkpt lat="29.517165" lon="101.720759"><time>2026-05-04T11:23:10.232Z</time></trkpt>
      <trkpt lat="29.517165" lon="101.720759"><time>2026-05-04T11:23:10.249Z</time></trkpt>
      <trkpt lat="29.517165" lon="101.720759"><time>2026-05-04T11:23:10.266Z</time></trkpt>
      <trkpt lat="29.517165" lon="101.720759"><time>2026-05-04T11:23:10.282Z</time></trkpt>
      <trkpt lat="29.517165" lon="101.720759"><time>2026-05-04T11:23:10.299Z</time></trkpt>
      <trkpt lat="29.517165" lon="101.720759"><time>2026-05-04T11:23:10.316Z</time></trkpt>
      <trkpt lat="29.517165" lon="101.720759"><time>2026-05-04T11:23:10.332Z</time></trkpt>
      <trkpt lat="29.517165" lon="101.720759"><time>2026-05-04T11:23:10.349Z</time></trkpt>
      <trkpt lat="29.517165" lon="101.720759"><time>2026-05-04T11:23:10.366Z</time></trkpt>
      <trkpt lat="29.517165" lon="101.720759"><time>2026-05-04T11:23:10.383Z</time></trkpt>
      <trkpt lat="29.517165" lon="101.720759"><time>2026-05-04T11:23:10.399Z</time></trkpt>
      <trkpt lat="29.517165" lon="101.720759"><time>2026-05-04T11:23:10.416Z</time></trkpt>
      <trkpt lat="29.517165" lon="101.720759"><time>2026-05-04T11:23:10.433Z</time></trkpt>
      <trkpt lat="29.517165" lon="101.720759"><time>2026-05-04T11:23:10.449Z</time></trkpt>
      <trkpt lat="29.517165" lon="101.720759"><time>2026-05-04T11:23:10.466Z</time></trkpt>
      <trkpt lat="29.517165" lon="101.720759"><time>2026-05-04T11:23:10.483Z</time></trkpt>
      <trkpt lat="29.517165" lon="101.720759"><time>2026-05-04T11:23:10.499Z</time></trkpt>
      <trkpt lat="29.517165" lon="101.720759"><time>2026-05-04T11:23:10.516Z</time></trkpt>
      <trkpt lat="29.517165" lon="101.720759"><time>2026-05-04T11:23:10.533Z</time></trkpt>
      <trkpt lat="29.517165" lon="101.720759"><time>2026-05-04T11:23:10.549Z</time></trkpt>
      <trkpt lat="29.517165" lon="101.720759"><time>2026-05-04T11:23:10.566Z</time></trkpt>
      <trkpt lat="29.517165" lon="101.720759"><time>2026-05-04T11:23:10.583Z</time></trkpt>
      <trkpt lat="29.517165" lon="101.720759"><time>2026-05-04T11:23:10.599Z</time></trkpt>
      <trkpt lat="29.517165" lon="101.720759"><time>2026-05-04T11:23:10.616Z</time></trkpt>
      <trkpt lat="29.517165" lon="101.720759"><time>2026-05-04T11:23:10.633Z</time></trkpt>
      <trkpt lat="29.517165" lon="101.720759"><time>2026-05-04T11:23:10.649Z</time></trkpt>
      <trkpt lat="29.517165" lon="101.720759"><time>2026-05-04T11:23:10.666Z</time></trkpt>
      <trkpt lat="29.517165" lon="101.720759"><time>2026-05-04T11:23:10.683Z</time></trkpt>
      <trkpt lat="29.517165" lon="101.720759"><time>2026-05-04T11:23:10.700Z</time></trkpt>
      <trkpt lat="29.517165" lon="101.720759"><time>2026-05-04T11:23:10.716Z</time></trkpt>
      <trkpt lat="29.517165" lon="101.720759"><time>2026-05-04T11:23:10.733Z</time></trkpt>
      <trkpt lat="29.517165" lon="101.720759"><time>2026-05-04T11:23:10.750Z</time></trkpt>
      <trkpt lat="29.517165" lon="101.720759"><time>2026-05-04T11:23:10.766Z</time></trkpt>
      <trkpt lat="29.517165" lon="101.720759"><time>2026-05-04T11:23:10.783Z</time></trkpt>
      <trkpt lat="29.517165" lon="101.720759"><time>2026-05-04T11:23:10.800Z</time></trkpt>
      <trkpt lat="29.517165" lon="101.720759"><time>2026-05-04T11:23:10.816Z</time></trkpt>
      <trkpt lat="29.517165" lon="101.720759"><time>2026-05-04T11:23:10.833Z</time></trkpt>
      <trkpt lat="29.517165" lon="101.720759"><time>2026-05-04T11:23:10.850Z</time></trkpt>
      <trkpt lat="29.517165" lon="101.720759"><time>2026-05-04T11:23:10.866Z</time></trkpt>
      <trkpt lat="29.517165" lon="101.720759"><time>2026-05-04T11:23:10.883Z</time></trkpt>
      <trkpt lat="29.517165" lon="101.720759"><time>2026-05-04T11:23:10.900Z</time></trkpt>
      <trkpt lat="29.517165" lon="101.720759"><time>2026-05-04T11:23:10.916Z</time></trkpt>
      <trkpt lat="29.517165" lon="101.720759"><time>2026-05-04T11:23:10.933Z</time></trkpt>
      <trkpt lat="29.517165" lon="101.720759"><time>2026-05-04T11:23:10.950Z</time></trkpt>
      <trkpt lat="29.517165" lon="101.720759"><time>2026-05-04T11:23:10.966Z</time></trkpt>
      <trkpt lat="29.517165" lon="101.720759"><time>2026-05-04T11:23:10.983Z</time></trkpt>
      <trkpt lat="29.517165" lon="101.720759"><time>2026-05-04T11:23:11.000Z</time></trkpt>
      <trkpt lat="29.517165" lon="101.720759"><time>2026-05-04T11:23:11.017Z</time></trkpt>
      <trkpt lat="29.517165" lon="101.720759"><time>2026-05-04T11:23:11.033Z</time></trkpt>
      <trkpt lat="29.517165" lon="101.720759"><time>2026-05-04T11:23:11.050Z</time></trkpt>
      <trkpt lat="29.517165" lon="101.720759"><time>2026-05-04T11:23:11.067Z</time></trkpt>
      <trkpt lat="29.517165" lon="101.720759"><time>2026-05-04T11:23:11.083Z</time></trkpt>
      <trkpt lat="29.517165" lon="101.720759"><time>2026-05-04T11:23:11.100Z</time></trkpt>
      <trkpt lat="29.517165" lon="101.720759"><time>2026-05-04T11:23:11.117Z</time></trkpt>
      <trkpt lat="29.517165" lon="101.720759"><time>2026-05-04T11:23:11.133Z</time></trkpt>
      <trkpt lat="29.517165" lon="101.720759"><time>2026-05-04T11:23:11.150Z</time></trkpt>
      <trkpt lat="29.517165" lon="101.720759"><time>2026-05-04T11:23:11.167Z</time></trkpt>
      <trkpt lat="29.517165" lon="101.720759"><time>2026-05-04T11:23:11.183Z</time></trkpt>
      <trkpt lat="29.517165" lon="101.720759"><time>2026-05-04T11:23:11.200Z</time></trkpt>
      <trkpt lat="29.517165" lon="101.720759"><time>2026-05-04T11:23:11.217Z</time></trkpt>
      <trkpt lat="29.517165" lon="101.720759"><time>2026-05-04T11:23:11.233Z</time></trkpt>
      <trkpt lat="29.517165" lon="101.720759"><time>2026-05-04T11:23:11.250Z</time></trkpt>
      <trkpt lat="29.517165" lon="101.720759"><time>2026-05-04T11:23:11.267Z</time></trkpt>
      <trkpt lat="29.517165" lon="101.720759"><time>2026-05-04T11:23:11.283Z</time></trkpt>
      <trkpt lat="29.517165" lon="101.720759"><time>2026-05-04T11:23:11.300Z</time></trkpt>
      <trkpt lat="29.517165" lon="101.720759"><time>2026-05-04T11:23:11.317Z</time></trkpt>
      <trkpt lat="29.517165" lon="101.720759"><time>2026-05-04T11:23:11.334Z</time></trkpt>
      <trkpt lat="29.517165" lon="101.720759"><time>2026-05-04T11:23:11.350Z</time></trkpt>
      <trkpt lat="29.517165" lon="101.720759"><time>2026-05-04T11:23:11.367Z</time></trkpt>
      <trkpt lat="29.517165" lon="101.720759"><time>2026-05-04T11:23:11.384Z</time></trkpt>
      <trkpt lat="29.517165" lon="101.720759"><time>2026-05-04T11:23:11.400Z</time></trkpt>
      <trkpt lat="29.517165" lon="101.720759"><time>2026-05-04T11:23:11.417Z</time></trkpt>
      <trkpt lat="29.517165" lon="101.720759"><time>2026-05-04T11:23:11.434Z</time></trkpt>
      <trkpt lat="29.517165" lon="101.720759"><time>2026-05-04T11:23:11.450Z</time></trkpt>
      <trkpt lat="29.517165" lon="101.720759"><time>2026-05-04T11:23:11.467Z</time></trkpt>
      <trkpt lat="29.517165" lon="101.720759"><time>2026-05-04T11:23:11.484Z</time></trkpt>
      <trkpt lat="29.517165" lon="101.720759"><time>2026-05-04T11:23:11.500Z</time></trkpt>
      <trkpt lat="29.517165" lon="101.720759"><time>2026-05-04T11:23:11.517Z</time></trkpt>
      <trkpt lat="29.517165" lon="101.720759"><time>2026-05-04T11:23:11.534Z</time></trkpt>
      <trkpt lat="29.517165" lon="101.720759"><time>2026-05-04T11:23:11.550Z</time></trkpt>
      <trkpt lat="29.517165" lon="101.720759"><time>2026-05-04T11:23:11.567Z</time></trkpt>
      <trkpt lat="29.517165" lon="101.720759"><time>2026-05-04T11:23:11.584Z</time></trkpt>
      <trkpt lat="29.517165" lon="101.720759"><time>2026-05-04T11:23:11.600Z</time></trkpt>
      <trkpt lat="29.517165" lon="101.720759"><time>2026-05-04T11:23:11.617Z</time></trkpt>
      <trkpt lat="29.517165" lon="101.720759"><time>2026-05-04T11:23:11.634Z</time></trkpt>
      <trkpt lat="29.517165" lon="101.720759"><time>2026-05-04T11:23:11.651Z</time></trkpt>
      <trkpt lat="29.517165" lon="101.720759"><time>2026-05-04T11:23:11.667Z</time></trkpt>
      <trkpt lat="29.517165" lon="101.720759"><time>2026-05-04T11:23:11.684Z</time></trkpt>
      <trkpt lat="29.517165" lon="101.720759"><time>2026-05-04T11:23:11.701Z</time></trkpt>
      <trkpt lat="29.517165" lon="101.720759"><time>2026-05-04T11:23:11.717Z</time></trkpt>
      <trkpt lat="29.517165" lon="101.720759"><time>2026-05-04T11:23:11.734Z</time></trkpt>
      <trkpt lat="29.517165" lon="101.720759"><time>2026-05-04T11:23:11.751Z</time></trkpt>
      <trkpt lat="29.517165" lon="101.720759"><time>2026-05-04T11:23:11.767Z</time></trkpt>
      <trkpt lat="29.517165" lon="101.720759"><time>2026-05-04T11:23:11.784Z</time></trkpt>
      <trkpt lat="29.517165" lon="101.720759"><time>2026-05-04T11:23:11.801Z</time></trkpt>
      <trkpt lat="29.517165" lon="101.720759"><time>2026-05-04T11:23:11.817Z</time></trkpt>
      <trkpt lat="29.517165" lon="101.720759"><time>2026-05-04T11:23:11.834Z</time></trkpt>
      <trkpt lat="29.517165" lon="101.720759"><time>2026-05-04T11:23:11.851Z</time></trkpt>
      <trkpt lat="29.517165" lon="101.720759"><time>2026-05-04T11:23:11.867Z</time></trkpt>
      <trkpt lat="29.517165" lon="101.720759"><time>2026-05-04T11:23:11.884Z</time></trkpt>
      <trkpt lat="29.517165" lon="101.720759"><time>2026-05-04T11:23:11.901Z</time></trkpt>
      <trkpt lat="29.517165" lon="101.720759"><time>2026-05-04T11:23:11.917Z</time></trkpt>
      <trkpt lat="29.517165" lon="101.720759"><time>2026-05-04T11:23:11.934Z</time></trkpt>
      <trkpt lat="29.517165" lon="101.720759"><time>2026-05-04T11:23:11.951Z</time></trkpt>
      <trkpt lat="29.517165" lon="101.720759"><time>2026-05-04T11:23:11.968Z</time></trkpt>
      <trkpt lat="29.517165" lon="101.720759"><time>2026-05-04T11:23:11.984Z</time></trkpt>
      <trkpt lat="29.517165" lon="101.720759"><time>2026-05-04T11:23:12.001Z</time></trkpt>
      <trkpt lat="29.517165" lon="101.720759"><time>2026-05-04T11:23:12.018Z</time></trkpt>
      <trkpt lat="29.517165" lon="101.720759"><time>2026-05-04T11:23:12.034Z</time></trkpt>
      <trkpt lat="29.517165" lon="101.720759"><time>2026-05-04T11:23:12.051Z</time></trkpt>
      <trkpt lat="29.517165" lon="101.720759"><time>2026-05-04T11:23:12.068Z</time></trkpt>
      <trkpt lat="29.517165" lon="101.720759"><time>2026-05-04T11:23:12.084Z</time></trkpt>
      <trkpt lat="29.517165" lon="101.72076"><time>2026-05-04T11:23:12.101Z</time></trkpt>
      <trkpt lat="29.517165" lon="101.72076"><time>2026-05-04T11:23:12.118Z</time></trkpt>
      <trkpt lat="29.517165" lon="101.72076"><time>2026-05-04T11:23:12.134Z</time></trkpt>
      <trkpt lat="29.517165" lon="101.72076"><time>2026-05-04T11:23:12.151Z</time></trkpt>
      <trkpt lat="29.517165" lon="101.72076"><time>2026-05-04T11:23:12.168Z</time></trkpt>
      <trkpt lat="29.517165" lon="101.72076"><time>2026-05-04T11:23:12.184Z</time></trkpt>
      <trkpt lat="29.517165" lon="101.72076"><time>2026-05-04T11:23:12.201Z</time></trkpt>
      <trkpt lat="29.517165" lon="101.72076"><time>2026-05-04T11:23:12.218Z</time></trkpt>
      <trkpt lat="29.517165" lon="101.72076"><time>2026-05-04T11:23:12.234Z</time></trkpt>
      <trkpt lat="29.517165" lon="101.72076"><time>2026-05-04T11:23:12.251Z</time></trkpt>
      <trkpt lat="29.517165" lon="101.72076"><time>2026-05-04T11:23:12.268Z</time></trkpt>
      <trkpt lat="29.517165" lon="101.72076"><time>2026-05-04T11:23:12.285Z</time></trkpt>
      <trkpt lat="29.517165" lon="101.72076"><time>2026-05-04T11:23:12.301Z</time></trkpt>
      <trkpt lat="29.517165" lon="101.72076"><time>2026-05-04T11:23:12.318Z</time></trkpt>
      <trkpt lat="29.517165" lon="101.72076"><time>2026-05-04T11:23:12.335Z</time></trkpt>
      <trkpt lat="29.517165" lon="101.72076"><time>2026-05-04T11:23:12.351Z</time></trkpt>
      <trkpt lat="29.517165" lon="101.72076"><time>2026-05-04T11:23:12.368Z</time></trkpt>
      <trkpt lat="29.517165" lon="101.72076"><time>2026-05-04T11:23:12.385Z</time></trkpt>
      <trkpt lat="29.517165" lon="101.72076"><time>2026-05-04T11:23:12.401Z</time></trkpt>
      <trkpt lat="29.517165" lon="101.72076"><time>2026-05-04T11:23:12.418Z</time></trkpt>
      <trkpt lat="29.517165" lon="101.72076"><time>2026-05-04T11:23:12.435Z</time></trkpt>
      <trkpt lat="29.517165" lon="101.72076"><time>2026-05-04T11:23:12.451Z</time></trkpt>
      <trkpt lat="29.517165" lon="101.72076"><time>2026-05-04T11:23:12.468Z</time></trkpt>
      <trkpt lat="29.517165" lon="101.72076"><time>2026-05-04T11:23:12.485Z</time></trkpt>
      <trkpt lat="29.517165" lon="101.72076"><time>2026-05-04T11:23:12.501Z</time></trkpt>
      <trkpt lat="29.517165" lon="101.72076"><time>2026-05-04T11:23:12.518Z</time></trkpt>
      <trkpt lat="29.517165" lon="101.72076"><time>2026-05-04T11:23:12.535Z</time></trkpt>
      <trkpt lat="29.517165" lon="101.72076"><time>2026-05-04T11:23:12.551Z</time></trkpt>
      <trkpt lat="29.517165" lon="101.72076"><time>2026-05-04T11:23:12.568Z</time></trkpt>
      <trkpt lat="29.517165" lon="101.72076"><time>2026-05-04T11:23:12.585Z</time></trkpt>
      <trkpt lat="29.517165" lon="101.72076"><time>2026-05-04T11:23:12.602Z</time></trkpt>
      <trkpt lat="29.517165" lon="101.72076"><time>2026-05-04T11:23:12.618Z</time></trkpt>
      <trkpt lat="29.517165" lon="101.72076"><time>2026-05-04T11:23:12.635Z</time></trkpt>
      <trkpt lat="29.517165" lon="101.72076"><time>2026-05-04T11:23:12.652Z</time></trkpt>
      <trkpt lat="29.517165" lon="101.72076"><time>2026-05-04T11:23:12.668Z</time></trkpt>
      <trkpt lat="29.517165" lon="101.72076"><time>2026-05-04T11:23:12.685Z</time></trkpt>
      <trkpt lat="29.517165" lon="101.72076"><time>2026-05-04T11:23:12.702Z</time></trkpt>
      <trkpt lat="29.517165" lon="101.72076"><time>2026-05-04T11:23:12.718Z</time></trkpt>
      <trkpt lat="29.517165" lon="101.72076"><time>2026-05-04T11:23:12.735Z</time></trkpt>
      <trkpt lat="29.517165" lon="101.72076"><time>2026-05-04T11:23:12.752Z</time></trkpt>
      <trkpt lat="29.517165" lon="101.72076"><time>2026-05-04T11:23:12.768Z</time></trkpt>
      <trkpt lat="29.517165" lon="101.72076"><time>2026-05-04T11:23:12.785Z</time></trkpt>
      <trkpt lat="29.517165" lon="101.720759"><time>2026-05-04T11:23:12.802Z</time></trkpt>
      <trkpt lat="29.517165" lon="101.720759"><time>2026-05-04T11:23:12.818Z</time></trkpt>
      <trkpt lat="29.517165" lon="101.720759"><time>2026-05-04T11:23:12.835Z</time></trkpt>
      <trkpt lat="29.517165" lon="101.720759"><time>2026-05-04T11:23:12.852Z</time></trkpt>
      <trkpt lat="29.517165" lon="101.720759"><time>2026-05-04T11:23:12.868Z</time></trkpt>
      <trkpt lat="29.517165" lon="101.720759"><time>2026-05-04T11:23:12.885Z</time></trkpt>
      <trkpt lat="29.517165" lon="101.720759"><time>2026-05-04T11:23:12.902Z</time></trkpt>
      <trkpt lat="29.517165" lon="101.720759"><time>2026-05-04T11:23:12.919Z</time></trkpt>
      <trkpt lat="29.517165" lon="101.720759"><time>2026-05-04T11:23:12.935Z</time></trkpt>
      <trkpt lat="29.517165" lon="101.720759"><time>2026-05-04T11:23:12.952Z</time></trkpt>
      <trkpt lat="29.517165" lon="101.720759"><time>2026-05-04T11:23:12.969Z</time></trkpt>
      <trkpt lat="29.517165" lon="101.720759"><time>2026-05-04T11:23:12.985Z</time></trkpt>
      <trkpt lat="29.517165" lon="101.720759"><time>2026-05-04T11:23:13.002Z</time></trkpt>
      <trkpt lat="29.517165" lon="101.720759"><time>2026-05-04T11:23:13.019Z</time></trkpt>
      <trkpt lat="29.517165" lon="101.720759"><time>2026-05-04T11:23:13.035Z</time></trkpt>
      <trkpt lat="29.517165" lon="101.720759"><time>2026-05-04T11:23:13.052Z</time></trkpt>
      <trkpt lat="29.517165" lon="101.720759"><time>2026-05-04T11:23:13.069Z</time></trkpt>
      <trkpt lat="29.517165" lon="101.720759"><time>2026-05-04T11:23:13.085Z</time></trkpt>
      <trkpt lat="29.517165" lon="101.720759"><time>2026-05-04T11:23:13.102Z</time></trkpt>
      <trkpt lat="29.517165" lon="101.720759"><time>2026-05-04T11:23:13.119Z</time></trkpt>
      <trkpt lat="29.517165" lon="101.720759"><time>2026-05-04T11:23:13.135Z</time></trkpt>
      <trkpt lat="29.517165" lon="101.720759"><time>2026-05-04T11:23:13.152Z</time></trkpt>
      <trkpt lat="29.517165" lon="101.720759"><time>2026-05-04T11:23:13.169Z</time></trkpt>
      <trkpt lat="29.517165" lon="101.720759"><time>2026-05-04T11:23:13.185Z</time></trkpt>
      <trkpt lat="29.517165" lon="101.720759"><time>2026-05-04T11:23:13.202Z</time></trkpt>
      <trkpt lat="29.517165" lon="101.720759"><time>2026-05-04T11:23:13.219Z</time></trkpt>
      <trkpt lat="29.517165" lon="101.720759"><time>2026-05-04T11:23:13.236Z</time></trkpt>
      <trkpt lat="29.517165" lon="101.720759"><time>2026-05-04T11:23:13.252Z</time></trkpt>
      <trkpt lat="29.517165" lon="101.720759"><time>2026-05-04T11:23:13.269Z</time></trkpt>
      <trkpt lat="29.517165" lon="101.720759"><time>2026-05-04T11:23:13.286Z</time></trkpt>
      <trkpt lat="29.517165" lon="101.720759"><time>2026-05-04T11:23:13.302Z</time></trkpt>
      <trkpt lat="29.517165" lon="101.720759"><time>2026-05-04T11:23:13.319Z</time></trkpt>
      <trkpt lat="29.517165" lon="101.720759"><time>2026-05-04T11:23:13.336Z</time></trkpt>
      <trkpt lat="29.517165" lon="101.720759"><time>2026-05-04T11:23:13.352Z</time></trkpt>
      <trkpt lat="29.517165" lon="101.720759"><time>2026-05-04T11:23:13.369Z</time></trkpt>
      <trkpt lat="29.517165" lon="101.720759"><time>2026-05-04T11:23:13.386Z</time></trkpt>
      <trkpt lat="29.517165" lon="101.720759"><time>2026-05-04T11:23:13.402Z</time></trkpt>
      <trkpt lat="29.517165" lon="101.720759"><time>2026-05-04T11:23:13.419Z</time></trkpt>
      <trkpt lat="29.517165" lon="101.720759"><time>2026-05-04T11:23:13.436Z</time></trkpt>
      <trkpt lat="29.517165" lon="101.720759"><time>2026-05-04T11:23:13.452Z</time></trkpt>
      <trkpt lat="29.517165" lon="101.720759"><time>2026-05-04T11:23:13.469Z</time></trkpt>
      <trkpt lat="29.517165" lon="101.720759"><time>2026-05-04T11:23:13.486Z</time></trkpt>
      <trkpt lat="29.517165" lon="101.720759"><time>2026-05-04T11:23:13.502Z</time></trkpt>
      <trkpt lat="29.517165" lon="101.720759"><time>2026-05-04T11:23:13.519Z</time></trkpt>
      <trkpt lat="29.517165" lon="101.720759"><time>2026-05-04T11:23:13.536Z</time></trkpt>
      <trkpt lat="29.517165" lon="101.720759"><time>2026-05-04T11:23:13.553Z</time></trkpt>
      <trkpt lat="29.517165" lon="101.720759"><time>2026-05-04T11:23:13.569Z</time></trkpt>
      <trkpt lat="29.517165" lon="101.720759"><time>2026-05-04T11:23:13.586Z</time></trkpt>
      <trkpt lat="29.517165" lon="101.720759"><time>2026-05-04T11:23:13.603Z</time></trkpt>
      <trkpt lat="29.517165" lon="101.720759"><time>2026-05-04T11:23:13.619Z</time></trkpt>
      <trkpt lat="29.517165" lon="101.720759"><time>2026-05-04T11:23:13.636Z</time></trkpt>
      <trkpt lat="29.517165" lon="101.720759"><time>2026-05-04T11:23:13.653Z</time></trkpt>
      <trkpt lat="29.517165" lon="101.720759"><time>2026-05-04T11:23:13.669Z</time></trkpt>
      <trkpt lat="29.517165" lon="101.720759"><time>2026-05-04T11:23:13.686Z</time></trkpt>
      <trkpt lat="29.517165" lon="101.720759"><time>2026-05-04T11:23:13.703Z</time></trkpt>
      <trkpt lat="29.517165" lon="101.720759"><time>2026-05-04T11:23:13.719Z</time></trkpt>
      <trkpt lat="29.517165" lon="101.720759"><time>2026-05-04T11:23:13.736Z</time></trkpt>
      <trkpt lat="29.517165" lon="101.720759"><time>2026-05-04T11:23:13.753Z</time></trkpt>
      <trkpt lat="29.517165" lon="101.720759"><time>2026-05-04T11:23:13.769Z</time></trkpt>
      <trkpt lat="29.517165" lon="101.720759"><time>2026-05-04T11:23:13.786Z</time></trkpt>
      <trkpt lat="29.517165" lon="101.720759"><time>2026-05-04T11:23:13.803Z</time></trkpt>
      <trkpt lat="29.517165" lon="101.720759"><time>2026-05-04T11:23:13.819Z</time></trkpt>
      <trkpt lat="29.517165" lon="101.720759"><time>2026-05-04T11:23:13.836Z</time></trkpt>
      <trkpt lat="29.517165" lon="101.720759"><time>2026-05-04T11:23:13.853Z</time></trkpt>
      <trkpt lat="29.517165" lon="101.720759"><time>2026-05-04T11:23:13.870Z</time></trkpt>
      <trkpt lat="29.517165" lon="101.720759"><time>2026-05-04T11:23:13.886Z</time></trkpt>
      <trkpt lat="29.517165" lon="101.720759"><time>2026-05-04T11:23:13.903Z</time></trkpt>
      <trkpt lat="29.517165" lon="101.720759"><time>2026-05-04T11:23:13.920Z</time></trkpt>
      <trkpt lat="29.517165" lon="101.720759"><time>2026-05-04T11:23:13.936Z</time></trkpt>
      <trkpt lat="29.517165" lon="101.720759"><time>2026-05-04T11:23:13.953Z</time></trkpt>
      <trkpt lat="29.517165" lon="101.720759"><time>2026-05-04T11:23:13.970Z</time></trkpt>
      <trkpt lat="29.517165" lon="101.720759"><time>2026-05-04T11:23:13.986Z</time></trkpt>
      <trkpt lat="29.517165" lon="101.720759"><time>2026-05-04T11:23:14.003Z</time></trkpt>
      <trkpt lat="29.517165" lon="101.720759"><time>2026-05-04T11:23:14.020Z</time></trkpt>
      <trkpt lat="29.517165" lon="101.720759"><time>2026-05-04T11:23:14.036Z</time></trkpt>
      <trkpt lat="29.517165" lon="101.720759"><time>2026-05-04T11:23:14.053Z</time></trkpt>
      <trkpt lat="29.517165" lon="101.720759"><time>2026-05-04T11:23:14.070Z</time></trkpt>
      <trkpt lat="29.517165" lon="101.720759"><time>2026-05-04T11:23:14.086Z</time></trkpt>
      <trkpt lat="29.517165" lon="101.720759"><time>2026-05-04T11:23:14.103Z</time></trkpt>
      <trkpt lat="29.517165" lon="101.720759"><time>2026-05-04T11:23:14.120Z</time></trkpt>
      <trkpt lat="29.517165" lon="101.720759"><time>2026-05-04T11:23:14.136Z</time></trkpt>
      <trkpt lat="29.517165" lon="101.720759"><time>2026-05-04T11:23:14.153Z</time></trkpt>
      <trkpt lat="29.517165" lon="101.720759"><time>2026-05-04T11:23:14.170Z</time></trkpt>
      <trkpt lat="29.517165" lon="101.720759"><time>2026-05-04T11:23:14.187Z</time></trkpt>
      <trkpt lat="29.517165" lon="101.720759"><time>2026-05-04T11:23:14.203Z</time></trkpt>
      <trkpt lat="29.517165" lon="101.720759"><time>2026-05-04T11:23:14.220Z</time></trkpt>
      <trkpt lat="29.517165" lon="101.720759"><time>2026-05-04T11:23:14.237Z</time></trkpt>
      <trkpt lat="29.517165" lon="101.720759"><time>2026-05-04T11:23:14.253Z</time></trkpt>
      <trkpt lat="29.517165" lon="101.720759"><time>2026-05-04T11:23:14.270Z</time></trkpt>
      <trkpt lat="29.517165" lon="101.720759"><time>2026-05-04T11:23:14.287Z</time></trkpt>
      <trkpt lat="29.517165" lon="101.720759"><time>2026-05-04T11:23:14.303Z</time></trkpt>
      <trkpt lat="29.517165" lon="101.720759"><time>2026-05-04T11:23:14.320Z</time></trkpt>
      <trkpt lat="29.517165" lon="101.720759"><time>2026-05-04T11:23:14.337Z</time></trkpt>
      <trkpt lat="29.517165" lon="101.720759"><time>2026-05-04T11:23:14.353Z</time></trkpt>
      <trkpt lat="29.517165" lon="101.720759"><time>2026-05-04T11:23:14.370Z</time></trkpt>
      <trkpt lat="29.517165" lon="101.720759"><time>2026-05-04T11:23:14.387Z</time></trkpt>
      <trkpt lat="29.517165" lon="101.720759"><time>2026-05-04T11:23:14.403Z</time></trkpt>
      <trkpt lat="29.517165" lon="101.720759"><time>2026-05-04T11:23:14.420Z</time></trkpt>
      <trkpt lat="29.517165" lon="101.720759"><time>2026-05-04T11:23:14.437Z</time></trkpt>
      <trkpt lat="29.517165" lon="101.720759"><time>2026-05-04T11:23:14.453Z</time></trkpt>
      <trkpt lat="29.517165" lon="101.720759"><time>2026-05-04T11:23:14.470Z</time></trkpt>
      <trkpt lat="29.517165" lon="101.720759"><time>2026-05-04T11:23:14.487Z</time></trkpt>
      <trkpt lat="29.517165" lon="101.720759"><time>2026-05-04T11:23:14.504Z</time></trkpt>
      <trkpt lat="29.517165" lon="101.720759"><time>2026-05-04T11:23:14.520Z</time></trkpt>
      <trkpt lat="29.517165" lon="101.720759"><time>2026-05-04T11:23:14.537Z</time></trkpt>
      <trkpt lat="29.517165" lon="101.720759"><time>2026-05-04T11:23:14.554Z</time></trkpt>
      <trkpt lat="29.517165" lon="101.720759"><time>2026-05-04T11:23:14.570Z</time></trkpt>
      <trkpt lat="29.517165" lon="101.720759"><time>2026-05-04T11:23:14.587Z</time></trkpt>
      <trkpt lat="29.517165" lon="101.720759"><time>2026-05-04T11:23:14.604Z</time></trkpt>
      <trkpt lat="29.517165" lon="101.720759"><time>2026-05-04T11:23:14.620Z</time></trkpt>
      <trkpt lat="29.517165" lon="101.720759"><time>2026-05-04T11:23:14.637Z</time></trkpt>
      <trkpt lat="29.517165" lon="101.720759"><time>2026-05-04T11:23:14.654Z</time></trkpt>
      <trkpt lat="29.517165" lon="101.720759"><time>2026-05-04T11:23:14.670Z</time></trkpt>
      <trkpt lat="29.517165" lon="101.720759"><time>2026-05-04T11:23:14.687Z</time></trkpt>
      <trkpt lat="29.517165" lon="101.720759"><time>2026-05-04T11:23:14.704Z</time></trkpt>
      <trkpt lat="29.517165" lon="101.720759"><time>2026-05-04T11:23:14.720Z</time></trkpt>
      <trkpt lat="29.517165" lon="101.720759"><time>2026-05-04T11:23:14.737Z</time></trkpt>
      <trkpt lat="29.517165" lon="101.720759"><time>2026-05-04T11:23:14.754Z</time></trkpt>
      <trkpt lat="29.517165" lon="101.720759"><time>2026-05-04T11:23:14.770Z</time></trkpt>
      <trkpt lat="29.517165" lon="101.720759"><time>2026-05-04T11:23:14.787Z</time></trkpt>
      <trkpt lat="29.517165" lon="101.720759"><time>2026-05-04T11:23:14.804Z</time></trkpt>
      <trkpt lat="29.517165" lon="101.720759"><time>2026-05-04T11:23:14.821Z</time></trkpt>
      <trkpt lat="29.517165" lon="101.720759"><time>2026-05-04T11:23:14.837Z</time></trkpt>
      <trkpt lat="29.517165" lon="101.720759"><time>2026-05-04T11:23:14.854Z</time></trkpt>
      <trkpt lat="29.517165" lon="101.720759"><time>2026-05-04T11:23:14.871Z</time></trkpt>
      <trkpt lat="29.517165" lon="101.720759"><time>2026-05-04T11:23:14.887Z</time></trkpt>
      <trkpt lat="29.517165" lon="101.720759"><time>2026-05-04T11:23:14.904Z</time></trkpt>
      <trkpt lat="29.517165" lon="101.720759"><time>2026-05-04T11:23:14.921Z</time></trkpt>
      <trkpt lat="29.517165" lon="101.720759"><time>2026-05-04T11:23:14.937Z</time></trkpt>
      <trkpt lat="29.517165" lon="101.720759"><time>2026-05-04T11:23:14.954Z</time></trkpt>
      <trkpt lat="29.517165" lon="101.720759"><time>2026-05-04T11:23:14.971Z</time></trkpt>
      <trkpt lat="29.517165" lon="101.720759"><time>2026-05-04T11:23:14.987Z</time></trkpt>
      <trkpt lat="29.517165" lon="101.720759"><time>2026-05-04T11:23:15.004Z</time></trkpt>
      <trkpt lat="29.517165" lon="101.720759"><time>2026-05-04T11:23:15.021Z</time></trkpt>
      <trkpt lat="29.517165" lon="101.720759"><time>2026-05-04T11:23:15.037Z</time></trkpt>
      <trkpt lat="29.517165" lon="101.720759"><time>2026-05-04T11:23:15.054Z</time></trkpt>
      <trkpt lat="29.517165" lon="101.720759"><time>2026-05-04T11:23:15.071Z</time></trkpt>
      <trkpt lat="29.517165" lon="101.720759"><time>2026-05-04T11:23:15.087Z</time></trkpt>
      <trkpt lat="29.517165" lon="101.720759"><time>2026-05-04T11:23:15.104Z</time></trkpt>
      <trkpt lat="29.517165" lon="101.720759"><time>2026-05-04T11:23:15.121Z</time></trkpt>
      <trkpt lat="29.517165" lon="101.720759"><time>2026-05-04T11:23:15.138Z</time></trkpt>
      <trkpt lat="29.517165" lon="101.720759"><time>2026-05-04T11:23:15.154Z</time></trkpt>
      <trkpt lat="29.517165" lon="101.720759"><time>2026-05-04T11:23:15.171Z</time></trkpt>
      <trkpt lat="29.517165" lon="101.720759"><time>2026-05-04T11:23:15.188Z</time></trkpt>
      <trkpt lat="29.517165" lon="101.720759"><time>2026-05-04T11:23:15.204Z</time></trkpt>
      <trkpt lat="29.517165" lon="101.720759"><time>2026-05-04T11:23:15.221Z</time></trkpt>
      <trkpt lat="29.517165" lon="101.720759"><time>2026-05-04T11:23:15.238Z</time></trkpt>
      <trkpt lat="29.517165" lon="101.720759"><time>2026-05-04T11:23:15.254Z</time></trkpt>
      <trkpt lat="29.517165" lon="101.720759"><time>2026-05-04T11:23:15.271Z</time></trkpt>
      <trkpt lat="29.517165" lon="101.720759"><time>2026-05-04T11:23:15.288Z</time></trkpt>
      <trkpt lat="29.517165" lon="101.720759"><time>2026-05-04T11:23:15.304Z</time></trkpt>
      <trkpt lat="29.517165" lon="101.720759"><time>2026-05-04T11:23:15.321Z</time></trkpt>
      <trkpt lat="29.517165" lon="101.720759"><time>2026-05-04T11:23:15.338Z</time></trkpt>
      <trkpt lat="29.517165" lon="101.720759"><time>2026-05-04T11:23:15.354Z</time></trkpt>
      <trkpt lat="29.517165" lon="101.720759"><time>2026-05-04T11:23:15.371Z</time></trkpt>
      <trkpt lat="29.517165" lon="101.720759"><time>2026-05-04T11:23:15.388Z</time></trkpt>
      <trkpt lat="29.517165" lon="101.720759"><time>2026-05-04T11:23:15.404Z</time></trkpt>
      <trkpt lat="29.517165" lon="101.720759"><time>2026-05-04T11:23:15.421Z</time></trkpt>
      <trkpt lat="29.517165" lon="101.720759"><time>2026-05-04T11:23:15.438Z</time></trkpt>
      <trkpt lat="29.517165" lon="101.720759"><time>2026-05-04T11:23:15.455Z</time></trkpt>
      <trkpt lat="29.517165" lon="101.720759"><time>2026-05-04T11:23:15.471Z</time></trkpt>
      <trkpt lat="29.517165" lon="101.720759"><time>2026-05-04T11:23:15.488Z</time></trkpt>
      <trkpt lat="29.517165" lon="101.720759"><time>2026-05-04T11:23:15.505Z</time></trkpt>
      <trkpt lat="29.517165" lon="101.720759"><time>2026-05-04T11:23:15.521Z</time></trkpt>
      <trkpt lat="29.517165" lon="101.720759"><time>2026-05-04T11:23:15.538Z</time></trkpt>
      <trkpt lat="29.517165" lon="101.720759"><time>2026-05-04T11:23:15.555Z</time></trkpt>
      <trkpt lat="29.517165" lon="101.720759"><time>2026-05-04T11:23:15.571Z</time></trkpt>
      <trkpt lat="29.517165" lon="101.720759"><time>2026-05-04T11:23:15.588Z</time></trkpt>
      <trkpt lat="29.517165" lon="101.720759"><time>2026-05-04T11:23:15.605Z</time></trkpt>
      <trkpt lat="29.517165" lon="101.720759"><time>2026-05-04T11:23:15.621Z</time></trkpt>
      <trkpt lat="29.517165" lon="101.720759"><time>2026-05-04T11:23:15.638Z</time></trkpt>
      <trkpt lat="29.517165" lon="101.720759"><time>2026-05-04T11:23:15.655Z</time></trkpt>
      <trkpt lat="29.517165" lon="101.720759"><time>2026-05-04T11:23:15.671Z</time></trkpt>
      <trkpt lat="29.517165" lon="101.720759"><time>2026-05-04T11:23:15.688Z</time></trkpt>
      <trkpt lat="29.517165" lon="101.720759"><time>2026-05-04T11:23:15.705Z</time></trkpt>
      <trkpt lat="29.517165" lon="101.720759"><time>2026-05-04T11:23:15.721Z</time></trkpt>
      <trkpt lat="29.517165" lon="101.720759"><time>2026-05-04T11:23:15.738Z</time></trkpt>
      <trkpt lat="29.517165" lon="101.720759"><time>2026-05-04T11:23:15.755Z</time></trkpt>
      <trkpt lat="29.517165" lon="101.720759"><time>2026-05-04T11:23:15.772Z</time></trkpt>
      <trkpt lat="29.517165" lon="101.720759"><time>2026-05-04T11:23:15.788Z</time></trkpt>
      <trkpt lat="29.517165" lon="101.720759"><time>2026-05-04T11:23:15.805Z</time></trkpt>
      <trkpt lat="29.517165" lon="101.720759"><time>2026-05-04T11:23:15.822Z</time></trkpt>
      <trkpt lat="29.517165" lon="101.720759"><time>2026-05-04T11:23:15.838Z</time></trkpt>
      <trkpt lat="29.517165" lon="101.720759"><time>2026-05-04T11:23:15.855Z</time></trkpt>
      <trkpt lat="29.517165" lon="101.720759"><time>2026-05-04T11:23:15.872Z</time></trkpt>
      <trkpt lat="29.517165" lon="101.720759"><time>2026-05-04T11:23:15.888Z</time></trkpt>
      <trkpt lat="29.517165" lon="101.720759"><time>2026-05-04T11:23:15.905Z</time></trkpt>
      <trkpt lat="29.517165" lon="101.720759"><time>2026-05-04T11:23:15.922Z</time></trkpt>
      <trkpt lat="29.517165" lon="101.720759"><time>2026-05-04T11:23:15.938Z</time></trkpt>
      <trkpt lat="29.517165" lon="101.720759"><time>2026-05-04T11:23:15.955Z</time></trkpt>
      <trkpt lat="29.517165" lon="101.720759"><time>2026-05-04T11:23:15.972Z</time></trkpt>
      <trkpt lat="29.517165" lon="101.720759"><time>2026-05-04T11:23:15.988Z</time></trkpt>
      <trkpt lat="29.517165" lon="101.720759"><time>2026-05-04T11:23:16.005Z</time></trkpt>
      <trkpt lat="29.517165" lon="101.720759"><time>2026-05-04T11:23:16.022Z</time></trkpt>
      <trkpt lat="29.517165" lon="101.720759"><time>2026-05-04T11:23:16.038Z</time></trkpt>
      <trkpt lat="29.517165" lon="101.720759"><time>2026-05-04T11:23:16.055Z</time></trkpt>
      <trkpt lat="29.517165" lon="101.720759"><time>2026-05-04T11:23:16.072Z</time></trkpt>
      <trkpt lat="29.517165" lon="101.720759"><time>2026-05-04T11:23:16.089Z</time></trkpt>
      <trkpt lat="29.517165" lon="101.720759"><time>2026-05-04T11:23:16.105Z</time></trkpt>
      <trkpt lat="29.517165" lon="101.720759"><time>2026-05-04T11:23:16.122Z</time></trkpt>
      <trkpt lat="29.517165" lon="101.720759"><time>2026-05-04T11:23:16.139Z</time></trkpt>
      <trkpt lat="29.517165" lon="101.720759"><time>2026-05-04T11:23:16.155Z</time></trkpt>
      <trkpt lat="29.517165" lon="101.720759"><time>2026-05-04T11:23:16.172Z</time></trkpt>
      <trkpt lat="29.517165" lon="101.720759"><time>2026-05-04T11:23:16.189Z</time></trkpt>
      <trkpt lat="29.517165" lon="101.720759"><time>2026-05-04T11:23:16.205Z</time></trkpt>
      <trkpt lat="29.517165" lon="101.720759"><time>2026-05-04T11:23:16.222Z</time></trkpt>
      <trkpt lat="29.517165" lon="101.720759"><time>2026-05-04T11:23:16.239Z</time></trkpt>
      <trkpt lat="29.517165" lon="101.720759"><time>2026-05-04T11:23:16.255Z</time></trkpt>
      <trkpt lat="29.517165" lon="101.720759"><time>2026-05-04T11:23:16.272Z</time></trkpt>
      <trkpt lat="29.517165" lon="101.720759"><time>2026-05-04T11:23:16.289Z</time></trkpt>
      <trkpt lat="29.517165" lon="101.720759"><time>2026-05-04T11:23:16.305Z</time></trkpt>
      <trkpt lat="29.517165" lon="101.720759"><time>2026-05-04T11:23:16.322Z</time></trkpt>
      <trkpt lat="29.517165" lon="101.720759"><time>2026-05-04T11:23:16.339Z</time></trkpt>
      <trkpt lat="29.517165" lon="101.720759"><time>2026-05-04T11:23:16.355Z</time></trkpt>
      <trkpt lat="29.517165" lon="101.720759"><time>2026-05-04T11:23:16.372Z</time></trkpt>
      <trkpt lat="29.517165" lon="101.720759"><time>2026-05-04T11:23:16.389Z</time></trkpt>
      <trkpt lat="29.517165" lon="101.720759"><time>2026-05-04T11:23:16.406Z</time></trkpt>
      <trkpt lat="29.517165" lon="101.720759"><time>2026-05-04T11:23:16.422Z</time></trkpt>
      <trkpt lat="29.517165" lon="101.720759"><time>2026-05-04T11:23:16.439Z</time></trkpt>
      <trkpt lat="29.517165" lon="101.720759"><time>2026-05-04T11:23:16.456Z</time></trkpt>
      <trkpt lat="29.517165" lon="101.720759"><time>2026-05-04T11:23:16.472Z</time></trkpt>
      <trkpt lat="29.517165" lon="101.720759"><time>2026-05-04T11:23:16.489Z</time></trkpt>
      <trkpt lat="29.517165" lon="101.720759"><time>2026-05-04T11:23:16.506Z</time></trkpt>
      <trkpt lat="29.517165" lon="101.720759"><time>2026-05-04T11:23:16.522Z</time></trkpt>
      <trkpt lat="29.517165" lon="101.720759"><time>2026-05-04T11:23:16.539Z</time></trkpt>
      <trkpt lat="29.517165" lon="101.720759"><time>2026-05-04T11:23:16.556Z</time></trkpt>
      <trkpt lat="29.517165" lon="101.720759"><time>2026-05-04T11:23:16.572Z</time></trkpt>
      <trkpt lat="29.517165" lon="101.720759"><time>2026-05-04T11:23:16.589Z</time></trkpt>
      <trkpt lat="29.517165" lon="101.720759"><time>2026-05-04T11:23:16.606Z</time></trkpt>
      <trkpt lat="29.517165" lon="101.720759"><time>2026-05-04T11:23:16.622Z</time></trkpt>
      <trkpt lat="29.517165" lon="101.720759"><time>2026-05-04T11:23:16.639Z</time></trkpt>
      <trkpt lat="29.517165" lon="101.720759"><time>2026-05-04T11:23:16.656Z</time></trkpt>
      <trkpt lat="29.517165" lon="101.720759"><time>2026-05-04T11:23:16.672Z</time></trkpt>
      <trkpt lat="29.517165" lon="101.720759"><time>2026-05-04T11:23:16.689Z</time></trkpt>
      <trkpt lat="29.517165" lon="101.720759"><time>2026-05-04T11:23:16.706Z</time></trkpt>
      <trkpt lat="29.517165" lon="101.720759"><time>2026-05-04T11:23:16.722Z</time></trkpt>
      <trkpt lat="29.517165" lon="101.720759"><time>2026-05-04T11:23:16.739Z</time></trkpt>
      <trkpt lat="29.517165" lon="101.720759"><time>2026-05-04T11:23:16.756Z</time></trkpt>
      <trkpt lat="29.517165" lon="101.720759"><time>2026-05-04T11:23:16.773Z</time></trkpt>
      <trkpt lat="29.517165" lon="101.720759"><time>2026-05-04T11:23:16.789Z</time></trkpt>
      <trkpt lat="29.517165" lon="101.720759"><time>2026-05-04T11:23:16.806Z</time></trkpt>
      <trkpt lat="29.517165" lon="101.720759"><time>2026-05-04T11:23:16.823Z</time></trkpt>
      <trkpt lat="29.517165" lon="101.720759"><time>2026-05-04T11:23:16.839Z</time></trkpt>
      <trkpt lat="29.517165" lon="101.720759"><time>2026-05-04T11:23:16.856Z</time></trkpt>
      <trkpt lat="29.517165" lon="101.720759"><time>2026-05-04T11:23:16.873Z</time></trkpt>
      <trkpt lat="29.517165" lon="101.720759"><time>2026-05-04T11:23:16.889Z</time></trkpt>
      <trkpt lat="29.517165" lon="101.720759"><time>2026-05-04T11:23:16.906Z</time></trkpt>
      <trkpt lat="29.517165" lon="101.720759"><time>2026-05-04T11:23:16.923Z</time></trkpt>
      <trkpt lat="29.517165" lon="101.720759"><time>2026-05-04T11:23:16.939Z</time></trkpt>
      <trkpt lat="29.517165" lon="101.720759"><time>2026-05-04T11:23:16.956Z</time></trkpt>
      <trkpt lat="29.517165" lon="101.720759"><time>2026-05-04T11:23:16.973Z</time></trkpt>
      <trkpt lat="29.517165" lon="101.720759"><time>2026-05-04T11:23:16.989Z</time></trkpt>
      <trkpt lat="29.517165" lon="101.720759"><time>2026-05-04T11:23:17.006Z</time></trkpt>
      <trkpt lat="29.517165" lon="101.720759"><time>2026-05-04T11:23:17.023Z</time></trkpt>
      <trkpt lat="29.517165" lon="101.720759"><time>2026-05-04T11:23:17.039Z</time></trkpt>
      <trkpt lat="29.517165" lon="101.720759"><time>2026-05-04T11:23:17.056Z</time></trkpt>
      <trkpt lat="29.517165" lon="101.720759"><time>2026-05-04T11:23:17.073Z</time></trkpt>
      <trkpt lat="29.517165" lon="101.720759"><time>2026-05-04T11:23:17.090Z</time></trkpt>
      <trkpt lat="29.517165" lon="101.720759"><time>2026-05-04T11:23:17.106Z</time></trkpt>
      <trkpt lat="29.517165" lon="101.720759"><time>2026-05-04T11:23:17.123Z</time></trkpt>
      <trkpt lat="29.517165" lon="101.720759"><time>2026-05-04T11:23:17.140Z</time></trkpt>
      <trkpt lat="29.517165" lon="101.720759"><time>2026-05-04T11:23:17.156Z</time></trkpt>
      <trkpt lat="29.517165" lon="101.720759"><time>2026-05-04T11:23:17.173Z</time></trkpt>
      <trkpt lat="29.517165" lon="101.720759"><time>2026-05-04T11:23:17.190Z</time></trkpt>
      <trkpt lat="29.517165" lon="101.720759"><time>2026-05-04T11:23:17.206Z</time></trkpt>
      <trkpt lat="29.517165" lon="101.720759"><time>2026-05-04T11:23:17.223Z</time></trkpt>
      <trkpt lat="29.517165" lon="101.720759"><time>2026-05-04T11:23:17.240Z</time></trkpt>
      <trkpt lat="29.517165" lon="101.720759"><time>2026-05-04T11:23:17.256Z</time></trkpt>
      <trkpt lat="29.517165" lon="101.720759"><time>2026-05-04T11:23:17.273Z</time></trkpt>
      <trkpt lat="29.517166" lon="101.720759"><time>2026-05-04T11:23:17.290Z</time></trkpt>
      <trkpt lat="29.517166" lon="101.720759"><time>2026-05-04T11:23:17.306Z</time></trkpt>
      <trkpt lat="29.517166" lon="101.720759"><time>2026-05-04T11:23:17.323Z</time></trkpt>
      <trkpt lat="29.517166" lon="101.720759"><time>2026-05-04T11:23:17.340Z</time></trkpt>
      <trkpt lat="29.517166" lon="101.720759"><time>2026-05-04T11:23:17.356Z</time></trkpt>
      <trkpt lat="29.517166" lon="101.720759"><time>2026-05-04T11:23:17.373Z</time></trkpt>
      <trkpt lat="29.517166" lon="101.720759"><time>2026-05-04T11:23:17.390Z</time></trkpt>
      <trkpt lat="29.517166" lon="101.720759"><time>2026-05-04T11:23:17.407Z</time></trkpt>
      <trkpt lat="29.517166" lon="101.720759"><time>2026-05-04T11:23:17.423Z</time></trkpt>
      <trkpt lat="29.517166" lon="101.720759"><time>2026-05-04T11:23:17.440Z</time></trkpt>
      <trkpt lat="29.517166" lon="101.720759"><time>2026-05-04T11:23:17.457Z</time></trkpt>
      <trkpt lat="29.517166" lon="101.720759"><time>2026-05-04T11:23:17.473Z</time></trkpt>
      <trkpt lat="29.517166" lon="101.720759"><time>2026-05-04T11:23:17.490Z</time></trkpt>
      <trkpt lat="29.517166" lon="101.720759"><time>2026-05-04T11:23:17.507Z</time></trkpt>
      <trkpt lat="29.517166" lon="101.720759"><time>2026-05-04T11:23:17.523Z</time></trkpt>
      <trkpt lat="29.517166" lon="101.720759"><time>2026-05-04T11:23:17.540Z</time></trkpt>
      <trkpt lat="29.517166" lon="101.720759"><time>2026-05-04T11:23:17.557Z</time></trkpt>
      <trkpt lat="29.517166" lon="101.720759"><time>2026-05-04T11:23:17.573Z</time></trkpt>
      <trkpt lat="29.517166" lon="101.720759"><time>2026-05-04T11:23:17.590Z</time></trkpt>
      <trkpt lat="29.517166" lon="101.720759"><time>2026-05-04T11:23:17.607Z</time></trkpt>
      <trkpt lat="29.517166" lon="101.720759"><time>2026-05-04T11:23:17.623Z</time></trkpt>
      <trkpt lat="29.517166" lon="101.720759"><time>2026-05-04T11:23:17.640Z</time></trkpt>
      <trkpt lat="29.517166" lon="101.720759"><time>2026-05-04T11:23:17.657Z</time></trkpt>
      <trkpt lat="29.517166" lon="101.720759"><time>2026-05-04T11:23:17.673Z</time></trkpt>
      <trkpt lat="29.517166" lon="101.720759"><time>2026-05-04T11:23:17.690Z</time></trkpt>
      <trkpt lat="29.517166" lon="101.720759"><time>2026-05-04T11:23:17.707Z</time></trkpt>
      <trkpt lat="29.517166" lon="101.720759"><time>2026-05-04T11:23:17.724Z</time></trkpt>
      <trkpt lat="29.517166" lon="101.720759"><time>2026-05-04T11:23:17.740Z</time></trkpt>
      <trkpt lat="29.517166" lon="101.720759"><time>2026-05-04T11:23:17.757Z</time></trkpt>
      <trkpt lat="29.517166" lon="101.720759"><time>2026-05-04T11:23:17.774Z</time></trkpt>
      <trkpt lat="29.517166" lon="101.72076"><time>2026-05-04T11:23:17.790Z</time></trkpt>
      <trkpt lat="29.517166" lon="101.72076"><time>2026-05-04T11:23:17.807Z</time></trkpt>
      <trkpt lat="29.517166" lon="101.72076"><time>2026-05-04T11:23:17.824Z</time></trkpt>
      <trkpt lat="29.517166" lon="101.72076"><time>2026-05-04T11:23:17.840Z</time></trkpt>
      <trkpt lat="29.517166" lon="101.72076"><time>2026-05-04T11:23:17.857Z</time></trkpt>
      <trkpt lat="29.517166" lon="101.72076"><time>2026-05-04T11:23:17.874Z</time></trkpt>
      <trkpt lat="29.517166" lon="101.72076"><time>2026-05-04T11:23:17.890Z</time></trkpt>
      <trkpt lat="29.517166" lon="101.72076"><time>2026-05-04T11:23:17.907Z</time></trkpt>
      <trkpt lat="29.517166" lon="101.72076"><time>2026-05-04T11:23:17.924Z</time></trkpt>
      <trkpt lat="29.517166" lon="101.72076"><time>2026-05-04T11:23:17.940Z</time></trkpt>
      <trkpt lat="29.517166" lon="101.72076"><time>2026-05-04T11:23:17.957Z</time></trkpt>
      <trkpt lat="29.517166" lon="101.72076"><time>2026-05-04T11:23:17.974Z</time></trkpt>
      <trkpt lat="29.517165" lon="101.72076"><time>2026-05-04T11:23:17.990Z</time></trkpt>
      <trkpt lat="29.517165" lon="101.72076"><time>2026-05-04T11:23:18.007Z</time></trkpt>
      <trkpt lat="29.517165" lon="101.72076"><time>2026-05-04T11:23:18.024Z</time></trkpt>
      <trkpt lat="29.517165" lon="101.72076"><time>2026-05-04T11:23:18.041Z</time></trkpt>
      <trkpt lat="29.517165" lon="101.72076"><time>2026-05-04T11:23:18.057Z</time></trkpt>
    </trkseg>
  </trk>
</gpx>
