<?xml version="1.0" encoding="UTF-8"?>
<gpx version="1.1" creator="Kairos" xmlns="http://www.topografix.com/GPX/1/1">
  <trk>
    <name>sidecar-srt-1f83d34492752b32</name>
    <trkseg>
      <trkpt lat="0" lon="0"><time>2026-04-30T04:06:52.000Z</time></trkpt>
      <trkpt lat="0" lon="0"><time>2026-04-30T04:06:52.016Z</time></trkpt>
      <trkpt lat="0" lon="0"><time>2026-04-30T04:06:52.032Z</time></trkpt>
      <trkpt lat="0" lon="0"><time>2026-04-30T04:06:52.049Z</time></trkpt>
      <trkpt lat="0" lon="0"><time>2026-04-30T04:06:52.066Z</time></trkpt>
      <trkpt lat="0" lon="0"><time>2026-04-30T04:06:52.082Z</time></trkpt>
      <trkpt lat="0" lon="0"><time>2026-04-30T04:06:52.099Z</time></trkpt>
      <trkpt lat="0" lon="0"><time>2026-04-30T04:06:52.116Z</time></trkpt>
      <trkpt lat="0" lon="0"><time>2026-04-30T04:06:52.132Z</time></trkpt>
      <trkpt lat="0" lon="0"><time>2026-04-30T04:06:52.149Z</time></trkpt>
      <trkpt lat="0" lon="0"><time>2026-04-30T04:06:52.166Z</time></trkpt>
      <trkpt lat="0" lon="0"><time>2026-04-30T04:06:52.182Z</time></trkpt>
      <trkpt lat="0" lon="0"><time>2026-04-30T04:06:52.199Z</time></trkpt>
      <trkpt lat="0" lon="0"><time>2026-04-30T04:06:52.216Z</time></trkpt>
      <trkpt lat="0" lon="0"><time>2026-04-30T04:06:52.232Z</time></trkpt>
      <trkpt lat="0" lon="0"><time>2026-04-30T04:06:52.249Z</time></trkpt>
      <trkpt lat="0" lon="0"><time>2026-04-30T04:06:52.266Z</time></trkpt>
      <trkpt lat="0" lon="0"><time>2026-04-30T04:06:52.282Z</time></trkpt>
      <trkpt lat="0" lon="0"><time>2026-04-30T04:06:52.299Z</time></trkpt>
      <trkpt lat="0" lon="0"><time>2026-04-30T04:06:52.316Z</time></trkpt>
      <trkpt lat="0" lon="0"><time>2026-04-30T04:06:52.333Z</time></trkpt>
      <trkpt lat="0" lon="0"><time>2026-04-30T04:06:52.349Z</time></trkpt>
      <trkpt lat="0" lon="0"><time>2026-04-30T04:06:52.366Z</time></trkpt>
      <trkpt lat="0" lon="0"><time>2026-04-30T04:06:52.383Z</time></trkpt>
      <trkpt lat="0" lon="0"><time>2026-04-30T04:06:52.399Z</time></trkpt>
      <trkpt lat="0" lon="0"><time>2026-04-30T04:06:52.416Z</time></trkpt>
      <trkpt lat="0" lon="0"><time>2026-04-30T04:06:52.433Z</time></trkpt>
      <trkpt lat="0" lon="0"><time>2026-04-30T04:06:52.449Z</time></trkpt>
      <trkpt lat="0" lon="0"><time>2026-04-30T04:06:52.466Z</time></trkpt>
      <trkpt lat="0" lon="0"><time>2026-04-30T04:06:52.483Z</time></trkpt>
      <trkpt lat="0" lon="0"><time>2026-04-30T04:06:52.499Z</time></trkpt>
      <trkpt lat="0" lon="0"><time>2026-04-30T04:06:52.516Z</time></trkpt>
      <trkpt lat="0" lon="0"><time>2026-04-30T04:06:52.533Z</time></trkpt>
      <trkpt lat="0" lon="0"><time>2026-04-30T04:06:52.549Z</time></trkpt>
      <trkpt lat="0" lon="0"><time>2026-04-30T04:06:52.566Z</time></trkpt>
      <trkpt lat="0" lon="0"><time>2026-04-30T04:06:52.583Z</time></trkpt>
      <trkpt lat="0" lon="0"><time>2026-04-30T04:06:52.599Z</time></trkpt>
      <trkpt lat="0" lon="0"><time>2026-04-30T04:06:52.616Z</time></trkpt>
      <trkpt lat="0" lon="0"><time>2026-04-30T04:06:52.633Z</time></trkpt>
      <trkpt lat="0" lon="0"><time>2026-04-30T04:06:52.650Z</time></trkpt>
      <trkpt lat="0" lon="0"><time>2026-04-30T04:06:52.666Z</time></trkpt>
      <trkpt lat="0" lon="0"><time>2026-04-30T04:06:52.683Z</time></trkpt>
      <trkpt lat="0" lon="0"><time>2026-04-30T04:06:52.700Z</time></trkpt>
      <trkpt lat="0" lon="0"><time>2026-04-30T04:06:52.716Z</time></trkpt>
      <trkpt lat="0" lon="0"><time>2026-04-30T04:06:52.733Z</time></trkpt>
      <trkpt lat="0" lon="0"><time>2026-04-30T04:06:52.750Z</time></trkpt>
      <trkpt lat="0" lon="0"><time>2026-04-30T04:06:52.766Z</time></trkpt>
      <trkpt lat="0" lon="0"><time>2026-04-30T04:06:52.783Z</time></trkpt>
      <trkpt lat="0" lon="0"><time>2026-04-30T04:06:52.800Z</time></trkpt>
      <trkpt lat="0" lon="0"><time>2026-04-30T04:06:52.816Z</time></trkpt>
      <trkpt lat="0" lon="0"><time>2026-04-30T04:06:52.833Z</time></trkpt>
      <trkpt lat="0" lon="0"><time>2026-04-30T04:06:52.850Z</time></trkpt>
      <trkpt lat="0" lon="0"><time>2026-04-30T04:06:52.866Z</time></trkpt>
      <trkpt lat="0" lon="0"><time>2026-04-30T04:06:52.883Z</time></trkpt>
      <trkpt lat="0" lon="0"><time>2026-04-30T04:06:52.900Z</time></trkpt>
      <trkpt lat="0" lon="0"><time>2026-04-30T04:06:52.916Z</time></trkpt>
      <trkpt lat="0" lon="0"><time>2026-04-30T04:06:52.933Z</time></trkpt>
      <trkpt lat="0" lon="0"><time>2026-04-30T04:06:52.950Z</time></trkpt>
      <trkpt lat="0" lon="0"><time>2026-04-30T04:06:52.967Z</time></trkpt>
      <trkpt lat="0" lon="0"><time>2026-04-30T04:06:52.983Z</time></trkpt>
      <trkpt lat="0" lon="0"><time>2026-04-30T04:06:53.000Z</time></trkpt>
      <trkpt lat="0" lon="0"><time>2026-04-30T04:06:53.017Z</time></trkpt>
      <trkpt lat="0" lon="0"><time>2026-04-30T04:06:53.033Z</time></trkpt>
      <trkpt lat="0" lon="0"><time>2026-04-30T04:06:53.050Z</time></trkpt>
      <trkpt lat="0" lon="0"><time>2026-04-30T04:06:53.067Z</time></trkpt>
      <trkpt lat="0" lon="0"><time>2026-04-30T04:06:53.083Z</time></trkpt>
      <trkpt lat="0" lon="0"><time>2026-04-30T04:06:53.100Z</time></trkpt>
      <trkpt lat="0" lon="0"><time>2026-04-30T04:06:53.117Z</time></trkpt>
      <trkpt lat="0" lon="0"><time>2026-04-30T04:06:53.133Z</time></trkpt>
      <trkpt lat="0" lon="0"><time>2026-04-30T04:06:53.150Z</time></trkpt>
      <trkpt lat="0" lon="0"><time>2026-04-30T04:06:53.167Z</time></trkpt>
      <trkpt lat="0" lon="0"><time>2026-04-30T04:06:53.183Z</time></trkpt>
      <trkpt lat="0" lon="0"><time>2026-04-30T04:06:53.200Z</time></trkpt>
      <trkpt lat="0" lon="0"><time>2026-04-30T04:06:53.217Z</time></trkpt>
      <trkpt lat="0" lon="0"><time>2026-04-30T04:06:53.233Z</time></trkpt>
      <trkpt lat="0" lon="0"><time>2026-04-30T04:06:53.250Z</time></trkpt>
      <trkpt lat="0" lon="0"><time>2026-04-30T04:06:53.267Z</time></trkpt>
      <trkpt lat="0" lon="0"><time>2026-04-30T04:06:53.284Z</time></trkpt>
      <trkpt lat="0" lon="0"><time>2026-04-30T04:06:53.300Z</time></trkpt>
      <trkpt lat="0" lon="0"><time>2026-04-30T04:06:53.317Z</time></trkpt>
      <trkpt lat="0" lon="0"><time>2026-04-30T04:06:53.334Z</time></trkpt>
      <trkpt lat="0" lon="0"><time>2026-04-30T04:06:53.350Z</time></trkpt>
      <trkpt lat="0" lon="0"><time>2026-04-30T04:06:53.367Z</time></trkpt>
      <trkpt lat="0" lon="0"><time>2026-04-30T04:06:53.384Z</time></trkpt>
      <trkpt lat="0" lon="0"><time>2026-04-30T04:06:53.400Z</time></trkpt>
      <trkpt lat="0" lon="0"><time>2026-04-30T04:06:53.417Z</time></trkpt>
      <trkpt lat="0" lon="0"><time>2026-04-30T04:06:53.434Z</time></trkpt>
      <trkpt lat="0" lon="0"><time>2026-04-30T04:06:53.450Z</time></trkpt>
      <trkpt lat="0" lon="0"><time>2026-04-30T04:06:53.467Z</time></trkpt>
      <trkpt lat="0" lon="0"><time>2026-04-30T04:06:53.484Z</time></trkpt>
      <trkpt lat="0" lon="0"><time>2026-04-30T04:06:53.500Z</time></trkpt>
      <trkpt lat="0" lon="0"><time>2026-04-30T04:06:53.517Z</time></trkpt>
      <trkpt lat="0" lon="0"><time>2026-04-30T04:06:53.534Z</time></trkpt>
      <trkpt lat="0" lon="0"><time>2026-04-30T04:06:53.550Z</time></trkpt>
      <trkpt lat="0" lon="0"><time>2026-04-30T04:06:53.567Z</time></trkpt>
      <trkpt lat="0" lon="0"><time>2026-04-30T04:06:53.584Z</time></trkpt>
      <trkpt lat="0" lon="0"><time>2026-04-30T04:06:53.601Z</time></trkpt>
      <trkpt lat="0" lon="0"><time>2026-04-30T04:06:53.617Z</time></trkpt>
      <trkpt lat="0" lon="0"><time>2026-04-30T04:06:53.634Z</time></trkpt>
      <trkpt lat="0" lon="0"><time>2026-04-30T04:06:53.651Z</time></trkpt>
      <trkpt lat="0" lon="0"><time>2026-04-30T04:06:53.667Z</time></trkpt>
      <trkpt lat="0" lon="0"><time>2026-04-30T04:06:53.684Z</time></trkpt>
      <trkpt lat="0" lon="0"><time>2026-04-30T04:06:53.701Z</time></trkpt>
      <trkpt lat="0" lon="0"><time>2026-04-30T04:06:53.717Z</time></trkpt>
      <trkpt lat="0" lon="0"><time>2026-04-30T04:06:53.734Z</time></trkpt>
      <trkpt lat="0" lon="0"><time>2026-04-30T04:06:53.751Z</time></trkpt>
      <trkpt lat="0" lon="0"><time>2026-04-30T04:06:53.767Z</time></trkpt>
      <trkpt lat="0" lon="0"><time>2026-04-30T04:06:53.784Z</time></trkpt>
      <trkpt lat="0" lon="0"><time>2026-04-30T04:06:53.801Z</time></trkpt>
      <trkpt lat="0" lon="0"><time>2026-04-30T04:06:53.817Z</time></trkpt>
      <trkpt lat="0" lon="0"><time>2026-04-30T04:06:53.834Z</time></trkpt>
      <trkpt lat="0" lon="0"><time>2026-04-30T04:06:53.851Z</time></trkpt>
      <trkpt lat="0" lon="0"><time>2026-04-30T04:06:53.867Z</time></trkpt>
      <trkpt lat="0" lon="0"><time>2026-04-30T04:06:53.884Z</time></trkpt>
      <trkpt lat="0" lon="0"><time>2026-04-30T04:06:53.901Z</time></trkpt>
      <trkpt lat="0" lon="0"><time>2026-04-30T04:06:53.917Z</time></trkpt>
      <trkpt lat="0" lon="0"><time>2026-04-30T04:06:53.934Z</time></trkpt>
      <trkpt lat="0" lon="0"><time>2026-04-30T04:06:53.951Z</time></trkpt>
      <trkpt lat="0" lon="0"><time>2026-04-30T04:06:53.968Z</time></trkpt>
      <trkpt lat="0" lon="0"><time>2026-04-30T04:06:53.984Z</time></trkpt>
      <trkpt lat="0" lon="0"><time>2026-04-30T04:06:54.001Z</time></trkpt>
      <trkpt lat="0" lon="0"><time>2026-04-30T04:06:54.018Z</time></trkpt>
      <trkpt lat="0" lon="0"><time>2026-04-30T04:06:54.034Z</time></trkpt>
      <trkpt lat="0" lon="0"><time>2026-04-30T04:06:54.051Z</time></trkpt>
      <trkpt lat="0" lon="0"><time>2026-04-30T04:06:54.068Z</time></trkpt>
      <trkpt lat="0" lon="0"><time>2026-04-30T04:06:54.084Z</time></trkpt>
      <trkpt lat="0" lon="0"><time>2026-04-30T04:06:54.101Z</time></trkpt>
      <trkpt lat="0" lon="0"><time>2026-04-30T04:06:54.118Z</time></trkpt>
      <trkpt lat="0" lon="0"><time>2026-04-30T04:06:54.134Z</time></trkpt>
      <trkpt lat="0" lon="0"><time>2026-04-30T04:06:54.151Z</time></trkpt>
      <trkpt lat="0" lon="0"><time>2026-04-30T04:06:54.168Z</time></trkpt>
      <trkpt lat="0" lon="0"><time>2026-04-30T04:06:54.184Z</time></trkpt>
      <trkpt lat="0" lon="0"><time>2026-04-30T04:06:54.201Z</time></trkpt>
      <trkpt lat="0" lon="0"><time>2026-04-30T04:06:54.218Z</time></trkpt>
      <trkpt lat="0" lon="0"><time>2026-04-30T04:06:54.234Z</time></trkpt>
      <trkpt lat="0" lon="0"><time>2026-04-30T04:06:54.251Z</time></trkpt>
      <trkpt lat="0" lon="0"><time>2026-04-30T04:06:54.268Z</time></trkpt>
      <trkpt lat="0" lon="0"><time>2026-04-30T04:06:54.285Z</time></trkpt>
      <trkpt lat="0" lon="0"><time>2026-04-30T04:06:54.301Z</time></trkpt>
      <trkpt lat="0" lon="0"><time>2026-04-30T04:06:54.318Z</time></trkpt>
      <trkpt lat="0" lon="0"><time>2026-04-30T04:06:54.335Z</time></trkpt>
      <trkpt lat="0" lon="0"><time>2026-04-30T04:06:54.351Z</time></trkpt>
      <trkpt lat="0" lon="0"><time>2026-04-30T04:06:54.368Z</time></trkpt>
      <trkpt lat="0" lon="0"><time>2026-04-30T04:06:54.385Z</time></trkpt>
      <trkpt lat="0" lon="0"><time>2026-04-30T04:06:54.401Z</time></trkpt>
      <trkpt lat="0" lon="0"><time>2026-04-30T04:06:54.418Z</time></trkpt>
      <trkpt lat="0" lon="0"><time>2026-04-30T04:06:54.435Z</time></trkpt>
      <trkpt lat="0" lon="0"><time>2026-04-30T04:06:54.451Z</time></trkpt>
      <trkpt lat="0" lon="0"><time>2026-04-30T04:06:54.468Z</time></trkpt>
      <trkpt lat="0" lon="0"><time>2026-04-30T04:06:54.485Z</time></trkpt>
      <trkpt lat="0" lon="0"><time>2026-04-30T04:06:54.501Z</time></trkpt>
      <trkpt lat="0" lon="0"><time>2026-04-30T04:06:54.518Z</time></trkpt>
      <trkpt lat="0" lon="0"><time>2026-04-30T04:06:54.535Z</time></trkpt>
      <trkpt lat="0" lon="0"><time>2026-04-30T04:06:54.551Z</time></trkpt>
      <trkpt lat="0" lon="0"><time>2026-04-30T04:06:54.568Z</time></trkpt>
      <trkpt lat="0" lon="0"><time>2026-04-30T04:06:54.585Z</time></trkpt>
      <trkpt lat="0" lon="0"><time>2026-04-30T04:06:54.602Z</time></trkpt>
      <trkpt lat="0" lon="0"><time>2026-04-30T04:06:54.618Z</time></trkpt>
      <trkpt lat="0" lon="0"><time>2026-04-30T04:06:54.635Z</time></trkpt>
      <trkpt lat="0" lon="0"><time>2026-04-30T04:06:54.652Z</time></trkpt>
      <trkpt lat="0" lon="0"><time>2026-04-30T04:06:54.668Z</time></trkpt>
      <trkpt lat="0" lon="0"><time>2026-04-30T04:06:54.685Z</time></trkpt>
      <trkpt lat="0" lon="0"><time>2026-04-30T04:06:54.702Z</time></trkpt>
      <trkpt lat="0" lon="0"><time>2026-04-30T04:06:54.718Z</time></trkpt>
      <trkpt lat="0" lon="0"><time>2026-04-30T04:06:54.735Z</time></trkpt>
      <trkpt lat="0" lon="0"><time>2026-04-30T04:06:54.752Z</time></trkpt>
      <trkpt lat="0" lon="0"><time>2026-04-30T04:06:54.768Z</time></trkpt>
      <trkpt lat="0" lon="0"><time>2026-04-30T04:06:54.785Z</time></trkpt>
      <trkpt lat="0" lon="0"><time>2026-04-30T04:06:54.802Z</time></trkpt>
      <trkpt lat="0" lon="0"><time>2026-04-30T04:06:54.818Z</time></trkpt>
      <trkpt lat="0" lon="0"><time>2026-04-30T04:06:54.835Z</time></trkpt>
      <trkpt lat="0" lon="0"><time>2026-04-30T04:06:54.852Z</time></trkpt>
      <trkpt lat="0" lon="0"><time>2026-04-30T04:06:54.868Z</time></trkpt>
      <trkpt lat="0" lon="0"><time>2026-04-30T04:06:54.885Z</time></trkpt>
      <trkpt lat="0" lon="0"><time>2026-04-30T04:06:54.902Z</time></trkpt>
      <trkpt lat="0" lon="0"><time>2026-04-30T04:06:54.919Z</time></trkpt>
      <trkpt lat="0" lon="0"><time>2026-04-30T04:06:54.935Z</time></trkpt>
      <trkpt lat="0" lon="0"><time>2026-04-30T04:06:54.952Z</time></trkpt>
      <trkpt lat="0" lon="0"><time>2026-04-30T04:06:54.969Z</time></trkpt>
      <trkpt lat="0" lon="0"><time>2026-04-30T04:06:54.985Z</time></trkpt>
      <trkpt lat="0" lon="0"><time>2026-04-30T04:06:55.002Z</time></trkpt>
      <trkpt lat="0" lon="0"><time>2026-04-30T04:06:55.019Z</time></trkpt>
      <trkpt lat="0" lon="0"><time>2026-04-30T04:06:55.035Z</time></trkpt>
      <trkpt lat="0" lon="0"><time>2026-04-30T04:06:55.052Z</time></trkpt>
      <trkpt lat="0" lon="0"><time>2026-04-30T04:06:55.069Z</time></trkpt>
      <trkpt lat="0" lon="0"><time>2026-04-30T04:06:55.085Z</time></trkpt>
      <trkpt lat="0" lon="0"><time>2026-04-30T04:06:55.102Z</time></trkpt>
      <trkpt lat="0" lon="0"><time>2026-04-30T04:06:55.119Z</time></trkpt>
      <trkpt lat="0" lon="0"><time>2026-04-30T04:06:55.135Z</time></trkpt>
      <trkpt lat="0" lon="0"><time>2026-04-30T04:06:55.152Z</time></trkpt>
      <trkpt lat="0" lon="0"><time>2026-04-30T04:06:55.169Z</time></trkpt>
      <trkpt lat="0" lon="0"><time>2026-04-30T04:06:55.185Z</time></trkpt>
      <trkpt lat="0" lon="0"><time>2026-04-30T04:06:55.202Z</time></trkpt>
      <trkpt lat="0" lon="0"><time>2026-04-30T04:06:55.219Z</time></trkpt>
      <trkpt lat="0" lon="0"><time>2026-04-30T04:06:55.236Z</time></trkpt>
      <trkpt lat="0" lon="0"><time>2026-04-30T04:06:55.252Z</time></trkpt>
      <trkpt lat="0" lon="0"><time>2026-04-30T04:06:55.269Z</time></trkpt>
      <trkpt lat="0" lon="0"><time>2026-04-30T04:06:55.286Z</time></trkpt>
      <trkpt lat="0" lon="0"><time>2026-04-30T04:06:55.302Z</time></trkpt>
      <trkpt lat="0" lon="0"><time>2026-04-30T04:06:55.319Z</time></trkpt>
      <trkpt lat="0" lon="0"><time>2026-04-30T04:06:55.336Z</time></trkpt>
      <trkpt lat="0" lon="0"><time>2026-04-30T04:06:55.352Z</time></trkpt>
      <trkpt lat="0" lon="0"><time>2026-04-30T04:06:55.369Z</time></trkpt>
      <trkpt lat="0" lon="0"><time>2026-04-30T04:06:55.386Z</time></trkpt>
      <trkpt lat="0" lon="0"><time>2026-04-30T04:06:55.402Z</time></trkpt>
      <trkpt lat="0" lon="0"><time>2026-04-30T04:06:55.419Z</time></trkpt>
      <trkpt lat="0" lon="0"><time>2026-04-30T04:06:55.436Z</time></trkpt>
      <trkpt lat="0" lon="0"><time>2026-04-30T04:06:55.452Z</time></trkpt>
      <trkpt lat="0" lon="0"><time>2026-04-30T04:06:55.469Z</time></trkpt>
      <trkpt lat="0" lon="0"><time>2026-04-30T04:06:55.486Z</time></trkpt>
      <trkpt lat="0" lon="0"><time>2026-04-30T04:06:55.502Z</time></trkpt>
      <trkpt lat="0" lon="0"><time>2026-04-30T04:06:55.519Z</time></trkpt>
      <trkpt lat="0" lon="0"><time>2026-04-30T04:06:55.536Z</time></trkpt>
      <trkpt lat="0" lon="0"><time>2026-04-30T04:06:55.553Z</time></trkpt>
      <trkpt lat="0" lon="0"><time>2026-04-30T04:06:55.569Z</time></trkpt>
      <trkpt lat="0" lon="0"><time>2026-04-30T04:06:55.586Z</time></trkpt>
      <trkpt lat="0" lon="0"><time>2026-04-30T04:06:55.603Z</time></trkpt>
      <trkpt lat="0" lon="0"><time>2026-04-30T04:06:55.619Z</time></trkpt>
      <trkpt lat="0" lon="0"><time>2026-04-30T04:06:55.636Z</time></trkpt>
      <trkpt lat="0" lon="0"><time>2026-04-30T04:06:55.653Z</time></trkpt>
      <trkpt lat="0" lon="0"><time>2026-04-30T04:06:55.669Z</time></trkpt>
      <trkpt lat="0" lon="0"><time>2026-04-30T04:06:55.686Z</time></trkpt>
      <trkpt lat="0" lon="0"><time>2026-04-30T04:06:55.703Z</time></trkpt>
      <trkpt lat="0" lon="0"><time>2026-04-30T04:06:55.719Z</time></trkpt>
      <trkpt lat="0" lon="0"><time>2026-04-30T04:06:55.736Z</time></trkpt>
      <trkpt lat="0" lon="0"><time>2026-04-30T04:06:55.753Z</time></trkpt>
      <trkpt lat="0" lon="0"><time>2026-04-30T04:06:55.769Z</time></trkpt>
      <trkpt lat="0" lon="0"><time>2026-04-30T04:06:55.786Z</time></trkpt>
      <trkpt lat="0" lon="0"><time>2026-04-30T04:06:55.803Z</time></trkpt>
      <trkpt lat="0" lon="0"><time>2026-04-30T04:06:55.819Z</time></trkpt>
      <trkpt lat="0" lon="0"><time>2026-04-30T04:06:55.836Z</time></trkpt>
      <trkpt lat="0" lon="0"><time>2026-04-30T04:06:55.853Z</time></trkpt>
      <trkpt lat="0" lon="0"><time>2026-04-30T04:06:55.870Z</time></trkpt>
      <trkpt lat="0" lon="0"><time>2026-04-30T04:06:55.886Z</time></trkpt>
      <trkpt lat="0" lon="0"><time>2026-04-30T04:06:55.903Z</time></trkpt>
      <trkpt lat="0" lon="0"><time>2026-04-30T04:06:55.920Z</time></trkpt>
      <trkpt lat="0" lon="0"><time>2026-04-30T04:06:55.936Z</time></trkpt>
      <trkpt lat="0" lon="0"><time>2026-04-30T04:06:55.953Z</time></trkpt>
      <trkpt lat="0" lon="0"><time>2026-04-30T04:06:55.970Z</time></trkpt>
      <trkpt lat="0" lon="0"><time>2026-04-30T04:06:55.986Z</time></trkpt>
      <trkpt lat="0" lon="0"><time>2026-04-30T04:06:56.003Z</time></trkpt>
      <trkpt lat="0" lon="0"><time>2026-04-30T04:06:56.020Z</time></trkpt>
      <trkpt lat="0" lon="0"><time>2026-04-30T04:06:56.036Z</time></trkpt>
      <trkpt lat="0" lon="0"><time>2026-04-30T04:06:56.053Z</time></trkpt>
      <trkpt lat="0" lon="0"><time>2026-04-30T04:06:56.070Z</time></trkpt>
      <trkpt lat="0" lon="0"><time>2026-04-30T04:06:56.086Z</time></trkpt>
      <trkpt lat="0" lon="0"><time>2026-04-30T04:06:56.103Z</time></trkpt>
      <trkpt lat="0" lon="0"><time>2026-04-30T04:06:56.120Z</time></trkpt>
      <trkpt lat="0" lon="0"><time>2026-04-30T04:06:56.136Z</time></trkpt>
      <trkpt lat="0" lon="0"><time>2026-04-30T04:06:56.153Z</time></trkpt>
      <trkpt lat="0" lon="0"><time>2026-04-30T04:06:56.170Z</time></trkpt>
      <trkpt lat="0" lon="0"><time>2026-04-30T04:06:56.187Z</time></trkpt>
      <trkpt lat="0" lon="0"><time>2026-04-30T04:06:56.203Z</time></trkpt>
      <trkpt lat="0" lon="0"><time>2026-04-30T04:06:56.220Z</time></trkpt>
      <trkpt lat="0" lon="0"><time>2026-04-30T04:06:56.237Z</time></trkpt>
      <trkpt lat="0" lon="0"><time>2026-04-30T04:06:56.253Z</time></trkpt>
      <trkpt lat="0" lon="0"><time>2026-04-30T04:06:56.270Z</time></trkpt>
      <trkpt lat="0" lon="0"><time>2026-04-30T04:06:56.287Z</time></trkpt>
      <trkpt lat="0" lon="0"><time>2026-04-30T04:06:56.303Z</time></trkpt>
      <trkpt lat="0" lon="0"><time>2026-04-30T04:06:56.320Z</time></trkpt>
      <trkpt lat="0" lon="0"><time>2026-04-30T04:06:56.337Z</time></trkpt>
      <trkpt lat="0" lon="0"><time>2026-04-30T04:06:56.353Z</time></trkpt>
      <trkpt lat="0" lon="0"><time>2026-04-30T04:06:56.370Z</time></trkpt>
      <trkpt lat="0" lon="0"><time>2026-04-30T04:06:56.387Z</time></trkpt>
      <trkpt lat="0" lon="0"><time>2026-04-30T04:06:56.403Z</time></trkpt>
      <trkpt lat="0" lon="0"><time>2026-04-30T04:06:56.420Z</time></trkpt>
      <trkpt lat="0" lon="0"><time>2026-04-30T04:06:56.437Z</time></trkpt>
      <trkpt lat="0" lon="0"><time>2026-04-30T04:06:56.453Z</time></trkpt>
      <trkpt lat="0" lon="0"><time>2026-04-30T04:06:56.470Z</time></trkpt>
      <trkpt lat="0" lon="0"><time>2026-04-30T04:06:56.487Z</time></trkpt>
      <trkpt lat="0" lon="0"><time>2026-04-30T04:06:56.504Z</time></trkpt>
      <trkpt lat="0" lon="0"><time>2026-04-30T04:06:56.520Z</time></trkpt>
      <trkpt lat="0" lon="0"><time>2026-04-30T04:06:56.537Z</time></trkpt>
      <trkpt lat="0" lon="0"><time>2026-04-30T04:06:56.554Z</time></trkpt>
      <trkpt lat="0" lon="0"><time>2026-04-30T04:06:56.570Z</time></trkpt>
      <trkpt lat="0" lon="0"><time>2026-04-30T04:06:56.587Z</time></trkpt>
      <trkpt lat="0" lon="0"><time>2026-04-30T04:06:56.604Z</time></trkpt>
      <trkpt lat="0" lon="0"><time>2026-04-30T04:06:56.620Z</time></trkpt>
      <trkpt lat="0" lon="0"><time>2026-04-30T04:06:56.637Z</time></trkpt>
      <trkpt lat="0" lon="0"><time>2026-04-30T04:06:56.654Z</time></trkpt>
      <trkpt lat="0" lon="0"><time>2026-04-30T04:06:56.670Z</time></trkpt>
      <trkpt lat="0" lon="0"><time>2026-04-30T04:06:56.687Z</time></trkpt>
      <trkpt lat="0" lon="0"><time>2026-04-30T04:06:56.704Z</time></trkpt>
      <trkpt lat="0" lon="0"><time>2026-04-30T04:06:56.720Z</time></trkpt>
      <trkpt lat="0" lon="0"><time>2026-04-30T04:06:56.737Z</time></trkpt>
      <trkpt lat="0" lon="0"><time>2026-04-30T04:06:56.754Z</time></trkpt>
      <trkpt lat="0" lon="0"><time>2026-04-30T04:06:56.770Z</time></trkpt>
      <trkpt lat="0" lon="0"><time>2026-04-30T04:06:56.787Z</time></trkpt>
      <trkpt lat="0" lon="0"><time>2026-04-30T04:06:56.804Z</time></trkpt>
      <trkpt lat="0" lon="0"><time>2026-04-30T04:06:56.821Z</time></trkpt>
      <trkpt lat="0" lon="0"><time>2026-04-30T04:06:56.837Z</time></trkpt>
      <trkpt lat="0" lon="0"><time>2026-04-30T04:06:56.854Z</time></trkpt>
      <trkpt lat="0" lon="0"><time>2026-04-30T04:06:56.871Z</time></trkpt>
      <trkpt lat="0" lon="0"><time>2026-04-30T04:06:56.887Z</time></trkpt>
      <trkpt lat="0" lon="0"><time>2026-04-30T04:06:56.904Z</time></trkpt>
      <trkpt lat="0" lon="0"><time>2026-04-30T04:06:56.921Z</time></trkpt>
      <trkpt lat="0" lon="0"><time>2026-04-30T04:06:56.937Z</time></trkpt>
      <trkpt lat="0" lon="0"><time>2026-04-30T04:06:56.954Z</time></trkpt>
      <trkpt lat="0" lon="0"><time>2026-04-30T04:06:56.971Z</time></trkpt>
      <trkpt lat="0" lon="0"><time>2026-04-30T04:06:56.987Z</time></trkpt>
      <trkpt lat="0" lon="0"><time>2026-04-30T04:06:57.004Z</time></trkpt>
      <trkpt lat="0" lon="0"><time>2026-04-30T04:06:57.021Z</time></trkpt>
      <trkpt lat="0" lon="0"><time>2026-04-30T04:06:57.037Z</time></trkpt>
      <trkpt lat="0" lon="0"><time>2026-04-30T04:06:57.054Z</time></trkpt>
      <trkpt lat="0" lon="0"><time>2026-04-30T04:06:57.071Z</time></trkpt>
      <trkpt lat="0" lon="0"><time>2026-04-30T04:06:57.087Z</time></trkpt>
      <trkpt lat="0" lon="0"><time>2026-04-30T04:06:57.104Z</time></trkpt>
      <trkpt lat="0" lon="0"><time>2026-04-30T04:06:57.121Z</time></trkpt>
      <trkpt lat="0" lon="0"><time>2026-04-30T04:06:57.138Z</time></trkpt>
      <trkpt lat="0" lon="0"><time>2026-04-30T04:06:57.154Z</time></trkpt>
      <trkpt lat="0" lon="0"><time>2026-04-30T04:06:57.171Z</time></trkpt>
      <trkpt lat="0" lon="0"><time>2026-04-30T04:06:57.188Z</time></trkpt>
      <trkpt lat="0" lon="0"><time>2026-04-30T04:06:57.204Z</time></trkpt>
      <trkpt lat="0" lon="0"><time>2026-04-30T04:06:57.221Z</time></trkpt>
      <trkpt lat="0" lon="0"><time>2026-04-30T04:06:57.238Z</time></trkpt>
      <trkpt lat="0" lon="0"><time>2026-04-30T04:06:57.254Z</time></trkpt>
      <trkpt lat="0" lon="0"><time>2026-04-30T04:06:57.271Z</time></trkpt>
      <trkpt lat="0" lon="0"><time>2026-04-30T04:06:57.288Z</time></trkpt>
      <trkpt lat="0" lon="0"><time>2026-04-30T04:06:57.304Z</time></trkpt>
      <trkpt lat="0" lon="0.000001"><time>2026-04-30T04:06:57.321Z</time></trkpt>
      <trkpt lat="0" lon="0.000001"><time>2026-04-30T04:06:57.338Z</time></trkpt>
      <trkpt lat="0" lon="0.000001"><time>2026-04-30T04:06:57.354Z</time></trkpt>
      <trkpt lat="0" lon="0.000001"><time>2026-04-30T04:06:57.371Z</time></trkpt>
      <trkpt lat="0" lon="0.000001"><time>2026-04-30T04:06:57.388Z</time></trkpt>
      <trkpt lat="0" lon="0.000001"><time>2026-04-30T04:06:57.404Z</time></trkpt>
      <trkpt lat="0" lon="0.000001"><time>2026-04-30T04:06:57.421Z</time></trkpt>
      <trkpt lat="0" lon="0.000001"><time>2026-04-30T04:06:57.438Z</time></trkpt>
      <trkpt lat="0" lon="0.000001"><time>2026-04-30T04:06:57.455Z</time></trkpt>
      <trkpt lat="0" lon="0.000001"><time>2026-04-30T04:06:57.471Z</time></trkpt>
      <trkpt lat="0" lon="0.000001"><time>2026-04-30T04:06:57.488Z</time></trkpt>
      <trkpt lat="0" lon="0.000001"><time>2026-04-30T04:06:57.505Z</time></trkpt>
      <trkpt lat="0" lon="0.000001"><time>2026-04-30T04:06:57.521Z</time></trkpt>
      <trkpt lat="0" lon="0.000001"><time>2026-04-30T04:06:57.538Z</time></trkpt>
      <trkpt lat="0" lon="0.000001"><time>2026-04-30T04:06:57.555Z</time></trkpt>
      <trkpt lat="0" lon="0.000001"><time>2026-04-30T04:06:57.571Z</time></trkpt>
      <trkpt lat="0" lon="0.000001"><time>2026-04-30T04:06:57.588Z</time></trkpt>
      <trkpt lat="0" lon="0.000001"><time>2026-04-30T04:06:57.605Z</time></trkpt>
      <trkpt lat="-0.000001" lon="0.000001"><time>2026-04-30T04:06:57.621Z</time></trkpt>
      <trkpt lat="-0.000001" lon="0.000001"><time>2026-04-30T04:06:57.638Z</time></trkpt>
      <trkpt lat="-0.000001" lon="0.000001"><time>2026-04-30T04:06:57.655Z</time></trkpt>
      <trkpt lat="-0.000001" lon="0.000001"><time>2026-04-30T04:06:57.671Z</time></trkpt>
      <trkpt lat="-0.000001" lon="0.000001"><time>2026-04-30T04:06:57.688Z</time></trkpt>
      <trkpt lat="-0.000001" lon="0.000001"><time>2026-04-30T04:06:57.705Z</time></trkpt>
      <trkpt lat="-0.000001" lon="0.000001"><time>2026-04-30T04:06:57.721Z</time></trkpt>
      <trkpt lat="-0.000001" lon="0.000001"><time>2026-04-30T04:06:57.738Z</time></trkpt>
      <trkpt lat="-0.000001" lon="0.000001"><time>2026-04-30T04:06:57.755Z</time></trkpt>
      <trkpt lat="-0.000001" lon="0.000001"><time>2026-04-30T04:06:57.772Z</time></trkpt>
      <trkpt lat="-0.000001" lon="0.000001"><time>2026-04-30T04:06:57.788Z</time></trkpt>
      <trkpt lat="-0.000001" lon="0.000001"><time>2026-04-30T04:06:57.805Z</time></trkpt>
      <trkpt lat="-0.000001" lon="0.000001"><time>2026-04-30T04:06:57.822Z</time></trkpt>
      <trkpt lat="-0.000001" lon="0.000001"><time>2026-04-30T04:06:57.838Z</time></trkpt>
      <trkpt lat="-0.000001" lon="0.000001"><time>2026-04-30T04:06:57.855Z</time></trkpt>
      <trkpt lat="-0.000001" lon="0.000001"><time>2026-04-30T04:06:57.872Z</time></trkpt>
      <trkpt lat="-0.000001" lon="0.000001"><time>2026-04-30T04:06:57.888Z</time></trkpt>
      <trkpt lat="-0.000001" lon="0.000001"><time>2026-04-30T04:06:57.905Z</time></trkpt>
      <trkpt lat="-0.000001" lon="0.000001"><time>2026-04-30T04:06:57.922Z</time></trkpt>
      <trkpt lat="-0.000001" lon="0.000001"><time>2026-04-30T04:06:57.938Z</time></trkpt>
      <trkpt lat="-0.000001" lon="0.000001"><time>2026-04-30T04:06:57.955Z</time></trkpt>
      <trkpt lat="-0.000001" lon="0.000001"><time>2026-04-30T04:06:57.972Z</time></trkpt>
      <trkpt lat="-0.000001" lon="0.000001"><time>2026-04-30T04:06:57.988Z</time></trkpt>
      <trkpt lat="-0.000001" lon="0.000001"><time>2026-04-30T04:06:58.005Z</time></trkpt>
      <trkpt lat="-0.000001" lon="0.000001"><time>2026-04-30T04:06:58.022Z</time></trkpt>
      <trkpt lat="-0.000001" lon="0.000001"><time>2026-04-30T04:06:58.038Z</time></trkpt>
      <trkpt lat="-0.000001" lon="0.000001"><time>2026-04-30T04:06:58.055Z</time></trkpt>
      <trkpt lat="-0.000001" lon="0.000001"><time>2026-04-30T04:06:58.072Z</time></trkpt>
      <trkpt lat="-0.000001" lon="0.000001"><time>2026-04-30T04:06:58.089Z</time></trkpt>
      <trkpt lat="-0.000001" lon="0.000001"><time>2026-04-30T04:06:58.105Z</time></trkpt>
      <trkpt lat="-0.000001" lon="0.000001"><time>2026-04-30T04:06:58.122Z</time></trkpt>
      <trkpt lat="-0.000001" lon="0.000001"><time>2026-04-30T04:06:58.139Z</time></trkpt>
      <trkpt lat="-0.000001" lon="0.000001"><time>2026-04-30T04:06:58.155Z</time></trkpt>
      <trkpt lat="-0.000001" lon="0.000001"><time>2026-04-30T04:06:58.172Z</time></trkpt>
      <trkpt lat="-0.000001" lon="0.000001"><time>2026-04-30T04:06:58.189Z</time></trkpt>
      <trkpt lat="-0.000001" lon="0.000001"><time>2026-04-30T04:06:58.205Z</time></trkpt>
      <trkpt lat="-0.000001" lon="0.000001"><time>2026-04-30T04:06:58.222Z</time></trkpt>
      <trkpt lat="-0.000001" lon="0.000001"><time>2026-04-30T04:06:58.239Z</time></trkpt>
      <trkpt lat="-0.000001" lon="0.000001"><time>2026-04-30T04:06:58.255Z</time></trkpt>
      <trkpt lat="-0.000001" lon="0.000001"><time>2026-04-30T04:06:58.272Z</time></trkpt>
      <trkpt lat="-0.000001" lon="0.000001"><time>2026-04-30T04:06:58.289Z</time></trkpt>
      <trkpt lat="-0.000001" lon="0.000001"><time>2026-04-30T04:06:58.305Z</time></trkpt>
      <trkpt lat="0" lon="0.000001"><time>2026-04-30T04:06:58.322Z</time></trkpt>
      <trkpt lat="0" lon="0.000001"><time>2026-04-30T04:06:58.339Z</time></trkpt>
      <trkpt lat="0" lon="0.000001"><time>2026-04-30T04:06:58.355Z</time></trkpt>
      <trkpt lat="0" lon="0.000001"><time>2026-04-30T04:06:58.372Z</time></trkpt>
      <trkpt lat="0" lon="0.000001"><time>2026-04-30T04:06:58.389Z</time></trkpt>
      <trkpt lat="0" lon="0.000001"><time>2026-04-30T04:06:58.406Z</time></trkpt>
      <trkpt lat="-0.000001" lon="0.000001"><time>2026-04-30T04:06:58.422Z</time></trkpt>
      <trkpt lat="-0.000001" lon="0.000001"><time>2026-04-30T04:06:58.439Z</time></trkpt>
      <trkpt lat="-0.000001" lon="0.000001"><time>2026-04-30T04:06:58.456Z</time></trkpt>
      <trkpt lat="-0.000001" lon="0.000001"><time>2026-04-30T04:06:58.472Z</time></trkpt>
      <trkpt lat="-0.000001" lon="0.000001"><time>2026-04-30T04:06:58.489Z</time></trkpt>
      <trkpt lat="-0.000001" lon="0.000001"><time>2026-04-30T04:06:58.506Z</time></trkpt>
      <trkpt lat="-0.000001" lon="0"><time>2026-04-30T04:06:58.522Z</time></trkpt>
      <trkpt lat="-0.000001" lon="0"><time>2026-04-30T04:06:58.539Z</time></trkpt>
      <trkpt lat="-0.000001" lon="0"><time>2026-04-30T04:06:58.556Z</time></trkpt>
      <trkpt lat="-0.000001" lon="0"><time>2026-04-30T04:06:58.572Z</time></trkpt>
      <trkpt lat="-0.000001" lon="0"><time>2026-04-30T04:06:58.589Z</time></trkpt>
      <trkpt lat="-0.000001" lon="0"><time>2026-04-30T04:06:58.606Z</time></trkpt>
      <trkpt lat="-0.000001" lon="0"><time>2026-04-30T04:06:58.622Z</time></trkpt>
      <trkpt lat="-0.000001" lon="0"><time>2026-04-30T04:06:58.639Z</time></trkpt>
      <trkpt lat="-0.000001" lon="0"><time>2026-04-30T04:06:58.656Z</time></trkpt>
      <trkpt lat="-0.000001" lon="0"><time>2026-04-30T04:06:58.672Z</time></trkpt>
      <trkpt lat="-0.000001" lon="0"><time>2026-04-30T04:06:58.689Z</time></trkpt>
      <trkpt lat="-0.000001" lon="0"><time>2026-04-30T04:06:58.706Z</time></trkpt>
      <trkpt lat="-0.000001" lon="0"><time>2026-04-30T04:06:58.723Z</time></trkpt>
      <trkpt lat="-0.000001" lon="0"><time>2026-04-30T04:06:58.739Z</time></trkpt>
      <trkpt lat="-0.000001" lon="0"><time>2026-04-30T04:06:58.756Z</time></trkpt>
      <trkpt lat="-0.000001" lon="0"><time>2026-04-30T04:06:58.773Z</time></trkpt>
      <trkpt lat="-0.000001" lon="0"><time>2026-04-30T04:06:58.789Z</time></trkpt>
      <trkpt lat="-0.000001" lon="0"><time>2026-04-30T04:06:58.806Z</time></trkpt>
      <trkpt lat="-0.000001" lon="0"><time>2026-04-30T04:06:58.823Z</time></trkpt>
      <trkpt lat="-0.000001" lon="0"><time>2026-04-30T04:06:58.839Z</time></trkpt>
      <trkpt lat="-0.000001" lon="0"><time>2026-04-30T04:06:58.856Z</time></trkpt>
      <trkpt lat="-0.000001" lon="0"><time>2026-04-30T04:06:58.873Z</time></trkpt>
      <trkpt lat="-0.000001" lon="0"><time>2026-04-30T04:06:58.889Z</time></trkpt>
      <trkpt lat="-0.000001" lon="0"><time>2026-04-30T04:06:58.906Z</time></trkpt>
      <trkpt lat="-0.000001" lon="0.000001"><time>2026-04-30T04:06:58.923Z</time></trkpt>
      <trkpt lat="-0.000001" lon="0.000001"><time>2026-04-30T04:06:58.939Z</time></trkpt>
      <trkpt lat="-0.000001" lon="0.000001"><time>2026-04-30T04:06:58.956Z</time></trkpt>
      <trkpt lat="-0.000001" lon="0.000001"><time>2026-04-30T04:06:58.973Z</time></trkpt>
      <trkpt lat="-0.000001" lon="0.000001"><time>2026-04-30T04:06:58.989Z</time></trkpt>
      <trkpt lat="-0.000001" lon="0.000001"><time>2026-04-30T04:06:59.006Z</time></trkpt>
      <trkpt lat="-0.000001" lon="0.000001"><time>2026-04-30T04:06:59.023Z</time></trkpt>
      <trkpt lat="-0.000001" lon="0.000001"><time>2026-04-30T04:06:59.040Z</time></trkpt>
      <trkpt lat="-0.000001" lon="0.000001"><time>2026-04-30T04:06:59.056Z</time></trkpt>
      <trkpt lat="-0.000001" lon="0.000001"><time>2026-04-30T04:06:59.073Z</time></trkpt>
      <trkpt lat="-0.000001" lon="0.000001"><time>2026-04-30T04:06:59.090Z</time></trkpt>
      <trkpt lat="-0.000001" lon="0.000001"><time>2026-04-30T04:06:59.106Z</time></trkpt>
      <trkpt lat="-0.000001" lon="0.000001"><time>2026-04-30T04:06:59.123Z</time></trkpt>
      <trkpt lat="-0.000001" lon="0.000001"><time>2026-04-30T04:06:59.140Z</time></trkpt>
      <trkpt lat="-0.000001" lon="0.000001"><time>2026-04-30T04:06:59.156Z</time></trkpt>
      <trkpt lat="-0.000001" lon="0.000001"><time>2026-04-30T04:06:59.173Z</time></trkpt>
      <trkpt lat="-0.000001" lon="0.000001"><time>2026-04-30T04:06:59.190Z</time></trkpt>
      <trkpt lat="-0.000001" lon="0.000001"><time>2026-04-30T04:06:59.206Z</time></trkpt>
      <trkpt lat="-0.000001" lon="0.000001"><time>2026-04-30T04:06:59.223Z</time></trkpt>
      <trkpt lat="-0.000001" lon="0.000001"><time>2026-04-30T04:06:59.240Z</time></trkpt>
      <trkpt lat="-0.000001" lon="0.000001"><time>2026-04-30T04:06:59.256Z</time></trkpt>
      <trkpt lat="-0.000001" lon="0.000001"><time>2026-04-30T04:06:59.273Z</time></trkpt>
      <trkpt lat="-0.000001" lon="0.000001"><time>2026-04-30T04:06:59.290Z</time></trkpt>
      <trkpt lat="-0.000001" lon="0.000001"><time>2026-04-30T04:06:59.306Z</time></trkpt>
      <trkpt lat="-0.000001" lon="0.000001"><time>2026-04-30T04:06:59.323Z</time></trkpt>
      <trkpt lat="-0.000001" lon="0.000001"><time>2026-04-30T04:06:59.340Z</time></trkpt>
      <trkpt lat="-0.000001" lon="0.000001"><time>2026-04-30T04:06:59.357Z</time></trkpt>
      <trkpt lat="-0.000001" lon="0.000001"><time>2026-04-30T04:06:59.373Z</time></trkpt>
      <trkpt lat="-0.000001" lon="0.000001"><time>2026-04-30T04:06:59.390Z</time></trkpt>
      <trkpt lat="-0.000001" lon="0.000001"><time>2026-04-30T04:06:59.407Z</time></trkpt>
      <trkpt lat="-0.000001" lon="0.000001"><time>2026-04-30T04:06:59.423Z</time></trkpt>
      <trkpt lat="-0.000001" lon="0.000001"><time>2026-04-30T04:06:59.440Z</time></trkpt>
      <trkpt lat="-0.000001" lon="0.000001"><time>2026-04-30T04:06:59.457Z</time></trkpt>
      <trkpt lat="-0.000001" lon="0.000001"><time>2026-04-30T04:06:59.473Z</time></trkpt>
      <trkpt lat="-0.000001" lon="0.000001"><time>2026-04-30T04:06:59.490Z</time></trkpt>
      <trkpt lat="-0.000001" lon="0.000001"><time>2026-04-30T04:06:59.507Z</time></trkpt>
      <trkpt lat="-0.000001" lon="0.000001"><time>2026-04-30T04:06:59.523Z</time></trkpt>
      <trkpt lat="-0.000001" lon="0.000001"><time>2026-04-30T04:06:59.540Z</time></trkpt>
      <trkpt lat="-0.000001" lon="0.000001"><time>2026-04-30T04:06:59.557Z</time></trkpt>
      <trkpt lat="-0.000001" lon="0.000001"><time>2026-04-30T04:06:59.573Z</time></trkpt>
      <trkpt lat="-0.000001" lon="0.000001"><time>2026-04-30T04:06:59.590Z</time></trkpt>
      <trkpt lat="-0.000001" lon="0.000001"><time>2026-04-30T04:06:59.607Z</time></trkpt>
      <trkpt lat="-0.000001" lon="0.000001"><time>2026-04-30T04:06:59.623Z</time></trkpt>
      <trkpt lat="-0.000001" lon="0.000001"><time>2026-04-30T04:06:59.640Z</time></trkpt>
      <trkpt lat="-0.000001" lon="0.000001"><time>2026-04-30T04:06:59.657Z</time></trkpt>
      <trkpt lat="-0.000001" lon="0.000001"><time>2026-04-30T04:06:59.674Z</time></trkpt>
      <trkpt lat="-0.000001" lon="0.000001"><time>2026-04-30T04:06:59.690Z</time></trkpt>
      <trkpt lat="-0.000001" lon="0.000001"><time>2026-04-30T04:06:59.707Z</time></trkpt>
      <trkpt lat="-0.000001" lon="0.000001"><time>2026-04-30T04:06:59.724Z</time></trkpt>
      <trkpt lat="-0.000001" lon="0.000001"><time>2026-04-30T04:06:59.740Z</time></trkpt>
      <trkpt lat="-0.000001" lon="0.000001"><time>2026-04-30T04:06:59.757Z</time></trkpt>
      <trkpt lat="-0.000001" lon="0.000001"><time>2026-04-30T04:06:59.774Z</time></trkpt>
      <trkpt lat="-0.000001" lon="0.000001"><time>2026-04-30T04:06:59.790Z</time></trkpt>
      <trkpt lat="-0.000001" lon="0.000001"><time>2026-04-30T04:06:59.807Z</time></trkpt>
      <trkpt lat="-0.000001" lon="0.000001"><time>2026-04-30T04:06:59.824Z</time></trkpt>
      <trkpt lat="-0.000001" lon="0.000001"><time>2026-04-30T04:06:59.840Z</time></trkpt>
      <trkpt lat="-0.000001" lon="0.000001"><time>2026-04-30T04:06:59.857Z</time></trkpt>
      <trkpt lat="-0.000001" lon="0.000001"><time>2026-04-30T04:06:59.874Z</time></trkpt>
      <trkpt lat="-0.000001" lon="0.000001"><time>2026-04-30T04:06:59.890Z</time></trkpt>
      <trkpt lat="-0.000001" lon="0.000001"><time>2026-04-30T04:06:59.907Z</time></trkpt>
      <trkpt lat="-0.000001" lon="0.000001"><time>2026-04-30T04:06:59.924Z</time></trkpt>
      <trkpt lat="-0.000001" lon="0.000001"><time>2026-04-30T04:06:59.940Z</time></trkpt>
      <trkpt lat="-0.000001" lon="0.000001"><time>2026-04-30T04:06:59.957Z</time></trkpt>
      <trkpt lat="-0.000001" lon="0.000001"><time>2026-04-30T04:06:59.974Z</time></trkpt>
      <trkpt lat="-0.000001" lon="0.000001"><time>2026-04-30T04:06:59.991Z</time></trkpt>
      <trkpt lat="-0.000001" lon="0.000001"><time>2026-04-30T04:07:00.007Z</time></trkpt>
      <trkpt lat="-0.000001" lon="0.000001"><time>2026-04-30T04:07:00.024Z</time></trkpt>
      <trkpt lat="-0.000001" lon="0.000001"><time>2026-04-30T04:07:00.041Z</time></trkpt>
      <trkpt lat="-0.000001" lon="0.000001"><time>2026-04-30T04:07:00.057Z</time></trkpt>
      <trkpt lat="-0.000001" lon="0.000001"><time>2026-04-30T04:07:00.074Z</time></trkpt>
      <trkpt lat="-0.000001" lon="0.000001"><time>2026-04-30T04:07:00.091Z</time></trkpt>
      <trkpt lat="-0.000001" lon="0.000001"><time>2026-04-30T04:07:00.107Z</time></trkpt>
      <trkpt lat="-0.000001" lon="0.000001"><time>2026-04-30T04:07:00.124Z</time></trkpt>
      <trkpt lat="-0.000001" lon="0.000001"><time>2026-04-30T04:07:00.141Z</time></trkpt>
      <trkpt lat="-0.000001" lon="0.000001"><time>2026-04-30T04:07:00.157Z</time></trkpt>
      <trkpt lat="-0.000001" lon="0.000001"><time>2026-04-30T04:07:00.174Z</time></trkpt>
      <trkpt lat="-0.000001" lon="0.000001"><time>2026-04-30T04:07:00.191Z</time></trkpt>
      <trkpt lat="-0.000001" lon="0.000001"><time>2026-04-30T04:07:00.207Z</time></trkpt>
      <trkpt lat="-0.000001" lon="0.000001"><time>2026-04-30T04:07:00.224Z</time></trkpt>
      <trkpt lat="-0.000001" lon="0.000001"><time>2026-04-30T04:07:00.241Z</time></trkpt>
      <trkpt lat="-0.000001" lon="0.000001"><time>2026-04-30T04:07:00.257Z</time></trkpt>
      <trkpt lat="-0.000001" lon="0.000001"><time>2026-04-30T04:07:00.274Z</time></trkpt>
      <trkpt lat="-0.000001" lon="0.000001"><time>2026-04-30T04:07:00.291Z</time></trkpt>
      <trkpt lat="-0.000001" lon="0.000001"><time>2026-04-30T04:07:00.308Z</time></trkpt>
      <trkpt lat="-0.000001" lon="0.000001"><time>2026-04-30T04:07:00.324Z</time></trkpt>
      <trkpt lat="-0.000001" lon="0.000001"><time>2026-04-30T04:07:00.341Z</time></trkpt>
      <trkpt lat="-0.000001" lon="0.000001"><time>2026-04-30T04:07:00.358Z</time></trkpt>
      <trkpt lat="-0.000001" lon="0.000001"><time>2026-04-30T04:07:00.374Z</time></trkpt>
      <trkpt lat="-0.000001" lon="0.000001"><time>2026-04-30T04:07:00.391Z</time></trkpt>
      <trkpt lat="-0.000001" lon="0.000001"><time>2026-04-30T04:07:00.408Z</time></trkpt>
      <trkpt lat="-0.000001" lon="0.000001"><time>2026-04-30T04:07:00.424Z</time></trkpt>
      <trkpt lat="-0.000001" lon="0.000001"><time>2026-04-30T04:07:00.441Z</time></trkpt>
      <trkpt lat="-0.000001" lon="0.000001"><time>2026-04-30T04:07:00.458Z</time></trkpt>
      <trkpt lat="-0.000001" lon="0.000001"><time>2026-04-30T04:07:00.474Z</time></trkpt>
      <trkpt lat="-0.000001" lon="0.000001"><time>2026-04-30T04:07:00.491Z</time></trkpt>
      <trkpt lat="-0.000001" lon="0.000001"><time>2026-04-30T04:07:00.508Z</time></trkpt>
      <trkpt lat="-0.000001" lon="0.000001"><time>2026-04-30T04:07:00.524Z</time></trkpt>
      <trkpt lat="-0.000001" lon="0.000001"><time>2026-04-30T04:07:00.541Z</time></trkpt>
      <trkpt lat="-0.000001" lon="0.000001"><time>2026-04-30T04:07:00.558Z</time></trkpt>
      <trkpt lat="-0.000001" lon="0.000001"><time>2026-04-30T04:07:00.574Z</time></trkpt>
      <trkpt lat="-0.000001" lon="0.000001"><time>2026-04-30T04:07:00.591Z</time></trkpt>
      <trkpt lat="-0.000001" lon="0.000001"><time>2026-04-30T04:07:00.608Z</time></trkpt>
      <trkpt lat="0" lon="0"><time>2026-04-30T04:07:00.624Z</time></trkpt>
      <trkpt lat="0" lon="0"><time>2026-04-30T04:07:00.641Z</time></trkpt>
      <trkpt lat="0" lon="0"><time>2026-04-30T04:07:00.658Z</time></trkpt>
      <trkpt lat="0" lon="0"><time>2026-04-30T04:07:00.675Z</time></trkpt>
      <trkpt lat="0" lon="0"><time>2026-04-30T04:07:00.691Z</time></trkpt>
      <trkpt lat="0" lon="0"><time>2026-04-30T04:07:00.708Z</time></trkpt>
      <trkpt lat="0" lon="0"><time>2026-04-30T04:07:00.725Z</time></trkpt>
      <trkpt lat="0" lon="0"><time>2026-04-30T04:07:00.741Z</time></trkpt>
      <trkpt lat="0" lon="0"><time>2026-04-30T04:07:00.758Z</time></trkpt>
      <trkpt lat="0" lon="0"><time>2026-04-30T04:07:00.775Z</time></trkpt>
      <trkpt lat="0" lon="0"><time>2026-04-30T04:07:00.791Z</time></trkpt>
      <trkpt lat="0" lon="0"><time>2026-04-30T04:07:00.808Z</time></trkpt>
      <trkpt lat="0" lon="0"><time>2026-04-30T04:07:00.825Z</time></trkpt>
      <trkpt lat="0" lon="0"><time>2026-04-30T04:07:00.841Z</time></trkpt>
      <trkpt lat="0" lon="0"><time>2026-04-30T04:07:00.858Z</time></trkpt>
      <trkpt lat="0" lon="0"><time>2026-04-30T04:07:00.875Z</time></trkpt>
      <trkpt lat="0" lon="0"><time>2026-04-30T04:07:00.891Z</time></trkpt>
      <trkpt lat="0" lon="0"><time>2026-04-30T04:07:00.908Z</time></trkpt>
      <trkpt lat="0" lon="0"><time>2026-04-30T04:07:00.925Z</time></trkpt>
      <trkpt lat="0" lon="0"><time>2026-04-30T04:07:00.941Z</time></trkpt>
      <trkpt lat="0" lon="0"><time>2026-04-30T04:07:00.958Z</time></trkpt>
      <trkpt lat="0" lon="0"><time>2026-04-30T04:07:00.975Z</time></trkpt>
      <trkpt lat="0" lon="0"><time>2026-04-30T04:07:00.992Z</time></trkpt>
      <trkpt lat="0" lon="0"><time>2026-04-30T04:07:01.008Z</time></trkpt>
      <trkpt lat="0" lon="0"><time>2026-04-30T04:07:01.025Z</time></trkpt>
      <trkpt lat="0" lon="0"><time>2026-04-30T04:07:01.042Z</time></trkpt>
      <trkpt lat="0" lon="0"><time>2026-04-30T04:07:01.058Z</time></trkpt>
      <trkpt lat="0" lon="0"><time>2026-04-30T04:07:01.075Z</time></trkpt>
      <trkpt lat="0" lon="0"><time>2026-04-30T04:07:01.092Z</time></trkpt>
      <trkpt lat="0" lon="0"><time>2026-04-30T04:07:01.108Z</time></trkpt>
      <trkpt lat="0" lon="0"><time>2026-04-30T04:07:01.125Z</time></trkpt>
      <trkpt lat="0" lon="0"><time>2026-04-30T04:07:01.142Z</time></trkpt>
      <trkpt lat="0" lon="0"><time>2026-04-30T04:07:01.158Z</time></trkpt>
      <trkpt lat="0" lon="0"><time>2026-04-30T04:07:01.175Z</time></trkpt>
      <trkpt lat="0" lon="0"><time>2026-04-30T04:07:01.192Z</time></trkpt>
      <trkpt lat="0" lon="0"><time>2026-04-30T04:07:01.208Z</time></trkpt>
      <trkpt lat="0" lon="0"><time>2026-04-30T04:07:01.225Z</time></trkpt>
      <trkpt lat="0" lon="0"><time>2026-04-30T04:07:01.242Z</time></trkpt>
      <trkpt lat="0" lon="0"><time>2026-04-30T04:07:01.258Z</time></trkpt>
      <trkpt lat="0" lon="0"><time>2026-04-30T04:07:01.275Z</time></trkpt>
      <trkpt lat="0" lon="0"><time>2026-04-30T04:07:01.292Z</time></trkpt>
      <trkpt lat="0" lon="0"><time>2026-04-30T04:07:01.309Z</time></trkpt>
      <trkpt lat="0" lon="0"><time>2026-04-30T04:07:01.325Z</time></trkpt>
      <trkpt lat="0" lon="0"><time>2026-04-30T04:07:01.342Z</time></trkpt>
      <trkpt lat="0" lon="0"><time>2026-04-30T04:07:01.359Z</time></trkpt>
      <trkpt lat="0" lon="0"><time>2026-04-30T04:07:01.375Z</time></trkpt>
      <trkpt lat="0" lon="0"><time>2026-04-30T04:07:01.392Z</time></trkpt>
      <trkpt lat="0" lon="0"><time>2026-04-30T04:07:01.409Z</time></trkpt>
      <trkpt lat="0" lon="0"><time>2026-04-30T04:07:01.425Z</time></trkpt>
      <trkpt lat="0" lon="0"><time>2026-04-30T04:07:01.442Z</time></trkpt>
      <trkpt lat="0" lon="0"><time>2026-04-30T04:07:01.459Z</time></trkpt>
      <trkpt lat="0" lon="0"><time>2026-04-30T04:07:01.475Z</time></trkpt>
      <trkpt lat="0" lon="0"><time>2026-04-30T04:07:01.492Z</time></trkpt>
      <trkpt lat="0" lon="0"><time>2026-04-30T04:07:01.509Z</time></trkpt>
      <trkpt lat="0" lon="0"><time>2026-04-30T04:07:01.525Z</time></trkpt>
      <trkpt lat="0" lon="0"><time>2026-04-30T04:07:01.542Z</time></trkpt>
      <trkpt lat="0" lon="0"><time>2026-04-30T04:07:01.559Z</time></trkpt>
      <trkpt lat="0" lon="0"><time>2026-04-30T04:07:01.575Z</time></trkpt>
      <trkpt lat="0" lon="0"><time>2026-04-30T04:07:01.592Z</time></trkpt>
      <trkpt lat="0" lon="0"><time>2026-04-30T04:07:01.609Z</time></trkpt>
      <trkpt lat="0" lon="0"><time>2026-04-30T04:07:01.626Z</time></trkpt>
      <trkpt lat="0" lon="0"><time>2026-04-30T04:07:01.642Z</time></trkpt>
      <trkpt lat="0" lon="0"><time>2026-04-30T04:07:01.659Z</time></trkpt>
      <trkpt lat="0" lon="0"><time>2026-04-30T04:07:01.676Z</time></trkpt>
      <trkpt lat="0" lon="0"><time>2026-04-30T04:07:01.692Z</time></trkpt>
      <trkpt lat="0" lon="0"><time>2026-04-30T04:07:01.709Z</time></trkpt>
      <trkpt lat="0" lon="0"><time>2026-04-30T04:07:01.726Z</time></trkpt>
      <trkpt lat="0" lon="0"><time>2026-04-30T04:07:01.742Z</time></trkpt>
      <trkpt lat="0" lon="0"><time>2026-04-30T04:07:01.759Z</time></trkpt>
      <trkpt lat="0" lon="0"><time>2026-04-30T04:07:01.776Z</time></trkpt>
      <trkpt lat="0" lon="0"><time>2026-04-30T04:07:01.792Z</time></trkpt>
      <trkpt lat="0" lon="0"><time>2026-04-30T04:07:01.809Z</time></trkpt>
      <trkpt lat="0" lon="0"><time>2026-04-30T04:07:01.826Z</time></trkpt>
      <trkpt lat="0" lon="0"><time>2026-04-30T04:07:01.842Z</time></trkpt>
      <trkpt lat="0" lon="0"><time>2026-04-30T04:07:01.859Z</time></trkpt>
      <trkpt lat="0" lon="0"><time>2026-04-30T04:07:01.876Z</time></trkpt>
      <trkpt lat="0" lon="0"><time>2026-04-30T04:07:01.892Z</time></trkpt>
      <trkpt lat="0" lon="0"><time>2026-04-30T04:07:01.909Z</time></trkpt>
      <trkpt lat="0" lon="0.000001"><time>2026-04-30T04:07:01.926Z</time></trkpt>
      <trkpt lat="0" lon="0.000001"><time>2026-04-30T04:07:01.943Z</time></trkpt>
      <trkpt lat="0" lon="0.000001"><time>2026-04-30T04:07:01.959Z</time></trkpt>
      <trkpt lat="0" lon="0.000001"><time>2026-04-30T04:07:01.976Z</time></trkpt>
      <trkpt lat="0" lon="0.000001"><time>2026-04-30T04:07:01.993Z</time></trkpt>
      <trkpt lat="0" lon="0.000001"><time>2026-04-30T04:07:02.009Z</time></trkpt>
      <trkpt lat="0" lon="0.000001"><time>2026-04-30T04:07:02.026Z</time></trkpt>
      <trkpt lat="0" lon="0.000001"><time>2026-04-30T04:07:02.043Z</time></trkpt>
      <trkpt lat="0" lon="0.000001"><time>2026-04-30T04:07:02.059Z</time></trkpt>
      <trkpt lat="0" lon="0.000001"><time>2026-04-30T04:07:02.076Z</time></trkpt>
      <trkpt lat="0" lon="0.000001"><time>2026-04-30T04:07:02.093Z</time></trkpt>
      <trkpt lat="0" lon="0.000001"><time>2026-04-30T04:07:02.109Z</time></trkpt>
      <trkpt lat="0" lon="0.000001"><time>2026-04-30T04:07:02.126Z</time></trkpt>
      <trkpt lat="0" lon="0.000001"><time>2026-04-30T04:07:02.143Z</time></trkpt>
      <trkpt lat="0" lon="0.000001"><time>2026-04-30T04:07:02.159Z</time></trkpt>
      <trkpt lat="0" lon="0.000001"><time>2026-04-30T04:07:02.176Z</time></trkpt>
      <trkpt lat="0" lon="0.000001"><time>2026-04-30T04:07:02.193Z</time></trkpt>
      <trkpt lat="0" lon="0.000001"><time>2026-04-30T04:07:02.209Z</time></trkpt>
      <trkpt lat="0" lon="0.000001"><time>2026-04-30T04:07:02.226Z</time></trkpt>
      <trkpt lat="0" lon="0.000001"><time>2026-04-30T04:07:02.243Z</time></trkpt>
      <trkpt lat="0" lon="0.000001"><time>2026-04-30T04:07:02.260Z</time></trkpt>
      <trkpt lat="0" lon="0.000001"><time>2026-04-30T04:07:02.276Z</time></trkpt>
      <trkpt lat="0" lon="0.000001"><time>2026-04-30T04:07:02.293Z</time></trkpt>
      <trkpt lat="0" lon="0.000001"><time>2026-04-30T04:07:02.310Z</time></trkpt>
      <trkpt lat="0" lon="0.000001"><time>2026-04-30T04:07:02.326Z</time></trkpt>
      <trkpt lat="0" lon="0.000001"><time>2026-04-30T04:07:02.343Z</time></trkpt>
      <trkpt lat="0" lon="0.000001"><time>2026-04-30T04:07:02.360Z</time></trkpt>
      <trkpt lat="0" lon="0.000001"><time>2026-04-30T04:07:02.376Z</time></trkpt>
      <trkpt lat="0" lon="0.000001"><time>2026-04-30T04:07:02.393Z</time></trkpt>
      <trkpt lat="0" lon="0.000001"><time>2026-04-30T04:07:02.410Z</time></trkpt>
      <trkpt lat="0" lon="0.000001"><time>2026-04-30T04:07:02.426Z</time></trkpt>
      <trkpt lat="0" lon="0.000001"><time>2026-04-30T04:07:02.443Z</time></trkpt>
      <trkpt lat="0" lon="0.000001"><time>2026-04-30T04:07:02.460Z</time></trkpt>
      <trkpt lat="0" lon="0.000001"><time>2026-04-30T04:07:02.476Z</time></trkpt>
      <trkpt lat="0" lon="0.000001"><time>2026-04-30T04:07:02.493Z</time></trkpt>
      <trkpt lat="0" lon="0.000001"><time>2026-04-30T04:07:02.510Z</time></trkpt>
      <trkpt lat="0" lon="0.000001"><time>2026-04-30T04:07:02.526Z</time></trkpt>
      <trkpt lat="0" lon="0.000001"><time>2026-04-30T04:07:02.543Z</time></trkpt>
      <trkpt lat="0" lon="0.000001"><time>2026-04-30T04:07:02.560Z</time></trkpt>
      <trkpt lat="0" lon="0.000001"><time>2026-04-30T04:07:02.577Z</time></trkpt>
      <trkpt lat="0" lon="0.000001"><time>2026-04-30T04:07:02.593Z</time></trkpt>
      <trkpt lat="0" lon="0.000001"><time>2026-04-30T04:07:02.610Z</time></trkpt>
      <trkpt lat="0" lon="0.000001"><time>2026-04-30T04:07:02.627Z</time></trkpt>
      <trkpt lat="0" lon="0.000001"><time>2026-04-30T04:07:02.643Z</time></trkpt>
      <trkpt lat="0" lon="0.000001"><time>2026-04-30T04:07:02.660Z</time></trkpt>
      <trkpt lat="0" lon="0.000001"><time>2026-04-30T04:07:02.677Z</time></trkpt>
      <trkpt lat="0" lon="0.000001"><time>2026-04-30T04:07:02.693Z</time></trkpt>
      <trkpt lat="0" lon="0.000001"><time>2026-04-30T04:07:02.710Z</time></trkpt>
      <trkpt lat="0" lon="0.000001"><time>2026-04-30T04:07:02.727Z</time></trkpt>
      <trkpt lat="0" lon="0.000001"><time>2026-04-30T04:07:02.743Z</time></trkpt>
      <trkpt lat="0" lon="0.000001"><time>2026-04-30T04:07:02.760Z</time></trkpt>
      <trkpt lat="0" lon="0.000001"><time>2026-04-30T04:07:02.777Z</time></trkpt>
      <trkpt lat="0" lon="0.000001"><time>2026-04-30T04:07:02.793Z</time></trkpt>
      <trkpt lat="0" lon="0.000001"><time>2026-04-30T04:07:02.810Z</time></trkpt>
      <trkpt lat="-0.000001" lon="0"><time>2026-04-30T04:07:02.827Z</time></trkpt>
      <trkpt lat="-0.000001" lon="0"><time>2026-04-30T04:07:02.843Z</time></trkpt>
      <trkpt lat="-0.000001" lon="0"><time>2026-04-30T04:07:02.860Z</time></trkpt>
      <trkpt lat="-0.000001" lon="0"><time>2026-04-30T04:07:02.877Z</time></trkpt>
      <trkpt lat="-0.000001" lon="0"><time>2026-04-30T04:07:02.894Z</time></trkpt>
      <trkpt lat="-0.000001" lon="0"><time>2026-04-30T04:07:02.910Z</time></trkpt>
      <trkpt lat="-0.000001" lon="0"><time>2026-04-30T04:07:02.927Z</time></trkpt>
      <trkpt lat="-0.000001" lon="0"><time>2026-04-30T04:07:02.944Z</time></trkpt>
      <trkpt lat="-0.000001" lon="0"><time>2026-04-30T04:07:02.960Z</time></trkpt>
      <trkpt lat="-0.000001" lon="0"><time>2026-04-30T04:07:02.977Z</time></trkpt>
      <trkpt lat="-0.000001" lon="0"><time>2026-04-30T04:07:02.994Z</time></trkpt>
      <trkpt lat="-0.000001" lon="0"><time>2026-04-30T04:07:03.010Z</time></trkpt>
      <trkpt lat="-0.000001" lon="0"><time>2026-04-30T04:07:03.027Z</time></trkpt>
      <trkpt lat="-0.000001" lon="0"><time>2026-04-30T04:07:03.044Z</time></trkpt>
      <trkpt lat="-0.000001" lon="0"><time>2026-04-30T04:07:03.060Z</time></trkpt>
      <trkpt lat="-0.000001" lon="0"><time>2026-04-30T04:07:03.077Z</time></trkpt>
      <trkpt lat="-0.000001" lon="0"><time>2026-04-30T04:07:03.094Z</time></trkpt>
      <trkpt lat="-0.000001" lon="0"><time>2026-04-30T04:07:03.110Z</time></trkpt>
      <trkpt lat="-0.000001" lon="0"><time>2026-04-30T04:07:03.127Z</time></trkpt>
      <trkpt lat="-0.000001" lon="0"><time>2026-04-30T04:07:03.144Z</time></trkpt>
      <trkpt lat="-0.000001" lon="0"><time>2026-04-30T04:07:03.160Z</time></trkpt>
      <trkpt lat="-0.000001" lon="0"><time>2026-04-30T04:07:03.177Z</time></trkpt>
      <trkpt lat="-0.000001" lon="0"><time>2026-04-30T04:07:03.194Z</time></trkpt>
      <trkpt lat="-0.000001" lon="0"><time>2026-04-30T04:07:03.211Z</time></trkpt>
      <trkpt lat="-0.000001" lon="0"><time>2026-04-30T04:07:03.227Z</time></trkpt>
      <trkpt lat="-0.000001" lon="0"><time>2026-04-30T04:07:03.244Z</time></trkpt>
      <trkpt lat="-0.000001" lon="0"><time>2026-04-30T04:07:03.261Z</time></trkpt>
      <trkpt lat="-0.000001" lon="0"><time>2026-04-30T04:07:03.277Z</time></trkpt>
      <trkpt lat="-0.000001" lon="0"><time>2026-04-30T04:07:03.294Z</time></trkpt>
      <trkpt lat="-0.000001" lon="0"><time>2026-04-30T04:07:03.311Z</time></trkpt>
      <trkpt lat="-0.000001" lon="0"><time>2026-04-30T04:07:03.327Z</time></trkpt>
      <trkpt lat="-0.000001" lon="0"><time>2026-04-30T04:07:03.344Z</time></trkpt>
      <trkpt lat="-0.000001" lon="0"><time>2026-04-30T04:07:03.361Z</time></trkpt>
      <trkpt lat="-0.000001" lon="0"><time>2026-04-30T04:07:03.377Z</time></trkpt>
      <trkpt lat="-0.000001" lon="0"><time>2026-04-30T04:07:03.394Z</time></trkpt>
      <trkpt lat="-0.000001" lon="0"><time>2026-04-30T04:07:03.411Z</time></trkpt>
      <trkpt lat="-0.000001" lon="0"><time>2026-04-30T04:07:03.427Z</time></trkpt>
      <trkpt lat="-0.000001" lon="0"><time>2026-04-30T04:07:03.444Z</time></trkpt>
      <trkpt lat="-0.000001" lon="0"><time>2026-04-30T04:07:03.461Z</time></trkpt>
      <trkpt lat="-0.000001" lon="0"><time>2026-04-30T04:07:03.477Z</time></trkpt>
      <trkpt lat="-0.000001" lon="0"><time>2026-04-30T04:07:03.494Z</time></trkpt>
      <trkpt lat="-0.000001" lon="0"><time>2026-04-30T04:07:03.511Z</time></trkpt>
      <trkpt lat="-0.000001" lon="0"><time>2026-04-30T04:07:03.528Z</time></trkpt>
      <trkpt lat="-0.000001" lon="0"><time>2026-04-30T04:07:03.544Z</time></trkpt>
      <trkpt lat="-0.000001" lon="0"><time>2026-04-30T04:07:03.561Z</time></trkpt>
      <trkpt lat="-0.000001" lon="0"><time>2026-04-30T04:07:03.578Z</time></trkpt>
      <trkpt lat="-0.000001" lon="0"><time>2026-04-30T04:07:03.594Z</time></trkpt>
      <trkpt lat="-0.000001" lon="0"><time>2026-04-30T04:07:03.611Z</time></trkpt>
      <trkpt lat="-0.000001" lon="0"><time>2026-04-30T04:07:03.628Z</time></trkpt>
      <trkpt lat="-0.000001" lon="0"><time>2026-04-30T04:07:03.644Z</time></trkpt>
      <trkpt lat="-0.000001" lon="0"><time>2026-04-30T04:07:03.661Z</time></trkpt>
      <trkpt lat="-0.000001" lon="0"><time>2026-04-30T04:07:03.678Z</time></trkpt>
      <trkpt lat="-0.000001" lon="0"><time>2026-04-30T04:07:03.694Z</time></trkpt>
      <trkpt lat="-0.000001" lon="0"><time>2026-04-30T04:07:03.711Z</time></trkpt>
      <trkpt lat="-0.000001" lon="0"><time>2026-04-30T04:07:03.728Z</time></trkpt>
      <trkpt lat="-0.000001" lon="0"><time>2026-04-30T04:07:03.744Z</time></trkpt>
      <trkpt lat="-0.000001" lon="0"><time>2026-04-30T04:07:03.761Z</time></trkpt>
      <trkpt lat="-0.000001" lon="0"><time>2026-04-30T04:07:03.778Z</time></trkpt>
      <trkpt lat="-0.000001" lon="0"><time>2026-04-30T04:07:03.794Z</time></trkpt>
      <trkpt lat="-0.000001" lon="0"><time>2026-04-30T04:07:03.811Z</time></trkpt>
      <trkpt lat="-0.000001" lon="0"><time>2026-04-30T04:07:03.828Z</time></trkpt>
      <trkpt lat="-0.000001" lon="0"><time>2026-04-30T04:07:03.845Z</time></trkpt>
      <trkpt lat="-0.000001" lon="0"><time>2026-04-30T04:07:03.861Z</time></trkpt>
      <trkpt lat="-0.000001" lon="0"><time>2026-04-30T04:07:03.878Z</time></trkpt>
      <trkpt lat="-0.000001" lon="0"><time>2026-04-30T04:07:03.895Z</time></trkpt>
      <trkpt lat="-0.000001" lon="0"><time>2026-04-30T04:07:03.911Z</time></trkpt>
      <trkpt lat="-0.000001" lon="0"><time>2026-04-30T04:07:03.928Z</time></trkpt>
      <trkpt lat="-0.000001" lon="0"><time>2026-04-30T04:07:03.945Z</time></trkpt>
      <trkpt lat="-0.000001" lon="0"><time>2026-04-30T04:07:03.961Z</time></trkpt>
      <trkpt lat="-0.000001" lon="0"><time>2026-04-30T04:07:03.978Z</time></trkpt>
      <trkpt lat="-0.000001" lon="0"><time>2026-04-30T04:07:03.995Z</time></trkpt>
      <trkpt lat="-0.000001" lon="0"><time>2026-04-30T04:07:04.011Z</time></trkpt>
      <trkpt lat="-0.000001" lon="0"><time>2026-04-30T04:07:04.028Z</time></trkpt>
      <trkpt lat="-0.000001" lon="0"><time>2026-04-30T04:07:04.045Z</time></trkpt>
      <trkpt lat="-0.000001" lon="0"><time>2026-04-30T04:07:04.061Z</time></trkpt>
      <trkpt lat="-0.000001" lon="0"><time>2026-04-30T04:07:04.078Z</time></trkpt>
      <trkpt lat="-0.000001" lon="0"><time>2026-04-30T04:07:04.095Z</time></trkpt>
      <trkpt lat="-0.000001" lon="0"><time>2026-04-30T04:07:04.111Z</time></trkpt>
      <trkpt lat="-0.000001" lon="0.000001"><time>2026-04-30T04:07:04.128Z</time></trkpt>
      <trkpt lat="-0.000001" lon="0.000001"><time>2026-04-30T04:07:04.145Z</time></trkpt>
      <trkpt lat="-0.000001" lon="0.000001"><time>2026-04-30T04:07:04.162Z</time></trkpt>
      <trkpt lat="-0.000001" lon="0.000001"><time>2026-04-30T04:07:04.178Z</time></trkpt>
      <trkpt lat="-0.000001" lon="0.000001"><time>2026-04-30T04:07:04.195Z</time></trkpt>
      <trkpt lat="-0.000001" lon="0.000001"><time>2026-04-30T04:07:04.212Z</time></trkpt>
      <trkpt lat="-0.000001" lon="0.000001"><time>2026-04-30T04:07:04.228Z</time></trkpt>
      <trkpt lat="-0.000001" lon="0.000001"><time>2026-04-30T04:07:04.245Z</time></trkpt>
      <trkpt lat="-0.000001" lon="0.000001"><time>2026-04-30T04:07:04.262Z</time></trkpt>
      <trkpt lat="-0.000001" lon="0.000001"><time>2026-04-30T04:07:04.278Z</time></trkpt>
      <trkpt lat="-0.000001" lon="0.000001"><time>2026-04-30T04:07:04.295Z</time></trkpt>
      <trkpt lat="-0.000001" lon="0.000001"><time>2026-04-30T04:07:04.312Z</time></trkpt>
      <trkpt lat="-0.000001" lon="0.000001"><time>2026-04-30T04:07:04.328Z</time></trkpt>
      <trkpt lat="-0.000001" lon="0.000001"><time>2026-04-30T04:07:04.345Z</time></trkpt>
      <trkpt lat="-0.000001" lon="0.000001"><time>2026-04-30T04:07:04.362Z</time></trkpt>
      <trkpt lat="-0.000001" lon="0.000001"><time>2026-04-30T04:07:04.378Z</time></trkpt>
      <trkpt lat="-0.000001" lon="0.000001"><time>2026-04-30T04:07:04.395Z</time></trkpt>
      <trkpt lat="-0.000001" lon="0.000001"><time>2026-04-30T04:07:04.412Z</time></trkpt>
      <trkpt lat="-0.000001" lon="0.000001"><time>2026-04-30T04:07:04.428Z</time></trkpt>
      <trkpt lat="-0.000001" lon="0.000001"><time>2026-04-30T04:07:04.445Z</time></trkpt>
      <trkpt lat="-0.000001" lon="0.000001"><time>2026-04-30T04:07:04.462Z</time></trkpt>
      <trkpt lat="-0.000001" lon="0.000001"><time>2026-04-30T04:07:04.479Z</time></trkpt>
      <trkpt lat="-0.000001" lon="0.000001"><time>2026-04-30T04:07:04.495Z</time></trkpt>
      <trkpt lat="-0.000001" lon="0.000001"><time>2026-04-30T04:07:04.512Z</time></trkpt>
      <trkpt lat="-0.000001" lon="0.000001"><time>2026-04-30T04:07:04.529Z</time></trkpt>
      <trkpt lat="-0.000001" lon="0.000001"><time>2026-04-30T04:07:04.545Z</time></trkpt>
      <trkpt lat="-0.000001" lon="0.000001"><time>2026-04-30T04:07:04.562Z</time></trkpt>
      <trkpt lat="-0.000001" lon="0.000001"><time>2026-04-30T04:07:04.579Z</time></trkpt>
      <trkpt lat="-0.000001" lon="0.000001"><time>2026-04-30T04:07:04.595Z</time></trkpt>
      <trkpt lat="-0.000001" lon="0.000001"><time>2026-04-30T04:07:04.612Z</time></trkpt>
      <trkpt lat="-0.000001" lon="0.000001"><time>2026-04-30T04:07:04.629Z</time></trkpt>
      <trkpt lat="-0.000001" lon="0.000001"><time>2026-04-30T04:07:04.645Z</time></trkpt>
      <trkpt lat="-0.000001" lon="0.000001"><time>2026-04-30T04:07:04.662Z</time></trkpt>
      <trkpt lat="-0.000001" lon="0.000001"><time>2026-04-30T04:07:04.679Z</time></trkpt>
      <trkpt lat="-0.000001" lon="0.000001"><time>2026-04-30T04:07:04.695Z</time></trkpt>
      <trkpt lat="-0.000001" lon="0.000001"><time>2026-04-30T04:07:04.712Z</time></trkpt>
      <trkpt lat="-0.000001" lon="0.000001"><time>2026-04-30T04:07:04.729Z</time></trkpt>
      <trkpt lat="-0.000001" lon="0.000001"><time>2026-04-30T04:07:04.745Z</time></trkpt>
      <trkpt lat="-0.000001" lon="0.000001"><time>2026-04-30T04:07:04.762Z</time></trkpt>
      <trkpt lat="-0.000001" lon="0.000001"><time>2026-04-30T04:07:04.779Z</time></trkpt>
      <trkpt lat="-0.000001" lon="0.000001"><time>2026-04-30T04:07:04.796Z</time></trkpt>
      <trkpt lat="-0.000001" lon="0.000001"><time>2026-04-30T04:07:04.812Z</time></trkpt>
      <trkpt lat="0" lon="0.000001"><time>2026-04-30T04:07:04.829Z</time></trkpt>
      <trkpt lat="0" lon="0.000001"><time>2026-04-30T04:07:04.846Z</time></trkpt>
      <trkpt lat="0" lon="0.000001"><time>2026-04-30T04:07:04.862Z</time></trkpt>
      <trkpt lat="0" lon="0.000001"><time>2026-04-30T04:07:04.879Z</time></trkpt>
      <trkpt lat="0" lon="0.000001"><time>2026-04-30T04:07:04.896Z</time></trkpt>
      <trkpt lat="0" lon="0.000001"><time>2026-04-30T04:07:04.912Z</time></trkpt>
      <trkpt lat="0" lon="0.000001"><time>2026-04-30T04:07:04.929Z</time></trkpt>
      <trkpt lat="0" lon="0.000001"><time>2026-04-30T04:07:04.946Z</time></trkpt>
      <trkpt lat="0" lon="0.000001"><time>2026-04-30T04:07:04.962Z</time></trkpt>
      <trkpt lat="0" lon="0.000001"><time>2026-04-30T04:07:04.979Z</time></trkpt>
      <trkpt lat="0" lon="0.000001"><time>2026-04-30T04:07:04.996Z</time></trkpt>
      <trkpt lat="0" lon="0.000001"><time>2026-04-30T04:07:05.012Z</time></trkpt>
      <trkpt lat="0" lon="0"><time>2026-04-30T04:07:05.029Z</time></trkpt>
      <trkpt lat="0" lon="0"><time>2026-04-30T04:07:05.046Z</time></trkpt>
      <trkpt lat="0" lon="0"><time>2026-04-30T04:07:05.062Z</time></trkpt>
      <trkpt lat="0" lon="0"><time>2026-04-30T04:07:05.079Z</time></trkpt>
      <trkpt lat="0" lon="0"><time>2026-04-30T04:07:05.096Z</time></trkpt>
      <trkpt lat="0" lon="0"><time>2026-04-30T04:07:05.113Z</time></trkpt>
      <trkpt lat="0" lon="0"><time>2026-04-30T04:07:05.129Z</time></trkpt>
      <trkpt lat="0" lon="0"><time>2026-04-30T04:07:05.146Z</time></trkpt>
      <trkpt lat="0" lon="0"><time>2026-04-30T04:07:05.163Z</time></trkpt>
      <trkpt lat="0" lon="0"><time>2026-04-30T04:07:05.179Z</time></trkpt>
      <trkpt lat="0" lon="0"><time>2026-04-30T04:07:05.196Z</time></trkpt>
      <trkpt lat="0" lon="0"><time>2026-04-30T04:07:05.213Z</time></trkpt>
      <trkpt lat="0" lon="0"><time>2026-04-30T04:07:05.229Z</time></trkpt>
      <trkpt lat="0" lon="0"><time>2026-04-30T04:07:05.246Z</time></trkpt>
      <trkpt lat="0" lon="0"><time>2026-04-30T04:07:05.263Z</time></trkpt>
      <trkpt lat="0" lon="0"><time>2026-04-30T04:07:05.279Z</time></trkpt>
      <trkpt lat="0" lon="0"><time>2026-04-30T04:07:05.296Z</time></trkpt>
      <trkpt lat="0" lon="0"><time>2026-04-30T04:07:05.313Z</time></trkpt>
      <trkpt lat="0" lon="0"><time>2026-04-30T04:07:05.329Z</time></trkpt>
      <trkpt lat="0" lon="0"><time>2026-04-30T04:07:05.346Z</time></trkpt>
      <trkpt lat="0" lon="0"><time>2026-04-30T04:07:05.363Z</time></trkpt>
      <trkpt lat="0" lon="0"><time>2026-04-30T04:07:05.379Z</time></trkpt>
      <trkpt lat="0" lon="0"><time>2026-04-30T04:07:05.396Z</time></trkpt>
      <trkpt lat="0" lon="0"><time>2026-04-30T04:07:05.413Z</time></trkpt>
      <trkpt lat="0" lon="0"><time>2026-04-30T04:07:05.430Z</time></trkpt>
      <trkpt lat="0" lon="0"><time>2026-04-30T04:07:05.446Z</time></trkpt>
      <trkpt lat="0" lon="0"><time>2026-04-30T04:07:05.463Z</time></trkpt>
      <trkpt lat="0" lon="0"><time>2026-04-30T04:07:05.480Z</time></trkpt>
      <trkpt lat="0" lon="0"><time>2026-04-30T04:07:05.496Z</time></trkpt>
      <trkpt lat="0" lon="0"><time>2026-04-30T04:07:05.513Z</time></trkpt>
      <trkpt lat="0" lon="0"><time>2026-04-30T04:07:05.530Z</time></trkpt>
      <trkpt lat="0" lon="0"><time>2026-04-30T04:07:05.546Z</time></trkpt>
      <trkpt lat="0" lon="0"><time>2026-04-30T04:07:05.563Z</time></trkpt>
      <trkpt lat="0" lon="0"><time>2026-04-30T04:07:05.580Z</time></trkpt>
      <trkpt lat="0" lon="0"><time>2026-04-30T04:07:05.596Z</time></trkpt>
      <trkpt lat="0" lon="0"><time>2026-04-30T04:07:05.613Z</time></trkpt>
      <trkpt lat="0" lon="0"><time>2026-04-30T04:07:05.630Z</time></trkpt>
      <trkpt lat="0" lon="0"><time>2026-04-30T04:07:05.646Z</time></trkpt>
      <trkpt lat="0" lon="0"><time>2026-04-30T04:07:05.663Z</time></trkpt>
      <trkpt lat="0" lon="0"><time>2026-04-30T04:07:05.680Z</time></trkpt>
      <trkpt lat="0" lon="0"><time>2026-04-30T04:07:05.696Z</time></trkpt>
      <trkpt lat="0" lon="0"><time>2026-04-30T04:07:05.713Z</time></trkpt>
      <trkpt lat="0" lon="0"><time>2026-04-30T04:07:05.730Z</time></trkpt>
      <trkpt lat="0" lon="0"><time>2026-04-30T04:07:05.747Z</time></trkpt>
      <trkpt lat="0" lon="0"><time>2026-04-30T04:07:05.763Z</time></trkpt>
      <trkpt lat="0" lon="0"><time>2026-04-30T04:07:05.780Z</time></trkpt>
      <trkpt lat="0" lon="0"><time>2026-04-30T04:07:05.797Z</time></trkpt>
      <trkpt lat="0" lon="0"><time>2026-04-30T04:07:05.813Z</time></trkpt>
      <trkpt lat="0" lon="0"><time>2026-04-30T04:07:05.830Z</time></trkpt>
      <trkpt lat="0" lon="0"><time>2026-04-30T04:07:05.847Z</time></trkpt>
      <trkpt lat="0" lon="0"><time>2026-04-30T04:07:05.863Z</time></trkpt>
    </trkseg>
  </trk>
</gpx>
