<?xml version="1.0" encoding="UTF-8"?>
<gpx version="1.1" creator="Kairos" xmlns="http://www.topografix.com/GPX/1/1">
  <trk>
    <name>sidecar-srt-d8e2434f43421447</name>
    <trkseg>
      <trkpt lat="22.523507" lon="108.732041"><time>2026-04-25T01:50:21.000Z</time></trkpt>
      <trkpt lat="22.523507" lon="108.732041"><time>2026-04-25T01:50:21.016Z</time></trkpt>
      <trkpt lat="22.523507" lon="108.732041"><time>2026-04-25T01:50:21.032Z</time></trkpt>
      <trkpt lat="22.523507" lon="108.732041"><time>2026-04-25T01:50:21.049Z</time></trkpt>
      <trkpt lat="22.523507" lon="108.732041"><time>2026-04-25T01:50:21.066Z</time></trkpt>
      <trkpt lat="22.523507" lon="108.732041"><time>2026-04-25T01:50:21.082Z</time></trkpt>
      <trkpt lat="22.523507" lon="108.732041"><time>2026-04-25T01:50:21.099Z</time></trkpt>
      <trkpt lat="22.523507" lon="108.732041"><time>2026-04-25T01:50:21.116Z</time></trkpt>
      <trkpt lat="22.523507" lon="108.732041"><time>2026-04-25T01:50:21.132Z</time></trkpt>
      <trkpt lat="22.523507" lon="108.732041"><time>2026-04-25T01:50:21.149Z</time></trkpt>
      <trkpt lat="22.523507" lon="108.732041"><time>2026-04-25T01:50:21.166Z</time></trkpt>
      <trkpt lat="22.523507" lon="108.732041"><time>2026-04-25T01:50:21.182Z</time></trkpt>
      <trkpt lat="22.523507" lon="108.732041"><time>2026-04-25T01:50:21.199Z</time></trkpt>
      <trkpt lat="22.523507" lon="108.732041"><time>2026-04-25T01:50:21.216Z</time></trkpt>
      <trkpt lat="22.523507" lon="108.732041"><time>2026-04-25T01:50:21.232Z</time></trkpt>
      <trkpt lat="22.523507" lon="108.732041"><time>2026-04-25T01:50:21.249Z</time></trkpt>
      <trkpt lat="22.523507" lon="108.732041"><time>2026-04-25T01:50:21.266Z</time></trkpt>
      <trkpt lat="22.523507" lon="108.732041"><time>2026-04-25T01:50:21.282Z</time></trkpt>
      <trkpt lat="22.523507" lon="108.732041"><time>2026-04-25T01:50:21.299Z</time></trkpt>
      <trkpt lat="22.523507" lon="108.732041"><time>2026-04-25T01:50:21.316Z</time></trkpt>
      <trkpt lat="22.523507" lon="108.732041"><time>2026-04-25T01:50:21.333Z</time></trkpt>
      <trkpt lat="22.523507" lon="108.732041"><time>2026-04-25T01:50:21.349Z</time></trkpt>
      <trkpt lat="22.523507" lon="108.732041"><time>2026-04-25T01:50:21.366Z</time></trkpt>
      <trkpt lat="22.523507" lon="108.732041"><time>2026-04-25T01:50:21.383Z</time></trkpt>
      <trkpt lat="22.523507" lon="108.732041"><time>2026-04-25T01:50:21.399Z</time></trkpt>
      <trkpt lat="22.523507" lon="108.732041"><time>2026-04-25T01:50:21.416Z</time></trkpt>
      <trkpt lat="22.523507" lon="108.732041"><time>2026-04-25T01:50:21.433Z</time></trkpt>
      <trkpt lat="22.523507" lon="108.732041"><time>2026-04-25T01:50:21.449Z</time></trkpt>
      <trkpt lat="22.523507" lon="108.732041"><time>2026-04-25T01:50:21.466Z</time></trkpt>
      <trkpt lat="22.523507" lon="108.732041"><time>2026-04-25T01:50:21.483Z</time></trkpt>
      <trkpt lat="22.523507" lon="108.732041"><time>2026-04-25T01:50:21.499Z</time></trkpt>
      <trkpt lat="22.523507" lon="108.732041"><time>2026-04-25T01:50:21.516Z</time></trkpt>
      <trkpt lat="22.523507" lon="108.732041"><time>2026-04-25T01:50:21.533Z</time></trkpt>
      <trkpt lat="22.523507" lon="108.732041"><time>2026-04-25T01:50:21.549Z</time></trkpt>
      <trkpt lat="22.523507" lon="108.732041"><time>2026-04-25T01:50:21.566Z</time></trkpt>
      <trkpt lat="22.523507" lon="108.732041"><time>2026-04-25T01:50:21.583Z</time></trkpt>
      <trkpt lat="22.523507" lon="108.732041"><time>2026-04-25T01:50:21.599Z</time></trkpt>
      <trkpt lat="22.523507" lon="108.732041"><time>2026-04-25T01:50:21.616Z</time></trkpt>
      <trkpt lat="22.523507" lon="108.732041"><time>2026-04-25T01:50:21.633Z</time></trkpt>
      <trkpt lat="22.523507" lon="108.732041"><time>2026-04-25T01:50:21.650Z</time></trkpt>
      <trkpt lat="22.523507" lon="108.732041"><time>2026-04-25T01:50:21.666Z</time></trkpt>
      <trkpt lat="22.523507" lon="108.732041"><time>2026-04-25T01:50:21.683Z</time></trkpt>
      <trkpt lat="22.523507" lon="108.732041"><time>2026-04-25T01:50:21.700Z</time></trkpt>
      <trkpt lat="22.523507" lon="108.732041"><time>2026-04-25T01:50:21.716Z</time></trkpt>
      <trkpt lat="22.523507" lon="108.732041"><time>2026-04-25T01:50:21.733Z</time></trkpt>
      <trkpt lat="22.523507" lon="108.73204"><time>2026-04-25T01:50:21.750Z</time></trkpt>
      <trkpt lat="22.523507" lon="108.73204"><time>2026-04-25T01:50:21.766Z</time></trkpt>
      <trkpt lat="22.523507" lon="108.73204"><time>2026-04-25T01:50:21.783Z</time></trkpt>
      <trkpt lat="22.523507" lon="108.73204"><time>2026-04-25T01:50:21.800Z</time></trkpt>
      <trkpt lat="22.523507" lon="108.73204"><time>2026-04-25T01:50:21.816Z</time></trkpt>
      <trkpt lat="22.523507" lon="108.73204"><time>2026-04-25T01:50:21.833Z</time></trkpt>
      <trkpt lat="22.523508" lon="108.732039"><time>2026-04-25T01:50:21.850Z</time></trkpt>
      <trkpt lat="22.523508" lon="108.732039"><time>2026-04-25T01:50:21.866Z</time></trkpt>
      <trkpt lat="22.523508" lon="108.732039"><time>2026-04-25T01:50:21.883Z</time></trkpt>
      <trkpt lat="22.523508" lon="108.732039"><time>2026-04-25T01:50:21.900Z</time></trkpt>
      <trkpt lat="22.523508" lon="108.732039"><time>2026-04-25T01:50:21.916Z</time></trkpt>
      <trkpt lat="22.523508" lon="108.732039"><time>2026-04-25T01:50:21.933Z</time></trkpt>
      <trkpt lat="22.523509" lon="108.732037"><time>2026-04-25T01:50:21.950Z</time></trkpt>
      <trkpt lat="22.523509" lon="108.732037"><time>2026-04-25T01:50:21.967Z</time></trkpt>
      <trkpt lat="22.523509" lon="108.732037"><time>2026-04-25T01:50:21.983Z</time></trkpt>
      <trkpt lat="22.523509" lon="108.732037"><time>2026-04-25T01:50:22.000Z</time></trkpt>
      <trkpt lat="22.523509" lon="108.732037"><time>2026-04-25T01:50:22.017Z</time></trkpt>
      <trkpt lat="22.523509" lon="108.732037"><time>2026-04-25T01:50:22.033Z</time></trkpt>
      <trkpt lat="22.52351" lon="108.732034"><time>2026-04-25T01:50:22.050Z</time></trkpt>
      <trkpt lat="22.52351" lon="108.732034"><time>2026-04-25T01:50:22.067Z</time></trkpt>
      <trkpt lat="22.52351" lon="108.732034"><time>2026-04-25T01:50:22.083Z</time></trkpt>
      <trkpt lat="22.52351" lon="108.732034"><time>2026-04-25T01:50:22.100Z</time></trkpt>
      <trkpt lat="22.52351" lon="108.732034"><time>2026-04-25T01:50:22.117Z</time></trkpt>
      <trkpt lat="22.52351" lon="108.732034"><time>2026-04-25T01:50:22.133Z</time></trkpt>
      <trkpt lat="22.523512" lon="108.732032"><time>2026-04-25T01:50:22.150Z</time></trkpt>
      <trkpt lat="22.523512" lon="108.732032"><time>2026-04-25T01:50:22.167Z</time></trkpt>
      <trkpt lat="22.523512" lon="108.732032"><time>2026-04-25T01:50:22.183Z</time></trkpt>
      <trkpt lat="22.523512" lon="108.732032"><time>2026-04-25T01:50:22.200Z</time></trkpt>
      <trkpt lat="22.523512" lon="108.732032"><time>2026-04-25T01:50:22.217Z</time></trkpt>
      <trkpt lat="22.523512" lon="108.732032"><time>2026-04-25T01:50:22.233Z</time></trkpt>
      <trkpt lat="22.523514" lon="108.732028"><time>2026-04-25T01:50:22.250Z</time></trkpt>
      <trkpt lat="22.523514" lon="108.732028"><time>2026-04-25T01:50:22.267Z</time></trkpt>
      <trkpt lat="22.523514" lon="108.732028"><time>2026-04-25T01:50:22.283Z</time></trkpt>
      <trkpt lat="22.523514" lon="108.732028"><time>2026-04-25T01:50:22.300Z</time></trkpt>
      <trkpt lat="22.523514" lon="108.732028"><time>2026-04-25T01:50:22.317Z</time></trkpt>
      <trkpt lat="22.523514" lon="108.732028"><time>2026-04-25T01:50:22.334Z</time></trkpt>
      <trkpt lat="22.523516" lon="108.732025"><time>2026-04-25T01:50:22.350Z</time></trkpt>
      <trkpt lat="22.523516" lon="108.732025"><time>2026-04-25T01:50:22.367Z</time></trkpt>
      <trkpt lat="22.523516" lon="108.732025"><time>2026-04-25T01:50:22.384Z</time></trkpt>
      <trkpt lat="22.523516" lon="108.732025"><time>2026-04-25T01:50:22.400Z</time></trkpt>
      <trkpt lat="22.523516" lon="108.732025"><time>2026-04-25T01:50:22.417Z</time></trkpt>
      <trkpt lat="22.523516" lon="108.732025"><time>2026-04-25T01:50:22.434Z</time></trkpt>
      <trkpt lat="22.523518" lon="108.732021"><time>2026-04-25T01:50:22.450Z</time></trkpt>
      <trkpt lat="22.523518" lon="108.732021"><time>2026-04-25T01:50:22.467Z</time></trkpt>
      <trkpt lat="22.523518" lon="108.732021"><time>2026-04-25T01:50:22.484Z</time></trkpt>
      <trkpt lat="22.523518" lon="108.732021"><time>2026-04-25T01:50:22.500Z</time></trkpt>
      <trkpt lat="22.523518" lon="108.732021"><time>2026-04-25T01:50:22.517Z</time></trkpt>
      <trkpt lat="22.523518" lon="108.732021"><time>2026-04-25T01:50:22.534Z</time></trkpt>
      <trkpt lat="22.523521" lon="108.732016"><time>2026-04-25T01:50:22.550Z</time></trkpt>
      <trkpt lat="22.523521" lon="108.732016"><time>2026-04-25T01:50:22.567Z</time></trkpt>
      <trkpt lat="22.523521" lon="108.732016"><time>2026-04-25T01:50:22.584Z</time></trkpt>
      <trkpt lat="22.523521" lon="108.732016"><time>2026-04-25T01:50:22.600Z</time></trkpt>
      <trkpt lat="22.523521" lon="108.732016"><time>2026-04-25T01:50:22.617Z</time></trkpt>
      <trkpt lat="22.523521" lon="108.732016"><time>2026-04-25T01:50:22.634Z</time></trkpt>
      <trkpt lat="22.523524" lon="108.732011"><time>2026-04-25T01:50:22.651Z</time></trkpt>
      <trkpt lat="22.523524" lon="108.732011"><time>2026-04-25T01:50:22.667Z</time></trkpt>
      <trkpt lat="22.523524" lon="108.732011"><time>2026-04-25T01:50:22.684Z</time></trkpt>
      <trkpt lat="22.523524" lon="108.732011"><time>2026-04-25T01:50:22.701Z</time></trkpt>
      <trkpt lat="22.523524" lon="108.732011"><time>2026-04-25T01:50:22.717Z</time></trkpt>
      <trkpt lat="22.523524" lon="108.732011"><time>2026-04-25T01:50:22.734Z</time></trkpt>
      <trkpt lat="22.523527" lon="108.732005"><time>2026-04-25T01:50:22.751Z</time></trkpt>
      <trkpt lat="22.523527" lon="108.732005"><time>2026-04-25T01:50:22.767Z</time></trkpt>
      <trkpt lat="22.523527" lon="108.732005"><time>2026-04-25T01:50:22.784Z</time></trkpt>
      <trkpt lat="22.523527" lon="108.732005"><time>2026-04-25T01:50:22.801Z</time></trkpt>
      <trkpt lat="22.523527" lon="108.732005"><time>2026-04-25T01:50:22.817Z</time></trkpt>
      <trkpt lat="22.523527" lon="108.732005"><time>2026-04-25T01:50:22.834Z</time></trkpt>
      <trkpt lat="22.523531" lon="108.731998"><time>2026-04-25T01:50:22.851Z</time></trkpt>
      <trkpt lat="22.523531" lon="108.731998"><time>2026-04-25T01:50:22.867Z</time></trkpt>
      <trkpt lat="22.523531" lon="108.731998"><time>2026-04-25T01:50:22.884Z</time></trkpt>
      <trkpt lat="22.523531" lon="108.731998"><time>2026-04-25T01:50:22.901Z</time></trkpt>
      <trkpt lat="22.523531" lon="108.731998"><time>2026-04-25T01:50:22.917Z</time></trkpt>
      <trkpt lat="22.523531" lon="108.731998"><time>2026-04-25T01:50:22.934Z</time></trkpt>
      <trkpt lat="22.523535" lon="108.731991"><time>2026-04-25T01:50:22.951Z</time></trkpt>
      <trkpt lat="22.523535" lon="108.731991"><time>2026-04-25T01:50:22.968Z</time></trkpt>
      <trkpt lat="22.523535" lon="108.731991"><time>2026-04-25T01:50:22.984Z</time></trkpt>
      <trkpt lat="22.523535" lon="108.731991"><time>2026-04-25T01:50:23.001Z</time></trkpt>
      <trkpt lat="22.523535" lon="108.731991"><time>2026-04-25T01:50:23.018Z</time></trkpt>
      <trkpt lat="22.523535" lon="108.731991"><time>2026-04-25T01:50:23.034Z</time></trkpt>
      <trkpt lat="22.52354" lon="108.731983"><time>2026-04-25T01:50:23.051Z</time></trkpt>
      <trkpt lat="22.52354" lon="108.731983"><time>2026-04-25T01:50:23.068Z</time></trkpt>
      <trkpt lat="22.52354" lon="108.731983"><time>2026-04-25T01:50:23.084Z</time></trkpt>
      <trkpt lat="22.52354" lon="108.731983"><time>2026-04-25T01:50:23.101Z</time></trkpt>
      <trkpt lat="22.52354" lon="108.731983"><time>2026-04-25T01:50:23.118Z</time></trkpt>
      <trkpt lat="22.52354" lon="108.731983"><time>2026-04-25T01:50:23.134Z</time></trkpt>
      <trkpt lat="22.523545" lon="108.731975"><time>2026-04-25T01:50:23.151Z</time></trkpt>
      <trkpt lat="22.523545" lon="108.731975"><time>2026-04-25T01:50:23.168Z</time></trkpt>
      <trkpt lat="22.523545" lon="108.731975"><time>2026-04-25T01:50:23.184Z</time></trkpt>
      <trkpt lat="22.523545" lon="108.731975"><time>2026-04-25T01:50:23.201Z</time></trkpt>
      <trkpt lat="22.523545" lon="108.731975"><time>2026-04-25T01:50:23.218Z</time></trkpt>
      <trkpt lat="22.523545" lon="108.731975"><time>2026-04-25T01:50:23.234Z</time></trkpt>
      <trkpt lat="22.52355" lon="108.731967"><time>2026-04-25T01:50:23.251Z</time></trkpt>
      <trkpt lat="22.52355" lon="108.731967"><time>2026-04-25T01:50:23.268Z</time></trkpt>
      <trkpt lat="22.52355" lon="108.731967"><time>2026-04-25T01:50:23.285Z</time></trkpt>
      <trkpt lat="22.52355" lon="108.731967"><time>2026-04-25T01:50:23.301Z</time></trkpt>
      <trkpt lat="22.52355" lon="108.731967"><time>2026-04-25T01:50:23.318Z</time></trkpt>
      <trkpt lat="22.52355" lon="108.731967"><time>2026-04-25T01:50:23.335Z</time></trkpt>
      <trkpt lat="22.523554" lon="108.731959"><time>2026-04-25T01:50:23.351Z</time></trkpt>
      <trkpt lat="22.523554" lon="108.731959"><time>2026-04-25T01:50:23.368Z</time></trkpt>
      <trkpt lat="22.523554" lon="108.731959"><time>2026-04-25T01:50:23.385Z</time></trkpt>
      <trkpt lat="22.523554" lon="108.731959"><time>2026-04-25T01:50:23.401Z</time></trkpt>
      <trkpt lat="22.523554" lon="108.731959"><time>2026-04-25T01:50:23.418Z</time></trkpt>
      <trkpt lat="22.523554" lon="108.731959"><time>2026-04-25T01:50:23.435Z</time></trkpt>
      <trkpt lat="22.523559" lon="108.731951"><time>2026-04-25T01:50:23.451Z</time></trkpt>
      <trkpt lat="22.523559" lon="108.731951"><time>2026-04-25T01:50:23.468Z</time></trkpt>
      <trkpt lat="22.523559" lon="108.731951"><time>2026-04-25T01:50:23.485Z</time></trkpt>
      <trkpt lat="22.523559" lon="108.731951"><time>2026-04-25T01:50:23.501Z</time></trkpt>
      <trkpt lat="22.523559" lon="108.731951"><time>2026-04-25T01:50:23.518Z</time></trkpt>
      <trkpt lat="22.523559" lon="108.731951"><time>2026-04-25T01:50:23.535Z</time></trkpt>
      <trkpt lat="22.523565" lon="108.731941"><time>2026-04-25T01:50:23.551Z</time></trkpt>
      <trkpt lat="22.523565" lon="108.731941"><time>2026-04-25T01:50:23.568Z</time></trkpt>
      <trkpt lat="22.523565" lon="108.731941"><time>2026-04-25T01:50:23.585Z</time></trkpt>
      <trkpt lat="22.523565" lon="108.731941"><time>2026-04-25T01:50:23.602Z</time></trkpt>
      <trkpt lat="22.523565" lon="108.731941"><time>2026-04-25T01:50:23.618Z</time></trkpt>
      <trkpt lat="22.523565" lon="108.731941"><time>2026-04-25T01:50:23.635Z</time></trkpt>
      <trkpt lat="22.52357" lon="108.731933"><time>2026-04-25T01:50:23.652Z</time></trkpt>
      <trkpt lat="22.52357" lon="108.731933"><time>2026-04-25T01:50:23.668Z</time></trkpt>
      <trkpt lat="22.52357" lon="108.731933"><time>2026-04-25T01:50:23.685Z</time></trkpt>
      <trkpt lat="22.52357" lon="108.731933"><time>2026-04-25T01:50:23.702Z</time></trkpt>
      <trkpt lat="22.52357" lon="108.731933"><time>2026-04-25T01:50:23.718Z</time></trkpt>
      <trkpt lat="22.52357" lon="108.731933"><time>2026-04-25T01:50:23.735Z</time></trkpt>
      <trkpt lat="22.523575" lon="108.731923"><time>2026-04-25T01:50:23.752Z</time></trkpt>
      <trkpt lat="22.523575" lon="108.731923"><time>2026-04-25T01:50:23.768Z</time></trkpt>
      <trkpt lat="22.523575" lon="108.731923"><time>2026-04-25T01:50:23.785Z</time></trkpt>
      <trkpt lat="22.523575" lon="108.731923"><time>2026-04-25T01:50:23.802Z</time></trkpt>
      <trkpt lat="22.523575" lon="108.731923"><time>2026-04-25T01:50:23.818Z</time></trkpt>
      <trkpt lat="22.523575" lon="108.731923"><time>2026-04-25T01:50:23.835Z</time></trkpt>
      <trkpt lat="22.523581" lon="108.731914"><time>2026-04-25T01:50:23.852Z</time></trkpt>
      <trkpt lat="22.523581" lon="108.731914"><time>2026-04-25T01:50:23.868Z</time></trkpt>
      <trkpt lat="22.523581" lon="108.731914"><time>2026-04-25T01:50:23.885Z</time></trkpt>
      <trkpt lat="22.523581" lon="108.731914"><time>2026-04-25T01:50:23.902Z</time></trkpt>
      <trkpt lat="22.523581" lon="108.731914"><time>2026-04-25T01:50:23.919Z</time></trkpt>
      <trkpt lat="22.523581" lon="108.731914"><time>2026-04-25T01:50:23.935Z</time></trkpt>
      <trkpt lat="22.523586" lon="108.731904"><time>2026-04-25T01:50:23.952Z</time></trkpt>
      <trkpt lat="22.523586" lon="108.731904"><time>2026-04-25T01:50:23.969Z</time></trkpt>
      <trkpt lat="22.523586" lon="108.731904"><time>2026-04-25T01:50:23.985Z</time></trkpt>
      <trkpt lat="22.523586" lon="108.731904"><time>2026-04-25T01:50:24.002Z</time></trkpt>
      <trkpt lat="22.523586" lon="108.731904"><time>2026-04-25T01:50:24.019Z</time></trkpt>
      <trkpt lat="22.523586" lon="108.731904"><time>2026-04-25T01:50:24.035Z</time></trkpt>
      <trkpt lat="22.523592" lon="108.731895"><time>2026-04-25T01:50:24.052Z</time></trkpt>
      <trkpt lat="22.523592" lon="108.731895"><time>2026-04-25T01:50:24.069Z</time></trkpt>
      <trkpt lat="22.523592" lon="108.731895"><time>2026-04-25T01:50:24.085Z</time></trkpt>
      <trkpt lat="22.523592" lon="108.731895"><time>2026-04-25T01:50:24.102Z</time></trkpt>
      <trkpt lat="22.523592" lon="108.731895"><time>2026-04-25T01:50:24.119Z</time></trkpt>
      <trkpt lat="22.523592" lon="108.731895"><time>2026-04-25T01:50:24.135Z</time></trkpt>
      <trkpt lat="22.523598" lon="108.731885"><time>2026-04-25T01:50:24.152Z</time></trkpt>
      <trkpt lat="22.523598" lon="108.731885"><time>2026-04-25T01:50:24.169Z</time></trkpt>
      <trkpt lat="22.523598" lon="108.731885"><time>2026-04-25T01:50:24.185Z</time></trkpt>
      <trkpt lat="22.523598" lon="108.731885"><time>2026-04-25T01:50:24.202Z</time></trkpt>
      <trkpt lat="22.523598" lon="108.731885"><time>2026-04-25T01:50:24.219Z</time></trkpt>
      <trkpt lat="22.523598" lon="108.731885"><time>2026-04-25T01:50:24.236Z</time></trkpt>
      <trkpt lat="22.523604" lon="108.731875"><time>2026-04-25T01:50:24.252Z</time></trkpt>
      <trkpt lat="22.523604" lon="108.731875"><time>2026-04-25T01:50:24.269Z</time></trkpt>
      <trkpt lat="22.523604" lon="108.731875"><time>2026-04-25T01:50:24.286Z</time></trkpt>
      <trkpt lat="22.523604" lon="108.731875"><time>2026-04-25T01:50:24.302Z</time></trkpt>
      <trkpt lat="22.523604" lon="108.731875"><time>2026-04-25T01:50:24.319Z</time></trkpt>
      <trkpt lat="22.523604" lon="108.731875"><time>2026-04-25T01:50:24.336Z</time></trkpt>
      <trkpt lat="22.52361" lon="108.731865"><time>2026-04-25T01:50:24.352Z</time></trkpt>
      <trkpt lat="22.52361" lon="108.731865"><time>2026-04-25T01:50:24.369Z</time></trkpt>
      <trkpt lat="22.52361" lon="108.731865"><time>2026-04-25T01:50:24.386Z</time></trkpt>
      <trkpt lat="22.52361" lon="108.731865"><time>2026-04-25T01:50:24.402Z</time></trkpt>
      <trkpt lat="22.52361" lon="108.731865"><time>2026-04-25T01:50:24.419Z</time></trkpt>
      <trkpt lat="22.52361" lon="108.731865"><time>2026-04-25T01:50:24.436Z</time></trkpt>
      <trkpt lat="22.523616" lon="108.731855"><time>2026-04-25T01:50:24.452Z</time></trkpt>
      <trkpt lat="22.523616" lon="108.731855"><time>2026-04-25T01:50:24.469Z</time></trkpt>
      <trkpt lat="22.523616" lon="108.731855"><time>2026-04-25T01:50:24.486Z</time></trkpt>
      <trkpt lat="22.523616" lon="108.731855"><time>2026-04-25T01:50:24.502Z</time></trkpt>
      <trkpt lat="22.523616" lon="108.731855"><time>2026-04-25T01:50:24.519Z</time></trkpt>
      <trkpt lat="22.523616" lon="108.731855"><time>2026-04-25T01:50:24.536Z</time></trkpt>
      <trkpt lat="22.523623" lon="108.731844"><time>2026-04-25T01:50:24.553Z</time></trkpt>
      <trkpt lat="22.523623" lon="108.731844"><time>2026-04-25T01:50:24.569Z</time></trkpt>
      <trkpt lat="22.523623" lon="108.731844"><time>2026-04-25T01:50:24.586Z</time></trkpt>
      <trkpt lat="22.523623" lon="108.731844"><time>2026-04-25T01:50:24.603Z</time></trkpt>
      <trkpt lat="22.523623" lon="108.731844"><time>2026-04-25T01:50:24.619Z</time></trkpt>
      <trkpt lat="22.523623" lon="108.731844"><time>2026-04-25T01:50:24.636Z</time></trkpt>
      <trkpt lat="22.523629" lon="108.731833"><time>2026-04-25T01:50:24.653Z</time></trkpt>
      <trkpt lat="22.523629" lon="108.731833"><time>2026-04-25T01:50:24.669Z</time></trkpt>
      <trkpt lat="22.523629" lon="108.731833"><time>2026-04-25T01:50:24.686Z</time></trkpt>
      <trkpt lat="22.523629" lon="108.731833"><time>2026-04-25T01:50:24.703Z</time></trkpt>
      <trkpt lat="22.523629" lon="108.731833"><time>2026-04-25T01:50:24.719Z</time></trkpt>
      <trkpt lat="22.523629" lon="108.731833"><time>2026-04-25T01:50:24.736Z</time></trkpt>
      <trkpt lat="22.523636" lon="108.731822"><time>2026-04-25T01:50:24.753Z</time></trkpt>
      <trkpt lat="22.523636" lon="108.731822"><time>2026-04-25T01:50:24.769Z</time></trkpt>
      <trkpt lat="22.523636" lon="108.731822"><time>2026-04-25T01:50:24.786Z</time></trkpt>
      <trkpt lat="22.523636" lon="108.731822"><time>2026-04-25T01:50:24.803Z</time></trkpt>
      <trkpt lat="22.523636" lon="108.731822"><time>2026-04-25T01:50:24.819Z</time></trkpt>
      <trkpt lat="22.523636" lon="108.731822"><time>2026-04-25T01:50:24.836Z</time></trkpt>
      <trkpt lat="22.523643" lon="108.73181"><time>2026-04-25T01:50:24.853Z</time></trkpt>
      <trkpt lat="22.523643" lon="108.73181"><time>2026-04-25T01:50:24.870Z</time></trkpt>
      <trkpt lat="22.523643" lon="108.73181"><time>2026-04-25T01:50:24.886Z</time></trkpt>
      <trkpt lat="22.523643" lon="108.73181"><time>2026-04-25T01:50:24.903Z</time></trkpt>
      <trkpt lat="22.523643" lon="108.73181"><time>2026-04-25T01:50:24.920Z</time></trkpt>
      <trkpt lat="22.523643" lon="108.73181"><time>2026-04-25T01:50:24.936Z</time></trkpt>
      <trkpt lat="22.523649" lon="108.7318"><time>2026-04-25T01:50:24.953Z</time></trkpt>
      <trkpt lat="22.523649" lon="108.7318"><time>2026-04-25T01:50:24.970Z</time></trkpt>
      <trkpt lat="22.523649" lon="108.7318"><time>2026-04-25T01:50:24.986Z</time></trkpt>
      <trkpt lat="22.523649" lon="108.7318"><time>2026-04-25T01:50:25.003Z</time></trkpt>
      <trkpt lat="22.523649" lon="108.7318"><time>2026-04-25T01:50:25.020Z</time></trkpt>
      <trkpt lat="22.523649" lon="108.7318"><time>2026-04-25T01:50:25.036Z</time></trkpt>
      <trkpt lat="22.523657" lon="108.731788"><time>2026-04-25T01:50:25.053Z</time></trkpt>
      <trkpt lat="22.523657" lon="108.731788"><time>2026-04-25T01:50:25.070Z</time></trkpt>
      <trkpt lat="22.523657" lon="108.731788"><time>2026-04-25T01:50:25.086Z</time></trkpt>
      <trkpt lat="22.523657" lon="108.731788"><time>2026-04-25T01:50:25.103Z</time></trkpt>
      <trkpt lat="22.523657" lon="108.731788"><time>2026-04-25T01:50:25.120Z</time></trkpt>
      <trkpt lat="22.523657" lon="108.731788"><time>2026-04-25T01:50:25.136Z</time></trkpt>
      <trkpt lat="22.523664" lon="108.731776"><time>2026-04-25T01:50:25.153Z</time></trkpt>
      <trkpt lat="22.523664" lon="108.731776"><time>2026-04-25T01:50:25.170Z</time></trkpt>
      <trkpt lat="22.523664" lon="108.731776"><time>2026-04-25T01:50:25.187Z</time></trkpt>
      <trkpt lat="22.523664" lon="108.731776"><time>2026-04-25T01:50:25.203Z</time></trkpt>
      <trkpt lat="22.523664" lon="108.731776"><time>2026-04-25T01:50:25.220Z</time></trkpt>
      <trkpt lat="22.523664" lon="108.731776"><time>2026-04-25T01:50:25.237Z</time></trkpt>
      <trkpt lat="22.52367" lon="108.731764"><time>2026-04-25T01:50:25.253Z</time></trkpt>
      <trkpt lat="22.52367" lon="108.731764"><time>2026-04-25T01:50:25.270Z</time></trkpt>
      <trkpt lat="22.52367" lon="108.731764"><time>2026-04-25T01:50:25.287Z</time></trkpt>
      <trkpt lat="22.52367" lon="108.731764"><time>2026-04-25T01:50:25.303Z</time></trkpt>
      <trkpt lat="22.52367" lon="108.731764"><time>2026-04-25T01:50:25.320Z</time></trkpt>
      <trkpt lat="22.52367" lon="108.731764"><time>2026-04-25T01:50:25.337Z</time></trkpt>
      <trkpt lat="22.523677" lon="108.731753"><time>2026-04-25T01:50:25.353Z</time></trkpt>
      <trkpt lat="22.523677" lon="108.731753"><time>2026-04-25T01:50:25.370Z</time></trkpt>
      <trkpt lat="22.523677" lon="108.731753"><time>2026-04-25T01:50:25.387Z</time></trkpt>
      <trkpt lat="22.523677" lon="108.731753"><time>2026-04-25T01:50:25.403Z</time></trkpt>
      <trkpt lat="22.523677" lon="108.731753"><time>2026-04-25T01:50:25.420Z</time></trkpt>
      <trkpt lat="22.523677" lon="108.731753"><time>2026-04-25T01:50:25.437Z</time></trkpt>
      <trkpt lat="22.523684" lon="108.731741"><time>2026-04-25T01:50:25.453Z</time></trkpt>
      <trkpt lat="22.523684" lon="108.731741"><time>2026-04-25T01:50:25.470Z</time></trkpt>
      <trkpt lat="22.523684" lon="108.731741"><time>2026-04-25T01:50:25.487Z</time></trkpt>
      <trkpt lat="22.523684" lon="108.731741"><time>2026-04-25T01:50:25.504Z</time></trkpt>
      <trkpt lat="22.523684" lon="108.731741"><time>2026-04-25T01:50:25.520Z</time></trkpt>
      <trkpt lat="22.523684" lon="108.731741"><time>2026-04-25T01:50:25.537Z</time></trkpt>
      <trkpt lat="22.523692" lon="108.731727"><time>2026-04-25T01:50:25.554Z</time></trkpt>
      <trkpt lat="22.523692" lon="108.731727"><time>2026-04-25T01:50:25.570Z</time></trkpt>
      <trkpt lat="22.523692" lon="108.731727"><time>2026-04-25T01:50:25.587Z</time></trkpt>
      <trkpt lat="22.523692" lon="108.731727"><time>2026-04-25T01:50:25.604Z</time></trkpt>
      <trkpt lat="22.523692" lon="108.731727"><time>2026-04-25T01:50:25.620Z</time></trkpt>
      <trkpt lat="22.523692" lon="108.731727"><time>2026-04-25T01:50:25.637Z</time></trkpt>
      <trkpt lat="22.523699" lon="108.731715"><time>2026-04-25T01:50:25.654Z</time></trkpt>
      <trkpt lat="22.523699" lon="108.731715"><time>2026-04-25T01:50:25.670Z</time></trkpt>
      <trkpt lat="22.523699" lon="108.731715"><time>2026-04-25T01:50:25.687Z</time></trkpt>
      <trkpt lat="22.523699" lon="108.731715"><time>2026-04-25T01:50:25.704Z</time></trkpt>
      <trkpt lat="22.523699" lon="108.731715"><time>2026-04-25T01:50:25.720Z</time></trkpt>
      <trkpt lat="22.523699" lon="108.731715"><time>2026-04-25T01:50:25.737Z</time></trkpt>
      <trkpt lat="22.523707" lon="108.731703"><time>2026-04-25T01:50:25.754Z</time></trkpt>
      <trkpt lat="22.523707" lon="108.731703"><time>2026-04-25T01:50:25.770Z</time></trkpt>
      <trkpt lat="22.523707" lon="108.731703"><time>2026-04-25T01:50:25.787Z</time></trkpt>
      <trkpt lat="22.523707" lon="108.731703"><time>2026-04-25T01:50:25.804Z</time></trkpt>
      <trkpt lat="22.523707" lon="108.731703"><time>2026-04-25T01:50:25.821Z</time></trkpt>
      <trkpt lat="22.523707" lon="108.731703"><time>2026-04-25T01:50:25.837Z</time></trkpt>
      <trkpt lat="22.523715" lon="108.73169"><time>2026-04-25T01:50:25.854Z</time></trkpt>
      <trkpt lat="22.523715" lon="108.73169"><time>2026-04-25T01:50:25.871Z</time></trkpt>
      <trkpt lat="22.523715" lon="108.73169"><time>2026-04-25T01:50:25.887Z</time></trkpt>
      <trkpt lat="22.523715" lon="108.73169"><time>2026-04-25T01:50:25.904Z</time></trkpt>
      <trkpt lat="22.523715" lon="108.73169"><time>2026-04-25T01:50:25.921Z</time></trkpt>
      <trkpt lat="22.523715" lon="108.73169"><time>2026-04-25T01:50:25.937Z</time></trkpt>
      <trkpt lat="22.523722" lon="108.731678"><time>2026-04-25T01:50:25.954Z</time></trkpt>
      <trkpt lat="22.523722" lon="108.731678"><time>2026-04-25T01:50:25.971Z</time></trkpt>
      <trkpt lat="22.523722" lon="108.731678"><time>2026-04-25T01:50:25.987Z</time></trkpt>
      <trkpt lat="22.523722" lon="108.731678"><time>2026-04-25T01:50:26.004Z</time></trkpt>
      <trkpt lat="22.523722" lon="108.731678"><time>2026-04-25T01:50:26.021Z</time></trkpt>
      <trkpt lat="22.523722" lon="108.731678"><time>2026-04-25T01:50:26.037Z</time></trkpt>
      <trkpt lat="22.523729" lon="108.731665"><time>2026-04-25T01:50:26.054Z</time></trkpt>
      <trkpt lat="22.523729" lon="108.731665"><time>2026-04-25T01:50:26.071Z</time></trkpt>
      <trkpt lat="22.523729" lon="108.731665"><time>2026-04-25T01:50:26.087Z</time></trkpt>
      <trkpt lat="22.523729" lon="108.731665"><time>2026-04-25T01:50:26.104Z</time></trkpt>
      <trkpt lat="22.523729" lon="108.731665"><time>2026-04-25T01:50:26.121Z</time></trkpt>
      <trkpt lat="22.523729" lon="108.731665"><time>2026-04-25T01:50:26.138Z</time></trkpt>
      <trkpt lat="22.523738" lon="108.731652"><time>2026-04-25T01:50:26.154Z</time></trkpt>
      <trkpt lat="22.523738" lon="108.731652"><time>2026-04-25T01:50:26.171Z</time></trkpt>
      <trkpt lat="22.523738" lon="108.731652"><time>2026-04-25T01:50:26.188Z</time></trkpt>
      <trkpt lat="22.523738" lon="108.731652"><time>2026-04-25T01:50:26.204Z</time></trkpt>
      <trkpt lat="22.523738" lon="108.731652"><time>2026-04-25T01:50:26.221Z</time></trkpt>
      <trkpt lat="22.523738" lon="108.731652"><time>2026-04-25T01:50:26.238Z</time></trkpt>
      <trkpt lat="22.523745" lon="108.731639"><time>2026-04-25T01:50:26.254Z</time></trkpt>
      <trkpt lat="22.523745" lon="108.731639"><time>2026-04-25T01:50:26.271Z</time></trkpt>
      <trkpt lat="22.523745" lon="108.731639"><time>2026-04-25T01:50:26.288Z</time></trkpt>
      <trkpt lat="22.523745" lon="108.731639"><time>2026-04-25T01:50:26.304Z</time></trkpt>
      <trkpt lat="22.523745" lon="108.731639"><time>2026-04-25T01:50:26.321Z</time></trkpt>
      <trkpt lat="22.523745" lon="108.731639"><time>2026-04-25T01:50:26.338Z</time></trkpt>
      <trkpt lat="22.523752" lon="108.731628"><time>2026-04-25T01:50:26.354Z</time></trkpt>
      <trkpt lat="22.523752" lon="108.731628"><time>2026-04-25T01:50:26.371Z</time></trkpt>
      <trkpt lat="22.523752" lon="108.731628"><time>2026-04-25T01:50:26.388Z</time></trkpt>
      <trkpt lat="22.523752" lon="108.731628"><time>2026-04-25T01:50:26.404Z</time></trkpt>
      <trkpt lat="22.523752" lon="108.731628"><time>2026-04-25T01:50:26.421Z</time></trkpt>
      <trkpt lat="22.523752" lon="108.731628"><time>2026-04-25T01:50:26.438Z</time></trkpt>
      <trkpt lat="22.52376" lon="108.731615"><time>2026-04-25T01:50:26.455Z</time></trkpt>
      <trkpt lat="22.52376" lon="108.731615"><time>2026-04-25T01:50:26.471Z</time></trkpt>
      <trkpt lat="22.52376" lon="108.731615"><time>2026-04-25T01:50:26.488Z</time></trkpt>
      <trkpt lat="22.52376" lon="108.731615"><time>2026-04-25T01:50:26.505Z</time></trkpt>
      <trkpt lat="22.52376" lon="108.731615"><time>2026-04-25T01:50:26.521Z</time></trkpt>
      <trkpt lat="22.52376" lon="108.731615"><time>2026-04-25T01:50:26.538Z</time></trkpt>
      <trkpt lat="22.523769" lon="108.7316"><time>2026-04-25T01:50:26.555Z</time></trkpt>
      <trkpt lat="22.523769" lon="108.7316"><time>2026-04-25T01:50:26.571Z</time></trkpt>
      <trkpt lat="22.523769" lon="108.7316"><time>2026-04-25T01:50:26.588Z</time></trkpt>
      <trkpt lat="22.523769" lon="108.7316"><time>2026-04-25T01:50:26.605Z</time></trkpt>
      <trkpt lat="22.523769" lon="108.7316"><time>2026-04-25T01:50:26.621Z</time></trkpt>
      <trkpt lat="22.523769" lon="108.7316"><time>2026-04-25T01:50:26.638Z</time></trkpt>
      <trkpt lat="22.523777" lon="108.731588"><time>2026-04-25T01:50:26.655Z</time></trkpt>
      <trkpt lat="22.523777" lon="108.731588"><time>2026-04-25T01:50:26.671Z</time></trkpt>
      <trkpt lat="22.523777" lon="108.731588"><time>2026-04-25T01:50:26.688Z</time></trkpt>
      <trkpt lat="22.523777" lon="108.731588"><time>2026-04-25T01:50:26.705Z</time></trkpt>
      <trkpt lat="22.523777" lon="108.731588"><time>2026-04-25T01:50:26.721Z</time></trkpt>
      <trkpt lat="22.523777" lon="108.731588"><time>2026-04-25T01:50:26.738Z</time></trkpt>
      <trkpt lat="22.523784" lon="108.731575"><time>2026-04-25T01:50:26.755Z</time></trkpt>
      <trkpt lat="22.523784" lon="108.731575"><time>2026-04-25T01:50:26.772Z</time></trkpt>
      <trkpt lat="22.523784" lon="108.731575"><time>2026-04-25T01:50:26.788Z</time></trkpt>
      <trkpt lat="22.523784" lon="108.731575"><time>2026-04-25T01:50:26.805Z</time></trkpt>
      <trkpt lat="22.523784" lon="108.731575"><time>2026-04-25T01:50:26.822Z</time></trkpt>
      <trkpt lat="22.523784" lon="108.731575"><time>2026-04-25T01:50:26.838Z</time></trkpt>
      <trkpt lat="22.523793" lon="108.731561"><time>2026-04-25T01:50:26.855Z</time></trkpt>
      <trkpt lat="22.523793" lon="108.731561"><time>2026-04-25T01:50:26.872Z</time></trkpt>
      <trkpt lat="22.523793" lon="108.731561"><time>2026-04-25T01:50:26.888Z</time></trkpt>
      <trkpt lat="22.523793" lon="108.731561"><time>2026-04-25T01:50:26.905Z</time></trkpt>
      <trkpt lat="22.523793" lon="108.731561"><time>2026-04-25T01:50:26.922Z</time></trkpt>
      <trkpt lat="22.523793" lon="108.731561"><time>2026-04-25T01:50:26.938Z</time></trkpt>
      <trkpt lat="22.523802" lon="108.731547"><time>2026-04-25T01:50:26.955Z</time></trkpt>
      <trkpt lat="22.523802" lon="108.731547"><time>2026-04-25T01:50:26.972Z</time></trkpt>
      <trkpt lat="22.523802" lon="108.731547"><time>2026-04-25T01:50:26.988Z</time></trkpt>
      <trkpt lat="22.523802" lon="108.731547"><time>2026-04-25T01:50:27.005Z</time></trkpt>
      <trkpt lat="22.523802" lon="108.731547"><time>2026-04-25T01:50:27.022Z</time></trkpt>
      <trkpt lat="22.523802" lon="108.731547"><time>2026-04-25T01:50:27.038Z</time></trkpt>
      <trkpt lat="22.52381" lon="108.731534"><time>2026-04-25T01:50:27.055Z</time></trkpt>
      <trkpt lat="22.52381" lon="108.731534"><time>2026-04-25T01:50:27.072Z</time></trkpt>
      <trkpt lat="22.52381" lon="108.731534"><time>2026-04-25T01:50:27.089Z</time></trkpt>
      <trkpt lat="22.52381" lon="108.731534"><time>2026-04-25T01:50:27.105Z</time></trkpt>
      <trkpt lat="22.52381" lon="108.731534"><time>2026-04-25T01:50:27.122Z</time></trkpt>
      <trkpt lat="22.52381" lon="108.731534"><time>2026-04-25T01:50:27.139Z</time></trkpt>
      <trkpt lat="22.523818" lon="108.73152"><time>2026-04-25T01:50:27.155Z</time></trkpt>
      <trkpt lat="22.523818" lon="108.73152"><time>2026-04-25T01:50:27.172Z</time></trkpt>
      <trkpt lat="22.523818" lon="108.73152"><time>2026-04-25T01:50:27.189Z</time></trkpt>
      <trkpt lat="22.523818" lon="108.73152"><time>2026-04-25T01:50:27.205Z</time></trkpt>
      <trkpt lat="22.523818" lon="108.73152"><time>2026-04-25T01:50:27.222Z</time></trkpt>
      <trkpt lat="22.523818" lon="108.73152"><time>2026-04-25T01:50:27.239Z</time></trkpt>
      <trkpt lat="22.523826" lon="108.731507"><time>2026-04-25T01:50:27.255Z</time></trkpt>
      <trkpt lat="22.523826" lon="108.731507"><time>2026-04-25T01:50:27.272Z</time></trkpt>
      <trkpt lat="22.523826" lon="108.731507"><time>2026-04-25T01:50:27.289Z</time></trkpt>
      <trkpt lat="22.523826" lon="108.731507"><time>2026-04-25T01:50:27.305Z</time></trkpt>
      <trkpt lat="22.523826" lon="108.731507"><time>2026-04-25T01:50:27.322Z</time></trkpt>
      <trkpt lat="22.523826" lon="108.731507"><time>2026-04-25T01:50:27.339Z</time></trkpt>
      <trkpt lat="22.523834" lon="108.731494"><time>2026-04-25T01:50:27.355Z</time></trkpt>
      <trkpt lat="22.523834" lon="108.731494"><time>2026-04-25T01:50:27.372Z</time></trkpt>
      <trkpt lat="22.523834" lon="108.731494"><time>2026-04-25T01:50:27.389Z</time></trkpt>
      <trkpt lat="22.523834" lon="108.731494"><time>2026-04-25T01:50:27.406Z</time></trkpt>
      <trkpt lat="22.523834" lon="108.731494"><time>2026-04-25T01:50:27.422Z</time></trkpt>
      <trkpt lat="22.523834" lon="108.731494"><time>2026-04-25T01:50:27.439Z</time></trkpt>
      <trkpt lat="22.523842" lon="108.731481"><time>2026-04-25T01:50:27.456Z</time></trkpt>
      <trkpt lat="22.523842" lon="108.731481"><time>2026-04-25T01:50:27.472Z</time></trkpt>
      <trkpt lat="22.523842" lon="108.731481"><time>2026-04-25T01:50:27.489Z</time></trkpt>
      <trkpt lat="22.523842" lon="108.731481"><time>2026-04-25T01:50:27.506Z</time></trkpt>
      <trkpt lat="22.523842" lon="108.731481"><time>2026-04-25T01:50:27.522Z</time></trkpt>
      <trkpt lat="22.523842" lon="108.731481"><time>2026-04-25T01:50:27.539Z</time></trkpt>
      <trkpt lat="22.523851" lon="108.731466"><time>2026-04-25T01:50:27.556Z</time></trkpt>
      <trkpt lat="22.523851" lon="108.731466"><time>2026-04-25T01:50:27.572Z</time></trkpt>
      <trkpt lat="22.523851" lon="108.731466"><time>2026-04-25T01:50:27.589Z</time></trkpt>
      <trkpt lat="22.523851" lon="108.731466"><time>2026-04-25T01:50:27.606Z</time></trkpt>
      <trkpt lat="22.523851" lon="108.731466"><time>2026-04-25T01:50:27.622Z</time></trkpt>
      <trkpt lat="22.523851" lon="108.731466"><time>2026-04-25T01:50:27.639Z</time></trkpt>
      <trkpt lat="22.523859" lon="108.731452"><time>2026-04-25T01:50:27.656Z</time></trkpt>
      <trkpt lat="22.523859" lon="108.731452"><time>2026-04-25T01:50:27.672Z</time></trkpt>
      <trkpt lat="22.523859" lon="108.731452"><time>2026-04-25T01:50:27.689Z</time></trkpt>
      <trkpt lat="22.523859" lon="108.731452"><time>2026-04-25T01:50:27.706Z</time></trkpt>
      <trkpt lat="22.523859" lon="108.731452"><time>2026-04-25T01:50:27.723Z</time></trkpt>
      <trkpt lat="22.523859" lon="108.731452"><time>2026-04-25T01:50:27.739Z</time></trkpt>
      <trkpt lat="22.523868" lon="108.731439"><time>2026-04-25T01:50:27.756Z</time></trkpt>
      <trkpt lat="22.523868" lon="108.731439"><time>2026-04-25T01:50:27.773Z</time></trkpt>
      <trkpt lat="22.523868" lon="108.731439"><time>2026-04-25T01:50:27.789Z</time></trkpt>
      <trkpt lat="22.523868" lon="108.731439"><time>2026-04-25T01:50:27.806Z</time></trkpt>
      <trkpt lat="22.523868" lon="108.731439"><time>2026-04-25T01:50:27.823Z</time></trkpt>
      <trkpt lat="22.523868" lon="108.731439"><time>2026-04-25T01:50:27.839Z</time></trkpt>
      <trkpt lat="22.523876" lon="108.731425"><time>2026-04-25T01:50:27.856Z</time></trkpt>
      <trkpt lat="22.523876" lon="108.731425"><time>2026-04-25T01:50:27.873Z</time></trkpt>
      <trkpt lat="22.523876" lon="108.731425"><time>2026-04-25T01:50:27.889Z</time></trkpt>
      <trkpt lat="22.523876" lon="108.731425"><time>2026-04-25T01:50:27.906Z</time></trkpt>
      <trkpt lat="22.523876" lon="108.731425"><time>2026-04-25T01:50:27.923Z</time></trkpt>
      <trkpt lat="22.523876" lon="108.731425"><time>2026-04-25T01:50:27.939Z</time></trkpt>
      <trkpt lat="22.523884" lon="108.731411"><time>2026-04-25T01:50:27.956Z</time></trkpt>
      <trkpt lat="22.523884" lon="108.731411"><time>2026-04-25T01:50:27.973Z</time></trkpt>
      <trkpt lat="22.523884" lon="108.731411"><time>2026-04-25T01:50:27.989Z</time></trkpt>
      <trkpt lat="22.523884" lon="108.731411"><time>2026-04-25T01:50:28.006Z</time></trkpt>
      <trkpt lat="22.523884" lon="108.731411"><time>2026-04-25T01:50:28.023Z</time></trkpt>
      <trkpt lat="22.523884" lon="108.731411"><time>2026-04-25T01:50:28.040Z</time></trkpt>
      <trkpt lat="22.523893" lon="108.731398"><time>2026-04-25T01:50:28.056Z</time></trkpt>
      <trkpt lat="22.523893" lon="108.731398"><time>2026-04-25T01:50:28.073Z</time></trkpt>
      <trkpt lat="22.523893" lon="108.731398"><time>2026-04-25T01:50:28.090Z</time></trkpt>
      <trkpt lat="22.523893" lon="108.731398"><time>2026-04-25T01:50:28.106Z</time></trkpt>
      <trkpt lat="22.523893" lon="108.731398"><time>2026-04-25T01:50:28.123Z</time></trkpt>
      <trkpt lat="22.523893" lon="108.731398"><time>2026-04-25T01:50:28.140Z</time></trkpt>
      <trkpt lat="22.523901" lon="108.731384"><time>2026-04-25T01:50:28.156Z</time></trkpt>
      <trkpt lat="22.523901" lon="108.731384"><time>2026-04-25T01:50:28.173Z</time></trkpt>
      <trkpt lat="22.523901" lon="108.731384"><time>2026-04-25T01:50:28.190Z</time></trkpt>
      <trkpt lat="22.523901" lon="108.731384"><time>2026-04-25T01:50:28.206Z</time></trkpt>
      <trkpt lat="22.523901" lon="108.731384"><time>2026-04-25T01:50:28.223Z</time></trkpt>
      <trkpt lat="22.523901" lon="108.731384"><time>2026-04-25T01:50:28.240Z</time></trkpt>
      <trkpt lat="22.523909" lon="108.731371"><time>2026-04-25T01:50:28.256Z</time></trkpt>
      <trkpt lat="22.523909" lon="108.731371"><time>2026-04-25T01:50:28.273Z</time></trkpt>
      <trkpt lat="22.523909" lon="108.731371"><time>2026-04-25T01:50:28.290Z</time></trkpt>
      <trkpt lat="22.523909" lon="108.731371"><time>2026-04-25T01:50:28.306Z</time></trkpt>
      <trkpt lat="22.523909" lon="108.731371"><time>2026-04-25T01:50:28.323Z</time></trkpt>
      <trkpt lat="22.523909" lon="108.731371"><time>2026-04-25T01:50:28.340Z</time></trkpt>
      <trkpt lat="22.523917" lon="108.731358"><time>2026-04-25T01:50:28.357Z</time></trkpt>
      <trkpt lat="22.523917" lon="108.731358"><time>2026-04-25T01:50:28.373Z</time></trkpt>
      <trkpt lat="22.523917" lon="108.731358"><time>2026-04-25T01:50:28.390Z</time></trkpt>
      <trkpt lat="22.523917" lon="108.731358"><time>2026-04-25T01:50:28.407Z</time></trkpt>
      <trkpt lat="22.523917" lon="108.731358"><time>2026-04-25T01:50:28.423Z</time></trkpt>
      <trkpt lat="22.523917" lon="108.731358"><time>2026-04-25T01:50:28.440Z</time></trkpt>
      <trkpt lat="22.523926" lon="108.731344"><time>2026-04-25T01:50:28.457Z</time></trkpt>
      <trkpt lat="22.523926" lon="108.731344"><time>2026-04-25T01:50:28.473Z</time></trkpt>
      <trkpt lat="22.523926" lon="108.731344"><time>2026-04-25T01:50:28.490Z</time></trkpt>
      <trkpt lat="22.523926" lon="108.731344"><time>2026-04-25T01:50:28.507Z</time></trkpt>
      <trkpt lat="22.523926" lon="108.731344"><time>2026-04-25T01:50:28.523Z</time></trkpt>
      <trkpt lat="22.523926" lon="108.731344"><time>2026-04-25T01:50:28.540Z</time></trkpt>
      <trkpt lat="22.523935" lon="108.731329"><time>2026-04-25T01:50:28.557Z</time></trkpt>
      <trkpt lat="22.523935" lon="108.731329"><time>2026-04-25T01:50:28.573Z</time></trkpt>
      <trkpt lat="22.523935" lon="108.731329"><time>2026-04-25T01:50:28.590Z</time></trkpt>
      <trkpt lat="22.523935" lon="108.731329"><time>2026-04-25T01:50:28.607Z</time></trkpt>
      <trkpt lat="22.523935" lon="108.731329"><time>2026-04-25T01:50:28.623Z</time></trkpt>
      <trkpt lat="22.523935" lon="108.731329"><time>2026-04-25T01:50:28.640Z</time></trkpt>
      <trkpt lat="22.523944" lon="108.731315"><time>2026-04-25T01:50:28.657Z</time></trkpt>
      <trkpt lat="22.523944" lon="108.731315"><time>2026-04-25T01:50:28.673Z</time></trkpt>
      <trkpt lat="22.523944" lon="108.731315"><time>2026-04-25T01:50:28.690Z</time></trkpt>
      <trkpt lat="22.523944" lon="108.731315"><time>2026-04-25T01:50:28.707Z</time></trkpt>
      <trkpt lat="22.523944" lon="108.731315"><time>2026-04-25T01:50:28.724Z</time></trkpt>
      <trkpt lat="22.523944" lon="108.731315"><time>2026-04-25T01:50:28.740Z</time></trkpt>
      <trkpt lat="22.523952" lon="108.731302"><time>2026-04-25T01:50:28.757Z</time></trkpt>
      <trkpt lat="22.523952" lon="108.731302"><time>2026-04-25T01:50:28.774Z</time></trkpt>
      <trkpt lat="22.523952" lon="108.731302"><time>2026-04-25T01:50:28.790Z</time></trkpt>
      <trkpt lat="22.523952" lon="108.731302"><time>2026-04-25T01:50:28.807Z</time></trkpt>
      <trkpt lat="22.523952" lon="108.731302"><time>2026-04-25T01:50:28.824Z</time></trkpt>
      <trkpt lat="22.523952" lon="108.731302"><time>2026-04-25T01:50:28.840Z</time></trkpt>
      <trkpt lat="22.523961" lon="108.731288"><time>2026-04-25T01:50:28.857Z</time></trkpt>
      <trkpt lat="22.523961" lon="108.731288"><time>2026-04-25T01:50:28.874Z</time></trkpt>
      <trkpt lat="22.523961" lon="108.731288"><time>2026-04-25T01:50:28.890Z</time></trkpt>
      <trkpt lat="22.523961" lon="108.731288"><time>2026-04-25T01:50:28.907Z</time></trkpt>
      <trkpt lat="22.523961" lon="108.731288"><time>2026-04-25T01:50:28.924Z</time></trkpt>
      <trkpt lat="22.523961" lon="108.731288"><time>2026-04-25T01:50:28.940Z</time></trkpt>
      <trkpt lat="22.52397" lon="108.731274"><time>2026-04-25T01:50:28.957Z</time></trkpt>
      <trkpt lat="22.52397" lon="108.731274"><time>2026-04-25T01:50:28.974Z</time></trkpt>
      <trkpt lat="22.52397" lon="108.731274"><time>2026-04-25T01:50:28.990Z</time></trkpt>
      <trkpt lat="22.52397" lon="108.731274"><time>2026-04-25T01:50:29.007Z</time></trkpt>
      <trkpt lat="22.52397" lon="108.731274"><time>2026-04-25T01:50:29.024Z</time></trkpt>
      <trkpt lat="22.52397" lon="108.731274"><time>2026-04-25T01:50:29.041Z</time></trkpt>
      <trkpt lat="22.523978" lon="108.731261"><time>2026-04-25T01:50:29.057Z</time></trkpt>
      <trkpt lat="22.523978" lon="108.731261"><time>2026-04-25T01:50:29.074Z</time></trkpt>
      <trkpt lat="22.523978" lon="108.731261"><time>2026-04-25T01:50:29.091Z</time></trkpt>
      <trkpt lat="22.523978" lon="108.731261"><time>2026-04-25T01:50:29.107Z</time></trkpt>
      <trkpt lat="22.523978" lon="108.731261"><time>2026-04-25T01:50:29.124Z</time></trkpt>
      <trkpt lat="22.523978" lon="108.731261"><time>2026-04-25T01:50:29.141Z</time></trkpt>
      <trkpt lat="22.523986" lon="108.731246"><time>2026-04-25T01:50:29.157Z</time></trkpt>
      <trkpt lat="22.523986" lon="108.731246"><time>2026-04-25T01:50:29.174Z</time></trkpt>
      <trkpt lat="22.523986" lon="108.731246"><time>2026-04-25T01:50:29.191Z</time></trkpt>
      <trkpt lat="22.523986" lon="108.731246"><time>2026-04-25T01:50:29.207Z</time></trkpt>
      <trkpt lat="22.523986" lon="108.731246"><time>2026-04-25T01:50:29.224Z</time></trkpt>
      <trkpt lat="22.523986" lon="108.731246"><time>2026-04-25T01:50:29.241Z</time></trkpt>
      <trkpt lat="22.523995" lon="108.731233"><time>2026-04-25T01:50:29.257Z</time></trkpt>
      <trkpt lat="22.523995" lon="108.731233"><time>2026-04-25T01:50:29.274Z</time></trkpt>
      <trkpt lat="22.523995" lon="108.731233"><time>2026-04-25T01:50:29.291Z</time></trkpt>
      <trkpt lat="22.523995" lon="108.731233"><time>2026-04-25T01:50:29.307Z</time></trkpt>
      <trkpt lat="22.523995" lon="108.731233"><time>2026-04-25T01:50:29.324Z</time></trkpt>
      <trkpt lat="22.523995" lon="108.731233"><time>2026-04-25T01:50:29.341Z</time></trkpt>
      <trkpt lat="22.524003" lon="108.731219"><time>2026-04-25T01:50:29.358Z</time></trkpt>
      <trkpt lat="22.524003" lon="108.731219"><time>2026-04-25T01:50:29.374Z</time></trkpt>
      <trkpt lat="22.524003" lon="108.731219"><time>2026-04-25T01:50:29.391Z</time></trkpt>
      <trkpt lat="22.524003" lon="108.731219"><time>2026-04-25T01:50:29.408Z</time></trkpt>
      <trkpt lat="22.524003" lon="108.731219"><time>2026-04-25T01:50:29.424Z</time></trkpt>
      <trkpt lat="22.524003" lon="108.731219"><time>2026-04-25T01:50:29.441Z</time></trkpt>
      <trkpt lat="22.524012" lon="108.731205"><time>2026-04-25T01:50:29.458Z</time></trkpt>
      <trkpt lat="22.524012" lon="108.731205"><time>2026-04-25T01:50:29.474Z</time></trkpt>
      <trkpt lat="22.524012" lon="108.731205"><time>2026-04-25T01:50:29.491Z</time></trkpt>
      <trkpt lat="22.524012" lon="108.731205"><time>2026-04-25T01:50:29.508Z</time></trkpt>
      <trkpt lat="22.524012" lon="108.731205"><time>2026-04-25T01:50:29.524Z</time></trkpt>
      <trkpt lat="22.524012" lon="108.731205"><time>2026-04-25T01:50:29.541Z</time></trkpt>
      <trkpt lat="22.524021" lon="108.731189"><time>2026-04-25T01:50:29.558Z</time></trkpt>
      <trkpt lat="22.524021" lon="108.731189"><time>2026-04-25T01:50:29.574Z</time></trkpt>
      <trkpt lat="22.524021" lon="108.731189"><time>2026-04-25T01:50:29.591Z</time></trkpt>
      <trkpt lat="22.524021" lon="108.731189"><time>2026-04-25T01:50:29.608Z</time></trkpt>
      <trkpt lat="22.524021" lon="108.731189"><time>2026-04-25T01:50:29.624Z</time></trkpt>
      <trkpt lat="22.524021" lon="108.731189"><time>2026-04-25T01:50:29.641Z</time></trkpt>
      <trkpt lat="22.524029" lon="108.731175"><time>2026-04-25T01:50:29.658Z</time></trkpt>
      <trkpt lat="22.524029" lon="108.731175"><time>2026-04-25T01:50:29.675Z</time></trkpt>
      <trkpt lat="22.524029" lon="108.731175"><time>2026-04-25T01:50:29.691Z</time></trkpt>
      <trkpt lat="22.524029" lon="108.731175"><time>2026-04-25T01:50:29.708Z</time></trkpt>
      <trkpt lat="22.524029" lon="108.731175"><time>2026-04-25T01:50:29.725Z</time></trkpt>
      <trkpt lat="22.524029" lon="108.731175"><time>2026-04-25T01:50:29.741Z</time></trkpt>
      <trkpt lat="22.524038" lon="108.731161"><time>2026-04-25T01:50:29.758Z</time></trkpt>
      <trkpt lat="22.524038" lon="108.731161"><time>2026-04-25T01:50:29.775Z</time></trkpt>
      <trkpt lat="22.524038" lon="108.731161"><time>2026-04-25T01:50:29.791Z</time></trkpt>
      <trkpt lat="22.524038" lon="108.731161"><time>2026-04-25T01:50:29.808Z</time></trkpt>
      <trkpt lat="22.524038" lon="108.731161"><time>2026-04-25T01:50:29.825Z</time></trkpt>
      <trkpt lat="22.524038" lon="108.731161"><time>2026-04-25T01:50:29.841Z</time></trkpt>
      <trkpt lat="22.524046" lon="108.731148"><time>2026-04-25T01:50:29.858Z</time></trkpt>
      <trkpt lat="22.524046" lon="108.731148"><time>2026-04-25T01:50:29.875Z</time></trkpt>
      <trkpt lat="22.524046" lon="108.731148"><time>2026-04-25T01:50:29.891Z</time></trkpt>
      <trkpt lat="22.524046" lon="108.731148"><time>2026-04-25T01:50:29.908Z</time></trkpt>
      <trkpt lat="22.524046" lon="108.731148"><time>2026-04-25T01:50:29.925Z</time></trkpt>
      <trkpt lat="22.524046" lon="108.731148"><time>2026-04-25T01:50:29.941Z</time></trkpt>
      <trkpt lat="22.524055" lon="108.731133"><time>2026-04-25T01:50:29.958Z</time></trkpt>
      <trkpt lat="22.524055" lon="108.731133"><time>2026-04-25T01:50:29.975Z</time></trkpt>
      <trkpt lat="22.524055" lon="108.731133"><time>2026-04-25T01:50:29.992Z</time></trkpt>
      <trkpt lat="22.524055" lon="108.731133"><time>2026-04-25T01:50:30.008Z</time></trkpt>
      <trkpt lat="22.524055" lon="108.731133"><time>2026-04-25T01:50:30.025Z</time></trkpt>
      <trkpt lat="22.524055" lon="108.731133"><time>2026-04-25T01:50:30.042Z</time></trkpt>
      <trkpt lat="22.524063" lon="108.731119"><time>2026-04-25T01:50:30.058Z</time></trkpt>
      <trkpt lat="22.524063" lon="108.731119"><time>2026-04-25T01:50:30.075Z</time></trkpt>
      <trkpt lat="22.524063" lon="108.731119"><time>2026-04-25T01:50:30.092Z</time></trkpt>
      <trkpt lat="22.524063" lon="108.731119"><time>2026-04-25T01:50:30.108Z</time></trkpt>
      <trkpt lat="22.524063" lon="108.731119"><time>2026-04-25T01:50:30.125Z</time></trkpt>
      <trkpt lat="22.524063" lon="108.731119"><time>2026-04-25T01:50:30.142Z</time></trkpt>
      <trkpt lat="22.524072" lon="108.731105"><time>2026-04-25T01:50:30.158Z</time></trkpt>
      <trkpt lat="22.524072" lon="108.731105"><time>2026-04-25T01:50:30.175Z</time></trkpt>
      <trkpt lat="22.524072" lon="108.731105"><time>2026-04-25T01:50:30.192Z</time></trkpt>
      <trkpt lat="22.524072" lon="108.731105"><time>2026-04-25T01:50:30.208Z</time></trkpt>
      <trkpt lat="22.524072" lon="108.731105"><time>2026-04-25T01:50:30.225Z</time></trkpt>
      <trkpt lat="22.524072" lon="108.731105"><time>2026-04-25T01:50:30.242Z</time></trkpt>
      <trkpt lat="22.52408" lon="108.731091"><time>2026-04-25T01:50:30.258Z</time></trkpt>
      <trkpt lat="22.52408" lon="108.731091"><time>2026-04-25T01:50:30.275Z</time></trkpt>
      <trkpt lat="22.52408" lon="108.731091"><time>2026-04-25T01:50:30.292Z</time></trkpt>
      <trkpt lat="22.52408" lon="108.731091"><time>2026-04-25T01:50:30.309Z</time></trkpt>
      <trkpt lat="22.52408" lon="108.731091"><time>2026-04-25T01:50:30.325Z</time></trkpt>
      <trkpt lat="22.52408" lon="108.731091"><time>2026-04-25T01:50:30.342Z</time></trkpt>
      <trkpt lat="22.524088" lon="108.731078"><time>2026-04-25T01:50:30.359Z</time></trkpt>
      <trkpt lat="22.524088" lon="108.731078"><time>2026-04-25T01:50:30.375Z</time></trkpt>
      <trkpt lat="22.524088" lon="108.731078"><time>2026-04-25T01:50:30.392Z</time></trkpt>
      <trkpt lat="22.524088" lon="108.731078"><time>2026-04-25T01:50:30.409Z</time></trkpt>
      <trkpt lat="22.524088" lon="108.731078"><time>2026-04-25T01:50:30.425Z</time></trkpt>
      <trkpt lat="22.524088" lon="108.731078"><time>2026-04-25T01:50:30.442Z</time></trkpt>
      <trkpt lat="22.524096" lon="108.731063"><time>2026-04-25T01:50:30.459Z</time></trkpt>
      <trkpt lat="22.524096" lon="108.731063"><time>2026-04-25T01:50:30.475Z</time></trkpt>
      <trkpt lat="22.524096" lon="108.731063"><time>2026-04-25T01:50:30.492Z</time></trkpt>
      <trkpt lat="22.524096" lon="108.731063"><time>2026-04-25T01:50:30.509Z</time></trkpt>
      <trkpt lat="22.524096" lon="108.731063"><time>2026-04-25T01:50:30.525Z</time></trkpt>
      <trkpt lat="22.524096" lon="108.731063"><time>2026-04-25T01:50:30.542Z</time></trkpt>
      <trkpt lat="22.524105" lon="108.731049"><time>2026-04-25T01:50:30.559Z</time></trkpt>
      <trkpt lat="22.524105" lon="108.731049"><time>2026-04-25T01:50:30.575Z</time></trkpt>
      <trkpt lat="22.524105" lon="108.731049"><time>2026-04-25T01:50:30.592Z</time></trkpt>
      <trkpt lat="22.524105" lon="108.731049"><time>2026-04-25T01:50:30.609Z</time></trkpt>
      <trkpt lat="22.524105" lon="108.731049"><time>2026-04-25T01:50:30.626Z</time></trkpt>
      <trkpt lat="22.524105" lon="108.731049"><time>2026-04-25T01:50:30.642Z</time></trkpt>
      <trkpt lat="22.524113" lon="108.731035"><time>2026-04-25T01:50:30.659Z</time></trkpt>
      <trkpt lat="22.524113" lon="108.731035"><time>2026-04-25T01:50:30.676Z</time></trkpt>
      <trkpt lat="22.524113" lon="108.731035"><time>2026-04-25T01:50:30.692Z</time></trkpt>
      <trkpt lat="22.524113" lon="108.731035"><time>2026-04-25T01:50:30.709Z</time></trkpt>
      <trkpt lat="22.524113" lon="108.731035"><time>2026-04-25T01:50:30.726Z</time></trkpt>
      <trkpt lat="22.524113" lon="108.731035"><time>2026-04-25T01:50:30.742Z</time></trkpt>
      <trkpt lat="22.524121" lon="108.731021"><time>2026-04-25T01:50:30.759Z</time></trkpt>
      <trkpt lat="22.524121" lon="108.731021"><time>2026-04-25T01:50:30.776Z</time></trkpt>
      <trkpt lat="22.524121" lon="108.731021"><time>2026-04-25T01:50:30.792Z</time></trkpt>
      <trkpt lat="22.524121" lon="108.731021"><time>2026-04-25T01:50:30.809Z</time></trkpt>
      <trkpt lat="22.524121" lon="108.731021"><time>2026-04-25T01:50:30.826Z</time></trkpt>
      <trkpt lat="22.524121" lon="108.731021"><time>2026-04-25T01:50:30.842Z</time></trkpt>
      <trkpt lat="22.52413" lon="108.731007"><time>2026-04-25T01:50:30.859Z</time></trkpt>
      <trkpt lat="22.52413" lon="108.731007"><time>2026-04-25T01:50:30.876Z</time></trkpt>
      <trkpt lat="22.52413" lon="108.731007"><time>2026-04-25T01:50:30.892Z</time></trkpt>
      <trkpt lat="22.52413" lon="108.731007"><time>2026-04-25T01:50:30.909Z</time></trkpt>
      <trkpt lat="22.52413" lon="108.731007"><time>2026-04-25T01:50:30.926Z</time></trkpt>
      <trkpt lat="22.52413" lon="108.731007"><time>2026-04-25T01:50:30.943Z</time></trkpt>
      <trkpt lat="22.524138" lon="108.730992"><time>2026-04-25T01:50:30.959Z</time></trkpt>
      <trkpt lat="22.524138" lon="108.730992"><time>2026-04-25T01:50:30.976Z</time></trkpt>
      <trkpt lat="22.524138" lon="108.730992"><time>2026-04-25T01:50:30.993Z</time></trkpt>
      <trkpt lat="22.524138" lon="108.730992"><time>2026-04-25T01:50:31.009Z</time></trkpt>
      <trkpt lat="22.524138" lon="108.730992"><time>2026-04-25T01:50:31.026Z</time></trkpt>
      <trkpt lat="22.524138" lon="108.730992"><time>2026-04-25T01:50:31.043Z</time></trkpt>
      <trkpt lat="22.524147" lon="108.730978"><time>2026-04-25T01:50:31.059Z</time></trkpt>
      <trkpt lat="22.524147" lon="108.730978"><time>2026-04-25T01:50:31.076Z</time></trkpt>
      <trkpt lat="22.524147" lon="108.730978"><time>2026-04-25T01:50:31.093Z</time></trkpt>
      <trkpt lat="22.524147" lon="108.730978"><time>2026-04-25T01:50:31.109Z</time></trkpt>
      <trkpt lat="22.524147" lon="108.730978"><time>2026-04-25T01:50:31.126Z</time></trkpt>
      <trkpt lat="22.524147" lon="108.730978"><time>2026-04-25T01:50:31.143Z</time></trkpt>
      <trkpt lat="22.524155" lon="108.730964"><time>2026-04-25T01:50:31.159Z</time></trkpt>
      <trkpt lat="22.524155" lon="108.730964"><time>2026-04-25T01:50:31.176Z</time></trkpt>
      <trkpt lat="22.524155" lon="108.730964"><time>2026-04-25T01:50:31.193Z</time></trkpt>
      <trkpt lat="22.524155" lon="108.730964"><time>2026-04-25T01:50:31.209Z</time></trkpt>
      <trkpt lat="22.524155" lon="108.730964"><time>2026-04-25T01:50:31.226Z</time></trkpt>
      <trkpt lat="22.524155" lon="108.730964"><time>2026-04-25T01:50:31.243Z</time></trkpt>
      <trkpt lat="22.524164" lon="108.73095"><time>2026-04-25T01:50:31.260Z</time></trkpt>
      <trkpt lat="22.524164" lon="108.73095"><time>2026-04-25T01:50:31.276Z</time></trkpt>
      <trkpt lat="22.524164" lon="108.73095"><time>2026-04-25T01:50:31.293Z</time></trkpt>
      <trkpt lat="22.524164" lon="108.73095"><time>2026-04-25T01:50:31.310Z</time></trkpt>
      <trkpt lat="22.524164" lon="108.73095"><time>2026-04-25T01:50:31.326Z</time></trkpt>
      <trkpt lat="22.524164" lon="108.73095"><time>2026-04-25T01:50:31.343Z</time></trkpt>
      <trkpt lat="22.524171" lon="108.730938"><time>2026-04-25T01:50:31.360Z</time></trkpt>
      <trkpt lat="22.524171" lon="108.730938"><time>2026-04-25T01:50:31.376Z</time></trkpt>
      <trkpt lat="22.524171" lon="108.730938"><time>2026-04-25T01:50:31.393Z</time></trkpt>
      <trkpt lat="22.524171" lon="108.730938"><time>2026-04-25T01:50:31.410Z</time></trkpt>
      <trkpt lat="22.524171" lon="108.730938"><time>2026-04-25T01:50:31.426Z</time></trkpt>
      <trkpt lat="22.524171" lon="108.730938"><time>2026-04-25T01:50:31.443Z</time></trkpt>
      <trkpt lat="22.52418" lon="108.730923"><time>2026-04-25T01:50:31.460Z</time></trkpt>
      <trkpt lat="22.52418" lon="108.730923"><time>2026-04-25T01:50:31.476Z</time></trkpt>
      <trkpt lat="22.52418" lon="108.730923"><time>2026-04-25T01:50:31.493Z</time></trkpt>
      <trkpt lat="22.52418" lon="108.730923"><time>2026-04-25T01:50:31.510Z</time></trkpt>
      <trkpt lat="22.52418" lon="108.730923"><time>2026-04-25T01:50:31.526Z</time></trkpt>
      <trkpt lat="22.52418" lon="108.730923"><time>2026-04-25T01:50:31.543Z</time></trkpt>
      <trkpt lat="22.524189" lon="108.730908"><time>2026-04-25T01:50:31.560Z</time></trkpt>
      <trkpt lat="22.524189" lon="108.730908"><time>2026-04-25T01:50:31.577Z</time></trkpt>
      <trkpt lat="22.524189" lon="108.730908"><time>2026-04-25T01:50:31.593Z</time></trkpt>
      <trkpt lat="22.524189" lon="108.730908"><time>2026-04-25T01:50:31.610Z</time></trkpt>
      <trkpt lat="22.524189" lon="108.730908"><time>2026-04-25T01:50:31.627Z</time></trkpt>
      <trkpt lat="22.524189" lon="108.730908"><time>2026-04-25T01:50:31.643Z</time></trkpt>
      <trkpt lat="22.524197" lon="108.730894"><time>2026-04-25T01:50:31.660Z</time></trkpt>
      <trkpt lat="22.524197" lon="108.730894"><time>2026-04-25T01:50:31.677Z</time></trkpt>
      <trkpt lat="22.524197" lon="108.730894"><time>2026-04-25T01:50:31.693Z</time></trkpt>
      <trkpt lat="22.524197" lon="108.730894"><time>2026-04-25T01:50:31.710Z</time></trkpt>
      <trkpt lat="22.524197" lon="108.730894"><time>2026-04-25T01:50:31.727Z</time></trkpt>
      <trkpt lat="22.524197" lon="108.730894"><time>2026-04-25T01:50:31.743Z</time></trkpt>
      <trkpt lat="22.524206" lon="108.730879"><time>2026-04-25T01:50:31.760Z</time></trkpt>
      <trkpt lat="22.524206" lon="108.730879"><time>2026-04-25T01:50:31.777Z</time></trkpt>
      <trkpt lat="22.524206" lon="108.730879"><time>2026-04-25T01:50:31.793Z</time></trkpt>
      <trkpt lat="22.524206" lon="108.730879"><time>2026-04-25T01:50:31.810Z</time></trkpt>
      <trkpt lat="22.524206" lon="108.730879"><time>2026-04-25T01:50:31.827Z</time></trkpt>
      <trkpt lat="22.524206" lon="108.730879"><time>2026-04-25T01:50:31.843Z</time></trkpt>
      <trkpt lat="22.524214" lon="108.730866"><time>2026-04-25T01:50:31.860Z</time></trkpt>
      <trkpt lat="22.524214" lon="108.730866"><time>2026-04-25T01:50:31.877Z</time></trkpt>
      <trkpt lat="22.524214" lon="108.730866"><time>2026-04-25T01:50:31.894Z</time></trkpt>
      <trkpt lat="22.524214" lon="108.730866"><time>2026-04-25T01:50:31.910Z</time></trkpt>
      <trkpt lat="22.524214" lon="108.730866"><time>2026-04-25T01:50:31.927Z</time></trkpt>
      <trkpt lat="22.524214" lon="108.730866"><time>2026-04-25T01:50:31.944Z</time></trkpt>
      <trkpt lat="22.524223" lon="108.73085"><time>2026-04-25T01:50:31.960Z</time></trkpt>
      <trkpt lat="22.524223" lon="108.73085"><time>2026-04-25T01:50:31.977Z</time></trkpt>
      <trkpt lat="22.524223" lon="108.73085"><time>2026-04-25T01:50:31.994Z</time></trkpt>
      <trkpt lat="22.524223" lon="108.73085"><time>2026-04-25T01:50:32.010Z</time></trkpt>
      <trkpt lat="22.524223" lon="108.73085"><time>2026-04-25T01:50:32.027Z</time></trkpt>
      <trkpt lat="22.524223" lon="108.73085"><time>2026-04-25T01:50:32.044Z</time></trkpt>
      <trkpt lat="22.524232" lon="108.730836"><time>2026-04-25T01:50:32.060Z</time></trkpt>
      <trkpt lat="22.524232" lon="108.730836"><time>2026-04-25T01:50:32.077Z</time></trkpt>
      <trkpt lat="22.524232" lon="108.730836"><time>2026-04-25T01:50:32.094Z</time></trkpt>
      <trkpt lat="22.524232" lon="108.730836"><time>2026-04-25T01:50:32.110Z</time></trkpt>
      <trkpt lat="22.524232" lon="108.730836"><time>2026-04-25T01:50:32.127Z</time></trkpt>
      <trkpt lat="22.524232" lon="108.730836"><time>2026-04-25T01:50:32.144Z</time></trkpt>
      <trkpt lat="22.52424" lon="108.730822"><time>2026-04-25T01:50:32.160Z</time></trkpt>
      <trkpt lat="22.52424" lon="108.730822"><time>2026-04-25T01:50:32.177Z</time></trkpt>
      <trkpt lat="22.52424" lon="108.730822"><time>2026-04-25T01:50:32.194Z</time></trkpt>
      <trkpt lat="22.52424" lon="108.730822"><time>2026-04-25T01:50:32.211Z</time></trkpt>
      <trkpt lat="22.52424" lon="108.730822"><time>2026-04-25T01:50:32.227Z</time></trkpt>
      <trkpt lat="22.52424" lon="108.730822"><time>2026-04-25T01:50:32.244Z</time></trkpt>
      <trkpt lat="22.524249" lon="108.730808"><time>2026-04-25T01:50:32.261Z</time></trkpt>
      <trkpt lat="22.524249" lon="108.730808"><time>2026-04-25T01:50:32.277Z</time></trkpt>
      <trkpt lat="22.524249" lon="108.730808"><time>2026-04-25T01:50:32.294Z</time></trkpt>
      <trkpt lat="22.524249" lon="108.730808"><time>2026-04-25T01:50:32.311Z</time></trkpt>
      <trkpt lat="22.524249" lon="108.730808"><time>2026-04-25T01:50:32.327Z</time></trkpt>
      <trkpt lat="22.524249" lon="108.730808"><time>2026-04-25T01:50:32.344Z</time></trkpt>
      <trkpt lat="22.524256" lon="108.730795"><time>2026-04-25T01:50:32.361Z</time></trkpt>
      <trkpt lat="22.524256" lon="108.730795"><time>2026-04-25T01:50:32.377Z</time></trkpt>
      <trkpt lat="22.524256" lon="108.730795"><time>2026-04-25T01:50:32.394Z</time></trkpt>
      <trkpt lat="22.524256" lon="108.730795"><time>2026-04-25T01:50:32.411Z</time></trkpt>
      <trkpt lat="22.524256" lon="108.730795"><time>2026-04-25T01:50:32.427Z</time></trkpt>
      <trkpt lat="22.524256" lon="108.730795"><time>2026-04-25T01:50:32.444Z</time></trkpt>
      <trkpt lat="22.524265" lon="108.730781"><time>2026-04-25T01:50:32.461Z</time></trkpt>
      <trkpt lat="22.524265" lon="108.730781"><time>2026-04-25T01:50:32.477Z</time></trkpt>
      <trkpt lat="22.524265" lon="108.730781"><time>2026-04-25T01:50:32.494Z</time></trkpt>
      <trkpt lat="22.524265" lon="108.730781"><time>2026-04-25T01:50:32.511Z</time></trkpt>
      <trkpt lat="22.524265" lon="108.730781"><time>2026-04-25T01:50:32.528Z</time></trkpt>
      <trkpt lat="22.524265" lon="108.730781"><time>2026-04-25T01:50:32.544Z</time></trkpt>
      <trkpt lat="22.524274" lon="108.730765"><time>2026-04-25T01:50:32.561Z</time></trkpt>
      <trkpt lat="22.524274" lon="108.730765"><time>2026-04-25T01:50:32.578Z</time></trkpt>
      <trkpt lat="22.524274" lon="108.730765"><time>2026-04-25T01:50:32.594Z</time></trkpt>
      <trkpt lat="22.524274" lon="108.730765"><time>2026-04-25T01:50:32.611Z</time></trkpt>
      <trkpt lat="22.524274" lon="108.730765"><time>2026-04-25T01:50:32.628Z</time></trkpt>
      <trkpt lat="22.524274" lon="108.730765"><time>2026-04-25T01:50:32.644Z</time></trkpt>
      <trkpt lat="22.524283" lon="108.730751"><time>2026-04-25T01:50:32.661Z</time></trkpt>
      <trkpt lat="22.524283" lon="108.730751"><time>2026-04-25T01:50:32.678Z</time></trkpt>
      <trkpt lat="22.524283" lon="108.730751"><time>2026-04-25T01:50:32.694Z</time></trkpt>
      <trkpt lat="22.524283" lon="108.730751"><time>2026-04-25T01:50:32.711Z</time></trkpt>
      <trkpt lat="22.524283" lon="108.730751"><time>2026-04-25T01:50:32.728Z</time></trkpt>
      <trkpt lat="22.524283" lon="108.730751"><time>2026-04-25T01:50:32.744Z</time></trkpt>
      <trkpt lat="22.524291" lon="108.730736"><time>2026-04-25T01:50:32.761Z</time></trkpt>
      <trkpt lat="22.524291" lon="108.730736"><time>2026-04-25T01:50:32.778Z</time></trkpt>
      <trkpt lat="22.524291" lon="108.730736"><time>2026-04-25T01:50:32.794Z</time></trkpt>
      <trkpt lat="22.524291" lon="108.730736"><time>2026-04-25T01:50:32.811Z</time></trkpt>
      <trkpt lat="22.524291" lon="108.730736"><time>2026-04-25T01:50:32.828Z</time></trkpt>
      <trkpt lat="22.524291" lon="108.730736"><time>2026-04-25T01:50:32.845Z</time></trkpt>
      <trkpt lat="22.5243" lon="108.730722"><time>2026-04-25T01:50:32.861Z</time></trkpt>
      <trkpt lat="22.5243" lon="108.730722"><time>2026-04-25T01:50:32.878Z</time></trkpt>
      <trkpt lat="22.5243" lon="108.730722"><time>2026-04-25T01:50:32.895Z</time></trkpt>
      <trkpt lat="22.5243" lon="108.730722"><time>2026-04-25T01:50:32.911Z</time></trkpt>
      <trkpt lat="22.5243" lon="108.730722"><time>2026-04-25T01:50:32.928Z</time></trkpt>
      <trkpt lat="22.5243" lon="108.730722"><time>2026-04-25T01:50:32.945Z</time></trkpt>
      <trkpt lat="22.524309" lon="108.730706"><time>2026-04-25T01:50:32.961Z</time></trkpt>
      <trkpt lat="22.524309" lon="108.730706"><time>2026-04-25T01:50:32.978Z</time></trkpt>
      <trkpt lat="22.524309" lon="108.730706"><time>2026-04-25T01:50:32.995Z</time></trkpt>
      <trkpt lat="22.524309" lon="108.730706"><time>2026-04-25T01:50:33.011Z</time></trkpt>
      <trkpt lat="22.524309" lon="108.730706"><time>2026-04-25T01:50:33.028Z</time></trkpt>
      <trkpt lat="22.524309" lon="108.730706"><time>2026-04-25T01:50:33.045Z</time></trkpt>
      <trkpt lat="22.524318" lon="108.730691"><time>2026-04-25T01:50:33.061Z</time></trkpt>
      <trkpt lat="22.524318" lon="108.730691"><time>2026-04-25T01:50:33.078Z</time></trkpt>
      <trkpt lat="22.524318" lon="108.730691"><time>2026-04-25T01:50:33.095Z</time></trkpt>
      <trkpt lat="22.524318" lon="108.730691"><time>2026-04-25T01:50:33.111Z</time></trkpt>
      <trkpt lat="22.524318" lon="108.730691"><time>2026-04-25T01:50:33.128Z</time></trkpt>
      <trkpt lat="22.524318" lon="108.730691"><time>2026-04-25T01:50:33.145Z</time></trkpt>
      <trkpt lat="22.524327" lon="108.730676"><time>2026-04-25T01:50:33.162Z</time></trkpt>
      <trkpt lat="22.524327" lon="108.730676"><time>2026-04-25T01:50:33.178Z</time></trkpt>
      <trkpt lat="22.524327" lon="108.730676"><time>2026-04-25T01:50:33.195Z</time></trkpt>
      <trkpt lat="22.524327" lon="108.730676"><time>2026-04-25T01:50:33.212Z</time></trkpt>
      <trkpt lat="22.524327" lon="108.730676"><time>2026-04-25T01:50:33.228Z</time></trkpt>
      <trkpt lat="22.524327" lon="108.730676"><time>2026-04-25T01:50:33.245Z</time></trkpt>
      <trkpt lat="22.524337" lon="108.730659"><time>2026-04-25T01:50:33.262Z</time></trkpt>
      <trkpt lat="22.524337" lon="108.730659"><time>2026-04-25T01:50:33.278Z</time></trkpt>
      <trkpt lat="22.524337" lon="108.730659"><time>2026-04-25T01:50:33.295Z</time></trkpt>
      <trkpt lat="22.524337" lon="108.730659"><time>2026-04-25T01:50:33.312Z</time></trkpt>
      <trkpt lat="22.524337" lon="108.730659"><time>2026-04-25T01:50:33.328Z</time></trkpt>
      <trkpt lat="22.524337" lon="108.730659"><time>2026-04-25T01:50:33.345Z</time></trkpt>
      <trkpt lat="22.524345" lon="108.730645"><time>2026-04-25T01:50:33.362Z</time></trkpt>
      <trkpt lat="22.524345" lon="108.730645"><time>2026-04-25T01:50:33.378Z</time></trkpt>
      <trkpt lat="22.524345" lon="108.730645"><time>2026-04-25T01:50:33.395Z</time></trkpt>
      <trkpt lat="22.524345" lon="108.730645"><time>2026-04-25T01:50:33.412Z</time></trkpt>
      <trkpt lat="22.524345" lon="108.730645"><time>2026-04-25T01:50:33.428Z</time></trkpt>
      <trkpt lat="22.524345" lon="108.730645"><time>2026-04-25T01:50:33.445Z</time></trkpt>
      <trkpt lat="22.524355" lon="108.730629"><time>2026-04-25T01:50:33.462Z</time></trkpt>
      <trkpt lat="22.524355" lon="108.730629"><time>2026-04-25T01:50:33.479Z</time></trkpt>
      <trkpt lat="22.524355" lon="108.730629"><time>2026-04-25T01:50:33.495Z</time></trkpt>
      <trkpt lat="22.524355" lon="108.730629"><time>2026-04-25T01:50:33.512Z</time></trkpt>
      <trkpt lat="22.524355" lon="108.730629"><time>2026-04-25T01:50:33.529Z</time></trkpt>
      <trkpt lat="22.524355" lon="108.730629"><time>2026-04-25T01:50:33.545Z</time></trkpt>
      <trkpt lat="22.524365" lon="108.730611"><time>2026-04-25T01:50:33.562Z</time></trkpt>
      <trkpt lat="22.524365" lon="108.730611"><time>2026-04-25T01:50:33.579Z</time></trkpt>
      <trkpt lat="22.524365" lon="108.730611"><time>2026-04-25T01:50:33.595Z</time></trkpt>
      <trkpt lat="22.524365" lon="108.730611"><time>2026-04-25T01:50:33.612Z</time></trkpt>
      <trkpt lat="22.524365" lon="108.730611"><time>2026-04-25T01:50:33.629Z</time></trkpt>
      <trkpt lat="22.524365" lon="108.730611"><time>2026-04-25T01:50:33.645Z</time></trkpt>
      <trkpt lat="22.524374" lon="108.730595"><time>2026-04-25T01:50:33.662Z</time></trkpt>
      <trkpt lat="22.524374" lon="108.730595"><time>2026-04-25T01:50:33.679Z</time></trkpt>
      <trkpt lat="22.524374" lon="108.730595"><time>2026-04-25T01:50:33.695Z</time></trkpt>
      <trkpt lat="22.524374" lon="108.730595"><time>2026-04-25T01:50:33.712Z</time></trkpt>
      <trkpt lat="22.524374" lon="108.730595"><time>2026-04-25T01:50:33.729Z</time></trkpt>
      <trkpt lat="22.524374" lon="108.730595"><time>2026-04-25T01:50:33.745Z</time></trkpt>
      <trkpt lat="22.524384" lon="108.730579"><time>2026-04-25T01:50:33.762Z</time></trkpt>
      <trkpt lat="22.524384" lon="108.730579"><time>2026-04-25T01:50:33.779Z</time></trkpt>
      <trkpt lat="22.524384" lon="108.730579"><time>2026-04-25T01:50:33.796Z</time></trkpt>
      <trkpt lat="22.524384" lon="108.730579"><time>2026-04-25T01:50:33.812Z</time></trkpt>
      <trkpt lat="22.524384" lon="108.730579"><time>2026-04-25T01:50:33.829Z</time></trkpt>
      <trkpt lat="22.524384" lon="108.730579"><time>2026-04-25T01:50:33.846Z</time></trkpt>
      <trkpt lat="22.524394" lon="108.730563"><time>2026-04-25T01:50:33.862Z</time></trkpt>
      <trkpt lat="22.524394" lon="108.730563"><time>2026-04-25T01:50:33.879Z</time></trkpt>
      <trkpt lat="22.524394" lon="108.730563"><time>2026-04-25T01:50:33.896Z</time></trkpt>
      <trkpt lat="22.524394" lon="108.730563"><time>2026-04-25T01:50:33.912Z</time></trkpt>
      <trkpt lat="22.524394" lon="108.730563"><time>2026-04-25T01:50:33.929Z</time></trkpt>
      <trkpt lat="22.524394" lon="108.730563"><time>2026-04-25T01:50:33.946Z</time></trkpt>
      <trkpt lat="22.524403" lon="108.730547"><time>2026-04-25T01:50:33.962Z</time></trkpt>
      <trkpt lat="22.524403" lon="108.730547"><time>2026-04-25T01:50:33.979Z</time></trkpt>
      <trkpt lat="22.524403" lon="108.730547"><time>2026-04-25T01:50:33.996Z</time></trkpt>
      <trkpt lat="22.524403" lon="108.730547"><time>2026-04-25T01:50:34.012Z</time></trkpt>
      <trkpt lat="22.524403" lon="108.730547"><time>2026-04-25T01:50:34.029Z</time></trkpt>
      <trkpt lat="22.524403" lon="108.730547"><time>2026-04-25T01:50:34.046Z</time></trkpt>
      <trkpt lat="22.524413" lon="108.73053"><time>2026-04-25T01:50:34.062Z</time></trkpt>
      <trkpt lat="22.524413" lon="108.73053"><time>2026-04-25T01:50:34.079Z</time></trkpt>
      <trkpt lat="22.524413" lon="108.73053"><time>2026-04-25T01:50:34.096Z</time></trkpt>
      <trkpt lat="22.524413" lon="108.73053"><time>2026-04-25T01:50:34.113Z</time></trkpt>
      <trkpt lat="22.524413" lon="108.73053"><time>2026-04-25T01:50:34.129Z</time></trkpt>
      <trkpt lat="22.524413" lon="108.73053"><time>2026-04-25T01:50:34.146Z</time></trkpt>
      <trkpt lat="22.524422" lon="108.730514"><time>2026-04-25T01:50:34.163Z</time></trkpt>
      <trkpt lat="22.524422" lon="108.730514"><time>2026-04-25T01:50:34.179Z</time></trkpt>
      <trkpt lat="22.524422" lon="108.730514"><time>2026-04-25T01:50:34.196Z</time></trkpt>
      <trkpt lat="22.524422" lon="108.730514"><time>2026-04-25T01:50:34.213Z</time></trkpt>
      <trkpt lat="22.524422" lon="108.730514"><time>2026-04-25T01:50:34.229Z</time></trkpt>
      <trkpt lat="22.524422" lon="108.730514"><time>2026-04-25T01:50:34.246Z</time></trkpt>
      <trkpt lat="22.524432" lon="108.730497"><time>2026-04-25T01:50:34.263Z</time></trkpt>
      <trkpt lat="22.524432" lon="108.730497"><time>2026-04-25T01:50:34.279Z</time></trkpt>
      <trkpt lat="22.524432" lon="108.730497"><time>2026-04-25T01:50:34.296Z</time></trkpt>
      <trkpt lat="22.524432" lon="108.730497"><time>2026-04-25T01:50:34.313Z</time></trkpt>
      <trkpt lat="22.524432" lon="108.730497"><time>2026-04-25T01:50:34.329Z</time></trkpt>
      <trkpt lat="22.524432" lon="108.730497"><time>2026-04-25T01:50:34.346Z</time></trkpt>
      <trkpt lat="22.524441" lon="108.730482"><time>2026-04-25T01:50:34.363Z</time></trkpt>
      <trkpt lat="22.524441" lon="108.730482"><time>2026-04-25T01:50:34.379Z</time></trkpt>
      <trkpt lat="22.524441" lon="108.730482"><time>2026-04-25T01:50:34.396Z</time></trkpt>
      <trkpt lat="22.524441" lon="108.730482"><time>2026-04-25T01:50:34.413Z</time></trkpt>
      <trkpt lat="22.524441" lon="108.730482"><time>2026-04-25T01:50:34.430Z</time></trkpt>
      <trkpt lat="22.524441" lon="108.730482"><time>2026-04-25T01:50:34.446Z</time></trkpt>
      <trkpt lat="22.524451" lon="108.730465"><time>2026-04-25T01:50:34.463Z</time></trkpt>
      <trkpt lat="22.524451" lon="108.730465"><time>2026-04-25T01:50:34.480Z</time></trkpt>
      <trkpt lat="22.524451" lon="108.730465"><time>2026-04-25T01:50:34.496Z</time></trkpt>
      <trkpt lat="22.524451" lon="108.730465"><time>2026-04-25T01:50:34.513Z</time></trkpt>
      <trkpt lat="22.524451" lon="108.730465"><time>2026-04-25T01:50:34.530Z</time></trkpt>
      <trkpt lat="22.524451" lon="108.730465"><time>2026-04-25T01:50:34.546Z</time></trkpt>
      <trkpt lat="22.524462" lon="108.730447"><time>2026-04-25T01:50:34.563Z</time></trkpt>
      <trkpt lat="22.524462" lon="108.730447"><time>2026-04-25T01:50:34.580Z</time></trkpt>
      <trkpt lat="22.524462" lon="108.730447"><time>2026-04-25T01:50:34.596Z</time></trkpt>
      <trkpt lat="22.524462" lon="108.730447"><time>2026-04-25T01:50:34.613Z</time></trkpt>
      <trkpt lat="22.524462" lon="108.730447"><time>2026-04-25T01:50:34.630Z</time></trkpt>
      <trkpt lat="22.524462" lon="108.730447"><time>2026-04-25T01:50:34.646Z</time></trkpt>
      <trkpt lat="22.524472" lon="108.730431"><time>2026-04-25T01:50:34.663Z</time></trkpt>
      <trkpt lat="22.524472" lon="108.730431"><time>2026-04-25T01:50:34.680Z</time></trkpt>
      <trkpt lat="22.524472" lon="108.730431"><time>2026-04-25T01:50:34.696Z</time></trkpt>
      <trkpt lat="22.524472" lon="108.730431"><time>2026-04-25T01:50:34.713Z</time></trkpt>
      <trkpt lat="22.524472" lon="108.730431"><time>2026-04-25T01:50:34.730Z</time></trkpt>
      <trkpt lat="22.524472" lon="108.730431"><time>2026-04-25T01:50:34.747Z</time></trkpt>
      <trkpt lat="22.524482" lon="108.730414"><time>2026-04-25T01:50:34.763Z</time></trkpt>
      <trkpt lat="22.524482" lon="108.730414"><time>2026-04-25T01:50:34.780Z</time></trkpt>
      <trkpt lat="22.524482" lon="108.730414"><time>2026-04-25T01:50:34.797Z</time></trkpt>
      <trkpt lat="22.524482" lon="108.730414"><time>2026-04-25T01:50:34.813Z</time></trkpt>
      <trkpt lat="22.524482" lon="108.730414"><time>2026-04-25T01:50:34.830Z</time></trkpt>
      <trkpt lat="22.524482" lon="108.730414"><time>2026-04-25T01:50:34.847Z</time></trkpt>
      <trkpt lat="22.524492" lon="108.730397"><time>2026-04-25T01:50:34.863Z</time></trkpt>
      <trkpt lat="22.524492" lon="108.730397"><time>2026-04-25T01:50:34.880Z</time></trkpt>
      <trkpt lat="22.524492" lon="108.730397"><time>2026-04-25T01:50:34.897Z</time></trkpt>
      <trkpt lat="22.524492" lon="108.730397"><time>2026-04-25T01:50:34.913Z</time></trkpt>
      <trkpt lat="22.524492" lon="108.730397"><time>2026-04-25T01:50:34.930Z</time></trkpt>
      <trkpt lat="22.524492" lon="108.730397"><time>2026-04-25T01:50:34.947Z</time></trkpt>
      <trkpt lat="22.524502" lon="108.730379"><time>2026-04-25T01:50:34.963Z</time></trkpt>
      <trkpt lat="22.524502" lon="108.730379"><time>2026-04-25T01:50:34.980Z</time></trkpt>
      <trkpt lat="22.524502" lon="108.730379"><time>2026-04-25T01:50:34.997Z</time></trkpt>
      <trkpt lat="22.524502" lon="108.730379"><time>2026-04-25T01:50:35.013Z</time></trkpt>
      <trkpt lat="22.524502" lon="108.730379"><time>2026-04-25T01:50:35.030Z</time></trkpt>
      <trkpt lat="22.524502" lon="108.730379"><time>2026-04-25T01:50:35.047Z</time></trkpt>
      <trkpt lat="22.524512" lon="108.730362"><time>2026-04-25T01:50:35.063Z</time></trkpt>
      <trkpt lat="22.524512" lon="108.730362"><time>2026-04-25T01:50:35.080Z</time></trkpt>
      <trkpt lat="22.524512" lon="108.730362"><time>2026-04-25T01:50:35.097Z</time></trkpt>
      <trkpt lat="22.524512" lon="108.730362"><time>2026-04-25T01:50:35.114Z</time></trkpt>
      <trkpt lat="22.524512" lon="108.730362"><time>2026-04-25T01:50:35.130Z</time></trkpt>
      <trkpt lat="22.524512" lon="108.730362"><time>2026-04-25T01:50:35.147Z</time></trkpt>
      <trkpt lat="22.524522" lon="108.730346"><time>2026-04-25T01:50:35.164Z</time></trkpt>
      <trkpt lat="22.524522" lon="108.730346"><time>2026-04-25T01:50:35.180Z</time></trkpt>
      <trkpt lat="22.524522" lon="108.730346"><time>2026-04-25T01:50:35.197Z</time></trkpt>
      <trkpt lat="22.524522" lon="108.730346"><time>2026-04-25T01:50:35.214Z</time></trkpt>
      <trkpt lat="22.524522" lon="108.730346"><time>2026-04-25T01:50:35.230Z</time></trkpt>
      <trkpt lat="22.524522" lon="108.730346"><time>2026-04-25T01:50:35.247Z</time></trkpt>
      <trkpt lat="22.524533" lon="108.730328"><time>2026-04-25T01:50:35.264Z</time></trkpt>
      <trkpt lat="22.524533" lon="108.730328"><time>2026-04-25T01:50:35.280Z</time></trkpt>
      <trkpt lat="22.524533" lon="108.730328"><time>2026-04-25T01:50:35.297Z</time></trkpt>
      <trkpt lat="22.524533" lon="108.730328"><time>2026-04-25T01:50:35.314Z</time></trkpt>
      <trkpt lat="22.524533" lon="108.730328"><time>2026-04-25T01:50:35.330Z</time></trkpt>
      <trkpt lat="22.524533" lon="108.730328"><time>2026-04-25T01:50:35.347Z</time></trkpt>
      <trkpt lat="22.524542" lon="108.730313"><time>2026-04-25T01:50:35.364Z</time></trkpt>
      <trkpt lat="22.524542" lon="108.730313"><time>2026-04-25T01:50:35.380Z</time></trkpt>
      <trkpt lat="22.524542" lon="108.730313"><time>2026-04-25T01:50:35.397Z</time></trkpt>
      <trkpt lat="22.524542" lon="108.730313"><time>2026-04-25T01:50:35.414Z</time></trkpt>
      <trkpt lat="22.524542" lon="108.730313"><time>2026-04-25T01:50:35.431Z</time></trkpt>
      <trkpt lat="22.524542" lon="108.730313"><time>2026-04-25T01:50:35.447Z</time></trkpt>
      <trkpt lat="22.524552" lon="108.730296"><time>2026-04-25T01:50:35.464Z</time></trkpt>
      <trkpt lat="22.524552" lon="108.730296"><time>2026-04-25T01:50:35.481Z</time></trkpt>
      <trkpt lat="22.524552" lon="108.730296"><time>2026-04-25T01:50:35.497Z</time></trkpt>
      <trkpt lat="22.524552" lon="108.730296"><time>2026-04-25T01:50:35.514Z</time></trkpt>
      <trkpt lat="22.524552" lon="108.730296"><time>2026-04-25T01:50:35.531Z</time></trkpt>
      <trkpt lat="22.524552" lon="108.730296"><time>2026-04-25T01:50:35.547Z</time></trkpt>
      <trkpt lat="22.524563" lon="108.730277"><time>2026-04-25T01:50:35.564Z</time></trkpt>
      <trkpt lat="22.524563" lon="108.730277"><time>2026-04-25T01:50:35.581Z</time></trkpt>
      <trkpt lat="22.524563" lon="108.730277"><time>2026-04-25T01:50:35.597Z</time></trkpt>
      <trkpt lat="22.524563" lon="108.730277"><time>2026-04-25T01:50:35.614Z</time></trkpt>
      <trkpt lat="22.524563" lon="108.730277"><time>2026-04-25T01:50:35.631Z</time></trkpt>
      <trkpt lat="22.524563" lon="108.730277"><time>2026-04-25T01:50:35.647Z</time></trkpt>
      <trkpt lat="22.524574" lon="108.730259"><time>2026-04-25T01:50:35.664Z</time></trkpt>
      <trkpt lat="22.524574" lon="108.730259"><time>2026-04-25T01:50:35.681Z</time></trkpt>
      <trkpt lat="22.524574" lon="108.730259"><time>2026-04-25T01:50:35.697Z</time></trkpt>
      <trkpt lat="22.524574" lon="108.730259"><time>2026-04-25T01:50:35.714Z</time></trkpt>
      <trkpt lat="22.524574" lon="108.730259"><time>2026-04-25T01:50:35.731Z</time></trkpt>
      <trkpt lat="22.524574" lon="108.730259"><time>2026-04-25T01:50:35.748Z</time></trkpt>
      <trkpt lat="22.524584" lon="108.730242"><time>2026-04-25T01:50:35.764Z</time></trkpt>
      <trkpt lat="22.524584" lon="108.730242"><time>2026-04-25T01:50:35.781Z</time></trkpt>
      <trkpt lat="22.524584" lon="108.730242"><time>2026-04-25T01:50:35.798Z</time></trkpt>
      <trkpt lat="22.524584" lon="108.730242"><time>2026-04-25T01:50:35.814Z</time></trkpt>
      <trkpt lat="22.524584" lon="108.730242"><time>2026-04-25T01:50:35.831Z</time></trkpt>
      <trkpt lat="22.524584" lon="108.730242"><time>2026-04-25T01:50:35.848Z</time></trkpt>
      <trkpt lat="22.524594" lon="108.730224"><time>2026-04-25T01:50:35.864Z</time></trkpt>
      <trkpt lat="22.524594" lon="108.730224"><time>2026-04-25T01:50:35.881Z</time></trkpt>
      <trkpt lat="22.524594" lon="108.730224"><time>2026-04-25T01:50:35.898Z</time></trkpt>
      <trkpt lat="22.524594" lon="108.730224"><time>2026-04-25T01:50:35.914Z</time></trkpt>
      <trkpt lat="22.524594" lon="108.730224"><time>2026-04-25T01:50:35.931Z</time></trkpt>
      <trkpt lat="22.524594" lon="108.730224"><time>2026-04-25T01:50:35.948Z</time></trkpt>
      <trkpt lat="22.524604" lon="108.730207"><time>2026-04-25T01:50:35.964Z</time></trkpt>
      <trkpt lat="22.524604" lon="108.730207"><time>2026-04-25T01:50:35.981Z</time></trkpt>
      <trkpt lat="22.524604" lon="108.730207"><time>2026-04-25T01:50:35.998Z</time></trkpt>
      <trkpt lat="22.524604" lon="108.730207"><time>2026-04-25T01:50:36.014Z</time></trkpt>
      <trkpt lat="22.524604" lon="108.730207"><time>2026-04-25T01:50:36.031Z</time></trkpt>
      <trkpt lat="22.524604" lon="108.730207"><time>2026-04-25T01:50:36.048Z</time></trkpt>
      <trkpt lat="22.524614" lon="108.73019"><time>2026-04-25T01:50:36.065Z</time></trkpt>
      <trkpt lat="22.524614" lon="108.73019"><time>2026-04-25T01:50:36.081Z</time></trkpt>
      <trkpt lat="22.524614" lon="108.73019"><time>2026-04-25T01:50:36.098Z</time></trkpt>
      <trkpt lat="22.524614" lon="108.73019"><time>2026-04-25T01:50:36.115Z</time></trkpt>
      <trkpt lat="22.524614" lon="108.73019"><time>2026-04-25T01:50:36.131Z</time></trkpt>
      <trkpt lat="22.524614" lon="108.73019"><time>2026-04-25T01:50:36.148Z</time></trkpt>
      <trkpt lat="22.524625" lon="108.730172"><time>2026-04-25T01:50:36.165Z</time></trkpt>
      <trkpt lat="22.524625" lon="108.730172"><time>2026-04-25T01:50:36.181Z</time></trkpt>
      <trkpt lat="22.524625" lon="108.730172"><time>2026-04-25T01:50:36.198Z</time></trkpt>
      <trkpt lat="22.524625" lon="108.730172"><time>2026-04-25T01:50:36.215Z</time></trkpt>
      <trkpt lat="22.524625" lon="108.730172"><time>2026-04-25T01:50:36.231Z</time></trkpt>
      <trkpt lat="22.524634" lon="108.730155"><time>2026-04-25T01:50:36.248Z</time></trkpt>
      <trkpt lat="22.524634" lon="108.730155"><time>2026-04-25T01:50:36.265Z</time></trkpt>
      <trkpt lat="22.524634" lon="108.730155"><time>2026-04-25T01:50:36.281Z</time></trkpt>
      <trkpt lat="22.524634" lon="108.730155"><time>2026-04-25T01:50:36.298Z</time></trkpt>
      <trkpt lat="22.524634" lon="108.730155"><time>2026-04-25T01:50:36.315Z</time></trkpt>
      <trkpt lat="22.524634" lon="108.730155"><time>2026-04-25T01:50:36.331Z</time></trkpt>
      <trkpt lat="22.524634" lon="108.730155"><time>2026-04-25T01:50:36.348Z</time></trkpt>
      <trkpt lat="22.524644" lon="108.730139"><time>2026-04-25T01:50:36.365Z</time></trkpt>
    </trkseg>
  </trk>
</gpx>
