<?xml version="1.0" encoding="UTF-8"?>
<gpx version="1.1" creator="Kairos" xmlns="http://www.topografix.com/GPX/1/1">
  <trk>
    <name>sidecar-srt-996e29ae020451ba</name>
    <trkseg>
      <trkpt lat="28.014444" lon="98.630702"><time>2026-04-28T11:07:21.000Z</time></trkpt>
      <trkpt lat="28.014444" lon="98.630702"><time>2026-04-28T11:07:21.016Z</time></trkpt>
      <trkpt lat="28.014444" lon="98.630702"><time>2026-04-28T11:07:21.032Z</time></trkpt>
      <trkpt lat="28.014444" lon="98.630702"><time>2026-04-28T11:07:21.049Z</time></trkpt>
      <trkpt lat="28.014444" lon="98.630702"><time>2026-04-28T11:07:21.066Z</time></trkpt>
      <trkpt lat="28.014444" lon="98.630702"><time>2026-04-28T11:07:21.082Z</time></trkpt>
      <trkpt lat="28.014444" lon="98.630702"><time>2026-04-28T11:07:21.099Z</time></trkpt>
      <trkpt lat="28.014444" lon="98.630702"><time>2026-04-28T11:07:21.116Z</time></trkpt>
      <trkpt lat="28.014444" lon="98.630702"><time>2026-04-28T11:07:21.132Z</time></trkpt>
      <trkpt lat="28.014444" lon="98.630702"><time>2026-04-28T11:07:21.149Z</time></trkpt>
      <trkpt lat="28.014444" lon="98.630702"><time>2026-04-28T11:07:21.166Z</time></trkpt>
      <trkpt lat="28.014444" lon="98.630702"><time>2026-04-28T11:07:21.182Z</time></trkpt>
      <trkpt lat="28.014444" lon="98.630702"><time>2026-04-28T11:07:21.199Z</time></trkpt>
      <trkpt lat="28.014443" lon="98.630702"><time>2026-04-28T11:07:21.216Z</time></trkpt>
      <trkpt lat="28.014443" lon="98.630702"><time>2026-04-28T11:07:21.232Z</time></trkpt>
      <trkpt lat="28.014443" lon="98.630702"><time>2026-04-28T11:07:21.249Z</time></trkpt>
      <trkpt lat="28.014443" lon="98.630702"><time>2026-04-28T11:07:21.266Z</time></trkpt>
      <trkpt lat="28.014443" lon="98.630702"><time>2026-04-28T11:07:21.282Z</time></trkpt>
      <trkpt lat="28.014443" lon="98.630702"><time>2026-04-28T11:07:21.299Z</time></trkpt>
      <trkpt lat="28.014443" lon="98.630702"><time>2026-04-28T11:07:21.316Z</time></trkpt>
      <trkpt lat="28.014443" lon="98.630702"><time>2026-04-28T11:07:21.333Z</time></trkpt>
      <trkpt lat="28.014443" lon="98.630702"><time>2026-04-28T11:07:21.349Z</time></trkpt>
      <trkpt lat="28.014443" lon="98.630702"><time>2026-04-28T11:07:21.366Z</time></trkpt>
      <trkpt lat="28.014443" lon="98.630702"><time>2026-04-28T11:07:21.383Z</time></trkpt>
      <trkpt lat="28.014443" lon="98.630702"><time>2026-04-28T11:07:21.399Z</time></trkpt>
      <trkpt lat="28.014443" lon="98.630702"><time>2026-04-28T11:07:21.416Z</time></trkpt>
      <trkpt lat="28.014443" lon="98.630702"><time>2026-04-28T11:07:21.433Z</time></trkpt>
      <trkpt lat="28.014443" lon="98.630702"><time>2026-04-28T11:07:21.449Z</time></trkpt>
      <trkpt lat="28.014443" lon="98.630702"><time>2026-04-28T11:07:21.466Z</time></trkpt>
      <trkpt lat="28.014443" lon="98.630702"><time>2026-04-28T11:07:21.483Z</time></trkpt>
      <trkpt lat="28.014443" lon="98.630702"><time>2026-04-28T11:07:21.499Z</time></trkpt>
      <trkpt lat="28.014443" lon="98.630702"><time>2026-04-28T11:07:21.516Z</time></trkpt>
      <trkpt lat="28.014443" lon="98.630702"><time>2026-04-28T11:07:21.533Z</time></trkpt>
      <trkpt lat="28.014443" lon="98.630702"><time>2026-04-28T11:07:21.549Z</time></trkpt>
      <trkpt lat="28.014443" lon="98.630702"><time>2026-04-28T11:07:21.566Z</time></trkpt>
      <trkpt lat="28.014443" lon="98.630702"><time>2026-04-28T11:07:21.583Z</time></trkpt>
      <trkpt lat="28.014443" lon="98.630702"><time>2026-04-28T11:07:21.599Z</time></trkpt>
      <trkpt lat="28.014443" lon="98.630702"><time>2026-04-28T11:07:21.616Z</time></trkpt>
      <trkpt lat="28.014443" lon="98.630702"><time>2026-04-28T11:07:21.633Z</time></trkpt>
      <trkpt lat="28.014443" lon="98.630702"><time>2026-04-28T11:07:21.650Z</time></trkpt>
      <trkpt lat="28.014443" lon="98.630702"><time>2026-04-28T11:07:21.666Z</time></trkpt>
      <trkpt lat="28.014443" lon="98.630702"><time>2026-04-28T11:07:21.683Z</time></trkpt>
      <trkpt lat="28.014443" lon="98.630702"><time>2026-04-28T11:07:21.700Z</time></trkpt>
      <trkpt lat="28.014443" lon="98.630702"><time>2026-04-28T11:07:21.716Z</time></trkpt>
      <trkpt lat="28.014443" lon="98.630702"><time>2026-04-28T11:07:21.733Z</time></trkpt>
      <trkpt lat="28.014443" lon="98.630702"><time>2026-04-28T11:07:21.750Z</time></trkpt>
      <trkpt lat="28.014443" lon="98.630702"><time>2026-04-28T11:07:21.766Z</time></trkpt>
      <trkpt lat="28.014443" lon="98.630702"><time>2026-04-28T11:07:21.783Z</time></trkpt>
      <trkpt lat="28.014443" lon="98.630702"><time>2026-04-28T11:07:21.800Z</time></trkpt>
      <trkpt lat="28.014443" lon="98.630702"><time>2026-04-28T11:07:21.816Z</time></trkpt>
      <trkpt lat="28.014443" lon="98.630702"><time>2026-04-28T11:07:21.833Z</time></trkpt>
      <trkpt lat="28.014443" lon="98.630702"><time>2026-04-28T11:07:21.850Z</time></trkpt>
      <trkpt lat="28.014443" lon="98.630702"><time>2026-04-28T11:07:21.866Z</time></trkpt>
      <trkpt lat="28.014443" lon="98.630702"><time>2026-04-28T11:07:21.883Z</time></trkpt>
      <trkpt lat="28.014443" lon="98.630702"><time>2026-04-28T11:07:21.900Z</time></trkpt>
      <trkpt lat="28.014443" lon="98.630702"><time>2026-04-28T11:07:21.916Z</time></trkpt>
      <trkpt lat="28.014443" lon="98.630702"><time>2026-04-28T11:07:21.933Z</time></trkpt>
      <trkpt lat="28.014443" lon="98.630702"><time>2026-04-28T11:07:21.950Z</time></trkpt>
      <trkpt lat="28.014443" lon="98.630702"><time>2026-04-28T11:07:21.967Z</time></trkpt>
      <trkpt lat="28.014443" lon="98.630702"><time>2026-04-28T11:07:21.983Z</time></trkpt>
      <trkpt lat="28.014443" lon="98.630702"><time>2026-04-28T11:07:22.000Z</time></trkpt>
      <trkpt lat="28.014443" lon="98.630702"><time>2026-04-28T11:07:22.017Z</time></trkpt>
      <trkpt lat="28.014443" lon="98.630702"><time>2026-04-28T11:07:22.033Z</time></trkpt>
      <trkpt lat="28.014443" lon="98.630702"><time>2026-04-28T11:07:22.050Z</time></trkpt>
      <trkpt lat="28.014443" lon="98.630702"><time>2026-04-28T11:07:22.067Z</time></trkpt>
      <trkpt lat="28.014443" lon="98.630702"><time>2026-04-28T11:07:22.083Z</time></trkpt>
      <trkpt lat="28.014443" lon="98.630702"><time>2026-04-28T11:07:22.100Z</time></trkpt>
      <trkpt lat="28.014443" lon="98.630702"><time>2026-04-28T11:07:22.117Z</time></trkpt>
      <trkpt lat="28.014443" lon="98.630702"><time>2026-04-28T11:07:22.133Z</time></trkpt>
      <trkpt lat="28.014443" lon="98.630702"><time>2026-04-28T11:07:22.150Z</time></trkpt>
      <trkpt lat="28.014443" lon="98.630702"><time>2026-04-28T11:07:22.167Z</time></trkpt>
      <trkpt lat="28.014443" lon="98.630702"><time>2026-04-28T11:07:22.183Z</time></trkpt>
      <trkpt lat="28.014443" lon="98.630702"><time>2026-04-28T11:07:22.200Z</time></trkpt>
      <trkpt lat="28.014443" lon="98.630702"><time>2026-04-28T11:07:22.217Z</time></trkpt>
      <trkpt lat="28.014443" lon="98.630702"><time>2026-04-28T11:07:22.233Z</time></trkpt>
      <trkpt lat="28.014443" lon="98.630702"><time>2026-04-28T11:07:22.250Z</time></trkpt>
      <trkpt lat="28.014443" lon="98.630702"><time>2026-04-28T11:07:22.267Z</time></trkpt>
      <trkpt lat="28.014443" lon="98.630702"><time>2026-04-28T11:07:22.283Z</time></trkpt>
      <trkpt lat="28.014443" lon="98.630702"><time>2026-04-28T11:07:22.300Z</time></trkpt>
      <trkpt lat="28.014443" lon="98.630702"><time>2026-04-28T11:07:22.317Z</time></trkpt>
      <trkpt lat="28.014443" lon="98.630702"><time>2026-04-28T11:07:22.334Z</time></trkpt>
      <trkpt lat="28.014443" lon="98.630702"><time>2026-04-28T11:07:22.350Z</time></trkpt>
      <trkpt lat="28.014443" lon="98.630702"><time>2026-04-28T11:07:22.367Z</time></trkpt>
      <trkpt lat="28.014443" lon="98.630702"><time>2026-04-28T11:07:22.384Z</time></trkpt>
      <trkpt lat="28.014443" lon="98.630702"><time>2026-04-28T11:07:22.400Z</time></trkpt>
      <trkpt lat="28.014443" lon="98.630702"><time>2026-04-28T11:07:22.417Z</time></trkpt>
      <trkpt lat="28.014443" lon="98.630702"><time>2026-04-28T11:07:22.434Z</time></trkpt>
      <trkpt lat="28.014443" lon="98.630702"><time>2026-04-28T11:07:22.450Z</time></trkpt>
      <trkpt lat="28.014443" lon="98.630702"><time>2026-04-28T11:07:22.467Z</time></trkpt>
      <trkpt lat="28.014443" lon="98.630702"><time>2026-04-28T11:07:22.484Z</time></trkpt>
      <trkpt lat="28.014443" lon="98.630702"><time>2026-04-28T11:07:22.500Z</time></trkpt>
      <trkpt lat="28.014443" lon="98.630702"><time>2026-04-28T11:07:22.517Z</time></trkpt>
      <trkpt lat="28.014443" lon="98.630702"><time>2026-04-28T11:07:22.534Z</time></trkpt>
      <trkpt lat="28.014443" lon="98.630702"><time>2026-04-28T11:07:22.550Z</time></trkpt>
      <trkpt lat="28.014443" lon="98.630702"><time>2026-04-28T11:07:22.567Z</time></trkpt>
      <trkpt lat="28.014443" lon="98.630702"><time>2026-04-28T11:07:22.584Z</time></trkpt>
      <trkpt lat="28.014443" lon="98.630702"><time>2026-04-28T11:07:22.600Z</time></trkpt>
      <trkpt lat="28.014443" lon="98.630702"><time>2026-04-28T11:07:22.617Z</time></trkpt>
      <trkpt lat="28.014443" lon="98.630702"><time>2026-04-28T11:07:22.634Z</time></trkpt>
      <trkpt lat="28.014443" lon="98.630702"><time>2026-04-28T11:07:22.651Z</time></trkpt>
      <trkpt lat="28.014443" lon="98.630702"><time>2026-04-28T11:07:22.667Z</time></trkpt>
      <trkpt lat="28.014443" lon="98.630702"><time>2026-04-28T11:07:22.684Z</time></trkpt>
      <trkpt lat="28.014443" lon="98.630702"><time>2026-04-28T11:07:22.701Z</time></trkpt>
      <trkpt lat="28.014443" lon="98.630702"><time>2026-04-28T11:07:22.717Z</time></trkpt>
      <trkpt lat="28.014443" lon="98.630702"><time>2026-04-28T11:07:22.734Z</time></trkpt>
      <trkpt lat="28.014443" lon="98.630702"><time>2026-04-28T11:07:22.751Z</time></trkpt>
      <trkpt lat="28.014443" lon="98.630702"><time>2026-04-28T11:07:22.767Z</time></trkpt>
      <trkpt lat="28.014443" lon="98.630702"><time>2026-04-28T11:07:22.784Z</time></trkpt>
      <trkpt lat="28.014443" lon="98.630702"><time>2026-04-28T11:07:22.801Z</time></trkpt>
      <trkpt lat="28.014443" lon="98.630702"><time>2026-04-28T11:07:22.817Z</time></trkpt>
      <trkpt lat="28.014443" lon="98.630702"><time>2026-04-28T11:07:22.834Z</time></trkpt>
      <trkpt lat="28.014443" lon="98.630702"><time>2026-04-28T11:07:22.851Z</time></trkpt>
      <trkpt lat="28.014443" lon="98.630702"><time>2026-04-28T11:07:22.867Z</time></trkpt>
      <trkpt lat="28.014443" lon="98.630702"><time>2026-04-28T11:07:22.884Z</time></trkpt>
      <trkpt lat="28.014443" lon="98.630702"><time>2026-04-28T11:07:22.901Z</time></trkpt>
      <trkpt lat="28.014443" lon="98.630702"><time>2026-04-28T11:07:22.917Z</time></trkpt>
      <trkpt lat="28.014443" lon="98.630702"><time>2026-04-28T11:07:22.934Z</time></trkpt>
      <trkpt lat="28.014443" lon="98.630702"><time>2026-04-28T11:07:22.951Z</time></trkpt>
      <trkpt lat="28.014443" lon="98.630702"><time>2026-04-28T11:07:22.968Z</time></trkpt>
      <trkpt lat="28.014443" lon="98.630702"><time>2026-04-28T11:07:22.984Z</time></trkpt>
      <trkpt lat="28.014443" lon="98.630702"><time>2026-04-28T11:07:23.001Z</time></trkpt>
      <trkpt lat="28.014443" lon="98.630702"><time>2026-04-28T11:07:23.018Z</time></trkpt>
      <trkpt lat="28.014443" lon="98.630702"><time>2026-04-28T11:07:23.034Z</time></trkpt>
      <trkpt lat="28.014443" lon="98.630702"><time>2026-04-28T11:07:23.051Z</time></trkpt>
      <trkpt lat="28.014443" lon="98.630702"><time>2026-04-28T11:07:23.068Z</time></trkpt>
      <trkpt lat="28.014443" lon="98.630702"><time>2026-04-28T11:07:23.084Z</time></trkpt>
      <trkpt lat="28.014443" lon="98.630702"><time>2026-04-28T11:07:23.101Z</time></trkpt>
      <trkpt lat="28.014443" lon="98.630701"><time>2026-04-28T11:07:23.118Z</time></trkpt>
      <trkpt lat="28.014443" lon="98.630701"><time>2026-04-28T11:07:23.134Z</time></trkpt>
      <trkpt lat="28.014443" lon="98.630701"><time>2026-04-28T11:07:23.151Z</time></trkpt>
      <trkpt lat="28.014443" lon="98.630701"><time>2026-04-28T11:07:23.168Z</time></trkpt>
      <trkpt lat="28.014443" lon="98.630701"><time>2026-04-28T11:07:23.184Z</time></trkpt>
      <trkpt lat="28.014443" lon="98.630701"><time>2026-04-28T11:07:23.201Z</time></trkpt>
      <trkpt lat="28.014444" lon="98.630701"><time>2026-04-28T11:07:23.218Z</time></trkpt>
      <trkpt lat="28.014444" lon="98.630701"><time>2026-04-28T11:07:23.234Z</time></trkpt>
      <trkpt lat="28.014444" lon="98.630701"><time>2026-04-28T11:07:23.251Z</time></trkpt>
      <trkpt lat="28.014444" lon="98.630701"><time>2026-04-28T11:07:23.268Z</time></trkpt>
      <trkpt lat="28.014444" lon="98.630701"><time>2026-04-28T11:07:23.285Z</time></trkpt>
      <trkpt lat="28.014444" lon="98.630701"><time>2026-04-28T11:07:23.301Z</time></trkpt>
      <trkpt lat="28.014444" lon="98.630701"><time>2026-04-28T11:07:23.318Z</time></trkpt>
      <trkpt lat="28.014444" lon="98.630701"><time>2026-04-28T11:07:23.335Z</time></trkpt>
      <trkpt lat="28.014444" lon="98.630701"><time>2026-04-28T11:07:23.351Z</time></trkpt>
      <trkpt lat="28.014444" lon="98.630701"><time>2026-04-28T11:07:23.368Z</time></trkpt>
      <trkpt lat="28.014444" lon="98.630701"><time>2026-04-28T11:07:23.385Z</time></trkpt>
      <trkpt lat="28.014444" lon="98.630701"><time>2026-04-28T11:07:23.401Z</time></trkpt>
      <trkpt lat="28.014444" lon="98.630701"><time>2026-04-28T11:07:23.418Z</time></trkpt>
      <trkpt lat="28.014444" lon="98.630701"><time>2026-04-28T11:07:23.435Z</time></trkpt>
      <trkpt lat="28.014444" lon="98.630701"><time>2026-04-28T11:07:23.451Z</time></trkpt>
      <trkpt lat="28.014444" lon="98.630701"><time>2026-04-28T11:07:23.468Z</time></trkpt>
      <trkpt lat="28.014444" lon="98.630701"><time>2026-04-28T11:07:23.485Z</time></trkpt>
      <trkpt lat="28.014444" lon="98.630701"><time>2026-04-28T11:07:23.501Z</time></trkpt>
      <trkpt lat="28.014444" lon="98.6307"><time>2026-04-28T11:07:23.518Z</time></trkpt>
      <trkpt lat="28.014444" lon="98.6307"><time>2026-04-28T11:07:23.535Z</time></trkpt>
      <trkpt lat="28.014444" lon="98.6307"><time>2026-04-28T11:07:23.551Z</time></trkpt>
      <trkpt lat="28.014444" lon="98.6307"><time>2026-04-28T11:07:23.568Z</time></trkpt>
      <trkpt lat="28.014444" lon="98.6307"><time>2026-04-28T11:07:23.585Z</time></trkpt>
      <trkpt lat="28.014444" lon="98.6307"><time>2026-04-28T11:07:23.602Z</time></trkpt>
      <trkpt lat="28.014444" lon="98.6307"><time>2026-04-28T11:07:23.618Z</time></trkpt>
      <trkpt lat="28.014444" lon="98.6307"><time>2026-04-28T11:07:23.635Z</time></trkpt>
      <trkpt lat="28.014444" lon="98.6307"><time>2026-04-28T11:07:23.652Z</time></trkpt>
      <trkpt lat="28.014444" lon="98.6307"><time>2026-04-28T11:07:23.668Z</time></trkpt>
      <trkpt lat="28.014444" lon="98.6307"><time>2026-04-28T11:07:23.685Z</time></trkpt>
      <trkpt lat="28.014444" lon="98.6307"><time>2026-04-28T11:07:23.702Z</time></trkpt>
      <trkpt lat="28.014444" lon="98.6307"><time>2026-04-28T11:07:23.718Z</time></trkpt>
      <trkpt lat="28.014444" lon="98.6307"><time>2026-04-28T11:07:23.735Z</time></trkpt>
      <trkpt lat="28.014444" lon="98.6307"><time>2026-04-28T11:07:23.752Z</time></trkpt>
      <trkpt lat="28.014444" lon="98.6307"><time>2026-04-28T11:07:23.768Z</time></trkpt>
      <trkpt lat="28.014444" lon="98.6307"><time>2026-04-28T11:07:23.785Z</time></trkpt>
      <trkpt lat="28.014444" lon="98.6307"><time>2026-04-28T11:07:23.802Z</time></trkpt>
      <trkpt lat="28.014444" lon="98.6307"><time>2026-04-28T11:07:23.818Z</time></trkpt>
      <trkpt lat="28.014444" lon="98.6307"><time>2026-04-28T11:07:23.835Z</time></trkpt>
      <trkpt lat="28.014444" lon="98.6307"><time>2026-04-28T11:07:23.852Z</time></trkpt>
      <trkpt lat="28.014444" lon="98.6307"><time>2026-04-28T11:07:23.868Z</time></trkpt>
      <trkpt lat="28.014444" lon="98.6307"><time>2026-04-28T11:07:23.885Z</time></trkpt>
      <trkpt lat="28.014444" lon="98.6307"><time>2026-04-28T11:07:23.902Z</time></trkpt>
      <trkpt lat="28.014445" lon="98.6307"><time>2026-04-28T11:07:23.919Z</time></trkpt>
      <trkpt lat="28.014445" lon="98.6307"><time>2026-04-28T11:07:23.935Z</time></trkpt>
      <trkpt lat="28.014445" lon="98.6307"><time>2026-04-28T11:07:23.952Z</time></trkpt>
      <trkpt lat="28.014445" lon="98.6307"><time>2026-04-28T11:07:23.969Z</time></trkpt>
      <trkpt lat="28.014445" lon="98.6307"><time>2026-04-28T11:07:23.985Z</time></trkpt>
      <trkpt lat="28.014445" lon="98.6307"><time>2026-04-28T11:07:24.002Z</time></trkpt>
      <trkpt lat="28.014444" lon="98.630701"><time>2026-04-28T11:07:24.019Z</time></trkpt>
      <trkpt lat="28.014444" lon="98.630701"><time>2026-04-28T11:07:24.035Z</time></trkpt>
      <trkpt lat="28.014444" lon="98.630701"><time>2026-04-28T11:07:24.052Z</time></trkpt>
      <trkpt lat="28.014444" lon="98.630701"><time>2026-04-28T11:07:24.069Z</time></trkpt>
      <trkpt lat="28.014444" lon="98.630701"><time>2026-04-28T11:07:24.085Z</time></trkpt>
      <trkpt lat="28.014444" lon="98.630701"><time>2026-04-28T11:07:24.102Z</time></trkpt>
      <trkpt lat="28.014444" lon="98.630701"><time>2026-04-28T11:07:24.119Z</time></trkpt>
      <trkpt lat="28.014444" lon="98.630701"><time>2026-04-28T11:07:24.135Z</time></trkpt>
      <trkpt lat="28.014444" lon="98.630701"><time>2026-04-28T11:07:24.152Z</time></trkpt>
      <trkpt lat="28.014444" lon="98.630701"><time>2026-04-28T11:07:24.169Z</time></trkpt>
      <trkpt lat="28.014444" lon="98.630701"><time>2026-04-28T11:07:24.185Z</time></trkpt>
      <trkpt lat="28.014444" lon="98.630701"><time>2026-04-28T11:07:24.202Z</time></trkpt>
      <trkpt lat="28.014444" lon="98.630701"><time>2026-04-28T11:07:24.219Z</time></trkpt>
      <trkpt lat="28.014444" lon="98.630701"><time>2026-04-28T11:07:24.236Z</time></trkpt>
      <trkpt lat="28.014444" lon="98.630701"><time>2026-04-28T11:07:24.252Z</time></trkpt>
      <trkpt lat="28.014444" lon="98.630701"><time>2026-04-28T11:07:24.269Z</time></trkpt>
      <trkpt lat="28.014444" lon="98.630701"><time>2026-04-28T11:07:24.286Z</time></trkpt>
      <trkpt lat="28.014444" lon="98.630701"><time>2026-04-28T11:07:24.302Z</time></trkpt>
      <trkpt lat="28.014444" lon="98.630701"><time>2026-04-28T11:07:24.319Z</time></trkpt>
      <trkpt lat="28.014444" lon="98.630701"><time>2026-04-28T11:07:24.336Z</time></trkpt>
      <trkpt lat="28.014444" lon="98.630701"><time>2026-04-28T11:07:24.352Z</time></trkpt>
      <trkpt lat="28.014444" lon="98.630701"><time>2026-04-28T11:07:24.369Z</time></trkpt>
      <trkpt lat="28.014444" lon="98.630701"><time>2026-04-28T11:07:24.386Z</time></trkpt>
      <trkpt lat="28.014444" lon="98.630701"><time>2026-04-28T11:07:24.402Z</time></trkpt>
      <trkpt lat="28.014444" lon="98.6307"><time>2026-04-28T11:07:24.419Z</time></trkpt>
      <trkpt lat="28.014444" lon="98.6307"><time>2026-04-28T11:07:24.436Z</time></trkpt>
      <trkpt lat="28.014444" lon="98.6307"><time>2026-04-28T11:07:24.452Z</time></trkpt>
      <trkpt lat="28.014444" lon="98.6307"><time>2026-04-28T11:07:24.469Z</time></trkpt>
      <trkpt lat="28.014444" lon="98.6307"><time>2026-04-28T11:07:24.486Z</time></trkpt>
      <trkpt lat="28.014444" lon="98.6307"><time>2026-04-28T11:07:24.502Z</time></trkpt>
      <trkpt lat="28.014445" lon="98.6307"><time>2026-04-28T11:07:24.519Z</time></trkpt>
      <trkpt lat="28.014445" lon="98.6307"><time>2026-04-28T11:07:24.536Z</time></trkpt>
      <trkpt lat="28.014445" lon="98.6307"><time>2026-04-28T11:07:24.553Z</time></trkpt>
      <trkpt lat="28.014445" lon="98.6307"><time>2026-04-28T11:07:24.569Z</time></trkpt>
      <trkpt lat="28.014445" lon="98.6307"><time>2026-04-28T11:07:24.586Z</time></trkpt>
      <trkpt lat="28.014445" lon="98.6307"><time>2026-04-28T11:07:24.603Z</time></trkpt>
      <trkpt lat="28.014445" lon="98.630699"><time>2026-04-28T11:07:24.619Z</time></trkpt>
      <trkpt lat="28.014445" lon="98.630699"><time>2026-04-28T11:07:24.636Z</time></trkpt>
      <trkpt lat="28.014445" lon="98.630699"><time>2026-04-28T11:07:24.653Z</time></trkpt>
      <trkpt lat="28.014445" lon="98.630699"><time>2026-04-28T11:07:24.669Z</time></trkpt>
      <trkpt lat="28.014445" lon="98.630699"><time>2026-04-28T11:07:24.686Z</time></trkpt>
      <trkpt lat="28.014445" lon="98.630699"><time>2026-04-28T11:07:24.703Z</time></trkpt>
      <trkpt lat="28.014445" lon="98.630698"><time>2026-04-28T11:07:24.719Z</time></trkpt>
      <trkpt lat="28.014445" lon="98.630698"><time>2026-04-28T11:07:24.736Z</time></trkpt>
      <trkpt lat="28.014445" lon="98.630698"><time>2026-04-28T11:07:24.753Z</time></trkpt>
      <trkpt lat="28.014445" lon="98.630698"><time>2026-04-28T11:07:24.769Z</time></trkpt>
      <trkpt lat="28.014445" lon="98.630698"><time>2026-04-28T11:07:24.786Z</time></trkpt>
      <trkpt lat="28.014445" lon="98.630698"><time>2026-04-28T11:07:24.803Z</time></trkpt>
      <trkpt lat="28.014446" lon="98.630696"><time>2026-04-28T11:07:24.819Z</time></trkpt>
      <trkpt lat="28.014446" lon="98.630696"><time>2026-04-28T11:07:24.836Z</time></trkpt>
      <trkpt lat="28.014446" lon="98.630696"><time>2026-04-28T11:07:24.853Z</time></trkpt>
      <trkpt lat="28.014446" lon="98.630696"><time>2026-04-28T11:07:24.870Z</time></trkpt>
      <trkpt lat="28.014446" lon="98.630696"><time>2026-04-28T11:07:24.886Z</time></trkpt>
      <trkpt lat="28.014446" lon="98.630696"><time>2026-04-28T11:07:24.903Z</time></trkpt>
      <trkpt lat="28.014446" lon="98.630694"><time>2026-04-28T11:07:24.920Z</time></trkpt>
      <trkpt lat="28.014446" lon="98.630694"><time>2026-04-28T11:07:24.936Z</time></trkpt>
      <trkpt lat="28.014446" lon="98.630694"><time>2026-04-28T11:07:24.953Z</time></trkpt>
      <trkpt lat="28.014446" lon="98.630694"><time>2026-04-28T11:07:24.970Z</time></trkpt>
      <trkpt lat="28.014446" lon="98.630694"><time>2026-04-28T11:07:24.986Z</time></trkpt>
      <trkpt lat="28.014446" lon="98.630694"><time>2026-04-28T11:07:25.003Z</time></trkpt>
      <trkpt lat="28.014447" lon="98.630692"><time>2026-04-28T11:07:25.020Z</time></trkpt>
      <trkpt lat="28.014447" lon="98.630692"><time>2026-04-28T11:07:25.036Z</time></trkpt>
      <trkpt lat="28.014447" lon="98.630692"><time>2026-04-28T11:07:25.053Z</time></trkpt>
      <trkpt lat="28.014447" lon="98.630692"><time>2026-04-28T11:07:25.070Z</time></trkpt>
      <trkpt lat="28.014447" lon="98.630692"><time>2026-04-28T11:07:25.086Z</time></trkpt>
      <trkpt lat="28.014447" lon="98.630692"><time>2026-04-28T11:07:25.103Z</time></trkpt>
      <trkpt lat="28.014447" lon="98.63069"><time>2026-04-28T11:07:25.120Z</time></trkpt>
      <trkpt lat="28.014447" lon="98.63069"><time>2026-04-28T11:07:25.136Z</time></trkpt>
      <trkpt lat="28.014447" lon="98.63069"><time>2026-04-28T11:07:25.153Z</time></trkpt>
      <trkpt lat="28.014447" lon="98.63069"><time>2026-04-28T11:07:25.170Z</time></trkpt>
      <trkpt lat="28.014447" lon="98.63069"><time>2026-04-28T11:07:25.187Z</time></trkpt>
      <trkpt lat="28.014447" lon="98.63069"><time>2026-04-28T11:07:25.203Z</time></trkpt>
      <trkpt lat="28.014449" lon="98.630687"><time>2026-04-28T11:07:25.220Z</time></trkpt>
      <trkpt lat="28.014449" lon="98.630687"><time>2026-04-28T11:07:25.237Z</time></trkpt>
      <trkpt lat="28.014449" lon="98.630687"><time>2026-04-28T11:07:25.253Z</time></trkpt>
      <trkpt lat="28.014449" lon="98.630687"><time>2026-04-28T11:07:25.270Z</time></trkpt>
      <trkpt lat="28.014449" lon="98.630687"><time>2026-04-28T11:07:25.287Z</time></trkpt>
      <trkpt lat="28.014449" lon="98.630687"><time>2026-04-28T11:07:25.303Z</time></trkpt>
      <trkpt lat="28.014449" lon="98.630684"><time>2026-04-28T11:07:25.320Z</time></trkpt>
      <trkpt lat="28.014449" lon="98.630684"><time>2026-04-28T11:07:25.337Z</time></trkpt>
      <trkpt lat="28.014449" lon="98.630684"><time>2026-04-28T11:07:25.353Z</time></trkpt>
      <trkpt lat="28.014449" lon="98.630684"><time>2026-04-28T11:07:25.370Z</time></trkpt>
      <trkpt lat="28.014449" lon="98.630684"><time>2026-04-28T11:07:25.387Z</time></trkpt>
      <trkpt lat="28.014449" lon="98.630684"><time>2026-04-28T11:07:25.403Z</time></trkpt>
      <trkpt lat="28.014451" lon="98.630681"><time>2026-04-28T11:07:25.420Z</time></trkpt>
      <trkpt lat="28.014451" lon="98.630681"><time>2026-04-28T11:07:25.437Z</time></trkpt>
      <trkpt lat="28.014451" lon="98.630681"><time>2026-04-28T11:07:25.453Z</time></trkpt>
      <trkpt lat="28.014451" lon="98.630681"><time>2026-04-28T11:07:25.470Z</time></trkpt>
      <trkpt lat="28.014451" lon="98.630681"><time>2026-04-28T11:07:25.487Z</time></trkpt>
      <trkpt lat="28.014451" lon="98.630681"><time>2026-04-28T11:07:25.504Z</time></trkpt>
      <trkpt lat="28.014451" lon="98.630678"><time>2026-04-28T11:07:25.520Z</time></trkpt>
      <trkpt lat="28.014451" lon="98.630678"><time>2026-04-28T11:07:25.537Z</time></trkpt>
      <trkpt lat="28.014451" lon="98.630678"><time>2026-04-28T11:07:25.554Z</time></trkpt>
      <trkpt lat="28.014451" lon="98.630678"><time>2026-04-28T11:07:25.570Z</time></trkpt>
      <trkpt lat="28.014451" lon="98.630678"><time>2026-04-28T11:07:25.587Z</time></trkpt>
      <trkpt lat="28.014451" lon="98.630678"><time>2026-04-28T11:07:25.604Z</time></trkpt>
      <trkpt lat="28.014453" lon="98.630674"><time>2026-04-28T11:07:25.620Z</time></trkpt>
      <trkpt lat="28.014453" lon="98.630674"><time>2026-04-28T11:07:25.637Z</time></trkpt>
      <trkpt lat="28.014453" lon="98.630674"><time>2026-04-28T11:07:25.654Z</time></trkpt>
      <trkpt lat="28.014453" lon="98.630674"><time>2026-04-28T11:07:25.670Z</time></trkpt>
      <trkpt lat="28.014453" lon="98.630674"><time>2026-04-28T11:07:25.687Z</time></trkpt>
      <trkpt lat="28.014453" lon="98.630674"><time>2026-04-28T11:07:25.704Z</time></trkpt>
      <trkpt lat="28.014454" lon="98.63067"><time>2026-04-28T11:07:25.720Z</time></trkpt>
      <trkpt lat="28.014454" lon="98.63067"><time>2026-04-28T11:07:25.737Z</time></trkpt>
      <trkpt lat="28.014454" lon="98.63067"><time>2026-04-28T11:07:25.754Z</time></trkpt>
      <trkpt lat="28.014454" lon="98.63067"><time>2026-04-28T11:07:25.770Z</time></trkpt>
      <trkpt lat="28.014454" lon="98.63067"><time>2026-04-28T11:07:25.787Z</time></trkpt>
      <trkpt lat="28.014454" lon="98.63067"><time>2026-04-28T11:07:25.804Z</time></trkpt>
      <trkpt lat="28.014457" lon="98.630666"><time>2026-04-28T11:07:25.821Z</time></trkpt>
      <trkpt lat="28.014457" lon="98.630666"><time>2026-04-28T11:07:25.837Z</time></trkpt>
      <trkpt lat="28.014457" lon="98.630666"><time>2026-04-28T11:07:25.854Z</time></trkpt>
      <trkpt lat="28.014457" lon="98.630666"><time>2026-04-28T11:07:25.871Z</time></trkpt>
      <trkpt lat="28.014457" lon="98.630666"><time>2026-04-28T11:07:25.887Z</time></trkpt>
      <trkpt lat="28.014457" lon="98.630666"><time>2026-04-28T11:07:25.904Z</time></trkpt>
      <trkpt lat="28.014458" lon="98.630662"><time>2026-04-28T11:07:25.921Z</time></trkpt>
      <trkpt lat="28.014458" lon="98.630662"><time>2026-04-28T11:07:25.937Z</time></trkpt>
      <trkpt lat="28.014458" lon="98.630662"><time>2026-04-28T11:07:25.954Z</time></trkpt>
      <trkpt lat="28.014458" lon="98.630662"><time>2026-04-28T11:07:25.971Z</time></trkpt>
      <trkpt lat="28.014458" lon="98.630662"><time>2026-04-28T11:07:25.987Z</time></trkpt>
      <trkpt lat="28.014458" lon="98.630662"><time>2026-04-28T11:07:26.004Z</time></trkpt>
      <trkpt lat="28.01446" lon="98.630658"><time>2026-04-28T11:07:26.021Z</time></trkpt>
      <trkpt lat="28.01446" lon="98.630658"><time>2026-04-28T11:07:26.037Z</time></trkpt>
      <trkpt lat="28.01446" lon="98.630658"><time>2026-04-28T11:07:26.054Z</time></trkpt>
      <trkpt lat="28.01446" lon="98.630658"><time>2026-04-28T11:07:26.071Z</time></trkpt>
      <trkpt lat="28.01446" lon="98.630658"><time>2026-04-28T11:07:26.087Z</time></trkpt>
      <trkpt lat="28.01446" lon="98.630658"><time>2026-04-28T11:07:26.104Z</time></trkpt>
      <trkpt lat="28.014462" lon="98.630653"><time>2026-04-28T11:07:26.121Z</time></trkpt>
      <trkpt lat="28.014462" lon="98.630653"><time>2026-04-28T11:07:26.138Z</time></trkpt>
      <trkpt lat="28.014462" lon="98.630653"><time>2026-04-28T11:07:26.154Z</time></trkpt>
      <trkpt lat="28.014462" lon="98.630653"><time>2026-04-28T11:07:26.171Z</time></trkpt>
      <trkpt lat="28.014462" lon="98.630653"><time>2026-04-28T11:07:26.188Z</time></trkpt>
      <trkpt lat="28.014462" lon="98.630653"><time>2026-04-28T11:07:26.204Z</time></trkpt>
      <trkpt lat="28.014465" lon="98.630648"><time>2026-04-28T11:07:26.221Z</time></trkpt>
      <trkpt lat="28.014465" lon="98.630648"><time>2026-04-28T11:07:26.238Z</time></trkpt>
      <trkpt lat="28.014465" lon="98.630648"><time>2026-04-28T11:07:26.254Z</time></trkpt>
      <trkpt lat="28.014465" lon="98.630648"><time>2026-04-28T11:07:26.271Z</time></trkpt>
      <trkpt lat="28.014465" lon="98.630648"><time>2026-04-28T11:07:26.288Z</time></trkpt>
      <trkpt lat="28.014465" lon="98.630648"><time>2026-04-28T11:07:26.304Z</time></trkpt>
      <trkpt lat="28.014467" lon="98.630644"><time>2026-04-28T11:07:26.321Z</time></trkpt>
      <trkpt lat="28.014467" lon="98.630644"><time>2026-04-28T11:07:26.338Z</time></trkpt>
      <trkpt lat="28.014467" lon="98.630644"><time>2026-04-28T11:07:26.354Z</time></trkpt>
      <trkpt lat="28.014467" lon="98.630644"><time>2026-04-28T11:07:26.371Z</time></trkpt>
      <trkpt lat="28.014467" lon="98.630644"><time>2026-04-28T11:07:26.388Z</time></trkpt>
      <trkpt lat="28.014467" lon="98.630644"><time>2026-04-28T11:07:26.404Z</time></trkpt>
      <trkpt lat="28.014469" lon="98.630638"><time>2026-04-28T11:07:26.421Z</time></trkpt>
      <trkpt lat="28.014469" lon="98.630638"><time>2026-04-28T11:07:26.438Z</time></trkpt>
      <trkpt lat="28.014469" lon="98.630638"><time>2026-04-28T11:07:26.455Z</time></trkpt>
      <trkpt lat="28.014469" lon="98.630638"><time>2026-04-28T11:07:26.471Z</time></trkpt>
      <trkpt lat="28.014469" lon="98.630638"><time>2026-04-28T11:07:26.488Z</time></trkpt>
      <trkpt lat="28.014469" lon="98.630638"><time>2026-04-28T11:07:26.505Z</time></trkpt>
      <trkpt lat="28.014471" lon="98.630633"><time>2026-04-28T11:07:26.521Z</time></trkpt>
      <trkpt lat="28.014471" lon="98.630633"><time>2026-04-28T11:07:26.538Z</time></trkpt>
      <trkpt lat="28.014471" lon="98.630633"><time>2026-04-28T11:07:26.555Z</time></trkpt>
      <trkpt lat="28.014471" lon="98.630633"><time>2026-04-28T11:07:26.571Z</time></trkpt>
      <trkpt lat="28.014471" lon="98.630633"><time>2026-04-28T11:07:26.588Z</time></trkpt>
      <trkpt lat="28.014471" lon="98.630633"><time>2026-04-28T11:07:26.605Z</time></trkpt>
      <trkpt lat="28.014473" lon="98.630627"><time>2026-04-28T11:07:26.621Z</time></trkpt>
      <trkpt lat="28.014473" lon="98.630627"><time>2026-04-28T11:07:26.638Z</time></trkpt>
      <trkpt lat="28.014473" lon="98.630627"><time>2026-04-28T11:07:26.655Z</time></trkpt>
      <trkpt lat="28.014473" lon="98.630627"><time>2026-04-28T11:07:26.671Z</time></trkpt>
      <trkpt lat="28.014473" lon="98.630627"><time>2026-04-28T11:07:26.688Z</time></trkpt>
      <trkpt lat="28.014473" lon="98.630627"><time>2026-04-28T11:07:26.705Z</time></trkpt>
      <trkpt lat="28.014475" lon="98.630622"><time>2026-04-28T11:07:26.721Z</time></trkpt>
      <trkpt lat="28.014475" lon="98.630622"><time>2026-04-28T11:07:26.738Z</time></trkpt>
      <trkpt lat="28.014475" lon="98.630622"><time>2026-04-28T11:07:26.755Z</time></trkpt>
      <trkpt lat="28.014475" lon="98.630622"><time>2026-04-28T11:07:26.772Z</time></trkpt>
      <trkpt lat="28.014475" lon="98.630622"><time>2026-04-28T11:07:26.788Z</time></trkpt>
      <trkpt lat="28.014475" lon="98.630622"><time>2026-04-28T11:07:26.805Z</time></trkpt>
      <trkpt lat="28.014478" lon="98.630616"><time>2026-04-28T11:07:26.822Z</time></trkpt>
      <trkpt lat="28.014478" lon="98.630616"><time>2026-04-28T11:07:26.838Z</time></trkpt>
      <trkpt lat="28.014478" lon="98.630616"><time>2026-04-28T11:07:26.855Z</time></trkpt>
      <trkpt lat="28.014478" lon="98.630616"><time>2026-04-28T11:07:26.872Z</time></trkpt>
      <trkpt lat="28.014478" lon="98.630616"><time>2026-04-28T11:07:26.888Z</time></trkpt>
      <trkpt lat="28.014478" lon="98.630616"><time>2026-04-28T11:07:26.905Z</time></trkpt>
      <trkpt lat="28.01448" lon="98.63061"><time>2026-04-28T11:07:26.922Z</time></trkpt>
      <trkpt lat="28.01448" lon="98.63061"><time>2026-04-28T11:07:26.938Z</time></trkpt>
      <trkpt lat="28.01448" lon="98.63061"><time>2026-04-28T11:07:26.955Z</time></trkpt>
      <trkpt lat="28.01448" lon="98.63061"><time>2026-04-28T11:07:26.972Z</time></trkpt>
      <trkpt lat="28.01448" lon="98.63061"><time>2026-04-28T11:07:26.988Z</time></trkpt>
      <trkpt lat="28.01448" lon="98.63061"><time>2026-04-28T11:07:27.005Z</time></trkpt>
      <trkpt lat="28.014482" lon="98.630603"><time>2026-04-28T11:07:27.022Z</time></trkpt>
      <trkpt lat="28.014482" lon="98.630603"><time>2026-04-28T11:07:27.038Z</time></trkpt>
      <trkpt lat="28.014482" lon="98.630603"><time>2026-04-28T11:07:27.055Z</time></trkpt>
      <trkpt lat="28.014482" lon="98.630603"><time>2026-04-28T11:07:27.072Z</time></trkpt>
      <trkpt lat="28.014482" lon="98.630603"><time>2026-04-28T11:07:27.089Z</time></trkpt>
      <trkpt lat="28.014482" lon="98.630603"><time>2026-04-28T11:07:27.105Z</time></trkpt>
      <trkpt lat="28.014485" lon="98.630597"><time>2026-04-28T11:07:27.122Z</time></trkpt>
      <trkpt lat="28.014485" lon="98.630597"><time>2026-04-28T11:07:27.139Z</time></trkpt>
      <trkpt lat="28.014485" lon="98.630597"><time>2026-04-28T11:07:27.155Z</time></trkpt>
      <trkpt lat="28.014485" lon="98.630597"><time>2026-04-28T11:07:27.172Z</time></trkpt>
      <trkpt lat="28.014485" lon="98.630597"><time>2026-04-28T11:07:27.189Z</time></trkpt>
      <trkpt lat="28.014485" lon="98.630597"><time>2026-04-28T11:07:27.205Z</time></trkpt>
      <trkpt lat="28.014487" lon="98.630591"><time>2026-04-28T11:07:27.222Z</time></trkpt>
      <trkpt lat="28.014487" lon="98.630591"><time>2026-04-28T11:07:27.239Z</time></trkpt>
      <trkpt lat="28.014487" lon="98.630591"><time>2026-04-28T11:07:27.255Z</time></trkpt>
      <trkpt lat="28.014487" lon="98.630591"><time>2026-04-28T11:07:27.272Z</time></trkpt>
      <trkpt lat="28.014487" lon="98.630591"><time>2026-04-28T11:07:27.289Z</time></trkpt>
      <trkpt lat="28.014487" lon="98.630591"><time>2026-04-28T11:07:27.305Z</time></trkpt>
      <trkpt lat="28.01449" lon="98.630585"><time>2026-04-28T11:07:27.322Z</time></trkpt>
      <trkpt lat="28.01449" lon="98.630585"><time>2026-04-28T11:07:27.339Z</time></trkpt>
      <trkpt lat="28.01449" lon="98.630585"><time>2026-04-28T11:07:27.355Z</time></trkpt>
      <trkpt lat="28.01449" lon="98.630585"><time>2026-04-28T11:07:27.372Z</time></trkpt>
      <trkpt lat="28.01449" lon="98.630585"><time>2026-04-28T11:07:27.389Z</time></trkpt>
      <trkpt lat="28.01449" lon="98.630585"><time>2026-04-28T11:07:27.406Z</time></trkpt>
      <trkpt lat="28.014492" lon="98.630578"><time>2026-04-28T11:07:27.422Z</time></trkpt>
      <trkpt lat="28.014492" lon="98.630578"><time>2026-04-28T11:07:27.439Z</time></trkpt>
      <trkpt lat="28.014492" lon="98.630578"><time>2026-04-28T11:07:27.456Z</time></trkpt>
      <trkpt lat="28.014492" lon="98.630578"><time>2026-04-28T11:07:27.472Z</time></trkpt>
      <trkpt lat="28.014492" lon="98.630578"><time>2026-04-28T11:07:27.489Z</time></trkpt>
      <trkpt lat="28.014492" lon="98.630578"><time>2026-04-28T11:07:27.506Z</time></trkpt>
      <trkpt lat="28.014495" lon="98.630571"><time>2026-04-28T11:07:27.522Z</time></trkpt>
      <trkpt lat="28.014495" lon="98.630571"><time>2026-04-28T11:07:27.539Z</time></trkpt>
      <trkpt lat="28.014495" lon="98.630571"><time>2026-04-28T11:07:27.556Z</time></trkpt>
      <trkpt lat="28.014495" lon="98.630571"><time>2026-04-28T11:07:27.572Z</time></trkpt>
      <trkpt lat="28.014495" lon="98.630571"><time>2026-04-28T11:07:27.589Z</time></trkpt>
      <trkpt lat="28.014495" lon="98.630571"><time>2026-04-28T11:07:27.606Z</time></trkpt>
      <trkpt lat="28.014497" lon="98.630565"><time>2026-04-28T11:07:27.622Z</time></trkpt>
      <trkpt lat="28.014497" lon="98.630565"><time>2026-04-28T11:07:27.639Z</time></trkpt>
      <trkpt lat="28.014497" lon="98.630565"><time>2026-04-28T11:07:27.656Z</time></trkpt>
      <trkpt lat="28.014497" lon="98.630565"><time>2026-04-28T11:07:27.672Z</time></trkpt>
      <trkpt lat="28.014497" lon="98.630565"><time>2026-04-28T11:07:27.689Z</time></trkpt>
      <trkpt lat="28.014497" lon="98.630565"><time>2026-04-28T11:07:27.706Z</time></trkpt>
      <trkpt lat="28.0145" lon="98.630558"><time>2026-04-28T11:07:27.723Z</time></trkpt>
      <trkpt lat="28.0145" lon="98.630558"><time>2026-04-28T11:07:27.739Z</time></trkpt>
      <trkpt lat="28.0145" lon="98.630558"><time>2026-04-28T11:07:27.756Z</time></trkpt>
      <trkpt lat="28.0145" lon="98.630558"><time>2026-04-28T11:07:27.773Z</time></trkpt>
      <trkpt lat="28.0145" lon="98.630558"><time>2026-04-28T11:07:27.789Z</time></trkpt>
      <trkpt lat="28.0145" lon="98.630558"><time>2026-04-28T11:07:27.806Z</time></trkpt>
      <trkpt lat="28.014502" lon="98.630551"><time>2026-04-28T11:07:27.823Z</time></trkpt>
      <trkpt lat="28.014502" lon="98.630551"><time>2026-04-28T11:07:27.839Z</time></trkpt>
      <trkpt lat="28.014502" lon="98.630551"><time>2026-04-28T11:07:27.856Z</time></trkpt>
      <trkpt lat="28.014502" lon="98.630551"><time>2026-04-28T11:07:27.873Z</time></trkpt>
      <trkpt lat="28.014502" lon="98.630551"><time>2026-04-28T11:07:27.889Z</time></trkpt>
      <trkpt lat="28.014502" lon="98.630551"><time>2026-04-28T11:07:27.906Z</time></trkpt>
      <trkpt lat="28.014505" lon="98.630545"><time>2026-04-28T11:07:27.923Z</time></trkpt>
      <trkpt lat="28.014505" lon="98.630545"><time>2026-04-28T11:07:27.939Z</time></trkpt>
      <trkpt lat="28.014505" lon="98.630545"><time>2026-04-28T11:07:27.956Z</time></trkpt>
      <trkpt lat="28.014505" lon="98.630545"><time>2026-04-28T11:07:27.973Z</time></trkpt>
      <trkpt lat="28.014505" lon="98.630545"><time>2026-04-28T11:07:27.989Z</time></trkpt>
      <trkpt lat="28.014505" lon="98.630545"><time>2026-04-28T11:07:28.006Z</time></trkpt>
      <trkpt lat="28.014508" lon="98.630537"><time>2026-04-28T11:07:28.023Z</time></trkpt>
      <trkpt lat="28.014508" lon="98.630537"><time>2026-04-28T11:07:28.040Z</time></trkpt>
      <trkpt lat="28.014508" lon="98.630537"><time>2026-04-28T11:07:28.056Z</time></trkpt>
      <trkpt lat="28.014508" lon="98.630537"><time>2026-04-28T11:07:28.073Z</time></trkpt>
      <trkpt lat="28.014508" lon="98.630537"><time>2026-04-28T11:07:28.090Z</time></trkpt>
      <trkpt lat="28.014508" lon="98.630537"><time>2026-04-28T11:07:28.106Z</time></trkpt>
      <trkpt lat="28.01451" lon="98.63053"><time>2026-04-28T11:07:28.123Z</time></trkpt>
      <trkpt lat="28.01451" lon="98.63053"><time>2026-04-28T11:07:28.140Z</time></trkpt>
      <trkpt lat="28.01451" lon="98.63053"><time>2026-04-28T11:07:28.156Z</time></trkpt>
      <trkpt lat="28.01451" lon="98.63053"><time>2026-04-28T11:07:28.173Z</time></trkpt>
      <trkpt lat="28.01451" lon="98.63053"><time>2026-04-28T11:07:28.190Z</time></trkpt>
      <trkpt lat="28.01451" lon="98.63053"><time>2026-04-28T11:07:28.206Z</time></trkpt>
      <trkpt lat="28.014513" lon="98.630523"><time>2026-04-28T11:07:28.223Z</time></trkpt>
      <trkpt lat="28.014513" lon="98.630523"><time>2026-04-28T11:07:28.240Z</time></trkpt>
      <trkpt lat="28.014513" lon="98.630523"><time>2026-04-28T11:07:28.256Z</time></trkpt>
      <trkpt lat="28.014513" lon="98.630523"><time>2026-04-28T11:07:28.273Z</time></trkpt>
      <trkpt lat="28.014513" lon="98.630523"><time>2026-04-28T11:07:28.290Z</time></trkpt>
      <trkpt lat="28.014513" lon="98.630523"><time>2026-04-28T11:07:28.306Z</time></trkpt>
      <trkpt lat="28.014516" lon="98.630516"><time>2026-04-28T11:07:28.323Z</time></trkpt>
      <trkpt lat="28.014516" lon="98.630516"><time>2026-04-28T11:07:28.340Z</time></trkpt>
      <trkpt lat="28.014516" lon="98.630516"><time>2026-04-28T11:07:28.357Z</time></trkpt>
      <trkpt lat="28.014516" lon="98.630516"><time>2026-04-28T11:07:28.373Z</time></trkpt>
      <trkpt lat="28.014516" lon="98.630516"><time>2026-04-28T11:07:28.390Z</time></trkpt>
      <trkpt lat="28.014516" lon="98.630516"><time>2026-04-28T11:07:28.407Z</time></trkpt>
      <trkpt lat="28.014519" lon="98.630509"><time>2026-04-28T11:07:28.423Z</time></trkpt>
      <trkpt lat="28.014519" lon="98.630509"><time>2026-04-28T11:07:28.440Z</time></trkpt>
      <trkpt lat="28.014519" lon="98.630509"><time>2026-04-28T11:07:28.457Z</time></trkpt>
      <trkpt lat="28.014519" lon="98.630509"><time>2026-04-28T11:07:28.473Z</time></trkpt>
      <trkpt lat="28.014519" lon="98.630509"><time>2026-04-28T11:07:28.490Z</time></trkpt>
      <trkpt lat="28.014519" lon="98.630509"><time>2026-04-28T11:07:28.507Z</time></trkpt>
      <trkpt lat="28.014522" lon="98.630501"><time>2026-04-28T11:07:28.523Z</time></trkpt>
      <trkpt lat="28.014522" lon="98.630501"><time>2026-04-28T11:07:28.540Z</time></trkpt>
      <trkpt lat="28.014522" lon="98.630501"><time>2026-04-28T11:07:28.557Z</time></trkpt>
      <trkpt lat="28.014522" lon="98.630501"><time>2026-04-28T11:07:28.573Z</time></trkpt>
      <trkpt lat="28.014522" lon="98.630501"><time>2026-04-28T11:07:28.590Z</time></trkpt>
      <trkpt lat="28.014522" lon="98.630501"><time>2026-04-28T11:07:28.607Z</time></trkpt>
      <trkpt lat="28.014525" lon="98.630494"><time>2026-04-28T11:07:28.623Z</time></trkpt>
      <trkpt lat="28.014525" lon="98.630494"><time>2026-04-28T11:07:28.640Z</time></trkpt>
      <trkpt lat="28.014525" lon="98.630494"><time>2026-04-28T11:07:28.657Z</time></trkpt>
      <trkpt lat="28.014525" lon="98.630494"><time>2026-04-28T11:07:28.674Z</time></trkpt>
      <trkpt lat="28.014525" lon="98.630494"><time>2026-04-28T11:07:28.690Z</time></trkpt>
      <trkpt lat="28.014525" lon="98.630494"><time>2026-04-28T11:07:28.707Z</time></trkpt>
      <trkpt lat="28.014528" lon="98.630486"><time>2026-04-28T11:07:28.724Z</time></trkpt>
      <trkpt lat="28.014528" lon="98.630486"><time>2026-04-28T11:07:28.740Z</time></trkpt>
      <trkpt lat="28.014528" lon="98.630486"><time>2026-04-28T11:07:28.757Z</time></trkpt>
      <trkpt lat="28.014528" lon="98.630486"><time>2026-04-28T11:07:28.774Z</time></trkpt>
      <trkpt lat="28.014528" lon="98.630486"><time>2026-04-28T11:07:28.790Z</time></trkpt>
      <trkpt lat="28.014528" lon="98.630486"><time>2026-04-28T11:07:28.807Z</time></trkpt>
      <trkpt lat="28.014531" lon="98.630479"><time>2026-04-28T11:07:28.824Z</time></trkpt>
      <trkpt lat="28.014531" lon="98.630479"><time>2026-04-28T11:07:28.840Z</time></trkpt>
      <trkpt lat="28.014531" lon="98.630479"><time>2026-04-28T11:07:28.857Z</time></trkpt>
      <trkpt lat="28.014531" lon="98.630479"><time>2026-04-28T11:07:28.874Z</time></trkpt>
      <trkpt lat="28.014531" lon="98.630479"><time>2026-04-28T11:07:28.890Z</time></trkpt>
      <trkpt lat="28.014531" lon="98.630479"><time>2026-04-28T11:07:28.907Z</time></trkpt>
      <trkpt lat="28.014534" lon="98.630471"><time>2026-04-28T11:07:28.924Z</time></trkpt>
      <trkpt lat="28.014534" lon="98.630471"><time>2026-04-28T11:07:28.940Z</time></trkpt>
      <trkpt lat="28.014534" lon="98.630471"><time>2026-04-28T11:07:28.957Z</time></trkpt>
      <trkpt lat="28.014534" lon="98.630471"><time>2026-04-28T11:07:28.974Z</time></trkpt>
      <trkpt lat="28.014534" lon="98.630471"><time>2026-04-28T11:07:28.990Z</time></trkpt>
      <trkpt lat="28.014534" lon="98.630471"><time>2026-04-28T11:07:29.007Z</time></trkpt>
      <trkpt lat="28.014537" lon="98.630464"><time>2026-04-28T11:07:29.024Z</time></trkpt>
      <trkpt lat="28.014537" lon="98.630464"><time>2026-04-28T11:07:29.041Z</time></trkpt>
      <trkpt lat="28.014537" lon="98.630464"><time>2026-04-28T11:07:29.057Z</time></trkpt>
      <trkpt lat="28.014537" lon="98.630464"><time>2026-04-28T11:07:29.074Z</time></trkpt>
      <trkpt lat="28.014537" lon="98.630464"><time>2026-04-28T11:07:29.091Z</time></trkpt>
      <trkpt lat="28.014537" lon="98.630464"><time>2026-04-28T11:07:29.107Z</time></trkpt>
      <trkpt lat="28.01454" lon="98.630456"><time>2026-04-28T11:07:29.124Z</time></trkpt>
      <trkpt lat="28.01454" lon="98.630456"><time>2026-04-28T11:07:29.141Z</time></trkpt>
      <trkpt lat="28.01454" lon="98.630456"><time>2026-04-28T11:07:29.157Z</time></trkpt>
      <trkpt lat="28.01454" lon="98.630456"><time>2026-04-28T11:07:29.174Z</time></trkpt>
      <trkpt lat="28.01454" lon="98.630456"><time>2026-04-28T11:07:29.191Z</time></trkpt>
      <trkpt lat="28.01454" lon="98.630456"><time>2026-04-28T11:07:29.207Z</time></trkpt>
      <trkpt lat="28.014543" lon="98.630448"><time>2026-04-28T11:07:29.224Z</time></trkpt>
      <trkpt lat="28.014543" lon="98.630448"><time>2026-04-28T11:07:29.241Z</time></trkpt>
      <trkpt lat="28.014543" lon="98.630448"><time>2026-04-28T11:07:29.257Z</time></trkpt>
      <trkpt lat="28.014543" lon="98.630448"><time>2026-04-28T11:07:29.274Z</time></trkpt>
      <trkpt lat="28.014543" lon="98.630448"><time>2026-04-28T11:07:29.291Z</time></trkpt>
      <trkpt lat="28.014543" lon="98.630448"><time>2026-04-28T11:07:29.307Z</time></trkpt>
      <trkpt lat="28.014547" lon="98.63044"><time>2026-04-28T11:07:29.324Z</time></trkpt>
      <trkpt lat="28.014547" lon="98.63044"><time>2026-04-28T11:07:29.341Z</time></trkpt>
      <trkpt lat="28.014547" lon="98.63044"><time>2026-04-28T11:07:29.358Z</time></trkpt>
      <trkpt lat="28.014547" lon="98.63044"><time>2026-04-28T11:07:29.374Z</time></trkpt>
      <trkpt lat="28.014547" lon="98.63044"><time>2026-04-28T11:07:29.391Z</time></trkpt>
      <trkpt lat="28.014547" lon="98.63044"><time>2026-04-28T11:07:29.408Z</time></trkpt>
      <trkpt lat="28.01455" lon="98.630433"><time>2026-04-28T11:07:29.424Z</time></trkpt>
      <trkpt lat="28.01455" lon="98.630433"><time>2026-04-28T11:07:29.441Z</time></trkpt>
      <trkpt lat="28.01455" lon="98.630433"><time>2026-04-28T11:07:29.458Z</time></trkpt>
      <trkpt lat="28.01455" lon="98.630433"><time>2026-04-28T11:07:29.474Z</time></trkpt>
      <trkpt lat="28.01455" lon="98.630433"><time>2026-04-28T11:07:29.491Z</time></trkpt>
      <trkpt lat="28.01455" lon="98.630433"><time>2026-04-28T11:07:29.508Z</time></trkpt>
      <trkpt lat="28.014553" lon="98.630425"><time>2026-04-28T11:07:29.524Z</time></trkpt>
      <trkpt lat="28.014553" lon="98.630425"><time>2026-04-28T11:07:29.541Z</time></trkpt>
      <trkpt lat="28.014553" lon="98.630425"><time>2026-04-28T11:07:29.558Z</time></trkpt>
      <trkpt lat="28.014553" lon="98.630425"><time>2026-04-28T11:07:29.574Z</time></trkpt>
      <trkpt lat="28.014553" lon="98.630425"><time>2026-04-28T11:07:29.591Z</time></trkpt>
      <trkpt lat="28.014553" lon="98.630425"><time>2026-04-28T11:07:29.608Z</time></trkpt>
      <trkpt lat="28.014557" lon="98.630416"><time>2026-04-28T11:07:29.624Z</time></trkpt>
      <trkpt lat="28.014557" lon="98.630416"><time>2026-04-28T11:07:29.641Z</time></trkpt>
      <trkpt lat="28.014557" lon="98.630416"><time>2026-04-28T11:07:29.658Z</time></trkpt>
      <trkpt lat="28.014557" lon="98.630416"><time>2026-04-28T11:07:29.675Z</time></trkpt>
      <trkpt lat="28.014557" lon="98.630416"><time>2026-04-28T11:07:29.691Z</time></trkpt>
      <trkpt lat="28.01456" lon="98.630408"><time>2026-04-28T11:07:29.708Z</time></trkpt>
      <trkpt lat="28.01456" lon="98.630408"><time>2026-04-28T11:07:29.725Z</time></trkpt>
      <trkpt lat="28.01456" lon="98.630408"><time>2026-04-28T11:07:29.741Z</time></trkpt>
      <trkpt lat="28.01456" lon="98.630408"><time>2026-04-28T11:07:29.758Z</time></trkpt>
      <trkpt lat="28.01456" lon="98.630408"><time>2026-04-28T11:07:29.775Z</time></trkpt>
      <trkpt lat="28.01456" lon="98.630408"><time>2026-04-28T11:07:29.791Z</time></trkpt>
      <trkpt lat="28.01456" lon="98.630408"><time>2026-04-28T11:07:29.808Z</time></trkpt>
      <trkpt lat="28.014563" lon="98.6304"><time>2026-04-28T11:07:29.825Z</time></trkpt>
      <trkpt lat="28.014563" lon="98.6304"><time>2026-04-28T11:07:29.841Z</time></trkpt>
      <trkpt lat="28.014563" lon="98.6304"><time>2026-04-28T11:07:29.858Z</time></trkpt>
      <trkpt lat="28.014563" lon="98.6304"><time>2026-04-28T11:07:29.875Z</time></trkpt>
      <trkpt lat="28.014563" lon="98.6304"><time>2026-04-28T11:07:29.891Z</time></trkpt>
      <trkpt lat="28.014566" lon="98.630392"><time>2026-04-28T11:07:29.908Z</time></trkpt>
      <trkpt lat="28.014566" lon="98.630392"><time>2026-04-28T11:07:29.925Z</time></trkpt>
      <trkpt lat="28.014566" lon="98.630392"><time>2026-04-28T11:07:29.941Z</time></trkpt>
      <trkpt lat="28.014566" lon="98.630392"><time>2026-04-28T11:07:29.958Z</time></trkpt>
      <trkpt lat="28.014566" lon="98.630392"><time>2026-04-28T11:07:29.975Z</time></trkpt>
      <trkpt lat="28.014566" lon="98.630392"><time>2026-04-28T11:07:29.992Z</time></trkpt>
      <trkpt lat="28.014566" lon="98.630392"><time>2026-04-28T11:07:30.008Z</time></trkpt>
      <trkpt lat="28.01457" lon="98.630384"><time>2026-04-28T11:07:30.025Z</time></trkpt>
      <trkpt lat="28.01457" lon="98.630384"><time>2026-04-28T11:07:30.042Z</time></trkpt>
      <trkpt lat="28.01457" lon="98.630384"><time>2026-04-28T11:07:30.058Z</time></trkpt>
      <trkpt lat="28.01457" lon="98.630384"><time>2026-04-28T11:07:30.075Z</time></trkpt>
      <trkpt lat="28.01457" lon="98.630384"><time>2026-04-28T11:07:30.092Z</time></trkpt>
      <trkpt lat="28.014573" lon="98.630376"><time>2026-04-28T11:07:30.108Z</time></trkpt>
      <trkpt lat="28.014573" lon="98.630376"><time>2026-04-28T11:07:30.125Z</time></trkpt>
      <trkpt lat="28.014573" lon="98.630376"><time>2026-04-28T11:07:30.142Z</time></trkpt>
      <trkpt lat="28.014573" lon="98.630376"><time>2026-04-28T11:07:30.158Z</time></trkpt>
      <trkpt lat="28.014573" lon="98.630376"><time>2026-04-28T11:07:30.175Z</time></trkpt>
      <trkpt lat="28.014573" lon="98.630376"><time>2026-04-28T11:07:30.192Z</time></trkpt>
      <trkpt lat="28.014573" lon="98.630376"><time>2026-04-28T11:07:30.208Z</time></trkpt>
      <trkpt lat="28.014577" lon="98.630367"><time>2026-04-28T11:07:30.225Z</time></trkpt>
      <trkpt lat="28.014577" lon="98.630367"><time>2026-04-28T11:07:30.242Z</time></trkpt>
      <trkpt lat="28.014577" lon="98.630367"><time>2026-04-28T11:07:30.258Z</time></trkpt>
      <trkpt lat="28.014577" lon="98.630367"><time>2026-04-28T11:07:30.275Z</time></trkpt>
      <trkpt lat="28.014577" lon="98.630367"><time>2026-04-28T11:07:30.292Z</time></trkpt>
      <trkpt lat="28.01458" lon="98.630359"><time>2026-04-28T11:07:30.309Z</time></trkpt>
      <trkpt lat="28.01458" lon="98.630359"><time>2026-04-28T11:07:30.325Z</time></trkpt>
      <trkpt lat="28.01458" lon="98.630359"><time>2026-04-28T11:07:30.342Z</time></trkpt>
      <trkpt lat="28.01458" lon="98.630359"><time>2026-04-28T11:07:30.359Z</time></trkpt>
      <trkpt lat="28.01458" lon="98.630359"><time>2026-04-28T11:07:30.375Z</time></trkpt>
      <trkpt lat="28.01458" lon="98.630359"><time>2026-04-28T11:07:30.392Z</time></trkpt>
      <trkpt lat="28.01458" lon="98.630359"><time>2026-04-28T11:07:30.409Z</time></trkpt>
      <trkpt lat="28.014584" lon="98.630351"><time>2026-04-28T11:07:30.425Z</time></trkpt>
      <trkpt lat="28.014584" lon="98.630351"><time>2026-04-28T11:07:30.442Z</time></trkpt>
      <trkpt lat="28.014584" lon="98.630351"><time>2026-04-28T11:07:30.459Z</time></trkpt>
      <trkpt lat="28.014584" lon="98.630351"><time>2026-04-28T11:07:30.475Z</time></trkpt>
      <trkpt lat="28.014584" lon="98.630351"><time>2026-04-28T11:07:30.492Z</time></trkpt>
      <trkpt lat="28.014587" lon="98.630342"><time>2026-04-28T11:07:30.509Z</time></trkpt>
      <trkpt lat="28.014587" lon="98.630342"><time>2026-04-28T11:07:30.525Z</time></trkpt>
      <trkpt lat="28.014587" lon="98.630342"><time>2026-04-28T11:07:30.542Z</time></trkpt>
      <trkpt lat="28.014587" lon="98.630342"><time>2026-04-28T11:07:30.559Z</time></trkpt>
      <trkpt lat="28.014587" lon="98.630342"><time>2026-04-28T11:07:30.575Z</time></trkpt>
      <trkpt lat="28.014587" lon="98.630342"><time>2026-04-28T11:07:30.592Z</time></trkpt>
      <trkpt lat="28.014587" lon="98.630342"><time>2026-04-28T11:07:30.609Z</time></trkpt>
      <trkpt lat="28.014591" lon="98.630334"><time>2026-04-28T11:07:30.626Z</time></trkpt>
      <trkpt lat="28.014591" lon="98.630334"><time>2026-04-28T11:07:30.642Z</time></trkpt>
      <trkpt lat="28.014591" lon="98.630334"><time>2026-04-28T11:07:30.659Z</time></trkpt>
      <trkpt lat="28.014591" lon="98.630334"><time>2026-04-28T11:07:30.676Z</time></trkpt>
      <trkpt lat="28.014591" lon="98.630334"><time>2026-04-28T11:07:30.692Z</time></trkpt>
      <trkpt lat="28.014594" lon="98.630326"><time>2026-04-28T11:07:30.709Z</time></trkpt>
      <trkpt lat="28.014594" lon="98.630326"><time>2026-04-28T11:07:30.726Z</time></trkpt>
      <trkpt lat="28.014594" lon="98.630326"><time>2026-04-28T11:07:30.742Z</time></trkpt>
      <trkpt lat="28.014594" lon="98.630326"><time>2026-04-28T11:07:30.759Z</time></trkpt>
      <trkpt lat="28.014594" lon="98.630326"><time>2026-04-28T11:07:30.776Z</time></trkpt>
      <trkpt lat="28.014594" lon="98.630326"><time>2026-04-28T11:07:30.792Z</time></trkpt>
      <trkpt lat="28.014598" lon="98.630317"><time>2026-04-28T11:07:30.809Z</time></trkpt>
      <trkpt lat="28.014598" lon="98.630317"><time>2026-04-28T11:07:30.826Z</time></trkpt>
      <trkpt lat="28.014598" lon="98.630317"><time>2026-04-28T11:07:30.842Z</time></trkpt>
      <trkpt lat="28.014598" lon="98.630317"><time>2026-04-28T11:07:30.859Z</time></trkpt>
      <trkpt lat="28.014598" lon="98.630317"><time>2026-04-28T11:07:30.876Z</time></trkpt>
      <trkpt lat="28.014598" lon="98.630317"><time>2026-04-28T11:07:30.892Z</time></trkpt>
      <trkpt lat="28.014601" lon="98.630309"><time>2026-04-28T11:07:30.909Z</time></trkpt>
      <trkpt lat="28.014601" lon="98.630309"><time>2026-04-28T11:07:30.926Z</time></trkpt>
      <trkpt lat="28.014601" lon="98.630309"><time>2026-04-28T11:07:30.943Z</time></trkpt>
      <trkpt lat="28.014601" lon="98.630309"><time>2026-04-28T11:07:30.959Z</time></trkpt>
      <trkpt lat="28.014601" lon="98.630309"><time>2026-04-28T11:07:30.976Z</time></trkpt>
      <trkpt lat="28.014601" lon="98.630309"><time>2026-04-28T11:07:30.993Z</time></trkpt>
      <trkpt lat="28.014605" lon="98.6303"><time>2026-04-28T11:07:31.009Z</time></trkpt>
      <trkpt lat="28.014605" lon="98.6303"><time>2026-04-28T11:07:31.026Z</time></trkpt>
      <trkpt lat="28.014605" lon="98.6303"><time>2026-04-28T11:07:31.043Z</time></trkpt>
      <trkpt lat="28.014605" lon="98.6303"><time>2026-04-28T11:07:31.059Z</time></trkpt>
      <trkpt lat="28.014605" lon="98.6303"><time>2026-04-28T11:07:31.076Z</time></trkpt>
      <trkpt lat="28.014605" lon="98.6303"><time>2026-04-28T11:07:31.093Z</time></trkpt>
      <trkpt lat="28.014608" lon="98.630291"><time>2026-04-28T11:07:31.109Z</time></trkpt>
      <trkpt lat="28.014608" lon="98.630291"><time>2026-04-28T11:07:31.126Z</time></trkpt>
      <trkpt lat="28.014608" lon="98.630291"><time>2026-04-28T11:07:31.143Z</time></trkpt>
      <trkpt lat="28.014608" lon="98.630291"><time>2026-04-28T11:07:31.159Z</time></trkpt>
      <trkpt lat="28.014608" lon="98.630291"><time>2026-04-28T11:07:31.176Z</time></trkpt>
      <trkpt lat="28.014608" lon="98.630291"><time>2026-04-28T11:07:31.193Z</time></trkpt>
      <trkpt lat="28.014611" lon="98.630283"><time>2026-04-28T11:07:31.209Z</time></trkpt>
      <trkpt lat="28.014611" lon="98.630283"><time>2026-04-28T11:07:31.226Z</time></trkpt>
      <trkpt lat="28.014611" lon="98.630283"><time>2026-04-28T11:07:31.243Z</time></trkpt>
      <trkpt lat="28.014611" lon="98.630283"><time>2026-04-28T11:07:31.260Z</time></trkpt>
      <trkpt lat="28.014611" lon="98.630283"><time>2026-04-28T11:07:31.276Z</time></trkpt>
      <trkpt lat="28.014611" lon="98.630283"><time>2026-04-28T11:07:31.293Z</time></trkpt>
      <trkpt lat="28.014615" lon="98.630274"><time>2026-04-28T11:07:31.310Z</time></trkpt>
      <trkpt lat="28.014615" lon="98.630274"><time>2026-04-28T11:07:31.326Z</time></trkpt>
      <trkpt lat="28.014615" lon="98.630274"><time>2026-04-28T11:07:31.343Z</time></trkpt>
      <trkpt lat="28.014615" lon="98.630274"><time>2026-04-28T11:07:31.360Z</time></trkpt>
      <trkpt lat="28.014615" lon="98.630274"><time>2026-04-28T11:07:31.376Z</time></trkpt>
      <trkpt lat="28.014615" lon="98.630274"><time>2026-04-28T11:07:31.393Z</time></trkpt>
      <trkpt lat="28.014618" lon="98.630266"><time>2026-04-28T11:07:31.410Z</time></trkpt>
      <trkpt lat="28.014618" lon="98.630266"><time>2026-04-28T11:07:31.426Z</time></trkpt>
      <trkpt lat="28.014618" lon="98.630266"><time>2026-04-28T11:07:31.443Z</time></trkpt>
      <trkpt lat="28.014618" lon="98.630266"><time>2026-04-28T11:07:31.460Z</time></trkpt>
      <trkpt lat="28.014618" lon="98.630266"><time>2026-04-28T11:07:31.476Z</time></trkpt>
      <trkpt lat="28.014618" lon="98.630266"><time>2026-04-28T11:07:31.493Z</time></trkpt>
      <trkpt lat="28.014621" lon="98.630257"><time>2026-04-28T11:07:31.510Z</time></trkpt>
      <trkpt lat="28.014621" lon="98.630257"><time>2026-04-28T11:07:31.526Z</time></trkpt>
      <trkpt lat="28.014621" lon="98.630257"><time>2026-04-28T11:07:31.543Z</time></trkpt>
      <trkpt lat="28.014621" lon="98.630257"><time>2026-04-28T11:07:31.560Z</time></trkpt>
      <trkpt lat="28.014621" lon="98.630257"><time>2026-04-28T11:07:31.577Z</time></trkpt>
      <trkpt lat="28.014621" lon="98.630257"><time>2026-04-28T11:07:31.593Z</time></trkpt>
      <trkpt lat="28.014625" lon="98.630248"><time>2026-04-28T11:07:31.610Z</time></trkpt>
      <trkpt lat="28.014625" lon="98.630248"><time>2026-04-28T11:07:31.627Z</time></trkpt>
      <trkpt lat="28.014625" lon="98.630248"><time>2026-04-28T11:07:31.643Z</time></trkpt>
      <trkpt lat="28.014625" lon="98.630248"><time>2026-04-28T11:07:31.660Z</time></trkpt>
      <trkpt lat="28.014625" lon="98.630248"><time>2026-04-28T11:07:31.677Z</time></trkpt>
      <trkpt lat="28.014625" lon="98.630248"><time>2026-04-28T11:07:31.693Z</time></trkpt>
      <trkpt lat="28.014628" lon="98.63024"><time>2026-04-28T11:07:31.710Z</time></trkpt>
      <trkpt lat="28.014628" lon="98.63024"><time>2026-04-28T11:07:31.727Z</time></trkpt>
      <trkpt lat="28.014628" lon="98.63024"><time>2026-04-28T11:07:31.743Z</time></trkpt>
      <trkpt lat="28.014628" lon="98.63024"><time>2026-04-28T11:07:31.760Z</time></trkpt>
      <trkpt lat="28.014628" lon="98.63024"><time>2026-04-28T11:07:31.777Z</time></trkpt>
      <trkpt lat="28.014628" lon="98.63024"><time>2026-04-28T11:07:31.793Z</time></trkpt>
      <trkpt lat="28.014632" lon="98.630231"><time>2026-04-28T11:07:31.810Z</time></trkpt>
      <trkpt lat="28.014632" lon="98.630231"><time>2026-04-28T11:07:31.827Z</time></trkpt>
      <trkpt lat="28.014632" lon="98.630231"><time>2026-04-28T11:07:31.843Z</time></trkpt>
      <trkpt lat="28.014632" lon="98.630231"><time>2026-04-28T11:07:31.860Z</time></trkpt>
      <trkpt lat="28.014632" lon="98.630231"><time>2026-04-28T11:07:31.877Z</time></trkpt>
      <trkpt lat="28.014632" lon="98.630231"><time>2026-04-28T11:07:31.894Z</time></trkpt>
      <trkpt lat="28.014635" lon="98.630222"><time>2026-04-28T11:07:31.910Z</time></trkpt>
      <trkpt lat="28.014635" lon="98.630222"><time>2026-04-28T11:07:31.927Z</time></trkpt>
      <trkpt lat="28.014635" lon="98.630222"><time>2026-04-28T11:07:31.944Z</time></trkpt>
      <trkpt lat="28.014635" lon="98.630222"><time>2026-04-28T11:07:31.960Z</time></trkpt>
      <trkpt lat="28.014635" lon="98.630222"><time>2026-04-28T11:07:31.977Z</time></trkpt>
      <trkpt lat="28.014635" lon="98.630222"><time>2026-04-28T11:07:31.994Z</time></trkpt>
      <trkpt lat="28.014639" lon="98.630213"><time>2026-04-28T11:07:32.010Z</time></trkpt>
      <trkpt lat="28.014639" lon="98.630213"><time>2026-04-28T11:07:32.027Z</time></trkpt>
      <trkpt lat="28.014639" lon="98.630213"><time>2026-04-28T11:07:32.044Z</time></trkpt>
      <trkpt lat="28.014639" lon="98.630213"><time>2026-04-28T11:07:32.060Z</time></trkpt>
      <trkpt lat="28.014639" lon="98.630213"><time>2026-04-28T11:07:32.077Z</time></trkpt>
      <trkpt lat="28.014639" lon="98.630213"><time>2026-04-28T11:07:32.094Z</time></trkpt>
      <trkpt lat="28.014642" lon="98.630205"><time>2026-04-28T11:07:32.110Z</time></trkpt>
      <trkpt lat="28.014642" lon="98.630205"><time>2026-04-28T11:07:32.127Z</time></trkpt>
      <trkpt lat="28.014642" lon="98.630205"><time>2026-04-28T11:07:32.144Z</time></trkpt>
      <trkpt lat="28.014642" lon="98.630205"><time>2026-04-28T11:07:32.160Z</time></trkpt>
      <trkpt lat="28.014642" lon="98.630205"><time>2026-04-28T11:07:32.177Z</time></trkpt>
      <trkpt lat="28.014642" lon="98.630205"><time>2026-04-28T11:07:32.194Z</time></trkpt>
      <trkpt lat="28.014645" lon="98.630196"><time>2026-04-28T11:07:32.211Z</time></trkpt>
      <trkpt lat="28.014645" lon="98.630196"><time>2026-04-28T11:07:32.227Z</time></trkpt>
      <trkpt lat="28.014645" lon="98.630196"><time>2026-04-28T11:07:32.244Z</time></trkpt>
      <trkpt lat="28.014645" lon="98.630196"><time>2026-04-28T11:07:32.261Z</time></trkpt>
      <trkpt lat="28.014645" lon="98.630196"><time>2026-04-28T11:07:32.277Z</time></trkpt>
      <trkpt lat="28.014645" lon="98.630196"><time>2026-04-28T11:07:32.294Z</time></trkpt>
      <trkpt lat="28.014649" lon="98.630187"><time>2026-04-28T11:07:32.311Z</time></trkpt>
      <trkpt lat="28.014649" lon="98.630187"><time>2026-04-28T11:07:32.327Z</time></trkpt>
      <trkpt lat="28.014649" lon="98.630187"><time>2026-04-28T11:07:32.344Z</time></trkpt>
      <trkpt lat="28.014649" lon="98.630187"><time>2026-04-28T11:07:32.361Z</time></trkpt>
      <trkpt lat="28.014649" lon="98.630187"><time>2026-04-28T11:07:32.377Z</time></trkpt>
      <trkpt lat="28.014649" lon="98.630187"><time>2026-04-28T11:07:32.394Z</time></trkpt>
      <trkpt lat="28.014652" lon="98.630178"><time>2026-04-28T11:07:32.411Z</time></trkpt>
      <trkpt lat="28.014652" lon="98.630178"><time>2026-04-28T11:07:32.427Z</time></trkpt>
      <trkpt lat="28.014652" lon="98.630178"><time>2026-04-28T11:07:32.444Z</time></trkpt>
      <trkpt lat="28.014652" lon="98.630178"><time>2026-04-28T11:07:32.461Z</time></trkpt>
      <trkpt lat="28.014652" lon="98.630178"><time>2026-04-28T11:07:32.477Z</time></trkpt>
      <trkpt lat="28.014652" lon="98.630178"><time>2026-04-28T11:07:32.494Z</time></trkpt>
      <trkpt lat="28.014656" lon="98.63017"><time>2026-04-28T11:07:32.511Z</time></trkpt>
      <trkpt lat="28.014656" lon="98.63017"><time>2026-04-28T11:07:32.528Z</time></trkpt>
      <trkpt lat="28.014656" lon="98.63017"><time>2026-04-28T11:07:32.544Z</time></trkpt>
      <trkpt lat="28.014656" lon="98.63017"><time>2026-04-28T11:07:32.561Z</time></trkpt>
      <trkpt lat="28.014656" lon="98.63017"><time>2026-04-28T11:07:32.578Z</time></trkpt>
      <trkpt lat="28.014656" lon="98.63017"><time>2026-04-28T11:07:32.594Z</time></trkpt>
      <trkpt lat="28.014659" lon="98.63016"><time>2026-04-28T11:07:32.611Z</time></trkpt>
      <trkpt lat="28.014659" lon="98.63016"><time>2026-04-28T11:07:32.628Z</time></trkpt>
      <trkpt lat="28.014659" lon="98.63016"><time>2026-04-28T11:07:32.644Z</time></trkpt>
      <trkpt lat="28.014659" lon="98.63016"><time>2026-04-28T11:07:32.661Z</time></trkpt>
      <trkpt lat="28.014659" lon="98.63016"><time>2026-04-28T11:07:32.678Z</time></trkpt>
      <trkpt lat="28.014659" lon="98.63016"><time>2026-04-28T11:07:32.694Z</time></trkpt>
      <trkpt lat="28.014663" lon="98.630152"><time>2026-04-28T11:07:32.711Z</time></trkpt>
      <trkpt lat="28.014663" lon="98.630152"><time>2026-04-28T11:07:32.728Z</time></trkpt>
      <trkpt lat="28.014663" lon="98.630152"><time>2026-04-28T11:07:32.744Z</time></trkpt>
      <trkpt lat="28.014663" lon="98.630152"><time>2026-04-28T11:07:32.761Z</time></trkpt>
      <trkpt lat="28.014663" lon="98.630152"><time>2026-04-28T11:07:32.778Z</time></trkpt>
      <trkpt lat="28.014663" lon="98.630152"><time>2026-04-28T11:07:32.794Z</time></trkpt>
      <trkpt lat="28.014666" lon="98.630143"><time>2026-04-28T11:07:32.811Z</time></trkpt>
      <trkpt lat="28.014666" lon="98.630143"><time>2026-04-28T11:07:32.828Z</time></trkpt>
      <trkpt lat="28.014666" lon="98.630143"><time>2026-04-28T11:07:32.845Z</time></trkpt>
      <trkpt lat="28.014666" lon="98.630143"><time>2026-04-28T11:07:32.861Z</time></trkpt>
      <trkpt lat="28.014666" lon="98.630143"><time>2026-04-28T11:07:32.878Z</time></trkpt>
      <trkpt lat="28.014666" lon="98.630143"><time>2026-04-28T11:07:32.895Z</time></trkpt>
      <trkpt lat="28.01467" lon="98.630134"><time>2026-04-28T11:07:32.911Z</time></trkpt>
      <trkpt lat="28.01467" lon="98.630134"><time>2026-04-28T11:07:32.928Z</time></trkpt>
      <trkpt lat="28.01467" lon="98.630134"><time>2026-04-28T11:07:32.945Z</time></trkpt>
      <trkpt lat="28.01467" lon="98.630134"><time>2026-04-28T11:07:32.961Z</time></trkpt>
      <trkpt lat="28.01467" lon="98.630134"><time>2026-04-28T11:07:32.978Z</time></trkpt>
      <trkpt lat="28.01467" lon="98.630134"><time>2026-04-28T11:07:32.995Z</time></trkpt>
      <trkpt lat="28.014674" lon="98.630125"><time>2026-04-28T11:07:33.011Z</time></trkpt>
      <trkpt lat="28.014674" lon="98.630125"><time>2026-04-28T11:07:33.028Z</time></trkpt>
      <trkpt lat="28.014674" lon="98.630125"><time>2026-04-28T11:07:33.045Z</time></trkpt>
      <trkpt lat="28.014674" lon="98.630125"><time>2026-04-28T11:07:33.061Z</time></trkpt>
      <trkpt lat="28.014674" lon="98.630125"><time>2026-04-28T11:07:33.078Z</time></trkpt>
      <trkpt lat="28.014674" lon="98.630125"><time>2026-04-28T11:07:33.095Z</time></trkpt>
      <trkpt lat="28.014677" lon="98.630116"><time>2026-04-28T11:07:33.111Z</time></trkpt>
      <trkpt lat="28.014677" lon="98.630116"><time>2026-04-28T11:07:33.128Z</time></trkpt>
      <trkpt lat="28.014677" lon="98.630116"><time>2026-04-28T11:07:33.145Z</time></trkpt>
      <trkpt lat="28.014677" lon="98.630116"><time>2026-04-28T11:07:33.162Z</time></trkpt>
      <trkpt lat="28.014677" lon="98.630116"><time>2026-04-28T11:07:33.178Z</time></trkpt>
      <trkpt lat="28.014677" lon="98.630116"><time>2026-04-28T11:07:33.195Z</time></trkpt>
      <trkpt lat="28.01468" lon="98.630108"><time>2026-04-28T11:07:33.212Z</time></trkpt>
      <trkpt lat="28.01468" lon="98.630108"><time>2026-04-28T11:07:33.228Z</time></trkpt>
      <trkpt lat="28.01468" lon="98.630108"><time>2026-04-28T11:07:33.245Z</time></trkpt>
      <trkpt lat="28.01468" lon="98.630108"><time>2026-04-28T11:07:33.262Z</time></trkpt>
      <trkpt lat="28.01468" lon="98.630108"><time>2026-04-28T11:07:33.278Z</time></trkpt>
      <trkpt lat="28.01468" lon="98.630108"><time>2026-04-28T11:07:33.295Z</time></trkpt>
      <trkpt lat="28.014684" lon="98.630099"><time>2026-04-28T11:07:33.312Z</time></trkpt>
      <trkpt lat="28.014684" lon="98.630099"><time>2026-04-28T11:07:33.328Z</time></trkpt>
      <trkpt lat="28.014684" lon="98.630099"><time>2026-04-28T11:07:33.345Z</time></trkpt>
      <trkpt lat="28.014684" lon="98.630099"><time>2026-04-28T11:07:33.362Z</time></trkpt>
      <trkpt lat="28.014684" lon="98.630099"><time>2026-04-28T11:07:33.378Z</time></trkpt>
      <trkpt lat="28.014684" lon="98.630099"><time>2026-04-28T11:07:33.395Z</time></trkpt>
      <trkpt lat="28.014688" lon="98.630089"><time>2026-04-28T11:07:33.412Z</time></trkpt>
      <trkpt lat="28.014688" lon="98.630089"><time>2026-04-28T11:07:33.428Z</time></trkpt>
      <trkpt lat="28.014688" lon="98.630089"><time>2026-04-28T11:07:33.445Z</time></trkpt>
      <trkpt lat="28.014688" lon="98.630089"><time>2026-04-28T11:07:33.462Z</time></trkpt>
      <trkpt lat="28.014688" lon="98.630089"><time>2026-04-28T11:07:33.479Z</time></trkpt>
      <trkpt lat="28.014688" lon="98.630089"><time>2026-04-28T11:07:33.495Z</time></trkpt>
      <trkpt lat="28.014691" lon="98.630081"><time>2026-04-28T11:07:33.512Z</time></trkpt>
      <trkpt lat="28.014691" lon="98.630081"><time>2026-04-28T11:07:33.529Z</time></trkpt>
      <trkpt lat="28.014691" lon="98.630081"><time>2026-04-28T11:07:33.545Z</time></trkpt>
      <trkpt lat="28.014691" lon="98.630081"><time>2026-04-28T11:07:33.562Z</time></trkpt>
      <trkpt lat="28.014691" lon="98.630081"><time>2026-04-28T11:07:33.579Z</time></trkpt>
      <trkpt lat="28.014691" lon="98.630081"><time>2026-04-28T11:07:33.595Z</time></trkpt>
      <trkpt lat="28.014695" lon="98.630072"><time>2026-04-28T11:07:33.612Z</time></trkpt>
      <trkpt lat="28.014695" lon="98.630072"><time>2026-04-28T11:07:33.629Z</time></trkpt>
      <trkpt lat="28.014695" lon="98.630072"><time>2026-04-28T11:07:33.645Z</time></trkpt>
      <trkpt lat="28.014695" lon="98.630072"><time>2026-04-28T11:07:33.662Z</time></trkpt>
      <trkpt lat="28.014695" lon="98.630072"><time>2026-04-28T11:07:33.679Z</time></trkpt>
      <trkpt lat="28.014695" lon="98.630072"><time>2026-04-28T11:07:33.695Z</time></trkpt>
      <trkpt lat="28.014698" lon="98.630063"><time>2026-04-28T11:07:33.712Z</time></trkpt>
      <trkpt lat="28.014698" lon="98.630063"><time>2026-04-28T11:07:33.729Z</time></trkpt>
      <trkpt lat="28.014698" lon="98.630063"><time>2026-04-28T11:07:33.745Z</time></trkpt>
      <trkpt lat="28.014698" lon="98.630063"><time>2026-04-28T11:07:33.762Z</time></trkpt>
      <trkpt lat="28.014698" lon="98.630063"><time>2026-04-28T11:07:33.779Z</time></trkpt>
      <trkpt lat="28.014698" lon="98.630063"><time>2026-04-28T11:07:33.796Z</time></trkpt>
      <trkpt lat="28.014702" lon="98.630053"><time>2026-04-28T11:07:33.812Z</time></trkpt>
      <trkpt lat="28.014702" lon="98.630053"><time>2026-04-28T11:07:33.829Z</time></trkpt>
      <trkpt lat="28.014702" lon="98.630053"><time>2026-04-28T11:07:33.846Z</time></trkpt>
      <trkpt lat="28.014702" lon="98.630053"><time>2026-04-28T11:07:33.862Z</time></trkpt>
      <trkpt lat="28.014702" lon="98.630053"><time>2026-04-28T11:07:33.879Z</time></trkpt>
      <trkpt lat="28.014702" lon="98.630053"><time>2026-04-28T11:07:33.896Z</time></trkpt>
      <trkpt lat="28.014706" lon="98.630045"><time>2026-04-28T11:07:33.912Z</time></trkpt>
      <trkpt lat="28.014706" lon="98.630045"><time>2026-04-28T11:07:33.929Z</time></trkpt>
      <trkpt lat="28.014706" lon="98.630045"><time>2026-04-28T11:07:33.946Z</time></trkpt>
      <trkpt lat="28.014706" lon="98.630045"><time>2026-04-28T11:07:33.962Z</time></trkpt>
      <trkpt lat="28.014706" lon="98.630045"><time>2026-04-28T11:07:33.979Z</time></trkpt>
      <trkpt lat="28.014706" lon="98.630045"><time>2026-04-28T11:07:33.996Z</time></trkpt>
      <trkpt lat="28.014709" lon="98.630036"><time>2026-04-28T11:07:34.012Z</time></trkpt>
      <trkpt lat="28.014709" lon="98.630036"><time>2026-04-28T11:07:34.029Z</time></trkpt>
      <trkpt lat="28.014709" lon="98.630036"><time>2026-04-28T11:07:34.046Z</time></trkpt>
      <trkpt lat="28.014709" lon="98.630036"><time>2026-04-28T11:07:34.062Z</time></trkpt>
      <trkpt lat="28.014709" lon="98.630036"><time>2026-04-28T11:07:34.079Z</time></trkpt>
      <trkpt lat="28.014709" lon="98.630036"><time>2026-04-28T11:07:34.096Z</time></trkpt>
      <trkpt lat="28.014713" lon="98.630027"><time>2026-04-28T11:07:34.113Z</time></trkpt>
      <trkpt lat="28.014713" lon="98.630027"><time>2026-04-28T11:07:34.129Z</time></trkpt>
      <trkpt lat="28.014713" lon="98.630027"><time>2026-04-28T11:07:34.146Z</time></trkpt>
      <trkpt lat="28.014713" lon="98.630027"><time>2026-04-28T11:07:34.163Z</time></trkpt>
      <trkpt lat="28.014713" lon="98.630027"><time>2026-04-28T11:07:34.179Z</time></trkpt>
      <trkpt lat="28.014713" lon="98.630027"><time>2026-04-28T11:07:34.196Z</time></trkpt>
      <trkpt lat="28.014717" lon="98.630018"><time>2026-04-28T11:07:34.213Z</time></trkpt>
      <trkpt lat="28.014717" lon="98.630018"><time>2026-04-28T11:07:34.229Z</time></trkpt>
      <trkpt lat="28.014717" lon="98.630018"><time>2026-04-28T11:07:34.246Z</time></trkpt>
      <trkpt lat="28.014717" lon="98.630018"><time>2026-04-28T11:07:34.263Z</time></trkpt>
      <trkpt lat="28.014717" lon="98.630018"><time>2026-04-28T11:07:34.279Z</time></trkpt>
      <trkpt lat="28.014717" lon="98.630018"><time>2026-04-28T11:07:34.296Z</time></trkpt>
      <trkpt lat="28.01472" lon="98.630009"><time>2026-04-28T11:07:34.313Z</time></trkpt>
      <trkpt lat="28.01472" lon="98.630009"><time>2026-04-28T11:07:34.329Z</time></trkpt>
      <trkpt lat="28.01472" lon="98.630009"><time>2026-04-28T11:07:34.346Z</time></trkpt>
      <trkpt lat="28.01472" lon="98.630009"><time>2026-04-28T11:07:34.363Z</time></trkpt>
      <trkpt lat="28.01472" lon="98.630009"><time>2026-04-28T11:07:34.379Z</time></trkpt>
      <trkpt lat="28.01472" lon="98.630009"><time>2026-04-28T11:07:34.396Z</time></trkpt>
      <trkpt lat="28.014724" lon="98.63"><time>2026-04-28T11:07:34.413Z</time></trkpt>
      <trkpt lat="28.014724" lon="98.63"><time>2026-04-28T11:07:34.430Z</time></trkpt>
      <trkpt lat="28.014724" lon="98.63"><time>2026-04-28T11:07:34.446Z</time></trkpt>
      <trkpt lat="28.014724" lon="98.63"><time>2026-04-28T11:07:34.463Z</time></trkpt>
      <trkpt lat="28.014724" lon="98.63"><time>2026-04-28T11:07:34.480Z</time></trkpt>
      <trkpt lat="28.014724" lon="98.63"><time>2026-04-28T11:07:34.496Z</time></trkpt>
      <trkpt lat="28.014728" lon="98.629991"><time>2026-04-28T11:07:34.513Z</time></trkpt>
      <trkpt lat="28.014728" lon="98.629991"><time>2026-04-28T11:07:34.530Z</time></trkpt>
      <trkpt lat="28.014728" lon="98.629991"><time>2026-04-28T11:07:34.546Z</time></trkpt>
      <trkpt lat="28.014728" lon="98.629991"><time>2026-04-28T11:07:34.563Z</time></trkpt>
      <trkpt lat="28.014728" lon="98.629991"><time>2026-04-28T11:07:34.580Z</time></trkpt>
      <trkpt lat="28.014728" lon="98.629991"><time>2026-04-28T11:07:34.596Z</time></trkpt>
      <trkpt lat="28.014731" lon="98.629982"><time>2026-04-28T11:07:34.613Z</time></trkpt>
      <trkpt lat="28.014731" lon="98.629982"><time>2026-04-28T11:07:34.630Z</time></trkpt>
      <trkpt lat="28.014731" lon="98.629982"><time>2026-04-28T11:07:34.646Z</time></trkpt>
      <trkpt lat="28.014731" lon="98.629982"><time>2026-04-28T11:07:34.663Z</time></trkpt>
      <trkpt lat="28.014731" lon="98.629982"><time>2026-04-28T11:07:34.680Z</time></trkpt>
      <trkpt lat="28.014731" lon="98.629982"><time>2026-04-28T11:07:34.696Z</time></trkpt>
      <trkpt lat="28.014735" lon="98.629973"><time>2026-04-28T11:07:34.713Z</time></trkpt>
      <trkpt lat="28.014735" lon="98.629973"><time>2026-04-28T11:07:34.730Z</time></trkpt>
      <trkpt lat="28.014735" lon="98.629973"><time>2026-04-28T11:07:34.747Z</time></trkpt>
      <trkpt lat="28.014735" lon="98.629973"><time>2026-04-28T11:07:34.763Z</time></trkpt>
      <trkpt lat="28.014735" lon="98.629973"><time>2026-04-28T11:07:34.780Z</time></trkpt>
      <trkpt lat="28.014735" lon="98.629973"><time>2026-04-28T11:07:34.797Z</time></trkpt>
      <trkpt lat="28.014739" lon="98.629964"><time>2026-04-28T11:07:34.813Z</time></trkpt>
      <trkpt lat="28.014739" lon="98.629964"><time>2026-04-28T11:07:34.830Z</time></trkpt>
      <trkpt lat="28.014739" lon="98.629964"><time>2026-04-28T11:07:34.847Z</time></trkpt>
      <trkpt lat="28.014739" lon="98.629964"><time>2026-04-28T11:07:34.863Z</time></trkpt>
      <trkpt lat="28.014739" lon="98.629964"><time>2026-04-28T11:07:34.880Z</time></trkpt>
      <trkpt lat="28.014739" lon="98.629964"><time>2026-04-28T11:07:34.897Z</time></trkpt>
      <trkpt lat="28.014743" lon="98.629955"><time>2026-04-28T11:07:34.913Z</time></trkpt>
      <trkpt lat="28.014743" lon="98.629955"><time>2026-04-28T11:07:34.930Z</time></trkpt>
      <trkpt lat="28.014743" lon="98.629955"><time>2026-04-28T11:07:34.947Z</time></trkpt>
      <trkpt lat="28.014743" lon="98.629955"><time>2026-04-28T11:07:34.963Z</time></trkpt>
      <trkpt lat="28.014743" lon="98.629955"><time>2026-04-28T11:07:34.980Z</time></trkpt>
      <trkpt lat="28.014743" lon="98.629955"><time>2026-04-28T11:07:34.997Z</time></trkpt>
      <trkpt lat="28.014746" lon="98.629946"><time>2026-04-28T11:07:35.013Z</time></trkpt>
      <trkpt lat="28.014746" lon="98.629946"><time>2026-04-28T11:07:35.030Z</time></trkpt>
      <trkpt lat="28.014746" lon="98.629946"><time>2026-04-28T11:07:35.047Z</time></trkpt>
      <trkpt lat="28.014746" lon="98.629946"><time>2026-04-28T11:07:35.064Z</time></trkpt>
      <trkpt lat="28.014746" lon="98.629946"><time>2026-04-28T11:07:35.080Z</time></trkpt>
      <trkpt lat="28.014746" lon="98.629946"><time>2026-04-28T11:07:35.097Z</time></trkpt>
      <trkpt lat="28.01475" lon="98.629937"><time>2026-04-28T11:07:35.114Z</time></trkpt>
      <trkpt lat="28.01475" lon="98.629937"><time>2026-04-28T11:07:35.130Z</time></trkpt>
      <trkpt lat="28.01475" lon="98.629937"><time>2026-04-28T11:07:35.147Z</time></trkpt>
      <trkpt lat="28.01475" lon="98.629937"><time>2026-04-28T11:07:35.164Z</time></trkpt>
      <trkpt lat="28.01475" lon="98.629937"><time>2026-04-28T11:07:35.180Z</time></trkpt>
      <trkpt lat="28.01475" lon="98.629937"><time>2026-04-28T11:07:35.197Z</time></trkpt>
      <trkpt lat="28.014754" lon="98.629928"><time>2026-04-28T11:07:35.214Z</time></trkpt>
      <trkpt lat="28.014754" lon="98.629928"><time>2026-04-28T11:07:35.230Z</time></trkpt>
      <trkpt lat="28.014754" lon="98.629928"><time>2026-04-28T11:07:35.247Z</time></trkpt>
      <trkpt lat="28.014754" lon="98.629928"><time>2026-04-28T11:07:35.264Z</time></trkpt>
      <trkpt lat="28.014754" lon="98.629928"><time>2026-04-28T11:07:35.280Z</time></trkpt>
      <trkpt lat="28.014754" lon="98.629928"><time>2026-04-28T11:07:35.297Z</time></trkpt>
      <trkpt lat="28.014757" lon="98.629919"><time>2026-04-28T11:07:35.314Z</time></trkpt>
      <trkpt lat="28.014757" lon="98.629919"><time>2026-04-28T11:07:35.330Z</time></trkpt>
      <trkpt lat="28.014757" lon="98.629919"><time>2026-04-28T11:07:35.347Z</time></trkpt>
      <trkpt lat="28.014757" lon="98.629919"><time>2026-04-28T11:07:35.364Z</time></trkpt>
      <trkpt lat="28.014757" lon="98.629919"><time>2026-04-28T11:07:35.380Z</time></trkpt>
      <trkpt lat="28.014757" lon="98.629919"><time>2026-04-28T11:07:35.397Z</time></trkpt>
      <trkpt lat="28.014761" lon="98.62991"><time>2026-04-28T11:07:35.414Z</time></trkpt>
      <trkpt lat="28.014761" lon="98.62991"><time>2026-04-28T11:07:35.431Z</time></trkpt>
      <trkpt lat="28.014761" lon="98.62991"><time>2026-04-28T11:07:35.447Z</time></trkpt>
      <trkpt lat="28.014761" lon="98.62991"><time>2026-04-28T11:07:35.464Z</time></trkpt>
      <trkpt lat="28.014761" lon="98.62991"><time>2026-04-28T11:07:35.481Z</time></trkpt>
      <trkpt lat="28.014761" lon="98.62991"><time>2026-04-28T11:07:35.497Z</time></trkpt>
      <trkpt lat="28.014765" lon="98.629901"><time>2026-04-28T11:07:35.514Z</time></trkpt>
      <trkpt lat="28.014765" lon="98.629901"><time>2026-04-28T11:07:35.531Z</time></trkpt>
      <trkpt lat="28.014765" lon="98.629901"><time>2026-04-28T11:07:35.547Z</time></trkpt>
      <trkpt lat="28.014765" lon="98.629901"><time>2026-04-28T11:07:35.564Z</time></trkpt>
      <trkpt lat="28.014765" lon="98.629901"><time>2026-04-28T11:07:35.581Z</time></trkpt>
      <trkpt lat="28.014765" lon="98.629901"><time>2026-04-28T11:07:35.597Z</time></trkpt>
      <trkpt lat="28.014769" lon="98.629892"><time>2026-04-28T11:07:35.614Z</time></trkpt>
      <trkpt lat="28.014769" lon="98.629892"><time>2026-04-28T11:07:35.631Z</time></trkpt>
      <trkpt lat="28.014769" lon="98.629892"><time>2026-04-28T11:07:35.647Z</time></trkpt>
      <trkpt lat="28.014769" lon="98.629892"><time>2026-04-28T11:07:35.664Z</time></trkpt>
      <trkpt lat="28.014769" lon="98.629892"><time>2026-04-28T11:07:35.681Z</time></trkpt>
      <trkpt lat="28.014769" lon="98.629892"><time>2026-04-28T11:07:35.697Z</time></trkpt>
      <trkpt lat="28.014772" lon="98.629883"><time>2026-04-28T11:07:35.714Z</time></trkpt>
      <trkpt lat="28.014772" lon="98.629883"><time>2026-04-28T11:07:35.731Z</time></trkpt>
      <trkpt lat="28.014772" lon="98.629883"><time>2026-04-28T11:07:35.748Z</time></trkpt>
      <trkpt lat="28.014772" lon="98.629883"><time>2026-04-28T11:07:35.764Z</time></trkpt>
      <trkpt lat="28.014772" lon="98.629883"><time>2026-04-28T11:07:35.781Z</time></trkpt>
      <trkpt lat="28.014772" lon="98.629883"><time>2026-04-28T11:07:35.798Z</time></trkpt>
      <trkpt lat="28.014776" lon="98.629874"><time>2026-04-28T11:07:35.814Z</time></trkpt>
      <trkpt lat="28.014776" lon="98.629874"><time>2026-04-28T11:07:35.831Z</time></trkpt>
      <trkpt lat="28.014776" lon="98.629874"><time>2026-04-28T11:07:35.848Z</time></trkpt>
      <trkpt lat="28.014776" lon="98.629874"><time>2026-04-28T11:07:35.864Z</time></trkpt>
      <trkpt lat="28.014776" lon="98.629874"><time>2026-04-28T11:07:35.881Z</time></trkpt>
      <trkpt lat="28.014776" lon="98.629874"><time>2026-04-28T11:07:35.898Z</time></trkpt>
      <trkpt lat="28.014779" lon="98.629865"><time>2026-04-28T11:07:35.914Z</time></trkpt>
      <trkpt lat="28.014779" lon="98.629865"><time>2026-04-28T11:07:35.931Z</time></trkpt>
      <trkpt lat="28.014779" lon="98.629865"><time>2026-04-28T11:07:35.948Z</time></trkpt>
      <trkpt lat="28.014779" lon="98.629865"><time>2026-04-28T11:07:35.964Z</time></trkpt>
      <trkpt lat="28.014779" lon="98.629865"><time>2026-04-28T11:07:35.981Z</time></trkpt>
      <trkpt lat="28.014779" lon="98.629865"><time>2026-04-28T11:07:35.998Z</time></trkpt>
      <trkpt lat="28.014783" lon="98.629856"><time>2026-04-28T11:07:36.014Z</time></trkpt>
      <trkpt lat="28.014783" lon="98.629856"><time>2026-04-28T11:07:36.031Z</time></trkpt>
      <trkpt lat="28.014783" lon="98.629856"><time>2026-04-28T11:07:36.048Z</time></trkpt>
      <trkpt lat="28.014783" lon="98.629856"><time>2026-04-28T11:07:36.065Z</time></trkpt>
      <trkpt lat="28.014783" lon="98.629856"><time>2026-04-28T11:07:36.081Z</time></trkpt>
      <trkpt lat="28.014783" lon="98.629856"><time>2026-04-28T11:07:36.098Z</time></trkpt>
      <trkpt lat="28.014787" lon="98.629847"><time>2026-04-28T11:07:36.115Z</time></trkpt>
      <trkpt lat="28.014787" lon="98.629847"><time>2026-04-28T11:07:36.131Z</time></trkpt>
      <trkpt lat="28.014787" lon="98.629847"><time>2026-04-28T11:07:36.148Z</time></trkpt>
      <trkpt lat="28.014787" lon="98.629847"><time>2026-04-28T11:07:36.165Z</time></trkpt>
      <trkpt lat="28.014787" lon="98.629847"><time>2026-04-28T11:07:36.181Z</time></trkpt>
      <trkpt lat="28.014787" lon="98.629847"><time>2026-04-28T11:07:36.198Z</time></trkpt>
      <trkpt lat="28.014791" lon="98.629838"><time>2026-04-28T11:07:36.215Z</time></trkpt>
      <trkpt lat="28.014791" lon="98.629838"><time>2026-04-28T11:07:36.231Z</time></trkpt>
      <trkpt lat="28.014791" lon="98.629838"><time>2026-04-28T11:07:36.248Z</time></trkpt>
      <trkpt lat="28.014791" lon="98.629838"><time>2026-04-28T11:07:36.265Z</time></trkpt>
      <trkpt lat="28.014791" lon="98.629838"><time>2026-04-28T11:07:36.281Z</time></trkpt>
      <trkpt lat="28.014791" lon="98.629838"><time>2026-04-28T11:07:36.298Z</time></trkpt>
      <trkpt lat="28.014794" lon="98.629828"><time>2026-04-28T11:07:36.315Z</time></trkpt>
      <trkpt lat="28.014794" lon="98.629828"><time>2026-04-28T11:07:36.331Z</time></trkpt>
      <trkpt lat="28.014794" lon="98.629828"><time>2026-04-28T11:07:36.348Z</time></trkpt>
      <trkpt lat="28.014794" lon="98.629828"><time>2026-04-28T11:07:36.365Z</time></trkpt>
      <trkpt lat="28.014794" lon="98.629828"><time>2026-04-28T11:07:36.382Z</time></trkpt>
      <trkpt lat="28.014794" lon="98.629828"><time>2026-04-28T11:07:36.398Z</time></trkpt>
    </trkseg>
  </trk>
</gpx>
