<?xml version="1.0" encoding="UTF-8"?>
<gpx version="1.1" creator="Kairos" xmlns="http://www.topografix.com/GPX/1/1">
  <trk>
    <name>sidecar-srt-7fe6593c3c0ec87f</name>
    <trkseg>
      <trkpt lat="29.513737" lon="101.719286"><time>2026-05-03T23:29:11.000Z</time></trkpt>
      <trkpt lat="29.513737" lon="101.719286"><time>2026-05-03T23:29:11.016Z</time></trkpt>
      <trkpt lat="29.513737" lon="101.719286"><time>2026-05-03T23:29:11.032Z</time></trkpt>
      <trkpt lat="29.513737" lon="101.719286"><time>2026-05-03T23:29:11.049Z</time></trkpt>
      <trkpt lat="29.513737" lon="101.719286"><time>2026-05-03T23:29:11.066Z</time></trkpt>
      <trkpt lat="29.513737" lon="101.719286"><time>2026-05-03T23:29:11.082Z</time></trkpt>
      <trkpt lat="29.513737" lon="101.719286"><time>2026-05-03T23:29:11.099Z</time></trkpt>
      <trkpt lat="29.513737" lon="101.719286"><time>2026-05-03T23:29:11.116Z</time></trkpt>
      <trkpt lat="29.513737" lon="101.719286"><time>2026-05-03T23:29:11.132Z</time></trkpt>
      <trkpt lat="29.513737" lon="101.719286"><time>2026-05-03T23:29:11.149Z</time></trkpt>
      <trkpt lat="29.513737" lon="101.719286"><time>2026-05-03T23:29:11.166Z</time></trkpt>
      <trkpt lat="29.513737" lon="101.719286"><time>2026-05-03T23:29:11.182Z</time></trkpt>
      <trkpt lat="29.513737" lon="101.719286"><time>2026-05-03T23:29:11.199Z</time></trkpt>
      <trkpt lat="29.513737" lon="101.719286"><time>2026-05-03T23:29:11.216Z</time></trkpt>
      <trkpt lat="29.513737" lon="101.719286"><time>2026-05-03T23:29:11.232Z</time></trkpt>
      <trkpt lat="29.513737" lon="101.719286"><time>2026-05-03T23:29:11.249Z</time></trkpt>
      <trkpt lat="29.513737" lon="101.719286"><time>2026-05-03T23:29:11.266Z</time></trkpt>
      <trkpt lat="29.513737" lon="101.719286"><time>2026-05-03T23:29:11.282Z</time></trkpt>
      <trkpt lat="29.513737" lon="101.719286"><time>2026-05-03T23:29:11.299Z</time></trkpt>
      <trkpt lat="29.513737" lon="101.719286"><time>2026-05-03T23:29:11.316Z</time></trkpt>
      <trkpt lat="29.513737" lon="101.719286"><time>2026-05-03T23:29:11.333Z</time></trkpt>
      <trkpt lat="29.513737" lon="101.719286"><time>2026-05-03T23:29:11.349Z</time></trkpt>
      <trkpt lat="29.513737" lon="101.719286"><time>2026-05-03T23:29:11.366Z</time></trkpt>
      <trkpt lat="29.513737" lon="101.719286"><time>2026-05-03T23:29:11.383Z</time></trkpt>
      <trkpt lat="29.513737" lon="101.719286"><time>2026-05-03T23:29:11.399Z</time></trkpt>
      <trkpt lat="29.513737" lon="101.719286"><time>2026-05-03T23:29:11.416Z</time></trkpt>
      <trkpt lat="29.513737" lon="101.719286"><time>2026-05-03T23:29:11.433Z</time></trkpt>
      <trkpt lat="29.513737" lon="101.719286"><time>2026-05-03T23:29:11.449Z</time></trkpt>
      <trkpt lat="29.513737" lon="101.719286"><time>2026-05-03T23:29:11.466Z</time></trkpt>
      <trkpt lat="29.513737" lon="101.719286"><time>2026-05-03T23:29:11.483Z</time></trkpt>
      <trkpt lat="29.513737" lon="101.719286"><time>2026-05-03T23:29:11.499Z</time></trkpt>
      <trkpt lat="29.513737" lon="101.719286"><time>2026-05-03T23:29:11.516Z</time></trkpt>
      <trkpt lat="29.513737" lon="101.719286"><time>2026-05-03T23:29:11.533Z</time></trkpt>
      <trkpt lat="29.513738" lon="101.719286"><time>2026-05-03T23:29:11.549Z</time></trkpt>
      <trkpt lat="29.513738" lon="101.719286"><time>2026-05-03T23:29:11.566Z</time></trkpt>
      <trkpt lat="29.513738" lon="101.719286"><time>2026-05-03T23:29:11.583Z</time></trkpt>
      <trkpt lat="29.513738" lon="101.719286"><time>2026-05-03T23:29:11.599Z</time></trkpt>
      <trkpt lat="29.513738" lon="101.719286"><time>2026-05-03T23:29:11.616Z</time></trkpt>
      <trkpt lat="29.513738" lon="101.719286"><time>2026-05-03T23:29:11.633Z</time></trkpt>
      <trkpt lat="29.513738" lon="101.719286"><time>2026-05-03T23:29:11.650Z</time></trkpt>
      <trkpt lat="29.513738" lon="101.719286"><time>2026-05-03T23:29:11.666Z</time></trkpt>
      <trkpt lat="29.513738" lon="101.719286"><time>2026-05-03T23:29:11.683Z</time></trkpt>
      <trkpt lat="29.513738" lon="101.719286"><time>2026-05-03T23:29:11.700Z</time></trkpt>
      <trkpt lat="29.513738" lon="101.719286"><time>2026-05-03T23:29:11.716Z</time></trkpt>
      <trkpt lat="29.513738" lon="101.719286"><time>2026-05-03T23:29:11.733Z</time></trkpt>
      <trkpt lat="29.513739" lon="101.719286"><time>2026-05-03T23:29:11.750Z</time></trkpt>
      <trkpt lat="29.513739" lon="101.719286"><time>2026-05-03T23:29:11.766Z</time></trkpt>
      <trkpt lat="29.513739" lon="101.719286"><time>2026-05-03T23:29:11.783Z</time></trkpt>
      <trkpt lat="29.513739" lon="101.719286"><time>2026-05-03T23:29:11.800Z</time></trkpt>
      <trkpt lat="29.513739" lon="101.719286"><time>2026-05-03T23:29:11.816Z</time></trkpt>
      <trkpt lat="29.513739" lon="101.719286"><time>2026-05-03T23:29:11.833Z</time></trkpt>
      <trkpt lat="29.51374" lon="101.719286"><time>2026-05-03T23:29:11.850Z</time></trkpt>
      <trkpt lat="29.51374" lon="101.719286"><time>2026-05-03T23:29:11.866Z</time></trkpt>
      <trkpt lat="29.51374" lon="101.719286"><time>2026-05-03T23:29:11.883Z</time></trkpt>
      <trkpt lat="29.51374" lon="101.719286"><time>2026-05-03T23:29:11.900Z</time></trkpt>
      <trkpt lat="29.51374" lon="101.719286"><time>2026-05-03T23:29:11.916Z</time></trkpt>
      <trkpt lat="29.51374" lon="101.719286"><time>2026-05-03T23:29:11.933Z</time></trkpt>
      <trkpt lat="29.513741" lon="101.719285"><time>2026-05-03T23:29:11.950Z</time></trkpt>
      <trkpt lat="29.513741" lon="101.719285"><time>2026-05-03T23:29:11.966Z</time></trkpt>
      <trkpt lat="29.513741" lon="101.719285"><time>2026-05-03T23:29:11.983Z</time></trkpt>
      <trkpt lat="29.513741" lon="101.719285"><time>2026-05-03T23:29:12.000Z</time></trkpt>
      <trkpt lat="29.513741" lon="101.719285"><time>2026-05-03T23:29:12.017Z</time></trkpt>
      <trkpt lat="29.513741" lon="101.719285"><time>2026-05-03T23:29:12.033Z</time></trkpt>
      <trkpt lat="29.513743" lon="101.719285"><time>2026-05-03T23:29:12.050Z</time></trkpt>
      <trkpt lat="29.513743" lon="101.719285"><time>2026-05-03T23:29:12.067Z</time></trkpt>
      <trkpt lat="29.513743" lon="101.719285"><time>2026-05-03T23:29:12.083Z</time></trkpt>
      <trkpt lat="29.513743" lon="101.719285"><time>2026-05-03T23:29:12.100Z</time></trkpt>
      <trkpt lat="29.513743" lon="101.719285"><time>2026-05-03T23:29:12.117Z</time></trkpt>
      <trkpt lat="29.513743" lon="101.719285"><time>2026-05-03T23:29:12.133Z</time></trkpt>
      <trkpt lat="29.513745" lon="101.719285"><time>2026-05-03T23:29:12.150Z</time></trkpt>
      <trkpt lat="29.513745" lon="101.719285"><time>2026-05-03T23:29:12.167Z</time></trkpt>
      <trkpt lat="29.513745" lon="101.719285"><time>2026-05-03T23:29:12.183Z</time></trkpt>
      <trkpt lat="29.513745" lon="101.719285"><time>2026-05-03T23:29:12.200Z</time></trkpt>
      <trkpt lat="29.513745" lon="101.719285"><time>2026-05-03T23:29:12.217Z</time></trkpt>
      <trkpt lat="29.513745" lon="101.719285"><time>2026-05-03T23:29:12.233Z</time></trkpt>
      <trkpt lat="29.513747" lon="101.719285"><time>2026-05-03T23:29:12.250Z</time></trkpt>
      <trkpt lat="29.513747" lon="101.719285"><time>2026-05-03T23:29:12.267Z</time></trkpt>
      <trkpt lat="29.513747" lon="101.719285"><time>2026-05-03T23:29:12.283Z</time></trkpt>
      <trkpt lat="29.513747" lon="101.719285"><time>2026-05-03T23:29:12.300Z</time></trkpt>
      <trkpt lat="29.513747" lon="101.719285"><time>2026-05-03T23:29:12.317Z</time></trkpt>
      <trkpt lat="29.513747" lon="101.719285"><time>2026-05-03T23:29:12.334Z</time></trkpt>
      <trkpt lat="29.513749" lon="101.719284"><time>2026-05-03T23:29:12.350Z</time></trkpt>
      <trkpt lat="29.513749" lon="101.719284"><time>2026-05-03T23:29:12.367Z</time></trkpt>
      <trkpt lat="29.513749" lon="101.719284"><time>2026-05-03T23:29:12.384Z</time></trkpt>
      <trkpt lat="29.513749" lon="101.719284"><time>2026-05-03T23:29:12.400Z</time></trkpt>
      <trkpt lat="29.513749" lon="101.719284"><time>2026-05-03T23:29:12.417Z</time></trkpt>
      <trkpt lat="29.513749" lon="101.719284"><time>2026-05-03T23:29:12.434Z</time></trkpt>
      <trkpt lat="29.513752" lon="101.719284"><time>2026-05-03T23:29:12.450Z</time></trkpt>
      <trkpt lat="29.513752" lon="101.719284"><time>2026-05-03T23:29:12.467Z</time></trkpt>
      <trkpt lat="29.513752" lon="101.719284"><time>2026-05-03T23:29:12.484Z</time></trkpt>
      <trkpt lat="29.513752" lon="101.719284"><time>2026-05-03T23:29:12.500Z</time></trkpt>
      <trkpt lat="29.513752" lon="101.719284"><time>2026-05-03T23:29:12.517Z</time></trkpt>
      <trkpt lat="29.513752" lon="101.719284"><time>2026-05-03T23:29:12.534Z</time></trkpt>
      <trkpt lat="29.513755" lon="101.719284"><time>2026-05-03T23:29:12.550Z</time></trkpt>
      <trkpt lat="29.513755" lon="101.719284"><time>2026-05-03T23:29:12.567Z</time></trkpt>
      <trkpt lat="29.513755" lon="101.719284"><time>2026-05-03T23:29:12.584Z</time></trkpt>
      <trkpt lat="29.513755" lon="101.719284"><time>2026-05-03T23:29:12.600Z</time></trkpt>
      <trkpt lat="29.513755" lon="101.719284"><time>2026-05-03T23:29:12.617Z</time></trkpt>
      <trkpt lat="29.513755" lon="101.719284"><time>2026-05-03T23:29:12.634Z</time></trkpt>
      <trkpt lat="29.513758" lon="101.719283"><time>2026-05-03T23:29:12.651Z</time></trkpt>
      <trkpt lat="29.513758" lon="101.719283"><time>2026-05-03T23:29:12.667Z</time></trkpt>
      <trkpt lat="29.513758" lon="101.719283"><time>2026-05-03T23:29:12.684Z</time></trkpt>
      <trkpt lat="29.513758" lon="101.719283"><time>2026-05-03T23:29:12.701Z</time></trkpt>
      <trkpt lat="29.513758" lon="101.719283"><time>2026-05-03T23:29:12.717Z</time></trkpt>
      <trkpt lat="29.513758" lon="101.719283"><time>2026-05-03T23:29:12.734Z</time></trkpt>
      <trkpt lat="29.513762" lon="101.719283"><time>2026-05-03T23:29:12.751Z</time></trkpt>
      <trkpt lat="29.513762" lon="101.719283"><time>2026-05-03T23:29:12.767Z</time></trkpt>
      <trkpt lat="29.513762" lon="101.719283"><time>2026-05-03T23:29:12.784Z</time></trkpt>
      <trkpt lat="29.513762" lon="101.719283"><time>2026-05-03T23:29:12.801Z</time></trkpt>
      <trkpt lat="29.513762" lon="101.719283"><time>2026-05-03T23:29:12.817Z</time></trkpt>
      <trkpt lat="29.513762" lon="101.719283"><time>2026-05-03T23:29:12.834Z</time></trkpt>
      <trkpt lat="29.513766" lon="101.719282"><time>2026-05-03T23:29:12.851Z</time></trkpt>
      <trkpt lat="29.513766" lon="101.719282"><time>2026-05-03T23:29:12.867Z</time></trkpt>
      <trkpt lat="29.513766" lon="101.719282"><time>2026-05-03T23:29:12.884Z</time></trkpt>
      <trkpt lat="29.513766" lon="101.719282"><time>2026-05-03T23:29:12.901Z</time></trkpt>
      <trkpt lat="29.513766" lon="101.719282"><time>2026-05-03T23:29:12.917Z</time></trkpt>
      <trkpt lat="29.513766" lon="101.719282"><time>2026-05-03T23:29:12.934Z</time></trkpt>
      <trkpt lat="29.51377" lon="101.719282"><time>2026-05-03T23:29:12.951Z</time></trkpt>
      <trkpt lat="29.51377" lon="101.719282"><time>2026-05-03T23:29:12.968Z</time></trkpt>
      <trkpt lat="29.51377" lon="101.719282"><time>2026-05-03T23:29:12.984Z</time></trkpt>
      <trkpt lat="29.51377" lon="101.719282"><time>2026-05-03T23:29:13.001Z</time></trkpt>
      <trkpt lat="29.51377" lon="101.719282"><time>2026-05-03T23:29:13.018Z</time></trkpt>
      <trkpt lat="29.51377" lon="101.719282"><time>2026-05-03T23:29:13.034Z</time></trkpt>
      <trkpt lat="29.513774" lon="101.719281"><time>2026-05-03T23:29:13.051Z</time></trkpt>
      <trkpt lat="29.513774" lon="101.719281"><time>2026-05-03T23:29:13.068Z</time></trkpt>
      <trkpt lat="29.513774" lon="101.719281"><time>2026-05-03T23:29:13.084Z</time></trkpt>
      <trkpt lat="29.513774" lon="101.719281"><time>2026-05-03T23:29:13.101Z</time></trkpt>
      <trkpt lat="29.513774" lon="101.719281"><time>2026-05-03T23:29:13.118Z</time></trkpt>
      <trkpt lat="29.513774" lon="101.719281"><time>2026-05-03T23:29:13.134Z</time></trkpt>
      <trkpt lat="29.513778" lon="101.719281"><time>2026-05-03T23:29:13.151Z</time></trkpt>
      <trkpt lat="29.513778" lon="101.719281"><time>2026-05-03T23:29:13.168Z</time></trkpt>
      <trkpt lat="29.513778" lon="101.719281"><time>2026-05-03T23:29:13.184Z</time></trkpt>
      <trkpt lat="29.513778" lon="101.719281"><time>2026-05-03T23:29:13.201Z</time></trkpt>
      <trkpt lat="29.513778" lon="101.719281"><time>2026-05-03T23:29:13.218Z</time></trkpt>
      <trkpt lat="29.513778" lon="101.719281"><time>2026-05-03T23:29:13.234Z</time></trkpt>
      <trkpt lat="29.513782" lon="101.71928"><time>2026-05-03T23:29:13.251Z</time></trkpt>
      <trkpt lat="29.513782" lon="101.71928"><time>2026-05-03T23:29:13.268Z</time></trkpt>
      <trkpt lat="29.513782" lon="101.71928"><time>2026-05-03T23:29:13.285Z</time></trkpt>
      <trkpt lat="29.513782" lon="101.71928"><time>2026-05-03T23:29:13.301Z</time></trkpt>
      <trkpt lat="29.513782" lon="101.71928"><time>2026-05-03T23:29:13.318Z</time></trkpt>
      <trkpt lat="29.513782" lon="101.71928"><time>2026-05-03T23:29:13.335Z</time></trkpt>
      <trkpt lat="29.513787" lon="101.719279"><time>2026-05-03T23:29:13.351Z</time></trkpt>
      <trkpt lat="29.513787" lon="101.719279"><time>2026-05-03T23:29:13.368Z</time></trkpt>
      <trkpt lat="29.513787" lon="101.719279"><time>2026-05-03T23:29:13.385Z</time></trkpt>
      <trkpt lat="29.513787" lon="101.719279"><time>2026-05-03T23:29:13.401Z</time></trkpt>
      <trkpt lat="29.513787" lon="101.719279"><time>2026-05-03T23:29:13.418Z</time></trkpt>
      <trkpt lat="29.513787" lon="101.719279"><time>2026-05-03T23:29:13.435Z</time></trkpt>
      <trkpt lat="29.513792" lon="101.719279"><time>2026-05-03T23:29:13.451Z</time></trkpt>
      <trkpt lat="29.513792" lon="101.719279"><time>2026-05-03T23:29:13.468Z</time></trkpt>
      <trkpt lat="29.513792" lon="101.719279"><time>2026-05-03T23:29:13.485Z</time></trkpt>
      <trkpt lat="29.513792" lon="101.719279"><time>2026-05-03T23:29:13.501Z</time></trkpt>
      <trkpt lat="29.513792" lon="101.719279"><time>2026-05-03T23:29:13.518Z</time></trkpt>
      <trkpt lat="29.513792" lon="101.719279"><time>2026-05-03T23:29:13.535Z</time></trkpt>
      <trkpt lat="29.513797" lon="101.719278"><time>2026-05-03T23:29:13.551Z</time></trkpt>
      <trkpt lat="29.513797" lon="101.719278"><time>2026-05-03T23:29:13.568Z</time></trkpt>
      <trkpt lat="29.513797" lon="101.719278"><time>2026-05-03T23:29:13.585Z</time></trkpt>
      <trkpt lat="29.513797" lon="101.719278"><time>2026-05-03T23:29:13.602Z</time></trkpt>
      <trkpt lat="29.513797" lon="101.719278"><time>2026-05-03T23:29:13.618Z</time></trkpt>
      <trkpt lat="29.513797" lon="101.719278"><time>2026-05-03T23:29:13.635Z</time></trkpt>
      <trkpt lat="29.513802" lon="101.719277"><time>2026-05-03T23:29:13.652Z</time></trkpt>
      <trkpt lat="29.513802" lon="101.719277"><time>2026-05-03T23:29:13.668Z</time></trkpt>
      <trkpt lat="29.513802" lon="101.719277"><time>2026-05-03T23:29:13.685Z</time></trkpt>
      <trkpt lat="29.513802" lon="101.719277"><time>2026-05-03T23:29:13.702Z</time></trkpt>
      <trkpt lat="29.513802" lon="101.719277"><time>2026-05-03T23:29:13.718Z</time></trkpt>
      <trkpt lat="29.513802" lon="101.719277"><time>2026-05-03T23:29:13.735Z</time></trkpt>
      <trkpt lat="29.513807" lon="101.719277"><time>2026-05-03T23:29:13.752Z</time></trkpt>
      <trkpt lat="29.513807" lon="101.719277"><time>2026-05-03T23:29:13.768Z</time></trkpt>
      <trkpt lat="29.513807" lon="101.719277"><time>2026-05-03T23:29:13.785Z</time></trkpt>
      <trkpt lat="29.513807" lon="101.719277"><time>2026-05-03T23:29:13.802Z</time></trkpt>
      <trkpt lat="29.513807" lon="101.719277"><time>2026-05-03T23:29:13.818Z</time></trkpt>
      <trkpt lat="29.513807" lon="101.719277"><time>2026-05-03T23:29:13.835Z</time></trkpt>
      <trkpt lat="29.513817" lon="101.719279"><time>2026-05-03T23:29:13.852Z</time></trkpt>
      <trkpt lat="29.513817" lon="101.719279"><time>2026-05-03T23:29:13.868Z</time></trkpt>
      <trkpt lat="29.513817" lon="101.719279"><time>2026-05-03T23:29:13.885Z</time></trkpt>
      <trkpt lat="29.513817" lon="101.719279"><time>2026-05-03T23:29:13.902Z</time></trkpt>
      <trkpt lat="29.513817" lon="101.719279"><time>2026-05-03T23:29:13.919Z</time></trkpt>
      <trkpt lat="29.513817" lon="101.719279"><time>2026-05-03T23:29:13.935Z</time></trkpt>
      <trkpt lat="29.513823" lon="101.719279"><time>2026-05-03T23:29:13.952Z</time></trkpt>
      <trkpt lat="29.513823" lon="101.719279"><time>2026-05-03T23:29:13.969Z</time></trkpt>
      <trkpt lat="29.513823" lon="101.719279"><time>2026-05-03T23:29:13.985Z</time></trkpt>
      <trkpt lat="29.513823" lon="101.719279"><time>2026-05-03T23:29:14.002Z</time></trkpt>
      <trkpt lat="29.513823" lon="101.719279"><time>2026-05-03T23:29:14.019Z</time></trkpt>
      <trkpt lat="29.513823" lon="101.719279"><time>2026-05-03T23:29:14.035Z</time></trkpt>
      <trkpt lat="29.513828" lon="101.719278"><time>2026-05-03T23:29:14.052Z</time></trkpt>
      <trkpt lat="29.513828" lon="101.719278"><time>2026-05-03T23:29:14.069Z</time></trkpt>
      <trkpt lat="29.513828" lon="101.719278"><time>2026-05-03T23:29:14.085Z</time></trkpt>
      <trkpt lat="29.513828" lon="101.719278"><time>2026-05-03T23:29:14.102Z</time></trkpt>
      <trkpt lat="29.513828" lon="101.719278"><time>2026-05-03T23:29:14.119Z</time></trkpt>
      <trkpt lat="29.513828" lon="101.719278"><time>2026-05-03T23:29:14.135Z</time></trkpt>
    </trkseg>
  </trk>
</gpx>
