<?xml version="1.0" encoding="UTF-8"?>
<gpx version="1.1" creator="Kairos" xmlns="http://www.topografix.com/GPX/1/1">
  <trk>
    <name>sidecar-srt-24b51b46cf853489</name>
    <trkseg>
      <trkpt lat="29.517212" lon="101.720777"><time>2026-05-04T12:29:30.000Z</time></trkpt>
      <trkpt lat="29.517212" lon="101.720777"><time>2026-05-04T12:29:30.016Z</time></trkpt>
      <trkpt lat="29.517212" lon="101.720777"><time>2026-05-04T12:29:30.032Z</time></trkpt>
      <trkpt lat="29.517212" lon="101.720777"><time>2026-05-04T12:29:30.049Z</time></trkpt>
      <trkpt lat="29.517212" lon="101.720777"><time>2026-05-04T12:29:30.066Z</time></trkpt>
      <trkpt lat="29.517212" lon="101.720776"><time>2026-05-04T12:29:30.082Z</time></trkpt>
      <trkpt lat="29.517212" lon="101.720776"><time>2026-05-04T12:29:30.099Z</time></trkpt>
      <trkpt lat="29.517212" lon="101.720776"><time>2026-05-04T12:29:30.116Z</time></trkpt>
      <trkpt lat="29.517212" lon="101.720776"><time>2026-05-04T12:29:30.132Z</time></trkpt>
      <trkpt lat="29.517212" lon="101.720776"><time>2026-05-04T12:29:30.149Z</time></trkpt>
      <trkpt lat="29.517212" lon="101.720776"><time>2026-05-04T12:29:30.166Z</time></trkpt>
      <trkpt lat="29.517212" lon="101.720775"><time>2026-05-04T12:29:30.182Z</time></trkpt>
      <trkpt lat="29.517212" lon="101.720775"><time>2026-05-04T12:29:30.199Z</time></trkpt>
      <trkpt lat="29.517212" lon="101.720775"><time>2026-05-04T12:29:30.216Z</time></trkpt>
      <trkpt lat="29.517212" lon="101.720775"><time>2026-05-04T12:29:30.232Z</time></trkpt>
      <trkpt lat="29.517212" lon="101.720775"><time>2026-05-04T12:29:30.249Z</time></trkpt>
      <trkpt lat="29.517212" lon="101.720775"><time>2026-05-04T12:29:30.266Z</time></trkpt>
      <trkpt lat="29.517212" lon="101.720775"><time>2026-05-04T12:29:30.282Z</time></trkpt>
      <trkpt lat="29.517212" lon="101.720775"><time>2026-05-04T12:29:30.299Z</time></trkpt>
      <trkpt lat="29.517212" lon="101.720775"><time>2026-05-04T12:29:30.316Z</time></trkpt>
      <trkpt lat="29.517212" lon="101.720775"><time>2026-05-04T12:29:30.333Z</time></trkpt>
      <trkpt lat="29.517212" lon="101.720775"><time>2026-05-04T12:29:30.349Z</time></trkpt>
      <trkpt lat="29.517212" lon="101.720775"><time>2026-05-04T12:29:30.366Z</time></trkpt>
      <trkpt lat="29.517212" lon="101.720774"><time>2026-05-04T12:29:30.383Z</time></trkpt>
      <trkpt lat="29.517212" lon="101.720774"><time>2026-05-04T12:29:30.399Z</time></trkpt>
      <trkpt lat="29.517212" lon="101.720774"><time>2026-05-04T12:29:30.416Z</time></trkpt>
      <trkpt lat="29.517212" lon="101.720774"><time>2026-05-04T12:29:30.433Z</time></trkpt>
      <trkpt lat="29.517212" lon="101.720774"><time>2026-05-04T12:29:30.449Z</time></trkpt>
      <trkpt lat="29.517212" lon="101.720774"><time>2026-05-04T12:29:30.466Z</time></trkpt>
      <trkpt lat="29.517211" lon="101.720773"><time>2026-05-04T12:29:30.483Z</time></trkpt>
      <trkpt lat="29.517211" lon="101.720773"><time>2026-05-04T12:29:30.499Z</time></trkpt>
      <trkpt lat="29.517211" lon="101.720773"><time>2026-05-04T12:29:30.516Z</time></trkpt>
      <trkpt lat="29.517211" lon="101.720773"><time>2026-05-04T12:29:30.533Z</time></trkpt>
      <trkpt lat="29.517211" lon="101.720773"><time>2026-05-04T12:29:30.549Z</time></trkpt>
      <trkpt lat="29.517211" lon="101.720773"><time>2026-05-04T12:29:30.566Z</time></trkpt>
      <trkpt lat="29.517211" lon="101.720772"><time>2026-05-04T12:29:30.583Z</time></trkpt>
      <trkpt lat="29.517211" lon="101.720772"><time>2026-05-04T12:29:30.599Z</time></trkpt>
      <trkpt lat="29.517211" lon="101.720772"><time>2026-05-04T12:29:30.616Z</time></trkpt>
      <trkpt lat="29.517211" lon="101.720772"><time>2026-05-04T12:29:30.633Z</time></trkpt>
      <trkpt lat="29.517211" lon="101.720772"><time>2026-05-04T12:29:30.650Z</time></trkpt>
      <trkpt lat="29.517211" lon="101.720772"><time>2026-05-04T12:29:30.666Z</time></trkpt>
      <trkpt lat="29.517211" lon="101.720771"><time>2026-05-04T12:29:30.683Z</time></trkpt>
      <trkpt lat="29.517211" lon="101.720771"><time>2026-05-04T12:29:30.700Z</time></trkpt>
      <trkpt lat="29.517211" lon="101.720771"><time>2026-05-04T12:29:30.716Z</time></trkpt>
      <trkpt lat="29.517211" lon="101.720771"><time>2026-05-04T12:29:30.733Z</time></trkpt>
      <trkpt lat="29.517211" lon="101.720771"><time>2026-05-04T12:29:30.750Z</time></trkpt>
      <trkpt lat="29.517211" lon="101.720771"><time>2026-05-04T12:29:30.766Z</time></trkpt>
      <trkpt lat="29.51721" lon="101.72077"><time>2026-05-04T12:29:30.783Z</time></trkpt>
      <trkpt lat="29.51721" lon="101.72077"><time>2026-05-04T12:29:30.800Z</time></trkpt>
      <trkpt lat="29.51721" lon="101.72077"><time>2026-05-04T12:29:30.816Z</time></trkpt>
      <trkpt lat="29.51721" lon="101.72077"><time>2026-05-04T12:29:30.833Z</time></trkpt>
      <trkpt lat="29.51721" lon="101.72077"><time>2026-05-04T12:29:30.850Z</time></trkpt>
      <trkpt lat="29.51721" lon="101.72077"><time>2026-05-04T12:29:30.866Z</time></trkpt>
      <trkpt lat="29.51721" lon="101.720769"><time>2026-05-04T12:29:30.883Z</time></trkpt>
      <trkpt lat="29.51721" lon="101.720769"><time>2026-05-04T12:29:30.900Z</time></trkpt>
      <trkpt lat="29.51721" lon="101.720769"><time>2026-05-04T12:29:30.916Z</time></trkpt>
      <trkpt lat="29.51721" lon="101.720769"><time>2026-05-04T12:29:30.933Z</time></trkpt>
      <trkpt lat="29.51721" lon="101.720769"><time>2026-05-04T12:29:30.950Z</time></trkpt>
      <trkpt lat="29.51721" lon="101.720769"><time>2026-05-04T12:29:30.967Z</time></trkpt>
      <trkpt lat="29.51721" lon="101.720769"><time>2026-05-04T12:29:30.983Z</time></trkpt>
      <trkpt lat="29.51721" lon="101.720769"><time>2026-05-04T12:29:31.000Z</time></trkpt>
      <trkpt lat="29.51721" lon="101.720769"><time>2026-05-04T12:29:31.017Z</time></trkpt>
      <trkpt lat="29.51721" lon="101.720769"><time>2026-05-04T12:29:31.033Z</time></trkpt>
      <trkpt lat="29.51721" lon="101.720769"><time>2026-05-04T12:29:31.050Z</time></trkpt>
      <trkpt lat="29.51721" lon="101.720769"><time>2026-05-04T12:29:31.067Z</time></trkpt>
      <trkpt lat="29.51721" lon="101.720768"><time>2026-05-04T12:29:31.083Z</time></trkpt>
      <trkpt lat="29.51721" lon="101.720768"><time>2026-05-04T12:29:31.100Z</time></trkpt>
      <trkpt lat="29.51721" lon="101.720768"><time>2026-05-04T12:29:31.117Z</time></trkpt>
      <trkpt lat="29.51721" lon="101.720768"><time>2026-05-04T12:29:31.133Z</time></trkpt>
      <trkpt lat="29.51721" lon="101.720768"><time>2026-05-04T12:29:31.150Z</time></trkpt>
      <trkpt lat="29.51721" lon="101.720768"><time>2026-05-04T12:29:31.167Z</time></trkpt>
      <trkpt lat="29.51721" lon="101.720768"><time>2026-05-04T12:29:31.183Z</time></trkpt>
      <trkpt lat="29.51721" lon="101.720768"><time>2026-05-04T12:29:31.200Z</time></trkpt>
      <trkpt lat="29.51721" lon="101.720768"><time>2026-05-04T12:29:31.217Z</time></trkpt>
      <trkpt lat="29.51721" lon="101.720768"><time>2026-05-04T12:29:31.233Z</time></trkpt>
      <trkpt lat="29.51721" lon="101.720768"><time>2026-05-04T12:29:31.250Z</time></trkpt>
      <trkpt lat="29.51721" lon="101.720768"><time>2026-05-04T12:29:31.267Z</time></trkpt>
      <trkpt lat="29.51721" lon="101.720768"><time>2026-05-04T12:29:31.284Z</time></trkpt>
      <trkpt lat="29.51721" lon="101.720768"><time>2026-05-04T12:29:31.300Z</time></trkpt>
      <trkpt lat="29.51721" lon="101.720768"><time>2026-05-04T12:29:31.317Z</time></trkpt>
      <trkpt lat="29.51721" lon="101.720768"><time>2026-05-04T12:29:31.334Z</time></trkpt>
      <trkpt lat="29.51721" lon="101.720768"><time>2026-05-04T12:29:31.350Z</time></trkpt>
      <trkpt lat="29.51721" lon="101.720768"><time>2026-05-04T12:29:31.367Z</time></trkpt>
      <trkpt lat="29.517211" lon="101.720768"><time>2026-05-04T12:29:31.384Z</time></trkpt>
      <trkpt lat="29.517211" lon="101.720768"><time>2026-05-04T12:29:31.400Z</time></trkpt>
      <trkpt lat="29.517211" lon="101.720768"><time>2026-05-04T12:29:31.417Z</time></trkpt>
      <trkpt lat="29.517211" lon="101.720768"><time>2026-05-04T12:29:31.434Z</time></trkpt>
      <trkpt lat="29.517211" lon="101.720768"><time>2026-05-04T12:29:31.450Z</time></trkpt>
      <trkpt lat="29.517211" lon="101.720768"><time>2026-05-04T12:29:31.467Z</time></trkpt>
      <trkpt lat="29.517211" lon="101.720768"><time>2026-05-04T12:29:31.484Z</time></trkpt>
      <trkpt lat="29.517211" lon="101.720768"><time>2026-05-04T12:29:31.500Z</time></trkpt>
      <trkpt lat="29.517211" lon="101.720768"><time>2026-05-04T12:29:31.517Z</time></trkpt>
      <trkpt lat="29.517211" lon="101.720768"><time>2026-05-04T12:29:31.534Z</time></trkpt>
      <trkpt lat="29.517211" lon="101.720768"><time>2026-05-04T12:29:31.550Z</time></trkpt>
      <trkpt lat="29.517211" lon="101.720768"><time>2026-05-04T12:29:31.567Z</time></trkpt>
      <trkpt lat="29.517211" lon="101.720769"><time>2026-05-04T12:29:31.584Z</time></trkpt>
      <trkpt lat="29.517211" lon="101.720769"><time>2026-05-04T12:29:31.601Z</time></trkpt>
      <trkpt lat="29.517211" lon="101.720769"><time>2026-05-04T12:29:31.617Z</time></trkpt>
      <trkpt lat="29.517211" lon="101.720769"><time>2026-05-04T12:29:31.634Z</time></trkpt>
      <trkpt lat="29.517211" lon="101.720769"><time>2026-05-04T12:29:31.651Z</time></trkpt>
      <trkpt lat="29.517211" lon="101.720769"><time>2026-05-04T12:29:31.667Z</time></trkpt>
      <trkpt lat="29.517212" lon="101.72077"><time>2026-05-04T12:29:31.684Z</time></trkpt>
      <trkpt lat="29.517212" lon="101.72077"><time>2026-05-04T12:29:31.701Z</time></trkpt>
      <trkpt lat="29.517212" lon="101.72077"><time>2026-05-04T12:29:31.717Z</time></trkpt>
      <trkpt lat="29.517212" lon="101.72077"><time>2026-05-04T12:29:31.734Z</time></trkpt>
      <trkpt lat="29.517212" lon="101.72077"><time>2026-05-04T12:29:31.751Z</time></trkpt>
      <trkpt lat="29.517212" lon="101.72077"><time>2026-05-04T12:29:31.767Z</time></trkpt>
      <trkpt lat="29.517213" lon="101.720771"><time>2026-05-04T12:29:31.784Z</time></trkpt>
      <trkpt lat="29.517213" lon="101.720771"><time>2026-05-04T12:29:31.801Z</time></trkpt>
      <trkpt lat="29.517213" lon="101.720771"><time>2026-05-04T12:29:31.817Z</time></trkpt>
      <trkpt lat="29.517213" lon="101.720771"><time>2026-05-04T12:29:31.834Z</time></trkpt>
      <trkpt lat="29.517213" lon="101.720771"><time>2026-05-04T12:29:31.851Z</time></trkpt>
      <trkpt lat="29.517213" lon="101.720771"><time>2026-05-04T12:29:31.867Z</time></trkpt>
      <trkpt lat="29.517214" lon="101.720772"><time>2026-05-04T12:29:31.884Z</time></trkpt>
      <trkpt lat="29.517214" lon="101.720772"><time>2026-05-04T12:29:31.901Z</time></trkpt>
      <trkpt lat="29.517214" lon="101.720772"><time>2026-05-04T12:29:31.918Z</time></trkpt>
      <trkpt lat="29.517214" lon="101.720772"><time>2026-05-04T12:29:31.934Z</time></trkpt>
      <trkpt lat="29.517214" lon="101.720772"><time>2026-05-04T12:29:31.951Z</time></trkpt>
      <trkpt lat="29.517214" lon="101.720772"><time>2026-05-04T12:29:31.968Z</time></trkpt>
      <trkpt lat="29.517215" lon="101.720773"><time>2026-05-04T12:29:31.984Z</time></trkpt>
      <trkpt lat="29.517215" lon="101.720773"><time>2026-05-04T12:29:32.001Z</time></trkpt>
      <trkpt lat="29.517215" lon="101.720773"><time>2026-05-04T12:29:32.018Z</time></trkpt>
      <trkpt lat="29.517215" lon="101.720773"><time>2026-05-04T12:29:32.034Z</time></trkpt>
      <trkpt lat="29.517215" lon="101.720773"><time>2026-05-04T12:29:32.051Z</time></trkpt>
      <trkpt lat="29.517215" lon="101.720773"><time>2026-05-04T12:29:32.068Z</time></trkpt>
      <trkpt lat="29.517216" lon="101.720774"><time>2026-05-04T12:29:32.084Z</time></trkpt>
      <trkpt lat="29.517216" lon="101.720774"><time>2026-05-04T12:29:32.101Z</time></trkpt>
      <trkpt lat="29.517216" lon="101.720774"><time>2026-05-04T12:29:32.118Z</time></trkpt>
      <trkpt lat="29.517216" lon="101.720774"><time>2026-05-04T12:29:32.134Z</time></trkpt>
      <trkpt lat="29.517216" lon="101.720774"><time>2026-05-04T12:29:32.151Z</time></trkpt>
      <trkpt lat="29.517216" lon="101.720774"><time>2026-05-04T12:29:32.168Z</time></trkpt>
      <trkpt lat="29.517217" lon="101.720775"><time>2026-05-04T12:29:32.184Z</time></trkpt>
      <trkpt lat="29.517217" lon="101.720775"><time>2026-05-04T12:29:32.201Z</time></trkpt>
      <trkpt lat="29.517217" lon="101.720775"><time>2026-05-04T12:29:32.218Z</time></trkpt>
      <trkpt lat="29.517217" lon="101.720775"><time>2026-05-04T12:29:32.234Z</time></trkpt>
      <trkpt lat="29.517217" lon="101.720775"><time>2026-05-04T12:29:32.251Z</time></trkpt>
      <trkpt lat="29.517217" lon="101.720775"><time>2026-05-04T12:29:32.268Z</time></trkpt>
      <trkpt lat="29.517218" lon="101.720776"><time>2026-05-04T12:29:32.285Z</time></trkpt>
      <trkpt lat="29.517218" lon="101.720776"><time>2026-05-04T12:29:32.301Z</time></trkpt>
      <trkpt lat="29.517218" lon="101.720776"><time>2026-05-04T12:29:32.318Z</time></trkpt>
      <trkpt lat="29.517218" lon="101.720776"><time>2026-05-04T12:29:32.335Z</time></trkpt>
      <trkpt lat="29.517218" lon="101.720776"><time>2026-05-04T12:29:32.351Z</time></trkpt>
      <trkpt lat="29.517218" lon="101.720776"><time>2026-05-04T12:29:32.368Z</time></trkpt>
      <trkpt lat="29.51722" lon="101.720777"><time>2026-05-04T12:29:32.385Z</time></trkpt>
      <trkpt lat="29.51722" lon="101.720777"><time>2026-05-04T12:29:32.401Z</time></trkpt>
      <trkpt lat="29.51722" lon="101.720777"><time>2026-05-04T12:29:32.418Z</time></trkpt>
      <trkpt lat="29.51722" lon="101.720777"><time>2026-05-04T12:29:32.435Z</time></trkpt>
      <trkpt lat="29.51722" lon="101.720777"><time>2026-05-04T12:29:32.451Z</time></trkpt>
      <trkpt lat="29.51722" lon="101.720777"><time>2026-05-04T12:29:32.468Z</time></trkpt>
      <trkpt lat="29.517222" lon="101.720778"><time>2026-05-04T12:29:32.485Z</time></trkpt>
      <trkpt lat="29.517222" lon="101.720778"><time>2026-05-04T12:29:32.501Z</time></trkpt>
      <trkpt lat="29.517222" lon="101.720778"><time>2026-05-04T12:29:32.518Z</time></trkpt>
      <trkpt lat="29.517222" lon="101.720778"><time>2026-05-04T12:29:32.535Z</time></trkpt>
      <trkpt lat="29.517222" lon="101.720778"><time>2026-05-04T12:29:32.551Z</time></trkpt>
      <trkpt lat="29.517222" lon="101.720778"><time>2026-05-04T12:29:32.568Z</time></trkpt>
      <trkpt lat="29.517224" lon="101.720779"><time>2026-05-04T12:29:32.585Z</time></trkpt>
      <trkpt lat="29.517224" lon="101.720779"><time>2026-05-04T12:29:32.602Z</time></trkpt>
      <trkpt lat="29.517224" lon="101.720779"><time>2026-05-04T12:29:32.618Z</time></trkpt>
      <trkpt lat="29.517224" lon="101.720779"><time>2026-05-04T12:29:32.635Z</time></trkpt>
      <trkpt lat="29.517224" lon="101.720779"><time>2026-05-04T12:29:32.652Z</time></trkpt>
      <trkpt lat="29.517224" lon="101.720779"><time>2026-05-04T12:29:32.668Z</time></trkpt>
      <trkpt lat="29.517226" lon="101.72078"><time>2026-05-04T12:29:32.685Z</time></trkpt>
      <trkpt lat="29.517226" lon="101.72078"><time>2026-05-04T12:29:32.702Z</time></trkpt>
      <trkpt lat="29.517226" lon="101.72078"><time>2026-05-04T12:29:32.718Z</time></trkpt>
      <trkpt lat="29.517226" lon="101.72078"><time>2026-05-04T12:29:32.735Z</time></trkpt>
      <trkpt lat="29.517226" lon="101.72078"><time>2026-05-04T12:29:32.752Z</time></trkpt>
      <trkpt lat="29.517226" lon="101.72078"><time>2026-05-04T12:29:32.768Z</time></trkpt>
      <trkpt lat="29.517227" lon="101.720781"><time>2026-05-04T12:29:32.785Z</time></trkpt>
      <trkpt lat="29.517227" lon="101.720781"><time>2026-05-04T12:29:32.802Z</time></trkpt>
      <trkpt lat="29.517227" lon="101.720781"><time>2026-05-04T12:29:32.818Z</time></trkpt>
      <trkpt lat="29.517227" lon="101.720781"><time>2026-05-04T12:29:32.835Z</time></trkpt>
      <trkpt lat="29.517227" lon="101.720781"><time>2026-05-04T12:29:32.852Z</time></trkpt>
      <trkpt lat="29.517227" lon="101.720781"><time>2026-05-04T12:29:32.868Z</time></trkpt>
      <trkpt lat="29.517229" lon="101.720782"><time>2026-05-04T12:29:32.885Z</time></trkpt>
      <trkpt lat="29.517229" lon="101.720782"><time>2026-05-04T12:29:32.902Z</time></trkpt>
      <trkpt lat="29.517229" lon="101.720782"><time>2026-05-04T12:29:32.919Z</time></trkpt>
      <trkpt lat="29.517229" lon="101.720782"><time>2026-05-04T12:29:32.935Z</time></trkpt>
      <trkpt lat="29.517229" lon="101.720782"><time>2026-05-04T12:29:32.952Z</time></trkpt>
      <trkpt lat="29.517229" lon="101.720782"><time>2026-05-04T12:29:32.969Z</time></trkpt>
      <trkpt lat="29.517231" lon="101.720783"><time>2026-05-04T12:29:32.985Z</time></trkpt>
      <trkpt lat="29.517231" lon="101.720783"><time>2026-05-04T12:29:33.002Z</time></trkpt>
      <trkpt lat="29.517231" lon="101.720783"><time>2026-05-04T12:29:33.019Z</time></trkpt>
      <trkpt lat="29.517231" lon="101.720783"><time>2026-05-04T12:29:33.035Z</time></trkpt>
      <trkpt lat="29.517231" lon="101.720783"><time>2026-05-04T12:29:33.052Z</time></trkpt>
      <trkpt lat="29.517231" lon="101.720783"><time>2026-05-04T12:29:33.069Z</time></trkpt>
      <trkpt lat="29.517233" lon="101.720784"><time>2026-05-04T12:29:33.085Z</time></trkpt>
      <trkpt lat="29.517233" lon="101.720784"><time>2026-05-04T12:29:33.102Z</time></trkpt>
      <trkpt lat="29.517233" lon="101.720784"><time>2026-05-04T12:29:33.119Z</time></trkpt>
      <trkpt lat="29.517233" lon="101.720784"><time>2026-05-04T12:29:33.135Z</time></trkpt>
      <trkpt lat="29.517233" lon="101.720784"><time>2026-05-04T12:29:33.152Z</time></trkpt>
      <trkpt lat="29.517234" lon="101.720785"><time>2026-05-04T12:29:33.169Z</time></trkpt>
      <trkpt lat="29.517234" lon="101.720785"><time>2026-05-04T12:29:33.185Z</time></trkpt>
      <trkpt lat="29.517234" lon="101.720785"><time>2026-05-04T12:29:33.202Z</time></trkpt>
      <trkpt lat="29.517234" lon="101.720785"><time>2026-05-04T12:29:33.219Z</time></trkpt>
      <trkpt lat="29.517234" lon="101.720785"><time>2026-05-04T12:29:33.236Z</time></trkpt>
      <trkpt lat="29.517234" lon="101.720785"><time>2026-05-04T12:29:33.252Z</time></trkpt>
      <trkpt lat="29.517235" lon="101.720786"><time>2026-05-04T12:29:33.269Z</time></trkpt>
      <trkpt lat="29.517235" lon="101.720786"><time>2026-05-04T12:29:33.286Z</time></trkpt>
      <trkpt lat="29.517235" lon="101.720786"><time>2026-05-04T12:29:33.302Z</time></trkpt>
      <trkpt lat="29.517235" lon="101.720786"><time>2026-05-04T12:29:33.319Z</time></trkpt>
      <trkpt lat="29.517235" lon="101.720786"><time>2026-05-04T12:29:33.336Z</time></trkpt>
      <trkpt lat="29.517235" lon="101.720786"><time>2026-05-04T12:29:33.352Z</time></trkpt>
      <trkpt lat="29.517235" lon="101.720786"><time>2026-05-04T12:29:33.369Z</time></trkpt>
      <trkpt lat="29.517237" lon="101.720787"><time>2026-05-04T12:29:33.386Z</time></trkpt>
      <trkpt lat="29.517237" lon="101.720787"><time>2026-05-04T12:29:33.402Z</time></trkpt>
      <trkpt lat="29.517237" lon="101.720787"><time>2026-05-04T12:29:33.419Z</time></trkpt>
      <trkpt lat="29.517237" lon="101.720787"><time>2026-05-04T12:29:33.436Z</time></trkpt>
      <trkpt lat="29.517237" lon="101.720787"><time>2026-05-04T12:29:33.452Z</time></trkpt>
      <trkpt lat="29.517238" lon="101.720788"><time>2026-05-04T12:29:33.469Z</time></trkpt>
      <trkpt lat="29.517238" lon="101.720788"><time>2026-05-04T12:29:33.486Z</time></trkpt>
      <trkpt lat="29.517238" lon="101.720788"><time>2026-05-04T12:29:33.502Z</time></trkpt>
      <trkpt lat="29.517238" lon="101.720788"><time>2026-05-04T12:29:33.519Z</time></trkpt>
      <trkpt lat="29.517238" lon="101.720788"><time>2026-05-04T12:29:33.536Z</time></trkpt>
      <trkpt lat="29.517238" lon="101.720788"><time>2026-05-04T12:29:33.553Z</time></trkpt>
      <trkpt lat="29.517238" lon="101.720788"><time>2026-05-04T12:29:33.569Z</time></trkpt>
      <trkpt lat="29.517238" lon="101.720788"><time>2026-05-04T12:29:33.586Z</time></trkpt>
      <trkpt lat="29.517238" lon="101.720788"><time>2026-05-04T12:29:33.603Z</time></trkpt>
      <trkpt lat="29.517238" lon="101.720788"><time>2026-05-04T12:29:33.619Z</time></trkpt>
      <trkpt lat="29.517238" lon="101.720788"><time>2026-05-04T12:29:33.636Z</time></trkpt>
      <trkpt lat="29.517238" lon="101.720788"><time>2026-05-04T12:29:33.653Z</time></trkpt>
      <trkpt lat="29.517239" lon="101.720788"><time>2026-05-04T12:29:33.669Z</time></trkpt>
      <trkpt lat="29.517239" lon="101.720788"><time>2026-05-04T12:29:33.686Z</time></trkpt>
      <trkpt lat="29.517239" lon="101.720788"><time>2026-05-04T12:29:33.703Z</time></trkpt>
      <trkpt lat="29.517239" lon="101.720788"><time>2026-05-04T12:29:33.719Z</time></trkpt>
      <trkpt lat="29.517239" lon="101.720788"><time>2026-05-04T12:29:33.736Z</time></trkpt>
      <trkpt lat="29.517239" lon="101.720788"><time>2026-05-04T12:29:33.753Z</time></trkpt>
      <trkpt lat="29.517239" lon="101.720788"><time>2026-05-04T12:29:33.769Z</time></trkpt>
      <trkpt lat="29.517239" lon="101.720788"><time>2026-05-04T12:29:33.786Z</time></trkpt>
      <trkpt lat="29.517239" lon="101.720788"><time>2026-05-04T12:29:33.803Z</time></trkpt>
      <trkpt lat="29.517239" lon="101.720788"><time>2026-05-04T12:29:33.819Z</time></trkpt>
      <trkpt lat="29.517239" lon="101.720788"><time>2026-05-04T12:29:33.836Z</time></trkpt>
      <trkpt lat="29.517239" lon="101.720788"><time>2026-05-04T12:29:33.853Z</time></trkpt>
      <trkpt lat="29.51724" lon="101.720788"><time>2026-05-04T12:29:33.870Z</time></trkpt>
      <trkpt lat="29.51724" lon="101.720788"><time>2026-05-04T12:29:33.886Z</time></trkpt>
      <trkpt lat="29.51724" lon="101.720788"><time>2026-05-04T12:29:33.903Z</time></trkpt>
      <trkpt lat="29.51724" lon="101.720788"><time>2026-05-04T12:29:33.920Z</time></trkpt>
      <trkpt lat="29.51724" lon="101.720788"><time>2026-05-04T12:29:33.936Z</time></trkpt>
      <trkpt lat="29.51724" lon="101.720788"><time>2026-05-04T12:29:33.953Z</time></trkpt>
      <trkpt lat="29.51724" lon="101.720788"><time>2026-05-04T12:29:33.970Z</time></trkpt>
      <trkpt lat="29.51724" lon="101.720788"><time>2026-05-04T12:29:33.986Z</time></trkpt>
      <trkpt lat="29.51724" lon="101.720788"><time>2026-05-04T12:29:34.003Z</time></trkpt>
      <trkpt lat="29.51724" lon="101.720788"><time>2026-05-04T12:29:34.020Z</time></trkpt>
      <trkpt lat="29.51724" lon="101.720788"><time>2026-05-04T12:29:34.036Z</time></trkpt>
      <trkpt lat="29.51724" lon="101.720788"><time>2026-05-04T12:29:34.053Z</time></trkpt>
      <trkpt lat="29.51724" lon="101.720787"><time>2026-05-04T12:29:34.070Z</time></trkpt>
      <trkpt lat="29.51724" lon="101.720787"><time>2026-05-04T12:29:34.086Z</time></trkpt>
      <trkpt lat="29.51724" lon="101.720787"><time>2026-05-04T12:29:34.103Z</time></trkpt>
      <trkpt lat="29.51724" lon="101.720787"><time>2026-05-04T12:29:34.120Z</time></trkpt>
      <trkpt lat="29.51724" lon="101.720787"><time>2026-05-04T12:29:34.136Z</time></trkpt>
      <trkpt lat="29.51724" lon="101.720787"><time>2026-05-04T12:29:34.153Z</time></trkpt>
      <trkpt lat="29.51724" lon="101.720787"><time>2026-05-04T12:29:34.170Z</time></trkpt>
      <trkpt lat="29.51724" lon="101.720787"><time>2026-05-04T12:29:34.187Z</time></trkpt>
      <trkpt lat="29.51724" lon="101.720787"><time>2026-05-04T12:29:34.203Z</time></trkpt>
      <trkpt lat="29.51724" lon="101.720787"><time>2026-05-04T12:29:34.220Z</time></trkpt>
      <trkpt lat="29.51724" lon="101.720787"><time>2026-05-04T12:29:34.237Z</time></trkpt>
      <trkpt lat="29.51724" lon="101.720787"><time>2026-05-04T12:29:34.253Z</time></trkpt>
      <trkpt lat="29.517241" lon="101.720786"><time>2026-05-04T12:29:34.270Z</time></trkpt>
      <trkpt lat="29.517241" lon="101.720786"><time>2026-05-04T12:29:34.287Z</time></trkpt>
      <trkpt lat="29.517241" lon="101.720786"><time>2026-05-04T12:29:34.303Z</time></trkpt>
      <trkpt lat="29.517241" lon="101.720786"><time>2026-05-04T12:29:34.320Z</time></trkpt>
      <trkpt lat="29.517241" lon="101.720786"><time>2026-05-04T12:29:34.337Z</time></trkpt>
      <trkpt lat="29.517241" lon="101.720786"><time>2026-05-04T12:29:34.353Z</time></trkpt>
      <trkpt lat="29.517241" lon="101.720785"><time>2026-05-04T12:29:34.370Z</time></trkpt>
      <trkpt lat="29.517241" lon="101.720785"><time>2026-05-04T12:29:34.387Z</time></trkpt>
      <trkpt lat="29.517241" lon="101.720785"><time>2026-05-04T12:29:34.403Z</time></trkpt>
      <trkpt lat="29.517241" lon="101.720785"><time>2026-05-04T12:29:34.420Z</time></trkpt>
      <trkpt lat="29.517241" lon="101.720785"><time>2026-05-04T12:29:34.437Z</time></trkpt>
      <trkpt lat="29.517241" lon="101.720785"><time>2026-05-04T12:29:34.453Z</time></trkpt>
      <trkpt lat="29.517241" lon="101.720785"><time>2026-05-04T12:29:34.470Z</time></trkpt>
      <trkpt lat="29.517241" lon="101.720785"><time>2026-05-04T12:29:34.487Z</time></trkpt>
      <trkpt lat="29.517241" lon="101.720785"><time>2026-05-04T12:29:34.504Z</time></trkpt>
      <trkpt lat="29.517241" lon="101.720785"><time>2026-05-04T12:29:34.520Z</time></trkpt>
      <trkpt lat="29.517241" lon="101.720785"><time>2026-05-04T12:29:34.537Z</time></trkpt>
      <trkpt lat="29.517241" lon="101.720785"><time>2026-05-04T12:29:34.554Z</time></trkpt>
      <trkpt lat="29.517241" lon="101.720784"><time>2026-05-04T12:29:34.570Z</time></trkpt>
      <trkpt lat="29.517241" lon="101.720784"><time>2026-05-04T12:29:34.587Z</time></trkpt>
      <trkpt lat="29.517241" lon="101.720784"><time>2026-05-04T12:29:34.604Z</time></trkpt>
      <trkpt lat="29.517241" lon="101.720784"><time>2026-05-04T12:29:34.620Z</time></trkpt>
      <trkpt lat="29.517241" lon="101.720784"><time>2026-05-04T12:29:34.637Z</time></trkpt>
      <trkpt lat="29.517241" lon="101.720784"><time>2026-05-04T12:29:34.654Z</time></trkpt>
      <trkpt lat="29.517242" lon="101.720783"><time>2026-05-04T12:29:34.670Z</time></trkpt>
      <trkpt lat="29.517242" lon="101.720783"><time>2026-05-04T12:29:34.687Z</time></trkpt>
      <trkpt lat="29.517242" lon="101.720783"><time>2026-05-04T12:29:34.704Z</time></trkpt>
      <trkpt lat="29.517242" lon="101.720783"><time>2026-05-04T12:29:34.720Z</time></trkpt>
      <trkpt lat="29.517242" lon="101.720783"><time>2026-05-04T12:29:34.737Z</time></trkpt>
      <trkpt lat="29.517242" lon="101.720783"><time>2026-05-04T12:29:34.754Z</time></trkpt>
      <trkpt lat="29.517242" lon="101.720782"><time>2026-05-04T12:29:34.770Z</time></trkpt>
      <trkpt lat="29.517242" lon="101.720782"><time>2026-05-04T12:29:34.787Z</time></trkpt>
      <trkpt lat="29.517242" lon="101.720782"><time>2026-05-04T12:29:34.804Z</time></trkpt>
      <trkpt lat="29.517242" lon="101.720782"><time>2026-05-04T12:29:34.821Z</time></trkpt>
      <trkpt lat="29.517242" lon="101.720782"><time>2026-05-04T12:29:34.837Z</time></trkpt>
      <trkpt lat="29.517242" lon="101.720782"><time>2026-05-04T12:29:34.854Z</time></trkpt>
      <trkpt lat="29.517242" lon="101.720781"><time>2026-05-04T12:29:34.871Z</time></trkpt>
      <trkpt lat="29.517242" lon="101.720781"><time>2026-05-04T12:29:34.887Z</time></trkpt>
      <trkpt lat="29.517242" lon="101.720781"><time>2026-05-04T12:29:34.904Z</time></trkpt>
      <trkpt lat="29.517242" lon="101.720781"><time>2026-05-04T12:29:34.921Z</time></trkpt>
      <trkpt lat="29.517242" lon="101.720781"><time>2026-05-04T12:29:34.937Z</time></trkpt>
      <trkpt lat="29.517242" lon="101.720781"><time>2026-05-04T12:29:34.954Z</time></trkpt>
      <trkpt lat="29.517242" lon="101.72078"><time>2026-05-04T12:29:34.971Z</time></trkpt>
      <trkpt lat="29.517242" lon="101.72078"><time>2026-05-04T12:29:34.987Z</time></trkpt>
      <trkpt lat="29.517242" lon="101.72078"><time>2026-05-04T12:29:35.004Z</time></trkpt>
      <trkpt lat="29.517242" lon="101.72078"><time>2026-05-04T12:29:35.021Z</time></trkpt>
      <trkpt lat="29.517242" lon="101.72078"><time>2026-05-04T12:29:35.037Z</time></trkpt>
      <trkpt lat="29.517242" lon="101.72078"><time>2026-05-04T12:29:35.054Z</time></trkpt>
      <trkpt lat="29.517243" lon="101.72078"><time>2026-05-04T12:29:35.071Z</time></trkpt>
      <trkpt lat="29.517243" lon="101.72078"><time>2026-05-04T12:29:35.087Z</time></trkpt>
      <trkpt lat="29.517243" lon="101.72078"><time>2026-05-04T12:29:35.104Z</time></trkpt>
      <trkpt lat="29.517243" lon="101.72078"><time>2026-05-04T12:29:35.121Z</time></trkpt>
      <trkpt lat="29.517243" lon="101.72078"><time>2026-05-04T12:29:35.138Z</time></trkpt>
      <trkpt lat="29.517243" lon="101.72078"><time>2026-05-04T12:29:35.154Z</time></trkpt>
      <trkpt lat="29.517243" lon="101.720779"><time>2026-05-04T12:29:35.171Z</time></trkpt>
      <trkpt lat="29.517243" lon="101.720779"><time>2026-05-04T12:29:35.188Z</time></trkpt>
      <trkpt lat="29.517243" lon="101.720779"><time>2026-05-04T12:29:35.204Z</time></trkpt>
      <trkpt lat="29.517243" lon="101.720779"><time>2026-05-04T12:29:35.221Z</time></trkpt>
      <trkpt lat="29.517243" lon="101.720779"><time>2026-05-04T12:29:35.238Z</time></trkpt>
      <trkpt lat="29.517243" lon="101.720779"><time>2026-05-04T12:29:35.254Z</time></trkpt>
      <trkpt lat="29.517243" lon="101.720778"><time>2026-05-04T12:29:35.271Z</time></trkpt>
      <trkpt lat="29.517243" lon="101.720778"><time>2026-05-04T12:29:35.288Z</time></trkpt>
      <trkpt lat="29.517243" lon="101.720778"><time>2026-05-04T12:29:35.304Z</time></trkpt>
      <trkpt lat="29.517243" lon="101.720778"><time>2026-05-04T12:29:35.321Z</time></trkpt>
      <trkpt lat="29.517243" lon="101.720778"><time>2026-05-04T12:29:35.338Z</time></trkpt>
      <trkpt lat="29.517243" lon="101.720778"><time>2026-05-04T12:29:35.354Z</time></trkpt>
      <trkpt lat="29.517244" lon="101.720778"><time>2026-05-04T12:29:35.371Z</time></trkpt>
      <trkpt lat="29.517244" lon="101.720778"><time>2026-05-04T12:29:35.388Z</time></trkpt>
      <trkpt lat="29.517244" lon="101.720778"><time>2026-05-04T12:29:35.404Z</time></trkpt>
      <trkpt lat="29.517244" lon="101.720778"><time>2026-05-04T12:29:35.421Z</time></trkpt>
      <trkpt lat="29.517244" lon="101.720778"><time>2026-05-04T12:29:35.438Z</time></trkpt>
      <trkpt lat="29.517244" lon="101.720778"><time>2026-05-04T12:29:35.455Z</time></trkpt>
      <trkpt lat="29.517244" lon="101.720777"><time>2026-05-04T12:29:35.471Z</time></trkpt>
      <trkpt lat="29.517244" lon="101.720777"><time>2026-05-04T12:29:35.488Z</time></trkpt>
      <trkpt lat="29.517244" lon="101.720777"><time>2026-05-04T12:29:35.505Z</time></trkpt>
      <trkpt lat="29.517244" lon="101.720777"><time>2026-05-04T12:29:35.521Z</time></trkpt>
      <trkpt lat="29.517244" lon="101.720777"><time>2026-05-04T12:29:35.538Z</time></trkpt>
      <trkpt lat="29.517244" lon="101.720777"><time>2026-05-04T12:29:35.555Z</time></trkpt>
      <trkpt lat="29.517244" lon="101.720777"><time>2026-05-04T12:29:35.571Z</time></trkpt>
      <trkpt lat="29.517244" lon="101.720777"><time>2026-05-04T12:29:35.588Z</time></trkpt>
      <trkpt lat="29.517244" lon="101.720777"><time>2026-05-04T12:29:35.605Z</time></trkpt>
      <trkpt lat="29.517244" lon="101.720777"><time>2026-05-04T12:29:35.621Z</time></trkpt>
      <trkpt lat="29.517244" lon="101.720777"><time>2026-05-04T12:29:35.638Z</time></trkpt>
      <trkpt lat="29.517244" lon="101.720777"><time>2026-05-04T12:29:35.655Z</time></trkpt>
      <trkpt lat="29.517244" lon="101.720776"><time>2026-05-04T12:29:35.671Z</time></trkpt>
      <trkpt lat="29.517244" lon="101.720776"><time>2026-05-04T12:29:35.688Z</time></trkpt>
      <trkpt lat="29.517244" lon="101.720776"><time>2026-05-04T12:29:35.705Z</time></trkpt>
      <trkpt lat="29.517244" lon="101.720776"><time>2026-05-04T12:29:35.721Z</time></trkpt>
      <trkpt lat="29.517244" lon="101.720776"><time>2026-05-04T12:29:35.738Z</time></trkpt>
      <trkpt lat="29.517244" lon="101.720776"><time>2026-05-04T12:29:35.755Z</time></trkpt>
      <trkpt lat="29.517245" lon="101.720776"><time>2026-05-04T12:29:35.772Z</time></trkpt>
      <trkpt lat="29.517245" lon="101.720776"><time>2026-05-04T12:29:35.788Z</time></trkpt>
      <trkpt lat="29.517245" lon="101.720776"><time>2026-05-04T12:29:35.805Z</time></trkpt>
      <trkpt lat="29.517245" lon="101.720776"><time>2026-05-04T12:29:35.822Z</time></trkpt>
      <trkpt lat="29.517245" lon="101.720776"><time>2026-05-04T12:29:35.838Z</time></trkpt>
      <trkpt lat="29.517245" lon="101.720776"><time>2026-05-04T12:29:35.855Z</time></trkpt>
      <trkpt lat="29.517245" lon="101.720776"><time>2026-05-04T12:29:35.872Z</time></trkpt>
      <trkpt lat="29.517245" lon="101.720776"><time>2026-05-04T12:29:35.888Z</time></trkpt>
      <trkpt lat="29.517245" lon="101.720776"><time>2026-05-04T12:29:35.905Z</time></trkpt>
      <trkpt lat="29.517245" lon="101.720776"><time>2026-05-04T12:29:35.922Z</time></trkpt>
      <trkpt lat="29.517245" lon="101.720776"><time>2026-05-04T12:29:35.938Z</time></trkpt>
      <trkpt lat="29.517245" lon="101.720776"><time>2026-05-04T12:29:35.955Z</time></trkpt>
      <trkpt lat="29.517246" lon="101.720775"><time>2026-05-04T12:29:35.972Z</time></trkpt>
      <trkpt lat="29.517246" lon="101.720775"><time>2026-05-04T12:29:35.988Z</time></trkpt>
      <trkpt lat="29.517246" lon="101.720775"><time>2026-05-04T12:29:36.005Z</time></trkpt>
      <trkpt lat="29.517246" lon="101.720775"><time>2026-05-04T12:29:36.022Z</time></trkpt>
      <trkpt lat="29.517246" lon="101.720775"><time>2026-05-04T12:29:36.038Z</time></trkpt>
      <trkpt lat="29.517246" lon="101.720775"><time>2026-05-04T12:29:36.055Z</time></trkpt>
      <trkpt lat="29.517246" lon="101.720775"><time>2026-05-04T12:29:36.072Z</time></trkpt>
      <trkpt lat="29.517246" lon="101.720775"><time>2026-05-04T12:29:36.089Z</time></trkpt>
      <trkpt lat="29.517246" lon="101.720775"><time>2026-05-04T12:29:36.105Z</time></trkpt>
      <trkpt lat="29.517246" lon="101.720775"><time>2026-05-04T12:29:36.122Z</time></trkpt>
      <trkpt lat="29.517246" lon="101.720775"><time>2026-05-04T12:29:36.139Z</time></trkpt>
      <trkpt lat="29.517246" lon="101.720775"><time>2026-05-04T12:29:36.155Z</time></trkpt>
      <trkpt lat="29.517247" lon="101.720776"><time>2026-05-04T12:29:36.172Z</time></trkpt>
      <trkpt lat="29.517247" lon="101.720776"><time>2026-05-04T12:29:36.189Z</time></trkpt>
      <trkpt lat="29.517247" lon="101.720776"><time>2026-05-04T12:29:36.205Z</time></trkpt>
      <trkpt lat="29.517247" lon="101.720776"><time>2026-05-04T12:29:36.222Z</time></trkpt>
      <trkpt lat="29.517247" lon="101.720776"><time>2026-05-04T12:29:36.239Z</time></trkpt>
      <trkpt lat="29.517247" lon="101.720776"><time>2026-05-04T12:29:36.255Z</time></trkpt>
      <trkpt lat="29.517247" lon="101.720776"><time>2026-05-04T12:29:36.272Z</time></trkpt>
      <trkpt lat="29.517247" lon="101.720776"><time>2026-05-04T12:29:36.289Z</time></trkpt>
      <trkpt lat="29.517247" lon="101.720776"><time>2026-05-04T12:29:36.305Z</time></trkpt>
      <trkpt lat="29.517247" lon="101.720776"><time>2026-05-04T12:29:36.322Z</time></trkpt>
      <trkpt lat="29.517247" lon="101.720776"><time>2026-05-04T12:29:36.339Z</time></trkpt>
      <trkpt lat="29.517247" lon="101.720776"><time>2026-05-04T12:29:36.355Z</time></trkpt>
      <trkpt lat="29.517248" lon="101.720776"><time>2026-05-04T12:29:36.372Z</time></trkpt>
      <trkpt lat="29.517248" lon="101.720776"><time>2026-05-04T12:29:36.389Z</time></trkpt>
      <trkpt lat="29.517248" lon="101.720776"><time>2026-05-04T12:29:36.406Z</time></trkpt>
      <trkpt lat="29.517248" lon="101.720776"><time>2026-05-04T12:29:36.422Z</time></trkpt>
      <trkpt lat="29.517248" lon="101.720776"><time>2026-05-04T12:29:36.439Z</time></trkpt>
      <trkpt lat="29.517248" lon="101.720776"><time>2026-05-04T12:29:36.456Z</time></trkpt>
      <trkpt lat="29.517249" lon="101.720777"><time>2026-05-04T12:29:36.472Z</time></trkpt>
      <trkpt lat="29.517249" lon="101.720777"><time>2026-05-04T12:29:36.489Z</time></trkpt>
      <trkpt lat="29.517249" lon="101.720777"><time>2026-05-04T12:29:36.506Z</time></trkpt>
      <trkpt lat="29.517249" lon="101.720777"><time>2026-05-04T12:29:36.522Z</time></trkpt>
      <trkpt lat="29.517249" lon="101.720777"><time>2026-05-04T12:29:36.539Z</time></trkpt>
      <trkpt lat="29.517249" lon="101.720777"><time>2026-05-04T12:29:36.556Z</time></trkpt>
      <trkpt lat="29.517249" lon="101.720778"><time>2026-05-04T12:29:36.572Z</time></trkpt>
      <trkpt lat="29.517249" lon="101.720778"><time>2026-05-04T12:29:36.589Z</time></trkpt>
      <trkpt lat="29.517249" lon="101.720778"><time>2026-05-04T12:29:36.606Z</time></trkpt>
      <trkpt lat="29.517249" lon="101.720778"><time>2026-05-04T12:29:36.622Z</time></trkpt>
      <trkpt lat="29.517249" lon="101.720778"><time>2026-05-04T12:29:36.639Z</time></trkpt>
      <trkpt lat="29.517249" lon="101.720778"><time>2026-05-04T12:29:36.656Z</time></trkpt>
      <trkpt lat="29.51725" lon="101.720778"><time>2026-05-04T12:29:36.672Z</time></trkpt>
      <trkpt lat="29.51725" lon="101.720778"><time>2026-05-04T12:29:36.689Z</time></trkpt>
      <trkpt lat="29.51725" lon="101.720778"><time>2026-05-04T12:29:36.706Z</time></trkpt>
      <trkpt lat="29.51725" lon="101.720778"><time>2026-05-04T12:29:36.723Z</time></trkpt>
      <trkpt lat="29.51725" lon="101.720778"><time>2026-05-04T12:29:36.739Z</time></trkpt>
      <trkpt lat="29.51725" lon="101.720778"><time>2026-05-04T12:29:36.756Z</time></trkpt>
      <trkpt lat="29.51725" lon="101.720779"><time>2026-05-04T12:29:36.773Z</time></trkpt>
      <trkpt lat="29.51725" lon="101.720779"><time>2026-05-04T12:29:36.789Z</time></trkpt>
      <trkpt lat="29.51725" lon="101.720779"><time>2026-05-04T12:29:36.806Z</time></trkpt>
      <trkpt lat="29.51725" lon="101.720779"><time>2026-05-04T12:29:36.823Z</time></trkpt>
      <trkpt lat="29.51725" lon="101.720779"><time>2026-05-04T12:29:36.839Z</time></trkpt>
      <trkpt lat="29.51725" lon="101.720779"><time>2026-05-04T12:29:36.856Z</time></trkpt>
      <trkpt lat="29.517251" lon="101.72078"><time>2026-05-04T12:29:36.873Z</time></trkpt>
      <trkpt lat="29.517251" lon="101.72078"><time>2026-05-04T12:29:36.889Z</time></trkpt>
      <trkpt lat="29.517251" lon="101.72078"><time>2026-05-04T12:29:36.906Z</time></trkpt>
      <trkpt lat="29.517251" lon="101.72078"><time>2026-05-04T12:29:36.923Z</time></trkpt>
      <trkpt lat="29.517251" lon="101.72078"><time>2026-05-04T12:29:36.939Z</time></trkpt>
      <trkpt lat="29.517251" lon="101.72078"><time>2026-05-04T12:29:36.956Z</time></trkpt>
      <trkpt lat="29.517252" lon="101.72078"><time>2026-05-04T12:29:36.973Z</time></trkpt>
      <trkpt lat="29.517252" lon="101.72078"><time>2026-05-04T12:29:36.989Z</time></trkpt>
      <trkpt lat="29.517252" lon="101.72078"><time>2026-05-04T12:29:37.006Z</time></trkpt>
      <trkpt lat="29.517252" lon="101.72078"><time>2026-05-04T12:29:37.023Z</time></trkpt>
      <trkpt lat="29.517252" lon="101.72078"><time>2026-05-04T12:29:37.040Z</time></trkpt>
      <trkpt lat="29.517252" lon="101.72078"><time>2026-05-04T12:29:37.056Z</time></trkpt>
      <trkpt lat="29.517252" lon="101.720781"><time>2026-05-04T12:29:37.073Z</time></trkpt>
      <trkpt lat="29.517252" lon="101.720781"><time>2026-05-04T12:29:37.090Z</time></trkpt>
      <trkpt lat="29.517252" lon="101.720781"><time>2026-05-04T12:29:37.106Z</time></trkpt>
      <trkpt lat="29.517252" lon="101.720781"><time>2026-05-04T12:29:37.123Z</time></trkpt>
      <trkpt lat="29.517252" lon="101.720781"><time>2026-05-04T12:29:37.140Z</time></trkpt>
      <trkpt lat="29.517252" lon="101.720781"><time>2026-05-04T12:29:37.156Z</time></trkpt>
      <trkpt lat="29.517253" lon="101.720781"><time>2026-05-04T12:29:37.173Z</time></trkpt>
      <trkpt lat="29.517253" lon="101.720781"><time>2026-05-04T12:29:37.190Z</time></trkpt>
      <trkpt lat="29.517253" lon="101.720781"><time>2026-05-04T12:29:37.206Z</time></trkpt>
      <trkpt lat="29.517253" lon="101.720781"><time>2026-05-04T12:29:37.223Z</time></trkpt>
      <trkpt lat="29.517253" lon="101.720781"><time>2026-05-04T12:29:37.240Z</time></trkpt>
      <trkpt lat="29.517253" lon="101.720781"><time>2026-05-04T12:29:37.256Z</time></trkpt>
      <trkpt lat="29.517253" lon="101.720781"><time>2026-05-04T12:29:37.273Z</time></trkpt>
      <trkpt lat="29.517253" lon="101.720781"><time>2026-05-04T12:29:37.290Z</time></trkpt>
      <trkpt lat="29.517253" lon="101.720781"><time>2026-05-04T12:29:37.306Z</time></trkpt>
      <trkpt lat="29.517253" lon="101.720781"><time>2026-05-04T12:29:37.323Z</time></trkpt>
      <trkpt lat="29.517253" lon="101.720781"><time>2026-05-04T12:29:37.340Z</time></trkpt>
      <trkpt lat="29.517253" lon="101.720781"><time>2026-05-04T12:29:37.357Z</time></trkpt>
      <trkpt lat="29.517253" lon="101.720781"><time>2026-05-04T12:29:37.373Z</time></trkpt>
      <trkpt lat="29.517253" lon="101.720781"><time>2026-05-04T12:29:37.390Z</time></trkpt>
      <trkpt lat="29.517253" lon="101.720781"><time>2026-05-04T12:29:37.407Z</time></trkpt>
      <trkpt lat="29.517253" lon="101.720781"><time>2026-05-04T12:29:37.423Z</time></trkpt>
      <trkpt lat="29.517253" lon="101.720781"><time>2026-05-04T12:29:37.440Z</time></trkpt>
      <trkpt lat="29.517253" lon="101.720781"><time>2026-05-04T12:29:37.457Z</time></trkpt>
      <trkpt lat="29.517253" lon="101.720781"><time>2026-05-04T12:29:37.473Z</time></trkpt>
      <trkpt lat="29.517253" lon="101.720781"><time>2026-05-04T12:29:37.490Z</time></trkpt>
      <trkpt lat="29.517253" lon="101.720781"><time>2026-05-04T12:29:37.507Z</time></trkpt>
      <trkpt lat="29.517253" lon="101.720781"><time>2026-05-04T12:29:37.523Z</time></trkpt>
      <trkpt lat="29.517253" lon="101.720781"><time>2026-05-04T12:29:37.540Z</time></trkpt>
      <trkpt lat="29.517253" lon="101.720781"><time>2026-05-04T12:29:37.557Z</time></trkpt>
      <trkpt lat="29.517253" lon="101.720781"><time>2026-05-04T12:29:37.573Z</time></trkpt>
      <trkpt lat="29.517253" lon="101.720781"><time>2026-05-04T12:29:37.590Z</time></trkpt>
      <trkpt lat="29.517253" lon="101.720781"><time>2026-05-04T12:29:37.607Z</time></trkpt>
      <trkpt lat="29.517253" lon="101.720781"><time>2026-05-04T12:29:37.623Z</time></trkpt>
      <trkpt lat="29.517253" lon="101.720781"><time>2026-05-04T12:29:37.640Z</time></trkpt>
      <trkpt lat="29.517253" lon="101.720781"><time>2026-05-04T12:29:37.657Z</time></trkpt>
      <trkpt lat="29.517253" lon="101.720781"><time>2026-05-04T12:29:37.674Z</time></trkpt>
      <trkpt lat="29.517253" lon="101.720781"><time>2026-05-04T12:29:37.690Z</time></trkpt>
      <trkpt lat="29.517253" lon="101.720781"><time>2026-05-04T12:29:37.707Z</time></trkpt>
      <trkpt lat="29.517253" lon="101.720781"><time>2026-05-04T12:29:37.724Z</time></trkpt>
      <trkpt lat="29.517253" lon="101.720781"><time>2026-05-04T12:29:37.740Z</time></trkpt>
      <trkpt lat="29.517253" lon="101.720781"><time>2026-05-04T12:29:37.757Z</time></trkpt>
      <trkpt lat="29.517253" lon="101.720781"><time>2026-05-04T12:29:37.774Z</time></trkpt>
      <trkpt lat="29.517253" lon="101.720781"><time>2026-05-04T12:29:37.790Z</time></trkpt>
      <trkpt lat="29.517253" lon="101.720781"><time>2026-05-04T12:29:37.807Z</time></trkpt>
      <trkpt lat="29.517253" lon="101.720781"><time>2026-05-04T12:29:37.824Z</time></trkpt>
      <trkpt lat="29.517253" lon="101.720781"><time>2026-05-04T12:29:37.840Z</time></trkpt>
      <trkpt lat="29.517253" lon="101.720781"><time>2026-05-04T12:29:37.857Z</time></trkpt>
      <trkpt lat="29.517253" lon="101.720781"><time>2026-05-04T12:29:37.874Z</time></trkpt>
      <trkpt lat="29.517253" lon="101.720781"><time>2026-05-04T12:29:37.890Z</time></trkpt>
      <trkpt lat="29.517253" lon="101.720781"><time>2026-05-04T12:29:37.907Z</time></trkpt>
      <trkpt lat="29.517253" lon="101.720781"><time>2026-05-04T12:29:37.924Z</time></trkpt>
      <trkpt lat="29.517253" lon="101.720781"><time>2026-05-04T12:29:37.940Z</time></trkpt>
      <trkpt lat="29.517253" lon="101.720781"><time>2026-05-04T12:29:37.957Z</time></trkpt>
      <trkpt lat="29.517253" lon="101.720781"><time>2026-05-04T12:29:37.974Z</time></trkpt>
      <trkpt lat="29.517253" lon="101.720781"><time>2026-05-04T12:29:37.991Z</time></trkpt>
      <trkpt lat="29.517253" lon="101.720781"><time>2026-05-04T12:29:38.007Z</time></trkpt>
      <trkpt lat="29.517253" lon="101.720781"><time>2026-05-04T12:29:38.024Z</time></trkpt>
      <trkpt lat="29.517253" lon="101.720781"><time>2026-05-04T12:29:38.041Z</time></trkpt>
      <trkpt lat="29.517253" lon="101.720781"><time>2026-05-04T12:29:38.057Z</time></trkpt>
      <trkpt lat="29.517253" lon="101.720781"><time>2026-05-04T12:29:38.074Z</time></trkpt>
      <trkpt lat="29.517253" lon="101.720781"><time>2026-05-04T12:29:38.091Z</time></trkpt>
      <trkpt lat="29.517253" lon="101.720781"><time>2026-05-04T12:29:38.107Z</time></trkpt>
      <trkpt lat="29.517253" lon="101.720781"><time>2026-05-04T12:29:38.124Z</time></trkpt>
      <trkpt lat="29.517253" lon="101.720781"><time>2026-05-04T12:29:38.141Z</time></trkpt>
      <trkpt lat="29.517253" lon="101.720781"><time>2026-05-04T12:29:38.157Z</time></trkpt>
      <trkpt lat="29.517253" lon="101.720781"><time>2026-05-04T12:29:38.174Z</time></trkpt>
      <trkpt lat="29.517253" lon="101.720781"><time>2026-05-04T12:29:38.191Z</time></trkpt>
      <trkpt lat="29.517253" lon="101.720781"><time>2026-05-04T12:29:38.207Z</time></trkpt>
      <trkpt lat="29.517253" lon="101.720781"><time>2026-05-04T12:29:38.224Z</time></trkpt>
      <trkpt lat="29.517253" lon="101.720781"><time>2026-05-04T12:29:38.241Z</time></trkpt>
      <trkpt lat="29.517253" lon="101.720781"><time>2026-05-04T12:29:38.257Z</time></trkpt>
      <trkpt lat="29.517253" lon="101.720781"><time>2026-05-04T12:29:38.274Z</time></trkpt>
      <trkpt lat="29.517253" lon="101.720781"><time>2026-05-04T12:29:38.291Z</time></trkpt>
      <trkpt lat="29.517253" lon="101.720781"><time>2026-05-04T12:29:38.308Z</time></trkpt>
      <trkpt lat="29.517253" lon="101.720781"><time>2026-05-04T12:29:38.324Z</time></trkpt>
      <trkpt lat="29.517253" lon="101.720781"><time>2026-05-04T12:29:38.341Z</time></trkpt>
      <trkpt lat="29.517253" lon="101.720781"><time>2026-05-04T12:29:38.358Z</time></trkpt>
      <trkpt lat="29.517254" lon="101.720782"><time>2026-05-04T12:29:38.374Z</time></trkpt>
      <trkpt lat="29.517254" lon="101.720782"><time>2026-05-04T12:29:38.391Z</time></trkpt>
      <trkpt lat="29.517254" lon="101.720782"><time>2026-05-04T12:29:38.408Z</time></trkpt>
      <trkpt lat="29.517254" lon="101.720782"><time>2026-05-04T12:29:38.424Z</time></trkpt>
      <trkpt lat="29.517254" lon="101.720782"><time>2026-05-04T12:29:38.441Z</time></trkpt>
      <trkpt lat="29.517254" lon="101.720782"><time>2026-05-04T12:29:38.458Z</time></trkpt>
      <trkpt lat="29.517254" lon="101.720783"><time>2026-05-04T12:29:38.474Z</time></trkpt>
      <trkpt lat="29.517254" lon="101.720783"><time>2026-05-04T12:29:38.491Z</time></trkpt>
      <trkpt lat="29.517254" lon="101.720783"><time>2026-05-04T12:29:38.508Z</time></trkpt>
      <trkpt lat="29.517254" lon="101.720783"><time>2026-05-04T12:29:38.524Z</time></trkpt>
      <trkpt lat="29.517254" lon="101.720783"><time>2026-05-04T12:29:38.541Z</time></trkpt>
      <trkpt lat="29.517254" lon="101.720783"><time>2026-05-04T12:29:38.558Z</time></trkpt>
      <trkpt lat="29.517254" lon="101.720784"><time>2026-05-04T12:29:38.574Z</time></trkpt>
      <trkpt lat="29.517254" lon="101.720784"><time>2026-05-04T12:29:38.591Z</time></trkpt>
      <trkpt lat="29.517254" lon="101.720784"><time>2026-05-04T12:29:38.608Z</time></trkpt>
      <trkpt lat="29.517254" lon="101.720784"><time>2026-05-04T12:29:38.624Z</time></trkpt>
      <trkpt lat="29.517254" lon="101.720784"><time>2026-05-04T12:29:38.641Z</time></trkpt>
      <trkpt lat="29.517254" lon="101.720784"><time>2026-05-04T12:29:38.658Z</time></trkpt>
      <trkpt lat="29.517255" lon="101.720785"><time>2026-05-04T12:29:38.675Z</time></trkpt>
      <trkpt lat="29.517255" lon="101.720785"><time>2026-05-04T12:29:38.691Z</time></trkpt>
      <trkpt lat="29.517255" lon="101.720785"><time>2026-05-04T12:29:38.708Z</time></trkpt>
      <trkpt lat="29.517255" lon="101.720785"><time>2026-05-04T12:29:38.725Z</time></trkpt>
      <trkpt lat="29.517255" lon="101.720785"><time>2026-05-04T12:29:38.741Z</time></trkpt>
      <trkpt lat="29.517255" lon="101.720785"><time>2026-05-04T12:29:38.758Z</time></trkpt>
      <trkpt lat="29.517256" lon="101.720786"><time>2026-05-04T12:29:38.775Z</time></trkpt>
      <trkpt lat="29.517256" lon="101.720786"><time>2026-05-04T12:29:38.791Z</time></trkpt>
      <trkpt lat="29.517256" lon="101.720786"><time>2026-05-04T12:29:38.808Z</time></trkpt>
      <trkpt lat="29.517256" lon="101.720786"><time>2026-05-04T12:29:38.825Z</time></trkpt>
      <trkpt lat="29.517256" lon="101.720786"><time>2026-05-04T12:29:38.841Z</time></trkpt>
      <trkpt lat="29.517256" lon="101.720786"><time>2026-05-04T12:29:38.858Z</time></trkpt>
      <trkpt lat="29.517256" lon="101.720787"><time>2026-05-04T12:29:38.875Z</time></trkpt>
      <trkpt lat="29.517256" lon="101.720787"><time>2026-05-04T12:29:38.891Z</time></trkpt>
      <trkpt lat="29.517256" lon="101.720787"><time>2026-05-04T12:29:38.908Z</time></trkpt>
      <trkpt lat="29.517256" lon="101.720787"><time>2026-05-04T12:29:38.925Z</time></trkpt>
      <trkpt lat="29.517256" lon="101.720787"><time>2026-05-04T12:29:38.941Z</time></trkpt>
      <trkpt lat="29.517256" lon="101.720787"><time>2026-05-04T12:29:38.958Z</time></trkpt>
      <trkpt lat="29.517257" lon="101.720789"><time>2026-05-04T12:29:38.975Z</time></trkpt>
      <trkpt lat="29.517257" lon="101.720789"><time>2026-05-04T12:29:38.992Z</time></trkpt>
      <trkpt lat="29.517257" lon="101.720789"><time>2026-05-04T12:29:39.008Z</time></trkpt>
      <trkpt lat="29.517257" lon="101.720789"><time>2026-05-04T12:29:39.025Z</time></trkpt>
      <trkpt lat="29.517257" lon="101.720789"><time>2026-05-04T12:29:39.042Z</time></trkpt>
      <trkpt lat="29.517257" lon="101.720789"><time>2026-05-04T12:29:39.058Z</time></trkpt>
      <trkpt lat="29.517258" lon="101.72079"><time>2026-05-04T12:29:39.075Z</time></trkpt>
      <trkpt lat="29.517258" lon="101.72079"><time>2026-05-04T12:29:39.092Z</time></trkpt>
      <trkpt lat="29.517258" lon="101.72079"><time>2026-05-04T12:29:39.108Z</time></trkpt>
      <trkpt lat="29.517258" lon="101.72079"><time>2026-05-04T12:29:39.125Z</time></trkpt>
      <trkpt lat="29.517258" lon="101.72079"><time>2026-05-04T12:29:39.142Z</time></trkpt>
      <trkpt lat="29.517258" lon="101.72079"><time>2026-05-04T12:29:39.158Z</time></trkpt>
      <trkpt lat="29.517259" lon="101.720792"><time>2026-05-04T12:29:39.175Z</time></trkpt>
      <trkpt lat="29.517259" lon="101.720792"><time>2026-05-04T12:29:39.192Z</time></trkpt>
      <trkpt lat="29.517259" lon="101.720792"><time>2026-05-04T12:29:39.208Z</time></trkpt>
      <trkpt lat="29.517259" lon="101.720792"><time>2026-05-04T12:29:39.225Z</time></trkpt>
      <trkpt lat="29.517259" lon="101.720792"><time>2026-05-04T12:29:39.242Z</time></trkpt>
      <trkpt lat="29.517259" lon="101.720792"><time>2026-05-04T12:29:39.258Z</time></trkpt>
      <trkpt lat="29.51726" lon="101.720793"><time>2026-05-04T12:29:39.275Z</time></trkpt>
      <trkpt lat="29.51726" lon="101.720793"><time>2026-05-04T12:29:39.292Z</time></trkpt>
      <trkpt lat="29.51726" lon="101.720793"><time>2026-05-04T12:29:39.309Z</time></trkpt>
      <trkpt lat="29.51726" lon="101.720793"><time>2026-05-04T12:29:39.325Z</time></trkpt>
      <trkpt lat="29.51726" lon="101.720793"><time>2026-05-04T12:29:39.342Z</time></trkpt>
      <trkpt lat="29.51726" lon="101.720793"><time>2026-05-04T12:29:39.359Z</time></trkpt>
      <trkpt lat="29.517261" lon="101.720795"><time>2026-05-04T12:29:39.375Z</time></trkpt>
      <trkpt lat="29.517261" lon="101.720795"><time>2026-05-04T12:29:39.392Z</time></trkpt>
      <trkpt lat="29.517261" lon="101.720795"><time>2026-05-04T12:29:39.409Z</time></trkpt>
      <trkpt lat="29.517261" lon="101.720795"><time>2026-05-04T12:29:39.425Z</time></trkpt>
      <trkpt lat="29.517261" lon="101.720795"><time>2026-05-04T12:29:39.442Z</time></trkpt>
      <trkpt lat="29.517261" lon="101.720795"><time>2026-05-04T12:29:39.459Z</time></trkpt>
      <trkpt lat="29.517262" lon="101.720797"><time>2026-05-04T12:29:39.475Z</time></trkpt>
      <trkpt lat="29.517262" lon="101.720797"><time>2026-05-04T12:29:39.492Z</time></trkpt>
      <trkpt lat="29.517262" lon="101.720797"><time>2026-05-04T12:29:39.509Z</time></trkpt>
      <trkpt lat="29.517262" lon="101.720797"><time>2026-05-04T12:29:39.525Z</time></trkpt>
      <trkpt lat="29.517262" lon="101.720797"><time>2026-05-04T12:29:39.542Z</time></trkpt>
      <trkpt lat="29.517262" lon="101.720797"><time>2026-05-04T12:29:39.559Z</time></trkpt>
      <trkpt lat="29.517263" lon="101.720798"><time>2026-05-04T12:29:39.575Z</time></trkpt>
      <trkpt lat="29.517263" lon="101.720798"><time>2026-05-04T12:29:39.592Z</time></trkpt>
      <trkpt lat="29.517263" lon="101.720798"><time>2026-05-04T12:29:39.609Z</time></trkpt>
      <trkpt lat="29.517263" lon="101.720798"><time>2026-05-04T12:29:39.626Z</time></trkpt>
      <trkpt lat="29.517263" lon="101.720798"><time>2026-05-04T12:29:39.642Z</time></trkpt>
      <trkpt lat="29.517263" lon="101.720798"><time>2026-05-04T12:29:39.659Z</time></trkpt>
      <trkpt lat="29.517264" lon="101.7208"><time>2026-05-04T12:29:39.676Z</time></trkpt>
      <trkpt lat="29.517264" lon="101.7208"><time>2026-05-04T12:29:39.692Z</time></trkpt>
      <trkpt lat="29.517264" lon="101.7208"><time>2026-05-04T12:29:39.709Z</time></trkpt>
      <trkpt lat="29.517264" lon="101.7208"><time>2026-05-04T12:29:39.726Z</time></trkpt>
      <trkpt lat="29.517264" lon="101.7208"><time>2026-05-04T12:29:39.742Z</time></trkpt>
      <trkpt lat="29.517264" lon="101.7208"><time>2026-05-04T12:29:39.759Z</time></trkpt>
      <trkpt lat="29.517265" lon="101.720801"><time>2026-05-04T12:29:39.776Z</time></trkpt>
      <trkpt lat="29.517265" lon="101.720801"><time>2026-05-04T12:29:39.792Z</time></trkpt>
      <trkpt lat="29.517265" lon="101.720801"><time>2026-05-04T12:29:39.809Z</time></trkpt>
      <trkpt lat="29.517265" lon="101.720801"><time>2026-05-04T12:29:39.826Z</time></trkpt>
      <trkpt lat="29.517265" lon="101.720801"><time>2026-05-04T12:29:39.842Z</time></trkpt>
      <trkpt lat="29.517265" lon="101.720801"><time>2026-05-04T12:29:39.859Z</time></trkpt>
      <trkpt lat="29.517266" lon="101.720803"><time>2026-05-04T12:29:39.876Z</time></trkpt>
      <trkpt lat="29.517266" lon="101.720803"><time>2026-05-04T12:29:39.892Z</time></trkpt>
      <trkpt lat="29.517266" lon="101.720803"><time>2026-05-04T12:29:39.909Z</time></trkpt>
      <trkpt lat="29.517266" lon="101.720803"><time>2026-05-04T12:29:39.926Z</time></trkpt>
      <trkpt lat="29.517266" lon="101.720803"><time>2026-05-04T12:29:39.943Z</time></trkpt>
      <trkpt lat="29.517266" lon="101.720803"><time>2026-05-04T12:29:39.959Z</time></trkpt>
      <trkpt lat="29.517267" lon="101.720805"><time>2026-05-04T12:29:39.976Z</time></trkpt>
      <trkpt lat="29.517267" lon="101.720805"><time>2026-05-04T12:29:39.993Z</time></trkpt>
      <trkpt lat="29.517267" lon="101.720805"><time>2026-05-04T12:29:40.009Z</time></trkpt>
      <trkpt lat="29.517267" lon="101.720805"><time>2026-05-04T12:29:40.026Z</time></trkpt>
      <trkpt lat="29.517267" lon="101.720805"><time>2026-05-04T12:29:40.043Z</time></trkpt>
      <trkpt lat="29.517267" lon="101.720805"><time>2026-05-04T12:29:40.059Z</time></trkpt>
      <trkpt lat="29.517268" lon="101.720807"><time>2026-05-04T12:29:40.076Z</time></trkpt>
      <trkpt lat="29.517268" lon="101.720807"><time>2026-05-04T12:29:40.093Z</time></trkpt>
      <trkpt lat="29.517268" lon="101.720807"><time>2026-05-04T12:29:40.109Z</time></trkpt>
      <trkpt lat="29.517268" lon="101.720807"><time>2026-05-04T12:29:40.126Z</time></trkpt>
      <trkpt lat="29.517268" lon="101.720807"><time>2026-05-04T12:29:40.143Z</time></trkpt>
      <trkpt lat="29.517268" lon="101.720807"><time>2026-05-04T12:29:40.159Z</time></trkpt>
      <trkpt lat="29.517269" lon="101.720809"><time>2026-05-04T12:29:40.176Z</time></trkpt>
      <trkpt lat="29.517269" lon="101.720809"><time>2026-05-04T12:29:40.193Z</time></trkpt>
      <trkpt lat="29.517269" lon="101.720809"><time>2026-05-04T12:29:40.209Z</time></trkpt>
      <trkpt lat="29.517269" lon="101.720809"><time>2026-05-04T12:29:40.226Z</time></trkpt>
      <trkpt lat="29.517269" lon="101.720809"><time>2026-05-04T12:29:40.243Z</time></trkpt>
      <trkpt lat="29.517269" lon="101.720809"><time>2026-05-04T12:29:40.260Z</time></trkpt>
      <trkpt lat="29.517271" lon="101.720811"><time>2026-05-04T12:29:40.276Z</time></trkpt>
      <trkpt lat="29.517271" lon="101.720811"><time>2026-05-04T12:29:40.293Z</time></trkpt>
      <trkpt lat="29.517271" lon="101.720811"><time>2026-05-04T12:29:40.310Z</time></trkpt>
      <trkpt lat="29.517271" lon="101.720811"><time>2026-05-04T12:29:40.326Z</time></trkpt>
      <trkpt lat="29.517271" lon="101.720811"><time>2026-05-04T12:29:40.343Z</time></trkpt>
      <trkpt lat="29.517271" lon="101.720811"><time>2026-05-04T12:29:40.360Z</time></trkpt>
      <trkpt lat="29.517272" lon="101.720813"><time>2026-05-04T12:29:40.376Z</time></trkpt>
      <trkpt lat="29.517272" lon="101.720813"><time>2026-05-04T12:29:40.393Z</time></trkpt>
      <trkpt lat="29.517272" lon="101.720813"><time>2026-05-04T12:29:40.410Z</time></trkpt>
      <trkpt lat="29.517272" lon="101.720813"><time>2026-05-04T12:29:40.426Z</time></trkpt>
      <trkpt lat="29.517272" lon="101.720813"><time>2026-05-04T12:29:40.443Z</time></trkpt>
      <trkpt lat="29.517272" lon="101.720813"><time>2026-05-04T12:29:40.460Z</time></trkpt>
      <trkpt lat="29.517273" lon="101.720816"><time>2026-05-04T12:29:40.476Z</time></trkpt>
      <trkpt lat="29.517273" lon="101.720816"><time>2026-05-04T12:29:40.493Z</time></trkpt>
      <trkpt lat="29.517273" lon="101.720816"><time>2026-05-04T12:29:40.510Z</time></trkpt>
      <trkpt lat="29.517273" lon="101.720816"><time>2026-05-04T12:29:40.526Z</time></trkpt>
      <trkpt lat="29.517273" lon="101.720816"><time>2026-05-04T12:29:40.543Z</time></trkpt>
      <trkpt lat="29.517273" lon="101.720816"><time>2026-05-04T12:29:40.560Z</time></trkpt>
      <trkpt lat="29.517275" lon="101.720818"><time>2026-05-04T12:29:40.577Z</time></trkpt>
      <trkpt lat="29.517275" lon="101.720818"><time>2026-05-04T12:29:40.593Z</time></trkpt>
      <trkpt lat="29.517275" lon="101.720818"><time>2026-05-04T12:29:40.610Z</time></trkpt>
      <trkpt lat="29.517275" lon="101.720818"><time>2026-05-04T12:29:40.627Z</time></trkpt>
      <trkpt lat="29.517275" lon="101.720818"><time>2026-05-04T12:29:40.643Z</time></trkpt>
      <trkpt lat="29.517275" lon="101.720818"><time>2026-05-04T12:29:40.660Z</time></trkpt>
      <trkpt lat="29.517276" lon="101.72082"><time>2026-05-04T12:29:40.677Z</time></trkpt>
      <trkpt lat="29.517276" lon="101.72082"><time>2026-05-04T12:29:40.693Z</time></trkpt>
      <trkpt lat="29.517276" lon="101.72082"><time>2026-05-04T12:29:40.710Z</time></trkpt>
      <trkpt lat="29.517276" lon="101.72082"><time>2026-05-04T12:29:40.727Z</time></trkpt>
      <trkpt lat="29.517276" lon="101.72082"><time>2026-05-04T12:29:40.743Z</time></trkpt>
      <trkpt lat="29.517276" lon="101.72082"><time>2026-05-04T12:29:40.760Z</time></trkpt>
      <trkpt lat="29.517277" lon="101.720824"><time>2026-05-04T12:29:40.777Z</time></trkpt>
      <trkpt lat="29.517277" lon="101.720824"><time>2026-05-04T12:29:40.793Z</time></trkpt>
      <trkpt lat="29.517277" lon="101.720824"><time>2026-05-04T12:29:40.810Z</time></trkpt>
      <trkpt lat="29.517277" lon="101.720824"><time>2026-05-04T12:29:40.827Z</time></trkpt>
      <trkpt lat="29.517277" lon="101.720824"><time>2026-05-04T12:29:40.843Z</time></trkpt>
      <trkpt lat="29.517277" lon="101.720824"><time>2026-05-04T12:29:40.860Z</time></trkpt>
      <trkpt lat="29.517279" lon="101.720827"><time>2026-05-04T12:29:40.877Z</time></trkpt>
      <trkpt lat="29.517279" lon="101.720827"><time>2026-05-04T12:29:40.894Z</time></trkpt>
      <trkpt lat="29.517279" lon="101.720827"><time>2026-05-04T12:29:40.910Z</time></trkpt>
      <trkpt lat="29.517279" lon="101.720827"><time>2026-05-04T12:29:40.927Z</time></trkpt>
      <trkpt lat="29.517279" lon="101.720827"><time>2026-05-04T12:29:40.944Z</time></trkpt>
      <trkpt lat="29.517279" lon="101.720827"><time>2026-05-04T12:29:40.960Z</time></trkpt>
      <trkpt lat="29.517281" lon="101.720829"><time>2026-05-04T12:29:40.977Z</time></trkpt>
      <trkpt lat="29.517281" lon="101.720829"><time>2026-05-04T12:29:40.994Z</time></trkpt>
      <trkpt lat="29.517281" lon="101.720829"><time>2026-05-04T12:29:41.010Z</time></trkpt>
      <trkpt lat="29.517281" lon="101.720829"><time>2026-05-04T12:29:41.027Z</time></trkpt>
      <trkpt lat="29.517281" lon="101.720829"><time>2026-05-04T12:29:41.044Z</time></trkpt>
      <trkpt lat="29.517281" lon="101.720829"><time>2026-05-04T12:29:41.060Z</time></trkpt>
      <trkpt lat="29.517283" lon="101.720831"><time>2026-05-04T12:29:41.077Z</time></trkpt>
      <trkpt lat="29.517283" lon="101.720831"><time>2026-05-04T12:29:41.094Z</time></trkpt>
      <trkpt lat="29.517283" lon="101.720831"><time>2026-05-04T12:29:41.110Z</time></trkpt>
      <trkpt lat="29.517283" lon="101.720831"><time>2026-05-04T12:29:41.127Z</time></trkpt>
      <trkpt lat="29.517283" lon="101.720831"><time>2026-05-04T12:29:41.144Z</time></trkpt>
      <trkpt lat="29.517283" lon="101.720831"><time>2026-05-04T12:29:41.160Z</time></trkpt>
      <trkpt lat="29.517286" lon="101.720833"><time>2026-05-04T12:29:41.177Z</time></trkpt>
      <trkpt lat="29.517286" lon="101.720833"><time>2026-05-04T12:29:41.194Z</time></trkpt>
      <trkpt lat="29.517286" lon="101.720833"><time>2026-05-04T12:29:41.211Z</time></trkpt>
      <trkpt lat="29.517286" lon="101.720833"><time>2026-05-04T12:29:41.227Z</time></trkpt>
      <trkpt lat="29.517286" lon="101.720833"><time>2026-05-04T12:29:41.244Z</time></trkpt>
      <trkpt lat="29.517286" lon="101.720833"><time>2026-05-04T12:29:41.261Z</time></trkpt>
      <trkpt lat="29.517288" lon="101.720834"><time>2026-05-04T12:29:41.277Z</time></trkpt>
      <trkpt lat="29.517288" lon="101.720834"><time>2026-05-04T12:29:41.294Z</time></trkpt>
      <trkpt lat="29.517288" lon="101.720834"><time>2026-05-04T12:29:41.311Z</time></trkpt>
      <trkpt lat="29.517288" lon="101.720834"><time>2026-05-04T12:29:41.327Z</time></trkpt>
      <trkpt lat="29.517288" lon="101.720834"><time>2026-05-04T12:29:41.344Z</time></trkpt>
      <trkpt lat="29.517288" lon="101.720834"><time>2026-05-04T12:29:41.361Z</time></trkpt>
      <trkpt lat="29.51729" lon="101.720835"><time>2026-05-04T12:29:41.377Z</time></trkpt>
      <trkpt lat="29.51729" lon="101.720835"><time>2026-05-04T12:29:41.394Z</time></trkpt>
      <trkpt lat="29.51729" lon="101.720835"><time>2026-05-04T12:29:41.411Z</time></trkpt>
      <trkpt lat="29.51729" lon="101.720835"><time>2026-05-04T12:29:41.427Z</time></trkpt>
      <trkpt lat="29.51729" lon="101.720835"><time>2026-05-04T12:29:41.444Z</time></trkpt>
      <trkpt lat="29.51729" lon="101.720835"><time>2026-05-04T12:29:41.461Z</time></trkpt>
      <trkpt lat="29.517293" lon="101.720836"><time>2026-05-04T12:29:41.477Z</time></trkpt>
      <trkpt lat="29.517293" lon="101.720836"><time>2026-05-04T12:29:41.494Z</time></trkpt>
      <trkpt lat="29.517293" lon="101.720836"><time>2026-05-04T12:29:41.511Z</time></trkpt>
      <trkpt lat="29.517293" lon="101.720836"><time>2026-05-04T12:29:41.528Z</time></trkpt>
      <trkpt lat="29.517293" lon="101.720836"><time>2026-05-04T12:29:41.544Z</time></trkpt>
      <trkpt lat="29.517293" lon="101.720836"><time>2026-05-04T12:29:41.561Z</time></trkpt>
      <trkpt lat="29.517295" lon="101.720836"><time>2026-05-04T12:29:41.578Z</time></trkpt>
      <trkpt lat="29.517295" lon="101.720836"><time>2026-05-04T12:29:41.594Z</time></trkpt>
      <trkpt lat="29.517295" lon="101.720836"><time>2026-05-04T12:29:41.611Z</time></trkpt>
      <trkpt lat="29.517295" lon="101.720836"><time>2026-05-04T12:29:41.628Z</time></trkpt>
      <trkpt lat="29.517295" lon="101.720836"><time>2026-05-04T12:29:41.644Z</time></trkpt>
      <trkpt lat="29.517295" lon="101.720836"><time>2026-05-04T12:29:41.661Z</time></trkpt>
      <trkpt lat="29.517298" lon="101.720836"><time>2026-05-04T12:29:41.678Z</time></trkpt>
      <trkpt lat="29.517298" lon="101.720836"><time>2026-05-04T12:29:41.694Z</time></trkpt>
      <trkpt lat="29.517298" lon="101.720836"><time>2026-05-04T12:29:41.711Z</time></trkpt>
      <trkpt lat="29.517298" lon="101.720836"><time>2026-05-04T12:29:41.728Z</time></trkpt>
      <trkpt lat="29.517298" lon="101.720836"><time>2026-05-04T12:29:41.744Z</time></trkpt>
      <trkpt lat="29.517298" lon="101.720836"><time>2026-05-04T12:29:41.761Z</time></trkpt>
      <trkpt lat="29.5173" lon="101.720836"><time>2026-05-04T12:29:41.778Z</time></trkpt>
      <trkpt lat="29.5173" lon="101.720836"><time>2026-05-04T12:29:41.794Z</time></trkpt>
      <trkpt lat="29.5173" lon="101.720836"><time>2026-05-04T12:29:41.811Z</time></trkpt>
      <trkpt lat="29.5173" lon="101.720836"><time>2026-05-04T12:29:41.828Z</time></trkpt>
      <trkpt lat="29.5173" lon="101.720836"><time>2026-05-04T12:29:41.845Z</time></trkpt>
      <trkpt lat="29.5173" lon="101.720836"><time>2026-05-04T12:29:41.861Z</time></trkpt>
      <trkpt lat="29.517302" lon="101.720836"><time>2026-05-04T12:29:41.878Z</time></trkpt>
      <trkpt lat="29.517302" lon="101.720836"><time>2026-05-04T12:29:41.895Z</time></trkpt>
      <trkpt lat="29.517302" lon="101.720836"><time>2026-05-04T12:29:41.911Z</time></trkpt>
      <trkpt lat="29.517302" lon="101.720836"><time>2026-05-04T12:29:41.928Z</time></trkpt>
      <trkpt lat="29.517302" lon="101.720836"><time>2026-05-04T12:29:41.945Z</time></trkpt>
      <trkpt lat="29.517302" lon="101.720836"><time>2026-05-04T12:29:41.961Z</time></trkpt>
      <trkpt lat="29.517304" lon="101.720835"><time>2026-05-04T12:29:41.978Z</time></trkpt>
      <trkpt lat="29.517304" lon="101.720835"><time>2026-05-04T12:29:41.995Z</time></trkpt>
      <trkpt lat="29.517304" lon="101.720835"><time>2026-05-04T12:29:42.011Z</time></trkpt>
      <trkpt lat="29.517304" lon="101.720835"><time>2026-05-04T12:29:42.028Z</time></trkpt>
      <trkpt lat="29.517304" lon="101.720835"><time>2026-05-04T12:29:42.045Z</time></trkpt>
      <trkpt lat="29.517304" lon="101.720835"><time>2026-05-04T12:29:42.061Z</time></trkpt>
      <trkpt lat="29.517306" lon="101.720834"><time>2026-05-04T12:29:42.078Z</time></trkpt>
      <trkpt lat="29.517306" lon="101.720834"><time>2026-05-04T12:29:42.095Z</time></trkpt>
      <trkpt lat="29.517306" lon="101.720834"><time>2026-05-04T12:29:42.111Z</time></trkpt>
      <trkpt lat="29.517306" lon="101.720834"><time>2026-05-04T12:29:42.128Z</time></trkpt>
      <trkpt lat="29.517306" lon="101.720834"><time>2026-05-04T12:29:42.145Z</time></trkpt>
      <trkpt lat="29.517306" lon="101.720834"><time>2026-05-04T12:29:42.162Z</time></trkpt>
      <trkpt lat="29.517307" lon="101.720833"><time>2026-05-04T12:29:42.178Z</time></trkpt>
      <trkpt lat="29.517307" lon="101.720833"><time>2026-05-04T12:29:42.195Z</time></trkpt>
      <trkpt lat="29.517307" lon="101.720833"><time>2026-05-04T12:29:42.212Z</time></trkpt>
      <trkpt lat="29.517307" lon="101.720833"><time>2026-05-04T12:29:42.228Z</time></trkpt>
      <trkpt lat="29.517307" lon="101.720833"><time>2026-05-04T12:29:42.245Z</time></trkpt>
      <trkpt lat="29.517307" lon="101.720833"><time>2026-05-04T12:29:42.262Z</time></trkpt>
      <trkpt lat="29.517309" lon="101.720832"><time>2026-05-04T12:29:42.278Z</time></trkpt>
      <trkpt lat="29.517309" lon="101.720832"><time>2026-05-04T12:29:42.295Z</time></trkpt>
      <trkpt lat="29.517309" lon="101.720832"><time>2026-05-04T12:29:42.312Z</time></trkpt>
      <trkpt lat="29.517309" lon="101.720832"><time>2026-05-04T12:29:42.328Z</time></trkpt>
      <trkpt lat="29.517309" lon="101.720832"><time>2026-05-04T12:29:42.345Z</time></trkpt>
      <trkpt lat="29.517309" lon="101.720832"><time>2026-05-04T12:29:42.362Z</time></trkpt>
      <trkpt lat="29.51731" lon="101.720832"><time>2026-05-04T12:29:42.378Z</time></trkpt>
      <trkpt lat="29.51731" lon="101.720832"><time>2026-05-04T12:29:42.395Z</time></trkpt>
      <trkpt lat="29.51731" lon="101.720832"><time>2026-05-04T12:29:42.412Z</time></trkpt>
      <trkpt lat="29.51731" lon="101.720832"><time>2026-05-04T12:29:42.428Z</time></trkpt>
      <trkpt lat="29.51731" lon="101.720832"><time>2026-05-04T12:29:42.445Z</time></trkpt>
      <trkpt lat="29.51731" lon="101.720832"><time>2026-05-04T12:29:42.462Z</time></trkpt>
      <trkpt lat="29.51731" lon="101.720831"><time>2026-05-04T12:29:42.479Z</time></trkpt>
      <trkpt lat="29.51731" lon="101.720831"><time>2026-05-04T12:29:42.495Z</time></trkpt>
      <trkpt lat="29.51731" lon="101.720831"><time>2026-05-04T12:29:42.512Z</time></trkpt>
      <trkpt lat="29.51731" lon="101.720831"><time>2026-05-04T12:29:42.529Z</time></trkpt>
      <trkpt lat="29.51731" lon="101.720831"><time>2026-05-04T12:29:42.545Z</time></trkpt>
      <trkpt lat="29.51731" lon="101.720831"><time>2026-05-04T12:29:42.562Z</time></trkpt>
      <trkpt lat="29.517311" lon="101.72083"><time>2026-05-04T12:29:42.579Z</time></trkpt>
      <trkpt lat="29.517311" lon="101.72083"><time>2026-05-04T12:29:42.595Z</time></trkpt>
      <trkpt lat="29.517311" lon="101.72083"><time>2026-05-04T12:29:42.612Z</time></trkpt>
      <trkpt lat="29.517311" lon="101.72083"><time>2026-05-04T12:29:42.629Z</time></trkpt>
      <trkpt lat="29.517311" lon="101.72083"><time>2026-05-04T12:29:42.645Z</time></trkpt>
      <trkpt lat="29.517311" lon="101.72083"><time>2026-05-04T12:29:42.662Z</time></trkpt>
      <trkpt lat="29.517311" lon="101.720829"><time>2026-05-04T12:29:42.679Z</time></trkpt>
      <trkpt lat="29.517311" lon="101.720829"><time>2026-05-04T12:29:42.695Z</time></trkpt>
      <trkpt lat="29.517311" lon="101.720829"><time>2026-05-04T12:29:42.712Z</time></trkpt>
      <trkpt lat="29.517311" lon="101.720829"><time>2026-05-04T12:29:42.729Z</time></trkpt>
      <trkpt lat="29.517311" lon="101.720829"><time>2026-05-04T12:29:42.745Z</time></trkpt>
      <trkpt lat="29.517311" lon="101.720829"><time>2026-05-04T12:29:42.762Z</time></trkpt>
      <trkpt lat="29.517311" lon="101.720829"><time>2026-05-04T12:29:42.779Z</time></trkpt>
      <trkpt lat="29.517311" lon="101.720829"><time>2026-05-04T12:29:42.796Z</time></trkpt>
      <trkpt lat="29.517311" lon="101.720829"><time>2026-05-04T12:29:42.812Z</time></trkpt>
      <trkpt lat="29.517311" lon="101.720829"><time>2026-05-04T12:29:42.829Z</time></trkpt>
      <trkpt lat="29.517311" lon="101.720829"><time>2026-05-04T12:29:42.846Z</time></trkpt>
      <trkpt lat="29.517311" lon="101.720829"><time>2026-05-04T12:29:42.862Z</time></trkpt>
      <trkpt lat="29.517311" lon="101.720828"><time>2026-05-04T12:29:42.879Z</time></trkpt>
      <trkpt lat="29.517311" lon="101.720828"><time>2026-05-04T12:29:42.896Z</time></trkpt>
      <trkpt lat="29.517311" lon="101.720828"><time>2026-05-04T12:29:42.912Z</time></trkpt>
      <trkpt lat="29.517311" lon="101.720828"><time>2026-05-04T12:29:42.929Z</time></trkpt>
      <trkpt lat="29.517311" lon="101.720828"><time>2026-05-04T12:29:42.946Z</time></trkpt>
      <trkpt lat="29.517311" lon="101.720828"><time>2026-05-04T12:29:42.962Z</time></trkpt>
      <trkpt lat="29.51731" lon="101.720828"><time>2026-05-04T12:29:42.979Z</time></trkpt>
      <trkpt lat="29.51731" lon="101.720828"><time>2026-05-04T12:29:42.996Z</time></trkpt>
      <trkpt lat="29.51731" lon="101.720828"><time>2026-05-04T12:29:43.012Z</time></trkpt>
      <trkpt lat="29.51731" lon="101.720828"><time>2026-05-04T12:29:43.029Z</time></trkpt>
      <trkpt lat="29.51731" lon="101.720828"><time>2026-05-04T12:29:43.046Z</time></trkpt>
      <trkpt lat="29.51731" lon="101.720828"><time>2026-05-04T12:29:43.062Z</time></trkpt>
      <trkpt lat="29.51731" lon="101.720827"><time>2026-05-04T12:29:43.079Z</time></trkpt>
      <trkpt lat="29.51731" lon="101.720827"><time>2026-05-04T12:29:43.096Z</time></trkpt>
      <trkpt lat="29.51731" lon="101.720827"><time>2026-05-04T12:29:43.113Z</time></trkpt>
      <trkpt lat="29.51731" lon="101.720827"><time>2026-05-04T12:29:43.129Z</time></trkpt>
      <trkpt lat="29.51731" lon="101.720827"><time>2026-05-04T12:29:43.146Z</time></trkpt>
      <trkpt lat="29.51731" lon="101.720827"><time>2026-05-04T12:29:43.163Z</time></trkpt>
      <trkpt lat="29.51731" lon="101.720827"><time>2026-05-04T12:29:43.179Z</time></trkpt>
      <trkpt lat="29.51731" lon="101.720827"><time>2026-05-04T12:29:43.196Z</time></trkpt>
      <trkpt lat="29.51731" lon="101.720827"><time>2026-05-04T12:29:43.213Z</time></trkpt>
      <trkpt lat="29.51731" lon="101.720827"><time>2026-05-04T12:29:43.229Z</time></trkpt>
      <trkpt lat="29.51731" lon="101.720827"><time>2026-05-04T12:29:43.246Z</time></trkpt>
      <trkpt lat="29.51731" lon="101.720827"><time>2026-05-04T12:29:43.263Z</time></trkpt>
      <trkpt lat="29.51731" lon="101.720826"><time>2026-05-04T12:29:43.279Z</time></trkpt>
      <trkpt lat="29.51731" lon="101.720826"><time>2026-05-04T12:29:43.296Z</time></trkpt>
      <trkpt lat="29.51731" lon="101.720826"><time>2026-05-04T12:29:43.313Z</time></trkpt>
      <trkpt lat="29.51731" lon="101.720826"><time>2026-05-04T12:29:43.329Z</time></trkpt>
      <trkpt lat="29.51731" lon="101.720826"><time>2026-05-04T12:29:43.346Z</time></trkpt>
      <trkpt lat="29.51731" lon="101.720826"><time>2026-05-04T12:29:43.363Z</time></trkpt>
      <trkpt lat="29.51731" lon="101.720826"><time>2026-05-04T12:29:43.379Z</time></trkpt>
      <trkpt lat="29.51731" lon="101.720826"><time>2026-05-04T12:29:43.396Z</time></trkpt>
      <trkpt lat="29.51731" lon="101.720826"><time>2026-05-04T12:29:43.413Z</time></trkpt>
      <trkpt lat="29.51731" lon="101.720826"><time>2026-05-04T12:29:43.430Z</time></trkpt>
      <trkpt lat="29.51731" lon="101.720826"><time>2026-05-04T12:29:43.446Z</time></trkpt>
      <trkpt lat="29.51731" lon="101.720826"><time>2026-05-04T12:29:43.463Z</time></trkpt>
      <trkpt lat="29.517311" lon="101.720825"><time>2026-05-04T12:29:43.480Z</time></trkpt>
      <trkpt lat="29.517311" lon="101.720825"><time>2026-05-04T12:29:43.496Z</time></trkpt>
      <trkpt lat="29.517311" lon="101.720825"><time>2026-05-04T12:29:43.513Z</time></trkpt>
      <trkpt lat="29.517311" lon="101.720825"><time>2026-05-04T12:29:43.530Z</time></trkpt>
      <trkpt lat="29.517311" lon="101.720825"><time>2026-05-04T12:29:43.546Z</time></trkpt>
      <trkpt lat="29.517311" lon="101.720825"><time>2026-05-04T12:29:43.563Z</time></trkpt>
      <trkpt lat="29.517311" lon="101.720825"><time>2026-05-04T12:29:43.580Z</time></trkpt>
      <trkpt lat="29.517311" lon="101.720825"><time>2026-05-04T12:29:43.596Z</time></trkpt>
      <trkpt lat="29.517311" lon="101.720825"><time>2026-05-04T12:29:43.613Z</time></trkpt>
      <trkpt lat="29.517311" lon="101.720825"><time>2026-05-04T12:29:43.630Z</time></trkpt>
      <trkpt lat="29.517311" lon="101.720825"><time>2026-05-04T12:29:43.646Z</time></trkpt>
      <trkpt lat="29.517311" lon="101.720825"><time>2026-05-04T12:29:43.663Z</time></trkpt>
      <trkpt lat="29.517311" lon="101.720824"><time>2026-05-04T12:29:43.680Z</time></trkpt>
      <trkpt lat="29.517311" lon="101.720824"><time>2026-05-04T12:29:43.696Z</time></trkpt>
      <trkpt lat="29.517311" lon="101.720824"><time>2026-05-04T12:29:43.713Z</time></trkpt>
      <trkpt lat="29.517311" lon="101.720824"><time>2026-05-04T12:29:43.730Z</time></trkpt>
      <trkpt lat="29.517311" lon="101.720824"><time>2026-05-04T12:29:43.747Z</time></trkpt>
      <trkpt lat="29.517311" lon="101.720824"><time>2026-05-04T12:29:43.763Z</time></trkpt>
      <trkpt lat="29.517311" lon="101.720824"><time>2026-05-04T12:29:43.780Z</time></trkpt>
      <trkpt lat="29.517311" lon="101.720824"><time>2026-05-04T12:29:43.797Z</time></trkpt>
      <trkpt lat="29.517311" lon="101.720824"><time>2026-05-04T12:29:43.813Z</time></trkpt>
      <trkpt lat="29.517311" lon="101.720824"><time>2026-05-04T12:29:43.830Z</time></trkpt>
      <trkpt lat="29.517311" lon="101.720824"><time>2026-05-04T12:29:43.847Z</time></trkpt>
      <trkpt lat="29.517311" lon="101.720824"><time>2026-05-04T12:29:43.863Z</time></trkpt>
      <trkpt lat="29.517311" lon="101.720824"><time>2026-05-04T12:29:43.880Z</time></trkpt>
      <trkpt lat="29.517311" lon="101.720824"><time>2026-05-04T12:29:43.897Z</time></trkpt>
      <trkpt lat="29.517311" lon="101.720824"><time>2026-05-04T12:29:43.913Z</time></trkpt>
      <trkpt lat="29.517311" lon="101.720824"><time>2026-05-04T12:29:43.930Z</time></trkpt>
      <trkpt lat="29.517311" lon="101.720824"><time>2026-05-04T12:29:43.947Z</time></trkpt>
      <trkpt lat="29.517311" lon="101.720824"><time>2026-05-04T12:29:43.963Z</time></trkpt>
      <trkpt lat="29.517311" lon="101.720825"><time>2026-05-04T12:29:43.980Z</time></trkpt>
      <trkpt lat="29.517311" lon="101.720825"><time>2026-05-04T12:29:43.997Z</time></trkpt>
      <trkpt lat="29.517311" lon="101.720825"><time>2026-05-04T12:29:44.013Z</time></trkpt>
      <trkpt lat="29.517311" lon="101.720825"><time>2026-05-04T12:29:44.030Z</time></trkpt>
      <trkpt lat="29.517311" lon="101.720825"><time>2026-05-04T12:29:44.047Z</time></trkpt>
      <trkpt lat="29.517311" lon="101.720825"><time>2026-05-04T12:29:44.064Z</time></trkpt>
      <trkpt lat="29.517312" lon="101.720826"><time>2026-05-04T12:29:44.080Z</time></trkpt>
      <trkpt lat="29.517312" lon="101.720826"><time>2026-05-04T12:29:44.097Z</time></trkpt>
      <trkpt lat="29.517312" lon="101.720826"><time>2026-05-04T12:29:44.114Z</time></trkpt>
      <trkpt lat="29.517312" lon="101.720826"><time>2026-05-04T12:29:44.130Z</time></trkpt>
      <trkpt lat="29.517312" lon="101.720826"><time>2026-05-04T12:29:44.147Z</time></trkpt>
      <trkpt lat="29.517312" lon="101.720826"><time>2026-05-04T12:29:44.164Z</time></trkpt>
      <trkpt lat="29.517312" lon="101.720826"><time>2026-05-04T12:29:44.180Z</time></trkpt>
      <trkpt lat="29.517312" lon="101.720826"><time>2026-05-04T12:29:44.197Z</time></trkpt>
      <trkpt lat="29.517312" lon="101.720826"><time>2026-05-04T12:29:44.214Z</time></trkpt>
      <trkpt lat="29.517312" lon="101.720826"><time>2026-05-04T12:29:44.230Z</time></trkpt>
      <trkpt lat="29.517312" lon="101.720826"><time>2026-05-04T12:29:44.247Z</time></trkpt>
      <trkpt lat="29.517312" lon="101.720826"><time>2026-05-04T12:29:44.264Z</time></trkpt>
      <trkpt lat="29.517312" lon="101.720828"><time>2026-05-04T12:29:44.280Z</time></trkpt>
      <trkpt lat="29.517312" lon="101.720828"><time>2026-05-04T12:29:44.297Z</time></trkpt>
      <trkpt lat="29.517312" lon="101.720828"><time>2026-05-04T12:29:44.314Z</time></trkpt>
      <trkpt lat="29.517312" lon="101.720828"><time>2026-05-04T12:29:44.330Z</time></trkpt>
      <trkpt lat="29.517312" lon="101.720828"><time>2026-05-04T12:29:44.347Z</time></trkpt>
      <trkpt lat="29.517312" lon="101.720828"><time>2026-05-04T12:29:44.364Z</time></trkpt>
      <trkpt lat="29.517313" lon="101.720829"><time>2026-05-04T12:29:44.381Z</time></trkpt>
      <trkpt lat="29.517313" lon="101.720829"><time>2026-05-04T12:29:44.397Z</time></trkpt>
      <trkpt lat="29.517313" lon="101.720829"><time>2026-05-04T12:29:44.414Z</time></trkpt>
      <trkpt lat="29.517313" lon="101.720829"><time>2026-05-04T12:29:44.431Z</time></trkpt>
      <trkpt lat="29.517313" lon="101.720829"><time>2026-05-04T12:29:44.447Z</time></trkpt>
      <trkpt lat="29.517313" lon="101.720829"><time>2026-05-04T12:29:44.464Z</time></trkpt>
      <trkpt lat="29.517314" lon="101.720831"><time>2026-05-04T12:29:44.481Z</time></trkpt>
      <trkpt lat="29.517314" lon="101.720831"><time>2026-05-04T12:29:44.497Z</time></trkpt>
      <trkpt lat="29.517314" lon="101.720831"><time>2026-05-04T12:29:44.514Z</time></trkpt>
      <trkpt lat="29.517314" lon="101.720831"><time>2026-05-04T12:29:44.531Z</time></trkpt>
      <trkpt lat="29.517314" lon="101.720831"><time>2026-05-04T12:29:44.547Z</time></trkpt>
      <trkpt lat="29.517314" lon="101.720831"><time>2026-05-04T12:29:44.564Z</time></trkpt>
      <trkpt lat="29.517314" lon="101.720832"><time>2026-05-04T12:29:44.581Z</time></trkpt>
      <trkpt lat="29.517314" lon="101.720832"><time>2026-05-04T12:29:44.597Z</time></trkpt>
      <trkpt lat="29.517314" lon="101.720832"><time>2026-05-04T12:29:44.614Z</time></trkpt>
      <trkpt lat="29.517314" lon="101.720832"><time>2026-05-04T12:29:44.631Z</time></trkpt>
      <trkpt lat="29.517314" lon="101.720832"><time>2026-05-04T12:29:44.647Z</time></trkpt>
      <trkpt lat="29.517314" lon="101.720832"><time>2026-05-04T12:29:44.664Z</time></trkpt>
      <trkpt lat="29.517315" lon="101.720834"><time>2026-05-04T12:29:44.681Z</time></trkpt>
      <trkpt lat="29.517315" lon="101.720834"><time>2026-05-04T12:29:44.698Z</time></trkpt>
      <trkpt lat="29.517315" lon="101.720834"><time>2026-05-04T12:29:44.714Z</time></trkpt>
      <trkpt lat="29.517315" lon="101.720834"><time>2026-05-04T12:29:44.731Z</time></trkpt>
      <trkpt lat="29.517315" lon="101.720834"><time>2026-05-04T12:29:44.748Z</time></trkpt>
      <trkpt lat="29.517315" lon="101.720834"><time>2026-05-04T12:29:44.764Z</time></trkpt>
      <trkpt lat="29.517316" lon="101.720836"><time>2026-05-04T12:29:44.781Z</time></trkpt>
      <trkpt lat="29.517316" lon="101.720836"><time>2026-05-04T12:29:44.798Z</time></trkpt>
      <trkpt lat="29.517316" lon="101.720836"><time>2026-05-04T12:29:44.814Z</time></trkpt>
      <trkpt lat="29.517316" lon="101.720836"><time>2026-05-04T12:29:44.831Z</time></trkpt>
      <trkpt lat="29.517316" lon="101.720836"><time>2026-05-04T12:29:44.848Z</time></trkpt>
      <trkpt lat="29.517316" lon="101.720836"><time>2026-05-04T12:29:44.864Z</time></trkpt>
      <trkpt lat="29.517318" lon="101.720837"><time>2026-05-04T12:29:44.881Z</time></trkpt>
      <trkpt lat="29.517318" lon="101.720837"><time>2026-05-04T12:29:44.898Z</time></trkpt>
      <trkpt lat="29.517318" lon="101.720837"><time>2026-05-04T12:29:44.914Z</time></trkpt>
      <trkpt lat="29.517318" lon="101.720837"><time>2026-05-04T12:29:44.931Z</time></trkpt>
      <trkpt lat="29.517318" lon="101.720837"><time>2026-05-04T12:29:44.948Z</time></trkpt>
      <trkpt lat="29.517318" lon="101.720837"><time>2026-05-04T12:29:44.964Z</time></trkpt>
      <trkpt lat="29.517319" lon="101.720838"><time>2026-05-04T12:29:44.981Z</time></trkpt>
      <trkpt lat="29.517319" lon="101.720838"><time>2026-05-04T12:29:44.998Z</time></trkpt>
      <trkpt lat="29.517319" lon="101.720838"><time>2026-05-04T12:29:45.014Z</time></trkpt>
      <trkpt lat="29.517319" lon="101.720838"><time>2026-05-04T12:29:45.031Z</time></trkpt>
      <trkpt lat="29.517319" lon="101.720838"><time>2026-05-04T12:29:45.048Z</time></trkpt>
      <trkpt lat="29.517319" lon="101.720838"><time>2026-05-04T12:29:45.065Z</time></trkpt>
      <trkpt lat="29.517321" lon="101.72084"><time>2026-05-04T12:29:45.081Z</time></trkpt>
      <trkpt lat="29.517321" lon="101.72084"><time>2026-05-04T12:29:45.098Z</time></trkpt>
      <trkpt lat="29.517321" lon="101.72084"><time>2026-05-04T12:29:45.115Z</time></trkpt>
      <trkpt lat="29.517321" lon="101.72084"><time>2026-05-04T12:29:45.131Z</time></trkpt>
      <trkpt lat="29.517321" lon="101.72084"><time>2026-05-04T12:29:45.148Z</time></trkpt>
      <trkpt lat="29.517321" lon="101.72084"><time>2026-05-04T12:29:45.165Z</time></trkpt>
      <trkpt lat="29.517323" lon="101.72084"><time>2026-05-04T12:29:45.181Z</time></trkpt>
      <trkpt lat="29.517323" lon="101.72084"><time>2026-05-04T12:29:45.198Z</time></trkpt>
      <trkpt lat="29.517323" lon="101.72084"><time>2026-05-04T12:29:45.215Z</time></trkpt>
      <trkpt lat="29.517323" lon="101.72084"><time>2026-05-04T12:29:45.231Z</time></trkpt>
      <trkpt lat="29.517323" lon="101.72084"><time>2026-05-04T12:29:45.248Z</time></trkpt>
      <trkpt lat="29.517323" lon="101.72084"><time>2026-05-04T12:29:45.265Z</time></trkpt>
      <trkpt lat="29.517325" lon="101.720841"><time>2026-05-04T12:29:45.281Z</time></trkpt>
      <trkpt lat="29.517325" lon="101.720841"><time>2026-05-04T12:29:45.298Z</time></trkpt>
      <trkpt lat="29.517325" lon="101.720841"><time>2026-05-04T12:29:45.315Z</time></trkpt>
      <trkpt lat="29.517325" lon="101.720841"><time>2026-05-04T12:29:45.331Z</time></trkpt>
      <trkpt lat="29.517325" lon="101.720841"><time>2026-05-04T12:29:45.348Z</time></trkpt>
      <trkpt lat="29.517325" lon="101.720841"><time>2026-05-04T12:29:45.365Z</time></trkpt>
      <trkpt lat="29.517328" lon="101.720842"><time>2026-05-04T12:29:45.382Z</time></trkpt>
      <trkpt lat="29.517328" lon="101.720842"><time>2026-05-04T12:29:45.398Z</time></trkpt>
      <trkpt lat="29.517328" lon="101.720842"><time>2026-05-04T12:29:45.415Z</time></trkpt>
      <trkpt lat="29.517328" lon="101.720842"><time>2026-05-04T12:29:45.432Z</time></trkpt>
      <trkpt lat="29.517328" lon="101.720842"><time>2026-05-04T12:29:45.448Z</time></trkpt>
      <trkpt lat="29.517328" lon="101.720842"><time>2026-05-04T12:29:45.465Z</time></trkpt>
      <trkpt lat="29.51733" lon="101.720842"><time>2026-05-04T12:29:45.482Z</time></trkpt>
      <trkpt lat="29.51733" lon="101.720842"><time>2026-05-04T12:29:45.498Z</time></trkpt>
      <trkpt lat="29.51733" lon="101.720842"><time>2026-05-04T12:29:45.515Z</time></trkpt>
      <trkpt lat="29.51733" lon="101.720842"><time>2026-05-04T12:29:45.532Z</time></trkpt>
      <trkpt lat="29.51733" lon="101.720842"><time>2026-05-04T12:29:45.548Z</time></trkpt>
      <trkpt lat="29.51733" lon="101.720842"><time>2026-05-04T12:29:45.565Z</time></trkpt>
      <trkpt lat="29.517333" lon="101.720843"><time>2026-05-04T12:29:45.582Z</time></trkpt>
      <trkpt lat="29.517333" lon="101.720843"><time>2026-05-04T12:29:45.598Z</time></trkpt>
      <trkpt lat="29.517333" lon="101.720843"><time>2026-05-04T12:29:45.615Z</time></trkpt>
      <trkpt lat="29.517333" lon="101.720843"><time>2026-05-04T12:29:45.632Z</time></trkpt>
      <trkpt lat="29.517333" lon="101.720843"><time>2026-05-04T12:29:45.648Z</time></trkpt>
      <trkpt lat="29.517333" lon="101.720843"><time>2026-05-04T12:29:45.665Z</time></trkpt>
      <trkpt lat="29.517335" lon="101.720843"><time>2026-05-04T12:29:45.682Z</time></trkpt>
      <trkpt lat="29.517335" lon="101.720843"><time>2026-05-04T12:29:45.699Z</time></trkpt>
      <trkpt lat="29.517335" lon="101.720843"><time>2026-05-04T12:29:45.715Z</time></trkpt>
      <trkpt lat="29.517335" lon="101.720843"><time>2026-05-04T12:29:45.732Z</time></trkpt>
      <trkpt lat="29.517335" lon="101.720843"><time>2026-05-04T12:29:45.749Z</time></trkpt>
      <trkpt lat="29.517335" lon="101.720843"><time>2026-05-04T12:29:45.765Z</time></trkpt>
      <trkpt lat="29.517338" lon="101.720843"><time>2026-05-04T12:29:45.782Z</time></trkpt>
      <trkpt lat="29.517338" lon="101.720843"><time>2026-05-04T12:29:45.799Z</time></trkpt>
      <trkpt lat="29.517338" lon="101.720843"><time>2026-05-04T12:29:45.815Z</time></trkpt>
      <trkpt lat="29.517338" lon="101.720843"><time>2026-05-04T12:29:45.832Z</time></trkpt>
      <trkpt lat="29.517338" lon="101.720843"><time>2026-05-04T12:29:45.849Z</time></trkpt>
      <trkpt lat="29.517338" lon="101.720843"><time>2026-05-04T12:29:45.865Z</time></trkpt>
      <trkpt lat="29.517341" lon="101.720844"><time>2026-05-04T12:29:45.882Z</time></trkpt>
      <trkpt lat="29.517341" lon="101.720844"><time>2026-05-04T12:29:45.899Z</time></trkpt>
      <trkpt lat="29.517341" lon="101.720844"><time>2026-05-04T12:29:45.915Z</time></trkpt>
      <trkpt lat="29.517341" lon="101.720844"><time>2026-05-04T12:29:45.932Z</time></trkpt>
      <trkpt lat="29.517341" lon="101.720844"><time>2026-05-04T12:29:45.949Z</time></trkpt>
      <trkpt lat="29.517341" lon="101.720844"><time>2026-05-04T12:29:45.965Z</time></trkpt>
      <trkpt lat="29.517344" lon="101.720844"><time>2026-05-04T12:29:45.982Z</time></trkpt>
      <trkpt lat="29.517344" lon="101.720844"><time>2026-05-04T12:29:45.999Z</time></trkpt>
      <trkpt lat="29.517344" lon="101.720844"><time>2026-05-04T12:29:46.016Z</time></trkpt>
      <trkpt lat="29.517344" lon="101.720844"><time>2026-05-04T12:29:46.032Z</time></trkpt>
      <trkpt lat="29.517344" lon="101.720844"><time>2026-05-04T12:29:46.049Z</time></trkpt>
    </trkseg>
  </trk>
</gpx>
