<?xml version="1.0" encoding="UTF-8"?>
<gpx version="1.1" creator="Kairos" xmlns="http://www.topografix.com/GPX/1/1">
  <trk>
    <name>sidecar-srt-604371e4deb3d59f</name>
    <trkseg>
      <trkpt lat="28.014465" lon="98.630613"><time>2026-04-28T23:06:02.000Z</time></trkpt>
      <trkpt lat="28.014465" lon="98.630613"><time>2026-04-28T23:06:02.016Z</time></trkpt>
      <trkpt lat="28.014465" lon="98.630613"><time>2026-04-28T23:06:02.032Z</time></trkpt>
      <trkpt lat="28.014465" lon="98.630613"><time>2026-04-28T23:06:02.049Z</time></trkpt>
      <trkpt lat="28.014465" lon="98.630613"><time>2026-04-28T23:06:02.066Z</time></trkpt>
      <trkpt lat="28.014465" lon="98.630613"><time>2026-04-28T23:06:02.082Z</time></trkpt>
      <trkpt lat="28.014465" lon="98.630613"><time>2026-04-28T23:06:02.099Z</time></trkpt>
      <trkpt lat="28.014465" lon="98.630613"><time>2026-04-28T23:06:02.116Z</time></trkpt>
      <trkpt lat="28.014465" lon="98.630613"><time>2026-04-28T23:06:02.132Z</time></trkpt>
      <trkpt lat="28.014465" lon="98.630613"><time>2026-04-28T23:06:02.149Z</time></trkpt>
      <trkpt lat="28.014465" lon="98.630613"><time>2026-04-28T23:06:02.166Z</time></trkpt>
      <trkpt lat="28.014465" lon="98.630613"><time>2026-04-28T23:06:02.182Z</time></trkpt>
      <trkpt lat="28.014465" lon="98.630613"><time>2026-04-28T23:06:02.199Z</time></trkpt>
      <trkpt lat="28.014465" lon="98.630613"><time>2026-04-28T23:06:02.216Z</time></trkpt>
      <trkpt lat="28.014465" lon="98.630613"><time>2026-04-28T23:06:02.232Z</time></trkpt>
      <trkpt lat="28.014465" lon="98.630613"><time>2026-04-28T23:06:02.249Z</time></trkpt>
      <trkpt lat="28.014465" lon="98.630613"><time>2026-04-28T23:06:02.266Z</time></trkpt>
      <trkpt lat="28.014465" lon="98.630613"><time>2026-04-28T23:06:02.282Z</time></trkpt>
      <trkpt lat="28.014465" lon="98.630613"><time>2026-04-28T23:06:02.299Z</time></trkpt>
      <trkpt lat="28.014465" lon="98.630613"><time>2026-04-28T23:06:02.316Z</time></trkpt>
      <trkpt lat="28.014465" lon="98.630613"><time>2026-04-28T23:06:02.333Z</time></trkpt>
      <trkpt lat="28.014465" lon="98.630613"><time>2026-04-28T23:06:02.349Z</time></trkpt>
      <trkpt lat="28.014465" lon="98.630613"><time>2026-04-28T23:06:02.366Z</time></trkpt>
      <trkpt lat="28.014465" lon="98.630613"><time>2026-04-28T23:06:02.383Z</time></trkpt>
      <trkpt lat="28.014465" lon="98.630613"><time>2026-04-28T23:06:02.399Z</time></trkpt>
      <trkpt lat="28.014465" lon="98.630613"><time>2026-04-28T23:06:02.416Z</time></trkpt>
      <trkpt lat="28.014465" lon="98.630613"><time>2026-04-28T23:06:02.433Z</time></trkpt>
      <trkpt lat="28.014465" lon="98.630613"><time>2026-04-28T23:06:02.449Z</time></trkpt>
      <trkpt lat="28.014465" lon="98.630613"><time>2026-04-28T23:06:02.466Z</time></trkpt>
      <trkpt lat="28.014465" lon="98.630613"><time>2026-04-28T23:06:02.483Z</time></trkpt>
      <trkpt lat="28.014465" lon="98.630613"><time>2026-04-28T23:06:02.499Z</time></trkpt>
      <trkpt lat="28.014465" lon="98.630613"><time>2026-04-28T23:06:02.516Z</time></trkpt>
      <trkpt lat="28.014465" lon="98.630613"><time>2026-04-28T23:06:02.533Z</time></trkpt>
      <trkpt lat="28.014465" lon="98.630613"><time>2026-04-28T23:06:02.549Z</time></trkpt>
      <trkpt lat="28.014465" lon="98.630613"><time>2026-04-28T23:06:02.566Z</time></trkpt>
      <trkpt lat="28.014465" lon="98.630613"><time>2026-04-28T23:06:02.583Z</time></trkpt>
      <trkpt lat="28.014465" lon="98.630614"><time>2026-04-28T23:06:02.599Z</time></trkpt>
      <trkpt lat="28.014465" lon="98.630614"><time>2026-04-28T23:06:02.616Z</time></trkpt>
      <trkpt lat="28.014465" lon="98.630614"><time>2026-04-28T23:06:02.633Z</time></trkpt>
      <trkpt lat="28.014465" lon="98.630614"><time>2026-04-28T23:06:02.650Z</time></trkpt>
      <trkpt lat="28.014465" lon="98.630614"><time>2026-04-28T23:06:02.666Z</time></trkpt>
      <trkpt lat="28.014465" lon="98.630614"><time>2026-04-28T23:06:02.683Z</time></trkpt>
      <trkpt lat="28.014465" lon="98.630614"><time>2026-04-28T23:06:02.700Z</time></trkpt>
      <trkpt lat="28.014465" lon="98.630614"><time>2026-04-28T23:06:02.716Z</time></trkpt>
      <trkpt lat="28.014465" lon="98.630614"><time>2026-04-28T23:06:02.733Z</time></trkpt>
      <trkpt lat="28.014465" lon="98.630614"><time>2026-04-28T23:06:02.750Z</time></trkpt>
      <trkpt lat="28.014465" lon="98.630614"><time>2026-04-28T23:06:02.766Z</time></trkpt>
      <trkpt lat="28.014465" lon="98.630614"><time>2026-04-28T23:06:02.783Z</time></trkpt>
      <trkpt lat="28.014465" lon="98.630614"><time>2026-04-28T23:06:02.800Z</time></trkpt>
      <trkpt lat="28.014465" lon="98.630614"><time>2026-04-28T23:06:02.816Z</time></trkpt>
      <trkpt lat="28.014465" lon="98.630614"><time>2026-04-28T23:06:02.833Z</time></trkpt>
      <trkpt lat="28.014465" lon="98.630614"><time>2026-04-28T23:06:02.850Z</time></trkpt>
      <trkpt lat="28.014465" lon="98.630614"><time>2026-04-28T23:06:02.866Z</time></trkpt>
      <trkpt lat="28.014465" lon="98.630614"><time>2026-04-28T23:06:02.883Z</time></trkpt>
      <trkpt lat="28.014465" lon="98.630613"><time>2026-04-28T23:06:02.900Z</time></trkpt>
      <trkpt lat="28.014465" lon="98.630613"><time>2026-04-28T23:06:02.916Z</time></trkpt>
      <trkpt lat="28.014465" lon="98.630613"><time>2026-04-28T23:06:02.933Z</time></trkpt>
      <trkpt lat="28.014465" lon="98.630613"><time>2026-04-28T23:06:02.950Z</time></trkpt>
      <trkpt lat="28.014465" lon="98.630613"><time>2026-04-28T23:06:02.966Z</time></trkpt>
      <trkpt lat="28.014465" lon="98.630613"><time>2026-04-28T23:06:02.983Z</time></trkpt>
      <trkpt lat="28.014465" lon="98.630613"><time>2026-04-28T23:06:03.000Z</time></trkpt>
      <trkpt lat="28.014465" lon="98.630613"><time>2026-04-28T23:06:03.017Z</time></trkpt>
      <trkpt lat="28.014465" lon="98.630613"><time>2026-04-28T23:06:03.033Z</time></trkpt>
      <trkpt lat="28.014465" lon="98.630613"><time>2026-04-28T23:06:03.050Z</time></trkpt>
      <trkpt lat="28.014465" lon="98.630613"><time>2026-04-28T23:06:03.067Z</time></trkpt>
      <trkpt lat="28.014465" lon="98.630613"><time>2026-04-28T23:06:03.083Z</time></trkpt>
      <trkpt lat="28.014465" lon="98.630613"><time>2026-04-28T23:06:03.100Z</time></trkpt>
      <trkpt lat="28.014465" lon="98.630613"><time>2026-04-28T23:06:03.117Z</time></trkpt>
      <trkpt lat="28.014465" lon="98.630613"><time>2026-04-28T23:06:03.133Z</time></trkpt>
      <trkpt lat="28.014465" lon="98.630613"><time>2026-04-28T23:06:03.150Z</time></trkpt>
      <trkpt lat="28.014465" lon="98.630613"><time>2026-04-28T23:06:03.167Z</time></trkpt>
      <trkpt lat="28.014465" lon="98.630613"><time>2026-04-28T23:06:03.183Z</time></trkpt>
      <trkpt lat="28.014466" lon="98.630613"><time>2026-04-28T23:06:03.200Z</time></trkpt>
      <trkpt lat="28.014466" lon="98.630613"><time>2026-04-28T23:06:03.217Z</time></trkpt>
      <trkpt lat="28.014466" lon="98.630613"><time>2026-04-28T23:06:03.233Z</time></trkpt>
      <trkpt lat="28.014466" lon="98.630613"><time>2026-04-28T23:06:03.250Z</time></trkpt>
      <trkpt lat="28.014466" lon="98.630613"><time>2026-04-28T23:06:03.267Z</time></trkpt>
      <trkpt lat="28.014466" lon="98.630613"><time>2026-04-28T23:06:03.283Z</time></trkpt>
      <trkpt lat="28.014466" lon="98.630612"><time>2026-04-28T23:06:03.300Z</time></trkpt>
      <trkpt lat="28.014466" lon="98.630612"><time>2026-04-28T23:06:03.317Z</time></trkpt>
      <trkpt lat="28.014466" lon="98.630612"><time>2026-04-28T23:06:03.334Z</time></trkpt>
      <trkpt lat="28.014466" lon="98.630612"><time>2026-04-28T23:06:03.350Z</time></trkpt>
      <trkpt lat="28.014466" lon="98.630612"><time>2026-04-28T23:06:03.367Z</time></trkpt>
      <trkpt lat="28.014466" lon="98.630612"><time>2026-04-28T23:06:03.384Z</time></trkpt>
      <trkpt lat="28.014466" lon="98.630611"><time>2026-04-28T23:06:03.400Z</time></trkpt>
      <trkpt lat="28.014466" lon="98.630611"><time>2026-04-28T23:06:03.417Z</time></trkpt>
      <trkpt lat="28.014466" lon="98.630611"><time>2026-04-28T23:06:03.434Z</time></trkpt>
      <trkpt lat="28.014466" lon="98.630611"><time>2026-04-28T23:06:03.450Z</time></trkpt>
      <trkpt lat="28.014466" lon="98.630611"><time>2026-04-28T23:06:03.467Z</time></trkpt>
      <trkpt lat="28.014466" lon="98.630611"><time>2026-04-28T23:06:03.484Z</time></trkpt>
      <trkpt lat="28.014467" lon="98.63061"><time>2026-04-28T23:06:03.500Z</time></trkpt>
      <trkpt lat="28.014467" lon="98.63061"><time>2026-04-28T23:06:03.517Z</time></trkpt>
      <trkpt lat="28.014467" lon="98.63061"><time>2026-04-28T23:06:03.534Z</time></trkpt>
      <trkpt lat="28.014467" lon="98.63061"><time>2026-04-28T23:06:03.550Z</time></trkpt>
      <trkpt lat="28.014467" lon="98.63061"><time>2026-04-28T23:06:03.567Z</time></trkpt>
      <trkpt lat="28.014467" lon="98.63061"><time>2026-04-28T23:06:03.584Z</time></trkpt>
      <trkpt lat="28.014468" lon="98.630609"><time>2026-04-28T23:06:03.600Z</time></trkpt>
      <trkpt lat="28.014468" lon="98.630609"><time>2026-04-28T23:06:03.617Z</time></trkpt>
      <trkpt lat="28.014468" lon="98.630609"><time>2026-04-28T23:06:03.634Z</time></trkpt>
      <trkpt lat="28.014468" lon="98.630609"><time>2026-04-28T23:06:03.651Z</time></trkpt>
      <trkpt lat="28.014468" lon="98.630609"><time>2026-04-28T23:06:03.667Z</time></trkpt>
      <trkpt lat="28.014468" lon="98.630609"><time>2026-04-28T23:06:03.684Z</time></trkpt>
      <trkpt lat="28.014469" lon="98.630608"><time>2026-04-28T23:06:03.701Z</time></trkpt>
      <trkpt lat="28.014469" lon="98.630608"><time>2026-04-28T23:06:03.717Z</time></trkpt>
      <trkpt lat="28.014469" lon="98.630608"><time>2026-04-28T23:06:03.734Z</time></trkpt>
      <trkpt lat="28.014469" lon="98.630608"><time>2026-04-28T23:06:03.751Z</time></trkpt>
      <trkpt lat="28.014469" lon="98.630608"><time>2026-04-28T23:06:03.767Z</time></trkpt>
      <trkpt lat="28.014469" lon="98.630608"><time>2026-04-28T23:06:03.784Z</time></trkpt>
      <trkpt lat="28.01447" lon="98.630606"><time>2026-04-28T23:06:03.801Z</time></trkpt>
      <trkpt lat="28.01447" lon="98.630606"><time>2026-04-28T23:06:03.817Z</time></trkpt>
      <trkpt lat="28.01447" lon="98.630606"><time>2026-04-28T23:06:03.834Z</time></trkpt>
      <trkpt lat="28.01447" lon="98.630606"><time>2026-04-28T23:06:03.851Z</time></trkpt>
      <trkpt lat="28.01447" lon="98.630606"><time>2026-04-28T23:06:03.867Z</time></trkpt>
      <trkpt lat="28.01447" lon="98.630606"><time>2026-04-28T23:06:03.884Z</time></trkpt>
      <trkpt lat="28.014471" lon="98.630604"><time>2026-04-28T23:06:03.901Z</time></trkpt>
      <trkpt lat="28.014471" lon="98.630604"><time>2026-04-28T23:06:03.917Z</time></trkpt>
      <trkpt lat="28.014471" lon="98.630604"><time>2026-04-28T23:06:03.934Z</time></trkpt>
      <trkpt lat="28.014471" lon="98.630604"><time>2026-04-28T23:06:03.951Z</time></trkpt>
      <trkpt lat="28.014471" lon="98.630604"><time>2026-04-28T23:06:03.968Z</time></trkpt>
      <trkpt lat="28.014471" lon="98.630604"><time>2026-04-28T23:06:03.984Z</time></trkpt>
      <trkpt lat="28.014473" lon="98.630602"><time>2026-04-28T23:06:04.001Z</time></trkpt>
      <trkpt lat="28.014473" lon="98.630602"><time>2026-04-28T23:06:04.018Z</time></trkpt>
      <trkpt lat="28.014473" lon="98.630602"><time>2026-04-28T23:06:04.034Z</time></trkpt>
      <trkpt lat="28.014473" lon="98.630602"><time>2026-04-28T23:06:04.051Z</time></trkpt>
      <trkpt lat="28.014473" lon="98.630602"><time>2026-04-28T23:06:04.068Z</time></trkpt>
      <trkpt lat="28.014473" lon="98.630602"><time>2026-04-28T23:06:04.084Z</time></trkpt>
      <trkpt lat="28.014474" lon="98.630599"><time>2026-04-28T23:06:04.101Z</time></trkpt>
      <trkpt lat="28.014474" lon="98.630599"><time>2026-04-28T23:06:04.118Z</time></trkpt>
      <trkpt lat="28.014474" lon="98.630599"><time>2026-04-28T23:06:04.134Z</time></trkpt>
      <trkpt lat="28.014474" lon="98.630599"><time>2026-04-28T23:06:04.151Z</time></trkpt>
      <trkpt lat="28.014474" lon="98.630599"><time>2026-04-28T23:06:04.168Z</time></trkpt>
      <trkpt lat="28.014474" lon="98.630599"><time>2026-04-28T23:06:04.184Z</time></trkpt>
      <trkpt lat="28.014476" lon="98.630596"><time>2026-04-28T23:06:04.201Z</time></trkpt>
      <trkpt lat="28.014476" lon="98.630596"><time>2026-04-28T23:06:04.218Z</time></trkpt>
      <trkpt lat="28.014476" lon="98.630596"><time>2026-04-28T23:06:04.234Z</time></trkpt>
      <trkpt lat="28.014476" lon="98.630596"><time>2026-04-28T23:06:04.251Z</time></trkpt>
      <trkpt lat="28.014476" lon="98.630596"><time>2026-04-28T23:06:04.268Z</time></trkpt>
      <trkpt lat="28.014476" lon="98.630596"><time>2026-04-28T23:06:04.285Z</time></trkpt>
      <trkpt lat="28.014478" lon="98.630593"><time>2026-04-28T23:06:04.301Z</time></trkpt>
      <trkpt lat="28.014478" lon="98.630593"><time>2026-04-28T23:06:04.318Z</time></trkpt>
      <trkpt lat="28.014478" lon="98.630593"><time>2026-04-28T23:06:04.335Z</time></trkpt>
      <trkpt lat="28.014478" lon="98.630593"><time>2026-04-28T23:06:04.351Z</time></trkpt>
      <trkpt lat="28.014478" lon="98.630593"><time>2026-04-28T23:06:04.368Z</time></trkpt>
      <trkpt lat="28.014478" lon="98.630593"><time>2026-04-28T23:06:04.385Z</time></trkpt>
      <trkpt lat="28.01448" lon="98.63059"><time>2026-04-28T23:06:04.401Z</time></trkpt>
      <trkpt lat="28.01448" lon="98.63059"><time>2026-04-28T23:06:04.418Z</time></trkpt>
      <trkpt lat="28.01448" lon="98.63059"><time>2026-04-28T23:06:04.435Z</time></trkpt>
      <trkpt lat="28.01448" lon="98.63059"><time>2026-04-28T23:06:04.451Z</time></trkpt>
      <trkpt lat="28.01448" lon="98.63059"><time>2026-04-28T23:06:04.468Z</time></trkpt>
      <trkpt lat="28.01448" lon="98.63059"><time>2026-04-28T23:06:04.485Z</time></trkpt>
      <trkpt lat="28.014482" lon="98.630587"><time>2026-04-28T23:06:04.501Z</time></trkpt>
      <trkpt lat="28.014482" lon="98.630587"><time>2026-04-28T23:06:04.518Z</time></trkpt>
      <trkpt lat="28.014482" lon="98.630587"><time>2026-04-28T23:06:04.535Z</time></trkpt>
      <trkpt lat="28.014482" lon="98.630587"><time>2026-04-28T23:06:04.551Z</time></trkpt>
      <trkpt lat="28.014482" lon="98.630587"><time>2026-04-28T23:06:04.568Z</time></trkpt>
      <trkpt lat="28.014482" lon="98.630587"><time>2026-04-28T23:06:04.585Z</time></trkpt>
      <trkpt lat="28.014485" lon="98.630583"><time>2026-04-28T23:06:04.602Z</time></trkpt>
      <trkpt lat="28.014485" lon="98.630583"><time>2026-04-28T23:06:04.618Z</time></trkpt>
      <trkpt lat="28.014485" lon="98.630583"><time>2026-04-28T23:06:04.635Z</time></trkpt>
      <trkpt lat="28.014485" lon="98.630583"><time>2026-04-28T23:06:04.652Z</time></trkpt>
      <trkpt lat="28.014485" lon="98.630583"><time>2026-04-28T23:06:04.668Z</time></trkpt>
      <trkpt lat="28.014485" lon="98.630583"><time>2026-04-28T23:06:04.685Z</time></trkpt>
      <trkpt lat="28.014487" lon="98.630579"><time>2026-04-28T23:06:04.702Z</time></trkpt>
      <trkpt lat="28.014487" lon="98.630579"><time>2026-04-28T23:06:04.718Z</time></trkpt>
      <trkpt lat="28.014487" lon="98.630579"><time>2026-04-28T23:06:04.735Z</time></trkpt>
      <trkpt lat="28.014487" lon="98.630579"><time>2026-04-28T23:06:04.752Z</time></trkpt>
      <trkpt lat="28.014487" lon="98.630579"><time>2026-04-28T23:06:04.768Z</time></trkpt>
      <trkpt lat="28.014487" lon="98.630579"><time>2026-04-28T23:06:04.785Z</time></trkpt>
      <trkpt lat="28.01449" lon="98.630575"><time>2026-04-28T23:06:04.802Z</time></trkpt>
      <trkpt lat="28.01449" lon="98.630575"><time>2026-04-28T23:06:04.818Z</time></trkpt>
      <trkpt lat="28.01449" lon="98.630575"><time>2026-04-28T23:06:04.835Z</time></trkpt>
      <trkpt lat="28.01449" lon="98.630575"><time>2026-04-28T23:06:04.852Z</time></trkpt>
      <trkpt lat="28.01449" lon="98.630575"><time>2026-04-28T23:06:04.868Z</time></trkpt>
      <trkpt lat="28.01449" lon="98.630575"><time>2026-04-28T23:06:04.885Z</time></trkpt>
      <trkpt lat="28.014493" lon="98.630571"><time>2026-04-28T23:06:04.902Z</time></trkpt>
      <trkpt lat="28.014493" lon="98.630571"><time>2026-04-28T23:06:04.919Z</time></trkpt>
      <trkpt lat="28.014493" lon="98.630571"><time>2026-04-28T23:06:04.935Z</time></trkpt>
      <trkpt lat="28.014493" lon="98.630571"><time>2026-04-28T23:06:04.952Z</time></trkpt>
      <trkpt lat="28.014493" lon="98.630571"><time>2026-04-28T23:06:04.969Z</time></trkpt>
      <trkpt lat="28.014493" lon="98.630571"><time>2026-04-28T23:06:04.985Z</time></trkpt>
      <trkpt lat="28.014495" lon="98.630567"><time>2026-04-28T23:06:05.002Z</time></trkpt>
      <trkpt lat="28.014495" lon="98.630567"><time>2026-04-28T23:06:05.019Z</time></trkpt>
      <trkpt lat="28.014495" lon="98.630567"><time>2026-04-28T23:06:05.035Z</time></trkpt>
      <trkpt lat="28.014495" lon="98.630567"><time>2026-04-28T23:06:05.052Z</time></trkpt>
      <trkpt lat="28.014495" lon="98.630567"><time>2026-04-28T23:06:05.069Z</time></trkpt>
      <trkpt lat="28.014495" lon="98.630567"><time>2026-04-28T23:06:05.085Z</time></trkpt>
      <trkpt lat="28.014498" lon="98.630563"><time>2026-04-28T23:06:05.102Z</time></trkpt>
      <trkpt lat="28.014498" lon="98.630563"><time>2026-04-28T23:06:05.119Z</time></trkpt>
      <trkpt lat="28.014498" lon="98.630563"><time>2026-04-28T23:06:05.135Z</time></trkpt>
      <trkpt lat="28.014498" lon="98.630563"><time>2026-04-28T23:06:05.152Z</time></trkpt>
      <trkpt lat="28.014498" lon="98.630563"><time>2026-04-28T23:06:05.169Z</time></trkpt>
      <trkpt lat="28.014498" lon="98.630563"><time>2026-04-28T23:06:05.185Z</time></trkpt>
      <trkpt lat="28.014501" lon="98.630558"><time>2026-04-28T23:06:05.202Z</time></trkpt>
      <trkpt lat="28.014501" lon="98.630558"><time>2026-04-28T23:06:05.219Z</time></trkpt>
      <trkpt lat="28.014501" lon="98.630558"><time>2026-04-28T23:06:05.236Z</time></trkpt>
      <trkpt lat="28.014501" lon="98.630558"><time>2026-04-28T23:06:05.252Z</time></trkpt>
      <trkpt lat="28.014501" lon="98.630558"><time>2026-04-28T23:06:05.269Z</time></trkpt>
      <trkpt lat="28.014501" lon="98.630558"><time>2026-04-28T23:06:05.286Z</time></trkpt>
      <trkpt lat="28.014505" lon="98.630553"><time>2026-04-28T23:06:05.302Z</time></trkpt>
      <trkpt lat="28.014505" lon="98.630553"><time>2026-04-28T23:06:05.319Z</time></trkpt>
      <trkpt lat="28.014505" lon="98.630553"><time>2026-04-28T23:06:05.336Z</time></trkpt>
      <trkpt lat="28.014505" lon="98.630553"><time>2026-04-28T23:06:05.352Z</time></trkpt>
      <trkpt lat="28.014505" lon="98.630553"><time>2026-04-28T23:06:05.369Z</time></trkpt>
      <trkpt lat="28.014505" lon="98.630553"><time>2026-04-28T23:06:05.386Z</time></trkpt>
      <trkpt lat="28.014508" lon="98.630549"><time>2026-04-28T23:06:05.402Z</time></trkpt>
      <trkpt lat="28.014508" lon="98.630549"><time>2026-04-28T23:06:05.419Z</time></trkpt>
      <trkpt lat="28.014508" lon="98.630549"><time>2026-04-28T23:06:05.436Z</time></trkpt>
      <trkpt lat="28.014508" lon="98.630549"><time>2026-04-28T23:06:05.452Z</time></trkpt>
      <trkpt lat="28.014508" lon="98.630549"><time>2026-04-28T23:06:05.469Z</time></trkpt>
      <trkpt lat="28.014508" lon="98.630549"><time>2026-04-28T23:06:05.486Z</time></trkpt>
      <trkpt lat="28.014511" lon="98.630544"><time>2026-04-28T23:06:05.502Z</time></trkpt>
      <trkpt lat="28.014511" lon="98.630544"><time>2026-04-28T23:06:05.519Z</time></trkpt>
      <trkpt lat="28.014511" lon="98.630544"><time>2026-04-28T23:06:05.536Z</time></trkpt>
      <trkpt lat="28.014511" lon="98.630544"><time>2026-04-28T23:06:05.553Z</time></trkpt>
      <trkpt lat="28.014511" lon="98.630544"><time>2026-04-28T23:06:05.569Z</time></trkpt>
      <trkpt lat="28.014511" lon="98.630544"><time>2026-04-28T23:06:05.586Z</time></trkpt>
      <trkpt lat="28.014514" lon="98.630538"><time>2026-04-28T23:06:05.603Z</time></trkpt>
      <trkpt lat="28.014514" lon="98.630538"><time>2026-04-28T23:06:05.619Z</time></trkpt>
      <trkpt lat="28.014514" lon="98.630538"><time>2026-04-28T23:06:05.636Z</time></trkpt>
      <trkpt lat="28.014514" lon="98.630538"><time>2026-04-28T23:06:05.653Z</time></trkpt>
      <trkpt lat="28.014514" lon="98.630538"><time>2026-04-28T23:06:05.669Z</time></trkpt>
      <trkpt lat="28.014514" lon="98.630538"><time>2026-04-28T23:06:05.686Z</time></trkpt>
      <trkpt lat="28.014518" lon="98.630532"><time>2026-04-28T23:06:05.703Z</time></trkpt>
      <trkpt lat="28.014518" lon="98.630532"><time>2026-04-28T23:06:05.719Z</time></trkpt>
      <trkpt lat="28.014518" lon="98.630532"><time>2026-04-28T23:06:05.736Z</time></trkpt>
      <trkpt lat="28.014518" lon="98.630532"><time>2026-04-28T23:06:05.753Z</time></trkpt>
      <trkpt lat="28.014518" lon="98.630532"><time>2026-04-28T23:06:05.769Z</time></trkpt>
      <trkpt lat="28.014518" lon="98.630532"><time>2026-04-28T23:06:05.786Z</time></trkpt>
      <trkpt lat="28.014522" lon="98.630527"><time>2026-04-28T23:06:05.803Z</time></trkpt>
      <trkpt lat="28.014522" lon="98.630527"><time>2026-04-28T23:06:05.819Z</time></trkpt>
      <trkpt lat="28.014522" lon="98.630527"><time>2026-04-28T23:06:05.836Z</time></trkpt>
      <trkpt lat="28.014522" lon="98.630527"><time>2026-04-28T23:06:05.853Z</time></trkpt>
      <trkpt lat="28.014522" lon="98.630527"><time>2026-04-28T23:06:05.870Z</time></trkpt>
      <trkpt lat="28.014522" lon="98.630527"><time>2026-04-28T23:06:05.886Z</time></trkpt>
      <trkpt lat="28.014525" lon="98.630522"><time>2026-04-28T23:06:05.903Z</time></trkpt>
      <trkpt lat="28.014525" lon="98.630522"><time>2026-04-28T23:06:05.920Z</time></trkpt>
      <trkpt lat="28.014525" lon="98.630522"><time>2026-04-28T23:06:05.936Z</time></trkpt>
      <trkpt lat="28.014525" lon="98.630522"><time>2026-04-28T23:06:05.953Z</time></trkpt>
      <trkpt lat="28.014525" lon="98.630522"><time>2026-04-28T23:06:05.970Z</time></trkpt>
      <trkpt lat="28.014525" lon="98.630522"><time>2026-04-28T23:06:05.986Z</time></trkpt>
      <trkpt lat="28.014529" lon="98.630516"><time>2026-04-28T23:06:06.003Z</time></trkpt>
      <trkpt lat="28.014529" lon="98.630516"><time>2026-04-28T23:06:06.020Z</time></trkpt>
      <trkpt lat="28.014529" lon="98.630516"><time>2026-04-28T23:06:06.036Z</time></trkpt>
      <trkpt lat="28.014529" lon="98.630516"><time>2026-04-28T23:06:06.053Z</time></trkpt>
      <trkpt lat="28.014529" lon="98.630516"><time>2026-04-28T23:06:06.070Z</time></trkpt>
      <trkpt lat="28.014529" lon="98.630516"><time>2026-04-28T23:06:06.086Z</time></trkpt>
      <trkpt lat="28.014532" lon="98.63051"><time>2026-04-28T23:06:06.103Z</time></trkpt>
      <trkpt lat="28.014532" lon="98.63051"><time>2026-04-28T23:06:06.120Z</time></trkpt>
      <trkpt lat="28.014532" lon="98.63051"><time>2026-04-28T23:06:06.136Z</time></trkpt>
      <trkpt lat="28.014532" lon="98.63051"><time>2026-04-28T23:06:06.153Z</time></trkpt>
      <trkpt lat="28.014532" lon="98.63051"><time>2026-04-28T23:06:06.170Z</time></trkpt>
      <trkpt lat="28.014532" lon="98.63051"><time>2026-04-28T23:06:06.187Z</time></trkpt>
      <trkpt lat="28.014536" lon="98.630505"><time>2026-04-28T23:06:06.203Z</time></trkpt>
      <trkpt lat="28.014536" lon="98.630505"><time>2026-04-28T23:06:06.220Z</time></trkpt>
      <trkpt lat="28.014536" lon="98.630505"><time>2026-04-28T23:06:06.237Z</time></trkpt>
      <trkpt lat="28.014536" lon="98.630505"><time>2026-04-28T23:06:06.253Z</time></trkpt>
      <trkpt lat="28.014536" lon="98.630505"><time>2026-04-28T23:06:06.270Z</time></trkpt>
      <trkpt lat="28.014536" lon="98.630505"><time>2026-04-28T23:06:06.287Z</time></trkpt>
      <trkpt lat="28.01454" lon="98.630499"><time>2026-04-28T23:06:06.303Z</time></trkpt>
      <trkpt lat="28.01454" lon="98.630499"><time>2026-04-28T23:06:06.320Z</time></trkpt>
      <trkpt lat="28.01454" lon="98.630499"><time>2026-04-28T23:06:06.337Z</time></trkpt>
      <trkpt lat="28.01454" lon="98.630499"><time>2026-04-28T23:06:06.353Z</time></trkpt>
      <trkpt lat="28.01454" lon="98.630499"><time>2026-04-28T23:06:06.370Z</time></trkpt>
      <trkpt lat="28.01454" lon="98.630499"><time>2026-04-28T23:06:06.387Z</time></trkpt>
      <trkpt lat="28.014544" lon="98.630493"><time>2026-04-28T23:06:06.403Z</time></trkpt>
      <trkpt lat="28.014544" lon="98.630493"><time>2026-04-28T23:06:06.420Z</time></trkpt>
      <trkpt lat="28.014544" lon="98.630493"><time>2026-04-28T23:06:06.437Z</time></trkpt>
      <trkpt lat="28.014544" lon="98.630493"><time>2026-04-28T23:06:06.453Z</time></trkpt>
      <trkpt lat="28.014544" lon="98.630493"><time>2026-04-28T23:06:06.470Z</time></trkpt>
      <trkpt lat="28.014544" lon="98.630493"><time>2026-04-28T23:06:06.487Z</time></trkpt>
      <trkpt lat="28.014547" lon="98.630486"><time>2026-04-28T23:06:06.504Z</time></trkpt>
      <trkpt lat="28.014547" lon="98.630486"><time>2026-04-28T23:06:06.520Z</time></trkpt>
      <trkpt lat="28.014547" lon="98.630486"><time>2026-04-28T23:06:06.537Z</time></trkpt>
      <trkpt lat="28.014547" lon="98.630486"><time>2026-04-28T23:06:06.554Z</time></trkpt>
      <trkpt lat="28.014547" lon="98.630486"><time>2026-04-28T23:06:06.570Z</time></trkpt>
      <trkpt lat="28.014547" lon="98.630486"><time>2026-04-28T23:06:06.587Z</time></trkpt>
      <trkpt lat="28.014551" lon="98.63048"><time>2026-04-28T23:06:06.604Z</time></trkpt>
      <trkpt lat="28.014551" lon="98.63048"><time>2026-04-28T23:06:06.620Z</time></trkpt>
      <trkpt lat="28.014551" lon="98.63048"><time>2026-04-28T23:06:06.637Z</time></trkpt>
      <trkpt lat="28.014551" lon="98.63048"><time>2026-04-28T23:06:06.654Z</time></trkpt>
      <trkpt lat="28.014551" lon="98.63048"><time>2026-04-28T23:06:06.670Z</time></trkpt>
      <trkpt lat="28.014551" lon="98.63048"><time>2026-04-28T23:06:06.687Z</time></trkpt>
      <trkpt lat="28.014555" lon="98.630474"><time>2026-04-28T23:06:06.704Z</time></trkpt>
      <trkpt lat="28.014555" lon="98.630474"><time>2026-04-28T23:06:06.720Z</time></trkpt>
      <trkpt lat="28.014555" lon="98.630474"><time>2026-04-28T23:06:06.737Z</time></trkpt>
      <trkpt lat="28.014555" lon="98.630474"><time>2026-04-28T23:06:06.754Z</time></trkpt>
      <trkpt lat="28.014555" lon="98.630474"><time>2026-04-28T23:06:06.770Z</time></trkpt>
      <trkpt lat="28.014555" lon="98.630474"><time>2026-04-28T23:06:06.787Z</time></trkpt>
      <trkpt lat="28.014559" lon="98.630468"><time>2026-04-28T23:06:06.804Z</time></trkpt>
      <trkpt lat="28.014559" lon="98.630468"><time>2026-04-28T23:06:06.821Z</time></trkpt>
      <trkpt lat="28.014559" lon="98.630468"><time>2026-04-28T23:06:06.837Z</time></trkpt>
      <trkpt lat="28.014559" lon="98.630468"><time>2026-04-28T23:06:06.854Z</time></trkpt>
      <trkpt lat="28.014559" lon="98.630468"><time>2026-04-28T23:06:06.871Z</time></trkpt>
      <trkpt lat="28.014559" lon="98.630468"><time>2026-04-28T23:06:06.887Z</time></trkpt>
      <trkpt lat="28.014563" lon="98.630462"><time>2026-04-28T23:06:06.904Z</time></trkpt>
      <trkpt lat="28.014563" lon="98.630462"><time>2026-04-28T23:06:06.921Z</time></trkpt>
      <trkpt lat="28.014563" lon="98.630462"><time>2026-04-28T23:06:06.937Z</time></trkpt>
      <trkpt lat="28.014563" lon="98.630462"><time>2026-04-28T23:06:06.954Z</time></trkpt>
      <trkpt lat="28.014563" lon="98.630462"><time>2026-04-28T23:06:06.971Z</time></trkpt>
      <trkpt lat="28.014563" lon="98.630462"><time>2026-04-28T23:06:06.987Z</time></trkpt>
      <trkpt lat="28.014567" lon="98.630455"><time>2026-04-28T23:06:07.004Z</time></trkpt>
      <trkpt lat="28.014567" lon="98.630455"><time>2026-04-28T23:06:07.021Z</time></trkpt>
      <trkpt lat="28.014567" lon="98.630455"><time>2026-04-28T23:06:07.037Z</time></trkpt>
      <trkpt lat="28.014567" lon="98.630455"><time>2026-04-28T23:06:07.054Z</time></trkpt>
      <trkpt lat="28.014567" lon="98.630455"><time>2026-04-28T23:06:07.071Z</time></trkpt>
      <trkpt lat="28.014567" lon="98.630455"><time>2026-04-28T23:06:07.087Z</time></trkpt>
      <trkpt lat="28.014572" lon="98.630449"><time>2026-04-28T23:06:07.104Z</time></trkpt>
      <trkpt lat="28.014572" lon="98.630449"><time>2026-04-28T23:06:07.121Z</time></trkpt>
      <trkpt lat="28.014572" lon="98.630449"><time>2026-04-28T23:06:07.138Z</time></trkpt>
      <trkpt lat="28.014572" lon="98.630449"><time>2026-04-28T23:06:07.154Z</time></trkpt>
      <trkpt lat="28.014572" lon="98.630449"><time>2026-04-28T23:06:07.171Z</time></trkpt>
      <trkpt lat="28.014572" lon="98.630449"><time>2026-04-28T23:06:07.188Z</time></trkpt>
      <trkpt lat="28.014576" lon="98.630442"><time>2026-04-28T23:06:07.204Z</time></trkpt>
      <trkpt lat="28.014576" lon="98.630442"><time>2026-04-28T23:06:07.221Z</time></trkpt>
      <trkpt lat="28.014576" lon="98.630442"><time>2026-04-28T23:06:07.238Z</time></trkpt>
      <trkpt lat="28.014576" lon="98.630442"><time>2026-04-28T23:06:07.254Z</time></trkpt>
      <trkpt lat="28.014576" lon="98.630442"><time>2026-04-28T23:06:07.271Z</time></trkpt>
      <trkpt lat="28.014576" lon="98.630442"><time>2026-04-28T23:06:07.288Z</time></trkpt>
      <trkpt lat="28.01458" lon="98.630436"><time>2026-04-28T23:06:07.304Z</time></trkpt>
      <trkpt lat="28.01458" lon="98.630436"><time>2026-04-28T23:06:07.321Z</time></trkpt>
      <trkpt lat="28.01458" lon="98.630436"><time>2026-04-28T23:06:07.338Z</time></trkpt>
      <trkpt lat="28.01458" lon="98.630436"><time>2026-04-28T23:06:07.354Z</time></trkpt>
      <trkpt lat="28.01458" lon="98.630436"><time>2026-04-28T23:06:07.371Z</time></trkpt>
      <trkpt lat="28.01458" lon="98.630436"><time>2026-04-28T23:06:07.388Z</time></trkpt>
      <trkpt lat="28.014584" lon="98.630429"><time>2026-04-28T23:06:07.404Z</time></trkpt>
      <trkpt lat="28.014584" lon="98.630429"><time>2026-04-28T23:06:07.421Z</time></trkpt>
      <trkpt lat="28.014584" lon="98.630429"><time>2026-04-28T23:06:07.438Z</time></trkpt>
      <trkpt lat="28.014584" lon="98.630429"><time>2026-04-28T23:06:07.455Z</time></trkpt>
      <trkpt lat="28.014584" lon="98.630429"><time>2026-04-28T23:06:07.471Z</time></trkpt>
      <trkpt lat="28.014584" lon="98.630429"><time>2026-04-28T23:06:07.488Z</time></trkpt>
      <trkpt lat="28.014589" lon="98.630422"><time>2026-04-28T23:06:07.505Z</time></trkpt>
      <trkpt lat="28.014589" lon="98.630422"><time>2026-04-28T23:06:07.521Z</time></trkpt>
      <trkpt lat="28.014589" lon="98.630422"><time>2026-04-28T23:06:07.538Z</time></trkpt>
      <trkpt lat="28.014589" lon="98.630422"><time>2026-04-28T23:06:07.555Z</time></trkpt>
      <trkpt lat="28.014589" lon="98.630422"><time>2026-04-28T23:06:07.571Z</time></trkpt>
      <trkpt lat="28.014589" lon="98.630422"><time>2026-04-28T23:06:07.588Z</time></trkpt>
      <trkpt lat="28.014593" lon="98.630415"><time>2026-04-28T23:06:07.605Z</time></trkpt>
      <trkpt lat="28.014593" lon="98.630415"><time>2026-04-28T23:06:07.621Z</time></trkpt>
      <trkpt lat="28.014593" lon="98.630415"><time>2026-04-28T23:06:07.638Z</time></trkpt>
      <trkpt lat="28.014593" lon="98.630415"><time>2026-04-28T23:06:07.655Z</time></trkpt>
      <trkpt lat="28.014593" lon="98.630415"><time>2026-04-28T23:06:07.671Z</time></trkpt>
      <trkpt lat="28.014593" lon="98.630415"><time>2026-04-28T23:06:07.688Z</time></trkpt>
      <trkpt lat="28.014597" lon="98.630408"><time>2026-04-28T23:06:07.705Z</time></trkpt>
      <trkpt lat="28.014597" lon="98.630408"><time>2026-04-28T23:06:07.721Z</time></trkpt>
      <trkpt lat="28.014597" lon="98.630408"><time>2026-04-28T23:06:07.738Z</time></trkpt>
      <trkpt lat="28.014597" lon="98.630408"><time>2026-04-28T23:06:07.755Z</time></trkpt>
      <trkpt lat="28.014597" lon="98.630408"><time>2026-04-28T23:06:07.772Z</time></trkpt>
      <trkpt lat="28.014597" lon="98.630408"><time>2026-04-28T23:06:07.788Z</time></trkpt>
      <trkpt lat="28.014602" lon="98.630401"><time>2026-04-28T23:06:07.805Z</time></trkpt>
      <trkpt lat="28.014602" lon="98.630401"><time>2026-04-28T23:06:07.822Z</time></trkpt>
      <trkpt lat="28.014602" lon="98.630401"><time>2026-04-28T23:06:07.838Z</time></trkpt>
      <trkpt lat="28.014602" lon="98.630401"><time>2026-04-28T23:06:07.855Z</time></trkpt>
      <trkpt lat="28.014602" lon="98.630401"><time>2026-04-28T23:06:07.872Z</time></trkpt>
      <trkpt lat="28.014602" lon="98.630401"><time>2026-04-28T23:06:07.888Z</time></trkpt>
      <trkpt lat="28.014606" lon="98.630395"><time>2026-04-28T23:06:07.905Z</time></trkpt>
      <trkpt lat="28.014606" lon="98.630395"><time>2026-04-28T23:06:07.922Z</time></trkpt>
      <trkpt lat="28.014606" lon="98.630395"><time>2026-04-28T23:06:07.938Z</time></trkpt>
      <trkpt lat="28.014606" lon="98.630395"><time>2026-04-28T23:06:07.955Z</time></trkpt>
      <trkpt lat="28.014606" lon="98.630395"><time>2026-04-28T23:06:07.972Z</time></trkpt>
      <trkpt lat="28.014606" lon="98.630395"><time>2026-04-28T23:06:07.988Z</time></trkpt>
      <trkpt lat="28.014611" lon="98.630388"><time>2026-04-28T23:06:08.005Z</time></trkpt>
      <trkpt lat="28.014611" lon="98.630388"><time>2026-04-28T23:06:08.022Z</time></trkpt>
      <trkpt lat="28.014611" lon="98.630388"><time>2026-04-28T23:06:08.038Z</time></trkpt>
      <trkpt lat="28.014611" lon="98.630388"><time>2026-04-28T23:06:08.055Z</time></trkpt>
      <trkpt lat="28.014611" lon="98.630388"><time>2026-04-28T23:06:08.072Z</time></trkpt>
      <trkpt lat="28.014611" lon="98.630388"><time>2026-04-28T23:06:08.089Z</time></trkpt>
      <trkpt lat="28.014615" lon="98.630381"><time>2026-04-28T23:06:08.105Z</time></trkpt>
      <trkpt lat="28.014615" lon="98.630381"><time>2026-04-28T23:06:08.122Z</time></trkpt>
      <trkpt lat="28.014615" lon="98.630381"><time>2026-04-28T23:06:08.139Z</time></trkpt>
      <trkpt lat="28.014615" lon="98.630381"><time>2026-04-28T23:06:08.155Z</time></trkpt>
      <trkpt lat="28.014615" lon="98.630381"><time>2026-04-28T23:06:08.172Z</time></trkpt>
      <trkpt lat="28.014615" lon="98.630381"><time>2026-04-28T23:06:08.189Z</time></trkpt>
      <trkpt lat="28.01462" lon="98.630374"><time>2026-04-28T23:06:08.205Z</time></trkpt>
      <trkpt lat="28.01462" lon="98.630374"><time>2026-04-28T23:06:08.222Z</time></trkpt>
      <trkpt lat="28.01462" lon="98.630374"><time>2026-04-28T23:06:08.239Z</time></trkpt>
      <trkpt lat="28.01462" lon="98.630374"><time>2026-04-28T23:06:08.255Z</time></trkpt>
      <trkpt lat="28.01462" lon="98.630374"><time>2026-04-28T23:06:08.272Z</time></trkpt>
      <trkpt lat="28.01462" lon="98.630374"><time>2026-04-28T23:06:08.289Z</time></trkpt>
      <trkpt lat="28.014624" lon="98.630367"><time>2026-04-28T23:06:08.305Z</time></trkpt>
      <trkpt lat="28.014624" lon="98.630367"><time>2026-04-28T23:06:08.322Z</time></trkpt>
      <trkpt lat="28.014624" lon="98.630367"><time>2026-04-28T23:06:08.339Z</time></trkpt>
      <trkpt lat="28.014624" lon="98.630367"><time>2026-04-28T23:06:08.355Z</time></trkpt>
      <trkpt lat="28.014624" lon="98.630367"><time>2026-04-28T23:06:08.372Z</time></trkpt>
      <trkpt lat="28.014624" lon="98.630367"><time>2026-04-28T23:06:08.389Z</time></trkpt>
      <trkpt lat="28.014629" lon="98.630359"><time>2026-04-28T23:06:08.406Z</time></trkpt>
      <trkpt lat="28.014629" lon="98.630359"><time>2026-04-28T23:06:08.422Z</time></trkpt>
      <trkpt lat="28.014629" lon="98.630359"><time>2026-04-28T23:06:08.439Z</time></trkpt>
      <trkpt lat="28.014629" lon="98.630359"><time>2026-04-28T23:06:08.456Z</time></trkpt>
      <trkpt lat="28.014629" lon="98.630359"><time>2026-04-28T23:06:08.472Z</time></trkpt>
      <trkpt lat="28.014629" lon="98.630359"><time>2026-04-28T23:06:08.489Z</time></trkpt>
      <trkpt lat="28.014634" lon="98.630352"><time>2026-04-28T23:06:08.506Z</time></trkpt>
      <trkpt lat="28.014634" lon="98.630352"><time>2026-04-28T23:06:08.522Z</time></trkpt>
      <trkpt lat="28.014634" lon="98.630352"><time>2026-04-28T23:06:08.539Z</time></trkpt>
      <trkpt lat="28.014634" lon="98.630352"><time>2026-04-28T23:06:08.556Z</time></trkpt>
      <trkpt lat="28.014634" lon="98.630352"><time>2026-04-28T23:06:08.572Z</time></trkpt>
      <trkpt lat="28.014634" lon="98.630352"><time>2026-04-28T23:06:08.589Z</time></trkpt>
      <trkpt lat="28.014638" lon="98.630346"><time>2026-04-28T23:06:08.606Z</time></trkpt>
      <trkpt lat="28.014638" lon="98.630346"><time>2026-04-28T23:06:08.622Z</time></trkpt>
      <trkpt lat="28.014638" lon="98.630346"><time>2026-04-28T23:06:08.639Z</time></trkpt>
      <trkpt lat="28.014638" lon="98.630346"><time>2026-04-28T23:06:08.656Z</time></trkpt>
      <trkpt lat="28.014638" lon="98.630346"><time>2026-04-28T23:06:08.672Z</time></trkpt>
      <trkpt lat="28.014638" lon="98.630346"><time>2026-04-28T23:06:08.689Z</time></trkpt>
      <trkpt lat="28.014644" lon="98.630338"><time>2026-04-28T23:06:08.706Z</time></trkpt>
      <trkpt lat="28.014644" lon="98.630338"><time>2026-04-28T23:06:08.723Z</time></trkpt>
      <trkpt lat="28.014644" lon="98.630338"><time>2026-04-28T23:06:08.739Z</time></trkpt>
      <trkpt lat="28.014644" lon="98.630338"><time>2026-04-28T23:06:08.756Z</time></trkpt>
      <trkpt lat="28.014644" lon="98.630338"><time>2026-04-28T23:06:08.773Z</time></trkpt>
      <trkpt lat="28.014644" lon="98.630338"><time>2026-04-28T23:06:08.789Z</time></trkpt>
      <trkpt lat="28.014648" lon="98.630331"><time>2026-04-28T23:06:08.806Z</time></trkpt>
      <trkpt lat="28.014648" lon="98.630331"><time>2026-04-28T23:06:08.823Z</time></trkpt>
      <trkpt lat="28.014648" lon="98.630331"><time>2026-04-28T23:06:08.839Z</time></trkpt>
      <trkpt lat="28.014648" lon="98.630331"><time>2026-04-28T23:06:08.856Z</time></trkpt>
      <trkpt lat="28.014648" lon="98.630331"><time>2026-04-28T23:06:08.873Z</time></trkpt>
      <trkpt lat="28.014648" lon="98.630331"><time>2026-04-28T23:06:08.889Z</time></trkpt>
      <trkpt lat="28.014653" lon="98.630324"><time>2026-04-28T23:06:08.906Z</time></trkpt>
      <trkpt lat="28.014653" lon="98.630324"><time>2026-04-28T23:06:08.923Z</time></trkpt>
      <trkpt lat="28.014653" lon="98.630324"><time>2026-04-28T23:06:08.939Z</time></trkpt>
      <trkpt lat="28.014653" lon="98.630324"><time>2026-04-28T23:06:08.956Z</time></trkpt>
      <trkpt lat="28.014653" lon="98.630324"><time>2026-04-28T23:06:08.973Z</time></trkpt>
      <trkpt lat="28.014653" lon="98.630324"><time>2026-04-28T23:06:08.989Z</time></trkpt>
      <trkpt lat="28.014658" lon="98.630316"><time>2026-04-28T23:06:09.006Z</time></trkpt>
      <trkpt lat="28.014658" lon="98.630316"><time>2026-04-28T23:06:09.023Z</time></trkpt>
      <trkpt lat="28.014658" lon="98.630316"><time>2026-04-28T23:06:09.040Z</time></trkpt>
      <trkpt lat="28.014658" lon="98.630316"><time>2026-04-28T23:06:09.056Z</time></trkpt>
      <trkpt lat="28.014658" lon="98.630316"><time>2026-04-28T23:06:09.073Z</time></trkpt>
      <trkpt lat="28.014658" lon="98.630316"><time>2026-04-28T23:06:09.090Z</time></trkpt>
      <trkpt lat="28.014663" lon="98.630309"><time>2026-04-28T23:06:09.106Z</time></trkpt>
      <trkpt lat="28.014663" lon="98.630309"><time>2026-04-28T23:06:09.123Z</time></trkpt>
      <trkpt lat="28.014663" lon="98.630309"><time>2026-04-28T23:06:09.140Z</time></trkpt>
      <trkpt lat="28.014663" lon="98.630309"><time>2026-04-28T23:06:09.156Z</time></trkpt>
      <trkpt lat="28.014663" lon="98.630309"><time>2026-04-28T23:06:09.173Z</time></trkpt>
      <trkpt lat="28.014663" lon="98.630309"><time>2026-04-28T23:06:09.190Z</time></trkpt>
      <trkpt lat="28.014668" lon="98.630301"><time>2026-04-28T23:06:09.206Z</time></trkpt>
      <trkpt lat="28.014668" lon="98.630301"><time>2026-04-28T23:06:09.223Z</time></trkpt>
      <trkpt lat="28.014668" lon="98.630301"><time>2026-04-28T23:06:09.240Z</time></trkpt>
      <trkpt lat="28.014668" lon="98.630301"><time>2026-04-28T23:06:09.256Z</time></trkpt>
      <trkpt lat="28.014668" lon="98.630301"><time>2026-04-28T23:06:09.273Z</time></trkpt>
      <trkpt lat="28.014668" lon="98.630301"><time>2026-04-28T23:06:09.290Z</time></trkpt>
      <trkpt lat="28.014672" lon="98.630294"><time>2026-04-28T23:06:09.306Z</time></trkpt>
      <trkpt lat="28.014672" lon="98.630294"><time>2026-04-28T23:06:09.323Z</time></trkpt>
      <trkpt lat="28.014672" lon="98.630294"><time>2026-04-28T23:06:09.340Z</time></trkpt>
      <trkpt lat="28.014672" lon="98.630294"><time>2026-04-28T23:06:09.356Z</time></trkpt>
      <trkpt lat="28.014672" lon="98.630294"><time>2026-04-28T23:06:09.373Z</time></trkpt>
      <trkpt lat="28.014672" lon="98.630294"><time>2026-04-28T23:06:09.390Z</time></trkpt>
      <trkpt lat="28.014677" lon="98.630287"><time>2026-04-28T23:06:09.407Z</time></trkpt>
      <trkpt lat="28.014677" lon="98.630287"><time>2026-04-28T23:06:09.423Z</time></trkpt>
      <trkpt lat="28.014677" lon="98.630287"><time>2026-04-28T23:06:09.440Z</time></trkpt>
      <trkpt lat="28.014677" lon="98.630287"><time>2026-04-28T23:06:09.457Z</time></trkpt>
      <trkpt lat="28.014677" lon="98.630287"><time>2026-04-28T23:06:09.473Z</time></trkpt>
      <trkpt lat="28.014677" lon="98.630287"><time>2026-04-28T23:06:09.490Z</time></trkpt>
      <trkpt lat="28.014682" lon="98.630279"><time>2026-04-28T23:06:09.507Z</time></trkpt>
      <trkpt lat="28.014682" lon="98.630279"><time>2026-04-28T23:06:09.523Z</time></trkpt>
      <trkpt lat="28.014682" lon="98.630279"><time>2026-04-28T23:06:09.540Z</time></trkpt>
      <trkpt lat="28.014682" lon="98.630279"><time>2026-04-28T23:06:09.557Z</time></trkpt>
      <trkpt lat="28.014682" lon="98.630279"><time>2026-04-28T23:06:09.573Z</time></trkpt>
      <trkpt lat="28.014682" lon="98.630279"><time>2026-04-28T23:06:09.590Z</time></trkpt>
      <trkpt lat="28.014687" lon="98.630271"><time>2026-04-28T23:06:09.607Z</time></trkpt>
      <trkpt lat="28.014687" lon="98.630271"><time>2026-04-28T23:06:09.623Z</time></trkpt>
      <trkpt lat="28.014687" lon="98.630271"><time>2026-04-28T23:06:09.640Z</time></trkpt>
      <trkpt lat="28.014687" lon="98.630271"><time>2026-04-28T23:06:09.657Z</time></trkpt>
      <trkpt lat="28.014687" lon="98.630271"><time>2026-04-28T23:06:09.673Z</time></trkpt>
      <trkpt lat="28.014687" lon="98.630271"><time>2026-04-28T23:06:09.690Z</time></trkpt>
      <trkpt lat="28.014691" lon="98.630264"><time>2026-04-28T23:06:09.707Z</time></trkpt>
      <trkpt lat="28.014691" lon="98.630264"><time>2026-04-28T23:06:09.724Z</time></trkpt>
      <trkpt lat="28.014691" lon="98.630264"><time>2026-04-28T23:06:09.740Z</time></trkpt>
      <trkpt lat="28.014691" lon="98.630264"><time>2026-04-28T23:06:09.757Z</time></trkpt>
      <trkpt lat="28.014691" lon="98.630264"><time>2026-04-28T23:06:09.774Z</time></trkpt>
      <trkpt lat="28.014691" lon="98.630264"><time>2026-04-28T23:06:09.790Z</time></trkpt>
      <trkpt lat="28.014696" lon="98.630256"><time>2026-04-28T23:06:09.807Z</time></trkpt>
      <trkpt lat="28.014696" lon="98.630256"><time>2026-04-28T23:06:09.824Z</time></trkpt>
      <trkpt lat="28.014696" lon="98.630256"><time>2026-04-28T23:06:09.840Z</time></trkpt>
      <trkpt lat="28.014696" lon="98.630256"><time>2026-04-28T23:06:09.857Z</time></trkpt>
      <trkpt lat="28.014696" lon="98.630256"><time>2026-04-28T23:06:09.874Z</time></trkpt>
      <trkpt lat="28.014696" lon="98.630256"><time>2026-04-28T23:06:09.890Z</time></trkpt>
      <trkpt lat="28.014701" lon="98.630248"><time>2026-04-28T23:06:09.907Z</time></trkpt>
      <trkpt lat="28.014701" lon="98.630248"><time>2026-04-28T23:06:09.924Z</time></trkpt>
      <trkpt lat="28.014701" lon="98.630248"><time>2026-04-28T23:06:09.940Z</time></trkpt>
      <trkpt lat="28.014701" lon="98.630248"><time>2026-04-28T23:06:09.957Z</time></trkpt>
      <trkpt lat="28.014701" lon="98.630248"><time>2026-04-28T23:06:09.974Z</time></trkpt>
      <trkpt lat="28.014701" lon="98.630248"><time>2026-04-28T23:06:09.990Z</time></trkpt>
      <trkpt lat="28.014706" lon="98.630241"><time>2026-04-28T23:06:10.007Z</time></trkpt>
      <trkpt lat="28.014706" lon="98.630241"><time>2026-04-28T23:06:10.024Z</time></trkpt>
      <trkpt lat="28.014706" lon="98.630241"><time>2026-04-28T23:06:10.041Z</time></trkpt>
      <trkpt lat="28.014706" lon="98.630241"><time>2026-04-28T23:06:10.057Z</time></trkpt>
      <trkpt lat="28.014706" lon="98.630241"><time>2026-04-28T23:06:10.074Z</time></trkpt>
      <trkpt lat="28.014706" lon="98.630241"><time>2026-04-28T23:06:10.091Z</time></trkpt>
      <trkpt lat="28.014711" lon="98.630233"><time>2026-04-28T23:06:10.107Z</time></trkpt>
      <trkpt lat="28.014711" lon="98.630233"><time>2026-04-28T23:06:10.124Z</time></trkpt>
      <trkpt lat="28.014711" lon="98.630233"><time>2026-04-28T23:06:10.141Z</time></trkpt>
      <trkpt lat="28.014711" lon="98.630233"><time>2026-04-28T23:06:10.157Z</time></trkpt>
      <trkpt lat="28.014711" lon="98.630233"><time>2026-04-28T23:06:10.174Z</time></trkpt>
      <trkpt lat="28.014711" lon="98.630233"><time>2026-04-28T23:06:10.191Z</time></trkpt>
      <trkpt lat="28.014716" lon="98.630225"><time>2026-04-28T23:06:10.207Z</time></trkpt>
      <trkpt lat="28.014716" lon="98.630225"><time>2026-04-28T23:06:10.224Z</time></trkpt>
      <trkpt lat="28.014716" lon="98.630225"><time>2026-04-28T23:06:10.241Z</time></trkpt>
      <trkpt lat="28.014716" lon="98.630225"><time>2026-04-28T23:06:10.257Z</time></trkpt>
      <trkpt lat="28.014716" lon="98.630225"><time>2026-04-28T23:06:10.274Z</time></trkpt>
      <trkpt lat="28.014716" lon="98.630225"><time>2026-04-28T23:06:10.291Z</time></trkpt>
      <trkpt lat="28.014721" lon="98.630218"><time>2026-04-28T23:06:10.307Z</time></trkpt>
      <trkpt lat="28.014721" lon="98.630218"><time>2026-04-28T23:06:10.324Z</time></trkpt>
      <trkpt lat="28.014721" lon="98.630218"><time>2026-04-28T23:06:10.341Z</time></trkpt>
      <trkpt lat="28.014721" lon="98.630218"><time>2026-04-28T23:06:10.358Z</time></trkpt>
      <trkpt lat="28.014721" lon="98.630218"><time>2026-04-28T23:06:10.374Z</time></trkpt>
      <trkpt lat="28.014721" lon="98.630218"><time>2026-04-28T23:06:10.391Z</time></trkpt>
      <trkpt lat="28.014726" lon="98.63021"><time>2026-04-28T23:06:10.408Z</time></trkpt>
      <trkpt lat="28.014726" lon="98.63021"><time>2026-04-28T23:06:10.424Z</time></trkpt>
      <trkpt lat="28.014726" lon="98.63021"><time>2026-04-28T23:06:10.441Z</time></trkpt>
      <trkpt lat="28.014726" lon="98.63021"><time>2026-04-28T23:06:10.458Z</time></trkpt>
      <trkpt lat="28.014726" lon="98.63021"><time>2026-04-28T23:06:10.474Z</time></trkpt>
      <trkpt lat="28.014726" lon="98.63021"><time>2026-04-28T23:06:10.491Z</time></trkpt>
      <trkpt lat="28.014731" lon="98.630202"><time>2026-04-28T23:06:10.508Z</time></trkpt>
      <trkpt lat="28.014731" lon="98.630202"><time>2026-04-28T23:06:10.524Z</time></trkpt>
      <trkpt lat="28.014731" lon="98.630202"><time>2026-04-28T23:06:10.541Z</time></trkpt>
      <trkpt lat="28.014731" lon="98.630202"><time>2026-04-28T23:06:10.558Z</time></trkpt>
      <trkpt lat="28.014731" lon="98.630202"><time>2026-04-28T23:06:10.574Z</time></trkpt>
      <trkpt lat="28.014731" lon="98.630202"><time>2026-04-28T23:06:10.591Z</time></trkpt>
      <trkpt lat="28.014735" lon="98.630195"><time>2026-04-28T23:06:10.608Z</time></trkpt>
      <trkpt lat="28.014735" lon="98.630195"><time>2026-04-28T23:06:10.624Z</time></trkpt>
      <trkpt lat="28.014735" lon="98.630195"><time>2026-04-28T23:06:10.641Z</time></trkpt>
      <trkpt lat="28.014735" lon="98.630195"><time>2026-04-28T23:06:10.658Z</time></trkpt>
      <trkpt lat="28.014735" lon="98.630195"><time>2026-04-28T23:06:10.675Z</time></trkpt>
      <trkpt lat="28.014735" lon="98.630195"><time>2026-04-28T23:06:10.691Z</time></trkpt>
      <trkpt lat="28.01474" lon="98.630187"><time>2026-04-28T23:06:10.708Z</time></trkpt>
      <trkpt lat="28.01474" lon="98.630187"><time>2026-04-28T23:06:10.725Z</time></trkpt>
      <trkpt lat="28.01474" lon="98.630187"><time>2026-04-28T23:06:10.741Z</time></trkpt>
      <trkpt lat="28.01474" lon="98.630187"><time>2026-04-28T23:06:10.758Z</time></trkpt>
      <trkpt lat="28.01474" lon="98.630187"><time>2026-04-28T23:06:10.775Z</time></trkpt>
      <trkpt lat="28.01474" lon="98.630187"><time>2026-04-28T23:06:10.791Z</time></trkpt>
      <trkpt lat="28.014745" lon="98.630179"><time>2026-04-28T23:06:10.808Z</time></trkpt>
      <trkpt lat="28.014745" lon="98.630179"><time>2026-04-28T23:06:10.825Z</time></trkpt>
      <trkpt lat="28.014745" lon="98.630179"><time>2026-04-28T23:06:10.841Z</time></trkpt>
      <trkpt lat="28.014745" lon="98.630179"><time>2026-04-28T23:06:10.858Z</time></trkpt>
      <trkpt lat="28.014745" lon="98.630179"><time>2026-04-28T23:06:10.875Z</time></trkpt>
      <trkpt lat="28.014745" lon="98.630179"><time>2026-04-28T23:06:10.891Z</time></trkpt>
      <trkpt lat="28.01475" lon="98.630171"><time>2026-04-28T23:06:10.908Z</time></trkpt>
      <trkpt lat="28.01475" lon="98.630171"><time>2026-04-28T23:06:10.925Z</time></trkpt>
      <trkpt lat="28.01475" lon="98.630171"><time>2026-04-28T23:06:10.941Z</time></trkpt>
      <trkpt lat="28.01475" lon="98.630171"><time>2026-04-28T23:06:10.958Z</time></trkpt>
      <trkpt lat="28.01475" lon="98.630171"><time>2026-04-28T23:06:10.975Z</time></trkpt>
      <trkpt lat="28.01475" lon="98.630171"><time>2026-04-28T23:06:10.992Z</time></trkpt>
      <trkpt lat="28.014755" lon="98.630164"><time>2026-04-28T23:06:11.008Z</time></trkpt>
      <trkpt lat="28.014755" lon="98.630164"><time>2026-04-28T23:06:11.025Z</time></trkpt>
      <trkpt lat="28.014755" lon="98.630164"><time>2026-04-28T23:06:11.042Z</time></trkpt>
      <trkpt lat="28.014755" lon="98.630164"><time>2026-04-28T23:06:11.058Z</time></trkpt>
      <trkpt lat="28.014755" lon="98.630164"><time>2026-04-28T23:06:11.075Z</time></trkpt>
      <trkpt lat="28.014755" lon="98.630164"><time>2026-04-28T23:06:11.092Z</time></trkpt>
      <trkpt lat="28.01476" lon="98.630156"><time>2026-04-28T23:06:11.108Z</time></trkpt>
      <trkpt lat="28.01476" lon="98.630156"><time>2026-04-28T23:06:11.125Z</time></trkpt>
      <trkpt lat="28.01476" lon="98.630156"><time>2026-04-28T23:06:11.142Z</time></trkpt>
      <trkpt lat="28.01476" lon="98.630156"><time>2026-04-28T23:06:11.158Z</time></trkpt>
      <trkpt lat="28.01476" lon="98.630156"><time>2026-04-28T23:06:11.175Z</time></trkpt>
      <trkpt lat="28.01476" lon="98.630156"><time>2026-04-28T23:06:11.192Z</time></trkpt>
      <trkpt lat="28.014765" lon="98.630148"><time>2026-04-28T23:06:11.208Z</time></trkpt>
      <trkpt lat="28.014765" lon="98.630148"><time>2026-04-28T23:06:11.225Z</time></trkpt>
      <trkpt lat="28.014765" lon="98.630148"><time>2026-04-28T23:06:11.242Z</time></trkpt>
      <trkpt lat="28.014765" lon="98.630148"><time>2026-04-28T23:06:11.258Z</time></trkpt>
      <trkpt lat="28.014765" lon="98.630148"><time>2026-04-28T23:06:11.275Z</time></trkpt>
      <trkpt lat="28.014765" lon="98.630148"><time>2026-04-28T23:06:11.292Z</time></trkpt>
      <trkpt lat="28.01477" lon="98.63014"><time>2026-04-28T23:06:11.309Z</time></trkpt>
      <trkpt lat="28.01477" lon="98.63014"><time>2026-04-28T23:06:11.325Z</time></trkpt>
      <trkpt lat="28.01477" lon="98.63014"><time>2026-04-28T23:06:11.342Z</time></trkpt>
      <trkpt lat="28.01477" lon="98.63014"><time>2026-04-28T23:06:11.359Z</time></trkpt>
      <trkpt lat="28.01477" lon="98.63014"><time>2026-04-28T23:06:11.375Z</time></trkpt>
      <trkpt lat="28.01477" lon="98.63014"><time>2026-04-28T23:06:11.392Z</time></trkpt>
      <trkpt lat="28.014775" lon="98.630132"><time>2026-04-28T23:06:11.409Z</time></trkpt>
      <trkpt lat="28.014775" lon="98.630132"><time>2026-04-28T23:06:11.425Z</time></trkpt>
      <trkpt lat="28.014775" lon="98.630132"><time>2026-04-28T23:06:11.442Z</time></trkpt>
      <trkpt lat="28.014775" lon="98.630132"><time>2026-04-28T23:06:11.459Z</time></trkpt>
      <trkpt lat="28.014775" lon="98.630132"><time>2026-04-28T23:06:11.475Z</time></trkpt>
      <trkpt lat="28.014775" lon="98.630132"><time>2026-04-28T23:06:11.492Z</time></trkpt>
      <trkpt lat="28.01478" lon="98.630125"><time>2026-04-28T23:06:11.509Z</time></trkpt>
      <trkpt lat="28.01478" lon="98.630125"><time>2026-04-28T23:06:11.525Z</time></trkpt>
      <trkpt lat="28.01478" lon="98.630125"><time>2026-04-28T23:06:11.542Z</time></trkpt>
      <trkpt lat="28.01478" lon="98.630125"><time>2026-04-28T23:06:11.559Z</time></trkpt>
      <trkpt lat="28.01478" lon="98.630125"><time>2026-04-28T23:06:11.575Z</time></trkpt>
      <trkpt lat="28.01478" lon="98.630125"><time>2026-04-28T23:06:11.592Z</time></trkpt>
      <trkpt lat="28.014785" lon="98.630116"><time>2026-04-28T23:06:11.609Z</time></trkpt>
      <trkpt lat="28.014785" lon="98.630116"><time>2026-04-28T23:06:11.626Z</time></trkpt>
      <trkpt lat="28.014785" lon="98.630116"><time>2026-04-28T23:06:11.642Z</time></trkpt>
      <trkpt lat="28.014785" lon="98.630116"><time>2026-04-28T23:06:11.659Z</time></trkpt>
      <trkpt lat="28.014785" lon="98.630116"><time>2026-04-28T23:06:11.676Z</time></trkpt>
      <trkpt lat="28.014785" lon="98.630116"><time>2026-04-28T23:06:11.692Z</time></trkpt>
      <trkpt lat="28.01479" lon="98.630109"><time>2026-04-28T23:06:11.709Z</time></trkpt>
      <trkpt lat="28.01479" lon="98.630109"><time>2026-04-28T23:06:11.726Z</time></trkpt>
      <trkpt lat="28.01479" lon="98.630109"><time>2026-04-28T23:06:11.742Z</time></trkpt>
      <trkpt lat="28.01479" lon="98.630109"><time>2026-04-28T23:06:11.759Z</time></trkpt>
      <trkpt lat="28.01479" lon="98.630109"><time>2026-04-28T23:06:11.776Z</time></trkpt>
      <trkpt lat="28.01479" lon="98.630109"><time>2026-04-28T23:06:11.792Z</time></trkpt>
      <trkpt lat="28.014795" lon="98.630101"><time>2026-04-28T23:06:11.809Z</time></trkpt>
      <trkpt lat="28.014795" lon="98.630101"><time>2026-04-28T23:06:11.826Z</time></trkpt>
      <trkpt lat="28.014795" lon="98.630101"><time>2026-04-28T23:06:11.842Z</time></trkpt>
      <trkpt lat="28.014795" lon="98.630101"><time>2026-04-28T23:06:11.859Z</time></trkpt>
      <trkpt lat="28.014795" lon="98.630101"><time>2026-04-28T23:06:11.876Z</time></trkpt>
      <trkpt lat="28.014795" lon="98.630101"><time>2026-04-28T23:06:11.892Z</time></trkpt>
      <trkpt lat="28.0148" lon="98.630093"><time>2026-04-28T23:06:11.909Z</time></trkpt>
      <trkpt lat="28.0148" lon="98.630093"><time>2026-04-28T23:06:11.926Z</time></trkpt>
      <trkpt lat="28.0148" lon="98.630093"><time>2026-04-28T23:06:11.943Z</time></trkpt>
      <trkpt lat="28.0148" lon="98.630093"><time>2026-04-28T23:06:11.959Z</time></trkpt>
      <trkpt lat="28.0148" lon="98.630093"><time>2026-04-28T23:06:11.976Z</time></trkpt>
      <trkpt lat="28.0148" lon="98.630093"><time>2026-04-28T23:06:11.993Z</time></trkpt>
      <trkpt lat="28.014805" lon="98.630085"><time>2026-04-28T23:06:12.009Z</time></trkpt>
      <trkpt lat="28.014805" lon="98.630085"><time>2026-04-28T23:06:12.026Z</time></trkpt>
      <trkpt lat="28.014805" lon="98.630085"><time>2026-04-28T23:06:12.043Z</time></trkpt>
      <trkpt lat="28.014805" lon="98.630085"><time>2026-04-28T23:06:12.059Z</time></trkpt>
      <trkpt lat="28.014805" lon="98.630085"><time>2026-04-28T23:06:12.076Z</time></trkpt>
      <trkpt lat="28.014805" lon="98.630085"><time>2026-04-28T23:06:12.093Z</time></trkpt>
      <trkpt lat="28.01481" lon="98.630077"><time>2026-04-28T23:06:12.109Z</time></trkpt>
      <trkpt lat="28.01481" lon="98.630077"><time>2026-04-28T23:06:12.126Z</time></trkpt>
      <trkpt lat="28.01481" lon="98.630077"><time>2026-04-28T23:06:12.143Z</time></trkpt>
      <trkpt lat="28.01481" lon="98.630077"><time>2026-04-28T23:06:12.159Z</time></trkpt>
      <trkpt lat="28.01481" lon="98.630077"><time>2026-04-28T23:06:12.176Z</time></trkpt>
      <trkpt lat="28.01481" lon="98.630077"><time>2026-04-28T23:06:12.193Z</time></trkpt>
      <trkpt lat="28.014816" lon="98.630069"><time>2026-04-28T23:06:12.209Z</time></trkpt>
      <trkpt lat="28.014816" lon="98.630069"><time>2026-04-28T23:06:12.226Z</time></trkpt>
      <trkpt lat="28.014816" lon="98.630069"><time>2026-04-28T23:06:12.243Z</time></trkpt>
      <trkpt lat="28.014816" lon="98.630069"><time>2026-04-28T23:06:12.260Z</time></trkpt>
      <trkpt lat="28.014816" lon="98.630069"><time>2026-04-28T23:06:12.276Z</time></trkpt>
      <trkpt lat="28.014816" lon="98.630069"><time>2026-04-28T23:06:12.293Z</time></trkpt>
      <trkpt lat="28.01482" lon="98.630062"><time>2026-04-28T23:06:12.310Z</time></trkpt>
      <trkpt lat="28.01482" lon="98.630062"><time>2026-04-28T23:06:12.326Z</time></trkpt>
      <trkpt lat="28.01482" lon="98.630062"><time>2026-04-28T23:06:12.343Z</time></trkpt>
      <trkpt lat="28.01482" lon="98.630062"><time>2026-04-28T23:06:12.360Z</time></trkpt>
      <trkpt lat="28.01482" lon="98.630062"><time>2026-04-28T23:06:12.376Z</time></trkpt>
      <trkpt lat="28.01482" lon="98.630062"><time>2026-04-28T23:06:12.393Z</time></trkpt>
      <trkpt lat="28.014826" lon="98.630053"><time>2026-04-28T23:06:12.410Z</time></trkpt>
      <trkpt lat="28.014826" lon="98.630053"><time>2026-04-28T23:06:12.426Z</time></trkpt>
      <trkpt lat="28.014826" lon="98.630053"><time>2026-04-28T23:06:12.443Z</time></trkpt>
      <trkpt lat="28.014826" lon="98.630053"><time>2026-04-28T23:06:12.460Z</time></trkpt>
      <trkpt lat="28.014826" lon="98.630053"><time>2026-04-28T23:06:12.476Z</time></trkpt>
      <trkpt lat="28.014826" lon="98.630053"><time>2026-04-28T23:06:12.493Z</time></trkpt>
      <trkpt lat="28.014831" lon="98.630045"><time>2026-04-28T23:06:12.510Z</time></trkpt>
      <trkpt lat="28.014831" lon="98.630045"><time>2026-04-28T23:06:12.526Z</time></trkpt>
      <trkpt lat="28.014831" lon="98.630045"><time>2026-04-28T23:06:12.543Z</time></trkpt>
      <trkpt lat="28.014831" lon="98.630045"><time>2026-04-28T23:06:12.560Z</time></trkpt>
      <trkpt lat="28.014831" lon="98.630045"><time>2026-04-28T23:06:12.577Z</time></trkpt>
      <trkpt lat="28.014831" lon="98.630045"><time>2026-04-28T23:06:12.593Z</time></trkpt>
      <trkpt lat="28.014836" lon="98.630037"><time>2026-04-28T23:06:12.610Z</time></trkpt>
      <trkpt lat="28.014836" lon="98.630037"><time>2026-04-28T23:06:12.627Z</time></trkpt>
      <trkpt lat="28.014836" lon="98.630037"><time>2026-04-28T23:06:12.643Z</time></trkpt>
      <trkpt lat="28.014836" lon="98.630037"><time>2026-04-28T23:06:12.660Z</time></trkpt>
      <trkpt lat="28.014836" lon="98.630037"><time>2026-04-28T23:06:12.677Z</time></trkpt>
      <trkpt lat="28.014836" lon="98.630037"><time>2026-04-28T23:06:12.693Z</time></trkpt>
      <trkpt lat="28.014841" lon="98.63003"><time>2026-04-28T23:06:12.710Z</time></trkpt>
      <trkpt lat="28.014841" lon="98.63003"><time>2026-04-28T23:06:12.727Z</time></trkpt>
      <trkpt lat="28.014841" lon="98.63003"><time>2026-04-28T23:06:12.743Z</time></trkpt>
      <trkpt lat="28.014841" lon="98.63003"><time>2026-04-28T23:06:12.760Z</time></trkpt>
      <trkpt lat="28.014841" lon="98.63003"><time>2026-04-28T23:06:12.777Z</time></trkpt>
      <trkpt lat="28.014841" lon="98.63003"><time>2026-04-28T23:06:12.793Z</time></trkpt>
      <trkpt lat="28.014846" lon="98.630021"><time>2026-04-28T23:06:12.810Z</time></trkpt>
      <trkpt lat="28.014846" lon="98.630021"><time>2026-04-28T23:06:12.827Z</time></trkpt>
      <trkpt lat="28.014846" lon="98.630021"><time>2026-04-28T23:06:12.843Z</time></trkpt>
      <trkpt lat="28.014846" lon="98.630021"><time>2026-04-28T23:06:12.860Z</time></trkpt>
      <trkpt lat="28.014846" lon="98.630021"><time>2026-04-28T23:06:12.877Z</time></trkpt>
      <trkpt lat="28.014846" lon="98.630021"><time>2026-04-28T23:06:12.894Z</time></trkpt>
      <trkpt lat="28.014851" lon="98.630013"><time>2026-04-28T23:06:12.910Z</time></trkpt>
      <trkpt lat="28.014851" lon="98.630013"><time>2026-04-28T23:06:12.927Z</time></trkpt>
      <trkpt lat="28.014851" lon="98.630013"><time>2026-04-28T23:06:12.944Z</time></trkpt>
      <trkpt lat="28.014851" lon="98.630013"><time>2026-04-28T23:06:12.960Z</time></trkpt>
      <trkpt lat="28.014851" lon="98.630013"><time>2026-04-28T23:06:12.977Z</time></trkpt>
      <trkpt lat="28.014851" lon="98.630013"><time>2026-04-28T23:06:12.994Z</time></trkpt>
      <trkpt lat="28.014857" lon="98.630006"><time>2026-04-28T23:06:13.010Z</time></trkpt>
      <trkpt lat="28.014857" lon="98.630006"><time>2026-04-28T23:06:13.027Z</time></trkpt>
      <trkpt lat="28.014857" lon="98.630006"><time>2026-04-28T23:06:13.044Z</time></trkpt>
      <trkpt lat="28.014857" lon="98.630006"><time>2026-04-28T23:06:13.060Z</time></trkpt>
      <trkpt lat="28.014857" lon="98.630006"><time>2026-04-28T23:06:13.077Z</time></trkpt>
      <trkpt lat="28.014857" lon="98.630006"><time>2026-04-28T23:06:13.094Z</time></trkpt>
      <trkpt lat="28.014862" lon="98.629998"><time>2026-04-28T23:06:13.110Z</time></trkpt>
      <trkpt lat="28.014862" lon="98.629998"><time>2026-04-28T23:06:13.127Z</time></trkpt>
      <trkpt lat="28.014862" lon="98.629998"><time>2026-04-28T23:06:13.144Z</time></trkpt>
      <trkpt lat="28.014862" lon="98.629998"><time>2026-04-28T23:06:13.160Z</time></trkpt>
      <trkpt lat="28.014862" lon="98.629998"><time>2026-04-28T23:06:13.177Z</time></trkpt>
      <trkpt lat="28.014862" lon="98.629998"><time>2026-04-28T23:06:13.194Z</time></trkpt>
      <trkpt lat="28.014867" lon="98.62999"><time>2026-04-28T23:06:13.211Z</time></trkpt>
      <trkpt lat="28.014867" lon="98.62999"><time>2026-04-28T23:06:13.227Z</time></trkpt>
      <trkpt lat="28.014867" lon="98.62999"><time>2026-04-28T23:06:13.244Z</time></trkpt>
    </trkseg>
  </trk>
</gpx>
