<?xml version="1.0" encoding="UTF-8"?>
<gpx version="1.1" creator="Kairos" xmlns="http://www.topografix.com/GPX/1/1">
  <trk>
    <name>sidecar-srt-cf5444673ae4ca68</name>
    <trkseg>
      <trkpt lat="29.517991" lon="101.721109"><time>2026-05-03T22:23:51.000Z</time></trkpt>
      <trkpt lat="29.517991" lon="101.721109"><time>2026-05-03T22:23:51.016Z</time></trkpt>
      <trkpt lat="29.517991" lon="101.721109"><time>2026-05-03T22:23:51.032Z</time></trkpt>
      <trkpt lat="29.517991" lon="101.721109"><time>2026-05-03T22:23:51.049Z</time></trkpt>
      <trkpt lat="29.517991" lon="101.721109"><time>2026-05-03T22:23:51.066Z</time></trkpt>
      <trkpt lat="29.517991" lon="101.721109"><time>2026-05-03T22:23:51.082Z</time></trkpt>
      <trkpt lat="29.517991" lon="101.721109"><time>2026-05-03T22:23:51.099Z</time></trkpt>
      <trkpt lat="29.517991" lon="101.721109"><time>2026-05-03T22:23:51.116Z</time></trkpt>
      <trkpt lat="29.517991" lon="101.721109"><time>2026-05-03T22:23:51.132Z</time></trkpt>
      <trkpt lat="29.517991" lon="101.721109"><time>2026-05-03T22:23:51.149Z</time></trkpt>
      <trkpt lat="29.517991" lon="101.721109"><time>2026-05-03T22:23:51.166Z</time></trkpt>
      <trkpt lat="29.517991" lon="101.721109"><time>2026-05-03T22:23:51.182Z</time></trkpt>
      <trkpt lat="29.517991" lon="101.721109"><time>2026-05-03T22:23:51.199Z</time></trkpt>
      <trkpt lat="29.517991" lon="101.721109"><time>2026-05-03T22:23:51.216Z</time></trkpt>
      <trkpt lat="29.517991" lon="101.721109"><time>2026-05-03T22:23:51.232Z</time></trkpt>
      <trkpt lat="29.517991" lon="101.721109"><time>2026-05-03T22:23:51.249Z</time></trkpt>
      <trkpt lat="29.517991" lon="101.721109"><time>2026-05-03T22:23:51.266Z</time></trkpt>
      <trkpt lat="29.517991" lon="101.721109"><time>2026-05-03T22:23:51.282Z</time></trkpt>
      <trkpt lat="29.517991" lon="101.721109"><time>2026-05-03T22:23:51.299Z</time></trkpt>
      <trkpt lat="29.517991" lon="101.721109"><time>2026-05-03T22:23:51.316Z</time></trkpt>
      <trkpt lat="29.517991" lon="101.721109"><time>2026-05-03T22:23:51.333Z</time></trkpt>
      <trkpt lat="29.517991" lon="101.721109"><time>2026-05-03T22:23:51.349Z</time></trkpt>
      <trkpt lat="29.517991" lon="101.721109"><time>2026-05-03T22:23:51.366Z</time></trkpt>
      <trkpt lat="29.517991" lon="101.721109"><time>2026-05-03T22:23:51.383Z</time></trkpt>
      <trkpt lat="29.517991" lon="101.721109"><time>2026-05-03T22:23:51.399Z</time></trkpt>
      <trkpt lat="29.517991" lon="101.721109"><time>2026-05-03T22:23:51.416Z</time></trkpt>
      <trkpt lat="29.517991" lon="101.721109"><time>2026-05-03T22:23:51.433Z</time></trkpt>
      <trkpt lat="29.517991" lon="101.721109"><time>2026-05-03T22:23:51.449Z</time></trkpt>
      <trkpt lat="29.517991" lon="101.721109"><time>2026-05-03T22:23:51.466Z</time></trkpt>
      <trkpt lat="29.517991" lon="101.721109"><time>2026-05-03T22:23:51.483Z</time></trkpt>
      <trkpt lat="29.517991" lon="101.721109"><time>2026-05-03T22:23:51.499Z</time></trkpt>
      <trkpt lat="29.517991" lon="101.721109"><time>2026-05-03T22:23:51.516Z</time></trkpt>
      <trkpt lat="29.517991" lon="101.721109"><time>2026-05-03T22:23:51.533Z</time></trkpt>
      <trkpt lat="29.517991" lon="101.721109"><time>2026-05-03T22:23:51.549Z</time></trkpt>
      <trkpt lat="29.517991" lon="101.721109"><time>2026-05-03T22:23:51.566Z</time></trkpt>
      <trkpt lat="29.517991" lon="101.721109"><time>2026-05-03T22:23:51.583Z</time></trkpt>
      <trkpt lat="29.517991" lon="101.721109"><time>2026-05-03T22:23:51.599Z</time></trkpt>
      <trkpt lat="29.517991" lon="101.721109"><time>2026-05-03T22:23:51.616Z</time></trkpt>
      <trkpt lat="29.517991" lon="101.721109"><time>2026-05-03T22:23:51.633Z</time></trkpt>
      <trkpt lat="29.517991" lon="101.721109"><time>2026-05-03T22:23:51.650Z</time></trkpt>
      <trkpt lat="29.517991" lon="101.721109"><time>2026-05-03T22:23:51.666Z</time></trkpt>
      <trkpt lat="29.517991" lon="101.721109"><time>2026-05-03T22:23:51.683Z</time></trkpt>
      <trkpt lat="29.517991" lon="101.721109"><time>2026-05-03T22:23:51.700Z</time></trkpt>
      <trkpt lat="29.517991" lon="101.721109"><time>2026-05-03T22:23:51.716Z</time></trkpt>
      <trkpt lat="29.517991" lon="101.721109"><time>2026-05-03T22:23:51.733Z</time></trkpt>
      <trkpt lat="29.517991" lon="101.721109"><time>2026-05-03T22:23:51.750Z</time></trkpt>
      <trkpt lat="29.517991" lon="101.721109"><time>2026-05-03T22:23:51.766Z</time></trkpt>
      <trkpt lat="29.517991" lon="101.721109"><time>2026-05-03T22:23:51.783Z</time></trkpt>
      <trkpt lat="29.517991" lon="101.721109"><time>2026-05-03T22:23:51.800Z</time></trkpt>
      <trkpt lat="29.517991" lon="101.721109"><time>2026-05-03T22:23:51.816Z</time></trkpt>
      <trkpt lat="29.517991" lon="101.721109"><time>2026-05-03T22:23:51.833Z</time></trkpt>
      <trkpt lat="29.517991" lon="101.721109"><time>2026-05-03T22:23:51.850Z</time></trkpt>
      <trkpt lat="29.517991" lon="101.721109"><time>2026-05-03T22:23:51.866Z</time></trkpt>
      <trkpt lat="29.517991" lon="101.721109"><time>2026-05-03T22:23:51.883Z</time></trkpt>
      <trkpt lat="29.517991" lon="101.721109"><time>2026-05-03T22:23:51.900Z</time></trkpt>
      <trkpt lat="29.517991" lon="101.721109"><time>2026-05-03T22:23:51.916Z</time></trkpt>
      <trkpt lat="29.517991" lon="101.721109"><time>2026-05-03T22:23:51.933Z</time></trkpt>
      <trkpt lat="29.517991" lon="101.721109"><time>2026-05-03T22:23:51.950Z</time></trkpt>
      <trkpt lat="29.517991" lon="101.721109"><time>2026-05-03T22:23:51.967Z</time></trkpt>
      <trkpt lat="29.517991" lon="101.721109"><time>2026-05-03T22:23:51.983Z</time></trkpt>
      <trkpt lat="29.517991" lon="101.721109"><time>2026-05-03T22:23:52.000Z</time></trkpt>
      <trkpt lat="29.517991" lon="101.721109"><time>2026-05-03T22:23:52.017Z</time></trkpt>
      <trkpt lat="29.517991" lon="101.721109"><time>2026-05-03T22:23:52.033Z</time></trkpt>
      <trkpt lat="29.517991" lon="101.721109"><time>2026-05-03T22:23:52.050Z</time></trkpt>
      <trkpt lat="29.517991" lon="101.721109"><time>2026-05-03T22:23:52.067Z</time></trkpt>
      <trkpt lat="29.517991" lon="101.721109"><time>2026-05-03T22:23:52.083Z</time></trkpt>
      <trkpt lat="29.517991" lon="101.721109"><time>2026-05-03T22:23:52.100Z</time></trkpt>
      <trkpt lat="29.517991" lon="101.721109"><time>2026-05-03T22:23:52.117Z</time></trkpt>
      <trkpt lat="29.517991" lon="101.721109"><time>2026-05-03T22:23:52.133Z</time></trkpt>
      <trkpt lat="29.517991" lon="101.721109"><time>2026-05-03T22:23:52.150Z</time></trkpt>
      <trkpt lat="29.517991" lon="101.721109"><time>2026-05-03T22:23:52.167Z</time></trkpt>
      <trkpt lat="29.517991" lon="101.721109"><time>2026-05-03T22:23:52.183Z</time></trkpt>
      <trkpt lat="29.517991" lon="101.721109"><time>2026-05-03T22:23:52.200Z</time></trkpt>
      <trkpt lat="29.517991" lon="101.721109"><time>2026-05-03T22:23:52.217Z</time></trkpt>
      <trkpt lat="29.517991" lon="101.721109"><time>2026-05-03T22:23:52.233Z</time></trkpt>
      <trkpt lat="29.517991" lon="101.721109"><time>2026-05-03T22:23:52.250Z</time></trkpt>
      <trkpt lat="29.517991" lon="101.721109"><time>2026-05-03T22:23:52.267Z</time></trkpt>
      <trkpt lat="29.517991" lon="101.721109"><time>2026-05-03T22:23:52.284Z</time></trkpt>
      <trkpt lat="29.517991" lon="101.721109"><time>2026-05-03T22:23:52.300Z</time></trkpt>
      <trkpt lat="29.517991" lon="101.721109"><time>2026-05-03T22:23:52.317Z</time></trkpt>
      <trkpt lat="29.517991" lon="101.721109"><time>2026-05-03T22:23:52.334Z</time></trkpt>
      <trkpt lat="29.517991" lon="101.721109"><time>2026-05-03T22:23:52.350Z</time></trkpt>
      <trkpt lat="29.517991" lon="101.721109"><time>2026-05-03T22:23:52.367Z</time></trkpt>
      <trkpt lat="29.517991" lon="101.721109"><time>2026-05-03T22:23:52.384Z</time></trkpt>
      <trkpt lat="29.517991" lon="101.721109"><time>2026-05-03T22:23:52.400Z</time></trkpt>
      <trkpt lat="29.517991" lon="101.721109"><time>2026-05-03T22:23:52.417Z</time></trkpt>
      <trkpt lat="29.517991" lon="101.721109"><time>2026-05-03T22:23:52.434Z</time></trkpt>
      <trkpt lat="29.517991" lon="101.721109"><time>2026-05-03T22:23:52.450Z</time></trkpt>
      <trkpt lat="29.517991" lon="101.721109"><time>2026-05-03T22:23:52.467Z</time></trkpt>
      <trkpt lat="29.517991" lon="101.721109"><time>2026-05-03T22:23:52.484Z</time></trkpt>
      <trkpt lat="29.517991" lon="101.721109"><time>2026-05-03T22:23:52.500Z</time></trkpt>
      <trkpt lat="29.517991" lon="101.721109"><time>2026-05-03T22:23:52.517Z</time></trkpt>
      <trkpt lat="29.517991" lon="101.721109"><time>2026-05-03T22:23:52.534Z</time></trkpt>
      <trkpt lat="29.517991" lon="101.721109"><time>2026-05-03T22:23:52.550Z</time></trkpt>
      <trkpt lat="29.517991" lon="101.721109"><time>2026-05-03T22:23:52.567Z</time></trkpt>
      <trkpt lat="29.517991" lon="101.721109"><time>2026-05-03T22:23:52.584Z</time></trkpt>
      <trkpt lat="29.517991" lon="101.721109"><time>2026-05-03T22:23:52.601Z</time></trkpt>
      <trkpt lat="29.517991" lon="101.721109"><time>2026-05-03T22:23:52.617Z</time></trkpt>
      <trkpt lat="29.517991" lon="101.721109"><time>2026-05-03T22:23:52.634Z</time></trkpt>
      <trkpt lat="29.517991" lon="101.721108"><time>2026-05-03T22:23:52.651Z</time></trkpt>
      <trkpt lat="29.517991" lon="101.721108"><time>2026-05-03T22:23:52.667Z</time></trkpt>
      <trkpt lat="29.517991" lon="101.721108"><time>2026-05-03T22:23:52.684Z</time></trkpt>
      <trkpt lat="29.517991" lon="101.721108"><time>2026-05-03T22:23:52.701Z</time></trkpt>
      <trkpt lat="29.517991" lon="101.721108"><time>2026-05-03T22:23:52.717Z</time></trkpt>
      <trkpt lat="29.517991" lon="101.721108"><time>2026-05-03T22:23:52.734Z</time></trkpt>
      <trkpt lat="29.517991" lon="101.721108"><time>2026-05-03T22:23:52.751Z</time></trkpt>
      <trkpt lat="29.517991" lon="101.721108"><time>2026-05-03T22:23:52.767Z</time></trkpt>
      <trkpt lat="29.517991" lon="101.721108"><time>2026-05-03T22:23:52.784Z</time></trkpt>
      <trkpt lat="29.517991" lon="101.721108"><time>2026-05-03T22:23:52.801Z</time></trkpt>
      <trkpt lat="29.517991" lon="101.721108"><time>2026-05-03T22:23:52.817Z</time></trkpt>
      <trkpt lat="29.517991" lon="101.721108"><time>2026-05-03T22:23:52.834Z</time></trkpt>
      <trkpt lat="29.517991" lon="101.721108"><time>2026-05-03T22:23:52.851Z</time></trkpt>
      <trkpt lat="29.517991" lon="101.721108"><time>2026-05-03T22:23:52.867Z</time></trkpt>
      <trkpt lat="29.517991" lon="101.721108"><time>2026-05-03T22:23:52.884Z</time></trkpt>
      <trkpt lat="29.517991" lon="101.721108"><time>2026-05-03T22:23:52.901Z</time></trkpt>
      <trkpt lat="29.517991" lon="101.721108"><time>2026-05-03T22:23:52.917Z</time></trkpt>
      <trkpt lat="29.517991" lon="101.721108"><time>2026-05-03T22:23:52.934Z</time></trkpt>
      <trkpt lat="29.517991" lon="101.721108"><time>2026-05-03T22:23:52.951Z</time></trkpt>
      <trkpt lat="29.517991" lon="101.721108"><time>2026-05-03T22:23:52.968Z</time></trkpt>
      <trkpt lat="29.517991" lon="101.721108"><time>2026-05-03T22:23:52.984Z</time></trkpt>
      <trkpt lat="29.517991" lon="101.721108"><time>2026-05-03T22:23:53.001Z</time></trkpt>
      <trkpt lat="29.517991" lon="101.721108"><time>2026-05-03T22:23:53.018Z</time></trkpt>
      <trkpt lat="29.517991" lon="101.721108"><time>2026-05-03T22:23:53.034Z</time></trkpt>
      <trkpt lat="29.517991" lon="101.721109"><time>2026-05-03T22:23:53.051Z</time></trkpt>
      <trkpt lat="29.517991" lon="101.721109"><time>2026-05-03T22:23:53.068Z</time></trkpt>
      <trkpt lat="29.517991" lon="101.721109"><time>2026-05-03T22:23:53.084Z</time></trkpt>
      <trkpt lat="29.517991" lon="101.721109"><time>2026-05-03T22:23:53.101Z</time></trkpt>
      <trkpt lat="29.517991" lon="101.721109"><time>2026-05-03T22:23:53.118Z</time></trkpt>
      <trkpt lat="29.517991" lon="101.721109"><time>2026-05-03T22:23:53.134Z</time></trkpt>
      <trkpt lat="29.517991" lon="101.721109"><time>2026-05-03T22:23:53.151Z</time></trkpt>
      <trkpt lat="29.517991" lon="101.721109"><time>2026-05-03T22:23:53.168Z</time></trkpt>
      <trkpt lat="29.517991" lon="101.721109"><time>2026-05-03T22:23:53.184Z</time></trkpt>
      <trkpt lat="29.517991" lon="101.721109"><time>2026-05-03T22:23:53.201Z</time></trkpt>
      <trkpt lat="29.517991" lon="101.721109"><time>2026-05-03T22:23:53.218Z</time></trkpt>
      <trkpt lat="29.517991" lon="101.721109"><time>2026-05-03T22:23:53.234Z</time></trkpt>
      <trkpt lat="29.517991" lon="101.721109"><time>2026-05-03T22:23:53.251Z</time></trkpt>
      <trkpt lat="29.517991" lon="101.721109"><time>2026-05-03T22:23:53.268Z</time></trkpt>
      <trkpt lat="29.517991" lon="101.721109"><time>2026-05-03T22:23:53.285Z</time></trkpt>
      <trkpt lat="29.517991" lon="101.721109"><time>2026-05-03T22:23:53.301Z</time></trkpt>
      <trkpt lat="29.517991" lon="101.721109"><time>2026-05-03T22:23:53.318Z</time></trkpt>
      <trkpt lat="29.517991" lon="101.721109"><time>2026-05-03T22:23:53.335Z</time></trkpt>
      <trkpt lat="29.517991" lon="101.721108"><time>2026-05-03T22:23:53.351Z</time></trkpt>
      <trkpt lat="29.517991" lon="101.721108"><time>2026-05-03T22:23:53.368Z</time></trkpt>
      <trkpt lat="29.517991" lon="101.721108"><time>2026-05-03T22:23:53.385Z</time></trkpt>
      <trkpt lat="29.517991" lon="101.721108"><time>2026-05-03T22:23:53.401Z</time></trkpt>
      <trkpt lat="29.517991" lon="101.721108"><time>2026-05-03T22:23:53.418Z</time></trkpt>
      <trkpt lat="29.517991" lon="101.721108"><time>2026-05-03T22:23:53.435Z</time></trkpt>
      <trkpt lat="29.517991" lon="101.721108"><time>2026-05-03T22:23:53.451Z</time></trkpt>
      <trkpt lat="29.517991" lon="101.721108"><time>2026-05-03T22:23:53.468Z</time></trkpt>
      <trkpt lat="29.517991" lon="101.721108"><time>2026-05-03T22:23:53.485Z</time></trkpt>
      <trkpt lat="29.517991" lon="101.721108"><time>2026-05-03T22:23:53.501Z</time></trkpt>
      <trkpt lat="29.517991" lon="101.721108"><time>2026-05-03T22:23:53.518Z</time></trkpt>
      <trkpt lat="29.517991" lon="101.721108"><time>2026-05-03T22:23:53.535Z</time></trkpt>
      <trkpt lat="29.517991" lon="101.721108"><time>2026-05-03T22:23:53.551Z</time></trkpt>
      <trkpt lat="29.517991" lon="101.721108"><time>2026-05-03T22:23:53.568Z</time></trkpt>
      <trkpt lat="29.517991" lon="101.721108"><time>2026-05-03T22:23:53.585Z</time></trkpt>
      <trkpt lat="29.517991" lon="101.721108"><time>2026-05-03T22:23:53.602Z</time></trkpt>
      <trkpt lat="29.517991" lon="101.721108"><time>2026-05-03T22:23:53.618Z</time></trkpt>
      <trkpt lat="29.517991" lon="101.721108"><time>2026-05-03T22:23:53.635Z</time></trkpt>
      <trkpt lat="29.517991" lon="101.721108"><time>2026-05-03T22:23:53.652Z</time></trkpt>
      <trkpt lat="29.517991" lon="101.721108"><time>2026-05-03T22:23:53.668Z</time></trkpt>
      <trkpt lat="29.517991" lon="101.721108"><time>2026-05-03T22:23:53.685Z</time></trkpt>
      <trkpt lat="29.517991" lon="101.721108"><time>2026-05-03T22:23:53.702Z</time></trkpt>
      <trkpt lat="29.517991" lon="101.721108"><time>2026-05-03T22:23:53.718Z</time></trkpt>
      <trkpt lat="29.517991" lon="101.721108"><time>2026-05-03T22:23:53.735Z</time></trkpt>
      <trkpt lat="29.517991" lon="101.721108"><time>2026-05-03T22:23:53.752Z</time></trkpt>
      <trkpt lat="29.517991" lon="101.721108"><time>2026-05-03T22:23:53.768Z</time></trkpt>
      <trkpt lat="29.517991" lon="101.721108"><time>2026-05-03T22:23:53.785Z</time></trkpt>
      <trkpt lat="29.517991" lon="101.721108"><time>2026-05-03T22:23:53.802Z</time></trkpt>
      <trkpt lat="29.517991" lon="101.721108"><time>2026-05-03T22:23:53.818Z</time></trkpt>
      <trkpt lat="29.517991" lon="101.721108"><time>2026-05-03T22:23:53.835Z</time></trkpt>
      <trkpt lat="29.517991" lon="101.721108"><time>2026-05-03T22:23:53.852Z</time></trkpt>
      <trkpt lat="29.517991" lon="101.721108"><time>2026-05-03T22:23:53.868Z</time></trkpt>
      <trkpt lat="29.517991" lon="101.721108"><time>2026-05-03T22:23:53.885Z</time></trkpt>
      <trkpt lat="29.517991" lon="101.721108"><time>2026-05-03T22:23:53.902Z</time></trkpt>
      <trkpt lat="29.517991" lon="101.721108"><time>2026-05-03T22:23:53.919Z</time></trkpt>
      <trkpt lat="29.517991" lon="101.721108"><time>2026-05-03T22:23:53.935Z</time></trkpt>
      <trkpt lat="29.517991" lon="101.721108"><time>2026-05-03T22:23:53.952Z</time></trkpt>
      <trkpt lat="29.517991" lon="101.721108"><time>2026-05-03T22:23:53.969Z</time></trkpt>
      <trkpt lat="29.517991" lon="101.721108"><time>2026-05-03T22:23:53.985Z</time></trkpt>
      <trkpt lat="29.517991" lon="101.721108"><time>2026-05-03T22:23:54.002Z</time></trkpt>
      <trkpt lat="29.517991" lon="101.721108"><time>2026-05-03T22:23:54.019Z</time></trkpt>
      <trkpt lat="29.517991" lon="101.721108"><time>2026-05-03T22:23:54.035Z</time></trkpt>
      <trkpt lat="29.517991" lon="101.721108"><time>2026-05-03T22:23:54.052Z</time></trkpt>
      <trkpt lat="29.517991" lon="101.721108"><time>2026-05-03T22:23:54.069Z</time></trkpt>
      <trkpt lat="29.517991" lon="101.721108"><time>2026-05-03T22:23:54.085Z</time></trkpt>
      <trkpt lat="29.517991" lon="101.721108"><time>2026-05-03T22:23:54.102Z</time></trkpt>
      <trkpt lat="29.517991" lon="101.721108"><time>2026-05-03T22:23:54.119Z</time></trkpt>
      <trkpt lat="29.517991" lon="101.721108"><time>2026-05-03T22:23:54.135Z</time></trkpt>
      <trkpt lat="29.517991" lon="101.721108"><time>2026-05-03T22:23:54.152Z</time></trkpt>
      <trkpt lat="29.517991" lon="101.721108"><time>2026-05-03T22:23:54.169Z</time></trkpt>
      <trkpt lat="29.517991" lon="101.721108"><time>2026-05-03T22:23:54.185Z</time></trkpt>
      <trkpt lat="29.517991" lon="101.721108"><time>2026-05-03T22:23:54.202Z</time></trkpt>
      <trkpt lat="29.517991" lon="101.721108"><time>2026-05-03T22:23:54.219Z</time></trkpt>
      <trkpt lat="29.517991" lon="101.721108"><time>2026-05-03T22:23:54.236Z</time></trkpt>
      <trkpt lat="29.517991" lon="101.721108"><time>2026-05-03T22:23:54.252Z</time></trkpt>
      <trkpt lat="29.517991" lon="101.721108"><time>2026-05-03T22:23:54.269Z</time></trkpt>
      <trkpt lat="29.517991" lon="101.721108"><time>2026-05-03T22:23:54.286Z</time></trkpt>
      <trkpt lat="29.517991" lon="101.721108"><time>2026-05-03T22:23:54.302Z</time></trkpt>
      <trkpt lat="29.517991" lon="101.721108"><time>2026-05-03T22:23:54.319Z</time></trkpt>
      <trkpt lat="29.517991" lon="101.721108"><time>2026-05-03T22:23:54.336Z</time></trkpt>
      <trkpt lat="29.517991" lon="101.721108"><time>2026-05-03T22:23:54.352Z</time></trkpt>
      <trkpt lat="29.517991" lon="101.721108"><time>2026-05-03T22:23:54.369Z</time></trkpt>
      <trkpt lat="29.517991" lon="101.721108"><time>2026-05-03T22:23:54.386Z</time></trkpt>
      <trkpt lat="29.517991" lon="101.721108"><time>2026-05-03T22:23:54.402Z</time></trkpt>
      <trkpt lat="29.517991" lon="101.721108"><time>2026-05-03T22:23:54.419Z</time></trkpt>
      <trkpt lat="29.517991" lon="101.721108"><time>2026-05-03T22:23:54.436Z</time></trkpt>
      <trkpt lat="29.517991" lon="101.721108"><time>2026-05-03T22:23:54.452Z</time></trkpt>
      <trkpt lat="29.517991" lon="101.721108"><time>2026-05-03T22:23:54.469Z</time></trkpt>
      <trkpt lat="29.517991" lon="101.721108"><time>2026-05-03T22:23:54.486Z</time></trkpt>
      <trkpt lat="29.517991" lon="101.721108"><time>2026-05-03T22:23:54.502Z</time></trkpt>
      <trkpt lat="29.517991" lon="101.721108"><time>2026-05-03T22:23:54.519Z</time></trkpt>
      <trkpt lat="29.517991" lon="101.721108"><time>2026-05-03T22:23:54.536Z</time></trkpt>
      <trkpt lat="29.517991" lon="101.721108"><time>2026-05-03T22:23:54.553Z</time></trkpt>
      <trkpt lat="29.517991" lon="101.721108"><time>2026-05-03T22:23:54.569Z</time></trkpt>
      <trkpt lat="29.517991" lon="101.721108"><time>2026-05-03T22:23:54.586Z</time></trkpt>
      <trkpt lat="29.517991" lon="101.721108"><time>2026-05-03T22:23:54.603Z</time></trkpt>
      <trkpt lat="29.517991" lon="101.721108"><time>2026-05-03T22:23:54.619Z</time></trkpt>
      <trkpt lat="29.517991" lon="101.721108"><time>2026-05-03T22:23:54.636Z</time></trkpt>
      <trkpt lat="29.517991" lon="101.721108"><time>2026-05-03T22:23:54.653Z</time></trkpt>
      <trkpt lat="29.517991" lon="101.721108"><time>2026-05-03T22:23:54.669Z</time></trkpt>
      <trkpt lat="29.517991" lon="101.721108"><time>2026-05-03T22:23:54.686Z</time></trkpt>
      <trkpt lat="29.517991" lon="101.721108"><time>2026-05-03T22:23:54.703Z</time></trkpt>
      <trkpt lat="29.517991" lon="101.721108"><time>2026-05-03T22:23:54.719Z</time></trkpt>
      <trkpt lat="29.517991" lon="101.721108"><time>2026-05-03T22:23:54.736Z</time></trkpt>
      <trkpt lat="29.517991" lon="101.721108"><time>2026-05-03T22:23:54.753Z</time></trkpt>
      <trkpt lat="29.517991" lon="101.721108"><time>2026-05-03T22:23:54.769Z</time></trkpt>
      <trkpt lat="29.517991" lon="101.721108"><time>2026-05-03T22:23:54.786Z</time></trkpt>
      <trkpt lat="29.517991" lon="101.721108"><time>2026-05-03T22:23:54.803Z</time></trkpt>
      <trkpt lat="29.517991" lon="101.721108"><time>2026-05-03T22:23:54.819Z</time></trkpt>
      <trkpt lat="29.517991" lon="101.721108"><time>2026-05-03T22:23:54.836Z</time></trkpt>
      <trkpt lat="29.517991" lon="101.721108"><time>2026-05-03T22:23:54.853Z</time></trkpt>
      <trkpt lat="29.517991" lon="101.721108"><time>2026-05-03T22:23:54.870Z</time></trkpt>
      <trkpt lat="29.517991" lon="101.721108"><time>2026-05-03T22:23:54.886Z</time></trkpt>
      <trkpt lat="29.517991" lon="101.721108"><time>2026-05-03T22:23:54.903Z</time></trkpt>
      <trkpt lat="29.517991" lon="101.721108"><time>2026-05-03T22:23:54.920Z</time></trkpt>
      <trkpt lat="29.517991" lon="101.721108"><time>2026-05-03T22:23:54.936Z</time></trkpt>
      <trkpt lat="29.517991" lon="101.721108"><time>2026-05-03T22:23:54.953Z</time></trkpt>
      <trkpt lat="29.517991" lon="101.721108"><time>2026-05-03T22:23:54.970Z</time></trkpt>
      <trkpt lat="29.517991" lon="101.721108"><time>2026-05-03T22:23:54.986Z</time></trkpt>
      <trkpt lat="29.517991" lon="101.721108"><time>2026-05-03T22:23:55.003Z</time></trkpt>
      <trkpt lat="29.517991" lon="101.721108"><time>2026-05-03T22:23:55.020Z</time></trkpt>
      <trkpt lat="29.517991" lon="101.721108"><time>2026-05-03T22:23:55.036Z</time></trkpt>
      <trkpt lat="29.517991" lon="101.721108"><time>2026-05-03T22:23:55.053Z</time></trkpt>
      <trkpt lat="29.517991" lon="101.721108"><time>2026-05-03T22:23:55.070Z</time></trkpt>
      <trkpt lat="29.517991" lon="101.721108"><time>2026-05-03T22:23:55.086Z</time></trkpt>
      <trkpt lat="29.517991" lon="101.721108"><time>2026-05-03T22:23:55.103Z</time></trkpt>
      <trkpt lat="29.517991" lon="101.721108"><time>2026-05-03T22:23:55.120Z</time></trkpt>
      <trkpt lat="29.517991" lon="101.721108"><time>2026-05-03T22:23:55.136Z</time></trkpt>
      <trkpt lat="29.517991" lon="101.721108"><time>2026-05-03T22:23:55.153Z</time></trkpt>
      <trkpt lat="29.517991" lon="101.721108"><time>2026-05-03T22:23:55.170Z</time></trkpt>
      <trkpt lat="29.517991" lon="101.721108"><time>2026-05-03T22:23:55.187Z</time></trkpt>
      <trkpt lat="29.517991" lon="101.721108"><time>2026-05-03T22:23:55.203Z</time></trkpt>
      <trkpt lat="29.517991" lon="101.721108"><time>2026-05-03T22:23:55.220Z</time></trkpt>
      <trkpt lat="29.517991" lon="101.721108"><time>2026-05-03T22:23:55.237Z</time></trkpt>
      <trkpt lat="29.517991" lon="101.721108"><time>2026-05-03T22:23:55.253Z</time></trkpt>
      <trkpt lat="29.517991" lon="101.721108"><time>2026-05-03T22:23:55.270Z</time></trkpt>
      <trkpt lat="29.517991" lon="101.721108"><time>2026-05-03T22:23:55.287Z</time></trkpt>
      <trkpt lat="29.517991" lon="101.721108"><time>2026-05-03T22:23:55.303Z</time></trkpt>
      <trkpt lat="29.517991" lon="101.721108"><time>2026-05-03T22:23:55.320Z</time></trkpt>
      <trkpt lat="29.517991" lon="101.721108"><time>2026-05-03T22:23:55.337Z</time></trkpt>
      <trkpt lat="29.517991" lon="101.721108"><time>2026-05-03T22:23:55.353Z</time></trkpt>
      <trkpt lat="29.517991" lon="101.721108"><time>2026-05-03T22:23:55.370Z</time></trkpt>
      <trkpt lat="29.517991" lon="101.721108"><time>2026-05-03T22:23:55.387Z</time></trkpt>
      <trkpt lat="29.517991" lon="101.721108"><time>2026-05-03T22:23:55.403Z</time></trkpt>
      <trkpt lat="29.517991" lon="101.721108"><time>2026-05-03T22:23:55.420Z</time></trkpt>
      <trkpt lat="29.517991" lon="101.721108"><time>2026-05-03T22:23:55.437Z</time></trkpt>
      <trkpt lat="29.517991" lon="101.721108"><time>2026-05-03T22:23:55.453Z</time></trkpt>
      <trkpt lat="29.517991" lon="101.721108"><time>2026-05-03T22:23:55.470Z</time></trkpt>
      <trkpt lat="29.517991" lon="101.721108"><time>2026-05-03T22:23:55.487Z</time></trkpt>
      <trkpt lat="29.517991" lon="101.721108"><time>2026-05-03T22:23:55.504Z</time></trkpt>
      <trkpt lat="29.517991" lon="101.721108"><time>2026-05-03T22:23:55.520Z</time></trkpt>
      <trkpt lat="29.517991" lon="101.721108"><time>2026-05-03T22:23:55.537Z</time></trkpt>
      <trkpt lat="29.517991" lon="101.721108"><time>2026-05-03T22:23:55.554Z</time></trkpt>
      <trkpt lat="29.517991" lon="101.721108"><time>2026-05-03T22:23:55.570Z</time></trkpt>
      <trkpt lat="29.517991" lon="101.721108"><time>2026-05-03T22:23:55.587Z</time></trkpt>
      <trkpt lat="29.517991" lon="101.721108"><time>2026-05-03T22:23:55.604Z</time></trkpt>
      <trkpt lat="29.517991" lon="101.721108"><time>2026-05-03T22:23:55.620Z</time></trkpt>
      <trkpt lat="29.517991" lon="101.721108"><time>2026-05-03T22:23:55.637Z</time></trkpt>
      <trkpt lat="29.517991" lon="101.721108"><time>2026-05-03T22:23:55.654Z</time></trkpt>
      <trkpt lat="29.517991" lon="101.721108"><time>2026-05-03T22:23:55.670Z</time></trkpt>
      <trkpt lat="29.517991" lon="101.721108"><time>2026-05-03T22:23:55.687Z</time></trkpt>
      <trkpt lat="29.517991" lon="101.721108"><time>2026-05-03T22:23:55.704Z</time></trkpt>
      <trkpt lat="29.517991" lon="101.721108"><time>2026-05-03T22:23:55.720Z</time></trkpt>
      <trkpt lat="29.517991" lon="101.721108"><time>2026-05-03T22:23:55.737Z</time></trkpt>
      <trkpt lat="29.517991" lon="101.721108"><time>2026-05-03T22:23:55.754Z</time></trkpt>
      <trkpt lat="29.517991" lon="101.721108"><time>2026-05-03T22:23:55.770Z</time></trkpt>
      <trkpt lat="29.517991" lon="101.721108"><time>2026-05-03T22:23:55.787Z</time></trkpt>
      <trkpt lat="29.517991" lon="101.721108"><time>2026-05-03T22:23:55.804Z</time></trkpt>
      <trkpt lat="29.517991" lon="101.721108"><time>2026-05-03T22:23:55.821Z</time></trkpt>
      <trkpt lat="29.517991" lon="101.721108"><time>2026-05-03T22:23:55.837Z</time></trkpt>
      <trkpt lat="29.517991" lon="101.721108"><time>2026-05-03T22:23:55.854Z</time></trkpt>
      <trkpt lat="29.517991" lon="101.721108"><time>2026-05-03T22:23:55.871Z</time></trkpt>
      <trkpt lat="29.517991" lon="101.721108"><time>2026-05-03T22:23:55.887Z</time></trkpt>
      <trkpt lat="29.517991" lon="101.721108"><time>2026-05-03T22:23:55.904Z</time></trkpt>
      <trkpt lat="29.517991" lon="101.721108"><time>2026-05-03T22:23:55.921Z</time></trkpt>
      <trkpt lat="29.517991" lon="101.721108"><time>2026-05-03T22:23:55.937Z</time></trkpt>
      <trkpt lat="29.517991" lon="101.721108"><time>2026-05-03T22:23:55.954Z</time></trkpt>
      <trkpt lat="29.517991" lon="101.721108"><time>2026-05-03T22:23:55.971Z</time></trkpt>
      <trkpt lat="29.517991" lon="101.721108"><time>2026-05-03T22:23:55.987Z</time></trkpt>
      <trkpt lat="29.517991" lon="101.721108"><time>2026-05-03T22:23:56.004Z</time></trkpt>
      <trkpt lat="29.517991" lon="101.721108"><time>2026-05-03T22:23:56.021Z</time></trkpt>
      <trkpt lat="29.517991" lon="101.721108"><time>2026-05-03T22:23:56.037Z</time></trkpt>
      <trkpt lat="29.517991" lon="101.721108"><time>2026-05-03T22:23:56.054Z</time></trkpt>
      <trkpt lat="29.517991" lon="101.721108"><time>2026-05-03T22:23:56.071Z</time></trkpt>
      <trkpt lat="29.517991" lon="101.721108"><time>2026-05-03T22:23:56.087Z</time></trkpt>
      <trkpt lat="29.517991" lon="101.721108"><time>2026-05-03T22:23:56.104Z</time></trkpt>
      <trkpt lat="29.517991" lon="101.721108"><time>2026-05-03T22:23:56.121Z</time></trkpt>
      <trkpt lat="29.517991" lon="101.721108"><time>2026-05-03T22:23:56.138Z</time></trkpt>
      <trkpt lat="29.517991" lon="101.721108"><time>2026-05-03T22:23:56.154Z</time></trkpt>
      <trkpt lat="29.517991" lon="101.721108"><time>2026-05-03T22:23:56.171Z</time></trkpt>
      <trkpt lat="29.517991" lon="101.721108"><time>2026-05-03T22:23:56.188Z</time></trkpt>
      <trkpt lat="29.517991" lon="101.721108"><time>2026-05-03T22:23:56.204Z</time></trkpt>
      <trkpt lat="29.517991" lon="101.721108"><time>2026-05-03T22:23:56.221Z</time></trkpt>
      <trkpt lat="29.517991" lon="101.721108"><time>2026-05-03T22:23:56.238Z</time></trkpt>
      <trkpt lat="29.517991" lon="101.721108"><time>2026-05-03T22:23:56.254Z</time></trkpt>
      <trkpt lat="29.517991" lon="101.721108"><time>2026-05-03T22:23:56.271Z</time></trkpt>
      <trkpt lat="29.517991" lon="101.721108"><time>2026-05-03T22:23:56.288Z</time></trkpt>
      <trkpt lat="29.517991" lon="101.721108"><time>2026-05-03T22:23:56.304Z</time></trkpt>
      <trkpt lat="29.517991" lon="101.721108"><time>2026-05-03T22:23:56.321Z</time></trkpt>
      <trkpt lat="29.517991" lon="101.721108"><time>2026-05-03T22:23:56.338Z</time></trkpt>
      <trkpt lat="29.517991" lon="101.721108"><time>2026-05-03T22:23:56.354Z</time></trkpt>
      <trkpt lat="29.517991" lon="101.721108"><time>2026-05-03T22:23:56.371Z</time></trkpt>
      <trkpt lat="29.517991" lon="101.721108"><time>2026-05-03T22:23:56.388Z</time></trkpt>
      <trkpt lat="29.517991" lon="101.721108"><time>2026-05-03T22:23:56.404Z</time></trkpt>
      <trkpt lat="29.517991" lon="101.721108"><time>2026-05-03T22:23:56.421Z</time></trkpt>
      <trkpt lat="29.517991" lon="101.721108"><time>2026-05-03T22:23:56.438Z</time></trkpt>
      <trkpt lat="29.517991" lon="101.721108"><time>2026-05-03T22:23:56.455Z</time></trkpt>
      <trkpt lat="29.517991" lon="101.721108"><time>2026-05-03T22:23:56.471Z</time></trkpt>
      <trkpt lat="29.517991" lon="101.721108"><time>2026-05-03T22:23:56.488Z</time></trkpt>
      <trkpt lat="29.517991" lon="101.721108"><time>2026-05-03T22:23:56.505Z</time></trkpt>
      <trkpt lat="29.517991" lon="101.721108"><time>2026-05-03T22:23:56.521Z</time></trkpt>
      <trkpt lat="29.517991" lon="101.721108"><time>2026-05-03T22:23:56.538Z</time></trkpt>
      <trkpt lat="29.517991" lon="101.721108"><time>2026-05-03T22:23:56.555Z</time></trkpt>
      <trkpt lat="29.517991" lon="101.721108"><time>2026-05-03T22:23:56.571Z</time></trkpt>
      <trkpt lat="29.517991" lon="101.721108"><time>2026-05-03T22:23:56.588Z</time></trkpt>
      <trkpt lat="29.517991" lon="101.721108"><time>2026-05-03T22:23:56.605Z</time></trkpt>
      <trkpt lat="29.517991" lon="101.721108"><time>2026-05-03T22:23:56.621Z</time></trkpt>
      <trkpt lat="29.517991" lon="101.721108"><time>2026-05-03T22:23:56.638Z</time></trkpt>
      <trkpt lat="29.517991" lon="101.721108"><time>2026-05-03T22:23:56.655Z</time></trkpt>
      <trkpt lat="29.517991" lon="101.721108"><time>2026-05-03T22:23:56.671Z</time></trkpt>
      <trkpt lat="29.517991" lon="101.721108"><time>2026-05-03T22:23:56.688Z</time></trkpt>
      <trkpt lat="29.517991" lon="101.721108"><time>2026-05-03T22:23:56.705Z</time></trkpt>
      <trkpt lat="29.517991" lon="101.721108"><time>2026-05-03T22:23:56.721Z</time></trkpt>
      <trkpt lat="29.517991" lon="101.721108"><time>2026-05-03T22:23:56.738Z</time></trkpt>
      <trkpt lat="29.517991" lon="101.721108"><time>2026-05-03T22:23:56.755Z</time></trkpt>
      <trkpt lat="29.517991" lon="101.721108"><time>2026-05-03T22:23:56.772Z</time></trkpt>
      <trkpt lat="29.517991" lon="101.721108"><time>2026-05-03T22:23:56.788Z</time></trkpt>
      <trkpt lat="29.517991" lon="101.721108"><time>2026-05-03T22:23:56.805Z</time></trkpt>
      <trkpt lat="29.517991" lon="101.721108"><time>2026-05-03T22:23:56.822Z</time></trkpt>
      <trkpt lat="29.517991" lon="101.721108"><time>2026-05-03T22:23:56.838Z</time></trkpt>
      <trkpt lat="29.517992" lon="101.721108"><time>2026-05-03T22:23:56.855Z</time></trkpt>
      <trkpt lat="29.517992" lon="101.721108"><time>2026-05-03T22:23:56.872Z</time></trkpt>
      <trkpt lat="29.517992" lon="101.721108"><time>2026-05-03T22:23:56.888Z</time></trkpt>
      <trkpt lat="29.517992" lon="101.721108"><time>2026-05-03T22:23:56.905Z</time></trkpt>
      <trkpt lat="29.517992" lon="101.721108"><time>2026-05-03T22:23:56.922Z</time></trkpt>
      <trkpt lat="29.517992" lon="101.721108"><time>2026-05-03T22:23:56.938Z</time></trkpt>
      <trkpt lat="29.517992" lon="101.721108"><time>2026-05-03T22:23:56.955Z</time></trkpt>
      <trkpt lat="29.517992" lon="101.721108"><time>2026-05-03T22:23:56.972Z</time></trkpt>
      <trkpt lat="29.517992" lon="101.721108"><time>2026-05-03T22:23:56.988Z</time></trkpt>
      <trkpt lat="29.517992" lon="101.721108"><time>2026-05-03T22:23:57.005Z</time></trkpt>
      <trkpt lat="29.517992" lon="101.721108"><time>2026-05-03T22:23:57.022Z</time></trkpt>
      <trkpt lat="29.517992" lon="101.721108"><time>2026-05-03T22:23:57.038Z</time></trkpt>
      <trkpt lat="29.517992" lon="101.721107"><time>2026-05-03T22:23:57.055Z</time></trkpt>
      <trkpt lat="29.517992" lon="101.721107"><time>2026-05-03T22:23:57.072Z</time></trkpt>
      <trkpt lat="29.517992" lon="101.721107"><time>2026-05-03T22:23:57.089Z</time></trkpt>
      <trkpt lat="29.517992" lon="101.721107"><time>2026-05-03T22:23:57.105Z</time></trkpt>
      <trkpt lat="29.517992" lon="101.721107"><time>2026-05-03T22:23:57.122Z</time></trkpt>
      <trkpt lat="29.517992" lon="101.721107"><time>2026-05-03T22:23:57.139Z</time></trkpt>
      <trkpt lat="29.517993" lon="101.721107"><time>2026-05-03T22:23:57.155Z</time></trkpt>
      <trkpt lat="29.517993" lon="101.721107"><time>2026-05-03T22:23:57.172Z</time></trkpt>
      <trkpt lat="29.517993" lon="101.721107"><time>2026-05-03T22:23:57.189Z</time></trkpt>
      <trkpt lat="29.517993" lon="101.721107"><time>2026-05-03T22:23:57.205Z</time></trkpt>
      <trkpt lat="29.517993" lon="101.721107"><time>2026-05-03T22:23:57.222Z</time></trkpt>
      <trkpt lat="29.517993" lon="101.721107"><time>2026-05-03T22:23:57.239Z</time></trkpt>
      <trkpt lat="29.517994" lon="101.721107"><time>2026-05-03T22:23:57.255Z</time></trkpt>
      <trkpt lat="29.517994" lon="101.721107"><time>2026-05-03T22:23:57.272Z</time></trkpt>
      <trkpt lat="29.517994" lon="101.721107"><time>2026-05-03T22:23:57.289Z</time></trkpt>
      <trkpt lat="29.517994" lon="101.721107"><time>2026-05-03T22:23:57.305Z</time></trkpt>
      <trkpt lat="29.517994" lon="101.721107"><time>2026-05-03T22:23:57.322Z</time></trkpt>
      <trkpt lat="29.517994" lon="101.721107"><time>2026-05-03T22:23:57.339Z</time></trkpt>
      <trkpt lat="29.517994" lon="101.721106"><time>2026-05-03T22:23:57.355Z</time></trkpt>
      <trkpt lat="29.517994" lon="101.721106"><time>2026-05-03T22:23:57.372Z</time></trkpt>
      <trkpt lat="29.517994" lon="101.721106"><time>2026-05-03T22:23:57.389Z</time></trkpt>
      <trkpt lat="29.517994" lon="101.721106"><time>2026-05-03T22:23:57.406Z</time></trkpt>
      <trkpt lat="29.517994" lon="101.721106"><time>2026-05-03T22:23:57.422Z</time></trkpt>
      <trkpt lat="29.517994" lon="101.721106"><time>2026-05-03T22:23:57.439Z</time></trkpt>
      <trkpt lat="29.517995" lon="101.721106"><time>2026-05-03T22:23:57.456Z</time></trkpt>
      <trkpt lat="29.517995" lon="101.721106"><time>2026-05-03T22:23:57.472Z</time></trkpt>
      <trkpt lat="29.517995" lon="101.721106"><time>2026-05-03T22:23:57.489Z</time></trkpt>
      <trkpt lat="29.517995" lon="101.721106"><time>2026-05-03T22:23:57.506Z</time></trkpt>
      <trkpt lat="29.517995" lon="101.721106"><time>2026-05-03T22:23:57.522Z</time></trkpt>
      <trkpt lat="29.517995" lon="101.721106"><time>2026-05-03T22:23:57.539Z</time></trkpt>
      <trkpt lat="29.517996" lon="101.721106"><time>2026-05-03T22:23:57.556Z</time></trkpt>
      <trkpt lat="29.517996" lon="101.721106"><time>2026-05-03T22:23:57.572Z</time></trkpt>
      <trkpt lat="29.517996" lon="101.721106"><time>2026-05-03T22:23:57.589Z</time></trkpt>
      <trkpt lat="29.517996" lon="101.721106"><time>2026-05-03T22:23:57.606Z</time></trkpt>
      <trkpt lat="29.517996" lon="101.721106"><time>2026-05-03T22:23:57.622Z</time></trkpt>
      <trkpt lat="29.517996" lon="101.721106"><time>2026-05-03T22:23:57.639Z</time></trkpt>
      <trkpt lat="29.517997" lon="101.721105"><time>2026-05-03T22:23:57.656Z</time></trkpt>
      <trkpt lat="29.517997" lon="101.721105"><time>2026-05-03T22:23:57.672Z</time></trkpt>
      <trkpt lat="29.517997" lon="101.721105"><time>2026-05-03T22:23:57.689Z</time></trkpt>
      <trkpt lat="29.517997" lon="101.721105"><time>2026-05-03T22:23:57.706Z</time></trkpt>
      <trkpt lat="29.517997" lon="101.721105"><time>2026-05-03T22:23:57.723Z</time></trkpt>
      <trkpt lat="29.517997" lon="101.721105"><time>2026-05-03T22:23:57.739Z</time></trkpt>
      <trkpt lat="29.517998" lon="101.721105"><time>2026-05-03T22:23:57.756Z</time></trkpt>
      <trkpt lat="29.517998" lon="101.721105"><time>2026-05-03T22:23:57.773Z</time></trkpt>
      <trkpt lat="29.517998" lon="101.721105"><time>2026-05-03T22:23:57.789Z</time></trkpt>
      <trkpt lat="29.517998" lon="101.721105"><time>2026-05-03T22:23:57.806Z</time></trkpt>
      <trkpt lat="29.517998" lon="101.721105"><time>2026-05-03T22:23:57.823Z</time></trkpt>
      <trkpt lat="29.517998" lon="101.721105"><time>2026-05-03T22:23:57.839Z</time></trkpt>
      <trkpt lat="29.517999" lon="101.721105"><time>2026-05-03T22:23:57.856Z</time></trkpt>
      <trkpt lat="29.517999" lon="101.721105"><time>2026-05-03T22:23:57.873Z</time></trkpt>
      <trkpt lat="29.517999" lon="101.721105"><time>2026-05-03T22:23:57.889Z</time></trkpt>
      <trkpt lat="29.517999" lon="101.721105"><time>2026-05-03T22:23:57.906Z</time></trkpt>
      <trkpt lat="29.517999" lon="101.721105"><time>2026-05-03T22:23:57.923Z</time></trkpt>
      <trkpt lat="29.517999" lon="101.721105"><time>2026-05-03T22:23:57.939Z</time></trkpt>
      <trkpt lat="29.518" lon="101.721104"><time>2026-05-03T22:23:57.956Z</time></trkpt>
      <trkpt lat="29.518" lon="101.721104"><time>2026-05-03T22:23:57.973Z</time></trkpt>
      <trkpt lat="29.518" lon="101.721104"><time>2026-05-03T22:23:57.989Z</time></trkpt>
      <trkpt lat="29.518" lon="101.721104"><time>2026-05-03T22:23:58.006Z</time></trkpt>
      <trkpt lat="29.518" lon="101.721104"><time>2026-05-03T22:23:58.023Z</time></trkpt>
      <trkpt lat="29.518" lon="101.721104"><time>2026-05-03T22:23:58.040Z</time></trkpt>
      <trkpt lat="29.518001" lon="101.721104"><time>2026-05-03T22:23:58.056Z</time></trkpt>
      <trkpt lat="29.518001" lon="101.721104"><time>2026-05-03T22:23:58.073Z</time></trkpt>
      <trkpt lat="29.518001" lon="101.721104"><time>2026-05-03T22:23:58.090Z</time></trkpt>
      <trkpt lat="29.518001" lon="101.721104"><time>2026-05-03T22:23:58.106Z</time></trkpt>
      <trkpt lat="29.518001" lon="101.721104"><time>2026-05-03T22:23:58.123Z</time></trkpt>
      <trkpt lat="29.518001" lon="101.721104"><time>2026-05-03T22:23:58.140Z</time></trkpt>
      <trkpt lat="29.518002" lon="101.721103"><time>2026-05-03T22:23:58.156Z</time></trkpt>
      <trkpt lat="29.518002" lon="101.721103"><time>2026-05-03T22:23:58.173Z</time></trkpt>
      <trkpt lat="29.518002" lon="101.721103"><time>2026-05-03T22:23:58.190Z</time></trkpt>
      <trkpt lat="29.518002" lon="101.721103"><time>2026-05-03T22:23:58.206Z</time></trkpt>
      <trkpt lat="29.518002" lon="101.721103"><time>2026-05-03T22:23:58.223Z</time></trkpt>
      <trkpt lat="29.518002" lon="101.721103"><time>2026-05-03T22:23:58.240Z</time></trkpt>
      <trkpt lat="29.518003" lon="101.721103"><time>2026-05-03T22:23:58.256Z</time></trkpt>
      <trkpt lat="29.518003" lon="101.721103"><time>2026-05-03T22:23:58.273Z</time></trkpt>
      <trkpt lat="29.518003" lon="101.721103"><time>2026-05-03T22:23:58.290Z</time></trkpt>
      <trkpt lat="29.518003" lon="101.721103"><time>2026-05-03T22:23:58.306Z</time></trkpt>
      <trkpt lat="29.518003" lon="101.721103"><time>2026-05-03T22:23:58.323Z</time></trkpt>
      <trkpt lat="29.518003" lon="101.721103"><time>2026-05-03T22:23:58.340Z</time></trkpt>
      <trkpt lat="29.518004" lon="101.721102"><time>2026-05-03T22:23:58.357Z</time></trkpt>
      <trkpt lat="29.518004" lon="101.721102"><time>2026-05-03T22:23:58.373Z</time></trkpt>
      <trkpt lat="29.518004" lon="101.721102"><time>2026-05-03T22:23:58.390Z</time></trkpt>
      <trkpt lat="29.518004" lon="101.721102"><time>2026-05-03T22:23:58.407Z</time></trkpt>
      <trkpt lat="29.518004" lon="101.721102"><time>2026-05-03T22:23:58.423Z</time></trkpt>
      <trkpt lat="29.518004" lon="101.721102"><time>2026-05-03T22:23:58.440Z</time></trkpt>
      <trkpt lat="29.518005" lon="101.721102"><time>2026-05-03T22:23:58.457Z</time></trkpt>
      <trkpt lat="29.518005" lon="101.721102"><time>2026-05-03T22:23:58.473Z</time></trkpt>
      <trkpt lat="29.518005" lon="101.721102"><time>2026-05-03T22:23:58.490Z</time></trkpt>
      <trkpt lat="29.518005" lon="101.721102"><time>2026-05-03T22:23:58.507Z</time></trkpt>
      <trkpt lat="29.518005" lon="101.721102"><time>2026-05-03T22:23:58.523Z</time></trkpt>
      <trkpt lat="29.518005" lon="101.721102"><time>2026-05-03T22:23:58.540Z</time></trkpt>
      <trkpt lat="29.518006" lon="101.721101"><time>2026-05-03T22:23:58.557Z</time></trkpt>
      <trkpt lat="29.518006" lon="101.721101"><time>2026-05-03T22:23:58.573Z</time></trkpt>
      <trkpt lat="29.518006" lon="101.721101"><time>2026-05-03T22:23:58.590Z</time></trkpt>
      <trkpt lat="29.518006" lon="101.721101"><time>2026-05-03T22:23:58.607Z</time></trkpt>
      <trkpt lat="29.518006" lon="101.721101"><time>2026-05-03T22:23:58.623Z</time></trkpt>
      <trkpt lat="29.518006" lon="101.721101"><time>2026-05-03T22:23:58.640Z</time></trkpt>
      <trkpt lat="29.518007" lon="101.7211"><time>2026-05-03T22:23:58.657Z</time></trkpt>
      <trkpt lat="29.518007" lon="101.7211"><time>2026-05-03T22:23:58.674Z</time></trkpt>
      <trkpt lat="29.518007" lon="101.7211"><time>2026-05-03T22:23:58.690Z</time></trkpt>
      <trkpt lat="29.518007" lon="101.7211"><time>2026-05-03T22:23:58.707Z</time></trkpt>
      <trkpt lat="29.518007" lon="101.7211"><time>2026-05-03T22:23:58.724Z</time></trkpt>
      <trkpt lat="29.518007" lon="101.7211"><time>2026-05-03T22:23:58.740Z</time></trkpt>
      <trkpt lat="29.518009" lon="101.7211"><time>2026-05-03T22:23:58.757Z</time></trkpt>
      <trkpt lat="29.518009" lon="101.7211"><time>2026-05-03T22:23:58.774Z</time></trkpt>
      <trkpt lat="29.518009" lon="101.7211"><time>2026-05-03T22:23:58.790Z</time></trkpt>
      <trkpt lat="29.518009" lon="101.7211"><time>2026-05-03T22:23:58.807Z</time></trkpt>
      <trkpt lat="29.518009" lon="101.7211"><time>2026-05-03T22:23:58.824Z</time></trkpt>
      <trkpt lat="29.518009" lon="101.7211"><time>2026-05-03T22:23:58.840Z</time></trkpt>
      <trkpt lat="29.51801" lon="101.721099"><time>2026-05-03T22:23:58.857Z</time></trkpt>
      <trkpt lat="29.51801" lon="101.721099"><time>2026-05-03T22:23:58.874Z</time></trkpt>
      <trkpt lat="29.51801" lon="101.721099"><time>2026-05-03T22:23:58.890Z</time></trkpt>
      <trkpt lat="29.51801" lon="101.721099"><time>2026-05-03T22:23:58.907Z</time></trkpt>
      <trkpt lat="29.51801" lon="101.721099"><time>2026-05-03T22:23:58.924Z</time></trkpt>
      <trkpt lat="29.51801" lon="101.721099"><time>2026-05-03T22:23:58.940Z</time></trkpt>
      <trkpt lat="29.518011" lon="101.721099"><time>2026-05-03T22:23:58.957Z</time></trkpt>
      <trkpt lat="29.518011" lon="101.721099"><time>2026-05-03T22:23:58.974Z</time></trkpt>
      <trkpt lat="29.518011" lon="101.721099"><time>2026-05-03T22:23:58.991Z</time></trkpt>
      <trkpt lat="29.518011" lon="101.721099"><time>2026-05-03T22:23:59.007Z</time></trkpt>
      <trkpt lat="29.518011" lon="101.721099"><time>2026-05-03T22:23:59.024Z</time></trkpt>
      <trkpt lat="29.518011" lon="101.721099"><time>2026-05-03T22:23:59.041Z</time></trkpt>
      <trkpt lat="29.518013" lon="101.721098"><time>2026-05-03T22:23:59.057Z</time></trkpt>
      <trkpt lat="29.518013" lon="101.721098"><time>2026-05-03T22:23:59.074Z</time></trkpt>
      <trkpt lat="29.518013" lon="101.721098"><time>2026-05-03T22:23:59.091Z</time></trkpt>
      <trkpt lat="29.518013" lon="101.721098"><time>2026-05-03T22:23:59.107Z</time></trkpt>
      <trkpt lat="29.518013" lon="101.721098"><time>2026-05-03T22:23:59.124Z</time></trkpt>
      <trkpt lat="29.518013" lon="101.721098"><time>2026-05-03T22:23:59.141Z</time></trkpt>
      <trkpt lat="29.518014" lon="101.721098"><time>2026-05-03T22:23:59.157Z</time></trkpt>
      <trkpt lat="29.518014" lon="101.721098"><time>2026-05-03T22:23:59.174Z</time></trkpt>
      <trkpt lat="29.518014" lon="101.721098"><time>2026-05-03T22:23:59.191Z</time></trkpt>
      <trkpt lat="29.518014" lon="101.721098"><time>2026-05-03T22:23:59.207Z</time></trkpt>
      <trkpt lat="29.518014" lon="101.721098"><time>2026-05-03T22:23:59.224Z</time></trkpt>
      <trkpt lat="29.518014" lon="101.721098"><time>2026-05-03T22:23:59.241Z</time></trkpt>
      <trkpt lat="29.518015" lon="101.721097"><time>2026-05-03T22:23:59.257Z</time></trkpt>
      <trkpt lat="29.518015" lon="101.721097"><time>2026-05-03T22:23:59.274Z</time></trkpt>
      <trkpt lat="29.518015" lon="101.721097"><time>2026-05-03T22:23:59.291Z</time></trkpt>
      <trkpt lat="29.518015" lon="101.721097"><time>2026-05-03T22:23:59.308Z</time></trkpt>
      <trkpt lat="29.518015" lon="101.721097"><time>2026-05-03T22:23:59.324Z</time></trkpt>
      <trkpt lat="29.518015" lon="101.721097"><time>2026-05-03T22:23:59.341Z</time></trkpt>
      <trkpt lat="29.518017" lon="101.721096"><time>2026-05-03T22:23:59.358Z</time></trkpt>
      <trkpt lat="29.518017" lon="101.721096"><time>2026-05-03T22:23:59.374Z</time></trkpt>
      <trkpt lat="29.518017" lon="101.721096"><time>2026-05-03T22:23:59.391Z</time></trkpt>
      <trkpt lat="29.518017" lon="101.721096"><time>2026-05-03T22:23:59.408Z</time></trkpt>
      <trkpt lat="29.518017" lon="101.721096"><time>2026-05-03T22:23:59.424Z</time></trkpt>
      <trkpt lat="29.518017" lon="101.721096"><time>2026-05-03T22:23:59.441Z</time></trkpt>
      <trkpt lat="29.518018" lon="101.721096"><time>2026-05-03T22:23:59.458Z</time></trkpt>
      <trkpt lat="29.518018" lon="101.721096"><time>2026-05-03T22:23:59.474Z</time></trkpt>
      <trkpt lat="29.518018" lon="101.721096"><time>2026-05-03T22:23:59.491Z</time></trkpt>
      <trkpt lat="29.518018" lon="101.721096"><time>2026-05-03T22:23:59.508Z</time></trkpt>
      <trkpt lat="29.518018" lon="101.721096"><time>2026-05-03T22:23:59.524Z</time></trkpt>
      <trkpt lat="29.518018" lon="101.721096"><time>2026-05-03T22:23:59.541Z</time></trkpt>
      <trkpt lat="29.51802" lon="101.721095"><time>2026-05-03T22:23:59.558Z</time></trkpt>
      <trkpt lat="29.51802" lon="101.721095"><time>2026-05-03T22:23:59.574Z</time></trkpt>
      <trkpt lat="29.51802" lon="101.721095"><time>2026-05-03T22:23:59.591Z</time></trkpt>
      <trkpt lat="29.51802" lon="101.721095"><time>2026-05-03T22:23:59.608Z</time></trkpt>
      <trkpt lat="29.51802" lon="101.721095"><time>2026-05-03T22:23:59.624Z</time></trkpt>
      <trkpt lat="29.51802" lon="101.721095"><time>2026-05-03T22:23:59.641Z</time></trkpt>
      <trkpt lat="29.518021" lon="101.721094"><time>2026-05-03T22:23:59.658Z</time></trkpt>
      <trkpt lat="29.518021" lon="101.721094"><time>2026-05-03T22:23:59.675Z</time></trkpt>
      <trkpt lat="29.518021" lon="101.721094"><time>2026-05-03T22:23:59.691Z</time></trkpt>
      <trkpt lat="29.518021" lon="101.721094"><time>2026-05-03T22:23:59.708Z</time></trkpt>
      <trkpt lat="29.518021" lon="101.721094"><time>2026-05-03T22:23:59.725Z</time></trkpt>
      <trkpt lat="29.518021" lon="101.721094"><time>2026-05-03T22:23:59.741Z</time></trkpt>
      <trkpt lat="29.518023" lon="101.721093"><time>2026-05-03T22:23:59.758Z</time></trkpt>
      <trkpt lat="29.518023" lon="101.721093"><time>2026-05-03T22:23:59.775Z</time></trkpt>
      <trkpt lat="29.518023" lon="101.721093"><time>2026-05-03T22:23:59.791Z</time></trkpt>
      <trkpt lat="29.518023" lon="101.721093"><time>2026-05-03T22:23:59.808Z</time></trkpt>
      <trkpt lat="29.518023" lon="101.721093"><time>2026-05-03T22:23:59.825Z</time></trkpt>
      <trkpt lat="29.518023" lon="101.721093"><time>2026-05-03T22:23:59.841Z</time></trkpt>
      <trkpt lat="29.518025" lon="101.721093"><time>2026-05-03T22:23:59.858Z</time></trkpt>
      <trkpt lat="29.518025" lon="101.721093"><time>2026-05-03T22:23:59.875Z</time></trkpt>
      <trkpt lat="29.518025" lon="101.721093"><time>2026-05-03T22:23:59.891Z</time></trkpt>
      <trkpt lat="29.518025" lon="101.721093"><time>2026-05-03T22:23:59.908Z</time></trkpt>
      <trkpt lat="29.518025" lon="101.721093"><time>2026-05-03T22:23:59.925Z</time></trkpt>
      <trkpt lat="29.518025" lon="101.721093"><time>2026-05-03T22:23:59.941Z</time></trkpt>
      <trkpt lat="29.518026" lon="101.721092"><time>2026-05-03T22:23:59.958Z</time></trkpt>
      <trkpt lat="29.518026" lon="101.721092"><time>2026-05-03T22:23:59.975Z</time></trkpt>
      <trkpt lat="29.518026" lon="101.721092"><time>2026-05-03T22:23:59.992Z</time></trkpt>
      <trkpt lat="29.518026" lon="101.721092"><time>2026-05-03T22:24:00.008Z</time></trkpt>
      <trkpt lat="29.518026" lon="101.721092"><time>2026-05-03T22:24:00.025Z</time></trkpt>
      <trkpt lat="29.518026" lon="101.721092"><time>2026-05-03T22:24:00.042Z</time></trkpt>
      <trkpt lat="29.518028" lon="101.721091"><time>2026-05-03T22:24:00.058Z</time></trkpt>
      <trkpt lat="29.518028" lon="101.721091"><time>2026-05-03T22:24:00.075Z</time></trkpt>
      <trkpt lat="29.518028" lon="101.721091"><time>2026-05-03T22:24:00.092Z</time></trkpt>
      <trkpt lat="29.518028" lon="101.721091"><time>2026-05-03T22:24:00.108Z</time></trkpt>
      <trkpt lat="29.518028" lon="101.721091"><time>2026-05-03T22:24:00.125Z</time></trkpt>
      <trkpt lat="29.518028" lon="101.721091"><time>2026-05-03T22:24:00.142Z</time></trkpt>
      <trkpt lat="29.51803" lon="101.72109"><time>2026-05-03T22:24:00.158Z</time></trkpt>
      <trkpt lat="29.51803" lon="101.72109"><time>2026-05-03T22:24:00.175Z</time></trkpt>
      <trkpt lat="29.51803" lon="101.72109"><time>2026-05-03T22:24:00.192Z</time></trkpt>
      <trkpt lat="29.51803" lon="101.72109"><time>2026-05-03T22:24:00.208Z</time></trkpt>
      <trkpt lat="29.51803" lon="101.72109"><time>2026-05-03T22:24:00.225Z</time></trkpt>
      <trkpt lat="29.51803" lon="101.72109"><time>2026-05-03T22:24:00.242Z</time></trkpt>
      <trkpt lat="29.518032" lon="101.72109"><time>2026-05-03T22:24:00.258Z</time></trkpt>
      <trkpt lat="29.518032" lon="101.72109"><time>2026-05-03T22:24:00.275Z</time></trkpt>
      <trkpt lat="29.518032" lon="101.72109"><time>2026-05-03T22:24:00.292Z</time></trkpt>
      <trkpt lat="29.518032" lon="101.72109"><time>2026-05-03T22:24:00.309Z</time></trkpt>
      <trkpt lat="29.518032" lon="101.72109"><time>2026-05-03T22:24:00.325Z</time></trkpt>
      <trkpt lat="29.518032" lon="101.72109"><time>2026-05-03T22:24:00.342Z</time></trkpt>
      <trkpt lat="29.518033" lon="101.721089"><time>2026-05-03T22:24:00.359Z</time></trkpt>
      <trkpt lat="29.518033" lon="101.721089"><time>2026-05-03T22:24:00.375Z</time></trkpt>
      <trkpt lat="29.518033" lon="101.721089"><time>2026-05-03T22:24:00.392Z</time></trkpt>
      <trkpt lat="29.518033" lon="101.721089"><time>2026-05-03T22:24:00.409Z</time></trkpt>
      <trkpt lat="29.518033" lon="101.721089"><time>2026-05-03T22:24:00.425Z</time></trkpt>
      <trkpt lat="29.518033" lon="101.721089"><time>2026-05-03T22:24:00.442Z</time></trkpt>
      <trkpt lat="29.518035" lon="101.721088"><time>2026-05-03T22:24:00.459Z</time></trkpt>
      <trkpt lat="29.518035" lon="101.721088"><time>2026-05-03T22:24:00.475Z</time></trkpt>
      <trkpt lat="29.518035" lon="101.721088"><time>2026-05-03T22:24:00.492Z</time></trkpt>
      <trkpt lat="29.518035" lon="101.721088"><time>2026-05-03T22:24:00.509Z</time></trkpt>
      <trkpt lat="29.518035" lon="101.721088"><time>2026-05-03T22:24:00.525Z</time></trkpt>
      <trkpt lat="29.518035" lon="101.721088"><time>2026-05-03T22:24:00.542Z</time></trkpt>
      <trkpt lat="29.518037" lon="101.721088"><time>2026-05-03T22:24:00.559Z</time></trkpt>
      <trkpt lat="29.518037" lon="101.721088"><time>2026-05-03T22:24:00.575Z</time></trkpt>
      <trkpt lat="29.518037" lon="101.721088"><time>2026-05-03T22:24:00.592Z</time></trkpt>
      <trkpt lat="29.518037" lon="101.721088"><time>2026-05-03T22:24:00.609Z</time></trkpt>
      <trkpt lat="29.518037" lon="101.721088"><time>2026-05-03T22:24:00.626Z</time></trkpt>
      <trkpt lat="29.518037" lon="101.721088"><time>2026-05-03T22:24:00.642Z</time></trkpt>
      <trkpt lat="29.518038" lon="101.721087"><time>2026-05-03T22:24:00.659Z</time></trkpt>
      <trkpt lat="29.518038" lon="101.721087"><time>2026-05-03T22:24:00.676Z</time></trkpt>
      <trkpt lat="29.518038" lon="101.721087"><time>2026-05-03T22:24:00.692Z</time></trkpt>
      <trkpt lat="29.518038" lon="101.721087"><time>2026-05-03T22:24:00.709Z</time></trkpt>
      <trkpt lat="29.518038" lon="101.721087"><time>2026-05-03T22:24:00.726Z</time></trkpt>
      <trkpt lat="29.518038" lon="101.721087"><time>2026-05-03T22:24:00.742Z</time></trkpt>
      <trkpt lat="29.51804" lon="101.721087"><time>2026-05-03T22:24:00.759Z</time></trkpt>
      <trkpt lat="29.51804" lon="101.721087"><time>2026-05-03T22:24:00.776Z</time></trkpt>
      <trkpt lat="29.51804" lon="101.721087"><time>2026-05-03T22:24:00.792Z</time></trkpt>
      <trkpt lat="29.51804" lon="101.721087"><time>2026-05-03T22:24:00.809Z</time></trkpt>
      <trkpt lat="29.51804" lon="101.721087"><time>2026-05-03T22:24:00.826Z</time></trkpt>
      <trkpt lat="29.51804" lon="101.721087"><time>2026-05-03T22:24:00.842Z</time></trkpt>
      <trkpt lat="29.518042" lon="101.721086"><time>2026-05-03T22:24:00.859Z</time></trkpt>
      <trkpt lat="29.518042" lon="101.721086"><time>2026-05-03T22:24:00.876Z</time></trkpt>
      <trkpt lat="29.518042" lon="101.721086"><time>2026-05-03T22:24:00.892Z</time></trkpt>
      <trkpt lat="29.518042" lon="101.721086"><time>2026-05-03T22:24:00.909Z</time></trkpt>
      <trkpt lat="29.518042" lon="101.721086"><time>2026-05-03T22:24:00.926Z</time></trkpt>
      <trkpt lat="29.518042" lon="101.721086"><time>2026-05-03T22:24:00.943Z</time></trkpt>
      <trkpt lat="29.518043" lon="101.721086"><time>2026-05-03T22:24:00.959Z</time></trkpt>
      <trkpt lat="29.518043" lon="101.721086"><time>2026-05-03T22:24:00.976Z</time></trkpt>
      <trkpt lat="29.518043" lon="101.721086"><time>2026-05-03T22:24:00.993Z</time></trkpt>
      <trkpt lat="29.518043" lon="101.721086"><time>2026-05-03T22:24:01.009Z</time></trkpt>
      <trkpt lat="29.518043" lon="101.721086"><time>2026-05-03T22:24:01.026Z</time></trkpt>
      <trkpt lat="29.518043" lon="101.721086"><time>2026-05-03T22:24:01.043Z</time></trkpt>
      <trkpt lat="29.518045" lon="101.721085"><time>2026-05-03T22:24:01.059Z</time></trkpt>
      <trkpt lat="29.518045" lon="101.721085"><time>2026-05-03T22:24:01.076Z</time></trkpt>
      <trkpt lat="29.518045" lon="101.721085"><time>2026-05-03T22:24:01.093Z</time></trkpt>
      <trkpt lat="29.518045" lon="101.721085"><time>2026-05-03T22:24:01.109Z</time></trkpt>
      <trkpt lat="29.518045" lon="101.721085"><time>2026-05-03T22:24:01.126Z</time></trkpt>
      <trkpt lat="29.518045" lon="101.721085"><time>2026-05-03T22:24:01.143Z</time></trkpt>
      <trkpt lat="29.518046" lon="101.721085"><time>2026-05-03T22:24:01.159Z</time></trkpt>
      <trkpt lat="29.518046" lon="101.721085"><time>2026-05-03T22:24:01.176Z</time></trkpt>
      <trkpt lat="29.518046" lon="101.721085"><time>2026-05-03T22:24:01.193Z</time></trkpt>
      <trkpt lat="29.518046" lon="101.721085"><time>2026-05-03T22:24:01.209Z</time></trkpt>
      <trkpt lat="29.518046" lon="101.721085"><time>2026-05-03T22:24:01.226Z</time></trkpt>
      <trkpt lat="29.518046" lon="101.721085"><time>2026-05-03T22:24:01.243Z</time></trkpt>
      <trkpt lat="29.518048" lon="101.721085"><time>2026-05-03T22:24:01.260Z</time></trkpt>
      <trkpt lat="29.518048" lon="101.721085"><time>2026-05-03T22:24:01.276Z</time></trkpt>
      <trkpt lat="29.518048" lon="101.721085"><time>2026-05-03T22:24:01.293Z</time></trkpt>
      <trkpt lat="29.518048" lon="101.721085"><time>2026-05-03T22:24:01.310Z</time></trkpt>
      <trkpt lat="29.518048" lon="101.721085"><time>2026-05-03T22:24:01.326Z</time></trkpt>
      <trkpt lat="29.518048" lon="101.721085"><time>2026-05-03T22:24:01.343Z</time></trkpt>
      <trkpt lat="29.518049" lon="101.721084"><time>2026-05-03T22:24:01.360Z</time></trkpt>
      <trkpt lat="29.518049" lon="101.721084"><time>2026-05-03T22:24:01.376Z</time></trkpt>
      <trkpt lat="29.518049" lon="101.721084"><time>2026-05-03T22:24:01.393Z</time></trkpt>
      <trkpt lat="29.518049" lon="101.721084"><time>2026-05-03T22:24:01.410Z</time></trkpt>
      <trkpt lat="29.518049" lon="101.721084"><time>2026-05-03T22:24:01.426Z</time></trkpt>
      <trkpt lat="29.518049" lon="101.721084"><time>2026-05-03T22:24:01.443Z</time></trkpt>
      <trkpt lat="29.518051" lon="101.721084"><time>2026-05-03T22:24:01.460Z</time></trkpt>
      <trkpt lat="29.518051" lon="101.721084"><time>2026-05-03T22:24:01.476Z</time></trkpt>
      <trkpt lat="29.518051" lon="101.721084"><time>2026-05-03T22:24:01.493Z</time></trkpt>
      <trkpt lat="29.518051" lon="101.721084"><time>2026-05-03T22:24:01.510Z</time></trkpt>
      <trkpt lat="29.518051" lon="101.721084"><time>2026-05-03T22:24:01.526Z</time></trkpt>
      <trkpt lat="29.518051" lon="101.721084"><time>2026-05-03T22:24:01.543Z</time></trkpt>
      <trkpt lat="29.518052" lon="101.721084"><time>2026-05-03T22:24:01.560Z</time></trkpt>
      <trkpt lat="29.518052" lon="101.721084"><time>2026-05-03T22:24:01.577Z</time></trkpt>
      <trkpt lat="29.518052" lon="101.721084"><time>2026-05-03T22:24:01.593Z</time></trkpt>
      <trkpt lat="29.518052" lon="101.721084"><time>2026-05-03T22:24:01.610Z</time></trkpt>
      <trkpt lat="29.518052" lon="101.721084"><time>2026-05-03T22:24:01.627Z</time></trkpt>
      <trkpt lat="29.518052" lon="101.721084"><time>2026-05-03T22:24:01.643Z</time></trkpt>
      <trkpt lat="29.518053" lon="101.721083"><time>2026-05-03T22:24:01.660Z</time></trkpt>
      <trkpt lat="29.518053" lon="101.721083"><time>2026-05-03T22:24:01.677Z</time></trkpt>
      <trkpt lat="29.518053" lon="101.721083"><time>2026-05-03T22:24:01.693Z</time></trkpt>
      <trkpt lat="29.518053" lon="101.721083"><time>2026-05-03T22:24:01.710Z</time></trkpt>
      <trkpt lat="29.518053" lon="101.721083"><time>2026-05-03T22:24:01.727Z</time></trkpt>
      <trkpt lat="29.518053" lon="101.721083"><time>2026-05-03T22:24:01.743Z</time></trkpt>
      <trkpt lat="29.518054" lon="101.721083"><time>2026-05-03T22:24:01.760Z</time></trkpt>
      <trkpt lat="29.518054" lon="101.721083"><time>2026-05-03T22:24:01.777Z</time></trkpt>
      <trkpt lat="29.518054" lon="101.721083"><time>2026-05-03T22:24:01.793Z</time></trkpt>
      <trkpt lat="29.518054" lon="101.721083"><time>2026-05-03T22:24:01.810Z</time></trkpt>
      <trkpt lat="29.518054" lon="101.721083"><time>2026-05-03T22:24:01.827Z</time></trkpt>
      <trkpt lat="29.518054" lon="101.721083"><time>2026-05-03T22:24:01.843Z</time></trkpt>
      <trkpt lat="29.518056" lon="101.721082"><time>2026-05-03T22:24:01.860Z</time></trkpt>
      <trkpt lat="29.518056" lon="101.721082"><time>2026-05-03T22:24:01.877Z</time></trkpt>
      <trkpt lat="29.518056" lon="101.721082"><time>2026-05-03T22:24:01.894Z</time></trkpt>
      <trkpt lat="29.518056" lon="101.721082"><time>2026-05-03T22:24:01.910Z</time></trkpt>
      <trkpt lat="29.518056" lon="101.721082"><time>2026-05-03T22:24:01.927Z</time></trkpt>
      <trkpt lat="29.518056" lon="101.721082"><time>2026-05-03T22:24:01.944Z</time></trkpt>
      <trkpt lat="29.518057" lon="101.721082"><time>2026-05-03T22:24:01.960Z</time></trkpt>
      <trkpt lat="29.518057" lon="101.721082"><time>2026-05-03T22:24:01.977Z</time></trkpt>
      <trkpt lat="29.518057" lon="101.721082"><time>2026-05-03T22:24:01.994Z</time></trkpt>
      <trkpt lat="29.518057" lon="101.721082"><time>2026-05-03T22:24:02.010Z</time></trkpt>
      <trkpt lat="29.518057" lon="101.721082"><time>2026-05-03T22:24:02.027Z</time></trkpt>
      <trkpt lat="29.518057" lon="101.721082"><time>2026-05-03T22:24:02.044Z</time></trkpt>
      <trkpt lat="29.518058" lon="101.721082"><time>2026-05-03T22:24:02.060Z</time></trkpt>
      <trkpt lat="29.518058" lon="101.721082"><time>2026-05-03T22:24:02.077Z</time></trkpt>
      <trkpt lat="29.518058" lon="101.721082"><time>2026-05-03T22:24:02.094Z</time></trkpt>
      <trkpt lat="29.518058" lon="101.721082"><time>2026-05-03T22:24:02.110Z</time></trkpt>
      <trkpt lat="29.518058" lon="101.721082"><time>2026-05-03T22:24:02.127Z</time></trkpt>
      <trkpt lat="29.518058" lon="101.721082"><time>2026-05-03T22:24:02.144Z</time></trkpt>
      <trkpt lat="29.518059" lon="101.721081"><time>2026-05-03T22:24:02.160Z</time></trkpt>
      <trkpt lat="29.518059" lon="101.721081"><time>2026-05-03T22:24:02.177Z</time></trkpt>
      <trkpt lat="29.518059" lon="101.721081"><time>2026-05-03T22:24:02.194Z</time></trkpt>
      <trkpt lat="29.518059" lon="101.721081"><time>2026-05-03T22:24:02.211Z</time></trkpt>
      <trkpt lat="29.518059" lon="101.721081"><time>2026-05-03T22:24:02.227Z</time></trkpt>
      <trkpt lat="29.518059" lon="101.721081"><time>2026-05-03T22:24:02.244Z</time></trkpt>
      <trkpt lat="29.51806" lon="101.721081"><time>2026-05-03T22:24:02.261Z</time></trkpt>
      <trkpt lat="29.51806" lon="101.721081"><time>2026-05-03T22:24:02.277Z</time></trkpt>
      <trkpt lat="29.51806" lon="101.721081"><time>2026-05-03T22:24:02.294Z</time></trkpt>
      <trkpt lat="29.51806" lon="101.721081"><time>2026-05-03T22:24:02.311Z</time></trkpt>
      <trkpt lat="29.51806" lon="101.721081"><time>2026-05-03T22:24:02.327Z</time></trkpt>
      <trkpt lat="29.51806" lon="101.721081"><time>2026-05-03T22:24:02.344Z</time></trkpt>
      <trkpt lat="29.518061" lon="101.721081"><time>2026-05-03T22:24:02.361Z</time></trkpt>
      <trkpt lat="29.518061" lon="101.721081"><time>2026-05-03T22:24:02.377Z</time></trkpt>
      <trkpt lat="29.518061" lon="101.721081"><time>2026-05-03T22:24:02.394Z</time></trkpt>
      <trkpt lat="29.518061" lon="101.721081"><time>2026-05-03T22:24:02.411Z</time></trkpt>
      <trkpt lat="29.518061" lon="101.721081"><time>2026-05-03T22:24:02.427Z</time></trkpt>
      <trkpt lat="29.518061" lon="101.721081"><time>2026-05-03T22:24:02.444Z</time></trkpt>
      <trkpt lat="29.518062" lon="101.72108"><time>2026-05-03T22:24:02.461Z</time></trkpt>
      <trkpt lat="29.518062" lon="101.72108"><time>2026-05-03T22:24:02.477Z</time></trkpt>
      <trkpt lat="29.518062" lon="101.72108"><time>2026-05-03T22:24:02.494Z</time></trkpt>
      <trkpt lat="29.518062" lon="101.72108"><time>2026-05-03T22:24:02.511Z</time></trkpt>
      <trkpt lat="29.518062" lon="101.72108"><time>2026-05-03T22:24:02.528Z</time></trkpt>
      <trkpt lat="29.518062" lon="101.72108"><time>2026-05-03T22:24:02.544Z</time></trkpt>
      <trkpt lat="29.518063" lon="101.72108"><time>2026-05-03T22:24:02.561Z</time></trkpt>
      <trkpt lat="29.518063" lon="101.72108"><time>2026-05-03T22:24:02.578Z</time></trkpt>
      <trkpt lat="29.518063" lon="101.72108"><time>2026-05-03T22:24:02.594Z</time></trkpt>
      <trkpt lat="29.518063" lon="101.72108"><time>2026-05-03T22:24:02.611Z</time></trkpt>
      <trkpt lat="29.518063" lon="101.72108"><time>2026-05-03T22:24:02.628Z</time></trkpt>
      <trkpt lat="29.518063" lon="101.72108"><time>2026-05-03T22:24:02.644Z</time></trkpt>
      <trkpt lat="29.518064" lon="101.721079"><time>2026-05-03T22:24:02.661Z</time></trkpt>
      <trkpt lat="29.518064" lon="101.721079"><time>2026-05-03T22:24:02.678Z</time></trkpt>
      <trkpt lat="29.518064" lon="101.721079"><time>2026-05-03T22:24:02.694Z</time></trkpt>
      <trkpt lat="29.518064" lon="101.721079"><time>2026-05-03T22:24:02.711Z</time></trkpt>
      <trkpt lat="29.518064" lon="101.721079"><time>2026-05-03T22:24:02.728Z</time></trkpt>
      <trkpt lat="29.518064" lon="101.721079"><time>2026-05-03T22:24:02.744Z</time></trkpt>
      <trkpt lat="29.518065" lon="101.721079"><time>2026-05-03T22:24:02.761Z</time></trkpt>
      <trkpt lat="29.518065" lon="101.721079"><time>2026-05-03T22:24:02.778Z</time></trkpt>
      <trkpt lat="29.518065" lon="101.721079"><time>2026-05-03T22:24:02.794Z</time></trkpt>
      <trkpt lat="29.518065" lon="101.721079"><time>2026-05-03T22:24:02.811Z</time></trkpt>
      <trkpt lat="29.518065" lon="101.721079"><time>2026-05-03T22:24:02.828Z</time></trkpt>
      <trkpt lat="29.518065" lon="101.721079"><time>2026-05-03T22:24:02.845Z</time></trkpt>
      <trkpt lat="29.518066" lon="101.721078"><time>2026-05-03T22:24:02.861Z</time></trkpt>
      <trkpt lat="29.518066" lon="101.721078"><time>2026-05-03T22:24:02.878Z</time></trkpt>
      <trkpt lat="29.518066" lon="101.721078"><time>2026-05-03T22:24:02.895Z</time></trkpt>
      <trkpt lat="29.518066" lon="101.721078"><time>2026-05-03T22:24:02.911Z</time></trkpt>
      <trkpt lat="29.518066" lon="101.721078"><time>2026-05-03T22:24:02.928Z</time></trkpt>
      <trkpt lat="29.518066" lon="101.721078"><time>2026-05-03T22:24:02.945Z</time></trkpt>
      <trkpt lat="29.518067" lon="101.721078"><time>2026-05-03T22:24:02.961Z</time></trkpt>
      <trkpt lat="29.518067" lon="101.721078"><time>2026-05-03T22:24:02.978Z</time></trkpt>
      <trkpt lat="29.518067" lon="101.721078"><time>2026-05-03T22:24:02.995Z</time></trkpt>
      <trkpt lat="29.518067" lon="101.721078"><time>2026-05-03T22:24:03.011Z</time></trkpt>
      <trkpt lat="29.518067" lon="101.721078"><time>2026-05-03T22:24:03.028Z</time></trkpt>
      <trkpt lat="29.518067" lon="101.721078"><time>2026-05-03T22:24:03.045Z</time></trkpt>
      <trkpt lat="29.518068" lon="101.721078"><time>2026-05-03T22:24:03.061Z</time></trkpt>
      <trkpt lat="29.518068" lon="101.721078"><time>2026-05-03T22:24:03.078Z</time></trkpt>
      <trkpt lat="29.518068" lon="101.721078"><time>2026-05-03T22:24:03.095Z</time></trkpt>
      <trkpt lat="29.518068" lon="101.721078"><time>2026-05-03T22:24:03.111Z</time></trkpt>
      <trkpt lat="29.518068" lon="101.721078"><time>2026-05-03T22:24:03.128Z</time></trkpt>
      <trkpt lat="29.518068" lon="101.721078"><time>2026-05-03T22:24:03.145Z</time></trkpt>
      <trkpt lat="29.518069" lon="101.721078"><time>2026-05-03T22:24:03.162Z</time></trkpt>
      <trkpt lat="29.518069" lon="101.721078"><time>2026-05-03T22:24:03.178Z</time></trkpt>
      <trkpt lat="29.518069" lon="101.721078"><time>2026-05-03T22:24:03.195Z</time></trkpt>
      <trkpt lat="29.518069" lon="101.721078"><time>2026-05-03T22:24:03.212Z</time></trkpt>
      <trkpt lat="29.518069" lon="101.721078"><time>2026-05-03T22:24:03.228Z</time></trkpt>
      <trkpt lat="29.518069" lon="101.721078"><time>2026-05-03T22:24:03.245Z</time></trkpt>
      <trkpt lat="29.51807" lon="101.721077"><time>2026-05-03T22:24:03.262Z</time></trkpt>
      <trkpt lat="29.51807" lon="101.721077"><time>2026-05-03T22:24:03.278Z</time></trkpt>
      <trkpt lat="29.51807" lon="101.721077"><time>2026-05-03T22:24:03.295Z</time></trkpt>
      <trkpt lat="29.51807" lon="101.721077"><time>2026-05-03T22:24:03.312Z</time></trkpt>
      <trkpt lat="29.51807" lon="101.721077"><time>2026-05-03T22:24:03.328Z</time></trkpt>
      <trkpt lat="29.518071" lon="101.721077"><time>2026-05-03T22:24:03.345Z</time></trkpt>
      <trkpt lat="29.518071" lon="101.721077"><time>2026-05-03T22:24:03.362Z</time></trkpt>
      <trkpt lat="29.518071" lon="101.721077"><time>2026-05-03T22:24:03.378Z</time></trkpt>
      <trkpt lat="29.518071" lon="101.721077"><time>2026-05-03T22:24:03.395Z</time></trkpt>
      <trkpt lat="29.518071" lon="101.721077"><time>2026-05-03T22:24:03.412Z</time></trkpt>
      <trkpt lat="29.518071" lon="101.721077"><time>2026-05-03T22:24:03.428Z</time></trkpt>
      <trkpt lat="29.518071" lon="101.721077"><time>2026-05-03T22:24:03.445Z</time></trkpt>
      <trkpt lat="29.518072" lon="101.721076"><time>2026-05-03T22:24:03.462Z</time></trkpt>
      <trkpt lat="29.518072" lon="101.721076"><time>2026-05-03T22:24:03.479Z</time></trkpt>
      <trkpt lat="29.518072" lon="101.721076"><time>2026-05-03T22:24:03.495Z</time></trkpt>
      <trkpt lat="29.518072" lon="101.721076"><time>2026-05-03T22:24:03.512Z</time></trkpt>
      <trkpt lat="29.518072" lon="101.721076"><time>2026-05-03T22:24:03.529Z</time></trkpt>
      <trkpt lat="29.518073" lon="101.721076"><time>2026-05-03T22:24:03.545Z</time></trkpt>
      <trkpt lat="29.518073" lon="101.721076"><time>2026-05-03T22:24:03.562Z</time></trkpt>
      <trkpt lat="29.518073" lon="101.721076"><time>2026-05-03T22:24:03.579Z</time></trkpt>
      <trkpt lat="29.518073" lon="101.721076"><time>2026-05-03T22:24:03.595Z</time></trkpt>
      <trkpt lat="29.518073" lon="101.721076"><time>2026-05-03T22:24:03.612Z</time></trkpt>
      <trkpt lat="29.518073" lon="101.721076"><time>2026-05-03T22:24:03.629Z</time></trkpt>
      <trkpt lat="29.518073" lon="101.721076"><time>2026-05-03T22:24:03.645Z</time></trkpt>
      <trkpt lat="29.518074" lon="101.721075"><time>2026-05-03T22:24:03.662Z</time></trkpt>
      <trkpt lat="29.518074" lon="101.721075"><time>2026-05-03T22:24:03.679Z</time></trkpt>
      <trkpt lat="29.518074" lon="101.721075"><time>2026-05-03T22:24:03.695Z</time></trkpt>
      <trkpt lat="29.518074" lon="101.721075"><time>2026-05-03T22:24:03.712Z</time></trkpt>
      <trkpt lat="29.518074" lon="101.721075"><time>2026-05-03T22:24:03.729Z</time></trkpt>
      <trkpt lat="29.518075" lon="101.721074"><time>2026-05-03T22:24:03.745Z</time></trkpt>
      <trkpt lat="29.518075" lon="101.721074"><time>2026-05-03T22:24:03.762Z</time></trkpt>
      <trkpt lat="29.518075" lon="101.721074"><time>2026-05-03T22:24:03.779Z</time></trkpt>
      <trkpt lat="29.518075" lon="101.721074"><time>2026-05-03T22:24:03.796Z</time></trkpt>
      <trkpt lat="29.518075" lon="101.721074"><time>2026-05-03T22:24:03.812Z</time></trkpt>
      <trkpt lat="29.518075" lon="101.721074"><time>2026-05-03T22:24:03.829Z</time></trkpt>
      <trkpt lat="29.518075" lon="101.721074"><time>2026-05-03T22:24:03.846Z</time></trkpt>
      <trkpt lat="29.518075" lon="101.721074"><time>2026-05-03T22:24:03.862Z</time></trkpt>
      <trkpt lat="29.518075" lon="101.721074"><time>2026-05-03T22:24:03.879Z</time></trkpt>
      <trkpt lat="29.518075" lon="101.721074"><time>2026-05-03T22:24:03.896Z</time></trkpt>
      <trkpt lat="29.518075" lon="101.721074"><time>2026-05-03T22:24:03.912Z</time></trkpt>
      <trkpt lat="29.518075" lon="101.721074"><time>2026-05-03T22:24:03.929Z</time></trkpt>
      <trkpt lat="29.518076" lon="101.721073"><time>2026-05-03T22:24:03.946Z</time></trkpt>
      <trkpt lat="29.518076" lon="101.721073"><time>2026-05-03T22:24:03.962Z</time></trkpt>
      <trkpt lat="29.518076" lon="101.721073"><time>2026-05-03T22:24:03.979Z</time></trkpt>
      <trkpt lat="29.518076" lon="101.721073"><time>2026-05-03T22:24:03.996Z</time></trkpt>
      <trkpt lat="29.518076" lon="101.721073"><time>2026-05-03T22:24:04.012Z</time></trkpt>
      <trkpt lat="29.518076" lon="101.721073"><time>2026-05-03T22:24:04.029Z</time></trkpt>
      <trkpt lat="29.518077" lon="101.721073"><time>2026-05-03T22:24:04.046Z</time></trkpt>
      <trkpt lat="29.518077" lon="101.721073"><time>2026-05-03T22:24:04.062Z</time></trkpt>
      <trkpt lat="29.518077" lon="101.721073"><time>2026-05-03T22:24:04.079Z</time></trkpt>
      <trkpt lat="29.518077" lon="101.721073"><time>2026-05-03T22:24:04.096Z</time></trkpt>
      <trkpt lat="29.518077" lon="101.721073"><time>2026-05-03T22:24:04.113Z</time></trkpt>
      <trkpt lat="29.518077" lon="101.721073"><time>2026-05-03T22:24:04.129Z</time></trkpt>
      <trkpt lat="29.518078" lon="101.721072"><time>2026-05-03T22:24:04.146Z</time></trkpt>
      <trkpt lat="29.518078" lon="101.721072"><time>2026-05-03T22:24:04.163Z</time></trkpt>
      <trkpt lat="29.518078" lon="101.721072"><time>2026-05-03T22:24:04.179Z</time></trkpt>
      <trkpt lat="29.518078" lon="101.721072"><time>2026-05-03T22:24:04.196Z</time></trkpt>
      <trkpt lat="29.518078" lon="101.721072"><time>2026-05-03T22:24:04.213Z</time></trkpt>
      <trkpt lat="29.518078" lon="101.721072"><time>2026-05-03T22:24:04.229Z</time></trkpt>
      <trkpt lat="29.518078" lon="101.721072"><time>2026-05-03T22:24:04.246Z</time></trkpt>
      <trkpt lat="29.518078" lon="101.721072"><time>2026-05-03T22:24:04.263Z</time></trkpt>
      <trkpt lat="29.518078" lon="101.721072"><time>2026-05-03T22:24:04.279Z</time></trkpt>
      <trkpt lat="29.518078" lon="101.721072"><time>2026-05-03T22:24:04.296Z</time></trkpt>
      <trkpt lat="29.518078" lon="101.721072"><time>2026-05-03T22:24:04.313Z</time></trkpt>
      <trkpt lat="29.518078" lon="101.721072"><time>2026-05-03T22:24:04.329Z</time></trkpt>
      <trkpt lat="29.518079" lon="101.721071"><time>2026-05-03T22:24:04.346Z</time></trkpt>
      <trkpt lat="29.518079" lon="101.721071"><time>2026-05-03T22:24:04.363Z</time></trkpt>
      <trkpt lat="29.518079" lon="101.721071"><time>2026-05-03T22:24:04.379Z</time></trkpt>
      <trkpt lat="29.518079" lon="101.721071"><time>2026-05-03T22:24:04.396Z</time></trkpt>
      <trkpt lat="29.518079" lon="101.721071"><time>2026-05-03T22:24:04.413Z</time></trkpt>
      <trkpt lat="29.518079" lon="101.721071"><time>2026-05-03T22:24:04.430Z</time></trkpt>
      <trkpt lat="29.51808" lon="101.721071"><time>2026-05-03T22:24:04.446Z</time></trkpt>
      <trkpt lat="29.51808" lon="101.721071"><time>2026-05-03T22:24:04.463Z</time></trkpt>
      <trkpt lat="29.51808" lon="101.721071"><time>2026-05-03T22:24:04.480Z</time></trkpt>
      <trkpt lat="29.51808" lon="101.721071"><time>2026-05-03T22:24:04.496Z</time></trkpt>
      <trkpt lat="29.51808" lon="101.721071"><time>2026-05-03T22:24:04.513Z</time></trkpt>
      <trkpt lat="29.51808" lon="101.721071"><time>2026-05-03T22:24:04.530Z</time></trkpt>
      <trkpt lat="29.51808" lon="101.72107"><time>2026-05-03T22:24:04.546Z</time></trkpt>
      <trkpt lat="29.51808" lon="101.72107"><time>2026-05-03T22:24:04.563Z</time></trkpt>
      <trkpt lat="29.51808" lon="101.72107"><time>2026-05-03T22:24:04.580Z</time></trkpt>
      <trkpt lat="29.51808" lon="101.72107"><time>2026-05-03T22:24:04.596Z</time></trkpt>
      <trkpt lat="29.51808" lon="101.72107"><time>2026-05-03T22:24:04.613Z</time></trkpt>
      <trkpt lat="29.51808" lon="101.72107"><time>2026-05-03T22:24:04.630Z</time></trkpt>
      <trkpt lat="29.518081" lon="101.72107"><time>2026-05-03T22:24:04.646Z</time></trkpt>
      <trkpt lat="29.518081" lon="101.72107"><time>2026-05-03T22:24:04.663Z</time></trkpt>
      <trkpt lat="29.518081" lon="101.72107"><time>2026-05-03T22:24:04.680Z</time></trkpt>
      <trkpt lat="29.518081" lon="101.72107"><time>2026-05-03T22:24:04.696Z</time></trkpt>
      <trkpt lat="29.518081" lon="101.72107"><time>2026-05-03T22:24:04.713Z</time></trkpt>
      <trkpt lat="29.518081" lon="101.72107"><time>2026-05-03T22:24:04.730Z</time></trkpt>
      <trkpt lat="29.518082" lon="101.72107"><time>2026-05-03T22:24:04.747Z</time></trkpt>
      <trkpt lat="29.518082" lon="101.72107"><time>2026-05-03T22:24:04.763Z</time></trkpt>
      <trkpt lat="29.518082" lon="101.72107"><time>2026-05-03T22:24:04.780Z</time></trkpt>
      <trkpt lat="29.518082" lon="101.72107"><time>2026-05-03T22:24:04.797Z</time></trkpt>
      <trkpt lat="29.518082" lon="101.72107"><time>2026-05-03T22:24:04.813Z</time></trkpt>
      <trkpt lat="29.518082" lon="101.72107"><time>2026-05-03T22:24:04.830Z</time></trkpt>
      <trkpt lat="29.518082" lon="101.721069"><time>2026-05-03T22:24:04.847Z</time></trkpt>
      <trkpt lat="29.518082" lon="101.721069"><time>2026-05-03T22:24:04.863Z</time></trkpt>
      <trkpt lat="29.518082" lon="101.721069"><time>2026-05-03T22:24:04.880Z</time></trkpt>
      <trkpt lat="29.518082" lon="101.721069"><time>2026-05-03T22:24:04.897Z</time></trkpt>
      <trkpt lat="29.518082" lon="101.721069"><time>2026-05-03T22:24:04.913Z</time></trkpt>
      <trkpt lat="29.518082" lon="101.721069"><time>2026-05-03T22:24:04.930Z</time></trkpt>
      <trkpt lat="29.518083" lon="101.721069"><time>2026-05-03T22:24:04.947Z</time></trkpt>
      <trkpt lat="29.518083" lon="101.721069"><time>2026-05-03T22:24:04.963Z</time></trkpt>
      <trkpt lat="29.518083" lon="101.721069"><time>2026-05-03T22:24:04.980Z</time></trkpt>
      <trkpt lat="29.518083" lon="101.721069"><time>2026-05-03T22:24:04.997Z</time></trkpt>
      <trkpt lat="29.518083" lon="101.721069"><time>2026-05-03T22:24:05.013Z</time></trkpt>
      <trkpt lat="29.518083" lon="101.721069"><time>2026-05-03T22:24:05.030Z</time></trkpt>
      <trkpt lat="29.518083" lon="101.721069"><time>2026-05-03T22:24:05.047Z</time></trkpt>
      <trkpt lat="29.518083" lon="101.721069"><time>2026-05-03T22:24:05.064Z</time></trkpt>
      <trkpt lat="29.518083" lon="101.721069"><time>2026-05-03T22:24:05.080Z</time></trkpt>
      <trkpt lat="29.518083" lon="101.721069"><time>2026-05-03T22:24:05.097Z</time></trkpt>
      <trkpt lat="29.518083" lon="101.721069"><time>2026-05-03T22:24:05.114Z</time></trkpt>
      <trkpt lat="29.518083" lon="101.721069"><time>2026-05-03T22:24:05.130Z</time></trkpt>
      <trkpt lat="29.518084" lon="101.721068"><time>2026-05-03T22:24:05.147Z</time></trkpt>
      <trkpt lat="29.518084" lon="101.721068"><time>2026-05-03T22:24:05.164Z</time></trkpt>
      <trkpt lat="29.518084" lon="101.721068"><time>2026-05-03T22:24:05.180Z</time></trkpt>
      <trkpt lat="29.518084" lon="101.721068"><time>2026-05-03T22:24:05.197Z</time></trkpt>
      <trkpt lat="29.518084" lon="101.721068"><time>2026-05-03T22:24:05.214Z</time></trkpt>
      <trkpt lat="29.518084" lon="101.721068"><time>2026-05-03T22:24:05.230Z</time></trkpt>
      <trkpt lat="29.518084" lon="101.721068"><time>2026-05-03T22:24:05.247Z</time></trkpt>
      <trkpt lat="29.518084" lon="101.721068"><time>2026-05-03T22:24:05.264Z</time></trkpt>
      <trkpt lat="29.518084" lon="101.721068"><time>2026-05-03T22:24:05.280Z</time></trkpt>
      <trkpt lat="29.518084" lon="101.721068"><time>2026-05-03T22:24:05.297Z</time></trkpt>
      <trkpt lat="29.518084" lon="101.721068"><time>2026-05-03T22:24:05.314Z</time></trkpt>
      <trkpt lat="29.518084" lon="101.721068"><time>2026-05-03T22:24:05.330Z</time></trkpt>
      <trkpt lat="29.518085" lon="101.721068"><time>2026-05-03T22:24:05.347Z</time></trkpt>
      <trkpt lat="29.518085" lon="101.721068"><time>2026-05-03T22:24:05.364Z</time></trkpt>
      <trkpt lat="29.518085" lon="101.721068"><time>2026-05-03T22:24:05.381Z</time></trkpt>
      <trkpt lat="29.518085" lon="101.721068"><time>2026-05-03T22:24:05.397Z</time></trkpt>
      <trkpt lat="29.518085" lon="101.721068"><time>2026-05-03T22:24:05.414Z</time></trkpt>
      <trkpt lat="29.518085" lon="101.721068"><time>2026-05-03T22:24:05.431Z</time></trkpt>
      <trkpt lat="29.518085" lon="101.721067"><time>2026-05-03T22:24:05.447Z</time></trkpt>
      <trkpt lat="29.518085" lon="101.721067"><time>2026-05-03T22:24:05.464Z</time></trkpt>
      <trkpt lat="29.518085" lon="101.721067"><time>2026-05-03T22:24:05.481Z</time></trkpt>
      <trkpt lat="29.518085" lon="101.721067"><time>2026-05-03T22:24:05.497Z</time></trkpt>
      <trkpt lat="29.518085" lon="101.721067"><time>2026-05-03T22:24:05.514Z</time></trkpt>
      <trkpt lat="29.518085" lon="101.721067"><time>2026-05-03T22:24:05.531Z</time></trkpt>
      <trkpt lat="29.518086" lon="101.721067"><time>2026-05-03T22:24:05.547Z</time></trkpt>
      <trkpt lat="29.518086" lon="101.721067"><time>2026-05-03T22:24:05.564Z</time></trkpt>
      <trkpt lat="29.518086" lon="101.721067"><time>2026-05-03T22:24:05.581Z</time></trkpt>
      <trkpt lat="29.518086" lon="101.721067"><time>2026-05-03T22:24:05.597Z</time></trkpt>
      <trkpt lat="29.518086" lon="101.721067"><time>2026-05-03T22:24:05.614Z</time></trkpt>
      <trkpt lat="29.518086" lon="101.721067"><time>2026-05-03T22:24:05.631Z</time></trkpt>
      <trkpt lat="29.518086" lon="101.721067"><time>2026-05-03T22:24:05.647Z</time></trkpt>
      <trkpt lat="29.518086" lon="101.721067"><time>2026-05-03T22:24:05.664Z</time></trkpt>
      <trkpt lat="29.518086" lon="101.721067"><time>2026-05-03T22:24:05.681Z</time></trkpt>
      <trkpt lat="29.518086" lon="101.721067"><time>2026-05-03T22:24:05.698Z</time></trkpt>
      <trkpt lat="29.518086" lon="101.721067"><time>2026-05-03T22:24:05.714Z</time></trkpt>
      <trkpt lat="29.518086" lon="101.721067"><time>2026-05-03T22:24:05.731Z</time></trkpt>
      <trkpt lat="29.518087" lon="101.721066"><time>2026-05-03T22:24:05.748Z</time></trkpt>
      <trkpt lat="29.518087" lon="101.721066"><time>2026-05-03T22:24:05.764Z</time></trkpt>
      <trkpt lat="29.518087" lon="101.721066"><time>2026-05-03T22:24:05.781Z</time></trkpt>
      <trkpt lat="29.518087" lon="101.721066"><time>2026-05-03T22:24:05.798Z</time></trkpt>
      <trkpt lat="29.518087" lon="101.721066"><time>2026-05-03T22:24:05.814Z</time></trkpt>
      <trkpt lat="29.518087" lon="101.721066"><time>2026-05-03T22:24:05.831Z</time></trkpt>
      <trkpt lat="29.518087" lon="101.721066"><time>2026-05-03T22:24:05.848Z</time></trkpt>
      <trkpt lat="29.518087" lon="101.721066"><time>2026-05-03T22:24:05.864Z</time></trkpt>
      <trkpt lat="29.518087" lon="101.721066"><time>2026-05-03T22:24:05.881Z</time></trkpt>
      <trkpt lat="29.518087" lon="101.721066"><time>2026-05-03T22:24:05.898Z</time></trkpt>
      <trkpt lat="29.518087" lon="101.721066"><time>2026-05-03T22:24:05.914Z</time></trkpt>
      <trkpt lat="29.518087" lon="101.721066"><time>2026-05-03T22:24:05.931Z</time></trkpt>
      <trkpt lat="29.518088" lon="101.721065"><time>2026-05-03T22:24:05.948Z</time></trkpt>
      <trkpt lat="29.518088" lon="101.721065"><time>2026-05-03T22:24:05.964Z</time></trkpt>
      <trkpt lat="29.518088" lon="101.721065"><time>2026-05-03T22:24:05.981Z</time></trkpt>
      <trkpt lat="29.518088" lon="101.721065"><time>2026-05-03T22:24:05.998Z</time></trkpt>
      <trkpt lat="29.518088" lon="101.721065"><time>2026-05-03T22:24:06.014Z</time></trkpt>
      <trkpt lat="29.518088" lon="101.721065"><time>2026-05-03T22:24:06.031Z</time></trkpt>
      <trkpt lat="29.518089" lon="101.721065"><time>2026-05-03T22:24:06.048Z</time></trkpt>
      <trkpt lat="29.518089" lon="101.721065"><time>2026-05-03T22:24:06.065Z</time></trkpt>
      <trkpt lat="29.518089" lon="101.721065"><time>2026-05-03T22:24:06.081Z</time></trkpt>
      <trkpt lat="29.518089" lon="101.721065"><time>2026-05-03T22:24:06.098Z</time></trkpt>
      <trkpt lat="29.518089" lon="101.721065"><time>2026-05-03T22:24:06.115Z</time></trkpt>
      <trkpt lat="29.518089" lon="101.721065"><time>2026-05-03T22:24:06.131Z</time></trkpt>
      <trkpt lat="29.518089" lon="101.721064"><time>2026-05-03T22:24:06.148Z</time></trkpt>
      <trkpt lat="29.518089" lon="101.721064"><time>2026-05-03T22:24:06.165Z</time></trkpt>
      <trkpt lat="29.518089" lon="101.721064"><time>2026-05-03T22:24:06.181Z</time></trkpt>
      <trkpt lat="29.518089" lon="101.721064"><time>2026-05-03T22:24:06.198Z</time></trkpt>
      <trkpt lat="29.518089" lon="101.721064"><time>2026-05-03T22:24:06.215Z</time></trkpt>
      <trkpt lat="29.518089" lon="101.721064"><time>2026-05-03T22:24:06.231Z</time></trkpt>
      <trkpt lat="29.51809" lon="101.721064"><time>2026-05-03T22:24:06.248Z</time></trkpt>
      <trkpt lat="29.51809" lon="101.721064"><time>2026-05-03T22:24:06.265Z</time></trkpt>
      <trkpt lat="29.51809" lon="101.721064"><time>2026-05-03T22:24:06.281Z</time></trkpt>
      <trkpt lat="29.51809" lon="101.721064"><time>2026-05-03T22:24:06.298Z</time></trkpt>
      <trkpt lat="29.51809" lon="101.721064"><time>2026-05-03T22:24:06.315Z</time></trkpt>
      <trkpt lat="29.51809" lon="101.721064"><time>2026-05-03T22:24:06.331Z</time></trkpt>
      <trkpt lat="29.518091" lon="101.721064"><time>2026-05-03T22:24:06.348Z</time></trkpt>
      <trkpt lat="29.518091" lon="101.721064"><time>2026-05-03T22:24:06.365Z</time></trkpt>
      <trkpt lat="29.518091" lon="101.721064"><time>2026-05-03T22:24:06.382Z</time></trkpt>
      <trkpt lat="29.518091" lon="101.721064"><time>2026-05-03T22:24:06.398Z</time></trkpt>
      <trkpt lat="29.518091" lon="101.721064"><time>2026-05-03T22:24:06.415Z</time></trkpt>
      <trkpt lat="29.518091" lon="101.721064"><time>2026-05-03T22:24:06.432Z</time></trkpt>
      <trkpt lat="29.518091" lon="101.721063"><time>2026-05-03T22:24:06.448Z</time></trkpt>
      <trkpt lat="29.518091" lon="101.721063"><time>2026-05-03T22:24:06.465Z</time></trkpt>
      <trkpt lat="29.518091" lon="101.721063"><time>2026-05-03T22:24:06.482Z</time></trkpt>
      <trkpt lat="29.518091" lon="101.721063"><time>2026-05-03T22:24:06.498Z</time></trkpt>
      <trkpt lat="29.518091" lon="101.721063"><time>2026-05-03T22:24:06.515Z</time></trkpt>
      <trkpt lat="29.518091" lon="101.721063"><time>2026-05-03T22:24:06.532Z</time></trkpt>
      <trkpt lat="29.518092" lon="101.721063"><time>2026-05-03T22:24:06.548Z</time></trkpt>
      <trkpt lat="29.518092" lon="101.721063"><time>2026-05-03T22:24:06.565Z</time></trkpt>
      <trkpt lat="29.518092" lon="101.721063"><time>2026-05-03T22:24:06.582Z</time></trkpt>
      <trkpt lat="29.518092" lon="101.721063"><time>2026-05-03T22:24:06.598Z</time></trkpt>
      <trkpt lat="29.518092" lon="101.721063"><time>2026-05-03T22:24:06.615Z</time></trkpt>
      <trkpt lat="29.518092" lon="101.721063"><time>2026-05-03T22:24:06.632Z</time></trkpt>
      <trkpt lat="29.518093" lon="101.721062"><time>2026-05-03T22:24:06.648Z</time></trkpt>
      <trkpt lat="29.518093" lon="101.721062"><time>2026-05-03T22:24:06.665Z</time></trkpt>
      <trkpt lat="29.518093" lon="101.721062"><time>2026-05-03T22:24:06.682Z</time></trkpt>
      <trkpt lat="29.518093" lon="101.721062"><time>2026-05-03T22:24:06.699Z</time></trkpt>
      <trkpt lat="29.518093" lon="101.721062"><time>2026-05-03T22:24:06.715Z</time></trkpt>
      <trkpt lat="29.518093" lon="101.721062"><time>2026-05-03T22:24:06.732Z</time></trkpt>
      <trkpt lat="29.518094" lon="101.721062"><time>2026-05-03T22:24:06.749Z</time></trkpt>
      <trkpt lat="29.518094" lon="101.721062"><time>2026-05-03T22:24:06.765Z</time></trkpt>
      <trkpt lat="29.518094" lon="101.721062"><time>2026-05-03T22:24:06.782Z</time></trkpt>
      <trkpt lat="29.518094" lon="101.721062"><time>2026-05-03T22:24:06.799Z</time></trkpt>
      <trkpt lat="29.518094" lon="101.721062"><time>2026-05-03T22:24:06.815Z</time></trkpt>
      <trkpt lat="29.518094" lon="101.721062"><time>2026-05-03T22:24:06.832Z</time></trkpt>
      <trkpt lat="29.518095" lon="101.721062"><time>2026-05-03T22:24:06.849Z</time></trkpt>
      <trkpt lat="29.518095" lon="101.721062"><time>2026-05-03T22:24:06.865Z</time></trkpt>
      <trkpt lat="29.518095" lon="101.721062"><time>2026-05-03T22:24:06.882Z</time></trkpt>
      <trkpt lat="29.518095" lon="101.721062"><time>2026-05-03T22:24:06.899Z</time></trkpt>
      <trkpt lat="29.518095" lon="101.721062"><time>2026-05-03T22:24:06.915Z</time></trkpt>
      <trkpt lat="29.518095" lon="101.721062"><time>2026-05-03T22:24:06.932Z</time></trkpt>
      <trkpt lat="29.518096" lon="101.721062"><time>2026-05-03T22:24:06.949Z</time></trkpt>
      <trkpt lat="29.518096" lon="101.721062"><time>2026-05-03T22:24:06.965Z</time></trkpt>
      <trkpt lat="29.518096" lon="101.721062"><time>2026-05-03T22:24:06.982Z</time></trkpt>
      <trkpt lat="29.518096" lon="101.721062"><time>2026-05-03T22:24:06.999Z</time></trkpt>
      <trkpt lat="29.518096" lon="101.721062"><time>2026-05-03T22:24:07.016Z</time></trkpt>
      <trkpt lat="29.518096" lon="101.721062"><time>2026-05-03T22:24:07.032Z</time></trkpt>
      <trkpt lat="29.518096" lon="101.721061"><time>2026-05-03T22:24:07.049Z</time></trkpt>
      <trkpt lat="29.518096" lon="101.721061"><time>2026-05-03T22:24:07.066Z</time></trkpt>
      <trkpt lat="29.518096" lon="101.721061"><time>2026-05-03T22:24:07.082Z</time></trkpt>
      <trkpt lat="29.518096" lon="101.721061"><time>2026-05-03T22:24:07.099Z</time></trkpt>
      <trkpt lat="29.518096" lon="101.721061"><time>2026-05-03T22:24:07.116Z</time></trkpt>
      <trkpt lat="29.518096" lon="101.721061"><time>2026-05-03T22:24:07.132Z</time></trkpt>
      <trkpt lat="29.518097" lon="101.721061"><time>2026-05-03T22:24:07.149Z</time></trkpt>
      <trkpt lat="29.518097" lon="101.721061"><time>2026-05-03T22:24:07.166Z</time></trkpt>
      <trkpt lat="29.518097" lon="101.721061"><time>2026-05-03T22:24:07.182Z</time></trkpt>
      <trkpt lat="29.518097" lon="101.721061"><time>2026-05-03T22:24:07.199Z</time></trkpt>
      <trkpt lat="29.518097" lon="101.721061"><time>2026-05-03T22:24:07.216Z</time></trkpt>
      <trkpt lat="29.518097" lon="101.721061"><time>2026-05-03T22:24:07.232Z</time></trkpt>
      <trkpt lat="29.518098" lon="101.721061"><time>2026-05-03T22:24:07.249Z</time></trkpt>
      <trkpt lat="29.518098" lon="101.721061"><time>2026-05-03T22:24:07.266Z</time></trkpt>
      <trkpt lat="29.518098" lon="101.721061"><time>2026-05-03T22:24:07.282Z</time></trkpt>
      <trkpt lat="29.518098" lon="101.721061"><time>2026-05-03T22:24:07.299Z</time></trkpt>
      <trkpt lat="29.518098" lon="101.721061"><time>2026-05-03T22:24:07.316Z</time></trkpt>
      <trkpt lat="29.518098" lon="101.721061"><time>2026-05-03T22:24:07.333Z</time></trkpt>
      <trkpt lat="29.518099" lon="101.721061"><time>2026-05-03T22:24:07.349Z</time></trkpt>
      <trkpt lat="29.518099" lon="101.721061"><time>2026-05-03T22:24:07.366Z</time></trkpt>
      <trkpt lat="29.518099" lon="101.721061"><time>2026-05-03T22:24:07.383Z</time></trkpt>
      <trkpt lat="29.518099" lon="101.721061"><time>2026-05-03T22:24:07.399Z</time></trkpt>
      <trkpt lat="29.518099" lon="101.721061"><time>2026-05-03T22:24:07.416Z</time></trkpt>
      <trkpt lat="29.518099" lon="101.721061"><time>2026-05-03T22:24:07.433Z</time></trkpt>
      <trkpt lat="29.5181" lon="101.72106"><time>2026-05-03T22:24:07.449Z</time></trkpt>
      <trkpt lat="29.5181" lon="101.72106"><time>2026-05-03T22:24:07.466Z</time></trkpt>
      <trkpt lat="29.5181" lon="101.72106"><time>2026-05-03T22:24:07.483Z</time></trkpt>
      <trkpt lat="29.5181" lon="101.72106"><time>2026-05-03T22:24:07.499Z</time></trkpt>
      <trkpt lat="29.5181" lon="101.72106"><time>2026-05-03T22:24:07.516Z</time></trkpt>
      <trkpt lat="29.5181" lon="101.72106"><time>2026-05-03T22:24:07.533Z</time></trkpt>
      <trkpt lat="29.518101" lon="101.72106"><time>2026-05-03T22:24:07.549Z</time></trkpt>
      <trkpt lat="29.518101" lon="101.72106"><time>2026-05-03T22:24:07.566Z</time></trkpt>
      <trkpt lat="29.518101" lon="101.72106"><time>2026-05-03T22:24:07.583Z</time></trkpt>
      <trkpt lat="29.518101" lon="101.72106"><time>2026-05-03T22:24:07.599Z</time></trkpt>
      <trkpt lat="29.518101" lon="101.72106"><time>2026-05-03T22:24:07.616Z</time></trkpt>
      <trkpt lat="29.518101" lon="101.72106"><time>2026-05-03T22:24:07.633Z</time></trkpt>
      <trkpt lat="29.518102" lon="101.721059"><time>2026-05-03T22:24:07.650Z</time></trkpt>
      <trkpt lat="29.518102" lon="101.721059"><time>2026-05-03T22:24:07.666Z</time></trkpt>
      <trkpt lat="29.518102" lon="101.721059"><time>2026-05-03T22:24:07.683Z</time></trkpt>
      <trkpt lat="29.518102" lon="101.721059"><time>2026-05-03T22:24:07.700Z</time></trkpt>
      <trkpt lat="29.518102" lon="101.721059"><time>2026-05-03T22:24:07.716Z</time></trkpt>
      <trkpt lat="29.518102" lon="101.721059"><time>2026-05-03T22:24:07.733Z</time></trkpt>
      <trkpt lat="29.518103" lon="101.721059"><time>2026-05-03T22:24:07.750Z</time></trkpt>
      <trkpt lat="29.518103" lon="101.721059"><time>2026-05-03T22:24:07.766Z</time></trkpt>
      <trkpt lat="29.518103" lon="101.721059"><time>2026-05-03T22:24:07.783Z</time></trkpt>
      <trkpt lat="29.518103" lon="101.721059"><time>2026-05-03T22:24:07.800Z</time></trkpt>
      <trkpt lat="29.518103" lon="101.721059"><time>2026-05-03T22:24:07.816Z</time></trkpt>
      <trkpt lat="29.518103" lon="101.721059"><time>2026-05-03T22:24:07.833Z</time></trkpt>
      <trkpt lat="29.518104" lon="101.721058"><time>2026-05-03T22:24:07.850Z</time></trkpt>
      <trkpt lat="29.518104" lon="101.721058"><time>2026-05-03T22:24:07.866Z</time></trkpt>
      <trkpt lat="29.518104" lon="101.721058"><time>2026-05-03T22:24:07.883Z</time></trkpt>
      <trkpt lat="29.518104" lon="101.721058"><time>2026-05-03T22:24:07.900Z</time></trkpt>
      <trkpt lat="29.518104" lon="101.721058"><time>2026-05-03T22:24:07.916Z</time></trkpt>
      <trkpt lat="29.518104" lon="101.721058"><time>2026-05-03T22:24:07.933Z</time></trkpt>
      <trkpt lat="29.518105" lon="101.721058"><time>2026-05-03T22:24:07.950Z</time></trkpt>
      <trkpt lat="29.518105" lon="101.721058"><time>2026-05-03T22:24:07.967Z</time></trkpt>
      <trkpt lat="29.518105" lon="101.721058"><time>2026-05-03T22:24:07.983Z</time></trkpt>
      <trkpt lat="29.518105" lon="101.721058"><time>2026-05-03T22:24:08.000Z</time></trkpt>
      <trkpt lat="29.518105" lon="101.721058"><time>2026-05-03T22:24:08.017Z</time></trkpt>
      <trkpt lat="29.518105" lon="101.721058"><time>2026-05-03T22:24:08.033Z</time></trkpt>
      <trkpt lat="29.518105" lon="101.721057"><time>2026-05-03T22:24:08.050Z</time></trkpt>
      <trkpt lat="29.518105" lon="101.721057"><time>2026-05-03T22:24:08.067Z</time></trkpt>
      <trkpt lat="29.518105" lon="101.721057"><time>2026-05-03T22:24:08.083Z</time></trkpt>
      <trkpt lat="29.518105" lon="101.721057"><time>2026-05-03T22:24:08.100Z</time></trkpt>
      <trkpt lat="29.518105" lon="101.721057"><time>2026-05-03T22:24:08.117Z</time></trkpt>
      <trkpt lat="29.518105" lon="101.721057"><time>2026-05-03T22:24:08.133Z</time></trkpt>
      <trkpt lat="29.518106" lon="101.721057"><time>2026-05-03T22:24:08.150Z</time></trkpt>
      <trkpt lat="29.518106" lon="101.721057"><time>2026-05-03T22:24:08.167Z</time></trkpt>
      <trkpt lat="29.518106" lon="101.721057"><time>2026-05-03T22:24:08.183Z</time></trkpt>
      <trkpt lat="29.518106" lon="101.721057"><time>2026-05-03T22:24:08.200Z</time></trkpt>
      <trkpt lat="29.518106" lon="101.721057"><time>2026-05-03T22:24:08.217Z</time></trkpt>
      <trkpt lat="29.518106" lon="101.721057"><time>2026-05-03T22:24:08.233Z</time></trkpt>
      <trkpt lat="29.518107" lon="101.721056"><time>2026-05-03T22:24:08.250Z</time></trkpt>
      <trkpt lat="29.518107" lon="101.721056"><time>2026-05-03T22:24:08.267Z</time></trkpt>
      <trkpt lat="29.518107" lon="101.721056"><time>2026-05-03T22:24:08.284Z</time></trkpt>
      <trkpt lat="29.518107" lon="101.721056"><time>2026-05-03T22:24:08.300Z</time></trkpt>
      <trkpt lat="29.518107" lon="101.721056"><time>2026-05-03T22:24:08.317Z</time></trkpt>
      <trkpt lat="29.518107" lon="101.721056"><time>2026-05-03T22:24:08.334Z</time></trkpt>
      <trkpt lat="29.518108" lon="101.721056"><time>2026-05-03T22:24:08.350Z</time></trkpt>
      <trkpt lat="29.518108" lon="101.721056"><time>2026-05-03T22:24:08.367Z</time></trkpt>
      <trkpt lat="29.518108" lon="101.721056"><time>2026-05-03T22:24:08.384Z</time></trkpt>
      <trkpt lat="29.518108" lon="101.721056"><time>2026-05-03T22:24:08.400Z</time></trkpt>
      <trkpt lat="29.518108" lon="101.721056"><time>2026-05-03T22:24:08.417Z</time></trkpt>
      <trkpt lat="29.518108" lon="101.721056"><time>2026-05-03T22:24:08.434Z</time></trkpt>
      <trkpt lat="29.518109" lon="101.721055"><time>2026-05-03T22:24:08.450Z</time></trkpt>
      <trkpt lat="29.518109" lon="101.721055"><time>2026-05-03T22:24:08.467Z</time></trkpt>
      <trkpt lat="29.518109" lon="101.721055"><time>2026-05-03T22:24:08.484Z</time></trkpt>
      <trkpt lat="29.518109" lon="101.721055"><time>2026-05-03T22:24:08.500Z</time></trkpt>
      <trkpt lat="29.518109" lon="101.721055"><time>2026-05-03T22:24:08.517Z</time></trkpt>
      <trkpt lat="29.518109" lon="101.721055"><time>2026-05-03T22:24:08.534Z</time></trkpt>
    </trkseg>
  </trk>
</gpx>
