<?xml version="1.0" encoding="UTF-8"?>
<gpx version="1.1" creator="Kairos" xmlns="http://www.topografix.com/GPX/1/1">
  <trk>
    <name>sidecar-srt-5317943c96d8ae03</name>
    <trkseg>
      <trkpt lat="29.770045" lon="99.010398"><time>2026-05-01T08:22:33.000Z</time></trkpt>
      <trkpt lat="29.770045" lon="99.010398"><time>2026-05-01T08:22:33.016Z</time></trkpt>
      <trkpt lat="29.770044" lon="99.010398"><time>2026-05-01T08:22:33.032Z</time></trkpt>
      <trkpt lat="29.770044" lon="99.010398"><time>2026-05-01T08:22:33.049Z</time></trkpt>
      <trkpt lat="29.770044" lon="99.010398"><time>2026-05-01T08:22:33.066Z</time></trkpt>
      <trkpt lat="29.770044" lon="99.010398"><time>2026-05-01T08:22:33.082Z</time></trkpt>
      <trkpt lat="29.770044" lon="99.010398"><time>2026-05-01T08:22:33.099Z</time></trkpt>
      <trkpt lat="29.770044" lon="99.010398"><time>2026-05-01T08:22:33.116Z</time></trkpt>
      <trkpt lat="29.770043" lon="99.010398"><time>2026-05-01T08:22:33.132Z</time></trkpt>
      <trkpt lat="29.770043" lon="99.010398"><time>2026-05-01T08:22:33.149Z</time></trkpt>
      <trkpt lat="29.770043" lon="99.010398"><time>2026-05-01T08:22:33.166Z</time></trkpt>
      <trkpt lat="29.770043" lon="99.010398"><time>2026-05-01T08:22:33.182Z</time></trkpt>
      <trkpt lat="29.770043" lon="99.010398"><time>2026-05-01T08:22:33.199Z</time></trkpt>
      <trkpt lat="29.770043" lon="99.010398"><time>2026-05-01T08:22:33.216Z</time></trkpt>
      <trkpt lat="29.770043" lon="99.010398"><time>2026-05-01T08:22:33.232Z</time></trkpt>
      <trkpt lat="29.770043" lon="99.010398"><time>2026-05-01T08:22:33.249Z</time></trkpt>
      <trkpt lat="29.770043" lon="99.010398"><time>2026-05-01T08:22:33.266Z</time></trkpt>
      <trkpt lat="29.770043" lon="99.010398"><time>2026-05-01T08:22:33.282Z</time></trkpt>
      <trkpt lat="29.770043" lon="99.010398"><time>2026-05-01T08:22:33.299Z</time></trkpt>
      <trkpt lat="29.770043" lon="99.010398"><time>2026-05-01T08:22:33.316Z</time></trkpt>
      <trkpt lat="29.770043" lon="99.010398"><time>2026-05-01T08:22:33.333Z</time></trkpt>
      <trkpt lat="29.770043" lon="99.010398"><time>2026-05-01T08:22:33.349Z</time></trkpt>
      <trkpt lat="29.770043" lon="99.010398"><time>2026-05-01T08:22:33.366Z</time></trkpt>
      <trkpt lat="29.770043" lon="99.010398"><time>2026-05-01T08:22:33.383Z</time></trkpt>
      <trkpt lat="29.770043" lon="99.010398"><time>2026-05-01T08:22:33.399Z</time></trkpt>
      <trkpt lat="29.770043" lon="99.010398"><time>2026-05-01T08:22:33.416Z</time></trkpt>
      <trkpt lat="29.770043" lon="99.010398"><time>2026-05-01T08:22:33.433Z</time></trkpt>
      <trkpt lat="29.770043" lon="99.010398"><time>2026-05-01T08:22:33.449Z</time></trkpt>
      <trkpt lat="29.770043" lon="99.010398"><time>2026-05-01T08:22:33.466Z</time></trkpt>
      <trkpt lat="29.770043" lon="99.010398"><time>2026-05-01T08:22:33.483Z</time></trkpt>
      <trkpt lat="29.770043" lon="99.010398"><time>2026-05-01T08:22:33.499Z</time></trkpt>
      <trkpt lat="29.770043" lon="99.010398"><time>2026-05-01T08:22:33.516Z</time></trkpt>
      <trkpt lat="29.770043" lon="99.010398"><time>2026-05-01T08:22:33.533Z</time></trkpt>
      <trkpt lat="29.770043" lon="99.010398"><time>2026-05-01T08:22:33.549Z</time></trkpt>
      <trkpt lat="29.770043" lon="99.010398"><time>2026-05-01T08:22:33.566Z</time></trkpt>
      <trkpt lat="29.770043" lon="99.010398"><time>2026-05-01T08:22:33.583Z</time></trkpt>
      <trkpt lat="29.770043" lon="99.010398"><time>2026-05-01T08:22:33.599Z</time></trkpt>
      <trkpt lat="29.770043" lon="99.010398"><time>2026-05-01T08:22:33.616Z</time></trkpt>
      <trkpt lat="29.770043" lon="99.010398"><time>2026-05-01T08:22:33.633Z</time></trkpt>
      <trkpt lat="29.770043" lon="99.010398"><time>2026-05-01T08:22:33.650Z</time></trkpt>
      <trkpt lat="29.770043" lon="99.010398"><time>2026-05-01T08:22:33.666Z</time></trkpt>
      <trkpt lat="29.770043" lon="99.010398"><time>2026-05-01T08:22:33.683Z</time></trkpt>
      <trkpt lat="29.770043" lon="99.010398"><time>2026-05-01T08:22:33.700Z</time></trkpt>
      <trkpt lat="29.770043" lon="99.010398"><time>2026-05-01T08:22:33.716Z</time></trkpt>
      <trkpt lat="29.770044" lon="99.010398"><time>2026-05-01T08:22:33.733Z</time></trkpt>
      <trkpt lat="29.770044" lon="99.010398"><time>2026-05-01T08:22:33.750Z</time></trkpt>
      <trkpt lat="29.770044" lon="99.010398"><time>2026-05-01T08:22:33.766Z</time></trkpt>
      <trkpt lat="29.770044" lon="99.010398"><time>2026-05-01T08:22:33.783Z</time></trkpt>
      <trkpt lat="29.770044" lon="99.010398"><time>2026-05-01T08:22:33.800Z</time></trkpt>
      <trkpt lat="29.770044" lon="99.010398"><time>2026-05-01T08:22:33.816Z</time></trkpt>
      <trkpt lat="29.770044" lon="99.010398"><time>2026-05-01T08:22:33.833Z</time></trkpt>
      <trkpt lat="29.770044" lon="99.010398"><time>2026-05-01T08:22:33.850Z</time></trkpt>
      <trkpt lat="29.770044" lon="99.010398"><time>2026-05-01T08:22:33.866Z</time></trkpt>
      <trkpt lat="29.770044" lon="99.010398"><time>2026-05-01T08:22:33.883Z</time></trkpt>
      <trkpt lat="29.770044" lon="99.010398"><time>2026-05-01T08:22:33.900Z</time></trkpt>
      <trkpt lat="29.770044" lon="99.010398"><time>2026-05-01T08:22:33.916Z</time></trkpt>
      <trkpt lat="29.770046" lon="99.010399"><time>2026-05-01T08:22:33.933Z</time></trkpt>
      <trkpt lat="29.770046" lon="99.010399"><time>2026-05-01T08:22:33.950Z</time></trkpt>
      <trkpt lat="29.770046" lon="99.010399"><time>2026-05-01T08:22:33.967Z</time></trkpt>
      <trkpt lat="29.770046" lon="99.010399"><time>2026-05-01T08:22:33.983Z</time></trkpt>
      <trkpt lat="29.770046" lon="99.010399"><time>2026-05-01T08:22:34.000Z</time></trkpt>
      <trkpt lat="29.770046" lon="99.010399"><time>2026-05-01T08:22:34.017Z</time></trkpt>
      <trkpt lat="29.770047" lon="99.010399"><time>2026-05-01T08:22:34.033Z</time></trkpt>
      <trkpt lat="29.770047" lon="99.010399"><time>2026-05-01T08:22:34.050Z</time></trkpt>
      <trkpt lat="29.770047" lon="99.010399"><time>2026-05-01T08:22:34.067Z</time></trkpt>
      <trkpt lat="29.770047" lon="99.010399"><time>2026-05-01T08:22:34.083Z</time></trkpt>
      <trkpt lat="29.770047" lon="99.010399"><time>2026-05-01T08:22:34.100Z</time></trkpt>
      <trkpt lat="29.770047" lon="99.010399"><time>2026-05-01T08:22:34.117Z</time></trkpt>
      <trkpt lat="29.770049" lon="99.010399"><time>2026-05-01T08:22:34.133Z</time></trkpt>
      <trkpt lat="29.770049" lon="99.010399"><time>2026-05-01T08:22:34.150Z</time></trkpt>
      <trkpt lat="29.770049" lon="99.010399"><time>2026-05-01T08:22:34.167Z</time></trkpt>
      <trkpt lat="29.770049" lon="99.010399"><time>2026-05-01T08:22:34.183Z</time></trkpt>
      <trkpt lat="29.770049" lon="99.010399"><time>2026-05-01T08:22:34.200Z</time></trkpt>
      <trkpt lat="29.770049" lon="99.010399"><time>2026-05-01T08:22:34.217Z</time></trkpt>
      <trkpt lat="29.770051" lon="99.0104"><time>2026-05-01T08:22:34.233Z</time></trkpt>
      <trkpt lat="29.770051" lon="99.0104"><time>2026-05-01T08:22:34.250Z</time></trkpt>
      <trkpt lat="29.770051" lon="99.0104"><time>2026-05-01T08:22:34.267Z</time></trkpt>
      <trkpt lat="29.770051" lon="99.0104"><time>2026-05-01T08:22:34.284Z</time></trkpt>
      <trkpt lat="29.770051" lon="99.0104"><time>2026-05-01T08:22:34.300Z</time></trkpt>
      <trkpt lat="29.770051" lon="99.0104"><time>2026-05-01T08:22:34.317Z</time></trkpt>
      <trkpt lat="29.770053" lon="99.0104"><time>2026-05-01T08:22:34.334Z</time></trkpt>
      <trkpt lat="29.770053" lon="99.0104"><time>2026-05-01T08:22:34.350Z</time></trkpt>
      <trkpt lat="29.770053" lon="99.0104"><time>2026-05-01T08:22:34.367Z</time></trkpt>
      <trkpt lat="29.770053" lon="99.0104"><time>2026-05-01T08:22:34.384Z</time></trkpt>
      <trkpt lat="29.770053" lon="99.0104"><time>2026-05-01T08:22:34.400Z</time></trkpt>
      <trkpt lat="29.770053" lon="99.0104"><time>2026-05-01T08:22:34.417Z</time></trkpt>
      <trkpt lat="29.770057" lon="99.010401"><time>2026-05-01T08:22:34.434Z</time></trkpt>
      <trkpt lat="29.770057" lon="99.010401"><time>2026-05-01T08:22:34.450Z</time></trkpt>
      <trkpt lat="29.770057" lon="99.010401"><time>2026-05-01T08:22:34.467Z</time></trkpt>
      <trkpt lat="29.770057" lon="99.010401"><time>2026-05-01T08:22:34.484Z</time></trkpt>
      <trkpt lat="29.770057" lon="99.010401"><time>2026-05-01T08:22:34.500Z</time></trkpt>
      <trkpt lat="29.770057" lon="99.010401"><time>2026-05-01T08:22:34.517Z</time></trkpt>
      <trkpt lat="29.770059" lon="99.010402"><time>2026-05-01T08:22:34.534Z</time></trkpt>
      <trkpt lat="29.770059" lon="99.010402"><time>2026-05-01T08:22:34.550Z</time></trkpt>
      <trkpt lat="29.770059" lon="99.010402"><time>2026-05-01T08:22:34.567Z</time></trkpt>
      <trkpt lat="29.770059" lon="99.010402"><time>2026-05-01T08:22:34.584Z</time></trkpt>
      <trkpt lat="29.770059" lon="99.010402"><time>2026-05-01T08:22:34.601Z</time></trkpt>
      <trkpt lat="29.770059" lon="99.010402"><time>2026-05-01T08:22:34.617Z</time></trkpt>
      <trkpt lat="29.770062" lon="99.010402"><time>2026-05-01T08:22:34.634Z</time></trkpt>
      <trkpt lat="29.770062" lon="99.010402"><time>2026-05-01T08:22:34.651Z</time></trkpt>
      <trkpt lat="29.770062" lon="99.010402"><time>2026-05-01T08:22:34.667Z</time></trkpt>
      <trkpt lat="29.770062" lon="99.010402"><time>2026-05-01T08:22:34.684Z</time></trkpt>
      <trkpt lat="29.770062" lon="99.010402"><time>2026-05-01T08:22:34.701Z</time></trkpt>
      <trkpt lat="29.770062" lon="99.010402"><time>2026-05-01T08:22:34.717Z</time></trkpt>
      <trkpt lat="29.770066" lon="99.010403"><time>2026-05-01T08:22:34.734Z</time></trkpt>
      <trkpt lat="29.770066" lon="99.010403"><time>2026-05-01T08:22:34.751Z</time></trkpt>
      <trkpt lat="29.770066" lon="99.010403"><time>2026-05-01T08:22:34.767Z</time></trkpt>
      <trkpt lat="29.770066" lon="99.010403"><time>2026-05-01T08:22:34.784Z</time></trkpt>
      <trkpt lat="29.770066" lon="99.010403"><time>2026-05-01T08:22:34.801Z</time></trkpt>
      <trkpt lat="29.770066" lon="99.010403"><time>2026-05-01T08:22:34.817Z</time></trkpt>
      <trkpt lat="29.770069" lon="99.010404"><time>2026-05-01T08:22:34.834Z</time></trkpt>
      <trkpt lat="29.770069" lon="99.010404"><time>2026-05-01T08:22:34.851Z</time></trkpt>
      <trkpt lat="29.770069" lon="99.010404"><time>2026-05-01T08:22:34.867Z</time></trkpt>
      <trkpt lat="29.770069" lon="99.010404"><time>2026-05-01T08:22:34.884Z</time></trkpt>
      <trkpt lat="29.770069" lon="99.010404"><time>2026-05-01T08:22:34.901Z</time></trkpt>
      <trkpt lat="29.770069" lon="99.010404"><time>2026-05-01T08:22:34.918Z</time></trkpt>
      <trkpt lat="29.770073" lon="99.010404"><time>2026-05-01T08:22:34.934Z</time></trkpt>
      <trkpt lat="29.770073" lon="99.010404"><time>2026-05-01T08:22:34.951Z</time></trkpt>
      <trkpt lat="29.770073" lon="99.010404"><time>2026-05-01T08:22:34.968Z</time></trkpt>
      <trkpt lat="29.770073" lon="99.010404"><time>2026-05-01T08:22:34.984Z</time></trkpt>
      <trkpt lat="29.770073" lon="99.010404"><time>2026-05-01T08:22:35.001Z</time></trkpt>
      <trkpt lat="29.770073" lon="99.010404"><time>2026-05-01T08:22:35.018Z</time></trkpt>
      <trkpt lat="29.770077" lon="99.010405"><time>2026-05-01T08:22:35.034Z</time></trkpt>
      <trkpt lat="29.770077" lon="99.010405"><time>2026-05-01T08:22:35.051Z</time></trkpt>
      <trkpt lat="29.770077" lon="99.010405"><time>2026-05-01T08:22:35.068Z</time></trkpt>
      <trkpt lat="29.770077" lon="99.010405"><time>2026-05-01T08:22:35.084Z</time></trkpt>
      <trkpt lat="29.770077" lon="99.010405"><time>2026-05-01T08:22:35.101Z</time></trkpt>
      <trkpt lat="29.770077" lon="99.010405"><time>2026-05-01T08:22:35.118Z</time></trkpt>
      <trkpt lat="29.770081" lon="99.010406"><time>2026-05-01T08:22:35.134Z</time></trkpt>
      <trkpt lat="29.770081" lon="99.010406"><time>2026-05-01T08:22:35.151Z</time></trkpt>
      <trkpt lat="29.770081" lon="99.010406"><time>2026-05-01T08:22:35.168Z</time></trkpt>
      <trkpt lat="29.770081" lon="99.010406"><time>2026-05-01T08:22:35.184Z</time></trkpt>
      <trkpt lat="29.770081" lon="99.010406"><time>2026-05-01T08:22:35.201Z</time></trkpt>
      <trkpt lat="29.770081" lon="99.010406"><time>2026-05-01T08:22:35.218Z</time></trkpt>
      <trkpt lat="29.770086" lon="99.010407"><time>2026-05-01T08:22:35.234Z</time></trkpt>
      <trkpt lat="29.770086" lon="99.010407"><time>2026-05-01T08:22:35.251Z</time></trkpt>
      <trkpt lat="29.770086" lon="99.010407"><time>2026-05-01T08:22:35.268Z</time></trkpt>
      <trkpt lat="29.770086" lon="99.010407"><time>2026-05-01T08:22:35.285Z</time></trkpt>
      <trkpt lat="29.770086" lon="99.010407"><time>2026-05-01T08:22:35.301Z</time></trkpt>
      <trkpt lat="29.770086" lon="99.010407"><time>2026-05-01T08:22:35.318Z</time></trkpt>
      <trkpt lat="29.77009" lon="99.010408"><time>2026-05-01T08:22:35.335Z</time></trkpt>
      <trkpt lat="29.77009" lon="99.010408"><time>2026-05-01T08:22:35.351Z</time></trkpt>
      <trkpt lat="29.77009" lon="99.010408"><time>2026-05-01T08:22:35.368Z</time></trkpt>
      <trkpt lat="29.77009" lon="99.010408"><time>2026-05-01T08:22:35.385Z</time></trkpt>
      <trkpt lat="29.77009" lon="99.010408"><time>2026-05-01T08:22:35.401Z</time></trkpt>
      <trkpt lat="29.77009" lon="99.010408"><time>2026-05-01T08:22:35.418Z</time></trkpt>
      <trkpt lat="29.770095" lon="99.010408"><time>2026-05-01T08:22:35.435Z</time></trkpt>
      <trkpt lat="29.770095" lon="99.010408"><time>2026-05-01T08:22:35.451Z</time></trkpt>
      <trkpt lat="29.770095" lon="99.010408"><time>2026-05-01T08:22:35.468Z</time></trkpt>
      <trkpt lat="29.770095" lon="99.010408"><time>2026-05-01T08:22:35.485Z</time></trkpt>
      <trkpt lat="29.770095" lon="99.010408"><time>2026-05-01T08:22:35.501Z</time></trkpt>
      <trkpt lat="29.770095" lon="99.010408"><time>2026-05-01T08:22:35.518Z</time></trkpt>
      <trkpt lat="29.7701" lon="99.010409"><time>2026-05-01T08:22:35.535Z</time></trkpt>
      <trkpt lat="29.7701" lon="99.010409"><time>2026-05-01T08:22:35.551Z</time></trkpt>
      <trkpt lat="29.7701" lon="99.010409"><time>2026-05-01T08:22:35.568Z</time></trkpt>
      <trkpt lat="29.7701" lon="99.010409"><time>2026-05-01T08:22:35.585Z</time></trkpt>
      <trkpt lat="29.7701" lon="99.010409"><time>2026-05-01T08:22:35.602Z</time></trkpt>
      <trkpt lat="29.7701" lon="99.010409"><time>2026-05-01T08:22:35.618Z</time></trkpt>
      <trkpt lat="29.770105" lon="99.01041"><time>2026-05-01T08:22:35.635Z</time></trkpt>
      <trkpt lat="29.770105" lon="99.01041"><time>2026-05-01T08:22:35.652Z</time></trkpt>
      <trkpt lat="29.770105" lon="99.01041"><time>2026-05-01T08:22:35.668Z</time></trkpt>
      <trkpt lat="29.770105" lon="99.01041"><time>2026-05-01T08:22:35.685Z</time></trkpt>
      <trkpt lat="29.770105" lon="99.01041"><time>2026-05-01T08:22:35.702Z</time></trkpt>
      <trkpt lat="29.770105" lon="99.01041"><time>2026-05-01T08:22:35.718Z</time></trkpt>
      <trkpt lat="29.77011" lon="99.010411"><time>2026-05-01T08:22:35.735Z</time></trkpt>
      <trkpt lat="29.77011" lon="99.010411"><time>2026-05-01T08:22:35.752Z</time></trkpt>
      <trkpt lat="29.77011" lon="99.010411"><time>2026-05-01T08:22:35.768Z</time></trkpt>
      <trkpt lat="29.77011" lon="99.010411"><time>2026-05-01T08:22:35.785Z</time></trkpt>
      <trkpt lat="29.77011" lon="99.010411"><time>2026-05-01T08:22:35.802Z</time></trkpt>
      <trkpt lat="29.77011" lon="99.010411"><time>2026-05-01T08:22:35.818Z</time></trkpt>
      <trkpt lat="29.770115" lon="99.010412"><time>2026-05-01T08:22:35.835Z</time></trkpt>
      <trkpt lat="29.770115" lon="99.010412"><time>2026-05-01T08:22:35.852Z</time></trkpt>
      <trkpt lat="29.770115" lon="99.010412"><time>2026-05-01T08:22:35.868Z</time></trkpt>
      <trkpt lat="29.770115" lon="99.010412"><time>2026-05-01T08:22:35.885Z</time></trkpt>
      <trkpt lat="29.770115" lon="99.010412"><time>2026-05-01T08:22:35.902Z</time></trkpt>
      <trkpt lat="29.770115" lon="99.010412"><time>2026-05-01T08:22:35.919Z</time></trkpt>
      <trkpt lat="29.77012" lon="99.010414"><time>2026-05-01T08:22:35.935Z</time></trkpt>
      <trkpt lat="29.77012" lon="99.010414"><time>2026-05-01T08:22:35.952Z</time></trkpt>
      <trkpt lat="29.77012" lon="99.010414"><time>2026-05-01T08:22:35.969Z</time></trkpt>
      <trkpt lat="29.77012" lon="99.010414"><time>2026-05-01T08:22:35.985Z</time></trkpt>
      <trkpt lat="29.77012" lon="99.010414"><time>2026-05-01T08:22:36.002Z</time></trkpt>
      <trkpt lat="29.77012" lon="99.010414"><time>2026-05-01T08:22:36.019Z</time></trkpt>
      <trkpt lat="29.770126" lon="99.010415"><time>2026-05-01T08:22:36.035Z</time></trkpt>
      <trkpt lat="29.770126" lon="99.010415"><time>2026-05-01T08:22:36.052Z</time></trkpt>
      <trkpt lat="29.770126" lon="99.010415"><time>2026-05-01T08:22:36.069Z</time></trkpt>
      <trkpt lat="29.770126" lon="99.010415"><time>2026-05-01T08:22:36.085Z</time></trkpt>
      <trkpt lat="29.770126" lon="99.010415"><time>2026-05-01T08:22:36.102Z</time></trkpt>
      <trkpt lat="29.770126" lon="99.010415"><time>2026-05-01T08:22:36.119Z</time></trkpt>
      <trkpt lat="29.770131" lon="99.010416"><time>2026-05-01T08:22:36.135Z</time></trkpt>
      <trkpt lat="29.770131" lon="99.010416"><time>2026-05-01T08:22:36.152Z</time></trkpt>
      <trkpt lat="29.770131" lon="99.010416"><time>2026-05-01T08:22:36.169Z</time></trkpt>
      <trkpt lat="29.770131" lon="99.010416"><time>2026-05-01T08:22:36.185Z</time></trkpt>
      <trkpt lat="29.770131" lon="99.010416"><time>2026-05-01T08:22:36.202Z</time></trkpt>
      <trkpt lat="29.770131" lon="99.010416"><time>2026-05-01T08:22:36.219Z</time></trkpt>
      <trkpt lat="29.770137" lon="99.010417"><time>2026-05-01T08:22:36.236Z</time></trkpt>
      <trkpt lat="29.770137" lon="99.010417"><time>2026-05-01T08:22:36.252Z</time></trkpt>
      <trkpt lat="29.770137" lon="99.010417"><time>2026-05-01T08:22:36.269Z</time></trkpt>
      <trkpt lat="29.770137" lon="99.010417"><time>2026-05-01T08:22:36.286Z</time></trkpt>
      <trkpt lat="29.770137" lon="99.010417"><time>2026-05-01T08:22:36.302Z</time></trkpt>
      <trkpt lat="29.770137" lon="99.010417"><time>2026-05-01T08:22:36.319Z</time></trkpt>
      <trkpt lat="29.770143" lon="99.010419"><time>2026-05-01T08:22:36.336Z</time></trkpt>
      <trkpt lat="29.770143" lon="99.010419"><time>2026-05-01T08:22:36.352Z</time></trkpt>
      <trkpt lat="29.770143" lon="99.010419"><time>2026-05-01T08:22:36.369Z</time></trkpt>
      <trkpt lat="29.770143" lon="99.010419"><time>2026-05-01T08:22:36.386Z</time></trkpt>
      <trkpt lat="29.770143" lon="99.010419"><time>2026-05-01T08:22:36.402Z</time></trkpt>
      <trkpt lat="29.770143" lon="99.010419"><time>2026-05-01T08:22:36.419Z</time></trkpt>
      <trkpt lat="29.770148" lon="99.01042"><time>2026-05-01T08:22:36.436Z</time></trkpt>
      <trkpt lat="29.770148" lon="99.01042"><time>2026-05-01T08:22:36.452Z</time></trkpt>
      <trkpt lat="29.770148" lon="99.01042"><time>2026-05-01T08:22:36.469Z</time></trkpt>
      <trkpt lat="29.770148" lon="99.01042"><time>2026-05-01T08:22:36.486Z</time></trkpt>
      <trkpt lat="29.770148" lon="99.01042"><time>2026-05-01T08:22:36.502Z</time></trkpt>
      <trkpt lat="29.770148" lon="99.01042"><time>2026-05-01T08:22:36.519Z</time></trkpt>
      <trkpt lat="29.770154" lon="99.010421"><time>2026-05-01T08:22:36.536Z</time></trkpt>
      <trkpt lat="29.770154" lon="99.010421"><time>2026-05-01T08:22:36.553Z</time></trkpt>
      <trkpt lat="29.770154" lon="99.010421"><time>2026-05-01T08:22:36.569Z</time></trkpt>
      <trkpt lat="29.770154" lon="99.010421"><time>2026-05-01T08:22:36.586Z</time></trkpt>
      <trkpt lat="29.770154" lon="99.010421"><time>2026-05-01T08:22:36.603Z</time></trkpt>
      <trkpt lat="29.770154" lon="99.010421"><time>2026-05-01T08:22:36.619Z</time></trkpt>
      <trkpt lat="29.77016" lon="99.010422"><time>2026-05-01T08:22:36.636Z</time></trkpt>
      <trkpt lat="29.77016" lon="99.010422"><time>2026-05-01T08:22:36.653Z</time></trkpt>
      <trkpt lat="29.77016" lon="99.010422"><time>2026-05-01T08:22:36.669Z</time></trkpt>
      <trkpt lat="29.77016" lon="99.010422"><time>2026-05-01T08:22:36.686Z</time></trkpt>
      <trkpt lat="29.77016" lon="99.010422"><time>2026-05-01T08:22:36.703Z</time></trkpt>
      <trkpt lat="29.77016" lon="99.010422"><time>2026-05-01T08:22:36.719Z</time></trkpt>
      <trkpt lat="29.770167" lon="99.010424"><time>2026-05-01T08:22:36.736Z</time></trkpt>
      <trkpt lat="29.770167" lon="99.010424"><time>2026-05-01T08:22:36.753Z</time></trkpt>
      <trkpt lat="29.770167" lon="99.010424"><time>2026-05-01T08:22:36.769Z</time></trkpt>
      <trkpt lat="29.770167" lon="99.010424"><time>2026-05-01T08:22:36.786Z</time></trkpt>
      <trkpt lat="29.770167" lon="99.010424"><time>2026-05-01T08:22:36.803Z</time></trkpt>
      <trkpt lat="29.770167" lon="99.010424"><time>2026-05-01T08:22:36.819Z</time></trkpt>
      <trkpt lat="29.770173" lon="99.010425"><time>2026-05-01T08:22:36.836Z</time></trkpt>
      <trkpt lat="29.770173" lon="99.010425"><time>2026-05-01T08:22:36.853Z</time></trkpt>
      <trkpt lat="29.770173" lon="99.010425"><time>2026-05-01T08:22:36.870Z</time></trkpt>
      <trkpt lat="29.770173" lon="99.010425"><time>2026-05-01T08:22:36.886Z</time></trkpt>
      <trkpt lat="29.770173" lon="99.010425"><time>2026-05-01T08:22:36.903Z</time></trkpt>
      <trkpt lat="29.770173" lon="99.010425"><time>2026-05-01T08:22:36.920Z</time></trkpt>
      <trkpt lat="29.77018" lon="99.010426"><time>2026-05-01T08:22:36.936Z</time></trkpt>
      <trkpt lat="29.77018" lon="99.010426"><time>2026-05-01T08:22:36.953Z</time></trkpt>
      <trkpt lat="29.77018" lon="99.010426"><time>2026-05-01T08:22:36.970Z</time></trkpt>
      <trkpt lat="29.77018" lon="99.010426"><time>2026-05-01T08:22:36.986Z</time></trkpt>
      <trkpt lat="29.77018" lon="99.010426"><time>2026-05-01T08:22:37.003Z</time></trkpt>
      <trkpt lat="29.77018" lon="99.010426"><time>2026-05-01T08:22:37.020Z</time></trkpt>
      <trkpt lat="29.770186" lon="99.010428"><time>2026-05-01T08:22:37.036Z</time></trkpt>
      <trkpt lat="29.770186" lon="99.010428"><time>2026-05-01T08:22:37.053Z</time></trkpt>
      <trkpt lat="29.770186" lon="99.010428"><time>2026-05-01T08:22:37.070Z</time></trkpt>
      <trkpt lat="29.770186" lon="99.010428"><time>2026-05-01T08:22:37.086Z</time></trkpt>
      <trkpt lat="29.770186" lon="99.010428"><time>2026-05-01T08:22:37.103Z</time></trkpt>
      <trkpt lat="29.770186" lon="99.010428"><time>2026-05-01T08:22:37.120Z</time></trkpt>
      <trkpt lat="29.770193" lon="99.010429"><time>2026-05-01T08:22:37.136Z</time></trkpt>
      <trkpt lat="29.770193" lon="99.010429"><time>2026-05-01T08:22:37.153Z</time></trkpt>
      <trkpt lat="29.770193" lon="99.010429"><time>2026-05-01T08:22:37.170Z</time></trkpt>
      <trkpt lat="29.770193" lon="99.010429"><time>2026-05-01T08:22:37.187Z</time></trkpt>
      <trkpt lat="29.770193" lon="99.010429"><time>2026-05-01T08:22:37.203Z</time></trkpt>
      <trkpt lat="29.770193" lon="99.010429"><time>2026-05-01T08:22:37.220Z</time></trkpt>
      <trkpt lat="29.7702" lon="99.010431"><time>2026-05-01T08:22:37.237Z</time></trkpt>
      <trkpt lat="29.7702" lon="99.010431"><time>2026-05-01T08:22:37.253Z</time></trkpt>
      <trkpt lat="29.7702" lon="99.010431"><time>2026-05-01T08:22:37.270Z</time></trkpt>
      <trkpt lat="29.7702" lon="99.010431"><time>2026-05-01T08:22:37.287Z</time></trkpt>
      <trkpt lat="29.7702" lon="99.010431"><time>2026-05-01T08:22:37.303Z</time></trkpt>
      <trkpt lat="29.7702" lon="99.010431"><time>2026-05-01T08:22:37.320Z</time></trkpt>
      <trkpt lat="29.770206" lon="99.010432"><time>2026-05-01T08:22:37.337Z</time></trkpt>
      <trkpt lat="29.770206" lon="99.010432"><time>2026-05-01T08:22:37.353Z</time></trkpt>
      <trkpt lat="29.770206" lon="99.010432"><time>2026-05-01T08:22:37.370Z</time></trkpt>
      <trkpt lat="29.770206" lon="99.010432"><time>2026-05-01T08:22:37.387Z</time></trkpt>
      <trkpt lat="29.770206" lon="99.010432"><time>2026-05-01T08:22:37.403Z</time></trkpt>
      <trkpt lat="29.770206" lon="99.010432"><time>2026-05-01T08:22:37.420Z</time></trkpt>
      <trkpt lat="29.770213" lon="99.010433"><time>2026-05-01T08:22:37.437Z</time></trkpt>
      <trkpt lat="29.770213" lon="99.010433"><time>2026-05-01T08:22:37.453Z</time></trkpt>
      <trkpt lat="29.770213" lon="99.010433"><time>2026-05-01T08:22:37.470Z</time></trkpt>
      <trkpt lat="29.770213" lon="99.010433"><time>2026-05-01T08:22:37.487Z</time></trkpt>
      <trkpt lat="29.770213" lon="99.010433"><time>2026-05-01T08:22:37.504Z</time></trkpt>
      <trkpt lat="29.770213" lon="99.010433"><time>2026-05-01T08:22:37.520Z</time></trkpt>
      <trkpt lat="29.77022" lon="99.010435"><time>2026-05-01T08:22:37.537Z</time></trkpt>
      <trkpt lat="29.77022" lon="99.010435"><time>2026-05-01T08:22:37.554Z</time></trkpt>
      <trkpt lat="29.77022" lon="99.010435"><time>2026-05-01T08:22:37.570Z</time></trkpt>
      <trkpt lat="29.77022" lon="99.010435"><time>2026-05-01T08:22:37.587Z</time></trkpt>
      <trkpt lat="29.77022" lon="99.010435"><time>2026-05-01T08:22:37.604Z</time></trkpt>
      <trkpt lat="29.77022" lon="99.010435"><time>2026-05-01T08:22:37.620Z</time></trkpt>
      <trkpt lat="29.770227" lon="99.010436"><time>2026-05-01T08:22:37.637Z</time></trkpt>
      <trkpt lat="29.770227" lon="99.010436"><time>2026-05-01T08:22:37.654Z</time></trkpt>
      <trkpt lat="29.770227" lon="99.010436"><time>2026-05-01T08:22:37.670Z</time></trkpt>
      <trkpt lat="29.770227" lon="99.010436"><time>2026-05-01T08:22:37.687Z</time></trkpt>
      <trkpt lat="29.770227" lon="99.010436"><time>2026-05-01T08:22:37.704Z</time></trkpt>
      <trkpt lat="29.770227" lon="99.010436"><time>2026-05-01T08:22:37.720Z</time></trkpt>
      <trkpt lat="29.770234" lon="99.010437"><time>2026-05-01T08:22:37.737Z</time></trkpt>
      <trkpt lat="29.770234" lon="99.010437"><time>2026-05-01T08:22:37.754Z</time></trkpt>
      <trkpt lat="29.770234" lon="99.010437"><time>2026-05-01T08:22:37.770Z</time></trkpt>
      <trkpt lat="29.770234" lon="99.010437"><time>2026-05-01T08:22:37.787Z</time></trkpt>
      <trkpt lat="29.770234" lon="99.010437"><time>2026-05-01T08:22:37.804Z</time></trkpt>
      <trkpt lat="29.770234" lon="99.010437"><time>2026-05-01T08:22:37.821Z</time></trkpt>
      <trkpt lat="29.770242" lon="99.010439"><time>2026-05-01T08:22:37.837Z</time></trkpt>
      <trkpt lat="29.770242" lon="99.010439"><time>2026-05-01T08:22:37.854Z</time></trkpt>
      <trkpt lat="29.770242" lon="99.010439"><time>2026-05-01T08:22:37.871Z</time></trkpt>
      <trkpt lat="29.770242" lon="99.010439"><time>2026-05-01T08:22:37.887Z</time></trkpt>
      <trkpt lat="29.770242" lon="99.010439"><time>2026-05-01T08:22:37.904Z</time></trkpt>
      <trkpt lat="29.770242" lon="99.010439"><time>2026-05-01T08:22:37.921Z</time></trkpt>
      <trkpt lat="29.770249" lon="99.01044"><time>2026-05-01T08:22:37.937Z</time></trkpt>
      <trkpt lat="29.770249" lon="99.01044"><time>2026-05-01T08:22:37.954Z</time></trkpt>
      <trkpt lat="29.770249" lon="99.01044"><time>2026-05-01T08:22:37.971Z</time></trkpt>
      <trkpt lat="29.770249" lon="99.01044"><time>2026-05-01T08:22:37.987Z</time></trkpt>
      <trkpt lat="29.770249" lon="99.01044"><time>2026-05-01T08:22:38.004Z</time></trkpt>
      <trkpt lat="29.770249" lon="99.01044"><time>2026-05-01T08:22:38.021Z</time></trkpt>
      <trkpt lat="29.770257" lon="99.010442"><time>2026-05-01T08:22:38.037Z</time></trkpt>
      <trkpt lat="29.770257" lon="99.010442"><time>2026-05-01T08:22:38.054Z</time></trkpt>
      <trkpt lat="29.770257" lon="99.010442"><time>2026-05-01T08:22:38.071Z</time></trkpt>
      <trkpt lat="29.770257" lon="99.010442"><time>2026-05-01T08:22:38.087Z</time></trkpt>
      <trkpt lat="29.770257" lon="99.010442"><time>2026-05-01T08:22:38.104Z</time></trkpt>
      <trkpt lat="29.770257" lon="99.010442"><time>2026-05-01T08:22:38.121Z</time></trkpt>
      <trkpt lat="29.770264" lon="99.010443"><time>2026-05-01T08:22:38.138Z</time></trkpt>
      <trkpt lat="29.770264" lon="99.010443"><time>2026-05-01T08:22:38.154Z</time></trkpt>
      <trkpt lat="29.770264" lon="99.010443"><time>2026-05-01T08:22:38.171Z</time></trkpt>
      <trkpt lat="29.770264" lon="99.010443"><time>2026-05-01T08:22:38.188Z</time></trkpt>
      <trkpt lat="29.770264" lon="99.010443"><time>2026-05-01T08:22:38.204Z</time></trkpt>
      <trkpt lat="29.770264" lon="99.010443"><time>2026-05-01T08:22:38.221Z</time></trkpt>
      <trkpt lat="29.770272" lon="99.010445"><time>2026-05-01T08:22:38.238Z</time></trkpt>
      <trkpt lat="29.770272" lon="99.010445"><time>2026-05-01T08:22:38.254Z</time></trkpt>
      <trkpt lat="29.770272" lon="99.010445"><time>2026-05-01T08:22:38.271Z</time></trkpt>
      <trkpt lat="29.770272" lon="99.010445"><time>2026-05-01T08:22:38.288Z</time></trkpt>
      <trkpt lat="29.770272" lon="99.010445"><time>2026-05-01T08:22:38.304Z</time></trkpt>
      <trkpt lat="29.770272" lon="99.010445"><time>2026-05-01T08:22:38.321Z</time></trkpt>
      <trkpt lat="29.770279" lon="99.010447"><time>2026-05-01T08:22:38.338Z</time></trkpt>
      <trkpt lat="29.770279" lon="99.010447"><time>2026-05-01T08:22:38.354Z</time></trkpt>
      <trkpt lat="29.770279" lon="99.010447"><time>2026-05-01T08:22:38.371Z</time></trkpt>
      <trkpt lat="29.770279" lon="99.010447"><time>2026-05-01T08:22:38.388Z</time></trkpt>
      <trkpt lat="29.770279" lon="99.010447"><time>2026-05-01T08:22:38.404Z</time></trkpt>
      <trkpt lat="29.770279" lon="99.010447"><time>2026-05-01T08:22:38.421Z</time></trkpt>
      <trkpt lat="29.770287" lon="99.010448"><time>2026-05-01T08:22:38.438Z</time></trkpt>
      <trkpt lat="29.770287" lon="99.010448"><time>2026-05-01T08:22:38.455Z</time></trkpt>
      <trkpt lat="29.770287" lon="99.010448"><time>2026-05-01T08:22:38.471Z</time></trkpt>
      <trkpt lat="29.770287" lon="99.010448"><time>2026-05-01T08:22:38.488Z</time></trkpt>
      <trkpt lat="29.770287" lon="99.010448"><time>2026-05-01T08:22:38.505Z</time></trkpt>
      <trkpt lat="29.770287" lon="99.010448"><time>2026-05-01T08:22:38.521Z</time></trkpt>
      <trkpt lat="29.770295" lon="99.01045"><time>2026-05-01T08:22:38.538Z</time></trkpt>
      <trkpt lat="29.770295" lon="99.01045"><time>2026-05-01T08:22:38.555Z</time></trkpt>
      <trkpt lat="29.770295" lon="99.01045"><time>2026-05-01T08:22:38.571Z</time></trkpt>
      <trkpt lat="29.770295" lon="99.01045"><time>2026-05-01T08:22:38.588Z</time></trkpt>
      <trkpt lat="29.770295" lon="99.01045"><time>2026-05-01T08:22:38.605Z</time></trkpt>
      <trkpt lat="29.770295" lon="99.01045"><time>2026-05-01T08:22:38.621Z</time></trkpt>
      <trkpt lat="29.770302" lon="99.010452"><time>2026-05-01T08:22:38.638Z</time></trkpt>
      <trkpt lat="29.770302" lon="99.010452"><time>2026-05-01T08:22:38.655Z</time></trkpt>
      <trkpt lat="29.770302" lon="99.010452"><time>2026-05-01T08:22:38.671Z</time></trkpt>
      <trkpt lat="29.770302" lon="99.010452"><time>2026-05-01T08:22:38.688Z</time></trkpt>
      <trkpt lat="29.770302" lon="99.010452"><time>2026-05-01T08:22:38.705Z</time></trkpt>
      <trkpt lat="29.770302" lon="99.010452"><time>2026-05-01T08:22:38.721Z</time></trkpt>
      <trkpt lat="29.77031" lon="99.010453"><time>2026-05-01T08:22:38.738Z</time></trkpt>
      <trkpt lat="29.77031" lon="99.010453"><time>2026-05-01T08:22:38.755Z</time></trkpt>
      <trkpt lat="29.77031" lon="99.010453"><time>2026-05-01T08:22:38.772Z</time></trkpt>
      <trkpt lat="29.77031" lon="99.010453"><time>2026-05-01T08:22:38.788Z</time></trkpt>
      <trkpt lat="29.77031" lon="99.010453"><time>2026-05-01T08:22:38.805Z</time></trkpt>
      <trkpt lat="29.77031" lon="99.010453"><time>2026-05-01T08:22:38.822Z</time></trkpt>
      <trkpt lat="29.770318" lon="99.010455"><time>2026-05-01T08:22:38.838Z</time></trkpt>
      <trkpt lat="29.770318" lon="99.010455"><time>2026-05-01T08:22:38.855Z</time></trkpt>
      <trkpt lat="29.770318" lon="99.010455"><time>2026-05-01T08:22:38.872Z</time></trkpt>
      <trkpt lat="29.770318" lon="99.010455"><time>2026-05-01T08:22:38.888Z</time></trkpt>
      <trkpt lat="29.770318" lon="99.010455"><time>2026-05-01T08:22:38.905Z</time></trkpt>
      <trkpt lat="29.770318" lon="99.010455"><time>2026-05-01T08:22:38.922Z</time></trkpt>
      <trkpt lat="29.770326" lon="99.010457"><time>2026-05-01T08:22:38.938Z</time></trkpt>
      <trkpt lat="29.770326" lon="99.010457"><time>2026-05-01T08:22:38.955Z</time></trkpt>
      <trkpt lat="29.770326" lon="99.010457"><time>2026-05-01T08:22:38.972Z</time></trkpt>
      <trkpt lat="29.770326" lon="99.010457"><time>2026-05-01T08:22:38.988Z</time></trkpt>
      <trkpt lat="29.770326" lon="99.010457"><time>2026-05-01T08:22:39.005Z</time></trkpt>
      <trkpt lat="29.770326" lon="99.010457"><time>2026-05-01T08:22:39.022Z</time></trkpt>
      <trkpt lat="29.770333" lon="99.010459"><time>2026-05-01T08:22:39.038Z</time></trkpt>
      <trkpt lat="29.770333" lon="99.010459"><time>2026-05-01T08:22:39.055Z</time></trkpt>
      <trkpt lat="29.770333" lon="99.010459"><time>2026-05-01T08:22:39.072Z</time></trkpt>
      <trkpt lat="29.770333" lon="99.010459"><time>2026-05-01T08:22:39.089Z</time></trkpt>
      <trkpt lat="29.770333" lon="99.010459"><time>2026-05-01T08:22:39.105Z</time></trkpt>
      <trkpt lat="29.770333" lon="99.010459"><time>2026-05-01T08:22:39.122Z</time></trkpt>
      <trkpt lat="29.770341" lon="99.01046"><time>2026-05-01T08:22:39.139Z</time></trkpt>
      <trkpt lat="29.770341" lon="99.01046"><time>2026-05-01T08:22:39.155Z</time></trkpt>
      <trkpt lat="29.770341" lon="99.01046"><time>2026-05-01T08:22:39.172Z</time></trkpt>
      <trkpt lat="29.770341" lon="99.01046"><time>2026-05-01T08:22:39.189Z</time></trkpt>
      <trkpt lat="29.770341" lon="99.01046"><time>2026-05-01T08:22:39.205Z</time></trkpt>
      <trkpt lat="29.770341" lon="99.01046"><time>2026-05-01T08:22:39.222Z</time></trkpt>
      <trkpt lat="29.770349" lon="99.010462"><time>2026-05-01T08:22:39.239Z</time></trkpt>
      <trkpt lat="29.770349" lon="99.010462"><time>2026-05-01T08:22:39.255Z</time></trkpt>
      <trkpt lat="29.770349" lon="99.010462"><time>2026-05-01T08:22:39.272Z</time></trkpt>
      <trkpt lat="29.770349" lon="99.010462"><time>2026-05-01T08:22:39.289Z</time></trkpt>
      <trkpt lat="29.770349" lon="99.010462"><time>2026-05-01T08:22:39.305Z</time></trkpt>
      <trkpt lat="29.770349" lon="99.010462"><time>2026-05-01T08:22:39.322Z</time></trkpt>
      <trkpt lat="29.770357" lon="99.010463"><time>2026-05-01T08:22:39.339Z</time></trkpt>
      <trkpt lat="29.770357" lon="99.010463"><time>2026-05-01T08:22:39.355Z</time></trkpt>
      <trkpt lat="29.770357" lon="99.010463"><time>2026-05-01T08:22:39.372Z</time></trkpt>
      <trkpt lat="29.770357" lon="99.010463"><time>2026-05-01T08:22:39.389Z</time></trkpt>
      <trkpt lat="29.770357" lon="99.010463"><time>2026-05-01T08:22:39.406Z</time></trkpt>
      <trkpt lat="29.770357" lon="99.010463"><time>2026-05-01T08:22:39.422Z</time></trkpt>
      <trkpt lat="29.770365" lon="99.010466"><time>2026-05-01T08:22:39.439Z</time></trkpt>
      <trkpt lat="29.770365" lon="99.010466"><time>2026-05-01T08:22:39.456Z</time></trkpt>
      <trkpt lat="29.770365" lon="99.010466"><time>2026-05-01T08:22:39.472Z</time></trkpt>
      <trkpt lat="29.770365" lon="99.010466"><time>2026-05-01T08:22:39.489Z</time></trkpt>
      <trkpt lat="29.770365" lon="99.010466"><time>2026-05-01T08:22:39.506Z</time></trkpt>
      <trkpt lat="29.770365" lon="99.010466"><time>2026-05-01T08:22:39.522Z</time></trkpt>
      <trkpt lat="29.770373" lon="99.010467"><time>2026-05-01T08:22:39.539Z</time></trkpt>
      <trkpt lat="29.770373" lon="99.010467"><time>2026-05-01T08:22:39.556Z</time></trkpt>
      <trkpt lat="29.770373" lon="99.010467"><time>2026-05-01T08:22:39.572Z</time></trkpt>
      <trkpt lat="29.770373" lon="99.010467"><time>2026-05-01T08:22:39.589Z</time></trkpt>
      <trkpt lat="29.770373" lon="99.010467"><time>2026-05-01T08:22:39.606Z</time></trkpt>
      <trkpt lat="29.770373" lon="99.010467"><time>2026-05-01T08:22:39.622Z</time></trkpt>
      <trkpt lat="29.770381" lon="99.010469"><time>2026-05-01T08:22:39.639Z</time></trkpt>
      <trkpt lat="29.770381" lon="99.010469"><time>2026-05-01T08:22:39.656Z</time></trkpt>
      <trkpt lat="29.770381" lon="99.010469"><time>2026-05-01T08:22:39.672Z</time></trkpt>
      <trkpt lat="29.770381" lon="99.010469"><time>2026-05-01T08:22:39.689Z</time></trkpt>
      <trkpt lat="29.770381" lon="99.010469"><time>2026-05-01T08:22:39.706Z</time></trkpt>
      <trkpt lat="29.770381" lon="99.010469"><time>2026-05-01T08:22:39.723Z</time></trkpt>
      <trkpt lat="29.770389" lon="99.01047"><time>2026-05-01T08:22:39.739Z</time></trkpt>
      <trkpt lat="29.770389" lon="99.01047"><time>2026-05-01T08:22:39.756Z</time></trkpt>
      <trkpt lat="29.770389" lon="99.01047"><time>2026-05-01T08:22:39.773Z</time></trkpt>
      <trkpt lat="29.770389" lon="99.01047"><time>2026-05-01T08:22:39.789Z</time></trkpt>
      <trkpt lat="29.770389" lon="99.01047"><time>2026-05-01T08:22:39.806Z</time></trkpt>
      <trkpt lat="29.770389" lon="99.01047"><time>2026-05-01T08:22:39.823Z</time></trkpt>
      <trkpt lat="29.770397" lon="99.010472"><time>2026-05-01T08:22:39.839Z</time></trkpt>
      <trkpt lat="29.770397" lon="99.010472"><time>2026-05-01T08:22:39.856Z</time></trkpt>
      <trkpt lat="29.770397" lon="99.010472"><time>2026-05-01T08:22:39.873Z</time></trkpt>
      <trkpt lat="29.770397" lon="99.010472"><time>2026-05-01T08:22:39.889Z</time></trkpt>
      <trkpt lat="29.770397" lon="99.010472"><time>2026-05-01T08:22:39.906Z</time></trkpt>
      <trkpt lat="29.770397" lon="99.010472"><time>2026-05-01T08:22:39.923Z</time></trkpt>
      <trkpt lat="29.770405" lon="99.010474"><time>2026-05-01T08:22:39.939Z</time></trkpt>
      <trkpt lat="29.770405" lon="99.010474"><time>2026-05-01T08:22:39.956Z</time></trkpt>
      <trkpt lat="29.770405" lon="99.010474"><time>2026-05-01T08:22:39.973Z</time></trkpt>
      <trkpt lat="29.770405" lon="99.010474"><time>2026-05-01T08:22:39.989Z</time></trkpt>
      <trkpt lat="29.770405" lon="99.010474"><time>2026-05-01T08:22:40.006Z</time></trkpt>
      <trkpt lat="29.770405" lon="99.010474"><time>2026-05-01T08:22:40.023Z</time></trkpt>
      <trkpt lat="29.770414" lon="99.010476"><time>2026-05-01T08:22:40.040Z</time></trkpt>
      <trkpt lat="29.770414" lon="99.010476"><time>2026-05-01T08:22:40.056Z</time></trkpt>
      <trkpt lat="29.770414" lon="99.010476"><time>2026-05-01T08:22:40.073Z</time></trkpt>
      <trkpt lat="29.770414" lon="99.010476"><time>2026-05-01T08:22:40.090Z</time></trkpt>
      <trkpt lat="29.770414" lon="99.010476"><time>2026-05-01T08:22:40.106Z</time></trkpt>
      <trkpt lat="29.770414" lon="99.010476"><time>2026-05-01T08:22:40.123Z</time></trkpt>
      <trkpt lat="29.770422" lon="99.010477"><time>2026-05-01T08:22:40.140Z</time></trkpt>
      <trkpt lat="29.770422" lon="99.010477"><time>2026-05-01T08:22:40.156Z</time></trkpt>
      <trkpt lat="29.770422" lon="99.010477"><time>2026-05-01T08:22:40.173Z</time></trkpt>
      <trkpt lat="29.770422" lon="99.010477"><time>2026-05-01T08:22:40.190Z</time></trkpt>
      <trkpt lat="29.770422" lon="99.010477"><time>2026-05-01T08:22:40.206Z</time></trkpt>
      <trkpt lat="29.770422" lon="99.010477"><time>2026-05-01T08:22:40.223Z</time></trkpt>
      <trkpt lat="29.77043" lon="99.010479"><time>2026-05-01T08:22:40.240Z</time></trkpt>
      <trkpt lat="29.77043" lon="99.010479"><time>2026-05-01T08:22:40.256Z</time></trkpt>
      <trkpt lat="29.77043" lon="99.010479"><time>2026-05-01T08:22:40.273Z</time></trkpt>
      <trkpt lat="29.77043" lon="99.010479"><time>2026-05-01T08:22:40.290Z</time></trkpt>
      <trkpt lat="29.77043" lon="99.010479"><time>2026-05-01T08:22:40.306Z</time></trkpt>
      <trkpt lat="29.77043" lon="99.010479"><time>2026-05-01T08:22:40.323Z</time></trkpt>
      <trkpt lat="29.770438" lon="99.01048"><time>2026-05-01T08:22:40.340Z</time></trkpt>
      <trkpt lat="29.770438" lon="99.01048"><time>2026-05-01T08:22:40.357Z</time></trkpt>
      <trkpt lat="29.770438" lon="99.01048"><time>2026-05-01T08:22:40.373Z</time></trkpt>
      <trkpt lat="29.770438" lon="99.01048"><time>2026-05-01T08:22:40.390Z</time></trkpt>
      <trkpt lat="29.770438" lon="99.01048"><time>2026-05-01T08:22:40.407Z</time></trkpt>
      <trkpt lat="29.770438" lon="99.01048"><time>2026-05-01T08:22:40.423Z</time></trkpt>
      <trkpt lat="29.770446" lon="99.010482"><time>2026-05-01T08:22:40.440Z</time></trkpt>
      <trkpt lat="29.770446" lon="99.010482"><time>2026-05-01T08:22:40.457Z</time></trkpt>
      <trkpt lat="29.770446" lon="99.010482"><time>2026-05-01T08:22:40.473Z</time></trkpt>
      <trkpt lat="29.770446" lon="99.010482"><time>2026-05-01T08:22:40.490Z</time></trkpt>
      <trkpt lat="29.770446" lon="99.010482"><time>2026-05-01T08:22:40.507Z</time></trkpt>
      <trkpt lat="29.770446" lon="99.010482"><time>2026-05-01T08:22:40.523Z</time></trkpt>
      <trkpt lat="29.770454" lon="99.010484"><time>2026-05-01T08:22:40.540Z</time></trkpt>
      <trkpt lat="29.770454" lon="99.010484"><time>2026-05-01T08:22:40.557Z</time></trkpt>
      <trkpt lat="29.770454" lon="99.010484"><time>2026-05-01T08:22:40.573Z</time></trkpt>
      <trkpt lat="29.770454" lon="99.010484"><time>2026-05-01T08:22:40.590Z</time></trkpt>
      <trkpt lat="29.770454" lon="99.010484"><time>2026-05-01T08:22:40.607Z</time></trkpt>
      <trkpt lat="29.770454" lon="99.010484"><time>2026-05-01T08:22:40.623Z</time></trkpt>
      <trkpt lat="29.770463" lon="99.010485"><time>2026-05-01T08:22:40.640Z</time></trkpt>
      <trkpt lat="29.770463" lon="99.010485"><time>2026-05-01T08:22:40.657Z</time></trkpt>
      <trkpt lat="29.770463" lon="99.010485"><time>2026-05-01T08:22:40.674Z</time></trkpt>
      <trkpt lat="29.770463" lon="99.010485"><time>2026-05-01T08:22:40.690Z</time></trkpt>
      <trkpt lat="29.770463" lon="99.010485"><time>2026-05-01T08:22:40.707Z</time></trkpt>
      <trkpt lat="29.770463" lon="99.010485"><time>2026-05-01T08:22:40.724Z</time></trkpt>
      <trkpt lat="29.770471" lon="99.010487"><time>2026-05-01T08:22:40.740Z</time></trkpt>
      <trkpt lat="29.770471" lon="99.010487"><time>2026-05-01T08:22:40.757Z</time></trkpt>
      <trkpt lat="29.770471" lon="99.010487"><time>2026-05-01T08:22:40.774Z</time></trkpt>
      <trkpt lat="29.770471" lon="99.010487"><time>2026-05-01T08:22:40.790Z</time></trkpt>
      <trkpt lat="29.770471" lon="99.010487"><time>2026-05-01T08:22:40.807Z</time></trkpt>
      <trkpt lat="29.770471" lon="99.010487"><time>2026-05-01T08:22:40.824Z</time></trkpt>
      <trkpt lat="29.77048" lon="99.010489"><time>2026-05-01T08:22:40.840Z</time></trkpt>
      <trkpt lat="29.77048" lon="99.010489"><time>2026-05-01T08:22:40.857Z</time></trkpt>
      <trkpt lat="29.77048" lon="99.010489"><time>2026-05-01T08:22:40.874Z</time></trkpt>
      <trkpt lat="29.77048" lon="99.010489"><time>2026-05-01T08:22:40.890Z</time></trkpt>
      <trkpt lat="29.77048" lon="99.010489"><time>2026-05-01T08:22:40.907Z</time></trkpt>
      <trkpt lat="29.77048" lon="99.010489"><time>2026-05-01T08:22:40.924Z</time></trkpt>
      <trkpt lat="29.770488" lon="99.010491"><time>2026-05-01T08:22:40.940Z</time></trkpt>
      <trkpt lat="29.770488" lon="99.010491"><time>2026-05-01T08:22:40.957Z</time></trkpt>
      <trkpt lat="29.770488" lon="99.010491"><time>2026-05-01T08:22:40.974Z</time></trkpt>
      <trkpt lat="29.770488" lon="99.010491"><time>2026-05-01T08:22:40.991Z</time></trkpt>
      <trkpt lat="29.770488" lon="99.010491"><time>2026-05-01T08:22:41.007Z</time></trkpt>
      <trkpt lat="29.770488" lon="99.010491"><time>2026-05-01T08:22:41.024Z</time></trkpt>
      <trkpt lat="29.770496" lon="99.010492"><time>2026-05-01T08:22:41.041Z</time></trkpt>
      <trkpt lat="29.770496" lon="99.010492"><time>2026-05-01T08:22:41.057Z</time></trkpt>
      <trkpt lat="29.770496" lon="99.010492"><time>2026-05-01T08:22:41.074Z</time></trkpt>
      <trkpt lat="29.770496" lon="99.010492"><time>2026-05-01T08:22:41.091Z</time></trkpt>
      <trkpt lat="29.770496" lon="99.010492"><time>2026-05-01T08:22:41.107Z</time></trkpt>
      <trkpt lat="29.770496" lon="99.010492"><time>2026-05-01T08:22:41.124Z</time></trkpt>
      <trkpt lat="29.770505" lon="99.010494"><time>2026-05-01T08:22:41.141Z</time></trkpt>
      <trkpt lat="29.770505" lon="99.010494"><time>2026-05-01T08:22:41.157Z</time></trkpt>
      <trkpt lat="29.770505" lon="99.010494"><time>2026-05-01T08:22:41.174Z</time></trkpt>
      <trkpt lat="29.770505" lon="99.010494"><time>2026-05-01T08:22:41.191Z</time></trkpt>
      <trkpt lat="29.770505" lon="99.010494"><time>2026-05-01T08:22:41.207Z</time></trkpt>
      <trkpt lat="29.770505" lon="99.010494"><time>2026-05-01T08:22:41.224Z</time></trkpt>
      <trkpt lat="29.770513" lon="99.010495"><time>2026-05-01T08:22:41.241Z</time></trkpt>
      <trkpt lat="29.770513" lon="99.010495"><time>2026-05-01T08:22:41.257Z</time></trkpt>
      <trkpt lat="29.770513" lon="99.010495"><time>2026-05-01T08:22:41.274Z</time></trkpt>
      <trkpt lat="29.770513" lon="99.010495"><time>2026-05-01T08:22:41.291Z</time></trkpt>
      <trkpt lat="29.770513" lon="99.010495"><time>2026-05-01T08:22:41.308Z</time></trkpt>
      <trkpt lat="29.770513" lon="99.010495"><time>2026-05-01T08:22:41.324Z</time></trkpt>
      <trkpt lat="29.770522" lon="99.010497"><time>2026-05-01T08:22:41.341Z</time></trkpt>
      <trkpt lat="29.770522" lon="99.010497"><time>2026-05-01T08:22:41.358Z</time></trkpt>
      <trkpt lat="29.770522" lon="99.010497"><time>2026-05-01T08:22:41.374Z</time></trkpt>
      <trkpt lat="29.770522" lon="99.010497"><time>2026-05-01T08:22:41.391Z</time></trkpt>
      <trkpt lat="29.770522" lon="99.010497"><time>2026-05-01T08:22:41.408Z</time></trkpt>
      <trkpt lat="29.770522" lon="99.010497"><time>2026-05-01T08:22:41.424Z</time></trkpt>
      <trkpt lat="29.77053" lon="99.010499"><time>2026-05-01T08:22:41.441Z</time></trkpt>
      <trkpt lat="29.77053" lon="99.010499"><time>2026-05-01T08:22:41.458Z</time></trkpt>
      <trkpt lat="29.77053" lon="99.010499"><time>2026-05-01T08:22:41.474Z</time></trkpt>
      <trkpt lat="29.77053" lon="99.010499"><time>2026-05-01T08:22:41.491Z</time></trkpt>
      <trkpt lat="29.77053" lon="99.010499"><time>2026-05-01T08:22:41.508Z</time></trkpt>
      <trkpt lat="29.77053" lon="99.010499"><time>2026-05-01T08:22:41.524Z</time></trkpt>
      <trkpt lat="29.770538" lon="99.010501"><time>2026-05-01T08:22:41.541Z</time></trkpt>
      <trkpt lat="29.770538" lon="99.010501"><time>2026-05-01T08:22:41.558Z</time></trkpt>
    </trkseg>
  </trk>
</gpx>
