<?xml version="1.0" encoding="UTF-8"?>
<gpx version="1.1" creator="Kairos" xmlns="http://www.topografix.com/GPX/1/1">
  <trk>
    <name>sidecar-srt-feefd7c8aed67a4a</name>
    <trkseg>
      <trkpt lat="30.085206" lon="97.242183"><time>2026-04-30T10:10:57.000Z</time></trkpt>
      <trkpt lat="30.085206" lon="97.242183"><time>2026-04-30T10:10:57.016Z</time></trkpt>
      <trkpt lat="30.085206" lon="97.242183"><time>2026-04-30T10:10:57.032Z</time></trkpt>
      <trkpt lat="30.085206" lon="97.242183"><time>2026-04-30T10:10:57.049Z</time></trkpt>
      <trkpt lat="30.085206" lon="97.242183"><time>2026-04-30T10:10:57.066Z</time></trkpt>
      <trkpt lat="30.085206" lon="97.242183"><time>2026-04-30T10:10:57.082Z</time></trkpt>
      <trkpt lat="30.085206" lon="97.242183"><time>2026-04-30T10:10:57.099Z</time></trkpt>
      <trkpt lat="30.085206" lon="97.242183"><time>2026-04-30T10:10:57.116Z</time></trkpt>
      <trkpt lat="30.085206" lon="97.242183"><time>2026-04-30T10:10:57.132Z</time></trkpt>
      <trkpt lat="30.085206" lon="97.242183"><time>2026-04-30T10:10:57.149Z</time></trkpt>
      <trkpt lat="30.085206" lon="97.242183"><time>2026-04-30T10:10:57.166Z</time></trkpt>
      <trkpt lat="30.085206" lon="97.242183"><time>2026-04-30T10:10:57.182Z</time></trkpt>
      <trkpt lat="30.085206" lon="97.242183"><time>2026-04-30T10:10:57.199Z</time></trkpt>
      <trkpt lat="30.085207" lon="97.242183"><time>2026-04-30T10:10:57.216Z</time></trkpt>
      <trkpt lat="30.085207" lon="97.242183"><time>2026-04-30T10:10:57.232Z</time></trkpt>
      <trkpt lat="30.085207" lon="97.242183"><time>2026-04-30T10:10:57.249Z</time></trkpt>
      <trkpt lat="30.085207" lon="97.242183"><time>2026-04-30T10:10:57.266Z</time></trkpt>
      <trkpt lat="30.085207" lon="97.242183"><time>2026-04-30T10:10:57.282Z</time></trkpt>
      <trkpt lat="30.085207" lon="97.242183"><time>2026-04-30T10:10:57.299Z</time></trkpt>
      <trkpt lat="30.085207" lon="97.242183"><time>2026-04-30T10:10:57.316Z</time></trkpt>
      <trkpt lat="30.085207" lon="97.242183"><time>2026-04-30T10:10:57.333Z</time></trkpt>
      <trkpt lat="30.085207" lon="97.242183"><time>2026-04-30T10:10:57.349Z</time></trkpt>
      <trkpt lat="30.085207" lon="97.242183"><time>2026-04-30T10:10:57.366Z</time></trkpt>
      <trkpt lat="30.085207" lon="97.242183"><time>2026-04-30T10:10:57.383Z</time></trkpt>
      <trkpt lat="30.085207" lon="97.242183"><time>2026-04-30T10:10:57.399Z</time></trkpt>
      <trkpt lat="30.085207" lon="97.242184"><time>2026-04-30T10:10:57.416Z</time></trkpt>
      <trkpt lat="30.085207" lon="97.242184"><time>2026-04-30T10:10:57.433Z</time></trkpt>
      <trkpt lat="30.085207" lon="97.242184"><time>2026-04-30T10:10:57.449Z</time></trkpt>
      <trkpt lat="30.085207" lon="97.242184"><time>2026-04-30T10:10:57.466Z</time></trkpt>
      <trkpt lat="30.085207" lon="97.242184"><time>2026-04-30T10:10:57.483Z</time></trkpt>
      <trkpt lat="30.085207" lon="97.242184"><time>2026-04-30T10:10:57.499Z</time></trkpt>
      <trkpt lat="30.085208" lon="97.242184"><time>2026-04-30T10:10:57.516Z</time></trkpt>
      <trkpt lat="30.085208" lon="97.242184"><time>2026-04-30T10:10:57.533Z</time></trkpt>
      <trkpt lat="30.085208" lon="97.242184"><time>2026-04-30T10:10:57.549Z</time></trkpt>
      <trkpt lat="30.085208" lon="97.242184"><time>2026-04-30T10:10:57.566Z</time></trkpt>
      <trkpt lat="30.085208" lon="97.242184"><time>2026-04-30T10:10:57.583Z</time></trkpt>
      <trkpt lat="30.085208" lon="97.242184"><time>2026-04-30T10:10:57.599Z</time></trkpt>
      <trkpt lat="30.085209" lon="97.242185"><time>2026-04-30T10:10:57.616Z</time></trkpt>
      <trkpt lat="30.085209" lon="97.242185"><time>2026-04-30T10:10:57.633Z</time></trkpt>
      <trkpt lat="30.085209" lon="97.242185"><time>2026-04-30T10:10:57.649Z</time></trkpt>
      <trkpt lat="30.085209" lon="97.242185"><time>2026-04-30T10:10:57.666Z</time></trkpt>
      <trkpt lat="30.085209" lon="97.242185"><time>2026-04-30T10:10:57.683Z</time></trkpt>
      <trkpt lat="30.085209" lon="97.242185"><time>2026-04-30T10:10:57.700Z</time></trkpt>
      <trkpt lat="30.085211" lon="97.242186"><time>2026-04-30T10:10:57.716Z</time></trkpt>
      <trkpt lat="30.085211" lon="97.242186"><time>2026-04-30T10:10:57.733Z</time></trkpt>
      <trkpt lat="30.085211" lon="97.242186"><time>2026-04-30T10:10:57.750Z</time></trkpt>
      <trkpt lat="30.085211" lon="97.242186"><time>2026-04-30T10:10:57.766Z</time></trkpt>
      <trkpt lat="30.085211" lon="97.242186"><time>2026-04-30T10:10:57.783Z</time></trkpt>
      <trkpt lat="30.085211" lon="97.242186"><time>2026-04-30T10:10:57.800Z</time></trkpt>
      <trkpt lat="30.085212" lon="97.242187"><time>2026-04-30T10:10:57.816Z</time></trkpt>
      <trkpt lat="30.085212" lon="97.242187"><time>2026-04-30T10:10:57.833Z</time></trkpt>
      <trkpt lat="30.085212" lon="97.242187"><time>2026-04-30T10:10:57.850Z</time></trkpt>
      <trkpt lat="30.085212" lon="97.242187"><time>2026-04-30T10:10:57.866Z</time></trkpt>
      <trkpt lat="30.085212" lon="97.242187"><time>2026-04-30T10:10:57.883Z</time></trkpt>
      <trkpt lat="30.085212" lon="97.242187"><time>2026-04-30T10:10:57.900Z</time></trkpt>
      <trkpt lat="30.085214" lon="97.242188"><time>2026-04-30T10:10:57.916Z</time></trkpt>
      <trkpt lat="30.085214" lon="97.242188"><time>2026-04-30T10:10:57.933Z</time></trkpt>
      <trkpt lat="30.085214" lon="97.242188"><time>2026-04-30T10:10:57.950Z</time></trkpt>
      <trkpt lat="30.085214" lon="97.242188"><time>2026-04-30T10:10:57.966Z</time></trkpt>
      <trkpt lat="30.085214" lon="97.242188"><time>2026-04-30T10:10:57.983Z</time></trkpt>
      <trkpt lat="30.085214" lon="97.242188"><time>2026-04-30T10:10:58.000Z</time></trkpt>
      <trkpt lat="30.085216" lon="97.24219"><time>2026-04-30T10:10:58.017Z</time></trkpt>
      <trkpt lat="30.085216" lon="97.24219"><time>2026-04-30T10:10:58.033Z</time></trkpt>
      <trkpt lat="30.085216" lon="97.24219"><time>2026-04-30T10:10:58.050Z</time></trkpt>
      <trkpt lat="30.085216" lon="97.24219"><time>2026-04-30T10:10:58.067Z</time></trkpt>
      <trkpt lat="30.085216" lon="97.24219"><time>2026-04-30T10:10:58.083Z</time></trkpt>
      <trkpt lat="30.085216" lon="97.24219"><time>2026-04-30T10:10:58.100Z</time></trkpt>
      <trkpt lat="30.085218" lon="97.242191"><time>2026-04-30T10:10:58.117Z</time></trkpt>
      <trkpt lat="30.085218" lon="97.242191"><time>2026-04-30T10:10:58.133Z</time></trkpt>
      <trkpt lat="30.085218" lon="97.242191"><time>2026-04-30T10:10:58.150Z</time></trkpt>
      <trkpt lat="30.085218" lon="97.242191"><time>2026-04-30T10:10:58.167Z</time></trkpt>
      <trkpt lat="30.085218" lon="97.242191"><time>2026-04-30T10:10:58.183Z</time></trkpt>
      <trkpt lat="30.085218" lon="97.242191"><time>2026-04-30T10:10:58.200Z</time></trkpt>
      <trkpt lat="30.085221" lon="97.242193"><time>2026-04-30T10:10:58.217Z</time></trkpt>
      <trkpt lat="30.085221" lon="97.242193"><time>2026-04-30T10:10:58.233Z</time></trkpt>
      <trkpt lat="30.085221" lon="97.242193"><time>2026-04-30T10:10:58.250Z</time></trkpt>
      <trkpt lat="30.085221" lon="97.242193"><time>2026-04-30T10:10:58.267Z</time></trkpt>
      <trkpt lat="30.085221" lon="97.242193"><time>2026-04-30T10:10:58.283Z</time></trkpt>
      <trkpt lat="30.085221" lon="97.242193"><time>2026-04-30T10:10:58.300Z</time></trkpt>
      <trkpt lat="30.085223" lon="97.242195"><time>2026-04-30T10:10:58.317Z</time></trkpt>
      <trkpt lat="30.085223" lon="97.242195"><time>2026-04-30T10:10:58.334Z</time></trkpt>
      <trkpt lat="30.085223" lon="97.242195"><time>2026-04-30T10:10:58.350Z</time></trkpt>
      <trkpt lat="30.085223" lon="97.242195"><time>2026-04-30T10:10:58.367Z</time></trkpt>
      <trkpt lat="30.085223" lon="97.242195"><time>2026-04-30T10:10:58.384Z</time></trkpt>
      <trkpt lat="30.085223" lon="97.242195"><time>2026-04-30T10:10:58.400Z</time></trkpt>
      <trkpt lat="30.085226" lon="97.242198"><time>2026-04-30T10:10:58.417Z</time></trkpt>
      <trkpt lat="30.085226" lon="97.242198"><time>2026-04-30T10:10:58.434Z</time></trkpt>
      <trkpt lat="30.085226" lon="97.242198"><time>2026-04-30T10:10:58.450Z</time></trkpt>
      <trkpt lat="30.085226" lon="97.242198"><time>2026-04-30T10:10:58.467Z</time></trkpt>
      <trkpt lat="30.085226" lon="97.242198"><time>2026-04-30T10:10:58.484Z</time></trkpt>
      <trkpt lat="30.085226" lon="97.242198"><time>2026-04-30T10:10:58.500Z</time></trkpt>
      <trkpt lat="30.085229" lon="97.2422"><time>2026-04-30T10:10:58.517Z</time></trkpt>
      <trkpt lat="30.085229" lon="97.2422"><time>2026-04-30T10:10:58.534Z</time></trkpt>
      <trkpt lat="30.085229" lon="97.2422"><time>2026-04-30T10:10:58.550Z</time></trkpt>
      <trkpt lat="30.085229" lon="97.2422"><time>2026-04-30T10:10:58.567Z</time></trkpt>
      <trkpt lat="30.085229" lon="97.2422"><time>2026-04-30T10:10:58.584Z</time></trkpt>
      <trkpt lat="30.085229" lon="97.2422"><time>2026-04-30T10:10:58.600Z</time></trkpt>
      <trkpt lat="30.085232" lon="97.242202"><time>2026-04-30T10:10:58.617Z</time></trkpt>
      <trkpt lat="30.085232" lon="97.242202"><time>2026-04-30T10:10:58.634Z</time></trkpt>
      <trkpt lat="30.085232" lon="97.242202"><time>2026-04-30T10:10:58.651Z</time></trkpt>
      <trkpt lat="30.085232" lon="97.242202"><time>2026-04-30T10:10:58.667Z</time></trkpt>
      <trkpt lat="30.085232" lon="97.242202"><time>2026-04-30T10:10:58.684Z</time></trkpt>
      <trkpt lat="30.085232" lon="97.242202"><time>2026-04-30T10:10:58.701Z</time></trkpt>
      <trkpt lat="30.085236" lon="97.242205"><time>2026-04-30T10:10:58.717Z</time></trkpt>
      <trkpt lat="30.085236" lon="97.242205"><time>2026-04-30T10:10:58.734Z</time></trkpt>
      <trkpt lat="30.085236" lon="97.242205"><time>2026-04-30T10:10:58.751Z</time></trkpt>
      <trkpt lat="30.085236" lon="97.242205"><time>2026-04-30T10:10:58.767Z</time></trkpt>
      <trkpt lat="30.085236" lon="97.242205"><time>2026-04-30T10:10:58.784Z</time></trkpt>
      <trkpt lat="30.085236" lon="97.242205"><time>2026-04-30T10:10:58.801Z</time></trkpt>
      <trkpt lat="30.085239" lon="97.242208"><time>2026-04-30T10:10:58.817Z</time></trkpt>
      <trkpt lat="30.085239" lon="97.242208"><time>2026-04-30T10:10:58.834Z</time></trkpt>
      <trkpt lat="30.085239" lon="97.242208"><time>2026-04-30T10:10:58.851Z</time></trkpt>
      <trkpt lat="30.085239" lon="97.242208"><time>2026-04-30T10:10:58.867Z</time></trkpt>
      <trkpt lat="30.085239" lon="97.242208"><time>2026-04-30T10:10:58.884Z</time></trkpt>
      <trkpt lat="30.085239" lon="97.242208"><time>2026-04-30T10:10:58.901Z</time></trkpt>
      <trkpt lat="30.085243" lon="97.242211"><time>2026-04-30T10:10:58.917Z</time></trkpt>
      <trkpt lat="30.085243" lon="97.242211"><time>2026-04-30T10:10:58.934Z</time></trkpt>
      <trkpt lat="30.085243" lon="97.242211"><time>2026-04-30T10:10:58.951Z</time></trkpt>
      <trkpt lat="30.085243" lon="97.242211"><time>2026-04-30T10:10:58.968Z</time></trkpt>
      <trkpt lat="30.085243" lon="97.242211"><time>2026-04-30T10:10:58.984Z</time></trkpt>
      <trkpt lat="30.085243" lon="97.242211"><time>2026-04-30T10:10:59.001Z</time></trkpt>
      <trkpt lat="30.085247" lon="97.242214"><time>2026-04-30T10:10:59.018Z</time></trkpt>
      <trkpt lat="30.085247" lon="97.242214"><time>2026-04-30T10:10:59.034Z</time></trkpt>
      <trkpt lat="30.085247" lon="97.242214"><time>2026-04-30T10:10:59.051Z</time></trkpt>
      <trkpt lat="30.085247" lon="97.242214"><time>2026-04-30T10:10:59.068Z</time></trkpt>
      <trkpt lat="30.085247" lon="97.242214"><time>2026-04-30T10:10:59.084Z</time></trkpt>
      <trkpt lat="30.085247" lon="97.242214"><time>2026-04-30T10:10:59.101Z</time></trkpt>
      <trkpt lat="30.085251" lon="97.242217"><time>2026-04-30T10:10:59.118Z</time></trkpt>
      <trkpt lat="30.085251" lon="97.242217"><time>2026-04-30T10:10:59.134Z</time></trkpt>
      <trkpt lat="30.085251" lon="97.242217"><time>2026-04-30T10:10:59.151Z</time></trkpt>
      <trkpt lat="30.085251" lon="97.242217"><time>2026-04-30T10:10:59.168Z</time></trkpt>
      <trkpt lat="30.085251" lon="97.242217"><time>2026-04-30T10:10:59.184Z</time></trkpt>
      <trkpt lat="30.085251" lon="97.242217"><time>2026-04-30T10:10:59.201Z</time></trkpt>
      <trkpt lat="30.085255" lon="97.24222"><time>2026-04-30T10:10:59.218Z</time></trkpt>
      <trkpt lat="30.085255" lon="97.24222"><time>2026-04-30T10:10:59.234Z</time></trkpt>
      <trkpt lat="30.085255" lon="97.24222"><time>2026-04-30T10:10:59.251Z</time></trkpt>
      <trkpt lat="30.085255" lon="97.24222"><time>2026-04-30T10:10:59.268Z</time></trkpt>
      <trkpt lat="30.085255" lon="97.24222"><time>2026-04-30T10:10:59.285Z</time></trkpt>
      <trkpt lat="30.085255" lon="97.24222"><time>2026-04-30T10:10:59.301Z</time></trkpt>
      <trkpt lat="30.085259" lon="97.242223"><time>2026-04-30T10:10:59.318Z</time></trkpt>
      <trkpt lat="30.085259" lon="97.242223"><time>2026-04-30T10:10:59.335Z</time></trkpt>
      <trkpt lat="30.085259" lon="97.242223"><time>2026-04-30T10:10:59.351Z</time></trkpt>
      <trkpt lat="30.085259" lon="97.242223"><time>2026-04-30T10:10:59.368Z</time></trkpt>
      <trkpt lat="30.085259" lon="97.242223"><time>2026-04-30T10:10:59.385Z</time></trkpt>
      <trkpt lat="30.085259" lon="97.242223"><time>2026-04-30T10:10:59.401Z</time></trkpt>
      <trkpt lat="30.085264" lon="97.242226"><time>2026-04-30T10:10:59.418Z</time></trkpt>
      <trkpt lat="30.085264" lon="97.242226"><time>2026-04-30T10:10:59.435Z</time></trkpt>
      <trkpt lat="30.085264" lon="97.242226"><time>2026-04-30T10:10:59.451Z</time></trkpt>
      <trkpt lat="30.085264" lon="97.242226"><time>2026-04-30T10:10:59.468Z</time></trkpt>
      <trkpt lat="30.085264" lon="97.242226"><time>2026-04-30T10:10:59.485Z</time></trkpt>
      <trkpt lat="30.085264" lon="97.242226"><time>2026-04-30T10:10:59.501Z</time></trkpt>
      <trkpt lat="30.085268" lon="97.24223"><time>2026-04-30T10:10:59.518Z</time></trkpt>
      <trkpt lat="30.085268" lon="97.24223"><time>2026-04-30T10:10:59.535Z</time></trkpt>
      <trkpt lat="30.085268" lon="97.24223"><time>2026-04-30T10:10:59.551Z</time></trkpt>
      <trkpt lat="30.085268" lon="97.24223"><time>2026-04-30T10:10:59.568Z</time></trkpt>
      <trkpt lat="30.085268" lon="97.24223"><time>2026-04-30T10:10:59.585Z</time></trkpt>
      <trkpt lat="30.085268" lon="97.24223"><time>2026-04-30T10:10:59.602Z</time></trkpt>
      <trkpt lat="30.085273" lon="97.242233"><time>2026-04-30T10:10:59.618Z</time></trkpt>
      <trkpt lat="30.085273" lon="97.242233"><time>2026-04-30T10:10:59.635Z</time></trkpt>
      <trkpt lat="30.085273" lon="97.242233"><time>2026-04-30T10:10:59.652Z</time></trkpt>
      <trkpt lat="30.085273" lon="97.242233"><time>2026-04-30T10:10:59.668Z</time></trkpt>
      <trkpt lat="30.085273" lon="97.242233"><time>2026-04-30T10:10:59.685Z</time></trkpt>
      <trkpt lat="30.085273" lon="97.242233"><time>2026-04-30T10:10:59.702Z</time></trkpt>
      <trkpt lat="30.085277" lon="97.242237"><time>2026-04-30T10:10:59.718Z</time></trkpt>
      <trkpt lat="30.085277" lon="97.242237"><time>2026-04-30T10:10:59.735Z</time></trkpt>
      <trkpt lat="30.085277" lon="97.242237"><time>2026-04-30T10:10:59.752Z</time></trkpt>
      <trkpt lat="30.085277" lon="97.242237"><time>2026-04-30T10:10:59.768Z</time></trkpt>
      <trkpt lat="30.085277" lon="97.242237"><time>2026-04-30T10:10:59.785Z</time></trkpt>
      <trkpt lat="30.085277" lon="97.242237"><time>2026-04-30T10:10:59.802Z</time></trkpt>
      <trkpt lat="30.085282" lon="97.242241"><time>2026-04-30T10:10:59.818Z</time></trkpt>
      <trkpt lat="30.085282" lon="97.242241"><time>2026-04-30T10:10:59.835Z</time></trkpt>
      <trkpt lat="30.085282" lon="97.242241"><time>2026-04-30T10:10:59.852Z</time></trkpt>
      <trkpt lat="30.085282" lon="97.242241"><time>2026-04-30T10:10:59.868Z</time></trkpt>
      <trkpt lat="30.085282" lon="97.242241"><time>2026-04-30T10:10:59.885Z</time></trkpt>
      <trkpt lat="30.085282" lon="97.242241"><time>2026-04-30T10:10:59.902Z</time></trkpt>
      <trkpt lat="30.085287" lon="97.242245"><time>2026-04-30T10:10:59.919Z</time></trkpt>
      <trkpt lat="30.085287" lon="97.242245"><time>2026-04-30T10:10:59.935Z</time></trkpt>
      <trkpt lat="30.085287" lon="97.242245"><time>2026-04-30T10:10:59.952Z</time></trkpt>
      <trkpt lat="30.085287" lon="97.242245"><time>2026-04-30T10:10:59.969Z</time></trkpt>
      <trkpt lat="30.085287" lon="97.242245"><time>2026-04-30T10:10:59.985Z</time></trkpt>
      <trkpt lat="30.085287" lon="97.242245"><time>2026-04-30T10:11:00.002Z</time></trkpt>
      <trkpt lat="30.085292" lon="97.242249"><time>2026-04-30T10:11:00.019Z</time></trkpt>
      <trkpt lat="30.085292" lon="97.242249"><time>2026-04-30T10:11:00.035Z</time></trkpt>
      <trkpt lat="30.085292" lon="97.242249"><time>2026-04-30T10:11:00.052Z</time></trkpt>
      <trkpt lat="30.085292" lon="97.242249"><time>2026-04-30T10:11:00.069Z</time></trkpt>
      <trkpt lat="30.085292" lon="97.242249"><time>2026-04-30T10:11:00.085Z</time></trkpt>
      <trkpt lat="30.085292" lon="97.242249"><time>2026-04-30T10:11:00.102Z</time></trkpt>
      <trkpt lat="30.085297" lon="97.242253"><time>2026-04-30T10:11:00.119Z</time></trkpt>
      <trkpt lat="30.085297" lon="97.242253"><time>2026-04-30T10:11:00.135Z</time></trkpt>
      <trkpt lat="30.085297" lon="97.242253"><time>2026-04-30T10:11:00.152Z</time></trkpt>
      <trkpt lat="30.085297" lon="97.242253"><time>2026-04-30T10:11:00.169Z</time></trkpt>
      <trkpt lat="30.085297" lon="97.242253"><time>2026-04-30T10:11:00.185Z</time></trkpt>
      <trkpt lat="30.085297" lon="97.242253"><time>2026-04-30T10:11:00.202Z</time></trkpt>
      <trkpt lat="30.085302" lon="97.242257"><time>2026-04-30T10:11:00.219Z</time></trkpt>
      <trkpt lat="30.085302" lon="97.242257"><time>2026-04-30T10:11:00.236Z</time></trkpt>
      <trkpt lat="30.085302" lon="97.242257"><time>2026-04-30T10:11:00.252Z</time></trkpt>
      <trkpt lat="30.085302" lon="97.242257"><time>2026-04-30T10:11:00.269Z</time></trkpt>
      <trkpt lat="30.085302" lon="97.242257"><time>2026-04-30T10:11:00.286Z</time></trkpt>
      <trkpt lat="30.085302" lon="97.242257"><time>2026-04-30T10:11:00.302Z</time></trkpt>
      <trkpt lat="30.085307" lon="97.242261"><time>2026-04-30T10:11:00.319Z</time></trkpt>
      <trkpt lat="30.085307" lon="97.242261"><time>2026-04-30T10:11:00.336Z</time></trkpt>
      <trkpt lat="30.085307" lon="97.242261"><time>2026-04-30T10:11:00.352Z</time></trkpt>
      <trkpt lat="30.085307" lon="97.242261"><time>2026-04-30T10:11:00.369Z</time></trkpt>
      <trkpt lat="30.085307" lon="97.242261"><time>2026-04-30T10:11:00.386Z</time></trkpt>
      <trkpt lat="30.085307" lon="97.242261"><time>2026-04-30T10:11:00.402Z</time></trkpt>
      <trkpt lat="30.085313" lon="97.242265"><time>2026-04-30T10:11:00.419Z</time></trkpt>
      <trkpt lat="30.085313" lon="97.242265"><time>2026-04-30T10:11:00.436Z</time></trkpt>
      <trkpt lat="30.085313" lon="97.242265"><time>2026-04-30T10:11:00.452Z</time></trkpt>
      <trkpt lat="30.085313" lon="97.242265"><time>2026-04-30T10:11:00.469Z</time></trkpt>
      <trkpt lat="30.085313" lon="97.242265"><time>2026-04-30T10:11:00.486Z</time></trkpt>
      <trkpt lat="30.085313" lon="97.242265"><time>2026-04-30T10:11:00.502Z</time></trkpt>
      <trkpt lat="30.085318" lon="97.24227"><time>2026-04-30T10:11:00.519Z</time></trkpt>
      <trkpt lat="30.085318" lon="97.24227"><time>2026-04-30T10:11:00.536Z</time></trkpt>
      <trkpt lat="30.085318" lon="97.24227"><time>2026-04-30T10:11:00.553Z</time></trkpt>
      <trkpt lat="30.085318" lon="97.24227"><time>2026-04-30T10:11:00.569Z</time></trkpt>
      <trkpt lat="30.085318" lon="97.24227"><time>2026-04-30T10:11:00.586Z</time></trkpt>
      <trkpt lat="30.085318" lon="97.24227"><time>2026-04-30T10:11:00.603Z</time></trkpt>
      <trkpt lat="30.085323" lon="97.242274"><time>2026-04-30T10:11:00.619Z</time></trkpt>
      <trkpt lat="30.085323" lon="97.242274"><time>2026-04-30T10:11:00.636Z</time></trkpt>
      <trkpt lat="30.085323" lon="97.242274"><time>2026-04-30T10:11:00.653Z</time></trkpt>
      <trkpt lat="30.085323" lon="97.242274"><time>2026-04-30T10:11:00.669Z</time></trkpt>
      <trkpt lat="30.085323" lon="97.242274"><time>2026-04-30T10:11:00.686Z</time></trkpt>
      <trkpt lat="30.085323" lon="97.242274"><time>2026-04-30T10:11:00.703Z</time></trkpt>
      <trkpt lat="30.085329" lon="97.242279"><time>2026-04-30T10:11:00.719Z</time></trkpt>
      <trkpt lat="30.085329" lon="97.242279"><time>2026-04-30T10:11:00.736Z</time></trkpt>
      <trkpt lat="30.085329" lon="97.242279"><time>2026-04-30T10:11:00.753Z</time></trkpt>
      <trkpt lat="30.085329" lon="97.242279"><time>2026-04-30T10:11:00.769Z</time></trkpt>
      <trkpt lat="30.085329" lon="97.242279"><time>2026-04-30T10:11:00.786Z</time></trkpt>
      <trkpt lat="30.085329" lon="97.242279"><time>2026-04-30T10:11:00.803Z</time></trkpt>
      <trkpt lat="30.085334" lon="97.242283"><time>2026-04-30T10:11:00.819Z</time></trkpt>
      <trkpt lat="30.085334" lon="97.242283"><time>2026-04-30T10:11:00.836Z</time></trkpt>
      <trkpt lat="30.085334" lon="97.242283"><time>2026-04-30T10:11:00.853Z</time></trkpt>
      <trkpt lat="30.085334" lon="97.242283"><time>2026-04-30T10:11:00.870Z</time></trkpt>
      <trkpt lat="30.085334" lon="97.242283"><time>2026-04-30T10:11:00.886Z</time></trkpt>
      <trkpt lat="30.085334" lon="97.242283"><time>2026-04-30T10:11:00.903Z</time></trkpt>
      <trkpt lat="30.08534" lon="97.242288"><time>2026-04-30T10:11:00.920Z</time></trkpt>
      <trkpt lat="30.08534" lon="97.242288"><time>2026-04-30T10:11:00.936Z</time></trkpt>
      <trkpt lat="30.08534" lon="97.242288"><time>2026-04-30T10:11:00.953Z</time></trkpt>
      <trkpt lat="30.08534" lon="97.242288"><time>2026-04-30T10:11:00.970Z</time></trkpt>
      <trkpt lat="30.08534" lon="97.242288"><time>2026-04-30T10:11:00.986Z</time></trkpt>
      <trkpt lat="30.08534" lon="97.242288"><time>2026-04-30T10:11:01.003Z</time></trkpt>
      <trkpt lat="30.085345" lon="97.242292"><time>2026-04-30T10:11:01.020Z</time></trkpt>
      <trkpt lat="30.085345" lon="97.242292"><time>2026-04-30T10:11:01.036Z</time></trkpt>
      <trkpt lat="30.085345" lon="97.242292"><time>2026-04-30T10:11:01.053Z</time></trkpt>
      <trkpt lat="30.085345" lon="97.242292"><time>2026-04-30T10:11:01.070Z</time></trkpt>
      <trkpt lat="30.085345" lon="97.242292"><time>2026-04-30T10:11:01.086Z</time></trkpt>
      <trkpt lat="30.085345" lon="97.242292"><time>2026-04-30T10:11:01.103Z</time></trkpt>
      <trkpt lat="30.085351" lon="97.242297"><time>2026-04-30T10:11:01.120Z</time></trkpt>
      <trkpt lat="30.085351" lon="97.242297"><time>2026-04-30T10:11:01.136Z</time></trkpt>
      <trkpt lat="30.085351" lon="97.242297"><time>2026-04-30T10:11:01.153Z</time></trkpt>
      <trkpt lat="30.085351" lon="97.242297"><time>2026-04-30T10:11:01.170Z</time></trkpt>
      <trkpt lat="30.085351" lon="97.242297"><time>2026-04-30T10:11:01.187Z</time></trkpt>
      <trkpt lat="30.085351" lon="97.242297"><time>2026-04-30T10:11:01.203Z</time></trkpt>
      <trkpt lat="30.085357" lon="97.242302"><time>2026-04-30T10:11:01.220Z</time></trkpt>
      <trkpt lat="30.085357" lon="97.242302"><time>2026-04-30T10:11:01.237Z</time></trkpt>
      <trkpt lat="30.085357" lon="97.242302"><time>2026-04-30T10:11:01.253Z</time></trkpt>
      <trkpt lat="30.085357" lon="97.242302"><time>2026-04-30T10:11:01.270Z</time></trkpt>
      <trkpt lat="30.085357" lon="97.242302"><time>2026-04-30T10:11:01.287Z</time></trkpt>
      <trkpt lat="30.085357" lon="97.242302"><time>2026-04-30T10:11:01.303Z</time></trkpt>
      <trkpt lat="30.085363" lon="97.242306"><time>2026-04-30T10:11:01.320Z</time></trkpt>
      <trkpt lat="30.085363" lon="97.242306"><time>2026-04-30T10:11:01.337Z</time></trkpt>
      <trkpt lat="30.085363" lon="97.242306"><time>2026-04-30T10:11:01.353Z</time></trkpt>
      <trkpt lat="30.085363" lon="97.242306"><time>2026-04-30T10:11:01.370Z</time></trkpt>
      <trkpt lat="30.085363" lon="97.242306"><time>2026-04-30T10:11:01.387Z</time></trkpt>
      <trkpt lat="30.085363" lon="97.242306"><time>2026-04-30T10:11:01.403Z</time></trkpt>
      <trkpt lat="30.085369" lon="97.242311"><time>2026-04-30T10:11:01.420Z</time></trkpt>
      <trkpt lat="30.085369" lon="97.242311"><time>2026-04-30T10:11:01.437Z</time></trkpt>
      <trkpt lat="30.085369" lon="97.242311"><time>2026-04-30T10:11:01.453Z</time></trkpt>
      <trkpt lat="30.085369" lon="97.242311"><time>2026-04-30T10:11:01.470Z</time></trkpt>
      <trkpt lat="30.085369" lon="97.242311"><time>2026-04-30T10:11:01.487Z</time></trkpt>
      <trkpt lat="30.085369" lon="97.242311"><time>2026-04-30T10:11:01.504Z</time></trkpt>
      <trkpt lat="30.085375" lon="97.242316"><time>2026-04-30T10:11:01.520Z</time></trkpt>
      <trkpt lat="30.085375" lon="97.242316"><time>2026-04-30T10:11:01.537Z</time></trkpt>
      <trkpt lat="30.085375" lon="97.242316"><time>2026-04-30T10:11:01.554Z</time></trkpt>
      <trkpt lat="30.085375" lon="97.242316"><time>2026-04-30T10:11:01.570Z</time></trkpt>
      <trkpt lat="30.085375" lon="97.242316"><time>2026-04-30T10:11:01.587Z</time></trkpt>
      <trkpt lat="30.085375" lon="97.242316"><time>2026-04-30T10:11:01.604Z</time></trkpt>
      <trkpt lat="30.085381" lon="97.24232"><time>2026-04-30T10:11:01.620Z</time></trkpt>
      <trkpt lat="30.085381" lon="97.24232"><time>2026-04-30T10:11:01.637Z</time></trkpt>
      <trkpt lat="30.085381" lon="97.24232"><time>2026-04-30T10:11:01.654Z</time></trkpt>
      <trkpt lat="30.085381" lon="97.24232"><time>2026-04-30T10:11:01.670Z</time></trkpt>
      <trkpt lat="30.085381" lon="97.24232"><time>2026-04-30T10:11:01.687Z</time></trkpt>
      <trkpt lat="30.085381" lon="97.24232"><time>2026-04-30T10:11:01.704Z</time></trkpt>
      <trkpt lat="30.085387" lon="97.242325"><time>2026-04-30T10:11:01.720Z</time></trkpt>
      <trkpt lat="30.085387" lon="97.242325"><time>2026-04-30T10:11:01.737Z</time></trkpt>
      <trkpt lat="30.085387" lon="97.242325"><time>2026-04-30T10:11:01.754Z</time></trkpt>
      <trkpt lat="30.085387" lon="97.242325"><time>2026-04-30T10:11:01.770Z</time></trkpt>
      <trkpt lat="30.085387" lon="97.242325"><time>2026-04-30T10:11:01.787Z</time></trkpt>
      <trkpt lat="30.085387" lon="97.242325"><time>2026-04-30T10:11:01.804Z</time></trkpt>
      <trkpt lat="30.085393" lon="97.242329"><time>2026-04-30T10:11:01.821Z</time></trkpt>
      <trkpt lat="30.085393" lon="97.242329"><time>2026-04-30T10:11:01.837Z</time></trkpt>
      <trkpt lat="30.085393" lon="97.242329"><time>2026-04-30T10:11:01.854Z</time></trkpt>
      <trkpt lat="30.085393" lon="97.242329"><time>2026-04-30T10:11:01.871Z</time></trkpt>
      <trkpt lat="30.085393" lon="97.242329"><time>2026-04-30T10:11:01.887Z</time></trkpt>
      <trkpt lat="30.085393" lon="97.242329"><time>2026-04-30T10:11:01.904Z</time></trkpt>
      <trkpt lat="30.085399" lon="97.242334"><time>2026-04-30T10:11:01.921Z</time></trkpt>
      <trkpt lat="30.085399" lon="97.242334"><time>2026-04-30T10:11:01.937Z</time></trkpt>
      <trkpt lat="30.085399" lon="97.242334"><time>2026-04-30T10:11:01.954Z</time></trkpt>
      <trkpt lat="30.085399" lon="97.242334"><time>2026-04-30T10:11:01.971Z</time></trkpt>
      <trkpt lat="30.085399" lon="97.242334"><time>2026-04-30T10:11:01.987Z</time></trkpt>
      <trkpt lat="30.085399" lon="97.242334"><time>2026-04-30T10:11:02.004Z</time></trkpt>
      <trkpt lat="30.085405" lon="97.242339"><time>2026-04-30T10:11:02.021Z</time></trkpt>
      <trkpt lat="30.085405" lon="97.242339"><time>2026-04-30T10:11:02.037Z</time></trkpt>
      <trkpt lat="30.085405" lon="97.242339"><time>2026-04-30T10:11:02.054Z</time></trkpt>
      <trkpt lat="30.085405" lon="97.242339"><time>2026-04-30T10:11:02.071Z</time></trkpt>
      <trkpt lat="30.085405" lon="97.242339"><time>2026-04-30T10:11:02.087Z</time></trkpt>
      <trkpt lat="30.085405" lon="97.242339"><time>2026-04-30T10:11:02.104Z</time></trkpt>
      <trkpt lat="30.085411" lon="97.242344"><time>2026-04-30T10:11:02.121Z</time></trkpt>
      <trkpt lat="30.085411" lon="97.242344"><time>2026-04-30T10:11:02.138Z</time></trkpt>
      <trkpt lat="30.085411" lon="97.242344"><time>2026-04-30T10:11:02.154Z</time></trkpt>
      <trkpt lat="30.085411" lon="97.242344"><time>2026-04-30T10:11:02.171Z</time></trkpt>
      <trkpt lat="30.085411" lon="97.242344"><time>2026-04-30T10:11:02.188Z</time></trkpt>
      <trkpt lat="30.085411" lon="97.242344"><time>2026-04-30T10:11:02.204Z</time></trkpt>
      <trkpt lat="30.085418" lon="97.242349"><time>2026-04-30T10:11:02.221Z</time></trkpt>
      <trkpt lat="30.085418" lon="97.242349"><time>2026-04-30T10:11:02.238Z</time></trkpt>
      <trkpt lat="30.085418" lon="97.242349"><time>2026-04-30T10:11:02.254Z</time></trkpt>
      <trkpt lat="30.085418" lon="97.242349"><time>2026-04-30T10:11:02.271Z</time></trkpt>
      <trkpt lat="30.085418" lon="97.242349"><time>2026-04-30T10:11:02.288Z</time></trkpt>
      <trkpt lat="30.085418" lon="97.242349"><time>2026-04-30T10:11:02.304Z</time></trkpt>
      <trkpt lat="30.085424" lon="97.242353"><time>2026-04-30T10:11:02.321Z</time></trkpt>
      <trkpt lat="30.085424" lon="97.242353"><time>2026-04-30T10:11:02.338Z</time></trkpt>
      <trkpt lat="30.085424" lon="97.242353"><time>2026-04-30T10:11:02.354Z</time></trkpt>
      <trkpt lat="30.085424" lon="97.242353"><time>2026-04-30T10:11:02.371Z</time></trkpt>
      <trkpt lat="30.085424" lon="97.242353"><time>2026-04-30T10:11:02.388Z</time></trkpt>
      <trkpt lat="30.085424" lon="97.242353"><time>2026-04-30T10:11:02.404Z</time></trkpt>
      <trkpt lat="30.08543" lon="97.242358"><time>2026-04-30T10:11:02.421Z</time></trkpt>
      <trkpt lat="30.08543" lon="97.242358"><time>2026-04-30T10:11:02.438Z</time></trkpt>
      <trkpt lat="30.08543" lon="97.242358"><time>2026-04-30T10:11:02.455Z</time></trkpt>
      <trkpt lat="30.08543" lon="97.242358"><time>2026-04-30T10:11:02.471Z</time></trkpt>
      <trkpt lat="30.08543" lon="97.242358"><time>2026-04-30T10:11:02.488Z</time></trkpt>
      <trkpt lat="30.08543" lon="97.242358"><time>2026-04-30T10:11:02.505Z</time></trkpt>
      <trkpt lat="30.085437" lon="97.242363"><time>2026-04-30T10:11:02.521Z</time></trkpt>
      <trkpt lat="30.085437" lon="97.242363"><time>2026-04-30T10:11:02.538Z</time></trkpt>
      <trkpt lat="30.085437" lon="97.242363"><time>2026-04-30T10:11:02.555Z</time></trkpt>
      <trkpt lat="30.085437" lon="97.242363"><time>2026-04-30T10:11:02.571Z</time></trkpt>
      <trkpt lat="30.085437" lon="97.242363"><time>2026-04-30T10:11:02.588Z</time></trkpt>
      <trkpt lat="30.085437" lon="97.242363"><time>2026-04-30T10:11:02.605Z</time></trkpt>
      <trkpt lat="30.085443" lon="97.242368"><time>2026-04-30T10:11:02.621Z</time></trkpt>
      <trkpt lat="30.085443" lon="97.242368"><time>2026-04-30T10:11:02.638Z</time></trkpt>
      <trkpt lat="30.085443" lon="97.242368"><time>2026-04-30T10:11:02.655Z</time></trkpt>
      <trkpt lat="30.085443" lon="97.242368"><time>2026-04-30T10:11:02.671Z</time></trkpt>
      <trkpt lat="30.085443" lon="97.242368"><time>2026-04-30T10:11:02.688Z</time></trkpt>
      <trkpt lat="30.085443" lon="97.242368"><time>2026-04-30T10:11:02.705Z</time></trkpt>
      <trkpt lat="30.08545" lon="97.242373"><time>2026-04-30T10:11:02.721Z</time></trkpt>
      <trkpt lat="30.08545" lon="97.242373"><time>2026-04-30T10:11:02.738Z</time></trkpt>
      <trkpt lat="30.08545" lon="97.242373"><time>2026-04-30T10:11:02.755Z</time></trkpt>
      <trkpt lat="30.08545" lon="97.242373"><time>2026-04-30T10:11:02.772Z</time></trkpt>
      <trkpt lat="30.08545" lon="97.242373"><time>2026-04-30T10:11:02.788Z</time></trkpt>
      <trkpt lat="30.08545" lon="97.242373"><time>2026-04-30T10:11:02.805Z</time></trkpt>
      <trkpt lat="30.085456" lon="97.242378"><time>2026-04-30T10:11:02.822Z</time></trkpt>
      <trkpt lat="30.085456" lon="97.242378"><time>2026-04-30T10:11:02.838Z</time></trkpt>
      <trkpt lat="30.085456" lon="97.242378"><time>2026-04-30T10:11:02.855Z</time></trkpt>
      <trkpt lat="30.085456" lon="97.242378"><time>2026-04-30T10:11:02.872Z</time></trkpt>
      <trkpt lat="30.085456" lon="97.242378"><time>2026-04-30T10:11:02.888Z</time></trkpt>
      <trkpt lat="30.085456" lon="97.242378"><time>2026-04-30T10:11:02.905Z</time></trkpt>
      <trkpt lat="30.085461" lon="97.242385"><time>2026-04-30T10:11:02.922Z</time></trkpt>
      <trkpt lat="30.085461" lon="97.242385"><time>2026-04-30T10:11:02.938Z</time></trkpt>
      <trkpt lat="30.085461" lon="97.242385"><time>2026-04-30T10:11:02.955Z</time></trkpt>
      <trkpt lat="30.085461" lon="97.242385"><time>2026-04-30T10:11:02.972Z</time></trkpt>
      <trkpt lat="30.085461" lon="97.242385"><time>2026-04-30T10:11:02.988Z</time></trkpt>
      <trkpt lat="30.085461" lon="97.242385"><time>2026-04-30T10:11:03.005Z</time></trkpt>
      <trkpt lat="30.085468" lon="97.24239"><time>2026-04-30T10:11:03.022Z</time></trkpt>
      <trkpt lat="30.085468" lon="97.24239"><time>2026-04-30T10:11:03.038Z</time></trkpt>
      <trkpt lat="30.085468" lon="97.24239"><time>2026-04-30T10:11:03.055Z</time></trkpt>
      <trkpt lat="30.085468" lon="97.24239"><time>2026-04-30T10:11:03.072Z</time></trkpt>
      <trkpt lat="30.085468" lon="97.24239"><time>2026-04-30T10:11:03.089Z</time></trkpt>
      <trkpt lat="30.085468" lon="97.24239"><time>2026-04-30T10:11:03.105Z</time></trkpt>
      <trkpt lat="30.085474" lon="97.242395"><time>2026-04-30T10:11:03.122Z</time></trkpt>
      <trkpt lat="30.085474" lon="97.242395"><time>2026-04-30T10:11:03.139Z</time></trkpt>
      <trkpt lat="30.085474" lon="97.242395"><time>2026-04-30T10:11:03.155Z</time></trkpt>
      <trkpt lat="30.085474" lon="97.242395"><time>2026-04-30T10:11:03.172Z</time></trkpt>
      <trkpt lat="30.085474" lon="97.242395"><time>2026-04-30T10:11:03.189Z</time></trkpt>
      <trkpt lat="30.085474" lon="97.242395"><time>2026-04-30T10:11:03.205Z</time></trkpt>
      <trkpt lat="30.085481" lon="97.2424"><time>2026-04-30T10:11:03.222Z</time></trkpt>
      <trkpt lat="30.085481" lon="97.2424"><time>2026-04-30T10:11:03.239Z</time></trkpt>
      <trkpt lat="30.085481" lon="97.2424"><time>2026-04-30T10:11:03.255Z</time></trkpt>
      <trkpt lat="30.085481" lon="97.2424"><time>2026-04-30T10:11:03.272Z</time></trkpt>
      <trkpt lat="30.085481" lon="97.2424"><time>2026-04-30T10:11:03.289Z</time></trkpt>
      <trkpt lat="30.085481" lon="97.2424"><time>2026-04-30T10:11:03.305Z</time></trkpt>
      <trkpt lat="30.085487" lon="97.242405"><time>2026-04-30T10:11:03.322Z</time></trkpt>
      <trkpt lat="30.085487" lon="97.242405"><time>2026-04-30T10:11:03.339Z</time></trkpt>
      <trkpt lat="30.085487" lon="97.242405"><time>2026-04-30T10:11:03.355Z</time></trkpt>
      <trkpt lat="30.085487" lon="97.242405"><time>2026-04-30T10:11:03.372Z</time></trkpt>
      <trkpt lat="30.085487" lon="97.242405"><time>2026-04-30T10:11:03.389Z</time></trkpt>
      <trkpt lat="30.085487" lon="97.242405"><time>2026-04-30T10:11:03.406Z</time></trkpt>
      <trkpt lat="30.085494" lon="97.242411"><time>2026-04-30T10:11:03.422Z</time></trkpt>
      <trkpt lat="30.085494" lon="97.242411"><time>2026-04-30T10:11:03.439Z</time></trkpt>
      <trkpt lat="30.085494" lon="97.242411"><time>2026-04-30T10:11:03.456Z</time></trkpt>
      <trkpt lat="30.085494" lon="97.242411"><time>2026-04-30T10:11:03.472Z</time></trkpt>
      <trkpt lat="30.085494" lon="97.242411"><time>2026-04-30T10:11:03.489Z</time></trkpt>
      <trkpt lat="30.085494" lon="97.242411"><time>2026-04-30T10:11:03.506Z</time></trkpt>
      <trkpt lat="30.085501" lon="97.242416"><time>2026-04-30T10:11:03.522Z</time></trkpt>
      <trkpt lat="30.085501" lon="97.242416"><time>2026-04-30T10:11:03.539Z</time></trkpt>
      <trkpt lat="30.085501" lon="97.242416"><time>2026-04-30T10:11:03.556Z</time></trkpt>
      <trkpt lat="30.085501" lon="97.242416"><time>2026-04-30T10:11:03.572Z</time></trkpt>
      <trkpt lat="30.085501" lon="97.242416"><time>2026-04-30T10:11:03.589Z</time></trkpt>
      <trkpt lat="30.085501" lon="97.242416"><time>2026-04-30T10:11:03.606Z</time></trkpt>
      <trkpt lat="30.085507" lon="97.242421"><time>2026-04-30T10:11:03.622Z</time></trkpt>
      <trkpt lat="30.085507" lon="97.242421"><time>2026-04-30T10:11:03.639Z</time></trkpt>
      <trkpt lat="30.085507" lon="97.242421"><time>2026-04-30T10:11:03.656Z</time></trkpt>
      <trkpt lat="30.085507" lon="97.242421"><time>2026-04-30T10:11:03.672Z</time></trkpt>
      <trkpt lat="30.085507" lon="97.242421"><time>2026-04-30T10:11:03.689Z</time></trkpt>
      <trkpt lat="30.085507" lon="97.242421"><time>2026-04-30T10:11:03.706Z</time></trkpt>
      <trkpt lat="30.085514" lon="97.242426"><time>2026-04-30T10:11:03.723Z</time></trkpt>
      <trkpt lat="30.085514" lon="97.242426"><time>2026-04-30T10:11:03.739Z</time></trkpt>
      <trkpt lat="30.085514" lon="97.242426"><time>2026-04-30T10:11:03.756Z</time></trkpt>
      <trkpt lat="30.085514" lon="97.242426"><time>2026-04-30T10:11:03.773Z</time></trkpt>
      <trkpt lat="30.085514" lon="97.242426"><time>2026-04-30T10:11:03.789Z</time></trkpt>
      <trkpt lat="30.085514" lon="97.242426"><time>2026-04-30T10:11:03.806Z</time></trkpt>
      <trkpt lat="30.08552" lon="97.242432"><time>2026-04-30T10:11:03.823Z</time></trkpt>
      <trkpt lat="30.08552" lon="97.242432"><time>2026-04-30T10:11:03.839Z</time></trkpt>
      <trkpt lat="30.08552" lon="97.242432"><time>2026-04-30T10:11:03.856Z</time></trkpt>
      <trkpt lat="30.08552" lon="97.242432"><time>2026-04-30T10:11:03.873Z</time></trkpt>
      <trkpt lat="30.08552" lon="97.242432"><time>2026-04-30T10:11:03.889Z</time></trkpt>
      <trkpt lat="30.08552" lon="97.242432"><time>2026-04-30T10:11:03.906Z</time></trkpt>
      <trkpt lat="30.085527" lon="97.242437"><time>2026-04-30T10:11:03.923Z</time></trkpt>
      <trkpt lat="30.085527" lon="97.242437"><time>2026-04-30T10:11:03.939Z</time></trkpt>
      <trkpt lat="30.085527" lon="97.242437"><time>2026-04-30T10:11:03.956Z</time></trkpt>
      <trkpt lat="30.085527" lon="97.242437"><time>2026-04-30T10:11:03.973Z</time></trkpt>
      <trkpt lat="30.085527" lon="97.242437"><time>2026-04-30T10:11:03.989Z</time></trkpt>
      <trkpt lat="30.085527" lon="97.242437"><time>2026-04-30T10:11:04.006Z</time></trkpt>
      <trkpt lat="30.085534" lon="97.242442"><time>2026-04-30T10:11:04.023Z</time></trkpt>
      <trkpt lat="30.085534" lon="97.242442"><time>2026-04-30T10:11:04.040Z</time></trkpt>
      <trkpt lat="30.085534" lon="97.242442"><time>2026-04-30T10:11:04.056Z</time></trkpt>
      <trkpt lat="30.085534" lon="97.242442"><time>2026-04-30T10:11:04.073Z</time></trkpt>
      <trkpt lat="30.085534" lon="97.242442"><time>2026-04-30T10:11:04.090Z</time></trkpt>
      <trkpt lat="30.085534" lon="97.242442"><time>2026-04-30T10:11:04.106Z</time></trkpt>
      <trkpt lat="30.08554" lon="97.242448"><time>2026-04-30T10:11:04.123Z</time></trkpt>
      <trkpt lat="30.08554" lon="97.242448"><time>2026-04-30T10:11:04.140Z</time></trkpt>
      <trkpt lat="30.08554" lon="97.242448"><time>2026-04-30T10:11:04.156Z</time></trkpt>
      <trkpt lat="30.08554" lon="97.242448"><time>2026-04-30T10:11:04.173Z</time></trkpt>
      <trkpt lat="30.08554" lon="97.242448"><time>2026-04-30T10:11:04.190Z</time></trkpt>
      <trkpt lat="30.08554" lon="97.242448"><time>2026-04-30T10:11:04.206Z</time></trkpt>
      <trkpt lat="30.085547" lon="97.242453"><time>2026-04-30T10:11:04.223Z</time></trkpt>
      <trkpt lat="30.085547" lon="97.242453"><time>2026-04-30T10:11:04.240Z</time></trkpt>
      <trkpt lat="30.085547" lon="97.242453"><time>2026-04-30T10:11:04.256Z</time></trkpt>
      <trkpt lat="30.085547" lon="97.242453"><time>2026-04-30T10:11:04.273Z</time></trkpt>
      <trkpt lat="30.085547" lon="97.242453"><time>2026-04-30T10:11:04.290Z</time></trkpt>
      <trkpt lat="30.085547" lon="97.242453"><time>2026-04-30T10:11:04.306Z</time></trkpt>
      <trkpt lat="30.085554" lon="97.242459"><time>2026-04-30T10:11:04.323Z</time></trkpt>
      <trkpt lat="30.085554" lon="97.242459"><time>2026-04-30T10:11:04.340Z</time></trkpt>
      <trkpt lat="30.085554" lon="97.242459"><time>2026-04-30T10:11:04.356Z</time></trkpt>
      <trkpt lat="30.085554" lon="97.242459"><time>2026-04-30T10:11:04.373Z</time></trkpt>
      <trkpt lat="30.085554" lon="97.242459"><time>2026-04-30T10:11:04.390Z</time></trkpt>
      <trkpt lat="30.085554" lon="97.242459"><time>2026-04-30T10:11:04.407Z</time></trkpt>
      <trkpt lat="30.085561" lon="97.242464"><time>2026-04-30T10:11:04.423Z</time></trkpt>
      <trkpt lat="30.085561" lon="97.242464"><time>2026-04-30T10:11:04.440Z</time></trkpt>
      <trkpt lat="30.085561" lon="97.242464"><time>2026-04-30T10:11:04.457Z</time></trkpt>
      <trkpt lat="30.085561" lon="97.242464"><time>2026-04-30T10:11:04.473Z</time></trkpt>
      <trkpt lat="30.085561" lon="97.242464"><time>2026-04-30T10:11:04.490Z</time></trkpt>
      <trkpt lat="30.085561" lon="97.242464"><time>2026-04-30T10:11:04.507Z</time></trkpt>
      <trkpt lat="30.085567" lon="97.242469"><time>2026-04-30T10:11:04.523Z</time></trkpt>
      <trkpt lat="30.085567" lon="97.242469"><time>2026-04-30T10:11:04.540Z</time></trkpt>
      <trkpt lat="30.085567" lon="97.242469"><time>2026-04-30T10:11:04.557Z</time></trkpt>
      <trkpt lat="30.085567" lon="97.242469"><time>2026-04-30T10:11:04.573Z</time></trkpt>
      <trkpt lat="30.085567" lon="97.242469"><time>2026-04-30T10:11:04.590Z</time></trkpt>
      <trkpt lat="30.085567" lon="97.242469"><time>2026-04-30T10:11:04.607Z</time></trkpt>
      <trkpt lat="30.085574" lon="97.242475"><time>2026-04-30T10:11:04.623Z</time></trkpt>
      <trkpt lat="30.085574" lon="97.242475"><time>2026-04-30T10:11:04.640Z</time></trkpt>
      <trkpt lat="30.085574" lon="97.242475"><time>2026-04-30T10:11:04.657Z</time></trkpt>
      <trkpt lat="30.085574" lon="97.242475"><time>2026-04-30T10:11:04.673Z</time></trkpt>
      <trkpt lat="30.085574" lon="97.242475"><time>2026-04-30T10:11:04.690Z</time></trkpt>
      <trkpt lat="30.085574" lon="97.242475"><time>2026-04-30T10:11:04.707Z</time></trkpt>
      <trkpt lat="30.085581" lon="97.24248"><time>2026-04-30T10:11:04.724Z</time></trkpt>
      <trkpt lat="30.085581" lon="97.24248"><time>2026-04-30T10:11:04.740Z</time></trkpt>
      <trkpt lat="30.085581" lon="97.24248"><time>2026-04-30T10:11:04.757Z</time></trkpt>
      <trkpt lat="30.085581" lon="97.24248"><time>2026-04-30T10:11:04.774Z</time></trkpt>
      <trkpt lat="30.085581" lon="97.24248"><time>2026-04-30T10:11:04.790Z</time></trkpt>
      <trkpt lat="30.085581" lon="97.24248"><time>2026-04-30T10:11:04.807Z</time></trkpt>
      <trkpt lat="30.085588" lon="97.242486"><time>2026-04-30T10:11:04.824Z</time></trkpt>
      <trkpt lat="30.085588" lon="97.242486"><time>2026-04-30T10:11:04.840Z</time></trkpt>
      <trkpt lat="30.085588" lon="97.242486"><time>2026-04-30T10:11:04.857Z</time></trkpt>
      <trkpt lat="30.085588" lon="97.242486"><time>2026-04-30T10:11:04.874Z</time></trkpt>
      <trkpt lat="30.085588" lon="97.242486"><time>2026-04-30T10:11:04.890Z</time></trkpt>
      <trkpt lat="30.085588" lon="97.242486"><time>2026-04-30T10:11:04.907Z</time></trkpt>
      <trkpt lat="30.085595" lon="97.242491"><time>2026-04-30T10:11:04.924Z</time></trkpt>
      <trkpt lat="30.085595" lon="97.242491"><time>2026-04-30T10:11:04.940Z</time></trkpt>
      <trkpt lat="30.085595" lon="97.242491"><time>2026-04-30T10:11:04.957Z</time></trkpt>
      <trkpt lat="30.085595" lon="97.242491"><time>2026-04-30T10:11:04.974Z</time></trkpt>
      <trkpt lat="30.085595" lon="97.242491"><time>2026-04-30T10:11:04.990Z</time></trkpt>
      <trkpt lat="30.085595" lon="97.242491"><time>2026-04-30T10:11:05.007Z</time></trkpt>
      <trkpt lat="30.085601" lon="97.242497"><time>2026-04-30T10:11:05.024Z</time></trkpt>
      <trkpt lat="30.085601" lon="97.242497"><time>2026-04-30T10:11:05.041Z</time></trkpt>
      <trkpt lat="30.085601" lon="97.242497"><time>2026-04-30T10:11:05.057Z</time></trkpt>
      <trkpt lat="30.085601" lon="97.242497"><time>2026-04-30T10:11:05.074Z</time></trkpt>
      <trkpt lat="30.085601" lon="97.242497"><time>2026-04-30T10:11:05.091Z</time></trkpt>
      <trkpt lat="30.085601" lon="97.242497"><time>2026-04-30T10:11:05.107Z</time></trkpt>
      <trkpt lat="30.085608" lon="97.242502"><time>2026-04-30T10:11:05.124Z</time></trkpt>
      <trkpt lat="30.085608" lon="97.242502"><time>2026-04-30T10:11:05.141Z</time></trkpt>
      <trkpt lat="30.085608" lon="97.242502"><time>2026-04-30T10:11:05.157Z</time></trkpt>
      <trkpt lat="30.085608" lon="97.242502"><time>2026-04-30T10:11:05.174Z</time></trkpt>
      <trkpt lat="30.085608" lon="97.242502"><time>2026-04-30T10:11:05.191Z</time></trkpt>
      <trkpt lat="30.085608" lon="97.242502"><time>2026-04-30T10:11:05.207Z</time></trkpt>
      <trkpt lat="30.085615" lon="97.242508"><time>2026-04-30T10:11:05.224Z</time></trkpt>
      <trkpt lat="30.085615" lon="97.242508"><time>2026-04-30T10:11:05.241Z</time></trkpt>
      <trkpt lat="30.085615" lon="97.242508"><time>2026-04-30T10:11:05.257Z</time></trkpt>
      <trkpt lat="30.085615" lon="97.242508"><time>2026-04-30T10:11:05.274Z</time></trkpt>
      <trkpt lat="30.085615" lon="97.242508"><time>2026-04-30T10:11:05.291Z</time></trkpt>
      <trkpt lat="30.085615" lon="97.242508"><time>2026-04-30T10:11:05.307Z</time></trkpt>
      <trkpt lat="30.085622" lon="97.242514"><time>2026-04-30T10:11:05.324Z</time></trkpt>
      <trkpt lat="30.085622" lon="97.242514"><time>2026-04-30T10:11:05.341Z</time></trkpt>
      <trkpt lat="30.085622" lon="97.242514"><time>2026-04-30T10:11:05.358Z</time></trkpt>
      <trkpt lat="30.085622" lon="97.242514"><time>2026-04-30T10:11:05.374Z</time></trkpt>
      <trkpt lat="30.085622" lon="97.242514"><time>2026-04-30T10:11:05.391Z</time></trkpt>
      <trkpt lat="30.085622" lon="97.242514"><time>2026-04-30T10:11:05.408Z</time></trkpt>
      <trkpt lat="30.085628" lon="97.242519"><time>2026-04-30T10:11:05.424Z</time></trkpt>
      <trkpt lat="30.085628" lon="97.242519"><time>2026-04-30T10:11:05.441Z</time></trkpt>
      <trkpt lat="30.085628" lon="97.242519"><time>2026-04-30T10:11:05.458Z</time></trkpt>
      <trkpt lat="30.085628" lon="97.242519"><time>2026-04-30T10:11:05.474Z</time></trkpt>
      <trkpt lat="30.085628" lon="97.242519"><time>2026-04-30T10:11:05.491Z</time></trkpt>
      <trkpt lat="30.085628" lon="97.242519"><time>2026-04-30T10:11:05.508Z</time></trkpt>
      <trkpt lat="30.085635" lon="97.242525"><time>2026-04-30T10:11:05.524Z</time></trkpt>
      <trkpt lat="30.085635" lon="97.242525"><time>2026-04-30T10:11:05.541Z</time></trkpt>
      <trkpt lat="30.085635" lon="97.242525"><time>2026-04-30T10:11:05.558Z</time></trkpt>
      <trkpt lat="30.085635" lon="97.242525"><time>2026-04-30T10:11:05.574Z</time></trkpt>
      <trkpt lat="30.085635" lon="97.242525"><time>2026-04-30T10:11:05.591Z</time></trkpt>
      <trkpt lat="30.085635" lon="97.242525"><time>2026-04-30T10:11:05.608Z</time></trkpt>
      <trkpt lat="30.085642" lon="97.242531"><time>2026-04-30T10:11:05.624Z</time></trkpt>
      <trkpt lat="30.085642" lon="97.242531"><time>2026-04-30T10:11:05.641Z</time></trkpt>
      <trkpt lat="30.085642" lon="97.242531"><time>2026-04-30T10:11:05.658Z</time></trkpt>
      <trkpt lat="30.085642" lon="97.242531"><time>2026-04-30T10:11:05.675Z</time></trkpt>
      <trkpt lat="30.085642" lon="97.242531"><time>2026-04-30T10:11:05.691Z</time></trkpt>
      <trkpt lat="30.085642" lon="97.242531"><time>2026-04-30T10:11:05.708Z</time></trkpt>
      <trkpt lat="30.085649" lon="97.242537"><time>2026-04-30T10:11:05.725Z</time></trkpt>
      <trkpt lat="30.085649" lon="97.242537"><time>2026-04-30T10:11:05.741Z</time></trkpt>
      <trkpt lat="30.085649" lon="97.242537"><time>2026-04-30T10:11:05.758Z</time></trkpt>
      <trkpt lat="30.085649" lon="97.242537"><time>2026-04-30T10:11:05.775Z</time></trkpt>
      <trkpt lat="30.085649" lon="97.242537"><time>2026-04-30T10:11:05.791Z</time></trkpt>
      <trkpt lat="30.085649" lon="97.242537"><time>2026-04-30T10:11:05.808Z</time></trkpt>
      <trkpt lat="30.085656" lon="97.242542"><time>2026-04-30T10:11:05.825Z</time></trkpt>
      <trkpt lat="30.085656" lon="97.242542"><time>2026-04-30T10:11:05.841Z</time></trkpt>
      <trkpt lat="30.085656" lon="97.242542"><time>2026-04-30T10:11:05.858Z</time></trkpt>
      <trkpt lat="30.085656" lon="97.242542"><time>2026-04-30T10:11:05.875Z</time></trkpt>
      <trkpt lat="30.085656" lon="97.242542"><time>2026-04-30T10:11:05.891Z</time></trkpt>
      <trkpt lat="30.085656" lon="97.242542"><time>2026-04-30T10:11:05.908Z</time></trkpt>
      <trkpt lat="30.085663" lon="97.242548"><time>2026-04-30T10:11:05.925Z</time></trkpt>
      <trkpt lat="30.085663" lon="97.242548"><time>2026-04-30T10:11:05.941Z</time></trkpt>
      <trkpt lat="30.085663" lon="97.242548"><time>2026-04-30T10:11:05.958Z</time></trkpt>
      <trkpt lat="30.085663" lon="97.242548"><time>2026-04-30T10:11:05.975Z</time></trkpt>
      <trkpt lat="30.085663" lon="97.242548"><time>2026-04-30T10:11:05.992Z</time></trkpt>
      <trkpt lat="30.085663" lon="97.242548"><time>2026-04-30T10:11:06.008Z</time></trkpt>
      <trkpt lat="30.08567" lon="97.242554"><time>2026-04-30T10:11:06.025Z</time></trkpt>
      <trkpt lat="30.08567" lon="97.242554"><time>2026-04-30T10:11:06.042Z</time></trkpt>
      <trkpt lat="30.08567" lon="97.242554"><time>2026-04-30T10:11:06.058Z</time></trkpt>
      <trkpt lat="30.08567" lon="97.242554"><time>2026-04-30T10:11:06.075Z</time></trkpt>
      <trkpt lat="30.08567" lon="97.242554"><time>2026-04-30T10:11:06.092Z</time></trkpt>
      <trkpt lat="30.08567" lon="97.242554"><time>2026-04-30T10:11:06.108Z</time></trkpt>
      <trkpt lat="30.085677" lon="97.242559"><time>2026-04-30T10:11:06.125Z</time></trkpt>
      <trkpt lat="30.085677" lon="97.242559"><time>2026-04-30T10:11:06.142Z</time></trkpt>
      <trkpt lat="30.085677" lon="97.242559"><time>2026-04-30T10:11:06.158Z</time></trkpt>
      <trkpt lat="30.085677" lon="97.242559"><time>2026-04-30T10:11:06.175Z</time></trkpt>
      <trkpt lat="30.085677" lon="97.242559"><time>2026-04-30T10:11:06.192Z</time></trkpt>
      <trkpt lat="30.085677" lon="97.242559"><time>2026-04-30T10:11:06.208Z</time></trkpt>
      <trkpt lat="30.085684" lon="97.242565"><time>2026-04-30T10:11:06.225Z</time></trkpt>
      <trkpt lat="30.085684" lon="97.242565"><time>2026-04-30T10:11:06.242Z</time></trkpt>
      <trkpt lat="30.085684" lon="97.242565"><time>2026-04-30T10:11:06.258Z</time></trkpt>
      <trkpt lat="30.085684" lon="97.242565"><time>2026-04-30T10:11:06.275Z</time></trkpt>
      <trkpt lat="30.085684" lon="97.242565"><time>2026-04-30T10:11:06.292Z</time></trkpt>
      <trkpt lat="30.085684" lon="97.242565"><time>2026-04-30T10:11:06.309Z</time></trkpt>
      <trkpt lat="30.08569" lon="97.242571"><time>2026-04-30T10:11:06.325Z</time></trkpt>
      <trkpt lat="30.08569" lon="97.242571"><time>2026-04-30T10:11:06.342Z</time></trkpt>
      <trkpt lat="30.08569" lon="97.242571"><time>2026-04-30T10:11:06.359Z</time></trkpt>
      <trkpt lat="30.08569" lon="97.242571"><time>2026-04-30T10:11:06.375Z</time></trkpt>
      <trkpt lat="30.08569" lon="97.242571"><time>2026-04-30T10:11:06.392Z</time></trkpt>
      <trkpt lat="30.08569" lon="97.242571"><time>2026-04-30T10:11:06.409Z</time></trkpt>
      <trkpt lat="30.085697" lon="97.242576"><time>2026-04-30T10:11:06.425Z</time></trkpt>
      <trkpt lat="30.085697" lon="97.242576"><time>2026-04-30T10:11:06.442Z</time></trkpt>
      <trkpt lat="30.085697" lon="97.242576"><time>2026-04-30T10:11:06.459Z</time></trkpt>
      <trkpt lat="30.085697" lon="97.242576"><time>2026-04-30T10:11:06.475Z</time></trkpt>
      <trkpt lat="30.085697" lon="97.242576"><time>2026-04-30T10:11:06.492Z</time></trkpt>
      <trkpt lat="30.085697" lon="97.242576"><time>2026-04-30T10:11:06.509Z</time></trkpt>
      <trkpt lat="30.085704" lon="97.242582"><time>2026-04-30T10:11:06.525Z</time></trkpt>
      <trkpt lat="30.085704" lon="97.242582"><time>2026-04-30T10:11:06.542Z</time></trkpt>
      <trkpt lat="30.085704" lon="97.242582"><time>2026-04-30T10:11:06.559Z</time></trkpt>
      <trkpt lat="30.085704" lon="97.242582"><time>2026-04-30T10:11:06.575Z</time></trkpt>
      <trkpt lat="30.085704" lon="97.242582"><time>2026-04-30T10:11:06.592Z</time></trkpt>
      <trkpt lat="30.085704" lon="97.242582"><time>2026-04-30T10:11:06.609Z</time></trkpt>
      <trkpt lat="30.085711" lon="97.242588"><time>2026-04-30T10:11:06.626Z</time></trkpt>
      <trkpt lat="30.085711" lon="97.242588"><time>2026-04-30T10:11:06.642Z</time></trkpt>
      <trkpt lat="30.085711" lon="97.242588"><time>2026-04-30T10:11:06.659Z</time></trkpt>
      <trkpt lat="30.085711" lon="97.242588"><time>2026-04-30T10:11:06.676Z</time></trkpt>
      <trkpt lat="30.085711" lon="97.242588"><time>2026-04-30T10:11:06.692Z</time></trkpt>
      <trkpt lat="30.085711" lon="97.242588"><time>2026-04-30T10:11:06.709Z</time></trkpt>
      <trkpt lat="30.085718" lon="97.242593"><time>2026-04-30T10:11:06.726Z</time></trkpt>
      <trkpt lat="30.085718" lon="97.242593"><time>2026-04-30T10:11:06.742Z</time></trkpt>
      <trkpt lat="30.085718" lon="97.242593"><time>2026-04-30T10:11:06.759Z</time></trkpt>
      <trkpt lat="30.085718" lon="97.242593"><time>2026-04-30T10:11:06.776Z</time></trkpt>
      <trkpt lat="30.085718" lon="97.242593"><time>2026-04-30T10:11:06.792Z</time></trkpt>
      <trkpt lat="30.085718" lon="97.242593"><time>2026-04-30T10:11:06.809Z</time></trkpt>
      <trkpt lat="30.085725" lon="97.242599"><time>2026-04-30T10:11:06.826Z</time></trkpt>
      <trkpt lat="30.085725" lon="97.242599"><time>2026-04-30T10:11:06.842Z</time></trkpt>
      <trkpt lat="30.085725" lon="97.242599"><time>2026-04-30T10:11:06.859Z</time></trkpt>
      <trkpt lat="30.085725" lon="97.242599"><time>2026-04-30T10:11:06.876Z</time></trkpt>
      <trkpt lat="30.085725" lon="97.242599"><time>2026-04-30T10:11:06.892Z</time></trkpt>
      <trkpt lat="30.085725" lon="97.242599"><time>2026-04-30T10:11:06.909Z</time></trkpt>
      <trkpt lat="30.085732" lon="97.242604"><time>2026-04-30T10:11:06.926Z</time></trkpt>
      <trkpt lat="30.085732" lon="97.242604"><time>2026-04-30T10:11:06.943Z</time></trkpt>
      <trkpt lat="30.085732" lon="97.242604"><time>2026-04-30T10:11:06.959Z</time></trkpt>
      <trkpt lat="30.085732" lon="97.242604"><time>2026-04-30T10:11:06.976Z</time></trkpt>
      <trkpt lat="30.085732" lon="97.242604"><time>2026-04-30T10:11:06.993Z</time></trkpt>
      <trkpt lat="30.085732" lon="97.242604"><time>2026-04-30T10:11:07.009Z</time></trkpt>
      <trkpt lat="30.085739" lon="97.24261"><time>2026-04-30T10:11:07.026Z</time></trkpt>
      <trkpt lat="30.085739" lon="97.24261"><time>2026-04-30T10:11:07.043Z</time></trkpt>
      <trkpt lat="30.085739" lon="97.24261"><time>2026-04-30T10:11:07.059Z</time></trkpt>
      <trkpt lat="30.085739" lon="97.24261"><time>2026-04-30T10:11:07.076Z</time></trkpt>
      <trkpt lat="30.085739" lon="97.24261"><time>2026-04-30T10:11:07.093Z</time></trkpt>
      <trkpt lat="30.085739" lon="97.24261"><time>2026-04-30T10:11:07.109Z</time></trkpt>
      <trkpt lat="30.085746" lon="97.242615"><time>2026-04-30T10:11:07.126Z</time></trkpt>
      <trkpt lat="30.085746" lon="97.242615"><time>2026-04-30T10:11:07.143Z</time></trkpt>
      <trkpt lat="30.085746" lon="97.242615"><time>2026-04-30T10:11:07.159Z</time></trkpt>
      <trkpt lat="30.085746" lon="97.242615"><time>2026-04-30T10:11:07.176Z</time></trkpt>
      <trkpt lat="30.085746" lon="97.242615"><time>2026-04-30T10:11:07.193Z</time></trkpt>
      <trkpt lat="30.085746" lon="97.242615"><time>2026-04-30T10:11:07.209Z</time></trkpt>
      <trkpt lat="30.085753" lon="97.242621"><time>2026-04-30T10:11:07.226Z</time></trkpt>
      <trkpt lat="30.085753" lon="97.242621"><time>2026-04-30T10:11:07.243Z</time></trkpt>
      <trkpt lat="30.085753" lon="97.242621"><time>2026-04-30T10:11:07.260Z</time></trkpt>
      <trkpt lat="30.085753" lon="97.242621"><time>2026-04-30T10:11:07.276Z</time></trkpt>
      <trkpt lat="30.085753" lon="97.242621"><time>2026-04-30T10:11:07.293Z</time></trkpt>
      <trkpt lat="30.085753" lon="97.242621"><time>2026-04-30T10:11:07.310Z</time></trkpt>
      <trkpt lat="30.08576" lon="97.242626"><time>2026-04-30T10:11:07.326Z</time></trkpt>
      <trkpt lat="30.08576" lon="97.242626"><time>2026-04-30T10:11:07.343Z</time></trkpt>
      <trkpt lat="30.08576" lon="97.242626"><time>2026-04-30T10:11:07.360Z</time></trkpt>
      <trkpt lat="30.08576" lon="97.242626"><time>2026-04-30T10:11:07.376Z</time></trkpt>
      <trkpt lat="30.08576" lon="97.242626"><time>2026-04-30T10:11:07.393Z</time></trkpt>
      <trkpt lat="30.08576" lon="97.242626"><time>2026-04-30T10:11:07.410Z</time></trkpt>
      <trkpt lat="30.085767" lon="97.242632"><time>2026-04-30T10:11:07.426Z</time></trkpt>
      <trkpt lat="30.085767" lon="97.242632"><time>2026-04-30T10:11:07.443Z</time></trkpt>
      <trkpt lat="30.085767" lon="97.242632"><time>2026-04-30T10:11:07.460Z</time></trkpt>
      <trkpt lat="30.085767" lon="97.242632"><time>2026-04-30T10:11:07.476Z</time></trkpt>
      <trkpt lat="30.085767" lon="97.242632"><time>2026-04-30T10:11:07.493Z</time></trkpt>
      <trkpt lat="30.085767" lon="97.242632"><time>2026-04-30T10:11:07.510Z</time></trkpt>
      <trkpt lat="30.085774" lon="97.242637"><time>2026-04-30T10:11:07.526Z</time></trkpt>
      <trkpt lat="30.085774" lon="97.242637"><time>2026-04-30T10:11:07.543Z</time></trkpt>
      <trkpt lat="30.085774" lon="97.242637"><time>2026-04-30T10:11:07.560Z</time></trkpt>
      <trkpt lat="30.085774" lon="97.242637"><time>2026-04-30T10:11:07.577Z</time></trkpt>
      <trkpt lat="30.085774" lon="97.242637"><time>2026-04-30T10:11:07.593Z</time></trkpt>
      <trkpt lat="30.085774" lon="97.242637"><time>2026-04-30T10:11:07.610Z</time></trkpt>
      <trkpt lat="30.085782" lon="97.242641"><time>2026-04-30T10:11:07.627Z</time></trkpt>
      <trkpt lat="30.085782" lon="97.242641"><time>2026-04-30T10:11:07.643Z</time></trkpt>
      <trkpt lat="30.085782" lon="97.242641"><time>2026-04-30T10:11:07.660Z</time></trkpt>
      <trkpt lat="30.085782" lon="97.242641"><time>2026-04-30T10:11:07.677Z</time></trkpt>
      <trkpt lat="30.085782" lon="97.242641"><time>2026-04-30T10:11:07.693Z</time></trkpt>
      <trkpt lat="30.085782" lon="97.242641"><time>2026-04-30T10:11:07.710Z</time></trkpt>
      <trkpt lat="30.085789" lon="97.242647"><time>2026-04-30T10:11:07.727Z</time></trkpt>
      <trkpt lat="30.085789" lon="97.242647"><time>2026-04-30T10:11:07.743Z</time></trkpt>
      <trkpt lat="30.085789" lon="97.242647"><time>2026-04-30T10:11:07.760Z</time></trkpt>
      <trkpt lat="30.085789" lon="97.242647"><time>2026-04-30T10:11:07.777Z</time></trkpt>
      <trkpt lat="30.085789" lon="97.242647"><time>2026-04-30T10:11:07.793Z</time></trkpt>
      <trkpt lat="30.085789" lon="97.242647"><time>2026-04-30T10:11:07.810Z</time></trkpt>
      <trkpt lat="30.085796" lon="97.242652"><time>2026-04-30T10:11:07.827Z</time></trkpt>
      <trkpt lat="30.085796" lon="97.242652"><time>2026-04-30T10:11:07.843Z</time></trkpt>
      <trkpt lat="30.085796" lon="97.242652"><time>2026-04-30T10:11:07.860Z</time></trkpt>
      <trkpt lat="30.085796" lon="97.242652"><time>2026-04-30T10:11:07.877Z</time></trkpt>
      <trkpt lat="30.085796" lon="97.242652"><time>2026-04-30T10:11:07.894Z</time></trkpt>
      <trkpt lat="30.085796" lon="97.242652"><time>2026-04-30T10:11:07.910Z</time></trkpt>
      <trkpt lat="30.085802" lon="97.242657"><time>2026-04-30T10:11:07.927Z</time></trkpt>
      <trkpt lat="30.085802" lon="97.242657"><time>2026-04-30T10:11:07.944Z</time></trkpt>
      <trkpt lat="30.085802" lon="97.242657"><time>2026-04-30T10:11:07.960Z</time></trkpt>
      <trkpt lat="30.085802" lon="97.242657"><time>2026-04-30T10:11:07.977Z</time></trkpt>
      <trkpt lat="30.085802" lon="97.242657"><time>2026-04-30T10:11:07.994Z</time></trkpt>
      <trkpt lat="30.085802" lon="97.242657"><time>2026-04-30T10:11:08.010Z</time></trkpt>
      <trkpt lat="30.085809" lon="97.242663"><time>2026-04-30T10:11:08.027Z</time></trkpt>
      <trkpt lat="30.085809" lon="97.242663"><time>2026-04-30T10:11:08.044Z</time></trkpt>
      <trkpt lat="30.085809" lon="97.242663"><time>2026-04-30T10:11:08.060Z</time></trkpt>
      <trkpt lat="30.085809" lon="97.242663"><time>2026-04-30T10:11:08.077Z</time></trkpt>
      <trkpt lat="30.085809" lon="97.242663"><time>2026-04-30T10:11:08.094Z</time></trkpt>
      <trkpt lat="30.085809" lon="97.242663"><time>2026-04-30T10:11:08.110Z</time></trkpt>
      <trkpt lat="30.085816" lon="97.242668"><time>2026-04-30T10:11:08.127Z</time></trkpt>
      <trkpt lat="30.085816" lon="97.242668"><time>2026-04-30T10:11:08.144Z</time></trkpt>
      <trkpt lat="30.085816" lon="97.242668"><time>2026-04-30T10:11:08.160Z</time></trkpt>
      <trkpt lat="30.085816" lon="97.242668"><time>2026-04-30T10:11:08.177Z</time></trkpt>
      <trkpt lat="30.085816" lon="97.242668"><time>2026-04-30T10:11:08.194Z</time></trkpt>
      <trkpt lat="30.085816" lon="97.242668"><time>2026-04-30T10:11:08.211Z</time></trkpt>
      <trkpt lat="30.085823" lon="97.242674"><time>2026-04-30T10:11:08.227Z</time></trkpt>
      <trkpt lat="30.085823" lon="97.242674"><time>2026-04-30T10:11:08.244Z</time></trkpt>
      <trkpt lat="30.085823" lon="97.242674"><time>2026-04-30T10:11:08.261Z</time></trkpt>
      <trkpt lat="30.085823" lon="97.242674"><time>2026-04-30T10:11:08.277Z</time></trkpt>
      <trkpt lat="30.085823" lon="97.242674"><time>2026-04-30T10:11:08.294Z</time></trkpt>
      <trkpt lat="30.085823" lon="97.242674"><time>2026-04-30T10:11:08.311Z</time></trkpt>
      <trkpt lat="30.08583" lon="97.242679"><time>2026-04-30T10:11:08.327Z</time></trkpt>
      <trkpt lat="30.08583" lon="97.242679"><time>2026-04-30T10:11:08.344Z</time></trkpt>
      <trkpt lat="30.08583" lon="97.242679"><time>2026-04-30T10:11:08.361Z</time></trkpt>
      <trkpt lat="30.08583" lon="97.242679"><time>2026-04-30T10:11:08.377Z</time></trkpt>
      <trkpt lat="30.08583" lon="97.242679"><time>2026-04-30T10:11:08.394Z</time></trkpt>
      <trkpt lat="30.08583" lon="97.242679"><time>2026-04-30T10:11:08.411Z</time></trkpt>
      <trkpt lat="30.085837" lon="97.242684"><time>2026-04-30T10:11:08.427Z</time></trkpt>
      <trkpt lat="30.085837" lon="97.242684"><time>2026-04-30T10:11:08.444Z</time></trkpt>
      <trkpt lat="30.085837" lon="97.242684"><time>2026-04-30T10:11:08.461Z</time></trkpt>
      <trkpt lat="30.085837" lon="97.242684"><time>2026-04-30T10:11:08.477Z</time></trkpt>
      <trkpt lat="30.085837" lon="97.242684"><time>2026-04-30T10:11:08.494Z</time></trkpt>
      <trkpt lat="30.085837" lon="97.242684"><time>2026-04-30T10:11:08.511Z</time></trkpt>
      <trkpt lat="30.085844" lon="97.24269"><time>2026-04-30T10:11:08.528Z</time></trkpt>
      <trkpt lat="30.085844" lon="97.24269"><time>2026-04-30T10:11:08.544Z</time></trkpt>
      <trkpt lat="30.085844" lon="97.24269"><time>2026-04-30T10:11:08.561Z</time></trkpt>
      <trkpt lat="30.085844" lon="97.24269"><time>2026-04-30T10:11:08.578Z</time></trkpt>
      <trkpt lat="30.085844" lon="97.24269"><time>2026-04-30T10:11:08.594Z</time></trkpt>
      <trkpt lat="30.085844" lon="97.24269"><time>2026-04-30T10:11:08.611Z</time></trkpt>
      <trkpt lat="30.08585" lon="97.242695"><time>2026-04-30T10:11:08.628Z</time></trkpt>
      <trkpt lat="30.08585" lon="97.242695"><time>2026-04-30T10:11:08.644Z</time></trkpt>
      <trkpt lat="30.08585" lon="97.242695"><time>2026-04-30T10:11:08.661Z</time></trkpt>
      <trkpt lat="30.08585" lon="97.242695"><time>2026-04-30T10:11:08.678Z</time></trkpt>
      <trkpt lat="30.08585" lon="97.242695"><time>2026-04-30T10:11:08.694Z</time></trkpt>
      <trkpt lat="30.08585" lon="97.242695"><time>2026-04-30T10:11:08.711Z</time></trkpt>
      <trkpt lat="30.085857" lon="97.2427"><time>2026-04-30T10:11:08.728Z</time></trkpt>
      <trkpt lat="30.085857" lon="97.2427"><time>2026-04-30T10:11:08.744Z</time></trkpt>
      <trkpt lat="30.085857" lon="97.2427"><time>2026-04-30T10:11:08.761Z</time></trkpt>
      <trkpt lat="30.085857" lon="97.2427"><time>2026-04-30T10:11:08.778Z</time></trkpt>
      <trkpt lat="30.085857" lon="97.2427"><time>2026-04-30T10:11:08.794Z</time></trkpt>
      <trkpt lat="30.085857" lon="97.2427"><time>2026-04-30T10:11:08.811Z</time></trkpt>
      <trkpt lat="30.085864" lon="97.242705"><time>2026-04-30T10:11:08.828Z</time></trkpt>
      <trkpt lat="30.085864" lon="97.242705"><time>2026-04-30T10:11:08.845Z</time></trkpt>
      <trkpt lat="30.085864" lon="97.242705"><time>2026-04-30T10:11:08.861Z</time></trkpt>
      <trkpt lat="30.085864" lon="97.242705"><time>2026-04-30T10:11:08.878Z</time></trkpt>
      <trkpt lat="30.085864" lon="97.242705"><time>2026-04-30T10:11:08.895Z</time></trkpt>
      <trkpt lat="30.085864" lon="97.242705"><time>2026-04-30T10:11:08.911Z</time></trkpt>
      <trkpt lat="30.085871" lon="97.242711"><time>2026-04-30T10:11:08.928Z</time></trkpt>
      <trkpt lat="30.085871" lon="97.242711"><time>2026-04-30T10:11:08.945Z</time></trkpt>
      <trkpt lat="30.085871" lon="97.242711"><time>2026-04-30T10:11:08.961Z</time></trkpt>
      <trkpt lat="30.085871" lon="97.242711"><time>2026-04-30T10:11:08.978Z</time></trkpt>
      <trkpt lat="30.085871" lon="97.242711"><time>2026-04-30T10:11:08.995Z</time></trkpt>
      <trkpt lat="30.085871" lon="97.242711"><time>2026-04-30T10:11:09.011Z</time></trkpt>
      <trkpt lat="30.085878" lon="97.242716"><time>2026-04-30T10:11:09.028Z</time></trkpt>
      <trkpt lat="30.085878" lon="97.242716"><time>2026-04-30T10:11:09.045Z</time></trkpt>
      <trkpt lat="30.085878" lon="97.242716"><time>2026-04-30T10:11:09.061Z</time></trkpt>
      <trkpt lat="30.085878" lon="97.242716"><time>2026-04-30T10:11:09.078Z</time></trkpt>
      <trkpt lat="30.085878" lon="97.242716"><time>2026-04-30T10:11:09.095Z</time></trkpt>
      <trkpt lat="30.085878" lon="97.242716"><time>2026-04-30T10:11:09.111Z</time></trkpt>
      <trkpt lat="30.085885" lon="97.242722"><time>2026-04-30T10:11:09.128Z</time></trkpt>
      <trkpt lat="30.085885" lon="97.242722"><time>2026-04-30T10:11:09.145Z</time></trkpt>
      <trkpt lat="30.085885" lon="97.242722"><time>2026-04-30T10:11:09.162Z</time></trkpt>
      <trkpt lat="30.085885" lon="97.242722"><time>2026-04-30T10:11:09.178Z</time></trkpt>
      <trkpt lat="30.085885" lon="97.242722"><time>2026-04-30T10:11:09.195Z</time></trkpt>
      <trkpt lat="30.085885" lon="97.242722"><time>2026-04-30T10:11:09.212Z</time></trkpt>
      <trkpt lat="30.085891" lon="97.242727"><time>2026-04-30T10:11:09.228Z</time></trkpt>
      <trkpt lat="30.085891" lon="97.242727"><time>2026-04-30T10:11:09.245Z</time></trkpt>
      <trkpt lat="30.085891" lon="97.242727"><time>2026-04-30T10:11:09.262Z</time></trkpt>
      <trkpt lat="30.085891" lon="97.242727"><time>2026-04-30T10:11:09.278Z</time></trkpt>
      <trkpt lat="30.085891" lon="97.242727"><time>2026-04-30T10:11:09.295Z</time></trkpt>
      <trkpt lat="30.085891" lon="97.242727"><time>2026-04-30T10:11:09.312Z</time></trkpt>
      <trkpt lat="30.085898" lon="97.242732"><time>2026-04-30T10:11:09.328Z</time></trkpt>
      <trkpt lat="30.085898" lon="97.242732"><time>2026-04-30T10:11:09.345Z</time></trkpt>
      <trkpt lat="30.085898" lon="97.242732"><time>2026-04-30T10:11:09.362Z</time></trkpt>
      <trkpt lat="30.085898" lon="97.242732"><time>2026-04-30T10:11:09.378Z</time></trkpt>
      <trkpt lat="30.085898" lon="97.242732"><time>2026-04-30T10:11:09.395Z</time></trkpt>
      <trkpt lat="30.085898" lon="97.242732"><time>2026-04-30T10:11:09.412Z</time></trkpt>
      <trkpt lat="30.085905" lon="97.242738"><time>2026-04-30T10:11:09.428Z</time></trkpt>
      <trkpt lat="30.085905" lon="97.242738"><time>2026-04-30T10:11:09.445Z</time></trkpt>
      <trkpt lat="30.085905" lon="97.242738"><time>2026-04-30T10:11:09.462Z</time></trkpt>
      <trkpt lat="30.085905" lon="97.242738"><time>2026-04-30T10:11:09.479Z</time></trkpt>
      <trkpt lat="30.085905" lon="97.242738"><time>2026-04-30T10:11:09.495Z</time></trkpt>
      <trkpt lat="30.085905" lon="97.242738"><time>2026-04-30T10:11:09.512Z</time></trkpt>
      <trkpt lat="30.085912" lon="97.242743"><time>2026-04-30T10:11:09.529Z</time></trkpt>
      <trkpt lat="30.085912" lon="97.242743"><time>2026-04-30T10:11:09.545Z</time></trkpt>
      <trkpt lat="30.085912" lon="97.242743"><time>2026-04-30T10:11:09.562Z</time></trkpt>
      <trkpt lat="30.085912" lon="97.242743"><time>2026-04-30T10:11:09.579Z</time></trkpt>
      <trkpt lat="30.085912" lon="97.242743"><time>2026-04-30T10:11:09.595Z</time></trkpt>
      <trkpt lat="30.085912" lon="97.242743"><time>2026-04-30T10:11:09.612Z</time></trkpt>
      <trkpt lat="30.085919" lon="97.242749"><time>2026-04-30T10:11:09.629Z</time></trkpt>
      <trkpt lat="30.085919" lon="97.242749"><time>2026-04-30T10:11:09.645Z</time></trkpt>
      <trkpt lat="30.085919" lon="97.242749"><time>2026-04-30T10:11:09.662Z</time></trkpt>
      <trkpt lat="30.085919" lon="97.242749"><time>2026-04-30T10:11:09.679Z</time></trkpt>
      <trkpt lat="30.085919" lon="97.242749"><time>2026-04-30T10:11:09.695Z</time></trkpt>
      <trkpt lat="30.085919" lon="97.242749"><time>2026-04-30T10:11:09.712Z</time></trkpt>
      <trkpt lat="30.085925" lon="97.242754"><time>2026-04-30T10:11:09.729Z</time></trkpt>
      <trkpt lat="30.085925" lon="97.242754"><time>2026-04-30T10:11:09.745Z</time></trkpt>
      <trkpt lat="30.085925" lon="97.242754"><time>2026-04-30T10:11:09.762Z</time></trkpt>
      <trkpt lat="30.085925" lon="97.242754"><time>2026-04-30T10:11:09.779Z</time></trkpt>
      <trkpt lat="30.085925" lon="97.242754"><time>2026-04-30T10:11:09.796Z</time></trkpt>
      <trkpt lat="30.085925" lon="97.242754"><time>2026-04-30T10:11:09.812Z</time></trkpt>
      <trkpt lat="30.085932" lon="97.24276"><time>2026-04-30T10:11:09.829Z</time></trkpt>
      <trkpt lat="30.085932" lon="97.24276"><time>2026-04-30T10:11:09.846Z</time></trkpt>
      <trkpt lat="30.085932" lon="97.24276"><time>2026-04-30T10:11:09.862Z</time></trkpt>
      <trkpt lat="30.085932" lon="97.24276"><time>2026-04-30T10:11:09.879Z</time></trkpt>
      <trkpt lat="30.085932" lon="97.24276"><time>2026-04-30T10:11:09.896Z</time></trkpt>
      <trkpt lat="30.085932" lon="97.24276"><time>2026-04-30T10:11:09.912Z</time></trkpt>
      <trkpt lat="30.085939" lon="97.242765"><time>2026-04-30T10:11:09.929Z</time></trkpt>
    </trkseg>
  </trk>
</gpx>
