<?xml version="1.0" encoding="UTF-8"?>
<gpx version="1.1" creator="Kairos" xmlns="http://www.topografix.com/GPX/1/1">
  <trk>
    <name>sidecar-srt-5ab4e3c43f9b1331</name>
    <trkseg>
      <trkpt lat="28.016347" lon="98.628121"><time>2026-04-28T23:01:33.000Z</time></trkpt>
      <trkpt lat="28.016347" lon="98.628121"><time>2026-04-28T23:01:33.016Z</time></trkpt>
      <trkpt lat="28.016347" lon="98.628121"><time>2026-04-28T23:01:33.032Z</time></trkpt>
      <trkpt lat="28.016347" lon="98.628121"><time>2026-04-28T23:01:33.049Z</time></trkpt>
      <trkpt lat="28.016346" lon="98.628107"><time>2026-04-28T23:01:33.066Z</time></trkpt>
      <trkpt lat="28.016346" lon="98.628107"><time>2026-04-28T23:01:33.082Z</time></trkpt>
      <trkpt lat="28.016346" lon="98.628107"><time>2026-04-28T23:01:33.099Z</time></trkpt>
      <trkpt lat="28.016346" lon="98.628107"><time>2026-04-28T23:01:33.116Z</time></trkpt>
      <trkpt lat="28.016346" lon="98.628107"><time>2026-04-28T23:01:33.132Z</time></trkpt>
      <trkpt lat="28.016346" lon="98.628107"><time>2026-04-28T23:01:33.149Z</time></trkpt>
      <trkpt lat="28.016346" lon="98.628092"><time>2026-04-28T23:01:33.166Z</time></trkpt>
      <trkpt lat="28.016346" lon="98.628092"><time>2026-04-28T23:01:33.182Z</time></trkpt>
      <trkpt lat="28.016346" lon="98.628092"><time>2026-04-28T23:01:33.199Z</time></trkpt>
      <trkpt lat="28.016346" lon="98.628092"><time>2026-04-28T23:01:33.216Z</time></trkpt>
      <trkpt lat="28.016346" lon="98.628092"><time>2026-04-28T23:01:33.232Z</time></trkpt>
      <trkpt lat="28.016346" lon="98.628092"><time>2026-04-28T23:01:33.249Z</time></trkpt>
      <trkpt lat="28.016345" lon="98.628077"><time>2026-04-28T23:01:33.266Z</time></trkpt>
      <trkpt lat="28.016345" lon="98.628077"><time>2026-04-28T23:01:33.282Z</time></trkpt>
      <trkpt lat="28.016345" lon="98.628077"><time>2026-04-28T23:01:33.299Z</time></trkpt>
      <trkpt lat="28.016345" lon="98.628077"><time>2026-04-28T23:01:33.316Z</time></trkpt>
      <trkpt lat="28.016345" lon="98.628077"><time>2026-04-28T23:01:33.333Z</time></trkpt>
      <trkpt lat="28.016345" lon="98.628077"><time>2026-04-28T23:01:33.349Z</time></trkpt>
      <trkpt lat="28.016345" lon="98.628063"><time>2026-04-28T23:01:33.366Z</time></trkpt>
      <trkpt lat="28.016345" lon="98.628063"><time>2026-04-28T23:01:33.383Z</time></trkpt>
      <trkpt lat="28.016345" lon="98.628063"><time>2026-04-28T23:01:33.399Z</time></trkpt>
      <trkpt lat="28.016345" lon="98.628063"><time>2026-04-28T23:01:33.416Z</time></trkpt>
      <trkpt lat="28.016345" lon="98.628063"><time>2026-04-28T23:01:33.433Z</time></trkpt>
      <trkpt lat="28.016344" lon="98.628047"><time>2026-04-28T23:01:33.449Z</time></trkpt>
      <trkpt lat="28.016344" lon="98.628047"><time>2026-04-28T23:01:33.466Z</time></trkpt>
      <trkpt lat="28.016344" lon="98.628047"><time>2026-04-28T23:01:33.483Z</time></trkpt>
      <trkpt lat="28.016344" lon="98.628047"><time>2026-04-28T23:01:33.499Z</time></trkpt>
      <trkpt lat="28.016344" lon="98.628047"><time>2026-04-28T23:01:33.516Z</time></trkpt>
      <trkpt lat="28.016344" lon="98.628047"><time>2026-04-28T23:01:33.533Z</time></trkpt>
      <trkpt lat="28.016344" lon="98.628047"><time>2026-04-28T23:01:33.549Z</time></trkpt>
      <trkpt lat="28.016344" lon="98.628032"><time>2026-04-28T23:01:33.566Z</time></trkpt>
      <trkpt lat="28.016344" lon="98.628032"><time>2026-04-28T23:01:33.583Z</time></trkpt>
      <trkpt lat="28.016344" lon="98.628032"><time>2026-04-28T23:01:33.599Z</time></trkpt>
      <trkpt lat="28.016344" lon="98.628032"><time>2026-04-28T23:01:33.616Z</time></trkpt>
      <trkpt lat="28.016344" lon="98.628032"><time>2026-04-28T23:01:33.633Z</time></trkpt>
      <trkpt lat="28.016344" lon="98.628032"><time>2026-04-28T23:01:33.650Z</time></trkpt>
      <trkpt lat="28.016344" lon="98.628016"><time>2026-04-28T23:01:33.666Z</time></trkpt>
      <trkpt lat="28.016344" lon="98.628016"><time>2026-04-28T23:01:33.683Z</time></trkpt>
      <trkpt lat="28.016344" lon="98.628016"><time>2026-04-28T23:01:33.700Z</time></trkpt>
      <trkpt lat="28.016344" lon="98.628016"><time>2026-04-28T23:01:33.716Z</time></trkpt>
      <trkpt lat="28.016344" lon="98.628016"><time>2026-04-28T23:01:33.733Z</time></trkpt>
      <trkpt lat="28.016344" lon="98.628016"><time>2026-04-28T23:01:33.750Z</time></trkpt>
      <trkpt lat="28.016343" lon="98.628001"><time>2026-04-28T23:01:33.766Z</time></trkpt>
      <trkpt lat="28.016343" lon="98.628001"><time>2026-04-28T23:01:33.783Z</time></trkpt>
      <trkpt lat="28.016343" lon="98.628001"><time>2026-04-28T23:01:33.800Z</time></trkpt>
      <trkpt lat="28.016343" lon="98.628001"><time>2026-04-28T23:01:33.816Z</time></trkpt>
      <trkpt lat="28.016343" lon="98.628001"><time>2026-04-28T23:01:33.833Z</time></trkpt>
      <trkpt lat="28.016343" lon="98.628001"><time>2026-04-28T23:01:33.850Z</time></trkpt>
      <trkpt lat="28.016342" lon="98.627984"><time>2026-04-28T23:01:33.866Z</time></trkpt>
      <trkpt lat="28.016342" lon="98.627984"><time>2026-04-28T23:01:33.883Z</time></trkpt>
      <trkpt lat="28.016342" lon="98.627984"><time>2026-04-28T23:01:33.900Z</time></trkpt>
      <trkpt lat="28.016342" lon="98.627984"><time>2026-04-28T23:01:33.916Z</time></trkpt>
      <trkpt lat="28.016342" lon="98.627984"><time>2026-04-28T23:01:33.933Z</time></trkpt>
      <trkpt lat="28.016342" lon="98.627984"><time>2026-04-28T23:01:33.950Z</time></trkpt>
      <trkpt lat="28.016342" lon="98.627968"><time>2026-04-28T23:01:33.967Z</time></trkpt>
      <trkpt lat="28.016342" lon="98.627968"><time>2026-04-28T23:01:33.983Z</time></trkpt>
      <trkpt lat="28.016342" lon="98.627968"><time>2026-04-28T23:01:34.000Z</time></trkpt>
      <trkpt lat="28.016342" lon="98.627968"><time>2026-04-28T23:01:34.017Z</time></trkpt>
      <trkpt lat="28.016342" lon="98.627968"><time>2026-04-28T23:01:34.033Z</time></trkpt>
      <trkpt lat="28.016342" lon="98.627968"><time>2026-04-28T23:01:34.050Z</time></trkpt>
      <trkpt lat="28.016341" lon="98.627952"><time>2026-04-28T23:01:34.067Z</time></trkpt>
      <trkpt lat="28.016341" lon="98.627952"><time>2026-04-28T23:01:34.083Z</time></trkpt>
      <trkpt lat="28.016341" lon="98.627952"><time>2026-04-28T23:01:34.100Z</time></trkpt>
      <trkpt lat="28.016341" lon="98.627952"><time>2026-04-28T23:01:34.117Z</time></trkpt>
      <trkpt lat="28.016341" lon="98.627952"><time>2026-04-28T23:01:34.133Z</time></trkpt>
      <trkpt lat="28.016341" lon="98.627952"><time>2026-04-28T23:01:34.150Z</time></trkpt>
      <trkpt lat="28.016341" lon="98.627934"><time>2026-04-28T23:01:34.167Z</time></trkpt>
      <trkpt lat="28.016341" lon="98.627934"><time>2026-04-28T23:01:34.183Z</time></trkpt>
      <trkpt lat="28.016341" lon="98.627934"><time>2026-04-28T23:01:34.200Z</time></trkpt>
      <trkpt lat="28.016341" lon="98.627934"><time>2026-04-28T23:01:34.217Z</time></trkpt>
      <trkpt lat="28.016341" lon="98.627934"><time>2026-04-28T23:01:34.233Z</time></trkpt>
      <trkpt lat="28.016341" lon="98.627934"><time>2026-04-28T23:01:34.250Z</time></trkpt>
      <trkpt lat="28.01634" lon="98.627918"><time>2026-04-28T23:01:34.267Z</time></trkpt>
      <trkpt lat="28.01634" lon="98.627918"><time>2026-04-28T23:01:34.284Z</time></trkpt>
      <trkpt lat="28.01634" lon="98.627918"><time>2026-04-28T23:01:34.300Z</time></trkpt>
      <trkpt lat="28.01634" lon="98.627918"><time>2026-04-28T23:01:34.317Z</time></trkpt>
      <trkpt lat="28.01634" lon="98.627918"><time>2026-04-28T23:01:34.334Z</time></trkpt>
      <trkpt lat="28.01634" lon="98.627918"><time>2026-04-28T23:01:34.350Z</time></trkpt>
      <trkpt lat="28.016339" lon="98.6279"><time>2026-04-28T23:01:34.367Z</time></trkpt>
      <trkpt lat="28.016339" lon="98.6279"><time>2026-04-28T23:01:34.384Z</time></trkpt>
      <trkpt lat="28.016339" lon="98.6279"><time>2026-04-28T23:01:34.400Z</time></trkpt>
      <trkpt lat="28.016339" lon="98.6279"><time>2026-04-28T23:01:34.417Z</time></trkpt>
      <trkpt lat="28.016339" lon="98.6279"><time>2026-04-28T23:01:34.434Z</time></trkpt>
      <trkpt lat="28.016339" lon="98.6279"><time>2026-04-28T23:01:34.450Z</time></trkpt>
      <trkpt lat="28.016339" lon="98.627882"><time>2026-04-28T23:01:34.467Z</time></trkpt>
      <trkpt lat="28.016339" lon="98.627882"><time>2026-04-28T23:01:34.484Z</time></trkpt>
      <trkpt lat="28.016339" lon="98.627882"><time>2026-04-28T23:01:34.500Z</time></trkpt>
      <trkpt lat="28.016339" lon="98.627882"><time>2026-04-28T23:01:34.517Z</time></trkpt>
      <trkpt lat="28.016339" lon="98.627882"><time>2026-04-28T23:01:34.534Z</time></trkpt>
      <trkpt lat="28.016339" lon="98.627882"><time>2026-04-28T23:01:34.550Z</time></trkpt>
      <trkpt lat="28.016337" lon="98.627864"><time>2026-04-28T23:01:34.567Z</time></trkpt>
      <trkpt lat="28.016337" lon="98.627864"><time>2026-04-28T23:01:34.584Z</time></trkpt>
      <trkpt lat="28.016337" lon="98.627864"><time>2026-04-28T23:01:34.601Z</time></trkpt>
      <trkpt lat="28.016337" lon="98.627864"><time>2026-04-28T23:01:34.617Z</time></trkpt>
      <trkpt lat="28.016337" lon="98.627864"><time>2026-04-28T23:01:34.634Z</time></trkpt>
      <trkpt lat="28.016337" lon="98.627864"><time>2026-04-28T23:01:34.651Z</time></trkpt>
      <trkpt lat="28.016337" lon="98.627846"><time>2026-04-28T23:01:34.667Z</time></trkpt>
      <trkpt lat="28.016337" lon="98.627846"><time>2026-04-28T23:01:34.684Z</time></trkpt>
      <trkpt lat="28.016337" lon="98.627846"><time>2026-04-28T23:01:34.701Z</time></trkpt>
      <trkpt lat="28.016337" lon="98.627846"><time>2026-04-28T23:01:34.717Z</time></trkpt>
      <trkpt lat="28.016337" lon="98.627846"><time>2026-04-28T23:01:34.734Z</time></trkpt>
      <trkpt lat="28.016337" lon="98.627846"><time>2026-04-28T23:01:34.751Z</time></trkpt>
      <trkpt lat="28.016336" lon="98.627828"><time>2026-04-28T23:01:34.767Z</time></trkpt>
      <trkpt lat="28.016336" lon="98.627828"><time>2026-04-28T23:01:34.784Z</time></trkpt>
      <trkpt lat="28.016336" lon="98.627828"><time>2026-04-28T23:01:34.801Z</time></trkpt>
      <trkpt lat="28.016336" lon="98.627828"><time>2026-04-28T23:01:34.817Z</time></trkpt>
      <trkpt lat="28.016336" lon="98.627828"><time>2026-04-28T23:01:34.834Z</time></trkpt>
      <trkpt lat="28.016336" lon="98.627828"><time>2026-04-28T23:01:34.851Z</time></trkpt>
      <trkpt lat="28.016335" lon="98.62781"><time>2026-04-28T23:01:34.867Z</time></trkpt>
      <trkpt lat="28.016335" lon="98.62781"><time>2026-04-28T23:01:34.884Z</time></trkpt>
      <trkpt lat="28.016335" lon="98.62781"><time>2026-04-28T23:01:34.901Z</time></trkpt>
      <trkpt lat="28.016335" lon="98.62781"><time>2026-04-28T23:01:34.917Z</time></trkpt>
      <trkpt lat="28.016335" lon="98.62781"><time>2026-04-28T23:01:34.934Z</time></trkpt>
      <trkpt lat="28.016335" lon="98.62781"><time>2026-04-28T23:01:34.951Z</time></trkpt>
      <trkpt lat="28.016335" lon="98.627791"><time>2026-04-28T23:01:34.968Z</time></trkpt>
      <trkpt lat="28.016335" lon="98.627791"><time>2026-04-28T23:01:34.984Z</time></trkpt>
      <trkpt lat="28.016335" lon="98.627791"><time>2026-04-28T23:01:35.001Z</time></trkpt>
      <trkpt lat="28.016335" lon="98.627791"><time>2026-04-28T23:01:35.018Z</time></trkpt>
      <trkpt lat="28.016335" lon="98.627791"><time>2026-04-28T23:01:35.034Z</time></trkpt>
      <trkpt lat="28.016335" lon="98.627791"><time>2026-04-28T23:01:35.051Z</time></trkpt>
      <trkpt lat="28.016334" lon="98.627773"><time>2026-04-28T23:01:35.068Z</time></trkpt>
      <trkpt lat="28.016334" lon="98.627773"><time>2026-04-28T23:01:35.084Z</time></trkpt>
      <trkpt lat="28.016334" lon="98.627773"><time>2026-04-28T23:01:35.101Z</time></trkpt>
      <trkpt lat="28.016334" lon="98.627773"><time>2026-04-28T23:01:35.118Z</time></trkpt>
      <trkpt lat="28.016334" lon="98.627773"><time>2026-04-28T23:01:35.134Z</time></trkpt>
      <trkpt lat="28.016334" lon="98.627773"><time>2026-04-28T23:01:35.151Z</time></trkpt>
      <trkpt lat="28.016333" lon="98.627754"><time>2026-04-28T23:01:35.168Z</time></trkpt>
      <trkpt lat="28.016333" lon="98.627754"><time>2026-04-28T23:01:35.184Z</time></trkpt>
      <trkpt lat="28.016333" lon="98.627754"><time>2026-04-28T23:01:35.201Z</time></trkpt>
      <trkpt lat="28.016333" lon="98.627754"><time>2026-04-28T23:01:35.218Z</time></trkpt>
      <trkpt lat="28.016333" lon="98.627754"><time>2026-04-28T23:01:35.234Z</time></trkpt>
      <trkpt lat="28.016333" lon="98.627754"><time>2026-04-28T23:01:35.251Z</time></trkpt>
      <trkpt lat="28.016333" lon="98.627735"><time>2026-04-28T23:01:35.268Z</time></trkpt>
      <trkpt lat="28.016333" lon="98.627735"><time>2026-04-28T23:01:35.285Z</time></trkpt>
      <trkpt lat="28.016333" lon="98.627735"><time>2026-04-28T23:01:35.301Z</time></trkpt>
      <trkpt lat="28.016333" lon="98.627735"><time>2026-04-28T23:01:35.318Z</time></trkpt>
      <trkpt lat="28.016333" lon="98.627735"><time>2026-04-28T23:01:35.335Z</time></trkpt>
      <trkpt lat="28.016333" lon="98.627735"><time>2026-04-28T23:01:35.351Z</time></trkpt>
      <trkpt lat="28.016332" lon="98.627716"><time>2026-04-28T23:01:35.368Z</time></trkpt>
      <trkpt lat="28.016332" lon="98.627716"><time>2026-04-28T23:01:35.385Z</time></trkpt>
      <trkpt lat="28.016332" lon="98.627716"><time>2026-04-28T23:01:35.401Z</time></trkpt>
      <trkpt lat="28.016332" lon="98.627716"><time>2026-04-28T23:01:35.418Z</time></trkpt>
      <trkpt lat="28.016332" lon="98.627716"><time>2026-04-28T23:01:35.435Z</time></trkpt>
      <trkpt lat="28.016332" lon="98.627716"><time>2026-04-28T23:01:35.451Z</time></trkpt>
      <trkpt lat="28.016332" lon="98.627696"><time>2026-04-28T23:01:35.468Z</time></trkpt>
      <trkpt lat="28.016332" lon="98.627696"><time>2026-04-28T23:01:35.485Z</time></trkpt>
      <trkpt lat="28.016332" lon="98.627696"><time>2026-04-28T23:01:35.501Z</time></trkpt>
      <trkpt lat="28.016332" lon="98.627696"><time>2026-04-28T23:01:35.518Z</time></trkpt>
      <trkpt lat="28.016332" lon="98.627696"><time>2026-04-28T23:01:35.535Z</time></trkpt>
      <trkpt lat="28.016332" lon="98.627696"><time>2026-04-28T23:01:35.551Z</time></trkpt>
      <trkpt lat="28.016331" lon="98.627677"><time>2026-04-28T23:01:35.568Z</time></trkpt>
      <trkpt lat="28.016331" lon="98.627677"><time>2026-04-28T23:01:35.585Z</time></trkpt>
      <trkpt lat="28.016331" lon="98.627677"><time>2026-04-28T23:01:35.602Z</time></trkpt>
      <trkpt lat="28.016331" lon="98.627677"><time>2026-04-28T23:01:35.618Z</time></trkpt>
      <trkpt lat="28.016331" lon="98.627677"><time>2026-04-28T23:01:35.635Z</time></trkpt>
      <trkpt lat="28.016331" lon="98.627677"><time>2026-04-28T23:01:35.652Z</time></trkpt>
      <trkpt lat="28.016331" lon="98.627657"><time>2026-04-28T23:01:35.668Z</time></trkpt>
      <trkpt lat="28.016331" lon="98.627657"><time>2026-04-28T23:01:35.685Z</time></trkpt>
      <trkpt lat="28.016331" lon="98.627657"><time>2026-04-28T23:01:35.702Z</time></trkpt>
      <trkpt lat="28.016331" lon="98.627657"><time>2026-04-28T23:01:35.718Z</time></trkpt>
      <trkpt lat="28.016331" lon="98.627657"><time>2026-04-28T23:01:35.735Z</time></trkpt>
      <trkpt lat="28.016331" lon="98.627657"><time>2026-04-28T23:01:35.752Z</time></trkpt>
      <trkpt lat="28.01633" lon="98.627637"><time>2026-04-28T23:01:35.768Z</time></trkpt>
      <trkpt lat="28.01633" lon="98.627637"><time>2026-04-28T23:01:35.785Z</time></trkpt>
      <trkpt lat="28.01633" lon="98.627637"><time>2026-04-28T23:01:35.802Z</time></trkpt>
      <trkpt lat="28.01633" lon="98.627637"><time>2026-04-28T23:01:35.818Z</time></trkpt>
      <trkpt lat="28.01633" lon="98.627637"><time>2026-04-28T23:01:35.835Z</time></trkpt>
      <trkpt lat="28.01633" lon="98.627637"><time>2026-04-28T23:01:35.852Z</time></trkpt>
      <trkpt lat="28.016329" lon="98.627617"><time>2026-04-28T23:01:35.868Z</time></trkpt>
      <trkpt lat="28.016329" lon="98.627617"><time>2026-04-28T23:01:35.885Z</time></trkpt>
      <trkpt lat="28.016329" lon="98.627617"><time>2026-04-28T23:01:35.902Z</time></trkpt>
      <trkpt lat="28.016329" lon="98.627617"><time>2026-04-28T23:01:35.919Z</time></trkpt>
      <trkpt lat="28.016329" lon="98.627617"><time>2026-04-28T23:01:35.935Z</time></trkpt>
      <trkpt lat="28.016329" lon="98.627617"><time>2026-04-28T23:01:35.952Z</time></trkpt>
      <trkpt lat="28.016329" lon="98.627597"><time>2026-04-28T23:01:35.969Z</time></trkpt>
      <trkpt lat="28.016329" lon="98.627597"><time>2026-04-28T23:01:35.985Z</time></trkpt>
      <trkpt lat="28.016329" lon="98.627597"><time>2026-04-28T23:01:36.002Z</time></trkpt>
      <trkpt lat="28.016329" lon="98.627597"><time>2026-04-28T23:01:36.019Z</time></trkpt>
      <trkpt lat="28.016329" lon="98.627597"><time>2026-04-28T23:01:36.035Z</time></trkpt>
      <trkpt lat="28.016329" lon="98.627597"><time>2026-04-28T23:01:36.052Z</time></trkpt>
      <trkpt lat="28.016328" lon="98.627577"><time>2026-04-28T23:01:36.069Z</time></trkpt>
      <trkpt lat="28.016328" lon="98.627577"><time>2026-04-28T23:01:36.085Z</time></trkpt>
      <trkpt lat="28.016328" lon="98.627577"><time>2026-04-28T23:01:36.102Z</time></trkpt>
      <trkpt lat="28.016328" lon="98.627577"><time>2026-04-28T23:01:36.119Z</time></trkpt>
      <trkpt lat="28.016328" lon="98.627577"><time>2026-04-28T23:01:36.135Z</time></trkpt>
      <trkpt lat="28.016328" lon="98.627577"><time>2026-04-28T23:01:36.152Z</time></trkpt>
      <trkpt lat="28.016327" lon="98.627557"><time>2026-04-28T23:01:36.169Z</time></trkpt>
      <trkpt lat="28.016327" lon="98.627557"><time>2026-04-28T23:01:36.185Z</time></trkpt>
      <trkpt lat="28.016327" lon="98.627557"><time>2026-04-28T23:01:36.202Z</time></trkpt>
      <trkpt lat="28.016327" lon="98.627557"><time>2026-04-28T23:01:36.219Z</time></trkpt>
      <trkpt lat="28.016327" lon="98.627557"><time>2026-04-28T23:01:36.236Z</time></trkpt>
      <trkpt lat="28.016327" lon="98.627557"><time>2026-04-28T23:01:36.252Z</time></trkpt>
      <trkpt lat="28.016327" lon="98.627537"><time>2026-04-28T23:01:36.269Z</time></trkpt>
      <trkpt lat="28.016327" lon="98.627537"><time>2026-04-28T23:01:36.286Z</time></trkpt>
      <trkpt lat="28.016327" lon="98.627537"><time>2026-04-28T23:01:36.302Z</time></trkpt>
      <trkpt lat="28.016327" lon="98.627537"><time>2026-04-28T23:01:36.319Z</time></trkpt>
      <trkpt lat="28.016327" lon="98.627537"><time>2026-04-28T23:01:36.336Z</time></trkpt>
      <trkpt lat="28.016327" lon="98.627537"><time>2026-04-28T23:01:36.352Z</time></trkpt>
      <trkpt lat="28.016326" lon="98.627516"><time>2026-04-28T23:01:36.369Z</time></trkpt>
      <trkpt lat="28.016326" lon="98.627516"><time>2026-04-28T23:01:36.386Z</time></trkpt>
      <trkpt lat="28.016326" lon="98.627516"><time>2026-04-28T23:01:36.402Z</time></trkpt>
      <trkpt lat="28.016326" lon="98.627516"><time>2026-04-28T23:01:36.419Z</time></trkpt>
      <trkpt lat="28.016326" lon="98.627516"><time>2026-04-28T23:01:36.436Z</time></trkpt>
      <trkpt lat="28.016326" lon="98.627516"><time>2026-04-28T23:01:36.452Z</time></trkpt>
      <trkpt lat="28.016325" lon="98.627496"><time>2026-04-28T23:01:36.469Z</time></trkpt>
      <trkpt lat="28.016325" lon="98.627496"><time>2026-04-28T23:01:36.486Z</time></trkpt>
      <trkpt lat="28.016325" lon="98.627496"><time>2026-04-28T23:01:36.502Z</time></trkpt>
      <trkpt lat="28.016325" lon="98.627496"><time>2026-04-28T23:01:36.519Z</time></trkpt>
      <trkpt lat="28.016325" lon="98.627496"><time>2026-04-28T23:01:36.536Z</time></trkpt>
      <trkpt lat="28.016325" lon="98.627496"><time>2026-04-28T23:01:36.553Z</time></trkpt>
      <trkpt lat="28.016325" lon="98.627475"><time>2026-04-28T23:01:36.569Z</time></trkpt>
      <trkpt lat="28.016325" lon="98.627475"><time>2026-04-28T23:01:36.586Z</time></trkpt>
      <trkpt lat="28.016325" lon="98.627475"><time>2026-04-28T23:01:36.603Z</time></trkpt>
      <trkpt lat="28.016325" lon="98.627475"><time>2026-04-28T23:01:36.619Z</time></trkpt>
      <trkpt lat="28.016325" lon="98.627475"><time>2026-04-28T23:01:36.636Z</time></trkpt>
      <trkpt lat="28.016325" lon="98.627475"><time>2026-04-28T23:01:36.653Z</time></trkpt>
      <trkpt lat="28.016324" lon="98.627455"><time>2026-04-28T23:01:36.669Z</time></trkpt>
      <trkpt lat="28.016324" lon="98.627455"><time>2026-04-28T23:01:36.686Z</time></trkpt>
      <trkpt lat="28.016324" lon="98.627455"><time>2026-04-28T23:01:36.703Z</time></trkpt>
      <trkpt lat="28.016324" lon="98.627455"><time>2026-04-28T23:01:36.719Z</time></trkpt>
      <trkpt lat="28.016324" lon="98.627455"><time>2026-04-28T23:01:36.736Z</time></trkpt>
      <trkpt lat="28.016324" lon="98.627455"><time>2026-04-28T23:01:36.753Z</time></trkpt>
      <trkpt lat="28.016323" lon="98.627434"><time>2026-04-28T23:01:36.769Z</time></trkpt>
      <trkpt lat="28.016323" lon="98.627434"><time>2026-04-28T23:01:36.786Z</time></trkpt>
      <trkpt lat="28.016323" lon="98.627434"><time>2026-04-28T23:01:36.803Z</time></trkpt>
      <trkpt lat="28.016323" lon="98.627434"><time>2026-04-28T23:01:36.819Z</time></trkpt>
      <trkpt lat="28.016323" lon="98.627434"><time>2026-04-28T23:01:36.836Z</time></trkpt>
      <trkpt lat="28.016323" lon="98.627434"><time>2026-04-28T23:01:36.853Z</time></trkpt>
      <trkpt lat="28.016322" lon="98.627413"><time>2026-04-28T23:01:36.870Z</time></trkpt>
      <trkpt lat="28.016322" lon="98.627413"><time>2026-04-28T23:01:36.886Z</time></trkpt>
      <trkpt lat="28.016322" lon="98.627413"><time>2026-04-28T23:01:36.903Z</time></trkpt>
      <trkpt lat="28.016322" lon="98.627413"><time>2026-04-28T23:01:36.920Z</time></trkpt>
      <trkpt lat="28.016322" lon="98.627413"><time>2026-04-28T23:01:36.936Z</time></trkpt>
      <trkpt lat="28.016322" lon="98.627413"><time>2026-04-28T23:01:36.953Z</time></trkpt>
      <trkpt lat="28.016322" lon="98.627392"><time>2026-04-28T23:01:36.970Z</time></trkpt>
      <trkpt lat="28.016322" lon="98.627392"><time>2026-04-28T23:01:36.986Z</time></trkpt>
      <trkpt lat="28.016322" lon="98.627392"><time>2026-04-28T23:01:37.003Z</time></trkpt>
      <trkpt lat="28.016322" lon="98.627392"><time>2026-04-28T23:01:37.020Z</time></trkpt>
      <trkpt lat="28.016322" lon="98.627392"><time>2026-04-28T23:01:37.036Z</time></trkpt>
      <trkpt lat="28.016322" lon="98.627392"><time>2026-04-28T23:01:37.053Z</time></trkpt>
      <trkpt lat="28.016321" lon="98.627371"><time>2026-04-28T23:01:37.070Z</time></trkpt>
      <trkpt lat="28.016321" lon="98.627371"><time>2026-04-28T23:01:37.086Z</time></trkpt>
      <trkpt lat="28.016321" lon="98.627371"><time>2026-04-28T23:01:37.103Z</time></trkpt>
      <trkpt lat="28.016321" lon="98.627371"><time>2026-04-28T23:01:37.120Z</time></trkpt>
      <trkpt lat="28.016321" lon="98.627371"><time>2026-04-28T23:01:37.136Z</time></trkpt>
      <trkpt lat="28.016321" lon="98.627371"><time>2026-04-28T23:01:37.153Z</time></trkpt>
      <trkpt lat="28.01632" lon="98.62735"><time>2026-04-28T23:01:37.170Z</time></trkpt>
      <trkpt lat="28.01632" lon="98.62735"><time>2026-04-28T23:01:37.187Z</time></trkpt>
      <trkpt lat="28.01632" lon="98.62735"><time>2026-04-28T23:01:37.203Z</time></trkpt>
      <trkpt lat="28.01632" lon="98.62735"><time>2026-04-28T23:01:37.220Z</time></trkpt>
      <trkpt lat="28.01632" lon="98.62735"><time>2026-04-28T23:01:37.237Z</time></trkpt>
      <trkpt lat="28.01632" lon="98.62735"><time>2026-04-28T23:01:37.253Z</time></trkpt>
      <trkpt lat="28.016319" lon="98.627329"><time>2026-04-28T23:01:37.270Z</time></trkpt>
      <trkpt lat="28.016319" lon="98.627329"><time>2026-04-28T23:01:37.287Z</time></trkpt>
      <trkpt lat="28.016319" lon="98.627329"><time>2026-04-28T23:01:37.303Z</time></trkpt>
      <trkpt lat="28.016319" lon="98.627329"><time>2026-04-28T23:01:37.320Z</time></trkpt>
      <trkpt lat="28.016319" lon="98.627329"><time>2026-04-28T23:01:37.337Z</time></trkpt>
      <trkpt lat="28.016318" lon="98.627308"><time>2026-04-28T23:01:37.353Z</time></trkpt>
      <trkpt lat="28.016318" lon="98.627308"><time>2026-04-28T23:01:37.370Z</time></trkpt>
      <trkpt lat="28.016318" lon="98.627308"><time>2026-04-28T23:01:37.387Z</time></trkpt>
      <trkpt lat="28.016318" lon="98.627308"><time>2026-04-28T23:01:37.403Z</time></trkpt>
      <trkpt lat="28.016318" lon="98.627308"><time>2026-04-28T23:01:37.420Z</time></trkpt>
      <trkpt lat="28.016318" lon="98.627308"><time>2026-04-28T23:01:37.437Z</time></trkpt>
      <trkpt lat="28.016317" lon="98.627287"><time>2026-04-28T23:01:37.453Z</time></trkpt>
      <trkpt lat="28.016317" lon="98.627287"><time>2026-04-28T23:01:37.470Z</time></trkpt>
      <trkpt lat="28.016317" lon="98.627287"><time>2026-04-28T23:01:37.487Z</time></trkpt>
      <trkpt lat="28.016317" lon="98.627287"><time>2026-04-28T23:01:37.504Z</time></trkpt>
      <trkpt lat="28.016317" lon="98.627287"><time>2026-04-28T23:01:37.520Z</time></trkpt>
      <trkpt lat="28.016317" lon="98.627287"><time>2026-04-28T23:01:37.537Z</time></trkpt>
      <trkpt lat="28.016316" lon="98.627266"><time>2026-04-28T23:01:37.554Z</time></trkpt>
      <trkpt lat="28.016316" lon="98.627266"><time>2026-04-28T23:01:37.570Z</time></trkpt>
      <trkpt lat="28.016316" lon="98.627266"><time>2026-04-28T23:01:37.587Z</time></trkpt>
      <trkpt lat="28.016316" lon="98.627266"><time>2026-04-28T23:01:37.604Z</time></trkpt>
      <trkpt lat="28.016316" lon="98.627266"><time>2026-04-28T23:01:37.620Z</time></trkpt>
      <trkpt lat="28.016316" lon="98.627266"><time>2026-04-28T23:01:37.637Z</time></trkpt>
      <trkpt lat="28.016315" lon="98.627245"><time>2026-04-28T23:01:37.654Z</time></trkpt>
      <trkpt lat="28.016315" lon="98.627245"><time>2026-04-28T23:01:37.670Z</time></trkpt>
      <trkpt lat="28.016315" lon="98.627245"><time>2026-04-28T23:01:37.687Z</time></trkpt>
      <trkpt lat="28.016315" lon="98.627245"><time>2026-04-28T23:01:37.704Z</time></trkpt>
      <trkpt lat="28.016315" lon="98.627245"><time>2026-04-28T23:01:37.720Z</time></trkpt>
      <trkpt lat="28.016315" lon="98.627245"><time>2026-04-28T23:01:37.737Z</time></trkpt>
      <trkpt lat="28.016314" lon="98.627224"><time>2026-04-28T23:01:37.754Z</time></trkpt>
      <trkpt lat="28.016314" lon="98.627224"><time>2026-04-28T23:01:37.770Z</time></trkpt>
      <trkpt lat="28.016314" lon="98.627224"><time>2026-04-28T23:01:37.787Z</time></trkpt>
      <trkpt lat="28.016314" lon="98.627224"><time>2026-04-28T23:01:37.804Z</time></trkpt>
      <trkpt lat="28.016314" lon="98.627224"><time>2026-04-28T23:01:37.821Z</time></trkpt>
      <trkpt lat="28.016314" lon="98.627224"><time>2026-04-28T23:01:37.837Z</time></trkpt>
      <trkpt lat="28.016313" lon="98.627202"><time>2026-04-28T23:01:37.854Z</time></trkpt>
      <trkpt lat="28.016313" lon="98.627202"><time>2026-04-28T23:01:37.871Z</time></trkpt>
      <trkpt lat="28.016313" lon="98.627202"><time>2026-04-28T23:01:37.887Z</time></trkpt>
      <trkpt lat="28.016313" lon="98.627202"><time>2026-04-28T23:01:37.904Z</time></trkpt>
      <trkpt lat="28.016313" lon="98.627202"><time>2026-04-28T23:01:37.921Z</time></trkpt>
      <trkpt lat="28.016313" lon="98.627202"><time>2026-04-28T23:01:37.937Z</time></trkpt>
      <trkpt lat="28.016312" lon="98.627181"><time>2026-04-28T23:01:37.954Z</time></trkpt>
      <trkpt lat="28.016312" lon="98.627181"><time>2026-04-28T23:01:37.971Z</time></trkpt>
      <trkpt lat="28.016312" lon="98.627181"><time>2026-04-28T23:01:37.987Z</time></trkpt>
      <trkpt lat="28.016312" lon="98.627181"><time>2026-04-28T23:01:38.004Z</time></trkpt>
      <trkpt lat="28.016312" lon="98.627181"><time>2026-04-28T23:01:38.021Z</time></trkpt>
      <trkpt lat="28.016312" lon="98.627181"><time>2026-04-28T23:01:38.037Z</time></trkpt>
      <trkpt lat="28.016311" lon="98.627159"><time>2026-04-28T23:01:38.054Z</time></trkpt>
      <trkpt lat="28.016311" lon="98.627159"><time>2026-04-28T23:01:38.071Z</time></trkpt>
      <trkpt lat="28.016311" lon="98.627159"><time>2026-04-28T23:01:38.087Z</time></trkpt>
      <trkpt lat="28.016311" lon="98.627159"><time>2026-04-28T23:01:38.104Z</time></trkpt>
      <trkpt lat="28.016311" lon="98.627159"><time>2026-04-28T23:01:38.121Z</time></trkpt>
      <trkpt lat="28.016311" lon="98.627159"><time>2026-04-28T23:01:38.138Z</time></trkpt>
      <trkpt lat="28.01631" lon="98.627138"><time>2026-04-28T23:01:38.154Z</time></trkpt>
      <trkpt lat="28.01631" lon="98.627138"><time>2026-04-28T23:01:38.171Z</time></trkpt>
      <trkpt lat="28.01631" lon="98.627138"><time>2026-04-28T23:01:38.188Z</time></trkpt>
      <trkpt lat="28.01631" lon="98.627138"><time>2026-04-28T23:01:38.204Z</time></trkpt>
      <trkpt lat="28.01631" lon="98.627138"><time>2026-04-28T23:01:38.221Z</time></trkpt>
      <trkpt lat="28.01631" lon="98.627138"><time>2026-04-28T23:01:38.238Z</time></trkpt>
      <trkpt lat="28.01631" lon="98.627117"><time>2026-04-28T23:01:38.254Z</time></trkpt>
      <trkpt lat="28.01631" lon="98.627117"><time>2026-04-28T23:01:38.271Z</time></trkpt>
      <trkpt lat="28.01631" lon="98.627117"><time>2026-04-28T23:01:38.288Z</time></trkpt>
      <trkpt lat="28.01631" lon="98.627117"><time>2026-04-28T23:01:38.304Z</time></trkpt>
      <trkpt lat="28.01631" lon="98.627117"><time>2026-04-28T23:01:38.321Z</time></trkpt>
      <trkpt lat="28.01631" lon="98.627117"><time>2026-04-28T23:01:38.338Z</time></trkpt>
      <trkpt lat="28.016309" lon="98.627095"><time>2026-04-28T23:01:38.354Z</time></trkpt>
      <trkpt lat="28.016309" lon="98.627095"><time>2026-04-28T23:01:38.371Z</time></trkpt>
      <trkpt lat="28.016309" lon="98.627095"><time>2026-04-28T23:01:38.388Z</time></trkpt>
      <trkpt lat="28.016309" lon="98.627095"><time>2026-04-28T23:01:38.404Z</time></trkpt>
      <trkpt lat="28.016309" lon="98.627095"><time>2026-04-28T23:01:38.421Z</time></trkpt>
      <trkpt lat="28.016309" lon="98.627095"><time>2026-04-28T23:01:38.438Z</time></trkpt>
      <trkpt lat="28.016307" lon="98.627074"><time>2026-04-28T23:01:38.455Z</time></trkpt>
      <trkpt lat="28.016307" lon="98.627074"><time>2026-04-28T23:01:38.471Z</time></trkpt>
      <trkpt lat="28.016307" lon="98.627074"><time>2026-04-28T23:01:38.488Z</time></trkpt>
      <trkpt lat="28.016307" lon="98.627074"><time>2026-04-28T23:01:38.505Z</time></trkpt>
      <trkpt lat="28.016307" lon="98.627074"><time>2026-04-28T23:01:38.521Z</time></trkpt>
      <trkpt lat="28.016307" lon="98.627074"><time>2026-04-28T23:01:38.538Z</time></trkpt>
      <trkpt lat="28.016306" lon="98.627052"><time>2026-04-28T23:01:38.555Z</time></trkpt>
      <trkpt lat="28.016306" lon="98.627052"><time>2026-04-28T23:01:38.571Z</time></trkpt>
      <trkpt lat="28.016306" lon="98.627052"><time>2026-04-28T23:01:38.588Z</time></trkpt>
      <trkpt lat="28.016306" lon="98.627052"><time>2026-04-28T23:01:38.605Z</time></trkpt>
      <trkpt lat="28.016306" lon="98.627052"><time>2026-04-28T23:01:38.621Z</time></trkpt>
      <trkpt lat="28.016306" lon="98.627052"><time>2026-04-28T23:01:38.638Z</time></trkpt>
      <trkpt lat="28.016305" lon="98.627031"><time>2026-04-28T23:01:38.655Z</time></trkpt>
      <trkpt lat="28.016305" lon="98.627031"><time>2026-04-28T23:01:38.671Z</time></trkpt>
      <trkpt lat="28.016305" lon="98.627031"><time>2026-04-28T23:01:38.688Z</time></trkpt>
      <trkpt lat="28.016305" lon="98.627031"><time>2026-04-28T23:01:38.705Z</time></trkpt>
      <trkpt lat="28.016305" lon="98.627031"><time>2026-04-28T23:01:38.721Z</time></trkpt>
      <trkpt lat="28.016305" lon="98.627031"><time>2026-04-28T23:01:38.738Z</time></trkpt>
      <trkpt lat="28.016305" lon="98.62701"><time>2026-04-28T23:01:38.755Z</time></trkpt>
      <trkpt lat="28.016305" lon="98.62701"><time>2026-04-28T23:01:38.772Z</time></trkpt>
      <trkpt lat="28.016305" lon="98.62701"><time>2026-04-28T23:01:38.788Z</time></trkpt>
      <trkpt lat="28.016305" lon="98.62701"><time>2026-04-28T23:01:38.805Z</time></trkpt>
      <trkpt lat="28.016305" lon="98.62701"><time>2026-04-28T23:01:38.822Z</time></trkpt>
      <trkpt lat="28.016305" lon="98.62701"><time>2026-04-28T23:01:38.838Z</time></trkpt>
      <trkpt lat="28.016304" lon="98.626987"><time>2026-04-28T23:01:38.855Z</time></trkpt>
      <trkpt lat="28.016304" lon="98.626987"><time>2026-04-28T23:01:38.872Z</time></trkpt>
      <trkpt lat="28.016304" lon="98.626987"><time>2026-04-28T23:01:38.888Z</time></trkpt>
      <trkpt lat="28.016304" lon="98.626987"><time>2026-04-28T23:01:38.905Z</time></trkpt>
      <trkpt lat="28.016304" lon="98.626987"><time>2026-04-28T23:01:38.922Z</time></trkpt>
      <trkpt lat="28.016304" lon="98.626987"><time>2026-04-28T23:01:38.938Z</time></trkpt>
      <trkpt lat="28.016303" lon="98.626966"><time>2026-04-28T23:01:38.955Z</time></trkpt>
      <trkpt lat="28.016303" lon="98.626966"><time>2026-04-28T23:01:38.972Z</time></trkpt>
      <trkpt lat="28.016303" lon="98.626966"><time>2026-04-28T23:01:38.988Z</time></trkpt>
      <trkpt lat="28.016303" lon="98.626966"><time>2026-04-28T23:01:39.005Z</time></trkpt>
      <trkpt lat="28.016303" lon="98.626966"><time>2026-04-28T23:01:39.022Z</time></trkpt>
      <trkpt lat="28.016303" lon="98.626966"><time>2026-04-28T23:01:39.038Z</time></trkpt>
      <trkpt lat="28.016302" lon="98.626944"><time>2026-04-28T23:01:39.055Z</time></trkpt>
      <trkpt lat="28.016302" lon="98.626944"><time>2026-04-28T23:01:39.072Z</time></trkpt>
      <trkpt lat="28.016302" lon="98.626944"><time>2026-04-28T23:01:39.089Z</time></trkpt>
      <trkpt lat="28.016302" lon="98.626944"><time>2026-04-28T23:01:39.105Z</time></trkpt>
      <trkpt lat="28.016302" lon="98.626944"><time>2026-04-28T23:01:39.122Z</time></trkpt>
      <trkpt lat="28.016302" lon="98.626944"><time>2026-04-28T23:01:39.139Z</time></trkpt>
      <trkpt lat="28.016301" lon="98.626922"><time>2026-04-28T23:01:39.155Z</time></trkpt>
      <trkpt lat="28.016301" lon="98.626922"><time>2026-04-28T23:01:39.172Z</time></trkpt>
      <trkpt lat="28.016301" lon="98.626922"><time>2026-04-28T23:01:39.189Z</time></trkpt>
      <trkpt lat="28.016301" lon="98.626922"><time>2026-04-28T23:01:39.205Z</time></trkpt>
      <trkpt lat="28.016301" lon="98.626922"><time>2026-04-28T23:01:39.222Z</time></trkpt>
      <trkpt lat="28.016301" lon="98.626922"><time>2026-04-28T23:01:39.239Z</time></trkpt>
      <trkpt lat="28.0163" lon="98.6269"><time>2026-04-28T23:01:39.255Z</time></trkpt>
      <trkpt lat="28.0163" lon="98.6269"><time>2026-04-28T23:01:39.272Z</time></trkpt>
      <trkpt lat="28.0163" lon="98.6269"><time>2026-04-28T23:01:39.289Z</time></trkpt>
      <trkpt lat="28.0163" lon="98.6269"><time>2026-04-28T23:01:39.305Z</time></trkpt>
      <trkpt lat="28.0163" lon="98.6269"><time>2026-04-28T23:01:39.322Z</time></trkpt>
      <trkpt lat="28.0163" lon="98.6269"><time>2026-04-28T23:01:39.339Z</time></trkpt>
      <trkpt lat="28.016299" lon="98.626879"><time>2026-04-28T23:01:39.355Z</time></trkpt>
      <trkpt lat="28.016299" lon="98.626879"><time>2026-04-28T23:01:39.372Z</time></trkpt>
      <trkpt lat="28.016299" lon="98.626879"><time>2026-04-28T23:01:39.389Z</time></trkpt>
      <trkpt lat="28.016299" lon="98.626879"><time>2026-04-28T23:01:39.406Z</time></trkpt>
      <trkpt lat="28.016299" lon="98.626879"><time>2026-04-28T23:01:39.422Z</time></trkpt>
      <trkpt lat="28.016299" lon="98.626879"><time>2026-04-28T23:01:39.439Z</time></trkpt>
      <trkpt lat="28.016298" lon="98.626857"><time>2026-04-28T23:01:39.456Z</time></trkpt>
      <trkpt lat="28.016298" lon="98.626857"><time>2026-04-28T23:01:39.472Z</time></trkpt>
      <trkpt lat="28.016298" lon="98.626857"><time>2026-04-28T23:01:39.489Z</time></trkpt>
      <trkpt lat="28.016298" lon="98.626857"><time>2026-04-28T23:01:39.506Z</time></trkpt>
      <trkpt lat="28.016298" lon="98.626857"><time>2026-04-28T23:01:39.522Z</time></trkpt>
      <trkpt lat="28.016298" lon="98.626857"><time>2026-04-28T23:01:39.539Z</time></trkpt>
      <trkpt lat="28.016297" lon="98.626835"><time>2026-04-28T23:01:39.556Z</time></trkpt>
      <trkpt lat="28.016297" lon="98.626835"><time>2026-04-28T23:01:39.572Z</time></trkpt>
      <trkpt lat="28.016297" lon="98.626835"><time>2026-04-28T23:01:39.589Z</time></trkpt>
      <trkpt lat="28.016297" lon="98.626835"><time>2026-04-28T23:01:39.606Z</time></trkpt>
      <trkpt lat="28.016297" lon="98.626835"><time>2026-04-28T23:01:39.622Z</time></trkpt>
      <trkpt lat="28.016297" lon="98.626835"><time>2026-04-28T23:01:39.639Z</time></trkpt>
      <trkpt lat="28.016296" lon="98.626813"><time>2026-04-28T23:01:39.656Z</time></trkpt>
      <trkpt lat="28.016296" lon="98.626813"><time>2026-04-28T23:01:39.672Z</time></trkpt>
      <trkpt lat="28.016296" lon="98.626813"><time>2026-04-28T23:01:39.689Z</time></trkpt>
      <trkpt lat="28.016296" lon="98.626813"><time>2026-04-28T23:01:39.706Z</time></trkpt>
      <trkpt lat="28.016296" lon="98.626813"><time>2026-04-28T23:01:39.723Z</time></trkpt>
      <trkpt lat="28.016296" lon="98.626813"><time>2026-04-28T23:01:39.739Z</time></trkpt>
      <trkpt lat="28.016295" lon="98.626791"><time>2026-04-28T23:01:39.756Z</time></trkpt>
      <trkpt lat="28.016295" lon="98.626791"><time>2026-04-28T23:01:39.773Z</time></trkpt>
      <trkpt lat="28.016295" lon="98.626791"><time>2026-04-28T23:01:39.789Z</time></trkpt>
      <trkpt lat="28.016295" lon="98.626791"><time>2026-04-28T23:01:39.806Z</time></trkpt>
      <trkpt lat="28.016295" lon="98.626791"><time>2026-04-28T23:01:39.823Z</time></trkpt>
      <trkpt lat="28.016295" lon="98.626791"><time>2026-04-28T23:01:39.839Z</time></trkpt>
      <trkpt lat="28.016294" lon="98.62677"><time>2026-04-28T23:01:39.856Z</time></trkpt>
      <trkpt lat="28.016294" lon="98.62677"><time>2026-04-28T23:01:39.873Z</time></trkpt>
      <trkpt lat="28.016294" lon="98.62677"><time>2026-04-28T23:01:39.889Z</time></trkpt>
      <trkpt lat="28.016294" lon="98.62677"><time>2026-04-28T23:01:39.906Z</time></trkpt>
      <trkpt lat="28.016294" lon="98.62677"><time>2026-04-28T23:01:39.923Z</time></trkpt>
      <trkpt lat="28.016294" lon="98.62677"><time>2026-04-28T23:01:39.939Z</time></trkpt>
      <trkpt lat="28.016293" lon="98.626748"><time>2026-04-28T23:01:39.956Z</time></trkpt>
      <trkpt lat="28.016293" lon="98.626748"><time>2026-04-28T23:01:39.973Z</time></trkpt>
      <trkpt lat="28.016293" lon="98.626748"><time>2026-04-28T23:01:39.989Z</time></trkpt>
      <trkpt lat="28.016293" lon="98.626748"><time>2026-04-28T23:01:40.006Z</time></trkpt>
      <trkpt lat="28.016293" lon="98.626748"><time>2026-04-28T23:01:40.023Z</time></trkpt>
      <trkpt lat="28.016293" lon="98.626748"><time>2026-04-28T23:01:40.040Z</time></trkpt>
      <trkpt lat="28.016293" lon="98.626726"><time>2026-04-28T23:01:40.056Z</time></trkpt>
      <trkpt lat="28.016293" lon="98.626726"><time>2026-04-28T23:01:40.073Z</time></trkpt>
      <trkpt lat="28.016293" lon="98.626726"><time>2026-04-28T23:01:40.090Z</time></trkpt>
      <trkpt lat="28.016293" lon="98.626726"><time>2026-04-28T23:01:40.106Z</time></trkpt>
      <trkpt lat="28.016293" lon="98.626726"><time>2026-04-28T23:01:40.123Z</time></trkpt>
      <trkpt lat="28.016293" lon="98.626726"><time>2026-04-28T23:01:40.140Z</time></trkpt>
      <trkpt lat="28.016292" lon="98.626704"><time>2026-04-28T23:01:40.156Z</time></trkpt>
      <trkpt lat="28.016292" lon="98.626704"><time>2026-04-28T23:01:40.173Z</time></trkpt>
      <trkpt lat="28.016292" lon="98.626704"><time>2026-04-28T23:01:40.190Z</time></trkpt>
      <trkpt lat="28.016292" lon="98.626704"><time>2026-04-28T23:01:40.206Z</time></trkpt>
      <trkpt lat="28.016292" lon="98.626704"><time>2026-04-28T23:01:40.223Z</time></trkpt>
      <trkpt lat="28.016292" lon="98.626704"><time>2026-04-28T23:01:40.240Z</time></trkpt>
      <trkpt lat="28.016291" lon="98.626682"><time>2026-04-28T23:01:40.256Z</time></trkpt>
      <trkpt lat="28.016291" lon="98.626682"><time>2026-04-28T23:01:40.273Z</time></trkpt>
      <trkpt lat="28.016291" lon="98.626682"><time>2026-04-28T23:01:40.290Z</time></trkpt>
      <trkpt lat="28.016291" lon="98.626682"><time>2026-04-28T23:01:40.306Z</time></trkpt>
      <trkpt lat="28.016291" lon="98.626682"><time>2026-04-28T23:01:40.323Z</time></trkpt>
      <trkpt lat="28.016291" lon="98.626682"><time>2026-04-28T23:01:40.340Z</time></trkpt>
      <trkpt lat="28.016291" lon="98.62666"><time>2026-04-28T23:01:40.357Z</time></trkpt>
      <trkpt lat="28.016291" lon="98.62666"><time>2026-04-28T23:01:40.373Z</time></trkpt>
      <trkpt lat="28.016291" lon="98.62666"><time>2026-04-28T23:01:40.390Z</time></trkpt>
      <trkpt lat="28.016291" lon="98.62666"><time>2026-04-28T23:01:40.407Z</time></trkpt>
      <trkpt lat="28.016291" lon="98.62666"><time>2026-04-28T23:01:40.423Z</time></trkpt>
      <trkpt lat="28.016291" lon="98.62666"><time>2026-04-28T23:01:40.440Z</time></trkpt>
      <trkpt lat="28.01629" lon="98.626638"><time>2026-04-28T23:01:40.457Z</time></trkpt>
      <trkpt lat="28.01629" lon="98.626638"><time>2026-04-28T23:01:40.473Z</time></trkpt>
      <trkpt lat="28.01629" lon="98.626638"><time>2026-04-28T23:01:40.490Z</time></trkpt>
      <trkpt lat="28.01629" lon="98.626638"><time>2026-04-28T23:01:40.507Z</time></trkpt>
      <trkpt lat="28.01629" lon="98.626638"><time>2026-04-28T23:01:40.523Z</time></trkpt>
      <trkpt lat="28.01629" lon="98.626638"><time>2026-04-28T23:01:40.540Z</time></trkpt>
      <trkpt lat="28.016289" lon="98.626616"><time>2026-04-28T23:01:40.557Z</time></trkpt>
      <trkpt lat="28.016289" lon="98.626616"><time>2026-04-28T23:01:40.573Z</time></trkpt>
      <trkpt lat="28.016289" lon="98.626616"><time>2026-04-28T23:01:40.590Z</time></trkpt>
      <trkpt lat="28.016289" lon="98.626616"><time>2026-04-28T23:01:40.607Z</time></trkpt>
      <trkpt lat="28.016289" lon="98.626616"><time>2026-04-28T23:01:40.623Z</time></trkpt>
      <trkpt lat="28.016289" lon="98.626616"><time>2026-04-28T23:01:40.640Z</time></trkpt>
      <trkpt lat="28.016288" lon="98.626594"><time>2026-04-28T23:01:40.657Z</time></trkpt>
      <trkpt lat="28.016288" lon="98.626594"><time>2026-04-28T23:01:40.674Z</time></trkpt>
      <trkpt lat="28.016288" lon="98.626594"><time>2026-04-28T23:01:40.690Z</time></trkpt>
      <trkpt lat="28.016288" lon="98.626594"><time>2026-04-28T23:01:40.707Z</time></trkpt>
      <trkpt lat="28.016288" lon="98.626594"><time>2026-04-28T23:01:40.724Z</time></trkpt>
      <trkpt lat="28.016288" lon="98.626594"><time>2026-04-28T23:01:40.740Z</time></trkpt>
      <trkpt lat="28.016287" lon="98.626572"><time>2026-04-28T23:01:40.757Z</time></trkpt>
      <trkpt lat="28.016287" lon="98.626572"><time>2026-04-28T23:01:40.774Z</time></trkpt>
      <trkpt lat="28.016287" lon="98.626572"><time>2026-04-28T23:01:40.790Z</time></trkpt>
      <trkpt lat="28.016287" lon="98.626572"><time>2026-04-28T23:01:40.807Z</time></trkpt>
      <trkpt lat="28.016287" lon="98.626572"><time>2026-04-28T23:01:40.824Z</time></trkpt>
      <trkpt lat="28.016287" lon="98.626572"><time>2026-04-28T23:01:40.840Z</time></trkpt>
      <trkpt lat="28.016287" lon="98.626551"><time>2026-04-28T23:01:40.857Z</time></trkpt>
      <trkpt lat="28.016287" lon="98.626551"><time>2026-04-28T23:01:40.874Z</time></trkpt>
      <trkpt lat="28.016287" lon="98.626551"><time>2026-04-28T23:01:40.890Z</time></trkpt>
      <trkpt lat="28.016287" lon="98.626551"><time>2026-04-28T23:01:40.907Z</time></trkpt>
      <trkpt lat="28.016287" lon="98.626551"><time>2026-04-28T23:01:40.924Z</time></trkpt>
      <trkpt lat="28.016287" lon="98.626551"><time>2026-04-28T23:01:40.940Z</time></trkpt>
      <trkpt lat="28.016286" lon="98.626528"><time>2026-04-28T23:01:40.957Z</time></trkpt>
      <trkpt lat="28.016286" lon="98.626528"><time>2026-04-28T23:01:40.974Z</time></trkpt>
      <trkpt lat="28.016286" lon="98.626528"><time>2026-04-28T23:01:40.991Z</time></trkpt>
      <trkpt lat="28.016286" lon="98.626528"><time>2026-04-28T23:01:41.007Z</time></trkpt>
      <trkpt lat="28.016286" lon="98.626528"><time>2026-04-28T23:01:41.024Z</time></trkpt>
      <trkpt lat="28.016286" lon="98.626528"><time>2026-04-28T23:01:41.041Z</time></trkpt>
      <trkpt lat="28.016285" lon="98.626506"><time>2026-04-28T23:01:41.057Z</time></trkpt>
      <trkpt lat="28.016285" lon="98.626506"><time>2026-04-28T23:01:41.074Z</time></trkpt>
      <trkpt lat="28.016285" lon="98.626506"><time>2026-04-28T23:01:41.091Z</time></trkpt>
      <trkpt lat="28.016285" lon="98.626506"><time>2026-04-28T23:01:41.107Z</time></trkpt>
      <trkpt lat="28.016285" lon="98.626506"><time>2026-04-28T23:01:41.124Z</time></trkpt>
      <trkpt lat="28.016285" lon="98.626506"><time>2026-04-28T23:01:41.141Z</time></trkpt>
      <trkpt lat="28.016284" lon="98.626485"><time>2026-04-28T23:01:41.157Z</time></trkpt>
      <trkpt lat="28.016284" lon="98.626485"><time>2026-04-28T23:01:41.174Z</time></trkpt>
      <trkpt lat="28.016284" lon="98.626485"><time>2026-04-28T23:01:41.191Z</time></trkpt>
      <trkpt lat="28.016284" lon="98.626485"><time>2026-04-28T23:01:41.207Z</time></trkpt>
      <trkpt lat="28.016284" lon="98.626485"><time>2026-04-28T23:01:41.224Z</time></trkpt>
      <trkpt lat="28.016284" lon="98.626485"><time>2026-04-28T23:01:41.241Z</time></trkpt>
      <trkpt lat="28.016282" lon="98.626464"><time>2026-04-28T23:01:41.257Z</time></trkpt>
      <trkpt lat="28.016282" lon="98.626464"><time>2026-04-28T23:01:41.274Z</time></trkpt>
      <trkpt lat="28.016282" lon="98.626464"><time>2026-04-28T23:01:41.291Z</time></trkpt>
      <trkpt lat="28.016282" lon="98.626464"><time>2026-04-28T23:01:41.307Z</time></trkpt>
      <trkpt lat="28.016282" lon="98.626464"><time>2026-04-28T23:01:41.324Z</time></trkpt>
      <trkpt lat="28.016282" lon="98.626464"><time>2026-04-28T23:01:41.341Z</time></trkpt>
      <trkpt lat="28.016281" lon="98.626441"><time>2026-04-28T23:01:41.358Z</time></trkpt>
      <trkpt lat="28.016281" lon="98.626441"><time>2026-04-28T23:01:41.374Z</time></trkpt>
      <trkpt lat="28.016281" lon="98.626441"><time>2026-04-28T23:01:41.391Z</time></trkpt>
      <trkpt lat="28.016281" lon="98.626441"><time>2026-04-28T23:01:41.408Z</time></trkpt>
      <trkpt lat="28.016281" lon="98.626441"><time>2026-04-28T23:01:41.424Z</time></trkpt>
      <trkpt lat="28.016281" lon="98.626441"><time>2026-04-28T23:01:41.441Z</time></trkpt>
      <trkpt lat="28.01628" lon="98.626419"><time>2026-04-28T23:01:41.458Z</time></trkpt>
      <trkpt lat="28.01628" lon="98.626419"><time>2026-04-28T23:01:41.474Z</time></trkpt>
      <trkpt lat="28.01628" lon="98.626419"><time>2026-04-28T23:01:41.491Z</time></trkpt>
      <trkpt lat="28.01628" lon="98.626419"><time>2026-04-28T23:01:41.508Z</time></trkpt>
      <trkpt lat="28.01628" lon="98.626419"><time>2026-04-28T23:01:41.524Z</time></trkpt>
      <trkpt lat="28.01628" lon="98.626419"><time>2026-04-28T23:01:41.541Z</time></trkpt>
      <trkpt lat="28.016278" lon="98.626397"><time>2026-04-28T23:01:41.558Z</time></trkpt>
      <trkpt lat="28.016278" lon="98.626397"><time>2026-04-28T23:01:41.574Z</time></trkpt>
      <trkpt lat="28.016278" lon="98.626397"><time>2026-04-28T23:01:41.591Z</time></trkpt>
      <trkpt lat="28.016278" lon="98.626397"><time>2026-04-28T23:01:41.608Z</time></trkpt>
      <trkpt lat="28.016278" lon="98.626397"><time>2026-04-28T23:01:41.624Z</time></trkpt>
      <trkpt lat="28.016278" lon="98.626397"><time>2026-04-28T23:01:41.641Z</time></trkpt>
      <trkpt lat="28.016277" lon="98.626375"><time>2026-04-28T23:01:41.658Z</time></trkpt>
      <trkpt lat="28.016277" lon="98.626375"><time>2026-04-28T23:01:41.675Z</time></trkpt>
      <trkpt lat="28.016277" lon="98.626375"><time>2026-04-28T23:01:41.691Z</time></trkpt>
      <trkpt lat="28.016277" lon="98.626375"><time>2026-04-28T23:01:41.708Z</time></trkpt>
      <trkpt lat="28.016277" lon="98.626375"><time>2026-04-28T23:01:41.725Z</time></trkpt>
      <trkpt lat="28.016277" lon="98.626375"><time>2026-04-28T23:01:41.741Z</time></trkpt>
      <trkpt lat="28.016276" lon="98.626354"><time>2026-04-28T23:01:41.758Z</time></trkpt>
      <trkpt lat="28.016276" lon="98.626354"><time>2026-04-28T23:01:41.775Z</time></trkpt>
      <trkpt lat="28.016276" lon="98.626354"><time>2026-04-28T23:01:41.791Z</time></trkpt>
      <trkpt lat="28.016276" lon="98.626354"><time>2026-04-28T23:01:41.808Z</time></trkpt>
      <trkpt lat="28.016276" lon="98.626354"><time>2026-04-28T23:01:41.825Z</time></trkpt>
      <trkpt lat="28.016276" lon="98.626354"><time>2026-04-28T23:01:41.841Z</time></trkpt>
      <trkpt lat="28.016275" lon="98.626332"><time>2026-04-28T23:01:41.858Z</time></trkpt>
      <trkpt lat="28.016275" lon="98.626332"><time>2026-04-28T23:01:41.875Z</time></trkpt>
      <trkpt lat="28.016275" lon="98.626332"><time>2026-04-28T23:01:41.891Z</time></trkpt>
      <trkpt lat="28.016275" lon="98.626332"><time>2026-04-28T23:01:41.908Z</time></trkpt>
      <trkpt lat="28.016275" lon="98.626332"><time>2026-04-28T23:01:41.925Z</time></trkpt>
      <trkpt lat="28.016275" lon="98.626332"><time>2026-04-28T23:01:41.941Z</time></trkpt>
      <trkpt lat="28.016274" lon="98.62631"><time>2026-04-28T23:01:41.958Z</time></trkpt>
      <trkpt lat="28.016274" lon="98.62631"><time>2026-04-28T23:01:41.975Z</time></trkpt>
      <trkpt lat="28.016274" lon="98.62631"><time>2026-04-28T23:01:41.992Z</time></trkpt>
      <trkpt lat="28.016274" lon="98.62631"><time>2026-04-28T23:01:42.008Z</time></trkpt>
      <trkpt lat="28.016274" lon="98.62631"><time>2026-04-28T23:01:42.025Z</time></trkpt>
      <trkpt lat="28.016274" lon="98.62631"><time>2026-04-28T23:01:42.042Z</time></trkpt>
      <trkpt lat="28.016274" lon="98.626288"><time>2026-04-28T23:01:42.058Z</time></trkpt>
      <trkpt lat="28.016274" lon="98.626288"><time>2026-04-28T23:01:42.075Z</time></trkpt>
      <trkpt lat="28.016274" lon="98.626288"><time>2026-04-28T23:01:42.092Z</time></trkpt>
      <trkpt lat="28.016274" lon="98.626288"><time>2026-04-28T23:01:42.108Z</time></trkpt>
      <trkpt lat="28.016274" lon="98.626288"><time>2026-04-28T23:01:42.125Z</time></trkpt>
      <trkpt lat="28.016274" lon="98.626288"><time>2026-04-28T23:01:42.142Z</time></trkpt>
      <trkpt lat="28.016273" lon="98.626267"><time>2026-04-28T23:01:42.158Z</time></trkpt>
      <trkpt lat="28.016273" lon="98.626267"><time>2026-04-28T23:01:42.175Z</time></trkpt>
      <trkpt lat="28.016273" lon="98.626267"><time>2026-04-28T23:01:42.192Z</time></trkpt>
      <trkpt lat="28.016273" lon="98.626267"><time>2026-04-28T23:01:42.208Z</time></trkpt>
      <trkpt lat="28.016273" lon="98.626267"><time>2026-04-28T23:01:42.225Z</time></trkpt>
      <trkpt lat="28.016273" lon="98.626267"><time>2026-04-28T23:01:42.242Z</time></trkpt>
      <trkpt lat="28.016272" lon="98.626244"><time>2026-04-28T23:01:42.258Z</time></trkpt>
      <trkpt lat="28.016272" lon="98.626244"><time>2026-04-28T23:01:42.275Z</time></trkpt>
      <trkpt lat="28.016272" lon="98.626244"><time>2026-04-28T23:01:42.292Z</time></trkpt>
      <trkpt lat="28.016272" lon="98.626244"><time>2026-04-28T23:01:42.309Z</time></trkpt>
      <trkpt lat="28.016272" lon="98.626244"><time>2026-04-28T23:01:42.325Z</time></trkpt>
      <trkpt lat="28.016272" lon="98.626244"><time>2026-04-28T23:01:42.342Z</time></trkpt>
      <trkpt lat="28.016271" lon="98.626223"><time>2026-04-28T23:01:42.359Z</time></trkpt>
      <trkpt lat="28.016271" lon="98.626223"><time>2026-04-28T23:01:42.375Z</time></trkpt>
      <trkpt lat="28.016271" lon="98.626223"><time>2026-04-28T23:01:42.392Z</time></trkpt>
      <trkpt lat="28.016271" lon="98.626223"><time>2026-04-28T23:01:42.409Z</time></trkpt>
      <trkpt lat="28.016271" lon="98.626223"><time>2026-04-28T23:01:42.425Z</time></trkpt>
      <trkpt lat="28.016271" lon="98.626223"><time>2026-04-28T23:01:42.442Z</time></trkpt>
      <trkpt lat="28.01627" lon="98.626201"><time>2026-04-28T23:01:42.459Z</time></trkpt>
      <trkpt lat="28.01627" lon="98.626201"><time>2026-04-28T23:01:42.475Z</time></trkpt>
      <trkpt lat="28.01627" lon="98.626201"><time>2026-04-28T23:01:42.492Z</time></trkpt>
      <trkpt lat="28.01627" lon="98.626201"><time>2026-04-28T23:01:42.509Z</time></trkpt>
      <trkpt lat="28.01627" lon="98.626201"><time>2026-04-28T23:01:42.525Z</time></trkpt>
      <trkpt lat="28.01627" lon="98.626201"><time>2026-04-28T23:01:42.542Z</time></trkpt>
      <trkpt lat="28.016269" lon="98.626179"><time>2026-04-28T23:01:42.559Z</time></trkpt>
      <trkpt lat="28.016269" lon="98.626179"><time>2026-04-28T23:01:42.575Z</time></trkpt>
      <trkpt lat="28.016269" lon="98.626179"><time>2026-04-28T23:01:42.592Z</time></trkpt>
      <trkpt lat="28.016269" lon="98.626179"><time>2026-04-28T23:01:42.609Z</time></trkpt>
      <trkpt lat="28.016269" lon="98.626179"><time>2026-04-28T23:01:42.626Z</time></trkpt>
      <trkpt lat="28.016269" lon="98.626179"><time>2026-04-28T23:01:42.642Z</time></trkpt>
      <trkpt lat="28.016269" lon="98.626157"><time>2026-04-28T23:01:42.659Z</time></trkpt>
      <trkpt lat="28.016269" lon="98.626157"><time>2026-04-28T23:01:42.676Z</time></trkpt>
      <trkpt lat="28.016269" lon="98.626157"><time>2026-04-28T23:01:42.692Z</time></trkpt>
      <trkpt lat="28.016269" lon="98.626157"><time>2026-04-28T23:01:42.709Z</time></trkpt>
      <trkpt lat="28.016269" lon="98.626157"><time>2026-04-28T23:01:42.726Z</time></trkpt>
      <trkpt lat="28.016269" lon="98.626157"><time>2026-04-28T23:01:42.742Z</time></trkpt>
      <trkpt lat="28.016268" lon="98.626135"><time>2026-04-28T23:01:42.759Z</time></trkpt>
      <trkpt lat="28.016268" lon="98.626135"><time>2026-04-28T23:01:42.776Z</time></trkpt>
      <trkpt lat="28.016268" lon="98.626135"><time>2026-04-28T23:01:42.792Z</time></trkpt>
      <trkpt lat="28.016268" lon="98.626135"><time>2026-04-28T23:01:42.809Z</time></trkpt>
      <trkpt lat="28.016268" lon="98.626135"><time>2026-04-28T23:01:42.826Z</time></trkpt>
      <trkpt lat="28.016268" lon="98.626135"><time>2026-04-28T23:01:42.842Z</time></trkpt>
      <trkpt lat="28.016267" lon="98.626114"><time>2026-04-28T23:01:42.859Z</time></trkpt>
      <trkpt lat="28.016267" lon="98.626114"><time>2026-04-28T23:01:42.876Z</time></trkpt>
      <trkpt lat="28.016267" lon="98.626114"><time>2026-04-28T23:01:42.892Z</time></trkpt>
      <trkpt lat="28.016267" lon="98.626114"><time>2026-04-28T23:01:42.909Z</time></trkpt>
      <trkpt lat="28.016267" lon="98.626114"><time>2026-04-28T23:01:42.926Z</time></trkpt>
      <trkpt lat="28.016267" lon="98.626114"><time>2026-04-28T23:01:42.943Z</time></trkpt>
      <trkpt lat="28.016266" lon="98.626092"><time>2026-04-28T23:01:42.959Z</time></trkpt>
      <trkpt lat="28.016266" lon="98.626092"><time>2026-04-28T23:01:42.976Z</time></trkpt>
      <trkpt lat="28.016266" lon="98.626092"><time>2026-04-28T23:01:42.993Z</time></trkpt>
      <trkpt lat="28.016266" lon="98.626092"><time>2026-04-28T23:01:43.009Z</time></trkpt>
      <trkpt lat="28.016266" lon="98.626092"><time>2026-04-28T23:01:43.026Z</time></trkpt>
      <trkpt lat="28.016266" lon="98.626092"><time>2026-04-28T23:01:43.043Z</time></trkpt>
      <trkpt lat="28.016265" lon="98.62607"><time>2026-04-28T23:01:43.059Z</time></trkpt>
      <trkpt lat="28.016265" lon="98.62607"><time>2026-04-28T23:01:43.076Z</time></trkpt>
      <trkpt lat="28.016265" lon="98.62607"><time>2026-04-28T23:01:43.093Z</time></trkpt>
      <trkpt lat="28.016265" lon="98.62607"><time>2026-04-28T23:01:43.109Z</time></trkpt>
      <trkpt lat="28.016265" lon="98.62607"><time>2026-04-28T23:01:43.126Z</time></trkpt>
      <trkpt lat="28.016265" lon="98.62607"><time>2026-04-28T23:01:43.143Z</time></trkpt>
      <trkpt lat="28.016264" lon="98.626049"><time>2026-04-28T23:01:43.159Z</time></trkpt>
      <trkpt lat="28.016264" lon="98.626049"><time>2026-04-28T23:01:43.176Z</time></trkpt>
      <trkpt lat="28.016264" lon="98.626049"><time>2026-04-28T23:01:43.193Z</time></trkpt>
      <trkpt lat="28.016264" lon="98.626049"><time>2026-04-28T23:01:43.209Z</time></trkpt>
      <trkpt lat="28.016264" lon="98.626049"><time>2026-04-28T23:01:43.226Z</time></trkpt>
      <trkpt lat="28.016264" lon="98.626049"><time>2026-04-28T23:01:43.243Z</time></trkpt>
      <trkpt lat="28.016263" lon="98.626027"><time>2026-04-28T23:01:43.260Z</time></trkpt>
      <trkpt lat="28.016263" lon="98.626027"><time>2026-04-28T23:01:43.276Z</time></trkpt>
      <trkpt lat="28.016263" lon="98.626027"><time>2026-04-28T23:01:43.293Z</time></trkpt>
      <trkpt lat="28.016263" lon="98.626027"><time>2026-04-28T23:01:43.310Z</time></trkpt>
      <trkpt lat="28.016263" lon="98.626027"><time>2026-04-28T23:01:43.326Z</time></trkpt>
      <trkpt lat="28.016263" lon="98.626027"><time>2026-04-28T23:01:43.343Z</time></trkpt>
      <trkpt lat="28.016263" lon="98.626005"><time>2026-04-28T23:01:43.360Z</time></trkpt>
      <trkpt lat="28.016263" lon="98.626005"><time>2026-04-28T23:01:43.376Z</time></trkpt>
      <trkpt lat="28.016263" lon="98.626005"><time>2026-04-28T23:01:43.393Z</time></trkpt>
      <trkpt lat="28.016263" lon="98.626005"><time>2026-04-28T23:01:43.410Z</time></trkpt>
      <trkpt lat="28.016263" lon="98.626005"><time>2026-04-28T23:01:43.426Z</time></trkpt>
      <trkpt lat="28.016263" lon="98.626005"><time>2026-04-28T23:01:43.443Z</time></trkpt>
      <trkpt lat="28.016262" lon="98.625985"><time>2026-04-28T23:01:43.460Z</time></trkpt>
      <trkpt lat="28.016262" lon="98.625985"><time>2026-04-28T23:01:43.476Z</time></trkpt>
      <trkpt lat="28.016262" lon="98.625985"><time>2026-04-28T23:01:43.493Z</time></trkpt>
      <trkpt lat="28.016262" lon="98.625985"><time>2026-04-28T23:01:43.510Z</time></trkpt>
      <trkpt lat="28.016262" lon="98.625985"><time>2026-04-28T23:01:43.526Z</time></trkpt>
      <trkpt lat="28.016262" lon="98.625985"><time>2026-04-28T23:01:43.543Z</time></trkpt>
      <trkpt lat="28.016261" lon="98.625962"><time>2026-04-28T23:01:43.560Z</time></trkpt>
      <trkpt lat="28.016261" lon="98.625962"><time>2026-04-28T23:01:43.577Z</time></trkpt>
      <trkpt lat="28.016261" lon="98.625962"><time>2026-04-28T23:01:43.593Z</time></trkpt>
      <trkpt lat="28.016261" lon="98.625962"><time>2026-04-28T23:01:43.610Z</time></trkpt>
      <trkpt lat="28.016261" lon="98.625962"><time>2026-04-28T23:01:43.627Z</time></trkpt>
      <trkpt lat="28.016261" lon="98.625962"><time>2026-04-28T23:01:43.643Z</time></trkpt>
      <trkpt lat="28.01626" lon="98.625941"><time>2026-04-28T23:01:43.660Z</time></trkpt>
      <trkpt lat="28.01626" lon="98.625941"><time>2026-04-28T23:01:43.677Z</time></trkpt>
      <trkpt lat="28.01626" lon="98.625941"><time>2026-04-28T23:01:43.693Z</time></trkpt>
      <trkpt lat="28.01626" lon="98.625941"><time>2026-04-28T23:01:43.710Z</time></trkpt>
      <trkpt lat="28.01626" lon="98.625941"><time>2026-04-28T23:01:43.727Z</time></trkpt>
      <trkpt lat="28.01626" lon="98.625941"><time>2026-04-28T23:01:43.743Z</time></trkpt>
      <trkpt lat="28.016259" lon="98.625919"><time>2026-04-28T23:01:43.760Z</time></trkpt>
      <trkpt lat="28.016259" lon="98.625919"><time>2026-04-28T23:01:43.777Z</time></trkpt>
      <trkpt lat="28.016259" lon="98.625919"><time>2026-04-28T23:01:43.793Z</time></trkpt>
      <trkpt lat="28.016259" lon="98.625919"><time>2026-04-28T23:01:43.810Z</time></trkpt>
      <trkpt lat="28.016259" lon="98.625919"><time>2026-04-28T23:01:43.827Z</time></trkpt>
      <trkpt lat="28.016259" lon="98.625919"><time>2026-04-28T23:01:43.843Z</time></trkpt>
      <trkpt lat="28.016258" lon="98.625897"><time>2026-04-28T23:01:43.860Z</time></trkpt>
      <trkpt lat="28.016258" lon="98.625897"><time>2026-04-28T23:01:43.877Z</time></trkpt>
      <trkpt lat="28.016258" lon="98.625897"><time>2026-04-28T23:01:43.894Z</time></trkpt>
      <trkpt lat="28.016258" lon="98.625897"><time>2026-04-28T23:01:43.910Z</time></trkpt>
      <trkpt lat="28.016258" lon="98.625897"><time>2026-04-28T23:01:43.927Z</time></trkpt>
      <trkpt lat="28.016258" lon="98.625897"><time>2026-04-28T23:01:43.944Z</time></trkpt>
      <trkpt lat="28.016258" lon="98.625876"><time>2026-04-28T23:01:43.960Z</time></trkpt>
      <trkpt lat="28.016258" lon="98.625876"><time>2026-04-28T23:01:43.977Z</time></trkpt>
      <trkpt lat="28.016258" lon="98.625876"><time>2026-04-28T23:01:43.994Z</time></trkpt>
      <trkpt lat="28.016258" lon="98.625876"><time>2026-04-28T23:01:44.010Z</time></trkpt>
      <trkpt lat="28.016258" lon="98.625876"><time>2026-04-28T23:01:44.027Z</time></trkpt>
      <trkpt lat="28.016258" lon="98.625876"><time>2026-04-28T23:01:44.044Z</time></trkpt>
      <trkpt lat="28.016257" lon="98.625855"><time>2026-04-28T23:01:44.060Z</time></trkpt>
      <trkpt lat="28.016257" lon="98.625855"><time>2026-04-28T23:01:44.077Z</time></trkpt>
      <trkpt lat="28.016257" lon="98.625855"><time>2026-04-28T23:01:44.094Z</time></trkpt>
      <trkpt lat="28.016257" lon="98.625855"><time>2026-04-28T23:01:44.110Z</time></trkpt>
      <trkpt lat="28.016257" lon="98.625855"><time>2026-04-28T23:01:44.127Z</time></trkpt>
      <trkpt lat="28.016257" lon="98.625855"><time>2026-04-28T23:01:44.144Z</time></trkpt>
      <trkpt lat="28.016256" lon="98.625833"><time>2026-04-28T23:01:44.160Z</time></trkpt>
      <trkpt lat="28.016256" lon="98.625833"><time>2026-04-28T23:01:44.177Z</time></trkpt>
      <trkpt lat="28.016256" lon="98.625833"><time>2026-04-28T23:01:44.194Z</time></trkpt>
      <trkpt lat="28.016256" lon="98.625833"><time>2026-04-28T23:01:44.211Z</time></trkpt>
      <trkpt lat="28.016256" lon="98.625833"><time>2026-04-28T23:01:44.227Z</time></trkpt>
      <trkpt lat="28.016256" lon="98.625833"><time>2026-04-28T23:01:44.244Z</time></trkpt>
      <trkpt lat="28.016255" lon="98.625811"><time>2026-04-28T23:01:44.261Z</time></trkpt>
      <trkpt lat="28.016255" lon="98.625811"><time>2026-04-28T23:01:44.277Z</time></trkpt>
      <trkpt lat="28.016255" lon="98.625811"><time>2026-04-28T23:01:44.294Z</time></trkpt>
      <trkpt lat="28.016255" lon="98.625811"><time>2026-04-28T23:01:44.311Z</time></trkpt>
      <trkpt lat="28.016255" lon="98.625811"><time>2026-04-28T23:01:44.327Z</time></trkpt>
      <trkpt lat="28.016255" lon="98.625811"><time>2026-04-28T23:01:44.344Z</time></trkpt>
      <trkpt lat="28.016254" lon="98.62579"><time>2026-04-28T23:01:44.361Z</time></trkpt>
      <trkpt lat="28.016254" lon="98.62579"><time>2026-04-28T23:01:44.377Z</time></trkpt>
      <trkpt lat="28.016254" lon="98.62579"><time>2026-04-28T23:01:44.394Z</time></trkpt>
      <trkpt lat="28.016254" lon="98.62579"><time>2026-04-28T23:01:44.411Z</time></trkpt>
      <trkpt lat="28.016254" lon="98.62579"><time>2026-04-28T23:01:44.427Z</time></trkpt>
      <trkpt lat="28.016254" lon="98.62579"><time>2026-04-28T23:01:44.444Z</time></trkpt>
      <trkpt lat="28.016253" lon="98.625768"><time>2026-04-28T23:01:44.461Z</time></trkpt>
      <trkpt lat="28.016253" lon="98.625768"><time>2026-04-28T23:01:44.477Z</time></trkpt>
      <trkpt lat="28.016253" lon="98.625768"><time>2026-04-28T23:01:44.494Z</time></trkpt>
      <trkpt lat="28.016253" lon="98.625768"><time>2026-04-28T23:01:44.511Z</time></trkpt>
      <trkpt lat="28.016253" lon="98.625768"><time>2026-04-28T23:01:44.528Z</time></trkpt>
      <trkpt lat="28.016253" lon="98.625768"><time>2026-04-28T23:01:44.544Z</time></trkpt>
      <trkpt lat="28.016253" lon="98.625747"><time>2026-04-28T23:01:44.561Z</time></trkpt>
      <trkpt lat="28.016253" lon="98.625747"><time>2026-04-28T23:01:44.578Z</time></trkpt>
      <trkpt lat="28.016253" lon="98.625747"><time>2026-04-28T23:01:44.594Z</time></trkpt>
      <trkpt lat="28.016253" lon="98.625747"><time>2026-04-28T23:01:44.611Z</time></trkpt>
      <trkpt lat="28.016253" lon="98.625747"><time>2026-04-28T23:01:44.628Z</time></trkpt>
      <trkpt lat="28.016253" lon="98.625747"><time>2026-04-28T23:01:44.644Z</time></trkpt>
      <trkpt lat="28.016252" lon="98.625725"><time>2026-04-28T23:01:44.661Z</time></trkpt>
      <trkpt lat="28.016252" lon="98.625725"><time>2026-04-28T23:01:44.678Z</time></trkpt>
      <trkpt lat="28.016252" lon="98.625725"><time>2026-04-28T23:01:44.694Z</time></trkpt>
      <trkpt lat="28.016252" lon="98.625725"><time>2026-04-28T23:01:44.711Z</time></trkpt>
      <trkpt lat="28.016252" lon="98.625725"><time>2026-04-28T23:01:44.728Z</time></trkpt>
      <trkpt lat="28.016252" lon="98.625725"><time>2026-04-28T23:01:44.744Z</time></trkpt>
      <trkpt lat="28.016251" lon="98.625703"><time>2026-04-28T23:01:44.761Z</time></trkpt>
      <trkpt lat="28.016251" lon="98.625703"><time>2026-04-28T23:01:44.778Z</time></trkpt>
      <trkpt lat="28.016251" lon="98.625703"><time>2026-04-28T23:01:44.794Z</time></trkpt>
      <trkpt lat="28.016251" lon="98.625703"><time>2026-04-28T23:01:44.811Z</time></trkpt>
      <trkpt lat="28.016251" lon="98.625703"><time>2026-04-28T23:01:44.828Z</time></trkpt>
      <trkpt lat="28.016251" lon="98.625703"><time>2026-04-28T23:01:44.845Z</time></trkpt>
      <trkpt lat="28.016251" lon="98.625682"><time>2026-04-28T23:01:44.861Z</time></trkpt>
      <trkpt lat="28.016251" lon="98.625682"><time>2026-04-28T23:01:44.878Z</time></trkpt>
      <trkpt lat="28.016251" lon="98.625682"><time>2026-04-28T23:01:44.895Z</time></trkpt>
      <trkpt lat="28.016251" lon="98.625682"><time>2026-04-28T23:01:44.911Z</time></trkpt>
      <trkpt lat="28.016251" lon="98.625682"><time>2026-04-28T23:01:44.928Z</time></trkpt>
      <trkpt lat="28.016251" lon="98.625682"><time>2026-04-28T23:01:44.945Z</time></trkpt>
      <trkpt lat="28.01625" lon="98.625661"><time>2026-04-28T23:01:44.961Z</time></trkpt>
      <trkpt lat="28.01625" lon="98.625661"><time>2026-04-28T23:01:44.978Z</time></trkpt>
      <trkpt lat="28.01625" lon="98.625661"><time>2026-04-28T23:01:44.995Z</time></trkpt>
      <trkpt lat="28.01625" lon="98.625661"><time>2026-04-28T23:01:45.011Z</time></trkpt>
      <trkpt lat="28.01625" lon="98.625661"><time>2026-04-28T23:01:45.028Z</time></trkpt>
      <trkpt lat="28.01625" lon="98.625661"><time>2026-04-28T23:01:45.045Z</time></trkpt>
      <trkpt lat="28.016249" lon="98.62564"><time>2026-04-28T23:01:45.061Z</time></trkpt>
      <trkpt lat="28.016249" lon="98.62564"><time>2026-04-28T23:01:45.078Z</time></trkpt>
      <trkpt lat="28.016249" lon="98.62564"><time>2026-04-28T23:01:45.095Z</time></trkpt>
      <trkpt lat="28.016249" lon="98.62564"><time>2026-04-28T23:01:45.111Z</time></trkpt>
      <trkpt lat="28.016249" lon="98.62564"><time>2026-04-28T23:01:45.128Z</time></trkpt>
      <trkpt lat="28.016249" lon="98.62564"><time>2026-04-28T23:01:45.145Z</time></trkpt>
      <trkpt lat="28.016249" lon="98.625618"><time>2026-04-28T23:01:45.162Z</time></trkpt>
      <trkpt lat="28.016249" lon="98.625618"><time>2026-04-28T23:01:45.178Z</time></trkpt>
      <trkpt lat="28.016249" lon="98.625618"><time>2026-04-28T23:01:45.195Z</time></trkpt>
      <trkpt lat="28.016249" lon="98.625618"><time>2026-04-28T23:01:45.212Z</time></trkpt>
      <trkpt lat="28.016249" lon="98.625618"><time>2026-04-28T23:01:45.228Z</time></trkpt>
      <trkpt lat="28.016249" lon="98.625618"><time>2026-04-28T23:01:45.245Z</time></trkpt>
      <trkpt lat="28.016248" lon="98.625596"><time>2026-04-28T23:01:45.262Z</time></trkpt>
      <trkpt lat="28.016248" lon="98.625596"><time>2026-04-28T23:01:45.278Z</time></trkpt>
      <trkpt lat="28.016248" lon="98.625596"><time>2026-04-28T23:01:45.295Z</time></trkpt>
      <trkpt lat="28.016248" lon="98.625596"><time>2026-04-28T23:01:45.312Z</time></trkpt>
      <trkpt lat="28.016248" lon="98.625596"><time>2026-04-28T23:01:45.328Z</time></trkpt>
      <trkpt lat="28.016248" lon="98.625596"><time>2026-04-28T23:01:45.345Z</time></trkpt>
      <trkpt lat="28.016247" lon="98.625576"><time>2026-04-28T23:01:45.362Z</time></trkpt>
      <trkpt lat="28.016247" lon="98.625576"><time>2026-04-28T23:01:45.378Z</time></trkpt>
      <trkpt lat="28.016247" lon="98.625576"><time>2026-04-28T23:01:45.395Z</time></trkpt>
      <trkpt lat="28.016247" lon="98.625576"><time>2026-04-28T23:01:45.412Z</time></trkpt>
      <trkpt lat="28.016247" lon="98.625576"><time>2026-04-28T23:01:45.428Z</time></trkpt>
      <trkpt lat="28.016247" lon="98.625576"><time>2026-04-28T23:01:45.445Z</time></trkpt>
      <trkpt lat="28.016247" lon="98.625553"><time>2026-04-28T23:01:45.462Z</time></trkpt>
      <trkpt lat="28.016247" lon="98.625553"><time>2026-04-28T23:01:45.479Z</time></trkpt>
      <trkpt lat="28.016247" lon="98.625553"><time>2026-04-28T23:01:45.495Z</time></trkpt>
      <trkpt lat="28.016247" lon="98.625553"><time>2026-04-28T23:01:45.512Z</time></trkpt>
      <trkpt lat="28.016247" lon="98.625553"><time>2026-04-28T23:01:45.529Z</time></trkpt>
      <trkpt lat="28.016247" lon="98.625553"><time>2026-04-28T23:01:45.545Z</time></trkpt>
      <trkpt lat="28.016246" lon="98.625532"><time>2026-04-28T23:01:45.562Z</time></trkpt>
      <trkpt lat="28.016246" lon="98.625532"><time>2026-04-28T23:01:45.579Z</time></trkpt>
      <trkpt lat="28.016246" lon="98.625532"><time>2026-04-28T23:01:45.595Z</time></trkpt>
      <trkpt lat="28.016246" lon="98.625532"><time>2026-04-28T23:01:45.612Z</time></trkpt>
      <trkpt lat="28.016246" lon="98.625532"><time>2026-04-28T23:01:45.629Z</time></trkpt>
      <trkpt lat="28.016246" lon="98.625532"><time>2026-04-28T23:01:45.645Z</time></trkpt>
      <trkpt lat="28.016245" lon="98.625512"><time>2026-04-28T23:01:45.662Z</time></trkpt>
      <trkpt lat="28.016245" lon="98.625512"><time>2026-04-28T23:01:45.679Z</time></trkpt>
      <trkpt lat="28.016245" lon="98.625512"><time>2026-04-28T23:01:45.695Z</time></trkpt>
      <trkpt lat="28.016245" lon="98.625512"><time>2026-04-28T23:01:45.712Z</time></trkpt>
      <trkpt lat="28.016245" lon="98.625512"><time>2026-04-28T23:01:45.729Z</time></trkpt>
      <trkpt lat="28.016245" lon="98.625512"><time>2026-04-28T23:01:45.745Z</time></trkpt>
      <trkpt lat="28.016245" lon="98.625489"><time>2026-04-28T23:01:45.762Z</time></trkpt>
      <trkpt lat="28.016245" lon="98.625489"><time>2026-04-28T23:01:45.779Z</time></trkpt>
      <trkpt lat="28.016245" lon="98.625489"><time>2026-04-28T23:01:45.796Z</time></trkpt>
      <trkpt lat="28.016245" lon="98.625489"><time>2026-04-28T23:01:45.812Z</time></trkpt>
      <trkpt lat="28.016245" lon="98.625489"><time>2026-04-28T23:01:45.829Z</time></trkpt>
      <trkpt lat="28.016245" lon="98.625489"><time>2026-04-28T23:01:45.846Z</time></trkpt>
      <trkpt lat="28.016244" lon="98.625468"><time>2026-04-28T23:01:45.862Z</time></trkpt>
      <trkpt lat="28.016244" lon="98.625468"><time>2026-04-28T23:01:45.879Z</time></trkpt>
      <trkpt lat="28.016244" lon="98.625468"><time>2026-04-28T23:01:45.896Z</time></trkpt>
      <trkpt lat="28.016244" lon="98.625468"><time>2026-04-28T23:01:45.912Z</time></trkpt>
      <trkpt lat="28.016244" lon="98.625468"><time>2026-04-28T23:01:45.929Z</time></trkpt>
      <trkpt lat="28.016244" lon="98.625468"><time>2026-04-28T23:01:45.946Z</time></trkpt>
      <trkpt lat="28.016243" lon="98.625446"><time>2026-04-28T23:01:45.962Z</time></trkpt>
      <trkpt lat="28.016243" lon="98.625446"><time>2026-04-28T23:01:45.979Z</time></trkpt>
      <trkpt lat="28.016243" lon="98.625446"><time>2026-04-28T23:01:45.996Z</time></trkpt>
      <trkpt lat="28.016243" lon="98.625446"><time>2026-04-28T23:01:46.012Z</time></trkpt>
      <trkpt lat="28.016243" lon="98.625446"><time>2026-04-28T23:01:46.029Z</time></trkpt>
      <trkpt lat="28.016243" lon="98.625446"><time>2026-04-28T23:01:46.046Z</time></trkpt>
      <trkpt lat="28.016242" lon="98.625426"><time>2026-04-28T23:01:46.062Z</time></trkpt>
      <trkpt lat="28.016242" lon="98.625426"><time>2026-04-28T23:01:46.079Z</time></trkpt>
      <trkpt lat="28.016242" lon="98.625426"><time>2026-04-28T23:01:46.096Z</time></trkpt>
      <trkpt lat="28.016242" lon="98.625426"><time>2026-04-28T23:01:46.113Z</time></trkpt>
      <trkpt lat="28.016242" lon="98.625426"><time>2026-04-28T23:01:46.129Z</time></trkpt>
      <trkpt lat="28.016242" lon="98.625426"><time>2026-04-28T23:01:46.146Z</time></trkpt>
      <trkpt lat="28.016241" lon="98.625404"><time>2026-04-28T23:01:46.163Z</time></trkpt>
      <trkpt lat="28.016241" lon="98.625404"><time>2026-04-28T23:01:46.179Z</time></trkpt>
      <trkpt lat="28.016241" lon="98.625404"><time>2026-04-28T23:01:46.196Z</time></trkpt>
      <trkpt lat="28.016241" lon="98.625404"><time>2026-04-28T23:01:46.213Z</time></trkpt>
      <trkpt lat="28.016241" lon="98.625404"><time>2026-04-28T23:01:46.229Z</time></trkpt>
      <trkpt lat="28.016241" lon="98.625404"><time>2026-04-28T23:01:46.246Z</time></trkpt>
      <trkpt lat="28.01624" lon="98.625382"><time>2026-04-28T23:01:46.263Z</time></trkpt>
      <trkpt lat="28.01624" lon="98.625382"><time>2026-04-28T23:01:46.279Z</time></trkpt>
      <trkpt lat="28.01624" lon="98.625382"><time>2026-04-28T23:01:46.296Z</time></trkpt>
      <trkpt lat="28.01624" lon="98.625382"><time>2026-04-28T23:01:46.313Z</time></trkpt>
      <trkpt lat="28.01624" lon="98.625382"><time>2026-04-28T23:01:46.329Z</time></trkpt>
      <trkpt lat="28.01624" lon="98.625382"><time>2026-04-28T23:01:46.346Z</time></trkpt>
      <trkpt lat="28.01624" lon="98.625361"><time>2026-04-28T23:01:46.363Z</time></trkpt>
      <trkpt lat="28.01624" lon="98.625361"><time>2026-04-28T23:01:46.379Z</time></trkpt>
      <trkpt lat="28.01624" lon="98.625361"><time>2026-04-28T23:01:46.396Z</time></trkpt>
      <trkpt lat="28.01624" lon="98.625361"><time>2026-04-28T23:01:46.413Z</time></trkpt>
      <trkpt lat="28.01624" lon="98.625361"><time>2026-04-28T23:01:46.430Z</time></trkpt>
      <trkpt lat="28.01624" lon="98.625361"><time>2026-04-28T23:01:46.446Z</time></trkpt>
      <trkpt lat="28.016239" lon="98.62534"><time>2026-04-28T23:01:46.463Z</time></trkpt>
      <trkpt lat="28.016239" lon="98.62534"><time>2026-04-28T23:01:46.480Z</time></trkpt>
      <trkpt lat="28.016239" lon="98.62534"><time>2026-04-28T23:01:46.496Z</time></trkpt>
      <trkpt lat="28.016239" lon="98.62534"><time>2026-04-28T23:01:46.513Z</time></trkpt>
      <trkpt lat="28.016239" lon="98.62534"><time>2026-04-28T23:01:46.530Z</time></trkpt>
      <trkpt lat="28.016239" lon="98.62534"><time>2026-04-28T23:01:46.546Z</time></trkpt>
      <trkpt lat="28.016238" lon="98.62532"><time>2026-04-28T23:01:46.563Z</time></trkpt>
      <trkpt lat="28.016238" lon="98.62532"><time>2026-04-28T23:01:46.580Z</time></trkpt>
      <trkpt lat="28.016238" lon="98.62532"><time>2026-04-28T23:01:46.596Z</time></trkpt>
      <trkpt lat="28.016238" lon="98.62532"><time>2026-04-28T23:01:46.613Z</time></trkpt>
      <trkpt lat="28.016238" lon="98.62532"><time>2026-04-28T23:01:46.630Z</time></trkpt>
      <trkpt lat="28.016238" lon="98.62532"><time>2026-04-28T23:01:46.646Z</time></trkpt>
      <trkpt lat="28.016237" lon="98.625298"><time>2026-04-28T23:01:46.663Z</time></trkpt>
      <trkpt lat="28.016237" lon="98.625298"><time>2026-04-28T23:01:46.680Z</time></trkpt>
      <trkpt lat="28.016237" lon="98.625298"><time>2026-04-28T23:01:46.696Z</time></trkpt>
      <trkpt lat="28.016237" lon="98.625298"><time>2026-04-28T23:01:46.713Z</time></trkpt>
      <trkpt lat="28.016237" lon="98.625298"><time>2026-04-28T23:01:46.730Z</time></trkpt>
      <trkpt lat="28.016237" lon="98.625298"><time>2026-04-28T23:01:46.747Z</time></trkpt>
      <trkpt lat="28.016236" lon="98.625277"><time>2026-04-28T23:01:46.763Z</time></trkpt>
      <trkpt lat="28.016236" lon="98.625277"><time>2026-04-28T23:01:46.780Z</time></trkpt>
      <trkpt lat="28.016236" lon="98.625277"><time>2026-04-28T23:01:46.797Z</time></trkpt>
      <trkpt lat="28.016236" lon="98.625277"><time>2026-04-28T23:01:46.813Z</time></trkpt>
      <trkpt lat="28.016236" lon="98.625277"><time>2026-04-28T23:01:46.830Z</time></trkpt>
      <trkpt lat="28.016236" lon="98.625277"><time>2026-04-28T23:01:46.847Z</time></trkpt>
      <trkpt lat="28.016236" lon="98.625257"><time>2026-04-28T23:01:46.863Z</time></trkpt>
      <trkpt lat="28.016236" lon="98.625257"><time>2026-04-28T23:01:46.880Z</time></trkpt>
      <trkpt lat="28.016236" lon="98.625257"><time>2026-04-28T23:01:46.897Z</time></trkpt>
      <trkpt lat="28.016236" lon="98.625257"><time>2026-04-28T23:01:46.913Z</time></trkpt>
      <trkpt lat="28.016236" lon="98.625257"><time>2026-04-28T23:01:46.930Z</time></trkpt>
      <trkpt lat="28.016236" lon="98.625257"><time>2026-04-28T23:01:46.947Z</time></trkpt>
      <trkpt lat="28.016235" lon="98.625235"><time>2026-04-28T23:01:46.963Z</time></trkpt>
      <trkpt lat="28.016235" lon="98.625235"><time>2026-04-28T23:01:46.980Z</time></trkpt>
      <trkpt lat="28.016235" lon="98.625235"><time>2026-04-28T23:01:46.997Z</time></trkpt>
      <trkpt lat="28.016235" lon="98.625235"><time>2026-04-28T23:01:47.013Z</time></trkpt>
      <trkpt lat="28.016235" lon="98.625235"><time>2026-04-28T23:01:47.030Z</time></trkpt>
      <trkpt lat="28.016235" lon="98.625235"><time>2026-04-28T23:01:47.047Z</time></trkpt>
      <trkpt lat="28.016234" lon="98.625215"><time>2026-04-28T23:01:47.064Z</time></trkpt>
      <trkpt lat="28.016234" lon="98.625215"><time>2026-04-28T23:01:47.080Z</time></trkpt>
      <trkpt lat="28.016234" lon="98.625215"><time>2026-04-28T23:01:47.097Z</time></trkpt>
      <trkpt lat="28.016234" lon="98.625215"><time>2026-04-28T23:01:47.114Z</time></trkpt>
      <trkpt lat="28.016234" lon="98.625215"><time>2026-04-28T23:01:47.130Z</time></trkpt>
      <trkpt lat="28.016234" lon="98.625215"><time>2026-04-28T23:01:47.147Z</time></trkpt>
      <trkpt lat="28.016233" lon="98.625193"><time>2026-04-28T23:01:47.164Z</time></trkpt>
      <trkpt lat="28.016233" lon="98.625193"><time>2026-04-28T23:01:47.180Z</time></trkpt>
      <trkpt lat="28.016233" lon="98.625193"><time>2026-04-28T23:01:47.197Z</time></trkpt>
      <trkpt lat="28.016233" lon="98.625193"><time>2026-04-28T23:01:47.214Z</time></trkpt>
      <trkpt lat="28.016233" lon="98.625193"><time>2026-04-28T23:01:47.230Z</time></trkpt>
      <trkpt lat="28.016233" lon="98.625193"><time>2026-04-28T23:01:47.247Z</time></trkpt>
      <trkpt lat="28.016232" lon="98.625171"><time>2026-04-28T23:01:47.264Z</time></trkpt>
      <trkpt lat="28.016232" lon="98.625171"><time>2026-04-28T23:01:47.280Z</time></trkpt>
      <trkpt lat="28.016232" lon="98.625171"><time>2026-04-28T23:01:47.297Z</time></trkpt>
      <trkpt lat="28.016232" lon="98.625171"><time>2026-04-28T23:01:47.314Z</time></trkpt>
      <trkpt lat="28.016232" lon="98.625171"><time>2026-04-28T23:01:47.330Z</time></trkpt>
      <trkpt lat="28.016232" lon="98.625171"><time>2026-04-28T23:01:47.347Z</time></trkpt>
      <trkpt lat="28.016231" lon="98.62515"><time>2026-04-28T23:01:47.364Z</time></trkpt>
      <trkpt lat="28.016231" lon="98.62515"><time>2026-04-28T23:01:47.381Z</time></trkpt>
      <trkpt lat="28.016231" lon="98.62515"><time>2026-04-28T23:01:47.397Z</time></trkpt>
      <trkpt lat="28.016231" lon="98.62515"><time>2026-04-28T23:01:47.414Z</time></trkpt>
      <trkpt lat="28.016231" lon="98.62515"><time>2026-04-28T23:01:47.431Z</time></trkpt>
      <trkpt lat="28.016231" lon="98.62515"><time>2026-04-28T23:01:47.447Z</time></trkpt>
      <trkpt lat="28.016231" lon="98.625129"><time>2026-04-28T23:01:47.464Z</time></trkpt>
      <trkpt lat="28.016231" lon="98.625129"><time>2026-04-28T23:01:47.481Z</time></trkpt>
      <trkpt lat="28.016231" lon="98.625129"><time>2026-04-28T23:01:47.497Z</time></trkpt>
      <trkpt lat="28.016231" lon="98.625129"><time>2026-04-28T23:01:47.514Z</time></trkpt>
      <trkpt lat="28.016231" lon="98.625129"><time>2026-04-28T23:01:47.531Z</time></trkpt>
      <trkpt lat="28.016231" lon="98.625129"><time>2026-04-28T23:01:47.547Z</time></trkpt>
      <trkpt lat="28.01623" lon="98.625108"><time>2026-04-28T23:01:47.564Z</time></trkpt>
      <trkpt lat="28.01623" lon="98.625108"><time>2026-04-28T23:01:47.581Z</time></trkpt>
      <trkpt lat="28.01623" lon="98.625108"><time>2026-04-28T23:01:47.597Z</time></trkpt>
      <trkpt lat="28.01623" lon="98.625108"><time>2026-04-28T23:01:47.614Z</time></trkpt>
      <trkpt lat="28.01623" lon="98.625108"><time>2026-04-28T23:01:47.631Z</time></trkpt>
      <trkpt lat="28.01623" lon="98.625108"><time>2026-04-28T23:01:47.647Z</time></trkpt>
      <trkpt lat="28.016229" lon="98.625086"><time>2026-04-28T23:01:47.664Z</time></trkpt>
      <trkpt lat="28.016229" lon="98.625086"><time>2026-04-28T23:01:47.681Z</time></trkpt>
      <trkpt lat="28.016229" lon="98.625086"><time>2026-04-28T23:01:47.697Z</time></trkpt>
      <trkpt lat="28.016229" lon="98.625086"><time>2026-04-28T23:01:47.714Z</time></trkpt>
      <trkpt lat="28.016229" lon="98.625086"><time>2026-04-28T23:01:47.731Z</time></trkpt>
      <trkpt lat="28.016229" lon="98.625086"><time>2026-04-28T23:01:47.748Z</time></trkpt>
      <trkpt lat="28.016228" lon="98.625065"><time>2026-04-28T23:01:47.764Z</time></trkpt>
      <trkpt lat="28.016228" lon="98.625065"><time>2026-04-28T23:01:47.781Z</time></trkpt>
      <trkpt lat="28.016228" lon="98.625065"><time>2026-04-28T23:01:47.798Z</time></trkpt>
      <trkpt lat="28.016228" lon="98.625065"><time>2026-04-28T23:01:47.814Z</time></trkpt>
      <trkpt lat="28.016228" lon="98.625065"><time>2026-04-28T23:01:47.831Z</time></trkpt>
      <trkpt lat="28.016228" lon="98.625065"><time>2026-04-28T23:01:47.848Z</time></trkpt>
    </trkseg>
  </trk>
</gpx>
