<?xml version="1.0" encoding="UTF-8"?>
<gpx version="1.1" creator="Kairos" xmlns="http://www.topografix.com/GPX/1/1">
  <trk>
    <name>sidecar-srt-97d177432cfd332f</name>
    <trkseg>
      <trkpt lat="29.322638" lon="97.034739"><time>2026-04-30T04:26:13.000Z</time></trkpt>
      <trkpt lat="29.322638" lon="97.034739"><time>2026-04-30T04:26:13.016Z</time></trkpt>
      <trkpt lat="29.322638" lon="97.034739"><time>2026-04-30T04:26:13.032Z</time></trkpt>
      <trkpt lat="29.322638" lon="97.034739"><time>2026-04-30T04:26:13.049Z</time></trkpt>
      <trkpt lat="29.322638" lon="97.034739"><time>2026-04-30T04:26:13.066Z</time></trkpt>
      <trkpt lat="29.322638" lon="97.034739"><time>2026-04-30T04:26:13.082Z</time></trkpt>
      <trkpt lat="29.322638" lon="97.034738"><time>2026-04-30T04:26:13.099Z</time></trkpt>
      <trkpt lat="29.322638" lon="97.034738"><time>2026-04-30T04:26:13.116Z</time></trkpt>
      <trkpt lat="29.322638" lon="97.034738"><time>2026-04-30T04:26:13.132Z</time></trkpt>
      <trkpt lat="29.322638" lon="97.034738"><time>2026-04-30T04:26:13.149Z</time></trkpt>
      <trkpt lat="29.322638" lon="97.034738"><time>2026-04-30T04:26:13.166Z</time></trkpt>
      <trkpt lat="29.322638" lon="97.034738"><time>2026-04-30T04:26:13.182Z</time></trkpt>
      <trkpt lat="29.322638" lon="97.034736"><time>2026-04-30T04:26:13.199Z</time></trkpt>
      <trkpt lat="29.322638" lon="97.034736"><time>2026-04-30T04:26:13.216Z</time></trkpt>
      <trkpt lat="29.322638" lon="97.034736"><time>2026-04-30T04:26:13.232Z</time></trkpt>
      <trkpt lat="29.322638" lon="97.034736"><time>2026-04-30T04:26:13.249Z</time></trkpt>
      <trkpt lat="29.322638" lon="97.034736"><time>2026-04-30T04:26:13.266Z</time></trkpt>
      <trkpt lat="29.322639" lon="97.034733"><time>2026-04-30T04:26:13.282Z</time></trkpt>
      <trkpt lat="29.322639" lon="97.034733"><time>2026-04-30T04:26:13.299Z</time></trkpt>
      <trkpt lat="29.322639" lon="97.034733"><time>2026-04-30T04:26:13.316Z</time></trkpt>
      <trkpt lat="29.322639" lon="97.034733"><time>2026-04-30T04:26:13.333Z</time></trkpt>
      <trkpt lat="29.322639" lon="97.034733"><time>2026-04-30T04:26:13.349Z</time></trkpt>
      <trkpt lat="29.322639" lon="97.034733"><time>2026-04-30T04:26:13.366Z</time></trkpt>
      <trkpt lat="29.322639" lon="97.034731"><time>2026-04-30T04:26:13.383Z</time></trkpt>
      <trkpt lat="29.322639" lon="97.034731"><time>2026-04-30T04:26:13.399Z</time></trkpt>
      <trkpt lat="29.322639" lon="97.034731"><time>2026-04-30T04:26:13.416Z</time></trkpt>
      <trkpt lat="29.322639" lon="97.034731"><time>2026-04-30T04:26:13.433Z</time></trkpt>
      <trkpt lat="29.322639" lon="97.034731"><time>2026-04-30T04:26:13.449Z</time></trkpt>
      <trkpt lat="29.322639" lon="97.034731"><time>2026-04-30T04:26:13.466Z</time></trkpt>
      <trkpt lat="29.322639" lon="97.034728"><time>2026-04-30T04:26:13.483Z</time></trkpt>
      <trkpt lat="29.322639" lon="97.034728"><time>2026-04-30T04:26:13.499Z</time></trkpt>
      <trkpt lat="29.322639" lon="97.034728"><time>2026-04-30T04:26:13.516Z</time></trkpt>
      <trkpt lat="29.322639" lon="97.034728"><time>2026-04-30T04:26:13.533Z</time></trkpt>
      <trkpt lat="29.322639" lon="97.034728"><time>2026-04-30T04:26:13.549Z</time></trkpt>
      <trkpt lat="29.322639" lon="97.034728"><time>2026-04-30T04:26:13.566Z</time></trkpt>
      <trkpt lat="29.322639" lon="97.034725"><time>2026-04-30T04:26:13.583Z</time></trkpt>
      <trkpt lat="29.322639" lon="97.034725"><time>2026-04-30T04:26:13.599Z</time></trkpt>
      <trkpt lat="29.322639" lon="97.034725"><time>2026-04-30T04:26:13.616Z</time></trkpt>
      <trkpt lat="29.322639" lon="97.034725"><time>2026-04-30T04:26:13.633Z</time></trkpt>
      <trkpt lat="29.322639" lon="97.034725"><time>2026-04-30T04:26:13.650Z</time></trkpt>
      <trkpt lat="29.322639" lon="97.034725"><time>2026-04-30T04:26:13.666Z</time></trkpt>
      <trkpt lat="29.322639" lon="97.034722"><time>2026-04-30T04:26:13.683Z</time></trkpt>
      <trkpt lat="29.322639" lon="97.034722"><time>2026-04-30T04:26:13.700Z</time></trkpt>
      <trkpt lat="29.322639" lon="97.034722"><time>2026-04-30T04:26:13.716Z</time></trkpt>
      <trkpt lat="29.322639" lon="97.034722"><time>2026-04-30T04:26:13.733Z</time></trkpt>
      <trkpt lat="29.322639" lon="97.034722"><time>2026-04-30T04:26:13.750Z</time></trkpt>
      <trkpt lat="29.322639" lon="97.034722"><time>2026-04-30T04:26:13.766Z</time></trkpt>
      <trkpt lat="29.322639" lon="97.034718"><time>2026-04-30T04:26:13.783Z</time></trkpt>
      <trkpt lat="29.322639" lon="97.034718"><time>2026-04-30T04:26:13.800Z</time></trkpt>
      <trkpt lat="29.322639" lon="97.034718"><time>2026-04-30T04:26:13.816Z</time></trkpt>
      <trkpt lat="29.322639" lon="97.034718"><time>2026-04-30T04:26:13.833Z</time></trkpt>
      <trkpt lat="29.322639" lon="97.034718"><time>2026-04-30T04:26:13.850Z</time></trkpt>
      <trkpt lat="29.322639" lon="97.034718"><time>2026-04-30T04:26:13.866Z</time></trkpt>
      <trkpt lat="29.322639" lon="97.034714"><time>2026-04-30T04:26:13.883Z</time></trkpt>
      <trkpt lat="29.322639" lon="97.034714"><time>2026-04-30T04:26:13.900Z</time></trkpt>
      <trkpt lat="29.322639" lon="97.034714"><time>2026-04-30T04:26:13.916Z</time></trkpt>
      <trkpt lat="29.322639" lon="97.034714"><time>2026-04-30T04:26:13.933Z</time></trkpt>
      <trkpt lat="29.322639" lon="97.034714"><time>2026-04-30T04:26:13.950Z</time></trkpt>
      <trkpt lat="29.322639" lon="97.034714"><time>2026-04-30T04:26:13.967Z</time></trkpt>
      <trkpt lat="29.322639" lon="97.03471"><time>2026-04-30T04:26:13.983Z</time></trkpt>
      <trkpt lat="29.322639" lon="97.03471"><time>2026-04-30T04:26:14.000Z</time></trkpt>
      <trkpt lat="29.322639" lon="97.03471"><time>2026-04-30T04:26:14.017Z</time></trkpt>
      <trkpt lat="29.322639" lon="97.03471"><time>2026-04-30T04:26:14.033Z</time></trkpt>
      <trkpt lat="29.322639" lon="97.03471"><time>2026-04-30T04:26:14.050Z</time></trkpt>
      <trkpt lat="29.322639" lon="97.03471"><time>2026-04-30T04:26:14.067Z</time></trkpt>
      <trkpt lat="29.322639" lon="97.03471"><time>2026-04-30T04:26:14.083Z</time></trkpt>
      <trkpt lat="29.322639" lon="97.034706"><time>2026-04-30T04:26:14.100Z</time></trkpt>
      <trkpt lat="29.322639" lon="97.034706"><time>2026-04-30T04:26:14.117Z</time></trkpt>
      <trkpt lat="29.322639" lon="97.034706"><time>2026-04-30T04:26:14.133Z</time></trkpt>
      <trkpt lat="29.322639" lon="97.034706"><time>2026-04-30T04:26:14.150Z</time></trkpt>
      <trkpt lat="29.322639" lon="97.034706"><time>2026-04-30T04:26:14.167Z</time></trkpt>
      <trkpt lat="29.322639" lon="97.034701"><time>2026-04-30T04:26:14.183Z</time></trkpt>
      <trkpt lat="29.322639" lon="97.034701"><time>2026-04-30T04:26:14.200Z</time></trkpt>
      <trkpt lat="29.322639" lon="97.034701"><time>2026-04-30T04:26:14.217Z</time></trkpt>
      <trkpt lat="29.322639" lon="97.034701"><time>2026-04-30T04:26:14.233Z</time></trkpt>
      <trkpt lat="29.322639" lon="97.034701"><time>2026-04-30T04:26:14.250Z</time></trkpt>
      <trkpt lat="29.322639" lon="97.034701"><time>2026-04-30T04:26:14.267Z</time></trkpt>
      <trkpt lat="29.322639" lon="97.034696"><time>2026-04-30T04:26:14.283Z</time></trkpt>
      <trkpt lat="29.322639" lon="97.034696"><time>2026-04-30T04:26:14.300Z</time></trkpt>
      <trkpt lat="29.322639" lon="97.034696"><time>2026-04-30T04:26:14.317Z</time></trkpt>
      <trkpt lat="29.322639" lon="97.034696"><time>2026-04-30T04:26:14.334Z</time></trkpt>
      <trkpt lat="29.322639" lon="97.034696"><time>2026-04-30T04:26:14.350Z</time></trkpt>
      <trkpt lat="29.322639" lon="97.034696"><time>2026-04-30T04:26:14.367Z</time></trkpt>
      <trkpt lat="29.322639" lon="97.034691"><time>2026-04-30T04:26:14.384Z</time></trkpt>
      <trkpt lat="29.322639" lon="97.034691"><time>2026-04-30T04:26:14.400Z</time></trkpt>
      <trkpt lat="29.322639" lon="97.034691"><time>2026-04-30T04:26:14.417Z</time></trkpt>
      <trkpt lat="29.322639" lon="97.034691"><time>2026-04-30T04:26:14.434Z</time></trkpt>
      <trkpt lat="29.322639" lon="97.034691"><time>2026-04-30T04:26:14.450Z</time></trkpt>
      <trkpt lat="29.322639" lon="97.034691"><time>2026-04-30T04:26:14.467Z</time></trkpt>
      <trkpt lat="29.322639" lon="97.034686"><time>2026-04-30T04:26:14.484Z</time></trkpt>
      <trkpt lat="29.322639" lon="97.034686"><time>2026-04-30T04:26:14.500Z</time></trkpt>
      <trkpt lat="29.322639" lon="97.034686"><time>2026-04-30T04:26:14.517Z</time></trkpt>
      <trkpt lat="29.322639" lon="97.034686"><time>2026-04-30T04:26:14.534Z</time></trkpt>
      <trkpt lat="29.322639" lon="97.034686"><time>2026-04-30T04:26:14.550Z</time></trkpt>
      <trkpt lat="29.322639" lon="97.034686"><time>2026-04-30T04:26:14.567Z</time></trkpt>
      <trkpt lat="29.322639" lon="97.03468"><time>2026-04-30T04:26:14.584Z</time></trkpt>
      <trkpt lat="29.322639" lon="97.03468"><time>2026-04-30T04:26:14.600Z</time></trkpt>
      <trkpt lat="29.322639" lon="97.03468"><time>2026-04-30T04:26:14.617Z</time></trkpt>
      <trkpt lat="29.322639" lon="97.03468"><time>2026-04-30T04:26:14.634Z</time></trkpt>
      <trkpt lat="29.322639" lon="97.03468"><time>2026-04-30T04:26:14.651Z</time></trkpt>
      <trkpt lat="29.322639" lon="97.03468"><time>2026-04-30T04:26:14.667Z</time></trkpt>
      <trkpt lat="29.32264" lon="97.034674"><time>2026-04-30T04:26:14.684Z</time></trkpt>
      <trkpt lat="29.32264" lon="97.034674"><time>2026-04-30T04:26:14.701Z</time></trkpt>
      <trkpt lat="29.32264" lon="97.034674"><time>2026-04-30T04:26:14.717Z</time></trkpt>
      <trkpt lat="29.32264" lon="97.034674"><time>2026-04-30T04:26:14.734Z</time></trkpt>
      <trkpt lat="29.32264" lon="97.034674"><time>2026-04-30T04:26:14.751Z</time></trkpt>
      <trkpt lat="29.32264" lon="97.034674"><time>2026-04-30T04:26:14.767Z</time></trkpt>
      <trkpt lat="29.32264" lon="97.034668"><time>2026-04-30T04:26:14.784Z</time></trkpt>
      <trkpt lat="29.32264" lon="97.034668"><time>2026-04-30T04:26:14.801Z</time></trkpt>
      <trkpt lat="29.32264" lon="97.034668"><time>2026-04-30T04:26:14.817Z</time></trkpt>
      <trkpt lat="29.32264" lon="97.034668"><time>2026-04-30T04:26:14.834Z</time></trkpt>
      <trkpt lat="29.32264" lon="97.034668"><time>2026-04-30T04:26:14.851Z</time></trkpt>
      <trkpt lat="29.32264" lon="97.034668"><time>2026-04-30T04:26:14.867Z</time></trkpt>
      <trkpt lat="29.32264" lon="97.034662"><time>2026-04-30T04:26:14.884Z</time></trkpt>
      <trkpt lat="29.32264" lon="97.034662"><time>2026-04-30T04:26:14.901Z</time></trkpt>
      <trkpt lat="29.32264" lon="97.034662"><time>2026-04-30T04:26:14.917Z</time></trkpt>
      <trkpt lat="29.32264" lon="97.034662"><time>2026-04-30T04:26:14.934Z</time></trkpt>
      <trkpt lat="29.32264" lon="97.034662"><time>2026-04-30T04:26:14.951Z</time></trkpt>
      <trkpt lat="29.32264" lon="97.034662"><time>2026-04-30T04:26:14.968Z</time></trkpt>
      <trkpt lat="29.32264" lon="97.034656"><time>2026-04-30T04:26:14.984Z</time></trkpt>
      <trkpt lat="29.32264" lon="97.034656"><time>2026-04-30T04:26:15.001Z</time></trkpt>
      <trkpt lat="29.32264" lon="97.034656"><time>2026-04-30T04:26:15.018Z</time></trkpt>
      <trkpt lat="29.32264" lon="97.034656"><time>2026-04-30T04:26:15.034Z</time></trkpt>
      <trkpt lat="29.32264" lon="97.034656"><time>2026-04-30T04:26:15.051Z</time></trkpt>
      <trkpt lat="29.32264" lon="97.034656"><time>2026-04-30T04:26:15.068Z</time></trkpt>
      <trkpt lat="29.32264" lon="97.03465"><time>2026-04-30T04:26:15.084Z</time></trkpt>
      <trkpt lat="29.32264" lon="97.03465"><time>2026-04-30T04:26:15.101Z</time></trkpt>
      <trkpt lat="29.32264" lon="97.03465"><time>2026-04-30T04:26:15.118Z</time></trkpt>
      <trkpt lat="29.32264" lon="97.03465"><time>2026-04-30T04:26:15.134Z</time></trkpt>
      <trkpt lat="29.32264" lon="97.03465"><time>2026-04-30T04:26:15.151Z</time></trkpt>
      <trkpt lat="29.32264" lon="97.03465"><time>2026-04-30T04:26:15.168Z</time></trkpt>
      <trkpt lat="29.322639" lon="97.034643"><time>2026-04-30T04:26:15.184Z</time></trkpt>
      <trkpt lat="29.322639" lon="97.034643"><time>2026-04-30T04:26:15.201Z</time></trkpt>
      <trkpt lat="29.322639" lon="97.034643"><time>2026-04-30T04:26:15.218Z</time></trkpt>
      <trkpt lat="29.322639" lon="97.034643"><time>2026-04-30T04:26:15.234Z</time></trkpt>
      <trkpt lat="29.322639" lon="97.034643"><time>2026-04-30T04:26:15.251Z</time></trkpt>
      <trkpt lat="29.322639" lon="97.034643"><time>2026-04-30T04:26:15.268Z</time></trkpt>
      <trkpt lat="29.322639" lon="97.034636"><time>2026-04-30T04:26:15.285Z</time></trkpt>
      <trkpt lat="29.322639" lon="97.034636"><time>2026-04-30T04:26:15.301Z</time></trkpt>
      <trkpt lat="29.322639" lon="97.034636"><time>2026-04-30T04:26:15.318Z</time></trkpt>
      <trkpt lat="29.322639" lon="97.034636"><time>2026-04-30T04:26:15.335Z</time></trkpt>
      <trkpt lat="29.322639" lon="97.034636"><time>2026-04-30T04:26:15.351Z</time></trkpt>
      <trkpt lat="29.322639" lon="97.034636"><time>2026-04-30T04:26:15.368Z</time></trkpt>
      <trkpt lat="29.322639" lon="97.03463"><time>2026-04-30T04:26:15.385Z</time></trkpt>
      <trkpt lat="29.322639" lon="97.03463"><time>2026-04-30T04:26:15.401Z</time></trkpt>
      <trkpt lat="29.322639" lon="97.03463"><time>2026-04-30T04:26:15.418Z</time></trkpt>
      <trkpt lat="29.322639" lon="97.03463"><time>2026-04-30T04:26:15.435Z</time></trkpt>
      <trkpt lat="29.322639" lon="97.03463"><time>2026-04-30T04:26:15.451Z</time></trkpt>
      <trkpt lat="29.322639" lon="97.03463"><time>2026-04-30T04:26:15.468Z</time></trkpt>
      <trkpt lat="29.322639" lon="97.034623"><time>2026-04-30T04:26:15.485Z</time></trkpt>
      <trkpt lat="29.322639" lon="97.034623"><time>2026-04-30T04:26:15.501Z</time></trkpt>
      <trkpt lat="29.322639" lon="97.034623"><time>2026-04-30T04:26:15.518Z</time></trkpt>
      <trkpt lat="29.322639" lon="97.034623"><time>2026-04-30T04:26:15.535Z</time></trkpt>
      <trkpt lat="29.322639" lon="97.034623"><time>2026-04-30T04:26:15.551Z</time></trkpt>
      <trkpt lat="29.322639" lon="97.034623"><time>2026-04-30T04:26:15.568Z</time></trkpt>
      <trkpt lat="29.322639" lon="97.034616"><time>2026-04-30T04:26:15.585Z</time></trkpt>
      <trkpt lat="29.322639" lon="97.034616"><time>2026-04-30T04:26:15.602Z</time></trkpt>
      <trkpt lat="29.322639" lon="97.034616"><time>2026-04-30T04:26:15.618Z</time></trkpt>
      <trkpt lat="29.322639" lon="97.034616"><time>2026-04-30T04:26:15.635Z</time></trkpt>
      <trkpt lat="29.322639" lon="97.034616"><time>2026-04-30T04:26:15.652Z</time></trkpt>
      <trkpt lat="29.322639" lon="97.034616"><time>2026-04-30T04:26:15.668Z</time></trkpt>
      <trkpt lat="29.322639" lon="97.034609"><time>2026-04-30T04:26:15.685Z</time></trkpt>
      <trkpt lat="29.322639" lon="97.034609"><time>2026-04-30T04:26:15.702Z</time></trkpt>
      <trkpt lat="29.322639" lon="97.034609"><time>2026-04-30T04:26:15.718Z</time></trkpt>
      <trkpt lat="29.322639" lon="97.034609"><time>2026-04-30T04:26:15.735Z</time></trkpt>
      <trkpt lat="29.322639" lon="97.034609"><time>2026-04-30T04:26:15.752Z</time></trkpt>
      <trkpt lat="29.322639" lon="97.034609"><time>2026-04-30T04:26:15.768Z</time></trkpt>
      <trkpt lat="29.322639" lon="97.034601"><time>2026-04-30T04:26:15.785Z</time></trkpt>
      <trkpt lat="29.322639" lon="97.034601"><time>2026-04-30T04:26:15.802Z</time></trkpt>
      <trkpt lat="29.322639" lon="97.034601"><time>2026-04-30T04:26:15.818Z</time></trkpt>
      <trkpt lat="29.322639" lon="97.034601"><time>2026-04-30T04:26:15.835Z</time></trkpt>
      <trkpt lat="29.322639" lon="97.034601"><time>2026-04-30T04:26:15.852Z</time></trkpt>
      <trkpt lat="29.322639" lon="97.034601"><time>2026-04-30T04:26:15.868Z</time></trkpt>
      <trkpt lat="29.322639" lon="97.034594"><time>2026-04-30T04:26:15.885Z</time></trkpt>
      <trkpt lat="29.322639" lon="97.034594"><time>2026-04-30T04:26:15.902Z</time></trkpt>
      <trkpt lat="29.322639" lon="97.034594"><time>2026-04-30T04:26:15.919Z</time></trkpt>
      <trkpt lat="29.322639" lon="97.034594"><time>2026-04-30T04:26:15.935Z</time></trkpt>
      <trkpt lat="29.322639" lon="97.034594"><time>2026-04-30T04:26:15.952Z</time></trkpt>
      <trkpt lat="29.322639" lon="97.034594"><time>2026-04-30T04:26:15.969Z</time></trkpt>
      <trkpt lat="29.322639" lon="97.034586"><time>2026-04-30T04:26:15.985Z</time></trkpt>
      <trkpt lat="29.322639" lon="97.034586"><time>2026-04-30T04:26:16.002Z</time></trkpt>
      <trkpt lat="29.322639" lon="97.034586"><time>2026-04-30T04:26:16.019Z</time></trkpt>
      <trkpt lat="29.322639" lon="97.034586"><time>2026-04-30T04:26:16.035Z</time></trkpt>
      <trkpt lat="29.322639" lon="97.034586"><time>2026-04-30T04:26:16.052Z</time></trkpt>
      <trkpt lat="29.322639" lon="97.034586"><time>2026-04-30T04:26:16.069Z</time></trkpt>
      <trkpt lat="29.322639" lon="97.034579"><time>2026-04-30T04:26:16.085Z</time></trkpt>
      <trkpt lat="29.322639" lon="97.034579"><time>2026-04-30T04:26:16.102Z</time></trkpt>
      <trkpt lat="29.322639" lon="97.034579"><time>2026-04-30T04:26:16.119Z</time></trkpt>
      <trkpt lat="29.322639" lon="97.034579"><time>2026-04-30T04:26:16.135Z</time></trkpt>
      <trkpt lat="29.322639" lon="97.034579"><time>2026-04-30T04:26:16.152Z</time></trkpt>
      <trkpt lat="29.322639" lon="97.034579"><time>2026-04-30T04:26:16.169Z</time></trkpt>
      <trkpt lat="29.322639" lon="97.034571"><time>2026-04-30T04:26:16.185Z</time></trkpt>
      <trkpt lat="29.322639" lon="97.034571"><time>2026-04-30T04:26:16.202Z</time></trkpt>
      <trkpt lat="29.322639" lon="97.034571"><time>2026-04-30T04:26:16.219Z</time></trkpt>
      <trkpt lat="29.322639" lon="97.034571"><time>2026-04-30T04:26:16.236Z</time></trkpt>
      <trkpt lat="29.322639" lon="97.034571"><time>2026-04-30T04:26:16.252Z</time></trkpt>
      <trkpt lat="29.322639" lon="97.034571"><time>2026-04-30T04:26:16.269Z</time></trkpt>
      <trkpt lat="29.322639" lon="97.034563"><time>2026-04-30T04:26:16.286Z</time></trkpt>
      <trkpt lat="29.322639" lon="97.034563"><time>2026-04-30T04:26:16.302Z</time></trkpt>
      <trkpt lat="29.322639" lon="97.034563"><time>2026-04-30T04:26:16.319Z</time></trkpt>
      <trkpt lat="29.322639" lon="97.034563"><time>2026-04-30T04:26:16.336Z</time></trkpt>
      <trkpt lat="29.322639" lon="97.034563"><time>2026-04-30T04:26:16.352Z</time></trkpt>
      <trkpt lat="29.322639" lon="97.034563"><time>2026-04-30T04:26:16.369Z</time></trkpt>
      <trkpt lat="29.322639" lon="97.034555"><time>2026-04-30T04:26:16.386Z</time></trkpt>
      <trkpt lat="29.322639" lon="97.034555"><time>2026-04-30T04:26:16.402Z</time></trkpt>
      <trkpt lat="29.322639" lon="97.034555"><time>2026-04-30T04:26:16.419Z</time></trkpt>
      <trkpt lat="29.322639" lon="97.034555"><time>2026-04-30T04:26:16.436Z</time></trkpt>
      <trkpt lat="29.322639" lon="97.034555"><time>2026-04-30T04:26:16.452Z</time></trkpt>
      <trkpt lat="29.322639" lon="97.034555"><time>2026-04-30T04:26:16.469Z</time></trkpt>
      <trkpt lat="29.32264" lon="97.034548"><time>2026-04-30T04:26:16.486Z</time></trkpt>
      <trkpt lat="29.32264" lon="97.034548"><time>2026-04-30T04:26:16.502Z</time></trkpt>
      <trkpt lat="29.32264" lon="97.034548"><time>2026-04-30T04:26:16.519Z</time></trkpt>
      <trkpt lat="29.32264" lon="97.034548"><time>2026-04-30T04:26:16.536Z</time></trkpt>
      <trkpt lat="29.32264" lon="97.034548"><time>2026-04-30T04:26:16.553Z</time></trkpt>
      <trkpt lat="29.32264" lon="97.034548"><time>2026-04-30T04:26:16.569Z</time></trkpt>
      <trkpt lat="29.32264" lon="97.03454"><time>2026-04-30T04:26:16.586Z</time></trkpt>
      <trkpt lat="29.32264" lon="97.03454"><time>2026-04-30T04:26:16.603Z</time></trkpt>
      <trkpt lat="29.32264" lon="97.03454"><time>2026-04-30T04:26:16.619Z</time></trkpt>
      <trkpt lat="29.32264" lon="97.03454"><time>2026-04-30T04:26:16.636Z</time></trkpt>
      <trkpt lat="29.32264" lon="97.03454"><time>2026-04-30T04:26:16.653Z</time></trkpt>
      <trkpt lat="29.32264" lon="97.03454"><time>2026-04-30T04:26:16.669Z</time></trkpt>
      <trkpt lat="29.32264" lon="97.034531"><time>2026-04-30T04:26:16.686Z</time></trkpt>
      <trkpt lat="29.32264" lon="97.034531"><time>2026-04-30T04:26:16.703Z</time></trkpt>
      <trkpt lat="29.32264" lon="97.034531"><time>2026-04-30T04:26:16.719Z</time></trkpt>
      <trkpt lat="29.32264" lon="97.034531"><time>2026-04-30T04:26:16.736Z</time></trkpt>
      <trkpt lat="29.32264" lon="97.034531"><time>2026-04-30T04:26:16.753Z</time></trkpt>
      <trkpt lat="29.32264" lon="97.034531"><time>2026-04-30T04:26:16.769Z</time></trkpt>
      <trkpt lat="29.32264" lon="97.034523"><time>2026-04-30T04:26:16.786Z</time></trkpt>
      <trkpt lat="29.32264" lon="97.034523"><time>2026-04-30T04:26:16.803Z</time></trkpt>
      <trkpt lat="29.32264" lon="97.034523"><time>2026-04-30T04:26:16.819Z</time></trkpt>
      <trkpt lat="29.32264" lon="97.034523"><time>2026-04-30T04:26:16.836Z</time></trkpt>
      <trkpt lat="29.32264" lon="97.034523"><time>2026-04-30T04:26:16.853Z</time></trkpt>
      <trkpt lat="29.32264" lon="97.034523"><time>2026-04-30T04:26:16.870Z</time></trkpt>
      <trkpt lat="29.32264" lon="97.034515"><time>2026-04-30T04:26:16.886Z</time></trkpt>
      <trkpt lat="29.32264" lon="97.034515"><time>2026-04-30T04:26:16.903Z</time></trkpt>
      <trkpt lat="29.32264" lon="97.034515"><time>2026-04-30T04:26:16.920Z</time></trkpt>
      <trkpt lat="29.32264" lon="97.034515"><time>2026-04-30T04:26:16.936Z</time></trkpt>
      <trkpt lat="29.32264" lon="97.034515"><time>2026-04-30T04:26:16.953Z</time></trkpt>
      <trkpt lat="29.32264" lon="97.034515"><time>2026-04-30T04:26:16.970Z</time></trkpt>
      <trkpt lat="29.32264" lon="97.034507"><time>2026-04-30T04:26:16.986Z</time></trkpt>
      <trkpt lat="29.32264" lon="97.034507"><time>2026-04-30T04:26:17.003Z</time></trkpt>
      <trkpt lat="29.32264" lon="97.034507"><time>2026-04-30T04:26:17.020Z</time></trkpt>
      <trkpt lat="29.32264" lon="97.034507"><time>2026-04-30T04:26:17.036Z</time></trkpt>
      <trkpt lat="29.32264" lon="97.034507"><time>2026-04-30T04:26:17.053Z</time></trkpt>
      <trkpt lat="29.32264" lon="97.034507"><time>2026-04-30T04:26:17.070Z</time></trkpt>
      <trkpt lat="29.32264" lon="97.034498"><time>2026-04-30T04:26:17.086Z</time></trkpt>
      <trkpt lat="29.32264" lon="97.034498"><time>2026-04-30T04:26:17.103Z</time></trkpt>
      <trkpt lat="29.32264" lon="97.034498"><time>2026-04-30T04:26:17.120Z</time></trkpt>
      <trkpt lat="29.32264" lon="97.034498"><time>2026-04-30T04:26:17.136Z</time></trkpt>
      <trkpt lat="29.32264" lon="97.034498"><time>2026-04-30T04:26:17.153Z</time></trkpt>
      <trkpt lat="29.32264" lon="97.034498"><time>2026-04-30T04:26:17.170Z</time></trkpt>
      <trkpt lat="29.32264" lon="97.03449"><time>2026-04-30T04:26:17.187Z</time></trkpt>
      <trkpt lat="29.32264" lon="97.03449"><time>2026-04-30T04:26:17.203Z</time></trkpt>
      <trkpt lat="29.32264" lon="97.03449"><time>2026-04-30T04:26:17.220Z</time></trkpt>
      <trkpt lat="29.32264" lon="97.03449"><time>2026-04-30T04:26:17.237Z</time></trkpt>
      <trkpt lat="29.32264" lon="97.03449"><time>2026-04-30T04:26:17.253Z</time></trkpt>
      <trkpt lat="29.32264" lon="97.03449"><time>2026-04-30T04:26:17.270Z</time></trkpt>
      <trkpt lat="29.32264" lon="97.034481"><time>2026-04-30T04:26:17.287Z</time></trkpt>
      <trkpt lat="29.32264" lon="97.034481"><time>2026-04-30T04:26:17.303Z</time></trkpt>
      <trkpt lat="29.32264" lon="97.034481"><time>2026-04-30T04:26:17.320Z</time></trkpt>
      <trkpt lat="29.32264" lon="97.034481"><time>2026-04-30T04:26:17.337Z</time></trkpt>
      <trkpt lat="29.32264" lon="97.034481"><time>2026-04-30T04:26:17.353Z</time></trkpt>
      <trkpt lat="29.32264" lon="97.034481"><time>2026-04-30T04:26:17.370Z</time></trkpt>
      <trkpt lat="29.32264" lon="97.034473"><time>2026-04-30T04:26:17.387Z</time></trkpt>
      <trkpt lat="29.32264" lon="97.034473"><time>2026-04-30T04:26:17.403Z</time></trkpt>
      <trkpt lat="29.32264" lon="97.034473"><time>2026-04-30T04:26:17.420Z</time></trkpt>
      <trkpt lat="29.32264" lon="97.034473"><time>2026-04-30T04:26:17.437Z</time></trkpt>
      <trkpt lat="29.32264" lon="97.034473"><time>2026-04-30T04:26:17.453Z</time></trkpt>
      <trkpt lat="29.32264" lon="97.034473"><time>2026-04-30T04:26:17.470Z</time></trkpt>
      <trkpt lat="29.32264" lon="97.034464"><time>2026-04-30T04:26:17.487Z</time></trkpt>
      <trkpt lat="29.32264" lon="97.034464"><time>2026-04-30T04:26:17.504Z</time></trkpt>
      <trkpt lat="29.32264" lon="97.034464"><time>2026-04-30T04:26:17.520Z</time></trkpt>
      <trkpt lat="29.32264" lon="97.034464"><time>2026-04-30T04:26:17.537Z</time></trkpt>
      <trkpt lat="29.32264" lon="97.034464"><time>2026-04-30T04:26:17.554Z</time></trkpt>
      <trkpt lat="29.32264" lon="97.034464"><time>2026-04-30T04:26:17.570Z</time></trkpt>
      <trkpt lat="29.32264" lon="97.034456"><time>2026-04-30T04:26:17.587Z</time></trkpt>
      <trkpt lat="29.32264" lon="97.034456"><time>2026-04-30T04:26:17.604Z</time></trkpt>
      <trkpt lat="29.32264" lon="97.034456"><time>2026-04-30T04:26:17.620Z</time></trkpt>
      <trkpt lat="29.32264" lon="97.034456"><time>2026-04-30T04:26:17.637Z</time></trkpt>
      <trkpt lat="29.32264" lon="97.034456"><time>2026-04-30T04:26:17.654Z</time></trkpt>
      <trkpt lat="29.32264" lon="97.034456"><time>2026-04-30T04:26:17.670Z</time></trkpt>
      <trkpt lat="29.32264" lon="97.034446"><time>2026-04-30T04:26:17.687Z</time></trkpt>
      <trkpt lat="29.32264" lon="97.034446"><time>2026-04-30T04:26:17.704Z</time></trkpt>
      <trkpt lat="29.32264" lon="97.034446"><time>2026-04-30T04:26:17.720Z</time></trkpt>
      <trkpt lat="29.32264" lon="97.034446"><time>2026-04-30T04:26:17.737Z</time></trkpt>
      <trkpt lat="29.32264" lon="97.034446"><time>2026-04-30T04:26:17.754Z</time></trkpt>
      <trkpt lat="29.32264" lon="97.034446"><time>2026-04-30T04:26:17.770Z</time></trkpt>
      <trkpt lat="29.32264" lon="97.034437"><time>2026-04-30T04:26:17.787Z</time></trkpt>
      <trkpt lat="29.32264" lon="97.034437"><time>2026-04-30T04:26:17.804Z</time></trkpt>
      <trkpt lat="29.32264" lon="97.034437"><time>2026-04-30T04:26:17.821Z</time></trkpt>
      <trkpt lat="29.32264" lon="97.034437"><time>2026-04-30T04:26:17.837Z</time></trkpt>
      <trkpt lat="29.32264" lon="97.034437"><time>2026-04-30T04:26:17.854Z</time></trkpt>
      <trkpt lat="29.32264" lon="97.034437"><time>2026-04-30T04:26:17.871Z</time></trkpt>
      <trkpt lat="29.32264" lon="97.034428"><time>2026-04-30T04:26:17.887Z</time></trkpt>
      <trkpt lat="29.32264" lon="97.034428"><time>2026-04-30T04:26:17.904Z</time></trkpt>
      <trkpt lat="29.32264" lon="97.034428"><time>2026-04-30T04:26:17.921Z</time></trkpt>
      <trkpt lat="29.32264" lon="97.034428"><time>2026-04-30T04:26:17.937Z</time></trkpt>
      <trkpt lat="29.32264" lon="97.034428"><time>2026-04-30T04:26:17.954Z</time></trkpt>
      <trkpt lat="29.32264" lon="97.034428"><time>2026-04-30T04:26:17.971Z</time></trkpt>
      <trkpt lat="29.32264" lon="97.034419"><time>2026-04-30T04:26:17.987Z</time></trkpt>
      <trkpt lat="29.32264" lon="97.034419"><time>2026-04-30T04:26:18.004Z</time></trkpt>
      <trkpt lat="29.32264" lon="97.034419"><time>2026-04-30T04:26:18.021Z</time></trkpt>
      <trkpt lat="29.32264" lon="97.034419"><time>2026-04-30T04:26:18.037Z</time></trkpt>
      <trkpt lat="29.32264" lon="97.034419"><time>2026-04-30T04:26:18.054Z</time></trkpt>
      <trkpt lat="29.32264" lon="97.034419"><time>2026-04-30T04:26:18.071Z</time></trkpt>
      <trkpt lat="29.32264" lon="97.03441"><time>2026-04-30T04:26:18.087Z</time></trkpt>
      <trkpt lat="29.32264" lon="97.03441"><time>2026-04-30T04:26:18.104Z</time></trkpt>
      <trkpt lat="29.32264" lon="97.03441"><time>2026-04-30T04:26:18.121Z</time></trkpt>
      <trkpt lat="29.32264" lon="97.03441"><time>2026-04-30T04:26:18.138Z</time></trkpt>
      <trkpt lat="29.32264" lon="97.03441"><time>2026-04-30T04:26:18.154Z</time></trkpt>
      <trkpt lat="29.32264" lon="97.03441"><time>2026-04-30T04:26:18.171Z</time></trkpt>
      <trkpt lat="29.32264" lon="97.034401"><time>2026-04-30T04:26:18.188Z</time></trkpt>
      <trkpt lat="29.32264" lon="97.034401"><time>2026-04-30T04:26:18.204Z</time></trkpt>
      <trkpt lat="29.32264" lon="97.034401"><time>2026-04-30T04:26:18.221Z</time></trkpt>
      <trkpt lat="29.32264" lon="97.034401"><time>2026-04-30T04:26:18.238Z</time></trkpt>
      <trkpt lat="29.32264" lon="97.034401"><time>2026-04-30T04:26:18.254Z</time></trkpt>
      <trkpt lat="29.32264" lon="97.034401"><time>2026-04-30T04:26:18.271Z</time></trkpt>
      <trkpt lat="29.32264" lon="97.034392"><time>2026-04-30T04:26:18.288Z</time></trkpt>
      <trkpt lat="29.32264" lon="97.034392"><time>2026-04-30T04:26:18.304Z</time></trkpt>
      <trkpt lat="29.32264" lon="97.034392"><time>2026-04-30T04:26:18.321Z</time></trkpt>
      <trkpt lat="29.32264" lon="97.034392"><time>2026-04-30T04:26:18.338Z</time></trkpt>
      <trkpt lat="29.32264" lon="97.034392"><time>2026-04-30T04:26:18.354Z</time></trkpt>
      <trkpt lat="29.32264" lon="97.034392"><time>2026-04-30T04:26:18.371Z</time></trkpt>
      <trkpt lat="29.32264" lon="97.034383"><time>2026-04-30T04:26:18.388Z</time></trkpt>
      <trkpt lat="29.32264" lon="97.034383"><time>2026-04-30T04:26:18.404Z</time></trkpt>
      <trkpt lat="29.32264" lon="97.034383"><time>2026-04-30T04:26:18.421Z</time></trkpt>
      <trkpt lat="29.32264" lon="97.034383"><time>2026-04-30T04:26:18.438Z</time></trkpt>
      <trkpt lat="29.32264" lon="97.034383"><time>2026-04-30T04:26:18.455Z</time></trkpt>
      <trkpt lat="29.32264" lon="97.034383"><time>2026-04-30T04:26:18.471Z</time></trkpt>
      <trkpt lat="29.32264" lon="97.034374"><time>2026-04-30T04:26:18.488Z</time></trkpt>
      <trkpt lat="29.32264" lon="97.034374"><time>2026-04-30T04:26:18.505Z</time></trkpt>
      <trkpt lat="29.32264" lon="97.034374"><time>2026-04-30T04:26:18.521Z</time></trkpt>
      <trkpt lat="29.32264" lon="97.034374"><time>2026-04-30T04:26:18.538Z</time></trkpt>
      <trkpt lat="29.32264" lon="97.034374"><time>2026-04-30T04:26:18.555Z</time></trkpt>
      <trkpt lat="29.32264" lon="97.034374"><time>2026-04-30T04:26:18.571Z</time></trkpt>
      <trkpt lat="29.32264" lon="97.034364"><time>2026-04-30T04:26:18.588Z</time></trkpt>
      <trkpt lat="29.32264" lon="97.034364"><time>2026-04-30T04:26:18.605Z</time></trkpt>
      <trkpt lat="29.32264" lon="97.034364"><time>2026-04-30T04:26:18.621Z</time></trkpt>
      <trkpt lat="29.32264" lon="97.034364"><time>2026-04-30T04:26:18.638Z</time></trkpt>
      <trkpt lat="29.32264" lon="97.034364"><time>2026-04-30T04:26:18.655Z</time></trkpt>
      <trkpt lat="29.32264" lon="97.034364"><time>2026-04-30T04:26:18.671Z</time></trkpt>
      <trkpt lat="29.32264" lon="97.034355"><time>2026-04-30T04:26:18.688Z</time></trkpt>
      <trkpt lat="29.32264" lon="97.034355"><time>2026-04-30T04:26:18.705Z</time></trkpt>
      <trkpt lat="29.32264" lon="97.034355"><time>2026-04-30T04:26:18.721Z</time></trkpt>
      <trkpt lat="29.32264" lon="97.034355"><time>2026-04-30T04:26:18.738Z</time></trkpt>
      <trkpt lat="29.32264" lon="97.034355"><time>2026-04-30T04:26:18.755Z</time></trkpt>
      <trkpt lat="29.32264" lon="97.034355"><time>2026-04-30T04:26:18.772Z</time></trkpt>
      <trkpt lat="29.322643" lon="97.034343"><time>2026-04-30T04:26:18.788Z</time></trkpt>
      <trkpt lat="29.322643" lon="97.034343"><time>2026-04-30T04:26:18.805Z</time></trkpt>
      <trkpt lat="29.322643" lon="97.034343"><time>2026-04-30T04:26:18.822Z</time></trkpt>
      <trkpt lat="29.322643" lon="97.034343"><time>2026-04-30T04:26:18.838Z</time></trkpt>
      <trkpt lat="29.322643" lon="97.034343"><time>2026-04-30T04:26:18.855Z</time></trkpt>
      <trkpt lat="29.322643" lon="97.034343"><time>2026-04-30T04:26:18.872Z</time></trkpt>
      <trkpt lat="29.322643" lon="97.034334"><time>2026-04-30T04:26:18.888Z</time></trkpt>
      <trkpt lat="29.322643" lon="97.034334"><time>2026-04-30T04:26:18.905Z</time></trkpt>
      <trkpt lat="29.322643" lon="97.034334"><time>2026-04-30T04:26:18.922Z</time></trkpt>
      <trkpt lat="29.322643" lon="97.034334"><time>2026-04-30T04:26:18.938Z</time></trkpt>
      <trkpt lat="29.322643" lon="97.034334"><time>2026-04-30T04:26:18.955Z</time></trkpt>
      <trkpt lat="29.322643" lon="97.034334"><time>2026-04-30T04:26:18.972Z</time></trkpt>
      <trkpt lat="29.322643" lon="97.034325"><time>2026-04-30T04:26:18.988Z</time></trkpt>
      <trkpt lat="29.322643" lon="97.034325"><time>2026-04-30T04:26:19.005Z</time></trkpt>
      <trkpt lat="29.322643" lon="97.034325"><time>2026-04-30T04:26:19.022Z</time></trkpt>
      <trkpt lat="29.322643" lon="97.034325"><time>2026-04-30T04:26:19.038Z</time></trkpt>
      <trkpt lat="29.322643" lon="97.034325"><time>2026-04-30T04:26:19.055Z</time></trkpt>
      <trkpt lat="29.322643" lon="97.034325"><time>2026-04-30T04:26:19.072Z</time></trkpt>
      <trkpt lat="29.322644" lon="97.034315"><time>2026-04-30T04:26:19.089Z</time></trkpt>
      <trkpt lat="29.322644" lon="97.034315"><time>2026-04-30T04:26:19.105Z</time></trkpt>
      <trkpt lat="29.322644" lon="97.034315"><time>2026-04-30T04:26:19.122Z</time></trkpt>
      <trkpt lat="29.322644" lon="97.034315"><time>2026-04-30T04:26:19.139Z</time></trkpt>
      <trkpt lat="29.322644" lon="97.034315"><time>2026-04-30T04:26:19.155Z</time></trkpt>
      <trkpt lat="29.322644" lon="97.034315"><time>2026-04-30T04:26:19.172Z</time></trkpt>
      <trkpt lat="29.322644" lon="97.034306"><time>2026-04-30T04:26:19.189Z</time></trkpt>
      <trkpt lat="29.322644" lon="97.034306"><time>2026-04-30T04:26:19.205Z</time></trkpt>
      <trkpt lat="29.322644" lon="97.034306"><time>2026-04-30T04:26:19.222Z</time></trkpt>
      <trkpt lat="29.322644" lon="97.034306"><time>2026-04-30T04:26:19.239Z</time></trkpt>
      <trkpt lat="29.322644" lon="97.034306"><time>2026-04-30T04:26:19.255Z</time></trkpt>
      <trkpt lat="29.322644" lon="97.034306"><time>2026-04-30T04:26:19.272Z</time></trkpt>
      <trkpt lat="29.322644" lon="97.034296"><time>2026-04-30T04:26:19.289Z</time></trkpt>
      <trkpt lat="29.322644" lon="97.034296"><time>2026-04-30T04:26:19.305Z</time></trkpt>
      <trkpt lat="29.322644" lon="97.034296"><time>2026-04-30T04:26:19.322Z</time></trkpt>
      <trkpt lat="29.322644" lon="97.034296"><time>2026-04-30T04:26:19.339Z</time></trkpt>
      <trkpt lat="29.322644" lon="97.034296"><time>2026-04-30T04:26:19.355Z</time></trkpt>
      <trkpt lat="29.322644" lon="97.034296"><time>2026-04-30T04:26:19.372Z</time></trkpt>
      <trkpt lat="29.322644" lon="97.034287"><time>2026-04-30T04:26:19.389Z</time></trkpt>
      <trkpt lat="29.322644" lon="97.034287"><time>2026-04-30T04:26:19.406Z</time></trkpt>
      <trkpt lat="29.322644" lon="97.034287"><time>2026-04-30T04:26:19.422Z</time></trkpt>
      <trkpt lat="29.322644" lon="97.034287"><time>2026-04-30T04:26:19.439Z</time></trkpt>
      <trkpt lat="29.322644" lon="97.034287"><time>2026-04-30T04:26:19.456Z</time></trkpt>
      <trkpt lat="29.322644" lon="97.034287"><time>2026-04-30T04:26:19.472Z</time></trkpt>
      <trkpt lat="29.322644" lon="97.034277"><time>2026-04-30T04:26:19.489Z</time></trkpt>
      <trkpt lat="29.322644" lon="97.034277"><time>2026-04-30T04:26:19.506Z</time></trkpt>
      <trkpt lat="29.322644" lon="97.034277"><time>2026-04-30T04:26:19.522Z</time></trkpt>
      <trkpt lat="29.322644" lon="97.034277"><time>2026-04-30T04:26:19.539Z</time></trkpt>
      <trkpt lat="29.322644" lon="97.034277"><time>2026-04-30T04:26:19.556Z</time></trkpt>
      <trkpt lat="29.322644" lon="97.034277"><time>2026-04-30T04:26:19.572Z</time></trkpt>
      <trkpt lat="29.322642" lon="97.034268"><time>2026-04-30T04:26:19.589Z</time></trkpt>
      <trkpt lat="29.322642" lon="97.034268"><time>2026-04-30T04:26:19.606Z</time></trkpt>
      <trkpt lat="29.322642" lon="97.034268"><time>2026-04-30T04:26:19.622Z</time></trkpt>
      <trkpt lat="29.322642" lon="97.034268"><time>2026-04-30T04:26:19.639Z</time></trkpt>
      <trkpt lat="29.322642" lon="97.034268"><time>2026-04-30T04:26:19.656Z</time></trkpt>
      <trkpt lat="29.322642" lon="97.034268"><time>2026-04-30T04:26:19.672Z</time></trkpt>
      <trkpt lat="29.322642" lon="97.034259"><time>2026-04-30T04:26:19.689Z</time></trkpt>
      <trkpt lat="29.322642" lon="97.034259"><time>2026-04-30T04:26:19.706Z</time></trkpt>
      <trkpt lat="29.322642" lon="97.034259"><time>2026-04-30T04:26:19.723Z</time></trkpt>
      <trkpt lat="29.322642" lon="97.034259"><time>2026-04-30T04:26:19.739Z</time></trkpt>
      <trkpt lat="29.322642" lon="97.034259"><time>2026-04-30T04:26:19.756Z</time></trkpt>
      <trkpt lat="29.322642" lon="97.034259"><time>2026-04-30T04:26:19.773Z</time></trkpt>
      <trkpt lat="29.322642" lon="97.034249"><time>2026-04-30T04:26:19.789Z</time></trkpt>
      <trkpt lat="29.322642" lon="97.034249"><time>2026-04-30T04:26:19.806Z</time></trkpt>
      <trkpt lat="29.322642" lon="97.034249"><time>2026-04-30T04:26:19.823Z</time></trkpt>
      <trkpt lat="29.322642" lon="97.034249"><time>2026-04-30T04:26:19.839Z</time></trkpt>
      <trkpt lat="29.322642" lon="97.034249"><time>2026-04-30T04:26:19.856Z</time></trkpt>
      <trkpt lat="29.322642" lon="97.034249"><time>2026-04-30T04:26:19.873Z</time></trkpt>
      <trkpt lat="29.322642" lon="97.03424"><time>2026-04-30T04:26:19.889Z</time></trkpt>
      <trkpt lat="29.322642" lon="97.03424"><time>2026-04-30T04:26:19.906Z</time></trkpt>
      <trkpt lat="29.322642" lon="97.03424"><time>2026-04-30T04:26:19.923Z</time></trkpt>
      <trkpt lat="29.322642" lon="97.03424"><time>2026-04-30T04:26:19.939Z</time></trkpt>
      <trkpt lat="29.322642" lon="97.03424"><time>2026-04-30T04:26:19.956Z</time></trkpt>
      <trkpt lat="29.322642" lon="97.03424"><time>2026-04-30T04:26:19.973Z</time></trkpt>
      <trkpt lat="29.322642" lon="97.03423"><time>2026-04-30T04:26:19.989Z</time></trkpt>
      <trkpt lat="29.322642" lon="97.03423"><time>2026-04-30T04:26:20.006Z</time></trkpt>
      <trkpt lat="29.322642" lon="97.03423"><time>2026-04-30T04:26:20.023Z</time></trkpt>
      <trkpt lat="29.322642" lon="97.03423"><time>2026-04-30T04:26:20.040Z</time></trkpt>
      <trkpt lat="29.322642" lon="97.03423"><time>2026-04-30T04:26:20.056Z</time></trkpt>
      <trkpt lat="29.322642" lon="97.03423"><time>2026-04-30T04:26:20.073Z</time></trkpt>
      <trkpt lat="29.322642" lon="97.03422"><time>2026-04-30T04:26:20.090Z</time></trkpt>
      <trkpt lat="29.322642" lon="97.03422"><time>2026-04-30T04:26:20.106Z</time></trkpt>
      <trkpt lat="29.322642" lon="97.03422"><time>2026-04-30T04:26:20.123Z</time></trkpt>
      <trkpt lat="29.322642" lon="97.03422"><time>2026-04-30T04:26:20.140Z</time></trkpt>
      <trkpt lat="29.322642" lon="97.03422"><time>2026-04-30T04:26:20.156Z</time></trkpt>
      <trkpt lat="29.322642" lon="97.03422"><time>2026-04-30T04:26:20.173Z</time></trkpt>
      <trkpt lat="29.322642" lon="97.034211"><time>2026-04-30T04:26:20.190Z</time></trkpt>
      <trkpt lat="29.322642" lon="97.034211"><time>2026-04-30T04:26:20.206Z</time></trkpt>
      <trkpt lat="29.322642" lon="97.034211"><time>2026-04-30T04:26:20.223Z</time></trkpt>
      <trkpt lat="29.322642" lon="97.034211"><time>2026-04-30T04:26:20.240Z</time></trkpt>
      <trkpt lat="29.322642" lon="97.034211"><time>2026-04-30T04:26:20.256Z</time></trkpt>
      <trkpt lat="29.322642" lon="97.034211"><time>2026-04-30T04:26:20.273Z</time></trkpt>
      <trkpt lat="29.322643" lon="97.034201"><time>2026-04-30T04:26:20.290Z</time></trkpt>
      <trkpt lat="29.322643" lon="97.034201"><time>2026-04-30T04:26:20.306Z</time></trkpt>
      <trkpt lat="29.322643" lon="97.034201"><time>2026-04-30T04:26:20.323Z</time></trkpt>
      <trkpt lat="29.322643" lon="97.034201"><time>2026-04-30T04:26:20.340Z</time></trkpt>
      <trkpt lat="29.322643" lon="97.034201"><time>2026-04-30T04:26:20.357Z</time></trkpt>
      <trkpt lat="29.322643" lon="97.034201"><time>2026-04-30T04:26:20.373Z</time></trkpt>
      <trkpt lat="29.322643" lon="97.034191"><time>2026-04-30T04:26:20.390Z</time></trkpt>
      <trkpt lat="29.322643" lon="97.034191"><time>2026-04-30T04:26:20.407Z</time></trkpt>
      <trkpt lat="29.322643" lon="97.034191"><time>2026-04-30T04:26:20.423Z</time></trkpt>
      <trkpt lat="29.322643" lon="97.034191"><time>2026-04-30T04:26:20.440Z</time></trkpt>
      <trkpt lat="29.322643" lon="97.034191"><time>2026-04-30T04:26:20.457Z</time></trkpt>
      <trkpt lat="29.322643" lon="97.034191"><time>2026-04-30T04:26:20.473Z</time></trkpt>
      <trkpt lat="29.322641" lon="97.034181"><time>2026-04-30T04:26:20.490Z</time></trkpt>
      <trkpt lat="29.322641" lon="97.034181"><time>2026-04-30T04:26:20.507Z</time></trkpt>
      <trkpt lat="29.322641" lon="97.034181"><time>2026-04-30T04:26:20.523Z</time></trkpt>
      <trkpt lat="29.322641" lon="97.034181"><time>2026-04-30T04:26:20.540Z</time></trkpt>
      <trkpt lat="29.322641" lon="97.034181"><time>2026-04-30T04:26:20.557Z</time></trkpt>
      <trkpt lat="29.322641" lon="97.034181"><time>2026-04-30T04:26:20.573Z</time></trkpt>
      <trkpt lat="29.322641" lon="97.034172"><time>2026-04-30T04:26:20.590Z</time></trkpt>
      <trkpt lat="29.322641" lon="97.034172"><time>2026-04-30T04:26:20.607Z</time></trkpt>
      <trkpt lat="29.322641" lon="97.034172"><time>2026-04-30T04:26:20.623Z</time></trkpt>
      <trkpt lat="29.322641" lon="97.034172"><time>2026-04-30T04:26:20.640Z</time></trkpt>
      <trkpt lat="29.322641" lon="97.034172"><time>2026-04-30T04:26:20.657Z</time></trkpt>
      <trkpt lat="29.322641" lon="97.034172"><time>2026-04-30T04:26:20.674Z</time></trkpt>
      <trkpt lat="29.322641" lon="97.034162"><time>2026-04-30T04:26:20.690Z</time></trkpt>
      <trkpt lat="29.322641" lon="97.034162"><time>2026-04-30T04:26:20.707Z</time></trkpt>
      <trkpt lat="29.322641" lon="97.034162"><time>2026-04-30T04:26:20.724Z</time></trkpt>
      <trkpt lat="29.322641" lon="97.034162"><time>2026-04-30T04:26:20.740Z</time></trkpt>
      <trkpt lat="29.322641" lon="97.034162"><time>2026-04-30T04:26:20.757Z</time></trkpt>
      <trkpt lat="29.322641" lon="97.034162"><time>2026-04-30T04:26:20.774Z</time></trkpt>
      <trkpt lat="29.322641" lon="97.034152"><time>2026-04-30T04:26:20.790Z</time></trkpt>
      <trkpt lat="29.322641" lon="97.034152"><time>2026-04-30T04:26:20.807Z</time></trkpt>
      <trkpt lat="29.322641" lon="97.034152"><time>2026-04-30T04:26:20.824Z</time></trkpt>
      <trkpt lat="29.322641" lon="97.034152"><time>2026-04-30T04:26:20.840Z</time></trkpt>
      <trkpt lat="29.322641" lon="97.034152"><time>2026-04-30T04:26:20.857Z</time></trkpt>
      <trkpt lat="29.322641" lon="97.034152"><time>2026-04-30T04:26:20.874Z</time></trkpt>
      <trkpt lat="29.322641" lon="97.034143"><time>2026-04-30T04:26:20.890Z</time></trkpt>
      <trkpt lat="29.322641" lon="97.034143"><time>2026-04-30T04:26:20.907Z</time></trkpt>
      <trkpt lat="29.322641" lon="97.034143"><time>2026-04-30T04:26:20.924Z</time></trkpt>
      <trkpt lat="29.322641" lon="97.034143"><time>2026-04-30T04:26:20.940Z</time></trkpt>
      <trkpt lat="29.322641" lon="97.034143"><time>2026-04-30T04:26:20.957Z</time></trkpt>
      <trkpt lat="29.322641" lon="97.034143"><time>2026-04-30T04:26:20.974Z</time></trkpt>
      <trkpt lat="29.322642" lon="97.034132"><time>2026-04-30T04:26:20.990Z</time></trkpt>
      <trkpt lat="29.322642" lon="97.034132"><time>2026-04-30T04:26:21.007Z</time></trkpt>
      <trkpt lat="29.322642" lon="97.034132"><time>2026-04-30T04:26:21.024Z</time></trkpt>
      <trkpt lat="29.322642" lon="97.034132"><time>2026-04-30T04:26:21.041Z</time></trkpt>
      <trkpt lat="29.322642" lon="97.034132"><time>2026-04-30T04:26:21.057Z</time></trkpt>
      <trkpt lat="29.322642" lon="97.034132"><time>2026-04-30T04:26:21.074Z</time></trkpt>
      <trkpt lat="29.322642" lon="97.034122"><time>2026-04-30T04:26:21.091Z</time></trkpt>
      <trkpt lat="29.322642" lon="97.034122"><time>2026-04-30T04:26:21.107Z</time></trkpt>
      <trkpt lat="29.322642" lon="97.034122"><time>2026-04-30T04:26:21.124Z</time></trkpt>
      <trkpt lat="29.322642" lon="97.034122"><time>2026-04-30T04:26:21.141Z</time></trkpt>
      <trkpt lat="29.322642" lon="97.034122"><time>2026-04-30T04:26:21.157Z</time></trkpt>
      <trkpt lat="29.322642" lon="97.034122"><time>2026-04-30T04:26:21.174Z</time></trkpt>
      <trkpt lat="29.322642" lon="97.034113"><time>2026-04-30T04:26:21.191Z</time></trkpt>
      <trkpt lat="29.322642" lon="97.034113"><time>2026-04-30T04:26:21.207Z</time></trkpt>
      <trkpt lat="29.322642" lon="97.034113"><time>2026-04-30T04:26:21.224Z</time></trkpt>
      <trkpt lat="29.322642" lon="97.034113"><time>2026-04-30T04:26:21.241Z</time></trkpt>
      <trkpt lat="29.322642" lon="97.034113"><time>2026-04-30T04:26:21.257Z</time></trkpt>
      <trkpt lat="29.322642" lon="97.034113"><time>2026-04-30T04:26:21.274Z</time></trkpt>
      <trkpt lat="29.322642" lon="97.034103"><time>2026-04-30T04:26:21.291Z</time></trkpt>
      <trkpt lat="29.322642" lon="97.034103"><time>2026-04-30T04:26:21.307Z</time></trkpt>
      <trkpt lat="29.322642" lon="97.034103"><time>2026-04-30T04:26:21.324Z</time></trkpt>
      <trkpt lat="29.322642" lon="97.034103"><time>2026-04-30T04:26:21.341Z</time></trkpt>
      <trkpt lat="29.322642" lon="97.034103"><time>2026-04-30T04:26:21.358Z</time></trkpt>
      <trkpt lat="29.322642" lon="97.034103"><time>2026-04-30T04:26:21.374Z</time></trkpt>
      <trkpt lat="29.32264" lon="97.034093"><time>2026-04-30T04:26:21.391Z</time></trkpt>
      <trkpt lat="29.32264" lon="97.034093"><time>2026-04-30T04:26:21.408Z</time></trkpt>
      <trkpt lat="29.32264" lon="97.034093"><time>2026-04-30T04:26:21.424Z</time></trkpt>
      <trkpt lat="29.32264" lon="97.034093"><time>2026-04-30T04:26:21.441Z</time></trkpt>
      <trkpt lat="29.32264" lon="97.034093"><time>2026-04-30T04:26:21.458Z</time></trkpt>
      <trkpt lat="29.32264" lon="97.034093"><time>2026-04-30T04:26:21.474Z</time></trkpt>
      <trkpt lat="29.32264" lon="97.034083"><time>2026-04-30T04:26:21.491Z</time></trkpt>
      <trkpt lat="29.32264" lon="97.034083"><time>2026-04-30T04:26:21.508Z</time></trkpt>
      <trkpt lat="29.32264" lon="97.034083"><time>2026-04-30T04:26:21.524Z</time></trkpt>
      <trkpt lat="29.32264" lon="97.034083"><time>2026-04-30T04:26:21.541Z</time></trkpt>
      <trkpt lat="29.32264" lon="97.034083"><time>2026-04-30T04:26:21.558Z</time></trkpt>
      <trkpt lat="29.32264" lon="97.034083"><time>2026-04-30T04:26:21.574Z</time></trkpt>
      <trkpt lat="29.322641" lon="97.034073"><time>2026-04-30T04:26:21.591Z</time></trkpt>
      <trkpt lat="29.322641" lon="97.034073"><time>2026-04-30T04:26:21.608Z</time></trkpt>
      <trkpt lat="29.322641" lon="97.034073"><time>2026-04-30T04:26:21.624Z</time></trkpt>
      <trkpt lat="29.322641" lon="97.034073"><time>2026-04-30T04:26:21.641Z</time></trkpt>
      <trkpt lat="29.322641" lon="97.034073"><time>2026-04-30T04:26:21.658Z</time></trkpt>
      <trkpt lat="29.322641" lon="97.034073"><time>2026-04-30T04:26:21.675Z</time></trkpt>
      <trkpt lat="29.322641" lon="97.034063"><time>2026-04-30T04:26:21.691Z</time></trkpt>
      <trkpt lat="29.322641" lon="97.034063"><time>2026-04-30T04:26:21.708Z</time></trkpt>
      <trkpt lat="29.322641" lon="97.034063"><time>2026-04-30T04:26:21.725Z</time></trkpt>
      <trkpt lat="29.322641" lon="97.034063"><time>2026-04-30T04:26:21.741Z</time></trkpt>
      <trkpt lat="29.322641" lon="97.034063"><time>2026-04-30T04:26:21.758Z</time></trkpt>
      <trkpt lat="29.322641" lon="97.034063"><time>2026-04-30T04:26:21.775Z</time></trkpt>
      <trkpt lat="29.322641" lon="97.034053"><time>2026-04-30T04:26:21.791Z</time></trkpt>
      <trkpt lat="29.322641" lon="97.034053"><time>2026-04-30T04:26:21.808Z</time></trkpt>
      <trkpt lat="29.322641" lon="97.034053"><time>2026-04-30T04:26:21.825Z</time></trkpt>
      <trkpt lat="29.322641" lon="97.034053"><time>2026-04-30T04:26:21.841Z</time></trkpt>
      <trkpt lat="29.322641" lon="97.034053"><time>2026-04-30T04:26:21.858Z</time></trkpt>
      <trkpt lat="29.322641" lon="97.034053"><time>2026-04-30T04:26:21.875Z</time></trkpt>
      <trkpt lat="29.322641" lon="97.034043"><time>2026-04-30T04:26:21.891Z</time></trkpt>
      <trkpt lat="29.322641" lon="97.034043"><time>2026-04-30T04:26:21.908Z</time></trkpt>
      <trkpt lat="29.322641" lon="97.034043"><time>2026-04-30T04:26:21.925Z</time></trkpt>
      <trkpt lat="29.322641" lon="97.034043"><time>2026-04-30T04:26:21.941Z</time></trkpt>
      <trkpt lat="29.322641" lon="97.034043"><time>2026-04-30T04:26:21.958Z</time></trkpt>
      <trkpt lat="29.322641" lon="97.034043"><time>2026-04-30T04:26:21.975Z</time></trkpt>
      <trkpt lat="29.32264" lon="97.034033"><time>2026-04-30T04:26:21.992Z</time></trkpt>
      <trkpt lat="29.32264" lon="97.034033"><time>2026-04-30T04:26:22.008Z</time></trkpt>
      <trkpt lat="29.32264" lon="97.034033"><time>2026-04-30T04:26:22.025Z</time></trkpt>
      <trkpt lat="29.32264" lon="97.034033"><time>2026-04-30T04:26:22.042Z</time></trkpt>
      <trkpt lat="29.32264" lon="97.034033"><time>2026-04-30T04:26:22.058Z</time></trkpt>
      <trkpt lat="29.32264" lon="97.034033"><time>2026-04-30T04:26:22.075Z</time></trkpt>
      <trkpt lat="29.32264" lon="97.034024"><time>2026-04-30T04:26:22.092Z</time></trkpt>
      <trkpt lat="29.32264" lon="97.034024"><time>2026-04-30T04:26:22.108Z</time></trkpt>
      <trkpt lat="29.32264" lon="97.034024"><time>2026-04-30T04:26:22.125Z</time></trkpt>
      <trkpt lat="29.32264" lon="97.034024"><time>2026-04-30T04:26:22.142Z</time></trkpt>
      <trkpt lat="29.32264" lon="97.034024"><time>2026-04-30T04:26:22.158Z</time></trkpt>
      <trkpt lat="29.32264" lon="97.034024"><time>2026-04-30T04:26:22.175Z</time></trkpt>
      <trkpt lat="29.32264" lon="97.034014"><time>2026-04-30T04:26:22.192Z</time></trkpt>
      <trkpt lat="29.32264" lon="97.034014"><time>2026-04-30T04:26:22.208Z</time></trkpt>
      <trkpt lat="29.32264" lon="97.034014"><time>2026-04-30T04:26:22.225Z</time></trkpt>
      <trkpt lat="29.32264" lon="97.034014"><time>2026-04-30T04:26:22.242Z</time></trkpt>
      <trkpt lat="29.32264" lon="97.034014"><time>2026-04-30T04:26:22.258Z</time></trkpt>
      <trkpt lat="29.32264" lon="97.034014"><time>2026-04-30T04:26:22.275Z</time></trkpt>
      <trkpt lat="29.32264" lon="97.034004"><time>2026-04-30T04:26:22.292Z</time></trkpt>
      <trkpt lat="29.32264" lon="97.034004"><time>2026-04-30T04:26:22.309Z</time></trkpt>
      <trkpt lat="29.32264" lon="97.034004"><time>2026-04-30T04:26:22.325Z</time></trkpt>
      <trkpt lat="29.32264" lon="97.034004"><time>2026-04-30T04:26:22.342Z</time></trkpt>
      <trkpt lat="29.32264" lon="97.034004"><time>2026-04-30T04:26:22.359Z</time></trkpt>
      <trkpt lat="29.32264" lon="97.034004"><time>2026-04-30T04:26:22.375Z</time></trkpt>
      <trkpt lat="29.322639" lon="97.033995"><time>2026-04-30T04:26:22.392Z</time></trkpt>
      <trkpt lat="29.322639" lon="97.033995"><time>2026-04-30T04:26:22.409Z</time></trkpt>
      <trkpt lat="29.322639" lon="97.033995"><time>2026-04-30T04:26:22.425Z</time></trkpt>
      <trkpt lat="29.322639" lon="97.033995"><time>2026-04-30T04:26:22.442Z</time></trkpt>
      <trkpt lat="29.322639" lon="97.033995"><time>2026-04-30T04:26:22.459Z</time></trkpt>
      <trkpt lat="29.322639" lon="97.033995"><time>2026-04-30T04:26:22.475Z</time></trkpt>
      <trkpt lat="29.322639" lon="97.033986"><time>2026-04-30T04:26:22.492Z</time></trkpt>
      <trkpt lat="29.322639" lon="97.033986"><time>2026-04-30T04:26:22.509Z</time></trkpt>
      <trkpt lat="29.322639" lon="97.033986"><time>2026-04-30T04:26:22.525Z</time></trkpt>
    </trkseg>
  </trk>
</gpx>
