<?xml version="1.0" encoding="UTF-8"?>
<gpx version="1.1" creator="Kairos" xmlns="http://www.topografix.com/GPX/1/1">
  <trk>
    <name>sidecar-srt-7dc13de6575bf9dc</name>
    <trkseg>
      <trkpt lat="26.287226" lon="98.873186"><time>2026-04-27T10:27:23.000Z</time></trkpt>
      <trkpt lat="26.287226" lon="98.873186"><time>2026-04-27T10:27:23.016Z</time></trkpt>
      <trkpt lat="26.287226" lon="98.873186"><time>2026-04-27T10:27:23.032Z</time></trkpt>
      <trkpt lat="26.287226" lon="98.873186"><time>2026-04-27T10:27:23.049Z</time></trkpt>
      <trkpt lat="26.287217" lon="98.873199"><time>2026-04-27T10:27:23.066Z</time></trkpt>
      <trkpt lat="26.287217" lon="98.873199"><time>2026-04-27T10:27:23.082Z</time></trkpt>
      <trkpt lat="26.287217" lon="98.873199"><time>2026-04-27T10:27:23.099Z</time></trkpt>
      <trkpt lat="26.287217" lon="98.873199"><time>2026-04-27T10:27:23.116Z</time></trkpt>
      <trkpt lat="26.287217" lon="98.873199"><time>2026-04-27T10:27:23.132Z</time></trkpt>
      <trkpt lat="26.287217" lon="98.873199"><time>2026-04-27T10:27:23.149Z</time></trkpt>
      <trkpt lat="26.287207" lon="98.873213"><time>2026-04-27T10:27:23.166Z</time></trkpt>
      <trkpt lat="26.287207" lon="98.873213"><time>2026-04-27T10:27:23.182Z</time></trkpt>
      <trkpt lat="26.287207" lon="98.873213"><time>2026-04-27T10:27:23.199Z</time></trkpt>
      <trkpt lat="26.287207" lon="98.873213"><time>2026-04-27T10:27:23.216Z</time></trkpt>
      <trkpt lat="26.287207" lon="98.873213"><time>2026-04-27T10:27:23.232Z</time></trkpt>
      <trkpt lat="26.287207" lon="98.873213"><time>2026-04-27T10:27:23.249Z</time></trkpt>
      <trkpt lat="26.287198" lon="98.873226"><time>2026-04-27T10:27:23.266Z</time></trkpt>
      <trkpt lat="26.287198" lon="98.873226"><time>2026-04-27T10:27:23.282Z</time></trkpt>
      <trkpt lat="26.287198" lon="98.873226"><time>2026-04-27T10:27:23.299Z</time></trkpt>
      <trkpt lat="26.287198" lon="98.873226"><time>2026-04-27T10:27:23.316Z</time></trkpt>
      <trkpt lat="26.287198" lon="98.873226"><time>2026-04-27T10:27:23.333Z</time></trkpt>
      <trkpt lat="26.287198" lon="98.873226"><time>2026-04-27T10:27:23.349Z</time></trkpt>
      <trkpt lat="26.287188" lon="98.87324"><time>2026-04-27T10:27:23.366Z</time></trkpt>
      <trkpt lat="26.287188" lon="98.87324"><time>2026-04-27T10:27:23.383Z</time></trkpt>
      <trkpt lat="26.287188" lon="98.87324"><time>2026-04-27T10:27:23.399Z</time></trkpt>
      <trkpt lat="26.287188" lon="98.87324"><time>2026-04-27T10:27:23.416Z</time></trkpt>
      <trkpt lat="26.287188" lon="98.87324"><time>2026-04-27T10:27:23.433Z</time></trkpt>
      <trkpt lat="26.287188" lon="98.87324"><time>2026-04-27T10:27:23.449Z</time></trkpt>
      <trkpt lat="26.287178" lon="98.873254"><time>2026-04-27T10:27:23.466Z</time></trkpt>
      <trkpt lat="26.287178" lon="98.873254"><time>2026-04-27T10:27:23.483Z</time></trkpt>
      <trkpt lat="26.287178" lon="98.873254"><time>2026-04-27T10:27:23.499Z</time></trkpt>
      <trkpt lat="26.287178" lon="98.873254"><time>2026-04-27T10:27:23.516Z</time></trkpt>
      <trkpt lat="26.287178" lon="98.873254"><time>2026-04-27T10:27:23.533Z</time></trkpt>
      <trkpt lat="26.287178" lon="98.873254"><time>2026-04-27T10:27:23.549Z</time></trkpt>
      <trkpt lat="26.287169" lon="98.873267"><time>2026-04-27T10:27:23.566Z</time></trkpt>
      <trkpt lat="26.287169" lon="98.873267"><time>2026-04-27T10:27:23.583Z</time></trkpt>
      <trkpt lat="26.287169" lon="98.873267"><time>2026-04-27T10:27:23.599Z</time></trkpt>
      <trkpt lat="26.287169" lon="98.873267"><time>2026-04-27T10:27:23.616Z</time></trkpt>
      <trkpt lat="26.287169" lon="98.873267"><time>2026-04-27T10:27:23.633Z</time></trkpt>
      <trkpt lat="26.287169" lon="98.873267"><time>2026-04-27T10:27:23.649Z</time></trkpt>
      <trkpt lat="26.287159" lon="98.873281"><time>2026-04-27T10:27:23.666Z</time></trkpt>
      <trkpt lat="26.287159" lon="98.873281"><time>2026-04-27T10:27:23.683Z</time></trkpt>
      <trkpt lat="26.287159" lon="98.873281"><time>2026-04-27T10:27:23.700Z</time></trkpt>
      <trkpt lat="26.287159" lon="98.873281"><time>2026-04-27T10:27:23.716Z</time></trkpt>
      <trkpt lat="26.287159" lon="98.873281"><time>2026-04-27T10:27:23.733Z</time></trkpt>
      <trkpt lat="26.287159" lon="98.873281"><time>2026-04-27T10:27:23.750Z</time></trkpt>
      <trkpt lat="26.287149" lon="98.873296"><time>2026-04-27T10:27:23.766Z</time></trkpt>
      <trkpt lat="26.287149" lon="98.873296"><time>2026-04-27T10:27:23.783Z</time></trkpt>
      <trkpt lat="26.287149" lon="98.873296"><time>2026-04-27T10:27:23.800Z</time></trkpt>
      <trkpt lat="26.287149" lon="98.873296"><time>2026-04-27T10:27:23.816Z</time></trkpt>
      <trkpt lat="26.287149" lon="98.873296"><time>2026-04-27T10:27:23.833Z</time></trkpt>
      <trkpt lat="26.287149" lon="98.873296"><time>2026-04-27T10:27:23.850Z</time></trkpt>
      <trkpt lat="26.287139" lon="98.873309"><time>2026-04-27T10:27:23.866Z</time></trkpt>
      <trkpt lat="26.287139" lon="98.873309"><time>2026-04-27T10:27:23.883Z</time></trkpt>
      <trkpt lat="26.287139" lon="98.873309"><time>2026-04-27T10:27:23.900Z</time></trkpt>
      <trkpt lat="26.287139" lon="98.873309"><time>2026-04-27T10:27:23.916Z</time></trkpt>
      <trkpt lat="26.287139" lon="98.873309"><time>2026-04-27T10:27:23.933Z</time></trkpt>
      <trkpt lat="26.287139" lon="98.873309"><time>2026-04-27T10:27:23.950Z</time></trkpt>
      <trkpt lat="26.287128" lon="98.873324"><time>2026-04-27T10:27:23.966Z</time></trkpt>
      <trkpt lat="26.287128" lon="98.873324"><time>2026-04-27T10:27:23.983Z</time></trkpt>
      <trkpt lat="26.287128" lon="98.873324"><time>2026-04-27T10:27:24.000Z</time></trkpt>
      <trkpt lat="26.287128" lon="98.873324"><time>2026-04-27T10:27:24.017Z</time></trkpt>
      <trkpt lat="26.287128" lon="98.873324"><time>2026-04-27T10:27:24.033Z</time></trkpt>
      <trkpt lat="26.287128" lon="98.873324"><time>2026-04-27T10:27:24.050Z</time></trkpt>
      <trkpt lat="26.287118" lon="98.873339"><time>2026-04-27T10:27:24.067Z</time></trkpt>
      <trkpt lat="26.287118" lon="98.873339"><time>2026-04-27T10:27:24.083Z</time></trkpt>
      <trkpt lat="26.287118" lon="98.873339"><time>2026-04-27T10:27:24.100Z</time></trkpt>
      <trkpt lat="26.287118" lon="98.873339"><time>2026-04-27T10:27:24.117Z</time></trkpt>
      <trkpt lat="26.287118" lon="98.873339"><time>2026-04-27T10:27:24.133Z</time></trkpt>
      <trkpt lat="26.287118" lon="98.873339"><time>2026-04-27T10:27:24.150Z</time></trkpt>
      <trkpt lat="26.287108" lon="98.873353"><time>2026-04-27T10:27:24.167Z</time></trkpt>
      <trkpt lat="26.287108" lon="98.873353"><time>2026-04-27T10:27:24.183Z</time></trkpt>
      <trkpt lat="26.287108" lon="98.873353"><time>2026-04-27T10:27:24.200Z</time></trkpt>
      <trkpt lat="26.287108" lon="98.873353"><time>2026-04-27T10:27:24.217Z</time></trkpt>
      <trkpt lat="26.287108" lon="98.873353"><time>2026-04-27T10:27:24.233Z</time></trkpt>
      <trkpt lat="26.287108" lon="98.873353"><time>2026-04-27T10:27:24.250Z</time></trkpt>
      <trkpt lat="26.287097" lon="98.873367"><time>2026-04-27T10:27:24.267Z</time></trkpt>
      <trkpt lat="26.287097" lon="98.873367"><time>2026-04-27T10:27:24.283Z</time></trkpt>
      <trkpt lat="26.287097" lon="98.873367"><time>2026-04-27T10:27:24.300Z</time></trkpt>
      <trkpt lat="26.287097" lon="98.873367"><time>2026-04-27T10:27:24.317Z</time></trkpt>
      <trkpt lat="26.287097" lon="98.873367"><time>2026-04-27T10:27:24.334Z</time></trkpt>
      <trkpt lat="26.287097" lon="98.873367"><time>2026-04-27T10:27:24.350Z</time></trkpt>
      <trkpt lat="26.287087" lon="98.873382"><time>2026-04-27T10:27:24.367Z</time></trkpt>
      <trkpt lat="26.287087" lon="98.873382"><time>2026-04-27T10:27:24.384Z</time></trkpt>
      <trkpt lat="26.287087" lon="98.873382"><time>2026-04-27T10:27:24.400Z</time></trkpt>
      <trkpt lat="26.287087" lon="98.873382"><time>2026-04-27T10:27:24.417Z</time></trkpt>
      <trkpt lat="26.287087" lon="98.873382"><time>2026-04-27T10:27:24.434Z</time></trkpt>
      <trkpt lat="26.287087" lon="98.873382"><time>2026-04-27T10:27:24.450Z</time></trkpt>
      <trkpt lat="26.287077" lon="98.873396"><time>2026-04-27T10:27:24.467Z</time></trkpt>
      <trkpt lat="26.287077" lon="98.873396"><time>2026-04-27T10:27:24.484Z</time></trkpt>
      <trkpt lat="26.287077" lon="98.873396"><time>2026-04-27T10:27:24.500Z</time></trkpt>
      <trkpt lat="26.287077" lon="98.873396"><time>2026-04-27T10:27:24.517Z</time></trkpt>
      <trkpt lat="26.287077" lon="98.873396"><time>2026-04-27T10:27:24.534Z</time></trkpt>
      <trkpt lat="26.287077" lon="98.873396"><time>2026-04-27T10:27:24.550Z</time></trkpt>
      <trkpt lat="26.287066" lon="98.873411"><time>2026-04-27T10:27:24.567Z</time></trkpt>
      <trkpt lat="26.287066" lon="98.873411"><time>2026-04-27T10:27:24.584Z</time></trkpt>
      <trkpt lat="26.287066" lon="98.873411"><time>2026-04-27T10:27:24.600Z</time></trkpt>
      <trkpt lat="26.287066" lon="98.873411"><time>2026-04-27T10:27:24.617Z</time></trkpt>
      <trkpt lat="26.287066" lon="98.873411"><time>2026-04-27T10:27:24.634Z</time></trkpt>
      <trkpt lat="26.287066" lon="98.873411"><time>2026-04-27T10:27:24.651Z</time></trkpt>
      <trkpt lat="26.287056" lon="98.873426"><time>2026-04-27T10:27:24.667Z</time></trkpt>
      <trkpt lat="26.287056" lon="98.873426"><time>2026-04-27T10:27:24.684Z</time></trkpt>
      <trkpt lat="26.287056" lon="98.873426"><time>2026-04-27T10:27:24.701Z</time></trkpt>
      <trkpt lat="26.287056" lon="98.873426"><time>2026-04-27T10:27:24.717Z</time></trkpt>
      <trkpt lat="26.287056" lon="98.873426"><time>2026-04-27T10:27:24.734Z</time></trkpt>
      <trkpt lat="26.287056" lon="98.873426"><time>2026-04-27T10:27:24.751Z</time></trkpt>
      <trkpt lat="26.287045" lon="98.87344"><time>2026-04-27T10:27:24.767Z</time></trkpt>
      <trkpt lat="26.287045" lon="98.87344"><time>2026-04-27T10:27:24.784Z</time></trkpt>
      <trkpt lat="26.287045" lon="98.87344"><time>2026-04-27T10:27:24.801Z</time></trkpt>
      <trkpt lat="26.287045" lon="98.87344"><time>2026-04-27T10:27:24.817Z</time></trkpt>
      <trkpt lat="26.287045" lon="98.87344"><time>2026-04-27T10:27:24.834Z</time></trkpt>
      <trkpt lat="26.287045" lon="98.87344"><time>2026-04-27T10:27:24.851Z</time></trkpt>
      <trkpt lat="26.287035" lon="98.873455"><time>2026-04-27T10:27:24.867Z</time></trkpt>
      <trkpt lat="26.287035" lon="98.873455"><time>2026-04-27T10:27:24.884Z</time></trkpt>
      <trkpt lat="26.287035" lon="98.873455"><time>2026-04-27T10:27:24.901Z</time></trkpt>
      <trkpt lat="26.287035" lon="98.873455"><time>2026-04-27T10:27:24.917Z</time></trkpt>
      <trkpt lat="26.287035" lon="98.873455"><time>2026-04-27T10:27:24.934Z</time></trkpt>
      <trkpt lat="26.287035" lon="98.873455"><time>2026-04-27T10:27:24.951Z</time></trkpt>
      <trkpt lat="26.287024" lon="98.87347"><time>2026-04-27T10:27:24.968Z</time></trkpt>
      <trkpt lat="26.287024" lon="98.87347"><time>2026-04-27T10:27:24.984Z</time></trkpt>
      <trkpt lat="26.287024" lon="98.87347"><time>2026-04-27T10:27:25.001Z</time></trkpt>
      <trkpt lat="26.287024" lon="98.87347"><time>2026-04-27T10:27:25.018Z</time></trkpt>
      <trkpt lat="26.287024" lon="98.87347"><time>2026-04-27T10:27:25.034Z</time></trkpt>
      <trkpt lat="26.287024" lon="98.87347"><time>2026-04-27T10:27:25.051Z</time></trkpt>
      <trkpt lat="26.287014" lon="98.873483"><time>2026-04-27T10:27:25.068Z</time></trkpt>
      <trkpt lat="26.287014" lon="98.873483"><time>2026-04-27T10:27:25.084Z</time></trkpt>
      <trkpt lat="26.287014" lon="98.873483"><time>2026-04-27T10:27:25.101Z</time></trkpt>
      <trkpt lat="26.287014" lon="98.873483"><time>2026-04-27T10:27:25.118Z</time></trkpt>
      <trkpt lat="26.287014" lon="98.873483"><time>2026-04-27T10:27:25.134Z</time></trkpt>
      <trkpt lat="26.287014" lon="98.873483"><time>2026-04-27T10:27:25.151Z</time></trkpt>
      <trkpt lat="26.287003" lon="98.873499"><time>2026-04-27T10:27:25.168Z</time></trkpt>
      <trkpt lat="26.287003" lon="98.873499"><time>2026-04-27T10:27:25.184Z</time></trkpt>
      <trkpt lat="26.287003" lon="98.873499"><time>2026-04-27T10:27:25.201Z</time></trkpt>
      <trkpt lat="26.287003" lon="98.873499"><time>2026-04-27T10:27:25.218Z</time></trkpt>
      <trkpt lat="26.287003" lon="98.873499"><time>2026-04-27T10:27:25.234Z</time></trkpt>
      <trkpt lat="26.287003" lon="98.873499"><time>2026-04-27T10:27:25.251Z</time></trkpt>
      <trkpt lat="26.286992" lon="98.873514"><time>2026-04-27T10:27:25.268Z</time></trkpt>
      <trkpt lat="26.286992" lon="98.873514"><time>2026-04-27T10:27:25.285Z</time></trkpt>
      <trkpt lat="26.286992" lon="98.873514"><time>2026-04-27T10:27:25.301Z</time></trkpt>
      <trkpt lat="26.286992" lon="98.873514"><time>2026-04-27T10:27:25.318Z</time></trkpt>
      <trkpt lat="26.286992" lon="98.873514"><time>2026-04-27T10:27:25.335Z</time></trkpt>
      <trkpt lat="26.286992" lon="98.873514"><time>2026-04-27T10:27:25.351Z</time></trkpt>
      <trkpt lat="26.286982" lon="98.873529"><time>2026-04-27T10:27:25.368Z</time></trkpt>
      <trkpt lat="26.286982" lon="98.873529"><time>2026-04-27T10:27:25.385Z</time></trkpt>
      <trkpt lat="26.286982" lon="98.873529"><time>2026-04-27T10:27:25.401Z</time></trkpt>
      <trkpt lat="26.286982" lon="98.873529"><time>2026-04-27T10:27:25.418Z</time></trkpt>
      <trkpt lat="26.286982" lon="98.873529"><time>2026-04-27T10:27:25.435Z</time></trkpt>
      <trkpt lat="26.286982" lon="98.873529"><time>2026-04-27T10:27:25.451Z</time></trkpt>
      <trkpt lat="26.286972" lon="98.873544"><time>2026-04-27T10:27:25.468Z</time></trkpt>
      <trkpt lat="26.286972" lon="98.873544"><time>2026-04-27T10:27:25.485Z</time></trkpt>
      <trkpt lat="26.286972" lon="98.873544"><time>2026-04-27T10:27:25.501Z</time></trkpt>
      <trkpt lat="26.286972" lon="98.873544"><time>2026-04-27T10:27:25.518Z</time></trkpt>
      <trkpt lat="26.286972" lon="98.873544"><time>2026-04-27T10:27:25.535Z</time></trkpt>
      <trkpt lat="26.286972" lon="98.873544"><time>2026-04-27T10:27:25.551Z</time></trkpt>
      <trkpt lat="26.286962" lon="98.873559"><time>2026-04-27T10:27:25.568Z</time></trkpt>
      <trkpt lat="26.286962" lon="98.873559"><time>2026-04-27T10:27:25.585Z</time></trkpt>
      <trkpt lat="26.286962" lon="98.873559"><time>2026-04-27T10:27:25.602Z</time></trkpt>
      <trkpt lat="26.286962" lon="98.873559"><time>2026-04-27T10:27:25.618Z</time></trkpt>
      <trkpt lat="26.286962" lon="98.873559"><time>2026-04-27T10:27:25.635Z</time></trkpt>
      <trkpt lat="26.286962" lon="98.873559"><time>2026-04-27T10:27:25.652Z</time></trkpt>
      <trkpt lat="26.286951" lon="98.873574"><time>2026-04-27T10:27:25.668Z</time></trkpt>
      <trkpt lat="26.286951" lon="98.873574"><time>2026-04-27T10:27:25.685Z</time></trkpt>
      <trkpt lat="26.286951" lon="98.873574"><time>2026-04-27T10:27:25.702Z</time></trkpt>
      <trkpt lat="26.286951" lon="98.873574"><time>2026-04-27T10:27:25.718Z</time></trkpt>
      <trkpt lat="26.286951" lon="98.873574"><time>2026-04-27T10:27:25.735Z</time></trkpt>
      <trkpt lat="26.286951" lon="98.873574"><time>2026-04-27T10:27:25.752Z</time></trkpt>
      <trkpt lat="26.286941" lon="98.873589"><time>2026-04-27T10:27:25.768Z</time></trkpt>
      <trkpt lat="26.286941" lon="98.873589"><time>2026-04-27T10:27:25.785Z</time></trkpt>
      <trkpt lat="26.286941" lon="98.873589"><time>2026-04-27T10:27:25.802Z</time></trkpt>
      <trkpt lat="26.286941" lon="98.873589"><time>2026-04-27T10:27:25.818Z</time></trkpt>
      <trkpt lat="26.286941" lon="98.873589"><time>2026-04-27T10:27:25.835Z</time></trkpt>
      <trkpt lat="26.286941" lon="98.873589"><time>2026-04-27T10:27:25.852Z</time></trkpt>
      <trkpt lat="26.28693" lon="98.873605"><time>2026-04-27T10:27:25.868Z</time></trkpt>
      <trkpt lat="26.28693" lon="98.873605"><time>2026-04-27T10:27:25.885Z</time></trkpt>
      <trkpt lat="26.28693" lon="98.873605"><time>2026-04-27T10:27:25.902Z</time></trkpt>
      <trkpt lat="26.28693" lon="98.873605"><time>2026-04-27T10:27:25.919Z</time></trkpt>
      <trkpt lat="26.28693" lon="98.873605"><time>2026-04-27T10:27:25.935Z</time></trkpt>
      <trkpt lat="26.28693" lon="98.873605"><time>2026-04-27T10:27:25.952Z</time></trkpt>
      <trkpt lat="26.28692" lon="98.873619"><time>2026-04-27T10:27:25.969Z</time></trkpt>
      <trkpt lat="26.28692" lon="98.873619"><time>2026-04-27T10:27:25.985Z</time></trkpt>
      <trkpt lat="26.28692" lon="98.873619"><time>2026-04-27T10:27:26.002Z</time></trkpt>
      <trkpt lat="26.28692" lon="98.873619"><time>2026-04-27T10:27:26.019Z</time></trkpt>
      <trkpt lat="26.28692" lon="98.873619"><time>2026-04-27T10:27:26.035Z</time></trkpt>
      <trkpt lat="26.28692" lon="98.873619"><time>2026-04-27T10:27:26.052Z</time></trkpt>
      <trkpt lat="26.286909" lon="98.873635"><time>2026-04-27T10:27:26.069Z</time></trkpt>
      <trkpt lat="26.286909" lon="98.873635"><time>2026-04-27T10:27:26.085Z</time></trkpt>
      <trkpt lat="26.286909" lon="98.873635"><time>2026-04-27T10:27:26.102Z</time></trkpt>
      <trkpt lat="26.286909" lon="98.873635"><time>2026-04-27T10:27:26.119Z</time></trkpt>
      <trkpt lat="26.286909" lon="98.873635"><time>2026-04-27T10:27:26.135Z</time></trkpt>
      <trkpt lat="26.286909" lon="98.873635"><time>2026-04-27T10:27:26.152Z</time></trkpt>
      <trkpt lat="26.286898" lon="98.87365"><time>2026-04-27T10:27:26.169Z</time></trkpt>
      <trkpt lat="26.286898" lon="98.87365"><time>2026-04-27T10:27:26.185Z</time></trkpt>
      <trkpt lat="26.286898" lon="98.87365"><time>2026-04-27T10:27:26.202Z</time></trkpt>
      <trkpt lat="26.286898" lon="98.87365"><time>2026-04-27T10:27:26.219Z</time></trkpt>
      <trkpt lat="26.286898" lon="98.87365"><time>2026-04-27T10:27:26.236Z</time></trkpt>
      <trkpt lat="26.286898" lon="98.87365"><time>2026-04-27T10:27:26.252Z</time></trkpt>
      <trkpt lat="26.286887" lon="98.873666"><time>2026-04-27T10:27:26.269Z</time></trkpt>
      <trkpt lat="26.286887" lon="98.873666"><time>2026-04-27T10:27:26.286Z</time></trkpt>
      <trkpt lat="26.286887" lon="98.873666"><time>2026-04-27T10:27:26.302Z</time></trkpt>
      <trkpt lat="26.286887" lon="98.873666"><time>2026-04-27T10:27:26.319Z</time></trkpt>
      <trkpt lat="26.286887" lon="98.873666"><time>2026-04-27T10:27:26.336Z</time></trkpt>
      <trkpt lat="26.286887" lon="98.873666"><time>2026-04-27T10:27:26.352Z</time></trkpt>
      <trkpt lat="26.286876" lon="98.873681"><time>2026-04-27T10:27:26.369Z</time></trkpt>
      <trkpt lat="26.286876" lon="98.873681"><time>2026-04-27T10:27:26.386Z</time></trkpt>
      <trkpt lat="26.286876" lon="98.873681"><time>2026-04-27T10:27:26.402Z</time></trkpt>
      <trkpt lat="26.286876" lon="98.873681"><time>2026-04-27T10:27:26.419Z</time></trkpt>
      <trkpt lat="26.286876" lon="98.873681"><time>2026-04-27T10:27:26.436Z</time></trkpt>
      <trkpt lat="26.286876" lon="98.873681"><time>2026-04-27T10:27:26.452Z</time></trkpt>
      <trkpt lat="26.286865" lon="98.873696"><time>2026-04-27T10:27:26.469Z</time></trkpt>
      <trkpt lat="26.286865" lon="98.873696"><time>2026-04-27T10:27:26.486Z</time></trkpt>
      <trkpt lat="26.286865" lon="98.873696"><time>2026-04-27T10:27:26.502Z</time></trkpt>
      <trkpt lat="26.286865" lon="98.873696"><time>2026-04-27T10:27:26.519Z</time></trkpt>
      <trkpt lat="26.286865" lon="98.873696"><time>2026-04-27T10:27:26.536Z</time></trkpt>
      <trkpt lat="26.286865" lon="98.873696"><time>2026-04-27T10:27:26.553Z</time></trkpt>
      <trkpt lat="26.286854" lon="98.873711"><time>2026-04-27T10:27:26.569Z</time></trkpt>
      <trkpt lat="26.286854" lon="98.873711"><time>2026-04-27T10:27:26.586Z</time></trkpt>
      <trkpt lat="26.286854" lon="98.873711"><time>2026-04-27T10:27:26.603Z</time></trkpt>
      <trkpt lat="26.286854" lon="98.873711"><time>2026-04-27T10:27:26.619Z</time></trkpt>
      <trkpt lat="26.286854" lon="98.873711"><time>2026-04-27T10:27:26.636Z</time></trkpt>
      <trkpt lat="26.286854" lon="98.873711"><time>2026-04-27T10:27:26.653Z</time></trkpt>
      <trkpt lat="26.286842" lon="98.873727"><time>2026-04-27T10:27:26.669Z</time></trkpt>
      <trkpt lat="26.286842" lon="98.873727"><time>2026-04-27T10:27:26.686Z</time></trkpt>
      <trkpt lat="26.286842" lon="98.873727"><time>2026-04-27T10:27:26.703Z</time></trkpt>
      <trkpt lat="26.286842" lon="98.873727"><time>2026-04-27T10:27:26.719Z</time></trkpt>
      <trkpt lat="26.286842" lon="98.873727"><time>2026-04-27T10:27:26.736Z</time></trkpt>
      <trkpt lat="26.286842" lon="98.873727"><time>2026-04-27T10:27:26.753Z</time></trkpt>
      <trkpt lat="26.286831" lon="98.873742"><time>2026-04-27T10:27:26.769Z</time></trkpt>
      <trkpt lat="26.286831" lon="98.873742"><time>2026-04-27T10:27:26.786Z</time></trkpt>
      <trkpt lat="26.286831" lon="98.873742"><time>2026-04-27T10:27:26.803Z</time></trkpt>
      <trkpt lat="26.286831" lon="98.873742"><time>2026-04-27T10:27:26.819Z</time></trkpt>
      <trkpt lat="26.286831" lon="98.873742"><time>2026-04-27T10:27:26.836Z</time></trkpt>
      <trkpt lat="26.286831" lon="98.873742"><time>2026-04-27T10:27:26.853Z</time></trkpt>
      <trkpt lat="26.286819" lon="98.873757"><time>2026-04-27T10:27:26.870Z</time></trkpt>
      <trkpt lat="26.286819" lon="98.873757"><time>2026-04-27T10:27:26.886Z</time></trkpt>
      <trkpt lat="26.286819" lon="98.873757"><time>2026-04-27T10:27:26.903Z</time></trkpt>
      <trkpt lat="26.286819" lon="98.873757"><time>2026-04-27T10:27:26.920Z</time></trkpt>
      <trkpt lat="26.286819" lon="98.873757"><time>2026-04-27T10:27:26.936Z</time></trkpt>
      <trkpt lat="26.286819" lon="98.873757"><time>2026-04-27T10:27:26.953Z</time></trkpt>
      <trkpt lat="26.286807" lon="98.873772"><time>2026-04-27T10:27:26.970Z</time></trkpt>
      <trkpt lat="26.286807" lon="98.873772"><time>2026-04-27T10:27:26.986Z</time></trkpt>
      <trkpt lat="26.286807" lon="98.873772"><time>2026-04-27T10:27:27.003Z</time></trkpt>
      <trkpt lat="26.286807" lon="98.873772"><time>2026-04-27T10:27:27.020Z</time></trkpt>
      <trkpt lat="26.286807" lon="98.873772"><time>2026-04-27T10:27:27.036Z</time></trkpt>
      <trkpt lat="26.286807" lon="98.873772"><time>2026-04-27T10:27:27.053Z</time></trkpt>
      <trkpt lat="26.286796" lon="98.873787"><time>2026-04-27T10:27:27.070Z</time></trkpt>
      <trkpt lat="26.286796" lon="98.873787"><time>2026-04-27T10:27:27.086Z</time></trkpt>
      <trkpt lat="26.286796" lon="98.873787"><time>2026-04-27T10:27:27.103Z</time></trkpt>
      <trkpt lat="26.286796" lon="98.873787"><time>2026-04-27T10:27:27.120Z</time></trkpt>
      <trkpt lat="26.286796" lon="98.873787"><time>2026-04-27T10:27:27.136Z</time></trkpt>
      <trkpt lat="26.286796" lon="98.873787"><time>2026-04-27T10:27:27.153Z</time></trkpt>
      <trkpt lat="26.286784" lon="98.873801"><time>2026-04-27T10:27:27.170Z</time></trkpt>
      <trkpt lat="26.286784" lon="98.873801"><time>2026-04-27T10:27:27.187Z</time></trkpt>
      <trkpt lat="26.286784" lon="98.873801"><time>2026-04-27T10:27:27.203Z</time></trkpt>
      <trkpt lat="26.286784" lon="98.873801"><time>2026-04-27T10:27:27.220Z</time></trkpt>
      <trkpt lat="26.286784" lon="98.873801"><time>2026-04-27T10:27:27.237Z</time></trkpt>
      <trkpt lat="26.286784" lon="98.873801"><time>2026-04-27T10:27:27.253Z</time></trkpt>
      <trkpt lat="26.286772" lon="98.873816"><time>2026-04-27T10:27:27.270Z</time></trkpt>
      <trkpt lat="26.286772" lon="98.873816"><time>2026-04-27T10:27:27.287Z</time></trkpt>
      <trkpt lat="26.286772" lon="98.873816"><time>2026-04-27T10:27:27.303Z</time></trkpt>
      <trkpt lat="26.286772" lon="98.873816"><time>2026-04-27T10:27:27.320Z</time></trkpt>
      <trkpt lat="26.286772" lon="98.873816"><time>2026-04-27T10:27:27.337Z</time></trkpt>
      <trkpt lat="26.286772" lon="98.873816"><time>2026-04-27T10:27:27.353Z</time></trkpt>
      <trkpt lat="26.286761" lon="98.873831"><time>2026-04-27T10:27:27.370Z</time></trkpt>
      <trkpt lat="26.286761" lon="98.873831"><time>2026-04-27T10:27:27.387Z</time></trkpt>
      <trkpt lat="26.286761" lon="98.873831"><time>2026-04-27T10:27:27.403Z</time></trkpt>
      <trkpt lat="26.286761" lon="98.873831"><time>2026-04-27T10:27:27.420Z</time></trkpt>
      <trkpt lat="26.286761" lon="98.873831"><time>2026-04-27T10:27:27.437Z</time></trkpt>
      <trkpt lat="26.286761" lon="98.873831"><time>2026-04-27T10:27:27.453Z</time></trkpt>
      <trkpt lat="26.286749" lon="98.873845"><time>2026-04-27T10:27:27.470Z</time></trkpt>
      <trkpt lat="26.286749" lon="98.873845"><time>2026-04-27T10:27:27.487Z</time></trkpt>
      <trkpt lat="26.286749" lon="98.873845"><time>2026-04-27T10:27:27.504Z</time></trkpt>
      <trkpt lat="26.286749" lon="98.873845"><time>2026-04-27T10:27:27.520Z</time></trkpt>
      <trkpt lat="26.286749" lon="98.873845"><time>2026-04-27T10:27:27.537Z</time></trkpt>
      <trkpt lat="26.286749" lon="98.873845"><time>2026-04-27T10:27:27.554Z</time></trkpt>
      <trkpt lat="26.286737" lon="98.873859"><time>2026-04-27T10:27:27.570Z</time></trkpt>
      <trkpt lat="26.286737" lon="98.873859"><time>2026-04-27T10:27:27.587Z</time></trkpt>
      <trkpt lat="26.286737" lon="98.873859"><time>2026-04-27T10:27:27.604Z</time></trkpt>
      <trkpt lat="26.286737" lon="98.873859"><time>2026-04-27T10:27:27.620Z</time></trkpt>
      <trkpt lat="26.286737" lon="98.873859"><time>2026-04-27T10:27:27.637Z</time></trkpt>
      <trkpt lat="26.286737" lon="98.873859"><time>2026-04-27T10:27:27.654Z</time></trkpt>
      <trkpt lat="26.286724" lon="98.873874"><time>2026-04-27T10:27:27.670Z</time></trkpt>
      <trkpt lat="26.286724" lon="98.873874"><time>2026-04-27T10:27:27.687Z</time></trkpt>
      <trkpt lat="26.286724" lon="98.873874"><time>2026-04-27T10:27:27.704Z</time></trkpt>
      <trkpt lat="26.286724" lon="98.873874"><time>2026-04-27T10:27:27.720Z</time></trkpt>
      <trkpt lat="26.286724" lon="98.873874"><time>2026-04-27T10:27:27.737Z</time></trkpt>
      <trkpt lat="26.286724" lon="98.873874"><time>2026-04-27T10:27:27.754Z</time></trkpt>
      <trkpt lat="26.286712" lon="98.873889"><time>2026-04-27T10:27:27.770Z</time></trkpt>
      <trkpt lat="26.286712" lon="98.873889"><time>2026-04-27T10:27:27.787Z</time></trkpt>
      <trkpt lat="26.286712" lon="98.873889"><time>2026-04-27T10:27:27.804Z</time></trkpt>
      <trkpt lat="26.286712" lon="98.873889"><time>2026-04-27T10:27:27.821Z</time></trkpt>
      <trkpt lat="26.286712" lon="98.873889"><time>2026-04-27T10:27:27.837Z</time></trkpt>
      <trkpt lat="26.286712" lon="98.873889"><time>2026-04-27T10:27:27.854Z</time></trkpt>
      <trkpt lat="26.2867" lon="98.873903"><time>2026-04-27T10:27:27.871Z</time></trkpt>
      <trkpt lat="26.2867" lon="98.873903"><time>2026-04-27T10:27:27.887Z</time></trkpt>
      <trkpt lat="26.2867" lon="98.873903"><time>2026-04-27T10:27:27.904Z</time></trkpt>
      <trkpt lat="26.2867" lon="98.873903"><time>2026-04-27T10:27:27.921Z</time></trkpt>
      <trkpt lat="26.2867" lon="98.873903"><time>2026-04-27T10:27:27.937Z</time></trkpt>
      <trkpt lat="26.2867" lon="98.873903"><time>2026-04-27T10:27:27.954Z</time></trkpt>
      <trkpt lat="26.286687" lon="98.873917"><time>2026-04-27T10:27:27.971Z</time></trkpt>
      <trkpt lat="26.286687" lon="98.873917"><time>2026-04-27T10:27:27.987Z</time></trkpt>
      <trkpt lat="26.286687" lon="98.873917"><time>2026-04-27T10:27:28.004Z</time></trkpt>
      <trkpt lat="26.286687" lon="98.873917"><time>2026-04-27T10:27:28.021Z</time></trkpt>
      <trkpt lat="26.286687" lon="98.873917"><time>2026-04-27T10:27:28.037Z</time></trkpt>
      <trkpt lat="26.286687" lon="98.873917"><time>2026-04-27T10:27:28.054Z</time></trkpt>
      <trkpt lat="26.286674" lon="98.873931"><time>2026-04-27T10:27:28.071Z</time></trkpt>
      <trkpt lat="26.286674" lon="98.873931"><time>2026-04-27T10:27:28.087Z</time></trkpt>
      <trkpt lat="26.286674" lon="98.873931"><time>2026-04-27T10:27:28.104Z</time></trkpt>
      <trkpt lat="26.286674" lon="98.873931"><time>2026-04-27T10:27:28.121Z</time></trkpt>
      <trkpt lat="26.286674" lon="98.873931"><time>2026-04-27T10:27:28.138Z</time></trkpt>
      <trkpt lat="26.286674" lon="98.873931"><time>2026-04-27T10:27:28.154Z</time></trkpt>
      <trkpt lat="26.286662" lon="98.873944"><time>2026-04-27T10:27:28.171Z</time></trkpt>
      <trkpt lat="26.286662" lon="98.873944"><time>2026-04-27T10:27:28.188Z</time></trkpt>
      <trkpt lat="26.286662" lon="98.873944"><time>2026-04-27T10:27:28.204Z</time></trkpt>
      <trkpt lat="26.286662" lon="98.873944"><time>2026-04-27T10:27:28.221Z</time></trkpt>
      <trkpt lat="26.286662" lon="98.873944"><time>2026-04-27T10:27:28.238Z</time></trkpt>
      <trkpt lat="26.286662" lon="98.873944"><time>2026-04-27T10:27:28.254Z</time></trkpt>
      <trkpt lat="26.286649" lon="98.873959"><time>2026-04-27T10:27:28.271Z</time></trkpt>
      <trkpt lat="26.286649" lon="98.873959"><time>2026-04-27T10:27:28.288Z</time></trkpt>
      <trkpt lat="26.286649" lon="98.873959"><time>2026-04-27T10:27:28.304Z</time></trkpt>
      <trkpt lat="26.286649" lon="98.873959"><time>2026-04-27T10:27:28.321Z</time></trkpt>
      <trkpt lat="26.286649" lon="98.873959"><time>2026-04-27T10:27:28.338Z</time></trkpt>
      <trkpt lat="26.286649" lon="98.873959"><time>2026-04-27T10:27:28.354Z</time></trkpt>
      <trkpt lat="26.286635" lon="98.873973"><time>2026-04-27T10:27:28.371Z</time></trkpt>
      <trkpt lat="26.286635" lon="98.873973"><time>2026-04-27T10:27:28.388Z</time></trkpt>
      <trkpt lat="26.286635" lon="98.873973"><time>2026-04-27T10:27:28.404Z</time></trkpt>
      <trkpt lat="26.286635" lon="98.873973"><time>2026-04-27T10:27:28.421Z</time></trkpt>
      <trkpt lat="26.286635" lon="98.873973"><time>2026-04-27T10:27:28.438Z</time></trkpt>
      <trkpt lat="26.286635" lon="98.873973"><time>2026-04-27T10:27:28.455Z</time></trkpt>
      <trkpt lat="26.286623" lon="98.873987"><time>2026-04-27T10:27:28.471Z</time></trkpt>
      <trkpt lat="26.286623" lon="98.873987"><time>2026-04-27T10:27:28.488Z</time></trkpt>
      <trkpt lat="26.286623" lon="98.873987"><time>2026-04-27T10:27:28.505Z</time></trkpt>
      <trkpt lat="26.286623" lon="98.873987"><time>2026-04-27T10:27:28.521Z</time></trkpt>
      <trkpt lat="26.286623" lon="98.873987"><time>2026-04-27T10:27:28.538Z</time></trkpt>
      <trkpt lat="26.286623" lon="98.873987"><time>2026-04-27T10:27:28.555Z</time></trkpt>
      <trkpt lat="26.28661" lon="98.874001"><time>2026-04-27T10:27:28.571Z</time></trkpt>
      <trkpt lat="26.28661" lon="98.874001"><time>2026-04-27T10:27:28.588Z</time></trkpt>
      <trkpt lat="26.28661" lon="98.874001"><time>2026-04-27T10:27:28.605Z</time></trkpt>
      <trkpt lat="26.28661" lon="98.874001"><time>2026-04-27T10:27:28.621Z</time></trkpt>
      <trkpt lat="26.28661" lon="98.874001"><time>2026-04-27T10:27:28.638Z</time></trkpt>
      <trkpt lat="26.28661" lon="98.874001"><time>2026-04-27T10:27:28.655Z</time></trkpt>
      <trkpt lat="26.286596" lon="98.874015"><time>2026-04-27T10:27:28.671Z</time></trkpt>
      <trkpt lat="26.286596" lon="98.874015"><time>2026-04-27T10:27:28.688Z</time></trkpt>
      <trkpt lat="26.286596" lon="98.874015"><time>2026-04-27T10:27:28.705Z</time></trkpt>
      <trkpt lat="26.286596" lon="98.874015"><time>2026-04-27T10:27:28.721Z</time></trkpt>
      <trkpt lat="26.286596" lon="98.874015"><time>2026-04-27T10:27:28.738Z</time></trkpt>
      <trkpt lat="26.286596" lon="98.874015"><time>2026-04-27T10:27:28.755Z</time></trkpt>
      <trkpt lat="26.286582" lon="98.874029"><time>2026-04-27T10:27:28.772Z</time></trkpt>
      <trkpt lat="26.286582" lon="98.874029"><time>2026-04-27T10:27:28.788Z</time></trkpt>
      <trkpt lat="26.286582" lon="98.874029"><time>2026-04-27T10:27:28.805Z</time></trkpt>
      <trkpt lat="26.286582" lon="98.874029"><time>2026-04-27T10:27:28.822Z</time></trkpt>
      <trkpt lat="26.286582" lon="98.874029"><time>2026-04-27T10:27:28.838Z</time></trkpt>
      <trkpt lat="26.286582" lon="98.874029"><time>2026-04-27T10:27:28.855Z</time></trkpt>
      <trkpt lat="26.286569" lon="98.874043"><time>2026-04-27T10:27:28.872Z</time></trkpt>
      <trkpt lat="26.286569" lon="98.874043"><time>2026-04-27T10:27:28.888Z</time></trkpt>
      <trkpt lat="26.286569" lon="98.874043"><time>2026-04-27T10:27:28.905Z</time></trkpt>
      <trkpt lat="26.286569" lon="98.874043"><time>2026-04-27T10:27:28.922Z</time></trkpt>
      <trkpt lat="26.286569" lon="98.874043"><time>2026-04-27T10:27:28.938Z</time></trkpt>
      <trkpt lat="26.286556" lon="98.874056"><time>2026-04-27T10:27:28.955Z</time></trkpt>
      <trkpt lat="26.286556" lon="98.874056"><time>2026-04-27T10:27:28.972Z</time></trkpt>
      <trkpt lat="26.286556" lon="98.874056"><time>2026-04-27T10:27:28.988Z</time></trkpt>
      <trkpt lat="26.286556" lon="98.874056"><time>2026-04-27T10:27:29.005Z</time></trkpt>
      <trkpt lat="26.286556" lon="98.874056"><time>2026-04-27T10:27:29.022Z</time></trkpt>
      <trkpt lat="26.286556" lon="98.874056"><time>2026-04-27T10:27:29.038Z</time></trkpt>
      <trkpt lat="26.286542" lon="98.87407"><time>2026-04-27T10:27:29.055Z</time></trkpt>
      <trkpt lat="26.286542" lon="98.87407"><time>2026-04-27T10:27:29.072Z</time></trkpt>
      <trkpt lat="26.286542" lon="98.87407"><time>2026-04-27T10:27:29.089Z</time></trkpt>
      <trkpt lat="26.286542" lon="98.87407"><time>2026-04-27T10:27:29.105Z</time></trkpt>
      <trkpt lat="26.286542" lon="98.87407"><time>2026-04-27T10:27:29.122Z</time></trkpt>
      <trkpt lat="26.286542" lon="98.87407"><time>2026-04-27T10:27:29.139Z</time></trkpt>
      <trkpt lat="26.286529" lon="98.874083"><time>2026-04-27T10:27:29.155Z</time></trkpt>
      <trkpt lat="26.286529" lon="98.874083"><time>2026-04-27T10:27:29.172Z</time></trkpt>
      <trkpt lat="26.286529" lon="98.874083"><time>2026-04-27T10:27:29.189Z</time></trkpt>
      <trkpt lat="26.286529" lon="98.874083"><time>2026-04-27T10:27:29.205Z</time></trkpt>
      <trkpt lat="26.286529" lon="98.874083"><time>2026-04-27T10:27:29.222Z</time></trkpt>
      <trkpt lat="26.286529" lon="98.874083"><time>2026-04-27T10:27:29.239Z</time></trkpt>
      <trkpt lat="26.286515" lon="98.874097"><time>2026-04-27T10:27:29.255Z</time></trkpt>
      <trkpt lat="26.286515" lon="98.874097"><time>2026-04-27T10:27:29.272Z</time></trkpt>
      <trkpt lat="26.286515" lon="98.874097"><time>2026-04-27T10:27:29.289Z</time></trkpt>
      <trkpt lat="26.286515" lon="98.874097"><time>2026-04-27T10:27:29.305Z</time></trkpt>
      <trkpt lat="26.286515" lon="98.874097"><time>2026-04-27T10:27:29.322Z</time></trkpt>
      <trkpt lat="26.286515" lon="98.874097"><time>2026-04-27T10:27:29.339Z</time></trkpt>
      <trkpt lat="26.286501" lon="98.87411"><time>2026-04-27T10:27:29.355Z</time></trkpt>
      <trkpt lat="26.286501" lon="98.87411"><time>2026-04-27T10:27:29.372Z</time></trkpt>
      <trkpt lat="26.286501" lon="98.87411"><time>2026-04-27T10:27:29.389Z</time></trkpt>
      <trkpt lat="26.286501" lon="98.87411"><time>2026-04-27T10:27:29.406Z</time></trkpt>
      <trkpt lat="26.286501" lon="98.87411"><time>2026-04-27T10:27:29.422Z</time></trkpt>
      <trkpt lat="26.286501" lon="98.87411"><time>2026-04-27T10:27:29.439Z</time></trkpt>
      <trkpt lat="26.286488" lon="98.874124"><time>2026-04-27T10:27:29.456Z</time></trkpt>
      <trkpt lat="26.286488" lon="98.874124"><time>2026-04-27T10:27:29.472Z</time></trkpt>
      <trkpt lat="26.286488" lon="98.874124"><time>2026-04-27T10:27:29.489Z</time></trkpt>
      <trkpt lat="26.286488" lon="98.874124"><time>2026-04-27T10:27:29.506Z</time></trkpt>
      <trkpt lat="26.286488" lon="98.874124"><time>2026-04-27T10:27:29.522Z</time></trkpt>
      <trkpt lat="26.286488" lon="98.874124"><time>2026-04-27T10:27:29.539Z</time></trkpt>
      <trkpt lat="26.286474" lon="98.874137"><time>2026-04-27T10:27:29.556Z</time></trkpt>
      <trkpt lat="26.286474" lon="98.874137"><time>2026-04-27T10:27:29.572Z</time></trkpt>
      <trkpt lat="26.286474" lon="98.874137"><time>2026-04-27T10:27:29.589Z</time></trkpt>
      <trkpt lat="26.286474" lon="98.874137"><time>2026-04-27T10:27:29.606Z</time></trkpt>
      <trkpt lat="26.286474" lon="98.874137"><time>2026-04-27T10:27:29.622Z</time></trkpt>
      <trkpt lat="26.286474" lon="98.874137"><time>2026-04-27T10:27:29.639Z</time></trkpt>
      <trkpt lat="26.28646" lon="98.87415"><time>2026-04-27T10:27:29.656Z</time></trkpt>
      <trkpt lat="26.28646" lon="98.87415"><time>2026-04-27T10:27:29.672Z</time></trkpt>
      <trkpt lat="26.28646" lon="98.87415"><time>2026-04-27T10:27:29.689Z</time></trkpt>
      <trkpt lat="26.28646" lon="98.87415"><time>2026-04-27T10:27:29.706Z</time></trkpt>
      <trkpt lat="26.28646" lon="98.87415"><time>2026-04-27T10:27:29.723Z</time></trkpt>
      <trkpt lat="26.28646" lon="98.87415"><time>2026-04-27T10:27:29.739Z</time></trkpt>
      <trkpt lat="26.286446" lon="98.874164"><time>2026-04-27T10:27:29.756Z</time></trkpt>
      <trkpt lat="26.286446" lon="98.874164"><time>2026-04-27T10:27:29.773Z</time></trkpt>
      <trkpt lat="26.286446" lon="98.874164"><time>2026-04-27T10:27:29.789Z</time></trkpt>
      <trkpt lat="26.286446" lon="98.874164"><time>2026-04-27T10:27:29.806Z</time></trkpt>
      <trkpt lat="26.286446" lon="98.874164"><time>2026-04-27T10:27:29.823Z</time></trkpt>
      <trkpt lat="26.286446" lon="98.874164"><time>2026-04-27T10:27:29.839Z</time></trkpt>
      <trkpt lat="26.286433" lon="98.874176"><time>2026-04-27T10:27:29.856Z</time></trkpt>
      <trkpt lat="26.286433" lon="98.874176"><time>2026-04-27T10:27:29.873Z</time></trkpt>
      <trkpt lat="26.286433" lon="98.874176"><time>2026-04-27T10:27:29.889Z</time></trkpt>
      <trkpt lat="26.286433" lon="98.874176"><time>2026-04-27T10:27:29.906Z</time></trkpt>
      <trkpt lat="26.286433" lon="98.874176"><time>2026-04-27T10:27:29.923Z</time></trkpt>
      <trkpt lat="26.286433" lon="98.874176"><time>2026-04-27T10:27:29.939Z</time></trkpt>
      <trkpt lat="26.286418" lon="98.87419"><time>2026-04-27T10:27:29.956Z</time></trkpt>
      <trkpt lat="26.286418" lon="98.87419"><time>2026-04-27T10:27:29.973Z</time></trkpt>
      <trkpt lat="26.286418" lon="98.87419"><time>2026-04-27T10:27:29.989Z</time></trkpt>
      <trkpt lat="26.286418" lon="98.87419"><time>2026-04-27T10:27:30.006Z</time></trkpt>
      <trkpt lat="26.286418" lon="98.87419"><time>2026-04-27T10:27:30.023Z</time></trkpt>
      <trkpt lat="26.286418" lon="98.87419"><time>2026-04-27T10:27:30.039Z</time></trkpt>
      <trkpt lat="26.286404" lon="98.874203"><time>2026-04-27T10:27:30.056Z</time></trkpt>
      <trkpt lat="26.286404" lon="98.874203"><time>2026-04-27T10:27:30.073Z</time></trkpt>
      <trkpt lat="26.286404" lon="98.874203"><time>2026-04-27T10:27:30.090Z</time></trkpt>
      <trkpt lat="26.286404" lon="98.874203"><time>2026-04-27T10:27:30.106Z</time></trkpt>
      <trkpt lat="26.286404" lon="98.874203"><time>2026-04-27T10:27:30.123Z</time></trkpt>
      <trkpt lat="26.286404" lon="98.874203"><time>2026-04-27T10:27:30.140Z</time></trkpt>
      <trkpt lat="26.28639" lon="98.874216"><time>2026-04-27T10:27:30.156Z</time></trkpt>
      <trkpt lat="26.28639" lon="98.874216"><time>2026-04-27T10:27:30.173Z</time></trkpt>
      <trkpt lat="26.28639" lon="98.874216"><time>2026-04-27T10:27:30.190Z</time></trkpt>
      <trkpt lat="26.28639" lon="98.874216"><time>2026-04-27T10:27:30.206Z</time></trkpt>
      <trkpt lat="26.28639" lon="98.874216"><time>2026-04-27T10:27:30.223Z</time></trkpt>
      <trkpt lat="26.28639" lon="98.874216"><time>2026-04-27T10:27:30.240Z</time></trkpt>
      <trkpt lat="26.286376" lon="98.874229"><time>2026-04-27T10:27:30.256Z</time></trkpt>
      <trkpt lat="26.286376" lon="98.874229"><time>2026-04-27T10:27:30.273Z</time></trkpt>
      <trkpt lat="26.286376" lon="98.874229"><time>2026-04-27T10:27:30.290Z</time></trkpt>
      <trkpt lat="26.286376" lon="98.874229"><time>2026-04-27T10:27:30.306Z</time></trkpt>
      <trkpt lat="26.286376" lon="98.874229"><time>2026-04-27T10:27:30.323Z</time></trkpt>
      <trkpt lat="26.286376" lon="98.874229"><time>2026-04-27T10:27:30.340Z</time></trkpt>
      <trkpt lat="26.286361" lon="98.874242"><time>2026-04-27T10:27:30.356Z</time></trkpt>
      <trkpt lat="26.286361" lon="98.874242"><time>2026-04-27T10:27:30.373Z</time></trkpt>
      <trkpt lat="26.286361" lon="98.874242"><time>2026-04-27T10:27:30.390Z</time></trkpt>
      <trkpt lat="26.286361" lon="98.874242"><time>2026-04-27T10:27:30.407Z</time></trkpt>
      <trkpt lat="26.286361" lon="98.874242"><time>2026-04-27T10:27:30.423Z</time></trkpt>
      <trkpt lat="26.286361" lon="98.874242"><time>2026-04-27T10:27:30.440Z</time></trkpt>
      <trkpt lat="26.286347" lon="98.874256"><time>2026-04-27T10:27:30.457Z</time></trkpt>
      <trkpt lat="26.286347" lon="98.874256"><time>2026-04-27T10:27:30.473Z</time></trkpt>
      <trkpt lat="26.286347" lon="98.874256"><time>2026-04-27T10:27:30.490Z</time></trkpt>
      <trkpt lat="26.286347" lon="98.874256"><time>2026-04-27T10:27:30.507Z</time></trkpt>
      <trkpt lat="26.286347" lon="98.874256"><time>2026-04-27T10:27:30.523Z</time></trkpt>
      <trkpt lat="26.286347" lon="98.874256"><time>2026-04-27T10:27:30.540Z</time></trkpt>
      <trkpt lat="26.286333" lon="98.874269"><time>2026-04-27T10:27:30.557Z</time></trkpt>
      <trkpt lat="26.286333" lon="98.874269"><time>2026-04-27T10:27:30.573Z</time></trkpt>
      <trkpt lat="26.286333" lon="98.874269"><time>2026-04-27T10:27:30.590Z</time></trkpt>
      <trkpt lat="26.286333" lon="98.874269"><time>2026-04-27T10:27:30.607Z</time></trkpt>
      <trkpt lat="26.286333" lon="98.874269"><time>2026-04-27T10:27:30.623Z</time></trkpt>
      <trkpt lat="26.286333" lon="98.874269"><time>2026-04-27T10:27:30.640Z</time></trkpt>
      <trkpt lat="26.286318" lon="98.874282"><time>2026-04-27T10:27:30.657Z</time></trkpt>
      <trkpt lat="26.286318" lon="98.874282"><time>2026-04-27T10:27:30.673Z</time></trkpt>
      <trkpt lat="26.286318" lon="98.874282"><time>2026-04-27T10:27:30.690Z</time></trkpt>
      <trkpt lat="26.286318" lon="98.874282"><time>2026-04-27T10:27:30.707Z</time></trkpt>
      <trkpt lat="26.286318" lon="98.874282"><time>2026-04-27T10:27:30.724Z</time></trkpt>
      <trkpt lat="26.286318" lon="98.874282"><time>2026-04-27T10:27:30.740Z</time></trkpt>
      <trkpt lat="26.286304" lon="98.874295"><time>2026-04-27T10:27:30.757Z</time></trkpt>
      <trkpt lat="26.286304" lon="98.874295"><time>2026-04-27T10:27:30.774Z</time></trkpt>
      <trkpt lat="26.286304" lon="98.874295"><time>2026-04-27T10:27:30.790Z</time></trkpt>
      <trkpt lat="26.286304" lon="98.874295"><time>2026-04-27T10:27:30.807Z</time></trkpt>
      <trkpt lat="26.286304" lon="98.874295"><time>2026-04-27T10:27:30.824Z</time></trkpt>
      <trkpt lat="26.286304" lon="98.874295"><time>2026-04-27T10:27:30.840Z</time></trkpt>
      <trkpt lat="26.286289" lon="98.874308"><time>2026-04-27T10:27:30.857Z</time></trkpt>
      <trkpt lat="26.286289" lon="98.874308"><time>2026-04-27T10:27:30.874Z</time></trkpt>
      <trkpt lat="26.286289" lon="98.874308"><time>2026-04-27T10:27:30.890Z</time></trkpt>
      <trkpt lat="26.286289" lon="98.874308"><time>2026-04-27T10:27:30.907Z</time></trkpt>
      <trkpt lat="26.286289" lon="98.874308"><time>2026-04-27T10:27:30.924Z</time></trkpt>
      <trkpt lat="26.286289" lon="98.874308"><time>2026-04-27T10:27:30.940Z</time></trkpt>
      <trkpt lat="26.286275" lon="98.874322"><time>2026-04-27T10:27:30.957Z</time></trkpt>
      <trkpt lat="26.286275" lon="98.874322"><time>2026-04-27T10:27:30.974Z</time></trkpt>
      <trkpt lat="26.286275" lon="98.874322"><time>2026-04-27T10:27:30.990Z</time></trkpt>
      <trkpt lat="26.286275" lon="98.874322"><time>2026-04-27T10:27:31.007Z</time></trkpt>
      <trkpt lat="26.286275" lon="98.874322"><time>2026-04-27T10:27:31.024Z</time></trkpt>
      <trkpt lat="26.286275" lon="98.874322"><time>2026-04-27T10:27:31.041Z</time></trkpt>
      <trkpt lat="26.286261" lon="98.874335"><time>2026-04-27T10:27:31.057Z</time></trkpt>
      <trkpt lat="26.286261" lon="98.874335"><time>2026-04-27T10:27:31.074Z</time></trkpt>
      <trkpt lat="26.286261" lon="98.874335"><time>2026-04-27T10:27:31.091Z</time></trkpt>
      <trkpt lat="26.286261" lon="98.874335"><time>2026-04-27T10:27:31.107Z</time></trkpt>
      <trkpt lat="26.286261" lon="98.874335"><time>2026-04-27T10:27:31.124Z</time></trkpt>
      <trkpt lat="26.286261" lon="98.874335"><time>2026-04-27T10:27:31.141Z</time></trkpt>
      <trkpt lat="26.286247" lon="98.874347"><time>2026-04-27T10:27:31.157Z</time></trkpt>
      <trkpt lat="26.286247" lon="98.874347"><time>2026-04-27T10:27:31.174Z</time></trkpt>
      <trkpt lat="26.286247" lon="98.874347"><time>2026-04-27T10:27:31.191Z</time></trkpt>
      <trkpt lat="26.286247" lon="98.874347"><time>2026-04-27T10:27:31.207Z</time></trkpt>
      <trkpt lat="26.286247" lon="98.874347"><time>2026-04-27T10:27:31.224Z</time></trkpt>
      <trkpt lat="26.286247" lon="98.874347"><time>2026-04-27T10:27:31.241Z</time></trkpt>
      <trkpt lat="26.286232" lon="98.87436"><time>2026-04-27T10:27:31.257Z</time></trkpt>
      <trkpt lat="26.286232" lon="98.87436"><time>2026-04-27T10:27:31.274Z</time></trkpt>
      <trkpt lat="26.286232" lon="98.87436"><time>2026-04-27T10:27:31.291Z</time></trkpt>
      <trkpt lat="26.286232" lon="98.87436"><time>2026-04-27T10:27:31.307Z</time></trkpt>
      <trkpt lat="26.286232" lon="98.87436"><time>2026-04-27T10:27:31.324Z</time></trkpt>
      <trkpt lat="26.286232" lon="98.87436"><time>2026-04-27T10:27:31.341Z</time></trkpt>
      <trkpt lat="26.286217" lon="98.874374"><time>2026-04-27T10:27:31.358Z</time></trkpt>
      <trkpt lat="26.286217" lon="98.874374"><time>2026-04-27T10:27:31.374Z</time></trkpt>
      <trkpt lat="26.286217" lon="98.874374"><time>2026-04-27T10:27:31.391Z</time></trkpt>
      <trkpt lat="26.286217" lon="98.874374"><time>2026-04-27T10:27:31.408Z</time></trkpt>
      <trkpt lat="26.286217" lon="98.874374"><time>2026-04-27T10:27:31.424Z</time></trkpt>
      <trkpt lat="26.286217" lon="98.874374"><time>2026-04-27T10:27:31.441Z</time></trkpt>
      <trkpt lat="26.286202" lon="98.874387"><time>2026-04-27T10:27:31.458Z</time></trkpt>
      <trkpt lat="26.286202" lon="98.874387"><time>2026-04-27T10:27:31.474Z</time></trkpt>
      <trkpt lat="26.286202" lon="98.874387"><time>2026-04-27T10:27:31.491Z</time></trkpt>
      <trkpt lat="26.286202" lon="98.874387"><time>2026-04-27T10:27:31.508Z</time></trkpt>
      <trkpt lat="26.286202" lon="98.874387"><time>2026-04-27T10:27:31.524Z</time></trkpt>
      <trkpt lat="26.286202" lon="98.874387"><time>2026-04-27T10:27:31.541Z</time></trkpt>
      <trkpt lat="26.286188" lon="98.8744"><time>2026-04-27T10:27:31.558Z</time></trkpt>
      <trkpt lat="26.286188" lon="98.8744"><time>2026-04-27T10:27:31.574Z</time></trkpt>
      <trkpt lat="26.286188" lon="98.8744"><time>2026-04-27T10:27:31.591Z</time></trkpt>
      <trkpt lat="26.286188" lon="98.8744"><time>2026-04-27T10:27:31.608Z</time></trkpt>
      <trkpt lat="26.286188" lon="98.8744"><time>2026-04-27T10:27:31.624Z</time></trkpt>
      <trkpt lat="26.286188" lon="98.8744"><time>2026-04-27T10:27:31.641Z</time></trkpt>
      <trkpt lat="26.286173" lon="98.874413"><time>2026-04-27T10:27:31.658Z</time></trkpt>
      <trkpt lat="26.286173" lon="98.874413"><time>2026-04-27T10:27:31.675Z</time></trkpt>
      <trkpt lat="26.286173" lon="98.874413"><time>2026-04-27T10:27:31.691Z</time></trkpt>
      <trkpt lat="26.286173" lon="98.874413"><time>2026-04-27T10:27:31.708Z</time></trkpt>
      <trkpt lat="26.286173" lon="98.874413"><time>2026-04-27T10:27:31.725Z</time></trkpt>
      <trkpt lat="26.286173" lon="98.874413"><time>2026-04-27T10:27:31.741Z</time></trkpt>
      <trkpt lat="26.286159" lon="98.874425"><time>2026-04-27T10:27:31.758Z</time></trkpt>
      <trkpt lat="26.286159" lon="98.874425"><time>2026-04-27T10:27:31.775Z</time></trkpt>
      <trkpt lat="26.286159" lon="98.874425"><time>2026-04-27T10:27:31.791Z</time></trkpt>
      <trkpt lat="26.286159" lon="98.874425"><time>2026-04-27T10:27:31.808Z</time></trkpt>
      <trkpt lat="26.286159" lon="98.874425"><time>2026-04-27T10:27:31.825Z</time></trkpt>
      <trkpt lat="26.286159" lon="98.874425"><time>2026-04-27T10:27:31.841Z</time></trkpt>
      <trkpt lat="26.286145" lon="98.874438"><time>2026-04-27T10:27:31.858Z</time></trkpt>
      <trkpt lat="26.286145" lon="98.874438"><time>2026-04-27T10:27:31.875Z</time></trkpt>
      <trkpt lat="26.286145" lon="98.874438"><time>2026-04-27T10:27:31.891Z</time></trkpt>
      <trkpt lat="26.286145" lon="98.874438"><time>2026-04-27T10:27:31.908Z</time></trkpt>
      <trkpt lat="26.286145" lon="98.874438"><time>2026-04-27T10:27:31.925Z</time></trkpt>
      <trkpt lat="26.286145" lon="98.874438"><time>2026-04-27T10:27:31.941Z</time></trkpt>
      <trkpt lat="26.286129" lon="98.874451"><time>2026-04-27T10:27:31.958Z</time></trkpt>
      <trkpt lat="26.286129" lon="98.874451"><time>2026-04-27T10:27:31.975Z</time></trkpt>
      <trkpt lat="26.286129" lon="98.874451"><time>2026-04-27T10:27:31.992Z</time></trkpt>
      <trkpt lat="26.286129" lon="98.874451"><time>2026-04-27T10:27:32.008Z</time></trkpt>
      <trkpt lat="26.286129" lon="98.874451"><time>2026-04-27T10:27:32.025Z</time></trkpt>
      <trkpt lat="26.286129" lon="98.874451"><time>2026-04-27T10:27:32.042Z</time></trkpt>
      <trkpt lat="26.286114" lon="98.874464"><time>2026-04-27T10:27:32.058Z</time></trkpt>
      <trkpt lat="26.286114" lon="98.874464"><time>2026-04-27T10:27:32.075Z</time></trkpt>
      <trkpt lat="26.286114" lon="98.874464"><time>2026-04-27T10:27:32.092Z</time></trkpt>
      <trkpt lat="26.286114" lon="98.874464"><time>2026-04-27T10:27:32.108Z</time></trkpt>
      <trkpt lat="26.286114" lon="98.874464"><time>2026-04-27T10:27:32.125Z</time></trkpt>
      <trkpt lat="26.286114" lon="98.874464"><time>2026-04-27T10:27:32.142Z</time></trkpt>
      <trkpt lat="26.2861" lon="98.874477"><time>2026-04-27T10:27:32.158Z</time></trkpt>
      <trkpt lat="26.2861" lon="98.874477"><time>2026-04-27T10:27:32.175Z</time></trkpt>
      <trkpt lat="26.2861" lon="98.874477"><time>2026-04-27T10:27:32.192Z</time></trkpt>
      <trkpt lat="26.2861" lon="98.874477"><time>2026-04-27T10:27:32.208Z</time></trkpt>
      <trkpt lat="26.2861" lon="98.874477"><time>2026-04-27T10:27:32.225Z</time></trkpt>
      <trkpt lat="26.2861" lon="98.874477"><time>2026-04-27T10:27:32.242Z</time></trkpt>
      <trkpt lat="26.286085" lon="98.87449"><time>2026-04-27T10:27:32.258Z</time></trkpt>
      <trkpt lat="26.286085" lon="98.87449"><time>2026-04-27T10:27:32.275Z</time></trkpt>
      <trkpt lat="26.286085" lon="98.87449"><time>2026-04-27T10:27:32.292Z</time></trkpt>
      <trkpt lat="26.286085" lon="98.87449"><time>2026-04-27T10:27:32.309Z</time></trkpt>
      <trkpt lat="26.286085" lon="98.87449"><time>2026-04-27T10:27:32.325Z</time></trkpt>
      <trkpt lat="26.286085" lon="98.87449"><time>2026-04-27T10:27:32.342Z</time></trkpt>
      <trkpt lat="26.28607" lon="98.874503"><time>2026-04-27T10:27:32.359Z</time></trkpt>
      <trkpt lat="26.28607" lon="98.874503"><time>2026-04-27T10:27:32.375Z</time></trkpt>
      <trkpt lat="26.28607" lon="98.874503"><time>2026-04-27T10:27:32.392Z</time></trkpt>
      <trkpt lat="26.28607" lon="98.874503"><time>2026-04-27T10:27:32.409Z</time></trkpt>
      <trkpt lat="26.28607" lon="98.874503"><time>2026-04-27T10:27:32.425Z</time></trkpt>
      <trkpt lat="26.28607" lon="98.874503"><time>2026-04-27T10:27:32.442Z</time></trkpt>
      <trkpt lat="26.286055" lon="98.874517"><time>2026-04-27T10:27:32.459Z</time></trkpt>
      <trkpt lat="26.286055" lon="98.874517"><time>2026-04-27T10:27:32.475Z</time></trkpt>
      <trkpt lat="26.286055" lon="98.874517"><time>2026-04-27T10:27:32.492Z</time></trkpt>
      <trkpt lat="26.286055" lon="98.874517"><time>2026-04-27T10:27:32.509Z</time></trkpt>
      <trkpt lat="26.286055" lon="98.874517"><time>2026-04-27T10:27:32.525Z</time></trkpt>
      <trkpt lat="26.286055" lon="98.874517"><time>2026-04-27T10:27:32.542Z</time></trkpt>
      <trkpt lat="26.28604" lon="98.87453"><time>2026-04-27T10:27:32.559Z</time></trkpt>
      <trkpt lat="26.28604" lon="98.87453"><time>2026-04-27T10:27:32.575Z</time></trkpt>
      <trkpt lat="26.28604" lon="98.87453"><time>2026-04-27T10:27:32.592Z</time></trkpt>
      <trkpt lat="26.28604" lon="98.87453"><time>2026-04-27T10:27:32.609Z</time></trkpt>
      <trkpt lat="26.28604" lon="98.87453"><time>2026-04-27T10:27:32.626Z</time></trkpt>
      <trkpt lat="26.28604" lon="98.87453"><time>2026-04-27T10:27:32.642Z</time></trkpt>
      <trkpt lat="26.286025" lon="98.874543"><time>2026-04-27T10:27:32.659Z</time></trkpt>
      <trkpt lat="26.286025" lon="98.874543"><time>2026-04-27T10:27:32.676Z</time></trkpt>
      <trkpt lat="26.286025" lon="98.874543"><time>2026-04-27T10:27:32.692Z</time></trkpt>
      <trkpt lat="26.286025" lon="98.874543"><time>2026-04-27T10:27:32.709Z</time></trkpt>
      <trkpt lat="26.286025" lon="98.874543"><time>2026-04-27T10:27:32.726Z</time></trkpt>
      <trkpt lat="26.286025" lon="98.874543"><time>2026-04-27T10:27:32.742Z</time></trkpt>
      <trkpt lat="26.286009" lon="98.874556"><time>2026-04-27T10:27:32.759Z</time></trkpt>
      <trkpt lat="26.286009" lon="98.874556"><time>2026-04-27T10:27:32.776Z</time></trkpt>
      <trkpt lat="26.286009" lon="98.874556"><time>2026-04-27T10:27:32.792Z</time></trkpt>
      <trkpt lat="26.286009" lon="98.874556"><time>2026-04-27T10:27:32.809Z</time></trkpt>
      <trkpt lat="26.286009" lon="98.874556"><time>2026-04-27T10:27:32.826Z</time></trkpt>
      <trkpt lat="26.286009" lon="98.874556"><time>2026-04-27T10:27:32.842Z</time></trkpt>
      <trkpt lat="26.285995" lon="98.874568"><time>2026-04-27T10:27:32.859Z</time></trkpt>
      <trkpt lat="26.285995" lon="98.874568"><time>2026-04-27T10:27:32.876Z</time></trkpt>
      <trkpt lat="26.285995" lon="98.874568"><time>2026-04-27T10:27:32.892Z</time></trkpt>
      <trkpt lat="26.285995" lon="98.874568"><time>2026-04-27T10:27:32.909Z</time></trkpt>
      <trkpt lat="26.285995" lon="98.874568"><time>2026-04-27T10:27:32.926Z</time></trkpt>
      <trkpt lat="26.285995" lon="98.874568"><time>2026-04-27T10:27:32.943Z</time></trkpt>
      <trkpt lat="26.285979" lon="98.874581"><time>2026-04-27T10:27:32.959Z</time></trkpt>
      <trkpt lat="26.285979" lon="98.874581"><time>2026-04-27T10:27:32.976Z</time></trkpt>
      <trkpt lat="26.285979" lon="98.874581"><time>2026-04-27T10:27:32.993Z</time></trkpt>
      <trkpt lat="26.285979" lon="98.874581"><time>2026-04-27T10:27:33.009Z</time></trkpt>
      <trkpt lat="26.285979" lon="98.874581"><time>2026-04-27T10:27:33.026Z</time></trkpt>
      <trkpt lat="26.285979" lon="98.874581"><time>2026-04-27T10:27:33.043Z</time></trkpt>
      <trkpt lat="26.285964" lon="98.874594"><time>2026-04-27T10:27:33.059Z</time></trkpt>
      <trkpt lat="26.285964" lon="98.874594"><time>2026-04-27T10:27:33.076Z</time></trkpt>
      <trkpt lat="26.285964" lon="98.874594"><time>2026-04-27T10:27:33.093Z</time></trkpt>
      <trkpt lat="26.285964" lon="98.874594"><time>2026-04-27T10:27:33.109Z</time></trkpt>
      <trkpt lat="26.285964" lon="98.874594"><time>2026-04-27T10:27:33.126Z</time></trkpt>
      <trkpt lat="26.285964" lon="98.874594"><time>2026-04-27T10:27:33.143Z</time></trkpt>
      <trkpt lat="26.285949" lon="98.874606"><time>2026-04-27T10:27:33.159Z</time></trkpt>
      <trkpt lat="26.285949" lon="98.874606"><time>2026-04-27T10:27:33.176Z</time></trkpt>
      <trkpt lat="26.285949" lon="98.874606"><time>2026-04-27T10:27:33.193Z</time></trkpt>
      <trkpt lat="26.285949" lon="98.874606"><time>2026-04-27T10:27:33.209Z</time></trkpt>
      <trkpt lat="26.285949" lon="98.874606"><time>2026-04-27T10:27:33.226Z</time></trkpt>
      <trkpt lat="26.285949" lon="98.874606"><time>2026-04-27T10:27:33.243Z</time></trkpt>
      <trkpt lat="26.285932" lon="98.87462"><time>2026-04-27T10:27:33.260Z</time></trkpt>
      <trkpt lat="26.285932" lon="98.87462"><time>2026-04-27T10:27:33.276Z</time></trkpt>
      <trkpt lat="26.285932" lon="98.87462"><time>2026-04-27T10:27:33.293Z</time></trkpt>
      <trkpt lat="26.285932" lon="98.87462"><time>2026-04-27T10:27:33.310Z</time></trkpt>
      <trkpt lat="26.285932" lon="98.87462"><time>2026-04-27T10:27:33.326Z</time></trkpt>
      <trkpt lat="26.285932" lon="98.87462"><time>2026-04-27T10:27:33.343Z</time></trkpt>
      <trkpt lat="26.285917" lon="98.874632"><time>2026-04-27T10:27:33.360Z</time></trkpt>
      <trkpt lat="26.285917" lon="98.874632"><time>2026-04-27T10:27:33.376Z</time></trkpt>
      <trkpt lat="26.285917" lon="98.874632"><time>2026-04-27T10:27:33.393Z</time></trkpt>
      <trkpt lat="26.285917" lon="98.874632"><time>2026-04-27T10:27:33.410Z</time></trkpt>
      <trkpt lat="26.285917" lon="98.874632"><time>2026-04-27T10:27:33.426Z</time></trkpt>
      <trkpt lat="26.285917" lon="98.874632"><time>2026-04-27T10:27:33.443Z</time></trkpt>
      <trkpt lat="26.285901" lon="98.874645"><time>2026-04-27T10:27:33.460Z</time></trkpt>
      <trkpt lat="26.285901" lon="98.874645"><time>2026-04-27T10:27:33.476Z</time></trkpt>
      <trkpt lat="26.285901" lon="98.874645"><time>2026-04-27T10:27:33.493Z</time></trkpt>
      <trkpt lat="26.285901" lon="98.874645"><time>2026-04-27T10:27:33.510Z</time></trkpt>
      <trkpt lat="26.285901" lon="98.874645"><time>2026-04-27T10:27:33.526Z</time></trkpt>
      <trkpt lat="26.285901" lon="98.874645"><time>2026-04-27T10:27:33.543Z</time></trkpt>
      <trkpt lat="26.285886" lon="98.874657"><time>2026-04-27T10:27:33.560Z</time></trkpt>
      <trkpt lat="26.285886" lon="98.874657"><time>2026-04-27T10:27:33.577Z</time></trkpt>
      <trkpt lat="26.285886" lon="98.874657"><time>2026-04-27T10:27:33.593Z</time></trkpt>
      <trkpt lat="26.285886" lon="98.874657"><time>2026-04-27T10:27:33.610Z</time></trkpt>
      <trkpt lat="26.285886" lon="98.874657"><time>2026-04-27T10:27:33.627Z</time></trkpt>
      <trkpt lat="26.285886" lon="98.874657"><time>2026-04-27T10:27:33.643Z</time></trkpt>
      <trkpt lat="26.285872" lon="98.874669"><time>2026-04-27T10:27:33.660Z</time></trkpt>
      <trkpt lat="26.285872" lon="98.874669"><time>2026-04-27T10:27:33.677Z</time></trkpt>
      <trkpt lat="26.285872" lon="98.874669"><time>2026-04-27T10:27:33.693Z</time></trkpt>
      <trkpt lat="26.285872" lon="98.874669"><time>2026-04-27T10:27:33.710Z</time></trkpt>
      <trkpt lat="26.285872" lon="98.874669"><time>2026-04-27T10:27:33.727Z</time></trkpt>
      <trkpt lat="26.285872" lon="98.874669"><time>2026-04-27T10:27:33.743Z</time></trkpt>
      <trkpt lat="26.285855" lon="98.874682"><time>2026-04-27T10:27:33.760Z</time></trkpt>
      <trkpt lat="26.285855" lon="98.874682"><time>2026-04-27T10:27:33.777Z</time></trkpt>
      <trkpt lat="26.285855" lon="98.874682"><time>2026-04-27T10:27:33.793Z</time></trkpt>
      <trkpt lat="26.285855" lon="98.874682"><time>2026-04-27T10:27:33.810Z</time></trkpt>
      <trkpt lat="26.285855" lon="98.874682"><time>2026-04-27T10:27:33.827Z</time></trkpt>
      <trkpt lat="26.285855" lon="98.874682"><time>2026-04-27T10:27:33.843Z</time></trkpt>
      <trkpt lat="26.28584" lon="98.874695"><time>2026-04-27T10:27:33.860Z</time></trkpt>
      <trkpt lat="26.28584" lon="98.874695"><time>2026-04-27T10:27:33.877Z</time></trkpt>
      <trkpt lat="26.28584" lon="98.874695"><time>2026-04-27T10:27:33.894Z</time></trkpt>
      <trkpt lat="26.28584" lon="98.874695"><time>2026-04-27T10:27:33.910Z</time></trkpt>
      <trkpt lat="26.28584" lon="98.874695"><time>2026-04-27T10:27:33.927Z</time></trkpt>
      <trkpt lat="26.28584" lon="98.874695"><time>2026-04-27T10:27:33.944Z</time></trkpt>
      <trkpt lat="26.285824" lon="98.874707"><time>2026-04-27T10:27:33.960Z</time></trkpt>
      <trkpt lat="26.285824" lon="98.874707"><time>2026-04-27T10:27:33.977Z</time></trkpt>
      <trkpt lat="26.285824" lon="98.874707"><time>2026-04-27T10:27:33.994Z</time></trkpt>
      <trkpt lat="26.285824" lon="98.874707"><time>2026-04-27T10:27:34.010Z</time></trkpt>
      <trkpt lat="26.285824" lon="98.874707"><time>2026-04-27T10:27:34.027Z</time></trkpt>
      <trkpt lat="26.285824" lon="98.874707"><time>2026-04-27T10:27:34.044Z</time></trkpt>
      <trkpt lat="26.285809" lon="98.87472"><time>2026-04-27T10:27:34.060Z</time></trkpt>
      <trkpt lat="26.285809" lon="98.87472"><time>2026-04-27T10:27:34.077Z</time></trkpt>
      <trkpt lat="26.285809" lon="98.87472"><time>2026-04-27T10:27:34.094Z</time></trkpt>
      <trkpt lat="26.285809" lon="98.87472"><time>2026-04-27T10:27:34.110Z</time></trkpt>
      <trkpt lat="26.285809" lon="98.87472"><time>2026-04-27T10:27:34.127Z</time></trkpt>
      <trkpt lat="26.285809" lon="98.87472"><time>2026-04-27T10:27:34.144Z</time></trkpt>
      <trkpt lat="26.285793" lon="98.874732"><time>2026-04-27T10:27:34.160Z</time></trkpt>
      <trkpt lat="26.285793" lon="98.874732"><time>2026-04-27T10:27:34.177Z</time></trkpt>
      <trkpt lat="26.285793" lon="98.874732"><time>2026-04-27T10:27:34.194Z</time></trkpt>
      <trkpt lat="26.285793" lon="98.874732"><time>2026-04-27T10:27:34.211Z</time></trkpt>
      <trkpt lat="26.285793" lon="98.874732"><time>2026-04-27T10:27:34.227Z</time></trkpt>
      <trkpt lat="26.285793" lon="98.874732"><time>2026-04-27T10:27:34.244Z</time></trkpt>
      <trkpt lat="26.285777" lon="98.874745"><time>2026-04-27T10:27:34.261Z</time></trkpt>
      <trkpt lat="26.285777" lon="98.874745"><time>2026-04-27T10:27:34.277Z</time></trkpt>
      <trkpt lat="26.285777" lon="98.874745"><time>2026-04-27T10:27:34.294Z</time></trkpt>
      <trkpt lat="26.285777" lon="98.874745"><time>2026-04-27T10:27:34.311Z</time></trkpt>
      <trkpt lat="26.285777" lon="98.874745"><time>2026-04-27T10:27:34.327Z</time></trkpt>
      <trkpt lat="26.285777" lon="98.874745"><time>2026-04-27T10:27:34.344Z</time></trkpt>
      <trkpt lat="26.285762" lon="98.874757"><time>2026-04-27T10:27:34.361Z</time></trkpt>
      <trkpt lat="26.285762" lon="98.874757"><time>2026-04-27T10:27:34.377Z</time></trkpt>
      <trkpt lat="26.285762" lon="98.874757"><time>2026-04-27T10:27:34.394Z</time></trkpt>
      <trkpt lat="26.285762" lon="98.874757"><time>2026-04-27T10:27:34.411Z</time></trkpt>
      <trkpt lat="26.285762" lon="98.874757"><time>2026-04-27T10:27:34.427Z</time></trkpt>
      <trkpt lat="26.285762" lon="98.874757"><time>2026-04-27T10:27:34.444Z</time></trkpt>
      <trkpt lat="26.285747" lon="98.874769"><time>2026-04-27T10:27:34.461Z</time></trkpt>
      <trkpt lat="26.285747" lon="98.874769"><time>2026-04-27T10:27:34.477Z</time></trkpt>
      <trkpt lat="26.285747" lon="98.874769"><time>2026-04-27T10:27:34.494Z</time></trkpt>
      <trkpt lat="26.285747" lon="98.874769"><time>2026-04-27T10:27:34.511Z</time></trkpt>
      <trkpt lat="26.285747" lon="98.874769"><time>2026-04-27T10:27:34.528Z</time></trkpt>
      <trkpt lat="26.285747" lon="98.874769"><time>2026-04-27T10:27:34.544Z</time></trkpt>
      <trkpt lat="26.285732" lon="98.874781"><time>2026-04-27T10:27:34.561Z</time></trkpt>
      <trkpt lat="26.285732" lon="98.874781"><time>2026-04-27T10:27:34.578Z</time></trkpt>
      <trkpt lat="26.285732" lon="98.874781"><time>2026-04-27T10:27:34.594Z</time></trkpt>
      <trkpt lat="26.285732" lon="98.874781"><time>2026-04-27T10:27:34.611Z</time></trkpt>
      <trkpt lat="26.285732" lon="98.874781"><time>2026-04-27T10:27:34.628Z</time></trkpt>
      <trkpt lat="26.285732" lon="98.874781"><time>2026-04-27T10:27:34.644Z</time></trkpt>
      <trkpt lat="26.285718" lon="98.874792"><time>2026-04-27T10:27:34.661Z</time></trkpt>
      <trkpt lat="26.285718" lon="98.874792"><time>2026-04-27T10:27:34.678Z</time></trkpt>
      <trkpt lat="26.285718" lon="98.874792"><time>2026-04-27T10:27:34.694Z</time></trkpt>
      <trkpt lat="26.285718" lon="98.874792"><time>2026-04-27T10:27:34.711Z</time></trkpt>
      <trkpt lat="26.285718" lon="98.874792"><time>2026-04-27T10:27:34.728Z</time></trkpt>
      <trkpt lat="26.285718" lon="98.874792"><time>2026-04-27T10:27:34.744Z</time></trkpt>
      <trkpt lat="26.285704" lon="98.874804"><time>2026-04-27T10:27:34.761Z</time></trkpt>
      <trkpt lat="26.285704" lon="98.874804"><time>2026-04-27T10:27:34.778Z</time></trkpt>
      <trkpt lat="26.285704" lon="98.874804"><time>2026-04-27T10:27:34.794Z</time></trkpt>
      <trkpt lat="26.285704" lon="98.874804"><time>2026-04-27T10:27:34.811Z</time></trkpt>
      <trkpt lat="26.285704" lon="98.874804"><time>2026-04-27T10:27:34.828Z</time></trkpt>
      <trkpt lat="26.285704" lon="98.874804"><time>2026-04-27T10:27:34.845Z</time></trkpt>
      <trkpt lat="26.285691" lon="98.874815"><time>2026-04-27T10:27:34.861Z</time></trkpt>
      <trkpt lat="26.285691" lon="98.874815"><time>2026-04-27T10:27:34.878Z</time></trkpt>
      <trkpt lat="26.285691" lon="98.874815"><time>2026-04-27T10:27:34.895Z</time></trkpt>
      <trkpt lat="26.285691" lon="98.874815"><time>2026-04-27T10:27:34.911Z</time></trkpt>
      <trkpt lat="26.285691" lon="98.874815"><time>2026-04-27T10:27:34.928Z</time></trkpt>
      <trkpt lat="26.285691" lon="98.874815"><time>2026-04-27T10:27:34.945Z</time></trkpt>
      <trkpt lat="26.285679" lon="98.874826"><time>2026-04-27T10:27:34.961Z</time></trkpt>
      <trkpt lat="26.285679" lon="98.874826"><time>2026-04-27T10:27:34.978Z</time></trkpt>
      <trkpt lat="26.285679" lon="98.874826"><time>2026-04-27T10:27:34.995Z</time></trkpt>
      <trkpt lat="26.285679" lon="98.874826"><time>2026-04-27T10:27:35.011Z</time></trkpt>
      <trkpt lat="26.285679" lon="98.874826"><time>2026-04-27T10:27:35.028Z</time></trkpt>
      <trkpt lat="26.285679" lon="98.874826"><time>2026-04-27T10:27:35.045Z</time></trkpt>
      <trkpt lat="26.285667" lon="98.874837"><time>2026-04-27T10:27:35.061Z</time></trkpt>
      <trkpt lat="26.285667" lon="98.874837"><time>2026-04-27T10:27:35.078Z</time></trkpt>
      <trkpt lat="26.285667" lon="98.874837"><time>2026-04-27T10:27:35.095Z</time></trkpt>
      <trkpt lat="26.285667" lon="98.874837"><time>2026-04-27T10:27:35.111Z</time></trkpt>
      <trkpt lat="26.285667" lon="98.874837"><time>2026-04-27T10:27:35.128Z</time></trkpt>
      <trkpt lat="26.285667" lon="98.874837"><time>2026-04-27T10:27:35.145Z</time></trkpt>
      <trkpt lat="26.285656" lon="98.874848"><time>2026-04-27T10:27:35.162Z</time></trkpt>
      <trkpt lat="26.285656" lon="98.874848"><time>2026-04-27T10:27:35.178Z</time></trkpt>
      <trkpt lat="26.285656" lon="98.874848"><time>2026-04-27T10:27:35.195Z</time></trkpt>
      <trkpt lat="26.285656" lon="98.874848"><time>2026-04-27T10:27:35.212Z</time></trkpt>
      <trkpt lat="26.285656" lon="98.874848"><time>2026-04-27T10:27:35.228Z</time></trkpt>
      <trkpt lat="26.285656" lon="98.874848"><time>2026-04-27T10:27:35.245Z</time></trkpt>
      <trkpt lat="26.285646" lon="98.874859"><time>2026-04-27T10:27:35.262Z</time></trkpt>
      <trkpt lat="26.285646" lon="98.874859"><time>2026-04-27T10:27:35.278Z</time></trkpt>
      <trkpt lat="26.285646" lon="98.874859"><time>2026-04-27T10:27:35.295Z</time></trkpt>
      <trkpt lat="26.285646" lon="98.874859"><time>2026-04-27T10:27:35.312Z</time></trkpt>
      <trkpt lat="26.285646" lon="98.874859"><time>2026-04-27T10:27:35.328Z</time></trkpt>
      <trkpt lat="26.285646" lon="98.874859"><time>2026-04-27T10:27:35.345Z</time></trkpt>
      <trkpt lat="26.285636" lon="98.87487"><time>2026-04-27T10:27:35.362Z</time></trkpt>
      <trkpt lat="26.285636" lon="98.87487"><time>2026-04-27T10:27:35.378Z</time></trkpt>
      <trkpt lat="26.285636" lon="98.87487"><time>2026-04-27T10:27:35.395Z</time></trkpt>
      <trkpt lat="26.285636" lon="98.87487"><time>2026-04-27T10:27:35.412Z</time></trkpt>
      <trkpt lat="26.285636" lon="98.87487"><time>2026-04-27T10:27:35.428Z</time></trkpt>
      <trkpt lat="26.285636" lon="98.87487"><time>2026-04-27T10:27:35.445Z</time></trkpt>
      <trkpt lat="26.285627" lon="98.87488"><time>2026-04-27T10:27:35.462Z</time></trkpt>
      <trkpt lat="26.285627" lon="98.87488"><time>2026-04-27T10:27:35.479Z</time></trkpt>
      <trkpt lat="26.285627" lon="98.87488"><time>2026-04-27T10:27:35.495Z</time></trkpt>
      <trkpt lat="26.285627" lon="98.87488"><time>2026-04-27T10:27:35.512Z</time></trkpt>
      <trkpt lat="26.285627" lon="98.87488"><time>2026-04-27T10:27:35.529Z</time></trkpt>
      <trkpt lat="26.285627" lon="98.87488"><time>2026-04-27T10:27:35.545Z</time></trkpt>
      <trkpt lat="26.285618" lon="98.874891"><time>2026-04-27T10:27:35.562Z</time></trkpt>
      <trkpt lat="26.285618" lon="98.874891"><time>2026-04-27T10:27:35.579Z</time></trkpt>
      <trkpt lat="26.285618" lon="98.874891"><time>2026-04-27T10:27:35.595Z</time></trkpt>
      <trkpt lat="26.285618" lon="98.874891"><time>2026-04-27T10:27:35.612Z</time></trkpt>
      <trkpt lat="26.285618" lon="98.874891"><time>2026-04-27T10:27:35.629Z</time></trkpt>
      <trkpt lat="26.285618" lon="98.874891"><time>2026-04-27T10:27:35.645Z</time></trkpt>
      <trkpt lat="26.28561" lon="98.874903"><time>2026-04-27T10:27:35.662Z</time></trkpt>
      <trkpt lat="26.28561" lon="98.874903"><time>2026-04-27T10:27:35.679Z</time></trkpt>
      <trkpt lat="26.28561" lon="98.874903"><time>2026-04-27T10:27:35.695Z</time></trkpt>
      <trkpt lat="26.28561" lon="98.874903"><time>2026-04-27T10:27:35.712Z</time></trkpt>
      <trkpt lat="26.28561" lon="98.874903"><time>2026-04-27T10:27:35.729Z</time></trkpt>
      <trkpt lat="26.28561" lon="98.874903"><time>2026-04-27T10:27:35.745Z</time></trkpt>
      <trkpt lat="26.285603" lon="98.874913"><time>2026-04-27T10:27:35.762Z</time></trkpt>
      <trkpt lat="26.285603" lon="98.874913"><time>2026-04-27T10:27:35.779Z</time></trkpt>
      <trkpt lat="26.285603" lon="98.874913"><time>2026-04-27T10:27:35.796Z</time></trkpt>
      <trkpt lat="26.285603" lon="98.874913"><time>2026-04-27T10:27:35.812Z</time></trkpt>
      <trkpt lat="26.285603" lon="98.874913"><time>2026-04-27T10:27:35.829Z</time></trkpt>
      <trkpt lat="26.285603" lon="98.874913"><time>2026-04-27T10:27:35.846Z</time></trkpt>
      <trkpt lat="26.285595" lon="98.874925"><time>2026-04-27T10:27:35.862Z</time></trkpt>
      <trkpt lat="26.285595" lon="98.874925"><time>2026-04-27T10:27:35.879Z</time></trkpt>
      <trkpt lat="26.285595" lon="98.874925"><time>2026-04-27T10:27:35.896Z</time></trkpt>
      <trkpt lat="26.285595" lon="98.874925"><time>2026-04-27T10:27:35.912Z</time></trkpt>
      <trkpt lat="26.285595" lon="98.874925"><time>2026-04-27T10:27:35.929Z</time></trkpt>
      <trkpt lat="26.285595" lon="98.874925"><time>2026-04-27T10:27:35.946Z</time></trkpt>
      <trkpt lat="26.285589" lon="98.874935"><time>2026-04-27T10:27:35.962Z</time></trkpt>
      <trkpt lat="26.285589" lon="98.874935"><time>2026-04-27T10:27:35.979Z</time></trkpt>
      <trkpt lat="26.285589" lon="98.874935"><time>2026-04-27T10:27:35.996Z</time></trkpt>
      <trkpt lat="26.285589" lon="98.874935"><time>2026-04-27T10:27:36.012Z</time></trkpt>
      <trkpt lat="26.285589" lon="98.874935"><time>2026-04-27T10:27:36.029Z</time></trkpt>
      <trkpt lat="26.285589" lon="98.874935"><time>2026-04-27T10:27:36.046Z</time></trkpt>
      <trkpt lat="26.285583" lon="98.874947"><time>2026-04-27T10:27:36.062Z</time></trkpt>
      <trkpt lat="26.285583" lon="98.874947"><time>2026-04-27T10:27:36.079Z</time></trkpt>
      <trkpt lat="26.285583" lon="98.874947"><time>2026-04-27T10:27:36.096Z</time></trkpt>
      <trkpt lat="26.285583" lon="98.874947"><time>2026-04-27T10:27:36.113Z</time></trkpt>
      <trkpt lat="26.285583" lon="98.874947"><time>2026-04-27T10:27:36.129Z</time></trkpt>
      <trkpt lat="26.285583" lon="98.874947"><time>2026-04-27T10:27:36.146Z</time></trkpt>
      <trkpt lat="26.285578" lon="98.874958"><time>2026-04-27T10:27:36.163Z</time></trkpt>
      <trkpt lat="26.285578" lon="98.874958"><time>2026-04-27T10:27:36.179Z</time></trkpt>
      <trkpt lat="26.285578" lon="98.874958"><time>2026-04-27T10:27:36.196Z</time></trkpt>
      <trkpt lat="26.285578" lon="98.874958"><time>2026-04-27T10:27:36.213Z</time></trkpt>
      <trkpt lat="26.285578" lon="98.874958"><time>2026-04-27T10:27:36.229Z</time></trkpt>
      <trkpt lat="26.285578" lon="98.874958"><time>2026-04-27T10:27:36.246Z</time></trkpt>
      <trkpt lat="26.285573" lon="98.874968"><time>2026-04-27T10:27:36.263Z</time></trkpt>
      <trkpt lat="26.285573" lon="98.874968"><time>2026-04-27T10:27:36.279Z</time></trkpt>
      <trkpt lat="26.285573" lon="98.874968"><time>2026-04-27T10:27:36.296Z</time></trkpt>
      <trkpt lat="26.285573" lon="98.874968"><time>2026-04-27T10:27:36.313Z</time></trkpt>
      <trkpt lat="26.285573" lon="98.874968"><time>2026-04-27T10:27:36.329Z</time></trkpt>
      <trkpt lat="26.285573" lon="98.874968"><time>2026-04-27T10:27:36.346Z</time></trkpt>
      <trkpt lat="26.285568" lon="98.874977"><time>2026-04-27T10:27:36.363Z</time></trkpt>
      <trkpt lat="26.285568" lon="98.874977"><time>2026-04-27T10:27:36.379Z</time></trkpt>
      <trkpt lat="26.285568" lon="98.874977"><time>2026-04-27T10:27:36.396Z</time></trkpt>
      <trkpt lat="26.285568" lon="98.874977"><time>2026-04-27T10:27:36.413Z</time></trkpt>
      <trkpt lat="26.285568" lon="98.874977"><time>2026-04-27T10:27:36.430Z</time></trkpt>
      <trkpt lat="26.285568" lon="98.874977"><time>2026-04-27T10:27:36.446Z</time></trkpt>
      <trkpt lat="26.285564" lon="98.874986"><time>2026-04-27T10:27:36.463Z</time></trkpt>
      <trkpt lat="26.285564" lon="98.874986"><time>2026-04-27T10:27:36.480Z</time></trkpt>
      <trkpt lat="26.285564" lon="98.874986"><time>2026-04-27T10:27:36.496Z</time></trkpt>
      <trkpt lat="26.285564" lon="98.874986"><time>2026-04-27T10:27:36.513Z</time></trkpt>
      <trkpt lat="26.285564" lon="98.874986"><time>2026-04-27T10:27:36.530Z</time></trkpt>
      <trkpt lat="26.285564" lon="98.874986"><time>2026-04-27T10:27:36.546Z</time></trkpt>
      <trkpt lat="26.285559" lon="98.874994"><time>2026-04-27T10:27:36.563Z</time></trkpt>
      <trkpt lat="26.285559" lon="98.874994"><time>2026-04-27T10:27:36.580Z</time></trkpt>
      <trkpt lat="26.285559" lon="98.874994"><time>2026-04-27T10:27:36.596Z</time></trkpt>
      <trkpt lat="26.285559" lon="98.874994"><time>2026-04-27T10:27:36.613Z</time></trkpt>
      <trkpt lat="26.285559" lon="98.874994"><time>2026-04-27T10:27:36.630Z</time></trkpt>
      <trkpt lat="26.285559" lon="98.874994"><time>2026-04-27T10:27:36.646Z</time></trkpt>
    </trkseg>
  </trk>
</gpx>
