<?xml version="1.0" encoding="UTF-8"?>
<gpx version="1.1" creator="Kairos" xmlns="http://www.topografix.com/GPX/1/1">
  <trk>
    <name>sidecar-srt-96fab3feb285fe64</name>
    <trkseg>
      <trkpt lat="28.435244" lon="98.453813"><time>2026-04-29T01:23:26.000Z</time></trkpt>
      <trkpt lat="28.435244" lon="98.453813"><time>2026-04-29T01:23:26.016Z</time></trkpt>
      <trkpt lat="28.435244" lon="98.453813"><time>2026-04-29T01:23:26.032Z</time></trkpt>
      <trkpt lat="28.435244" lon="98.453813"><time>2026-04-29T01:23:26.049Z</time></trkpt>
      <trkpt lat="28.435244" lon="98.453813"><time>2026-04-29T01:23:26.066Z</time></trkpt>
      <trkpt lat="28.435243" lon="98.453821"><time>2026-04-29T01:23:26.082Z</time></trkpt>
      <trkpt lat="28.435243" lon="98.453821"><time>2026-04-29T01:23:26.099Z</time></trkpt>
      <trkpt lat="28.435243" lon="98.453821"><time>2026-04-29T01:23:26.116Z</time></trkpt>
      <trkpt lat="28.435243" lon="98.453821"><time>2026-04-29T01:23:26.132Z</time></trkpt>
      <trkpt lat="28.435243" lon="98.453821"><time>2026-04-29T01:23:26.149Z</time></trkpt>
      <trkpt lat="28.435243" lon="98.453821"><time>2026-04-29T01:23:26.166Z</time></trkpt>
      <trkpt lat="28.435242" lon="98.45383"><time>2026-04-29T01:23:26.182Z</time></trkpt>
      <trkpt lat="28.435242" lon="98.45383"><time>2026-04-29T01:23:26.199Z</time></trkpt>
      <trkpt lat="28.435242" lon="98.45383"><time>2026-04-29T01:23:26.216Z</time></trkpt>
      <trkpt lat="28.435242" lon="98.45383"><time>2026-04-29T01:23:26.232Z</time></trkpt>
      <trkpt lat="28.435242" lon="98.45383"><time>2026-04-29T01:23:26.249Z</time></trkpt>
      <trkpt lat="28.435242" lon="98.45383"><time>2026-04-29T01:23:26.266Z</time></trkpt>
      <trkpt lat="28.435241" lon="98.453839"><time>2026-04-29T01:23:26.282Z</time></trkpt>
      <trkpt lat="28.435241" lon="98.453839"><time>2026-04-29T01:23:26.299Z</time></trkpt>
      <trkpt lat="28.435241" lon="98.453839"><time>2026-04-29T01:23:26.316Z</time></trkpt>
      <trkpt lat="28.435241" lon="98.453839"><time>2026-04-29T01:23:26.333Z</time></trkpt>
      <trkpt lat="28.435241" lon="98.453839"><time>2026-04-29T01:23:26.349Z</time></trkpt>
      <trkpt lat="28.435241" lon="98.453839"><time>2026-04-29T01:23:26.366Z</time></trkpt>
      <trkpt lat="28.43524" lon="98.453848"><time>2026-04-29T01:23:26.383Z</time></trkpt>
      <trkpt lat="28.43524" lon="98.453848"><time>2026-04-29T01:23:26.399Z</time></trkpt>
      <trkpt lat="28.43524" lon="98.453848"><time>2026-04-29T01:23:26.416Z</time></trkpt>
      <trkpt lat="28.43524" lon="98.453848"><time>2026-04-29T01:23:26.433Z</time></trkpt>
      <trkpt lat="28.43524" lon="98.453848"><time>2026-04-29T01:23:26.449Z</time></trkpt>
      <trkpt lat="28.43524" lon="98.453848"><time>2026-04-29T01:23:26.466Z</time></trkpt>
      <trkpt lat="28.43524" lon="98.453857"><time>2026-04-29T01:23:26.483Z</time></trkpt>
      <trkpt lat="28.43524" lon="98.453857"><time>2026-04-29T01:23:26.499Z</time></trkpt>
      <trkpt lat="28.43524" lon="98.453857"><time>2026-04-29T01:23:26.516Z</time></trkpt>
      <trkpt lat="28.43524" lon="98.453857"><time>2026-04-29T01:23:26.533Z</time></trkpt>
      <trkpt lat="28.43524" lon="98.453857"><time>2026-04-29T01:23:26.549Z</time></trkpt>
      <trkpt lat="28.43524" lon="98.453857"><time>2026-04-29T01:23:26.566Z</time></trkpt>
      <trkpt lat="28.435239" lon="98.453865"><time>2026-04-29T01:23:26.583Z</time></trkpt>
      <trkpt lat="28.435239" lon="98.453865"><time>2026-04-29T01:23:26.599Z</time></trkpt>
      <trkpt lat="28.435239" lon="98.453865"><time>2026-04-29T01:23:26.616Z</time></trkpt>
      <trkpt lat="28.435239" lon="98.453865"><time>2026-04-29T01:23:26.633Z</time></trkpt>
      <trkpt lat="28.435239" lon="98.453865"><time>2026-04-29T01:23:26.650Z</time></trkpt>
      <trkpt lat="28.435239" lon="98.453865"><time>2026-04-29T01:23:26.666Z</time></trkpt>
      <trkpt lat="28.435238" lon="98.453874"><time>2026-04-29T01:23:26.683Z</time></trkpt>
      <trkpt lat="28.435238" lon="98.453874"><time>2026-04-29T01:23:26.700Z</time></trkpt>
      <trkpt lat="28.435238" lon="98.453874"><time>2026-04-29T01:23:26.716Z</time></trkpt>
      <trkpt lat="28.435238" lon="98.453874"><time>2026-04-29T01:23:26.733Z</time></trkpt>
      <trkpt lat="28.435238" lon="98.453874"><time>2026-04-29T01:23:26.750Z</time></trkpt>
      <trkpt lat="28.435238" lon="98.453874"><time>2026-04-29T01:23:26.766Z</time></trkpt>
      <trkpt lat="28.435237" lon="98.453882"><time>2026-04-29T01:23:26.783Z</time></trkpt>
      <trkpt lat="28.435237" lon="98.453882"><time>2026-04-29T01:23:26.800Z</time></trkpt>
      <trkpt lat="28.435237" lon="98.453882"><time>2026-04-29T01:23:26.816Z</time></trkpt>
      <trkpt lat="28.435237" lon="98.453882"><time>2026-04-29T01:23:26.833Z</time></trkpt>
      <trkpt lat="28.435237" lon="98.453882"><time>2026-04-29T01:23:26.850Z</time></trkpt>
      <trkpt lat="28.435237" lon="98.453882"><time>2026-04-29T01:23:26.866Z</time></trkpt>
      <trkpt lat="28.435236" lon="98.45389"><time>2026-04-29T01:23:26.883Z</time></trkpt>
      <trkpt lat="28.435236" lon="98.45389"><time>2026-04-29T01:23:26.900Z</time></trkpt>
      <trkpt lat="28.435236" lon="98.45389"><time>2026-04-29T01:23:26.916Z</time></trkpt>
      <trkpt lat="28.435236" lon="98.45389"><time>2026-04-29T01:23:26.933Z</time></trkpt>
      <trkpt lat="28.435236" lon="98.45389"><time>2026-04-29T01:23:26.950Z</time></trkpt>
      <trkpt lat="28.435236" lon="98.45389"><time>2026-04-29T01:23:26.967Z</time></trkpt>
      <trkpt lat="28.435235" lon="98.453897"><time>2026-04-29T01:23:26.983Z</time></trkpt>
      <trkpt lat="28.435235" lon="98.453897"><time>2026-04-29T01:23:27.000Z</time></trkpt>
      <trkpt lat="28.435235" lon="98.453897"><time>2026-04-29T01:23:27.017Z</time></trkpt>
      <trkpt lat="28.435235" lon="98.453897"><time>2026-04-29T01:23:27.033Z</time></trkpt>
      <trkpt lat="28.435235" lon="98.453897"><time>2026-04-29T01:23:27.050Z</time></trkpt>
      <trkpt lat="28.435235" lon="98.453897"><time>2026-04-29T01:23:27.067Z</time></trkpt>
      <trkpt lat="28.435234" lon="98.453904"><time>2026-04-29T01:23:27.083Z</time></trkpt>
      <trkpt lat="28.435234" lon="98.453904"><time>2026-04-29T01:23:27.100Z</time></trkpt>
      <trkpt lat="28.435234" lon="98.453904"><time>2026-04-29T01:23:27.117Z</time></trkpt>
      <trkpt lat="28.435234" lon="98.453904"><time>2026-04-29T01:23:27.133Z</time></trkpt>
      <trkpt lat="28.435234" lon="98.453904"><time>2026-04-29T01:23:27.150Z</time></trkpt>
      <trkpt lat="28.435234" lon="98.453904"><time>2026-04-29T01:23:27.167Z</time></trkpt>
      <trkpt lat="28.435234" lon="98.453912"><time>2026-04-29T01:23:27.183Z</time></trkpt>
      <trkpt lat="28.435234" lon="98.453912"><time>2026-04-29T01:23:27.200Z</time></trkpt>
      <trkpt lat="28.435234" lon="98.453912"><time>2026-04-29T01:23:27.217Z</time></trkpt>
      <trkpt lat="28.435234" lon="98.453912"><time>2026-04-29T01:23:27.233Z</time></trkpt>
      <trkpt lat="28.435234" lon="98.453912"><time>2026-04-29T01:23:27.250Z</time></trkpt>
      <trkpt lat="28.435234" lon="98.453912"><time>2026-04-29T01:23:27.267Z</time></trkpt>
      <trkpt lat="28.435233" lon="98.453918"><time>2026-04-29T01:23:27.283Z</time></trkpt>
      <trkpt lat="28.435233" lon="98.453918"><time>2026-04-29T01:23:27.300Z</time></trkpt>
      <trkpt lat="28.435233" lon="98.453918"><time>2026-04-29T01:23:27.317Z</time></trkpt>
      <trkpt lat="28.435233" lon="98.453918"><time>2026-04-29T01:23:27.334Z</time></trkpt>
      <trkpt lat="28.435233" lon="98.453918"><time>2026-04-29T01:23:27.350Z</time></trkpt>
      <trkpt lat="28.435233" lon="98.453918"><time>2026-04-29T01:23:27.367Z</time></trkpt>
      <trkpt lat="28.435232" lon="98.453925"><time>2026-04-29T01:23:27.384Z</time></trkpt>
      <trkpt lat="28.435232" lon="98.453925"><time>2026-04-29T01:23:27.400Z</time></trkpt>
      <trkpt lat="28.435232" lon="98.453925"><time>2026-04-29T01:23:27.417Z</time></trkpt>
      <trkpt lat="28.435232" lon="98.453925"><time>2026-04-29T01:23:27.434Z</time></trkpt>
      <trkpt lat="28.435232" lon="98.453925"><time>2026-04-29T01:23:27.450Z</time></trkpt>
      <trkpt lat="28.435232" lon="98.453925"><time>2026-04-29T01:23:27.467Z</time></trkpt>
      <trkpt lat="28.435232" lon="98.45393"><time>2026-04-29T01:23:27.484Z</time></trkpt>
      <trkpt lat="28.435232" lon="98.45393"><time>2026-04-29T01:23:27.500Z</time></trkpt>
      <trkpt lat="28.435232" lon="98.45393"><time>2026-04-29T01:23:27.517Z</time></trkpt>
      <trkpt lat="28.435232" lon="98.45393"><time>2026-04-29T01:23:27.534Z</time></trkpt>
      <trkpt lat="28.435232" lon="98.45393"><time>2026-04-29T01:23:27.550Z</time></trkpt>
      <trkpt lat="28.435232" lon="98.45393"><time>2026-04-29T01:23:27.567Z</time></trkpt>
      <trkpt lat="28.435231" lon="98.453936"><time>2026-04-29T01:23:27.584Z</time></trkpt>
      <trkpt lat="28.435231" lon="98.453936"><time>2026-04-29T01:23:27.600Z</time></trkpt>
      <trkpt lat="28.435231" lon="98.453936"><time>2026-04-29T01:23:27.617Z</time></trkpt>
      <trkpt lat="28.435231" lon="98.453936"><time>2026-04-29T01:23:27.634Z</time></trkpt>
      <trkpt lat="28.435231" lon="98.453936"><time>2026-04-29T01:23:27.651Z</time></trkpt>
      <trkpt lat="28.435231" lon="98.453936"><time>2026-04-29T01:23:27.667Z</time></trkpt>
      <trkpt lat="28.435231" lon="98.45394"><time>2026-04-29T01:23:27.684Z</time></trkpt>
      <trkpt lat="28.435231" lon="98.45394"><time>2026-04-29T01:23:27.701Z</time></trkpt>
      <trkpt lat="28.435231" lon="98.45394"><time>2026-04-29T01:23:27.717Z</time></trkpt>
      <trkpt lat="28.435231" lon="98.45394"><time>2026-04-29T01:23:27.734Z</time></trkpt>
      <trkpt lat="28.435231" lon="98.45394"><time>2026-04-29T01:23:27.751Z</time></trkpt>
      <trkpt lat="28.435231" lon="98.45394"><time>2026-04-29T01:23:27.767Z</time></trkpt>
      <trkpt lat="28.43523" lon="98.453944"><time>2026-04-29T01:23:27.784Z</time></trkpt>
      <trkpt lat="28.43523" lon="98.453944"><time>2026-04-29T01:23:27.801Z</time></trkpt>
      <trkpt lat="28.43523" lon="98.453944"><time>2026-04-29T01:23:27.817Z</time></trkpt>
      <trkpt lat="28.43523" lon="98.453944"><time>2026-04-29T01:23:27.834Z</time></trkpt>
      <trkpt lat="28.43523" lon="98.453944"><time>2026-04-29T01:23:27.851Z</time></trkpt>
      <trkpt lat="28.43523" lon="98.453944"><time>2026-04-29T01:23:27.867Z</time></trkpt>
      <trkpt lat="28.43523" lon="98.453948"><time>2026-04-29T01:23:27.884Z</time></trkpt>
      <trkpt lat="28.43523" lon="98.453948"><time>2026-04-29T01:23:27.901Z</time></trkpt>
      <trkpt lat="28.43523" lon="98.453948"><time>2026-04-29T01:23:27.917Z</time></trkpt>
      <trkpt lat="28.43523" lon="98.453948"><time>2026-04-29T01:23:27.934Z</time></trkpt>
      <trkpt lat="28.43523" lon="98.453948"><time>2026-04-29T01:23:27.951Z</time></trkpt>
      <trkpt lat="28.43523" lon="98.453948"><time>2026-04-29T01:23:27.968Z</time></trkpt>
      <trkpt lat="28.43523" lon="98.45395"><time>2026-04-29T01:23:27.984Z</time></trkpt>
      <trkpt lat="28.43523" lon="98.45395"><time>2026-04-29T01:23:28.001Z</time></trkpt>
      <trkpt lat="28.43523" lon="98.45395"><time>2026-04-29T01:23:28.018Z</time></trkpt>
      <trkpt lat="28.43523" lon="98.45395"><time>2026-04-29T01:23:28.034Z</time></trkpt>
      <trkpt lat="28.43523" lon="98.45395"><time>2026-04-29T01:23:28.051Z</time></trkpt>
      <trkpt lat="28.43523" lon="98.45395"><time>2026-04-29T01:23:28.068Z</time></trkpt>
      <trkpt lat="28.435229" lon="98.453952"><time>2026-04-29T01:23:28.084Z</time></trkpt>
      <trkpt lat="28.435229" lon="98.453952"><time>2026-04-29T01:23:28.101Z</time></trkpt>
      <trkpt lat="28.435229" lon="98.453952"><time>2026-04-29T01:23:28.118Z</time></trkpt>
      <trkpt lat="28.435229" lon="98.453952"><time>2026-04-29T01:23:28.134Z</time></trkpt>
      <trkpt lat="28.435229" lon="98.453952"><time>2026-04-29T01:23:28.151Z</time></trkpt>
      <trkpt lat="28.435229" lon="98.453952"><time>2026-04-29T01:23:28.168Z</time></trkpt>
      <trkpt lat="28.435229" lon="98.453954"><time>2026-04-29T01:23:28.184Z</time></trkpt>
      <trkpt lat="28.435229" lon="98.453954"><time>2026-04-29T01:23:28.201Z</time></trkpt>
      <trkpt lat="28.435229" lon="98.453954"><time>2026-04-29T01:23:28.218Z</time></trkpt>
      <trkpt lat="28.435229" lon="98.453954"><time>2026-04-29T01:23:28.234Z</time></trkpt>
      <trkpt lat="28.435229" lon="98.453954"><time>2026-04-29T01:23:28.251Z</time></trkpt>
      <trkpt lat="28.435229" lon="98.453954"><time>2026-04-29T01:23:28.268Z</time></trkpt>
      <trkpt lat="28.435229" lon="98.453955"><time>2026-04-29T01:23:28.285Z</time></trkpt>
      <trkpt lat="28.435229" lon="98.453955"><time>2026-04-29T01:23:28.301Z</time></trkpt>
      <trkpt lat="28.435229" lon="98.453955"><time>2026-04-29T01:23:28.318Z</time></trkpt>
      <trkpt lat="28.435229" lon="98.453955"><time>2026-04-29T01:23:28.335Z</time></trkpt>
      <trkpt lat="28.435229" lon="98.453955"><time>2026-04-29T01:23:28.351Z</time></trkpt>
      <trkpt lat="28.435229" lon="98.453955"><time>2026-04-29T01:23:28.368Z</time></trkpt>
      <trkpt lat="28.435229" lon="98.453955"><time>2026-04-29T01:23:28.385Z</time></trkpt>
      <trkpt lat="28.435229" lon="98.453955"><time>2026-04-29T01:23:28.401Z</time></trkpt>
      <trkpt lat="28.435229" lon="98.453955"><time>2026-04-29T01:23:28.418Z</time></trkpt>
      <trkpt lat="28.435229" lon="98.453955"><time>2026-04-29T01:23:28.435Z</time></trkpt>
      <trkpt lat="28.435229" lon="98.453955"><time>2026-04-29T01:23:28.451Z</time></trkpt>
      <trkpt lat="28.435229" lon="98.453955"><time>2026-04-29T01:23:28.468Z</time></trkpt>
      <trkpt lat="28.435229" lon="98.453955"><time>2026-04-29T01:23:28.485Z</time></trkpt>
      <trkpt lat="28.435229" lon="98.453955"><time>2026-04-29T01:23:28.501Z</time></trkpt>
      <trkpt lat="28.435229" lon="98.453955"><time>2026-04-29T01:23:28.518Z</time></trkpt>
      <trkpt lat="28.435229" lon="98.453955"><time>2026-04-29T01:23:28.535Z</time></trkpt>
      <trkpt lat="28.435229" lon="98.453955"><time>2026-04-29T01:23:28.551Z</time></trkpt>
      <trkpt lat="28.435229" lon="98.453955"><time>2026-04-29T01:23:28.568Z</time></trkpt>
      <trkpt lat="28.435229" lon="98.453956"><time>2026-04-29T01:23:28.585Z</time></trkpt>
      <trkpt lat="28.435229" lon="98.453956"><time>2026-04-29T01:23:28.602Z</time></trkpt>
      <trkpt lat="28.435229" lon="98.453956"><time>2026-04-29T01:23:28.618Z</time></trkpt>
      <trkpt lat="28.435229" lon="98.453956"><time>2026-04-29T01:23:28.635Z</time></trkpt>
      <trkpt lat="28.435229" lon="98.453956"><time>2026-04-29T01:23:28.652Z</time></trkpt>
      <trkpt lat="28.435229" lon="98.453956"><time>2026-04-29T01:23:28.668Z</time></trkpt>
      <trkpt lat="28.435229" lon="98.453956"><time>2026-04-29T01:23:28.685Z</time></trkpt>
      <trkpt lat="28.435229" lon="98.453956"><time>2026-04-29T01:23:28.702Z</time></trkpt>
      <trkpt lat="28.435229" lon="98.453956"><time>2026-04-29T01:23:28.718Z</time></trkpt>
      <trkpt lat="28.435229" lon="98.453956"><time>2026-04-29T01:23:28.735Z</time></trkpt>
      <trkpt lat="28.435229" lon="98.453956"><time>2026-04-29T01:23:28.752Z</time></trkpt>
      <trkpt lat="28.435229" lon="98.453956"><time>2026-04-29T01:23:28.768Z</time></trkpt>
      <trkpt lat="28.435229" lon="98.453956"><time>2026-04-29T01:23:28.785Z</time></trkpt>
      <trkpt lat="28.435229" lon="98.453956"><time>2026-04-29T01:23:28.802Z</time></trkpt>
      <trkpt lat="28.435229" lon="98.453956"><time>2026-04-29T01:23:28.818Z</time></trkpt>
      <trkpt lat="28.435229" lon="98.453956"><time>2026-04-29T01:23:28.835Z</time></trkpt>
      <trkpt lat="28.435229" lon="98.453956"><time>2026-04-29T01:23:28.852Z</time></trkpt>
      <trkpt lat="28.435229" lon="98.453956"><time>2026-04-29T01:23:28.868Z</time></trkpt>
      <trkpt lat="28.435229" lon="98.453956"><time>2026-04-29T01:23:28.885Z</time></trkpt>
      <trkpt lat="28.435229" lon="98.453956"><time>2026-04-29T01:23:28.902Z</time></trkpt>
      <trkpt lat="28.435229" lon="98.453956"><time>2026-04-29T01:23:28.919Z</time></trkpt>
      <trkpt lat="28.435229" lon="98.453956"><time>2026-04-29T01:23:28.935Z</time></trkpt>
      <trkpt lat="28.435229" lon="98.453956"><time>2026-04-29T01:23:28.952Z</time></trkpt>
      <trkpt lat="28.435229" lon="98.453956"><time>2026-04-29T01:23:28.969Z</time></trkpt>
      <trkpt lat="28.435229" lon="98.453956"><time>2026-04-29T01:23:28.985Z</time></trkpt>
      <trkpt lat="28.435229" lon="98.453956"><time>2026-04-29T01:23:29.002Z</time></trkpt>
      <trkpt lat="28.435229" lon="98.453956"><time>2026-04-29T01:23:29.019Z</time></trkpt>
      <trkpt lat="28.435229" lon="98.453956"><time>2026-04-29T01:23:29.035Z</time></trkpt>
      <trkpt lat="28.435229" lon="98.453956"><time>2026-04-29T01:23:29.052Z</time></trkpt>
      <trkpt lat="28.435229" lon="98.453956"><time>2026-04-29T01:23:29.069Z</time></trkpt>
      <trkpt lat="28.435229" lon="98.453956"><time>2026-04-29T01:23:29.085Z</time></trkpt>
      <trkpt lat="28.435229" lon="98.453956"><time>2026-04-29T01:23:29.102Z</time></trkpt>
      <trkpt lat="28.435229" lon="98.453956"><time>2026-04-29T01:23:29.119Z</time></trkpt>
      <trkpt lat="28.435229" lon="98.453956"><time>2026-04-29T01:23:29.135Z</time></trkpt>
      <trkpt lat="28.435229" lon="98.453956"><time>2026-04-29T01:23:29.152Z</time></trkpt>
      <trkpt lat="28.435229" lon="98.453956"><time>2026-04-29T01:23:29.169Z</time></trkpt>
      <trkpt lat="28.435229" lon="98.453956"><time>2026-04-29T01:23:29.185Z</time></trkpt>
      <trkpt lat="28.435229" lon="98.453956"><time>2026-04-29T01:23:29.202Z</time></trkpt>
      <trkpt lat="28.435229" lon="98.453956"><time>2026-04-29T01:23:29.219Z</time></trkpt>
      <trkpt lat="28.435229" lon="98.453956"><time>2026-04-29T01:23:29.236Z</time></trkpt>
      <trkpt lat="28.435229" lon="98.453956"><time>2026-04-29T01:23:29.252Z</time></trkpt>
      <trkpt lat="28.435229" lon="98.453956"><time>2026-04-29T01:23:29.269Z</time></trkpt>
      <trkpt lat="28.435229" lon="98.453956"><time>2026-04-29T01:23:29.286Z</time></trkpt>
      <trkpt lat="28.435229" lon="98.453956"><time>2026-04-29T01:23:29.302Z</time></trkpt>
      <trkpt lat="28.435229" lon="98.453956"><time>2026-04-29T01:23:29.319Z</time></trkpt>
      <trkpt lat="28.435229" lon="98.453956"><time>2026-04-29T01:23:29.336Z</time></trkpt>
      <trkpt lat="28.435229" lon="98.453956"><time>2026-04-29T01:23:29.352Z</time></trkpt>
      <trkpt lat="28.435229" lon="98.453956"><time>2026-04-29T01:23:29.369Z</time></trkpt>
      <trkpt lat="28.435229" lon="98.453956"><time>2026-04-29T01:23:29.386Z</time></trkpt>
      <trkpt lat="28.435229" lon="98.453956"><time>2026-04-29T01:23:29.402Z</time></trkpt>
      <trkpt lat="28.435229" lon="98.453956"><time>2026-04-29T01:23:29.419Z</time></trkpt>
      <trkpt lat="28.435229" lon="98.453956"><time>2026-04-29T01:23:29.436Z</time></trkpt>
      <trkpt lat="28.435229" lon="98.453956"><time>2026-04-29T01:23:29.452Z</time></trkpt>
      <trkpt lat="28.435229" lon="98.453956"><time>2026-04-29T01:23:29.469Z</time></trkpt>
      <trkpt lat="28.435229" lon="98.453956"><time>2026-04-29T01:23:29.486Z</time></trkpt>
      <trkpt lat="28.435229" lon="98.453956"><time>2026-04-29T01:23:29.502Z</time></trkpt>
      <trkpt lat="28.435229" lon="98.453956"><time>2026-04-29T01:23:29.519Z</time></trkpt>
      <trkpt lat="28.435229" lon="98.453956"><time>2026-04-29T01:23:29.536Z</time></trkpt>
      <trkpt lat="28.435229" lon="98.453956"><time>2026-04-29T01:23:29.553Z</time></trkpt>
      <trkpt lat="28.435229" lon="98.453956"><time>2026-04-29T01:23:29.569Z</time></trkpt>
      <trkpt lat="28.435229" lon="98.453956"><time>2026-04-29T01:23:29.586Z</time></trkpt>
      <trkpt lat="28.435229" lon="98.453956"><time>2026-04-29T01:23:29.603Z</time></trkpt>
      <trkpt lat="28.435229" lon="98.453956"><time>2026-04-29T01:23:29.619Z</time></trkpt>
      <trkpt lat="28.435229" lon="98.453956"><time>2026-04-29T01:23:29.636Z</time></trkpt>
      <trkpt lat="28.435229" lon="98.453956"><time>2026-04-29T01:23:29.653Z</time></trkpt>
      <trkpt lat="28.435229" lon="98.453956"><time>2026-04-29T01:23:29.669Z</time></trkpt>
      <trkpt lat="28.435229" lon="98.453956"><time>2026-04-29T01:23:29.686Z</time></trkpt>
      <trkpt lat="28.435229" lon="98.453956"><time>2026-04-29T01:23:29.703Z</time></trkpt>
      <trkpt lat="28.435229" lon="98.453956"><time>2026-04-29T01:23:29.719Z</time></trkpt>
      <trkpt lat="28.435229" lon="98.453956"><time>2026-04-29T01:23:29.736Z</time></trkpt>
      <trkpt lat="28.435229" lon="98.453956"><time>2026-04-29T01:23:29.753Z</time></trkpt>
      <trkpt lat="28.435229" lon="98.453956"><time>2026-04-29T01:23:29.769Z</time></trkpt>
      <trkpt lat="28.435229" lon="98.453956"><time>2026-04-29T01:23:29.786Z</time></trkpt>
      <trkpt lat="28.435229" lon="98.453956"><time>2026-04-29T01:23:29.803Z</time></trkpt>
      <trkpt lat="28.435229" lon="98.453956"><time>2026-04-29T01:23:29.819Z</time></trkpt>
      <trkpt lat="28.435229" lon="98.453956"><time>2026-04-29T01:23:29.836Z</time></trkpt>
      <trkpt lat="28.435229" lon="98.453956"><time>2026-04-29T01:23:29.853Z</time></trkpt>
      <trkpt lat="28.435229" lon="98.453956"><time>2026-04-29T01:23:29.870Z</time></trkpt>
      <trkpt lat="28.43523" lon="98.453956"><time>2026-04-29T01:23:29.886Z</time></trkpt>
      <trkpt lat="28.43523" lon="98.453956"><time>2026-04-29T01:23:29.903Z</time></trkpt>
      <trkpt lat="28.43523" lon="98.453956"><time>2026-04-29T01:23:29.920Z</time></trkpt>
      <trkpt lat="28.43523" lon="98.453956"><time>2026-04-29T01:23:29.936Z</time></trkpt>
      <trkpt lat="28.43523" lon="98.453956"><time>2026-04-29T01:23:29.953Z</time></trkpt>
      <trkpt lat="28.43523" lon="98.453956"><time>2026-04-29T01:23:29.970Z</time></trkpt>
      <trkpt lat="28.43523" lon="98.453956"><time>2026-04-29T01:23:29.986Z</time></trkpt>
      <trkpt lat="28.43523" lon="98.453956"><time>2026-04-29T01:23:30.003Z</time></trkpt>
      <trkpt lat="28.43523" lon="98.453956"><time>2026-04-29T01:23:30.020Z</time></trkpt>
      <trkpt lat="28.43523" lon="98.453956"><time>2026-04-29T01:23:30.036Z</time></trkpt>
      <trkpt lat="28.43523" lon="98.453956"><time>2026-04-29T01:23:30.053Z</time></trkpt>
      <trkpt lat="28.43523" lon="98.453956"><time>2026-04-29T01:23:30.070Z</time></trkpt>
      <trkpt lat="28.43523" lon="98.453956"><time>2026-04-29T01:23:30.086Z</time></trkpt>
      <trkpt lat="28.43523" lon="98.453956"><time>2026-04-29T01:23:30.103Z</time></trkpt>
      <trkpt lat="28.43523" lon="98.453956"><time>2026-04-29T01:23:30.120Z</time></trkpt>
      <trkpt lat="28.43523" lon="98.453956"><time>2026-04-29T01:23:30.136Z</time></trkpt>
      <trkpt lat="28.43523" lon="98.453956"><time>2026-04-29T01:23:30.153Z</time></trkpt>
      <trkpt lat="28.43523" lon="98.453956"><time>2026-04-29T01:23:30.170Z</time></trkpt>
      <trkpt lat="28.43523" lon="98.453956"><time>2026-04-29T01:23:30.187Z</time></trkpt>
      <trkpt lat="28.43523" lon="98.453956"><time>2026-04-29T01:23:30.203Z</time></trkpt>
      <trkpt lat="28.43523" lon="98.453956"><time>2026-04-29T01:23:30.220Z</time></trkpt>
      <trkpt lat="28.43523" lon="98.453956"><time>2026-04-29T01:23:30.237Z</time></trkpt>
      <trkpt lat="28.43523" lon="98.453956"><time>2026-04-29T01:23:30.253Z</time></trkpt>
      <trkpt lat="28.43523" lon="98.453956"><time>2026-04-29T01:23:30.270Z</time></trkpt>
      <trkpt lat="28.43523" lon="98.453956"><time>2026-04-29T01:23:30.287Z</time></trkpt>
      <trkpt lat="28.43523" lon="98.453956"><time>2026-04-29T01:23:30.303Z</time></trkpt>
      <trkpt lat="28.43523" lon="98.453956"><time>2026-04-29T01:23:30.320Z</time></trkpt>
      <trkpt lat="28.43523" lon="98.453956"><time>2026-04-29T01:23:30.337Z</time></trkpt>
      <trkpt lat="28.43523" lon="98.453956"><time>2026-04-29T01:23:30.353Z</time></trkpt>
      <trkpt lat="28.43523" lon="98.453956"><time>2026-04-29T01:23:30.370Z</time></trkpt>
      <trkpt lat="28.43523" lon="98.453956"><time>2026-04-29T01:23:30.387Z</time></trkpt>
      <trkpt lat="28.43523" lon="98.453956"><time>2026-04-29T01:23:30.403Z</time></trkpt>
      <trkpt lat="28.43523" lon="98.453956"><time>2026-04-29T01:23:30.420Z</time></trkpt>
      <trkpt lat="28.43523" lon="98.453956"><time>2026-04-29T01:23:30.437Z</time></trkpt>
      <trkpt lat="28.43523" lon="98.453956"><time>2026-04-29T01:23:30.453Z</time></trkpt>
      <trkpt lat="28.43523" lon="98.453956"><time>2026-04-29T01:23:30.470Z</time></trkpt>
      <trkpt lat="28.43523" lon="98.453956"><time>2026-04-29T01:23:30.487Z</time></trkpt>
      <trkpt lat="28.43523" lon="98.453956"><time>2026-04-29T01:23:30.504Z</time></trkpt>
      <trkpt lat="28.43523" lon="98.453956"><time>2026-04-29T01:23:30.520Z</time></trkpt>
      <trkpt lat="28.43523" lon="98.453956"><time>2026-04-29T01:23:30.537Z</time></trkpt>
      <trkpt lat="28.43523" lon="98.453956"><time>2026-04-29T01:23:30.554Z</time></trkpt>
      <trkpt lat="28.43523" lon="98.453956"><time>2026-04-29T01:23:30.570Z</time></trkpt>
      <trkpt lat="28.43523" lon="98.453956"><time>2026-04-29T01:23:30.587Z</time></trkpt>
      <trkpt lat="28.43523" lon="98.453956"><time>2026-04-29T01:23:30.604Z</time></trkpt>
      <trkpt lat="28.43523" lon="98.453956"><time>2026-04-29T01:23:30.620Z</time></trkpt>
      <trkpt lat="28.43523" lon="98.453956"><time>2026-04-29T01:23:30.637Z</time></trkpt>
      <trkpt lat="28.43523" lon="98.453956"><time>2026-04-29T01:23:30.654Z</time></trkpt>
    </trkseg>
  </trk>
</gpx>
