<?xml version="1.0" encoding="UTF-8"?>
<gpx version="1.1" creator="Kairos" xmlns="http://www.topografix.com/GPX/1/1">
  <trk>
    <name>sidecar-srt-f94caed84531a24f</name>
    <trkseg>
      <trkpt lat="29.392337" lon="96.851792"><time>2026-04-30T05:09:10.000Z</time></trkpt>
      <trkpt lat="29.392337" lon="96.851792"><time>2026-04-30T05:09:10.016Z</time></trkpt>
      <trkpt lat="29.392337" lon="96.851792"><time>2026-04-30T05:09:10.032Z</time></trkpt>
      <trkpt lat="29.392337" lon="96.851792"><time>2026-04-30T05:09:10.049Z</time></trkpt>
      <trkpt lat="29.392337" lon="96.851792"><time>2026-04-30T05:09:10.066Z</time></trkpt>
      <trkpt lat="29.392337" lon="96.851792"><time>2026-04-30T05:09:10.082Z</time></trkpt>
      <trkpt lat="29.392337" lon="96.851792"><time>2026-04-30T05:09:10.099Z</time></trkpt>
      <trkpt lat="29.392337" lon="96.851792"><time>2026-04-30T05:09:10.116Z</time></trkpt>
      <trkpt lat="29.392337" lon="96.851792"><time>2026-04-30T05:09:10.132Z</time></trkpt>
      <trkpt lat="29.392337" lon="96.851792"><time>2026-04-30T05:09:10.149Z</time></trkpt>
      <trkpt lat="29.392337" lon="96.851792"><time>2026-04-30T05:09:10.166Z</time></trkpt>
      <trkpt lat="29.392337" lon="96.851792"><time>2026-04-30T05:09:10.182Z</time></trkpt>
      <trkpt lat="29.392337" lon="96.851792"><time>2026-04-30T05:09:10.199Z</time></trkpt>
      <trkpt lat="29.392337" lon="96.851792"><time>2026-04-30T05:09:10.216Z</time></trkpt>
      <trkpt lat="29.392337" lon="96.851792"><time>2026-04-30T05:09:10.232Z</time></trkpt>
      <trkpt lat="29.392337" lon="96.851792"><time>2026-04-30T05:09:10.249Z</time></trkpt>
      <trkpt lat="29.392337" lon="96.851792"><time>2026-04-30T05:09:10.266Z</time></trkpt>
      <trkpt lat="29.392337" lon="96.851792"><time>2026-04-30T05:09:10.282Z</time></trkpt>
      <trkpt lat="29.392337" lon="96.851792"><time>2026-04-30T05:09:10.299Z</time></trkpt>
      <trkpt lat="29.392337" lon="96.851792"><time>2026-04-30T05:09:10.316Z</time></trkpt>
      <trkpt lat="29.392337" lon="96.851792"><time>2026-04-30T05:09:10.333Z</time></trkpt>
      <trkpt lat="29.392337" lon="96.851792"><time>2026-04-30T05:09:10.349Z</time></trkpt>
      <trkpt lat="29.392337" lon="96.851792"><time>2026-04-30T05:09:10.366Z</time></trkpt>
      <trkpt lat="29.392337" lon="96.851792"><time>2026-04-30T05:09:10.383Z</time></trkpt>
      <trkpt lat="29.392337" lon="96.851792"><time>2026-04-30T05:09:10.399Z</time></trkpt>
      <trkpt lat="29.392337" lon="96.851792"><time>2026-04-30T05:09:10.416Z</time></trkpt>
      <trkpt lat="29.392337" lon="96.851792"><time>2026-04-30T05:09:10.433Z</time></trkpt>
      <trkpt lat="29.392337" lon="96.851792"><time>2026-04-30T05:09:10.449Z</time></trkpt>
      <trkpt lat="29.392337" lon="96.851792"><time>2026-04-30T05:09:10.466Z</time></trkpt>
      <trkpt lat="29.392337" lon="96.851792"><time>2026-04-30T05:09:10.483Z</time></trkpt>
      <trkpt lat="29.392337" lon="96.851792"><time>2026-04-30T05:09:10.499Z</time></trkpt>
      <trkpt lat="29.392337" lon="96.851792"><time>2026-04-30T05:09:10.516Z</time></trkpt>
      <trkpt lat="29.392337" lon="96.851792"><time>2026-04-30T05:09:10.533Z</time></trkpt>
      <trkpt lat="29.392337" lon="96.851792"><time>2026-04-30T05:09:10.549Z</time></trkpt>
      <trkpt lat="29.392337" lon="96.851792"><time>2026-04-30T05:09:10.566Z</time></trkpt>
      <trkpt lat="29.392337" lon="96.851792"><time>2026-04-30T05:09:10.583Z</time></trkpt>
      <trkpt lat="29.392337" lon="96.851792"><time>2026-04-30T05:09:10.599Z</time></trkpt>
      <trkpt lat="29.392337" lon="96.851792"><time>2026-04-30T05:09:10.616Z</time></trkpt>
      <trkpt lat="29.392337" lon="96.851792"><time>2026-04-30T05:09:10.633Z</time></trkpt>
      <trkpt lat="29.392337" lon="96.851792"><time>2026-04-30T05:09:10.650Z</time></trkpt>
      <trkpt lat="29.392337" lon="96.851792"><time>2026-04-30T05:09:10.666Z</time></trkpt>
      <trkpt lat="29.392337" lon="96.851792"><time>2026-04-30T05:09:10.683Z</time></trkpt>
      <trkpt lat="29.392337" lon="96.851792"><time>2026-04-30T05:09:10.700Z</time></trkpt>
      <trkpt lat="29.392337" lon="96.851792"><time>2026-04-30T05:09:10.716Z</time></trkpt>
      <trkpt lat="29.392337" lon="96.851792"><time>2026-04-30T05:09:10.733Z</time></trkpt>
      <trkpt lat="29.392337" lon="96.851792"><time>2026-04-30T05:09:10.750Z</time></trkpt>
      <trkpt lat="29.392337" lon="96.851792"><time>2026-04-30T05:09:10.766Z</time></trkpt>
      <trkpt lat="29.392337" lon="96.851792"><time>2026-04-30T05:09:10.783Z</time></trkpt>
      <trkpt lat="29.392337" lon="96.851792"><time>2026-04-30T05:09:10.800Z</time></trkpt>
      <trkpt lat="29.392337" lon="96.851792"><time>2026-04-30T05:09:10.816Z</time></trkpt>
      <trkpt lat="29.392337" lon="96.851792"><time>2026-04-30T05:09:10.833Z</time></trkpt>
      <trkpt lat="29.392337" lon="96.851792"><time>2026-04-30T05:09:10.850Z</time></trkpt>
      <trkpt lat="29.392337" lon="96.851792"><time>2026-04-30T05:09:10.866Z</time></trkpt>
      <trkpt lat="29.392337" lon="96.851792"><time>2026-04-30T05:09:10.883Z</time></trkpt>
      <trkpt lat="29.392337" lon="96.851792"><time>2026-04-30T05:09:10.900Z</time></trkpt>
      <trkpt lat="29.392337" lon="96.851792"><time>2026-04-30T05:09:10.916Z</time></trkpt>
      <trkpt lat="29.392337" lon="96.851792"><time>2026-04-30T05:09:10.933Z</time></trkpt>
      <trkpt lat="29.392337" lon="96.851792"><time>2026-04-30T05:09:10.950Z</time></trkpt>
      <trkpt lat="29.392337" lon="96.851792"><time>2026-04-30T05:09:10.967Z</time></trkpt>
      <trkpt lat="29.392337" lon="96.851792"><time>2026-04-30T05:09:10.983Z</time></trkpt>
      <trkpt lat="29.392337" lon="96.851792"><time>2026-04-30T05:09:11.000Z</time></trkpt>
      <trkpt lat="29.392337" lon="96.851792"><time>2026-04-30T05:09:11.017Z</time></trkpt>
      <trkpt lat="29.392337" lon="96.851792"><time>2026-04-30T05:09:11.033Z</time></trkpt>
      <trkpt lat="29.392337" lon="96.851792"><time>2026-04-30T05:09:11.050Z</time></trkpt>
      <trkpt lat="29.392337" lon="96.851792"><time>2026-04-30T05:09:11.067Z</time></trkpt>
      <trkpt lat="29.392337" lon="96.851792"><time>2026-04-30T05:09:11.083Z</time></trkpt>
      <trkpt lat="29.392337" lon="96.851792"><time>2026-04-30T05:09:11.100Z</time></trkpt>
      <trkpt lat="29.392337" lon="96.851792"><time>2026-04-30T05:09:11.117Z</time></trkpt>
      <trkpt lat="29.392337" lon="96.851792"><time>2026-04-30T05:09:11.133Z</time></trkpt>
      <trkpt lat="29.392337" lon="96.851792"><time>2026-04-30T05:09:11.150Z</time></trkpt>
      <trkpt lat="29.392337" lon="96.851792"><time>2026-04-30T05:09:11.167Z</time></trkpt>
      <trkpt lat="29.392337" lon="96.851792"><time>2026-04-30T05:09:11.183Z</time></trkpt>
      <trkpt lat="29.392337" lon="96.851792"><time>2026-04-30T05:09:11.200Z</time></trkpt>
      <trkpt lat="29.392337" lon="96.851792"><time>2026-04-30T05:09:11.217Z</time></trkpt>
      <trkpt lat="29.392337" lon="96.851792"><time>2026-04-30T05:09:11.233Z</time></trkpt>
      <trkpt lat="29.392337" lon="96.851792"><time>2026-04-30T05:09:11.250Z</time></trkpt>
      <trkpt lat="29.392337" lon="96.851792"><time>2026-04-30T05:09:11.267Z</time></trkpt>
      <trkpt lat="29.392337" lon="96.851792"><time>2026-04-30T05:09:11.284Z</time></trkpt>
      <trkpt lat="29.392337" lon="96.851792"><time>2026-04-30T05:09:11.300Z</time></trkpt>
      <trkpt lat="29.392337" lon="96.851792"><time>2026-04-30T05:09:11.317Z</time></trkpt>
      <trkpt lat="29.392337" lon="96.851792"><time>2026-04-30T05:09:11.334Z</time></trkpt>
      <trkpt lat="29.392337" lon="96.851792"><time>2026-04-30T05:09:11.350Z</time></trkpt>
      <trkpt lat="29.392337" lon="96.851792"><time>2026-04-30T05:09:11.367Z</time></trkpt>
      <trkpt lat="29.392337" lon="96.851792"><time>2026-04-30T05:09:11.384Z</time></trkpt>
      <trkpt lat="29.392337" lon="96.851792"><time>2026-04-30T05:09:11.400Z</time></trkpt>
      <trkpt lat="29.392337" lon="96.851792"><time>2026-04-30T05:09:11.417Z</time></trkpt>
      <trkpt lat="29.392337" lon="96.851792"><time>2026-04-30T05:09:11.434Z</time></trkpt>
      <trkpt lat="29.392337" lon="96.851792"><time>2026-04-30T05:09:11.450Z</time></trkpt>
      <trkpt lat="29.392337" lon="96.851792"><time>2026-04-30T05:09:11.467Z</time></trkpt>
      <trkpt lat="29.392337" lon="96.851792"><time>2026-04-30T05:09:11.484Z</time></trkpt>
      <trkpt lat="29.392337" lon="96.851792"><time>2026-04-30T05:09:11.500Z</time></trkpt>
      <trkpt lat="29.392337" lon="96.851792"><time>2026-04-30T05:09:11.517Z</time></trkpt>
      <trkpt lat="29.392337" lon="96.851792"><time>2026-04-30T05:09:11.534Z</time></trkpt>
      <trkpt lat="29.392337" lon="96.851792"><time>2026-04-30T05:09:11.550Z</time></trkpt>
      <trkpt lat="29.392337" lon="96.851792"><time>2026-04-30T05:09:11.567Z</time></trkpt>
      <trkpt lat="29.392337" lon="96.851792"><time>2026-04-30T05:09:11.584Z</time></trkpt>
      <trkpt lat="29.392337" lon="96.851792"><time>2026-04-30T05:09:11.601Z</time></trkpt>
      <trkpt lat="29.392337" lon="96.851792"><time>2026-04-30T05:09:11.617Z</time></trkpt>
      <trkpt lat="29.392337" lon="96.851792"><time>2026-04-30T05:09:11.634Z</time></trkpt>
      <trkpt lat="29.392337" lon="96.851791"><time>2026-04-30T05:09:11.651Z</time></trkpt>
      <trkpt lat="29.392337" lon="96.851791"><time>2026-04-30T05:09:11.667Z</time></trkpt>
      <trkpt lat="29.392337" lon="96.851791"><time>2026-04-30T05:09:11.684Z</time></trkpt>
      <trkpt lat="29.392337" lon="96.851791"><time>2026-04-30T05:09:11.701Z</time></trkpt>
      <trkpt lat="29.392337" lon="96.851791"><time>2026-04-30T05:09:11.717Z</time></trkpt>
      <trkpt lat="29.392337" lon="96.851791"><time>2026-04-30T05:09:11.734Z</time></trkpt>
      <trkpt lat="29.392337" lon="96.851792"><time>2026-04-30T05:09:11.751Z</time></trkpt>
      <trkpt lat="29.392337" lon="96.851792"><time>2026-04-30T05:09:11.767Z</time></trkpt>
      <trkpt lat="29.392337" lon="96.851792"><time>2026-04-30T05:09:11.784Z</time></trkpt>
      <trkpt lat="29.392337" lon="96.851792"><time>2026-04-30T05:09:11.801Z</time></trkpt>
      <trkpt lat="29.392337" lon="96.851792"><time>2026-04-30T05:09:11.817Z</time></trkpt>
      <trkpt lat="29.392337" lon="96.851792"><time>2026-04-30T05:09:11.834Z</time></trkpt>
      <trkpt lat="29.392337" lon="96.851792"><time>2026-04-30T05:09:11.851Z</time></trkpt>
      <trkpt lat="29.392337" lon="96.851792"><time>2026-04-30T05:09:11.867Z</time></trkpt>
      <trkpt lat="29.392337" lon="96.851792"><time>2026-04-30T05:09:11.884Z</time></trkpt>
      <trkpt lat="29.392337" lon="96.851792"><time>2026-04-30T05:09:11.901Z</time></trkpt>
      <trkpt lat="29.392337" lon="96.851792"><time>2026-04-30T05:09:11.917Z</time></trkpt>
      <trkpt lat="29.392337" lon="96.851792"><time>2026-04-30T05:09:11.934Z</time></trkpt>
      <trkpt lat="29.392337" lon="96.851792"><time>2026-04-30T05:09:11.951Z</time></trkpt>
      <trkpt lat="29.392337" lon="96.851792"><time>2026-04-30T05:09:11.968Z</time></trkpt>
      <trkpt lat="29.392337" lon="96.851792"><time>2026-04-30T05:09:11.984Z</time></trkpt>
      <trkpt lat="29.392337" lon="96.851792"><time>2026-04-30T05:09:12.001Z</time></trkpt>
      <trkpt lat="29.392337" lon="96.851792"><time>2026-04-30T05:09:12.018Z</time></trkpt>
      <trkpt lat="29.392337" lon="96.851792"><time>2026-04-30T05:09:12.034Z</time></trkpt>
      <trkpt lat="29.392337" lon="96.851792"><time>2026-04-30T05:09:12.051Z</time></trkpt>
      <trkpt lat="29.392337" lon="96.851792"><time>2026-04-30T05:09:12.068Z</time></trkpt>
      <trkpt lat="29.392337" lon="96.851792"><time>2026-04-30T05:09:12.084Z</time></trkpt>
      <trkpt lat="29.392337" lon="96.851792"><time>2026-04-30T05:09:12.101Z</time></trkpt>
      <trkpt lat="29.392337" lon="96.851792"><time>2026-04-30T05:09:12.118Z</time></trkpt>
      <trkpt lat="29.392337" lon="96.851792"><time>2026-04-30T05:09:12.134Z</time></trkpt>
      <trkpt lat="29.392337" lon="96.851792"><time>2026-04-30T05:09:12.151Z</time></trkpt>
      <trkpt lat="29.392337" lon="96.851792"><time>2026-04-30T05:09:12.168Z</time></trkpt>
      <trkpt lat="29.392337" lon="96.851792"><time>2026-04-30T05:09:12.184Z</time></trkpt>
      <trkpt lat="29.392337" lon="96.851792"><time>2026-04-30T05:09:12.201Z</time></trkpt>
      <trkpt lat="29.392337" lon="96.851792"><time>2026-04-30T05:09:12.218Z</time></trkpt>
      <trkpt lat="29.392337" lon="96.851792"><time>2026-04-30T05:09:12.234Z</time></trkpt>
      <trkpt lat="29.392338" lon="96.851792"><time>2026-04-30T05:09:12.251Z</time></trkpt>
      <trkpt lat="29.392338" lon="96.851792"><time>2026-04-30T05:09:12.268Z</time></trkpt>
      <trkpt lat="29.392338" lon="96.851792"><time>2026-04-30T05:09:12.285Z</time></trkpt>
      <trkpt lat="29.392338" lon="96.851792"><time>2026-04-30T05:09:12.301Z</time></trkpt>
      <trkpt lat="29.392338" lon="96.851792"><time>2026-04-30T05:09:12.318Z</time></trkpt>
      <trkpt lat="29.392338" lon="96.851792"><time>2026-04-30T05:09:12.335Z</time></trkpt>
      <trkpt lat="29.392338" lon="96.851792"><time>2026-04-30T05:09:12.351Z</time></trkpt>
      <trkpt lat="29.392338" lon="96.851792"><time>2026-04-30T05:09:12.368Z</time></trkpt>
      <trkpt lat="29.392338" lon="96.851792"><time>2026-04-30T05:09:12.385Z</time></trkpt>
      <trkpt lat="29.392338" lon="96.851792"><time>2026-04-30T05:09:12.401Z</time></trkpt>
      <trkpt lat="29.392338" lon="96.851792"><time>2026-04-30T05:09:12.418Z</time></trkpt>
      <trkpt lat="29.392338" lon="96.851792"><time>2026-04-30T05:09:12.435Z</time></trkpt>
      <trkpt lat="29.392338" lon="96.851792"><time>2026-04-30T05:09:12.451Z</time></trkpt>
      <trkpt lat="29.392338" lon="96.851792"><time>2026-04-30T05:09:12.468Z</time></trkpt>
      <trkpt lat="29.392338" lon="96.851792"><time>2026-04-30T05:09:12.485Z</time></trkpt>
      <trkpt lat="29.392338" lon="96.851792"><time>2026-04-30T05:09:12.501Z</time></trkpt>
      <trkpt lat="29.392338" lon="96.851792"><time>2026-04-30T05:09:12.518Z</time></trkpt>
      <trkpt lat="29.392338" lon="96.851792"><time>2026-04-30T05:09:12.535Z</time></trkpt>
      <trkpt lat="29.392338" lon="96.851792"><time>2026-04-30T05:09:12.551Z</time></trkpt>
      <trkpt lat="29.392338" lon="96.851792"><time>2026-04-30T05:09:12.568Z</time></trkpt>
      <trkpt lat="29.392338" lon="96.851792"><time>2026-04-30T05:09:12.585Z</time></trkpt>
      <trkpt lat="29.392338" lon="96.851792"><time>2026-04-30T05:09:12.602Z</time></trkpt>
      <trkpt lat="29.392338" lon="96.851792"><time>2026-04-30T05:09:12.618Z</time></trkpt>
      <trkpt lat="29.392338" lon="96.851792"><time>2026-04-30T05:09:12.635Z</time></trkpt>
      <trkpt lat="29.392338" lon="96.851792"><time>2026-04-30T05:09:12.652Z</time></trkpt>
      <trkpt lat="29.392338" lon="96.851792"><time>2026-04-30T05:09:12.668Z</time></trkpt>
      <trkpt lat="29.392338" lon="96.851792"><time>2026-04-30T05:09:12.685Z</time></trkpt>
      <trkpt lat="29.392338" lon="96.851792"><time>2026-04-30T05:09:12.702Z</time></trkpt>
      <trkpt lat="29.392338" lon="96.851792"><time>2026-04-30T05:09:12.718Z</time></trkpt>
      <trkpt lat="29.392338" lon="96.851792"><time>2026-04-30T05:09:12.735Z</time></trkpt>
      <trkpt lat="29.392338" lon="96.851792"><time>2026-04-30T05:09:12.752Z</time></trkpt>
      <trkpt lat="29.392338" lon="96.851792"><time>2026-04-30T05:09:12.768Z</time></trkpt>
      <trkpt lat="29.392338" lon="96.851792"><time>2026-04-30T05:09:12.785Z</time></trkpt>
      <trkpt lat="29.392338" lon="96.851792"><time>2026-04-30T05:09:12.802Z</time></trkpt>
      <trkpt lat="29.392338" lon="96.851792"><time>2026-04-30T05:09:12.818Z</time></trkpt>
      <trkpt lat="29.392338" lon="96.851792"><time>2026-04-30T05:09:12.835Z</time></trkpt>
      <trkpt lat="29.392338" lon="96.851792"><time>2026-04-30T05:09:12.852Z</time></trkpt>
      <trkpt lat="29.392338" lon="96.851792"><time>2026-04-30T05:09:12.868Z</time></trkpt>
      <trkpt lat="29.392338" lon="96.851792"><time>2026-04-30T05:09:12.885Z</time></trkpt>
      <trkpt lat="29.392338" lon="96.851792"><time>2026-04-30T05:09:12.902Z</time></trkpt>
      <trkpt lat="29.392338" lon="96.851792"><time>2026-04-30T05:09:12.919Z</time></trkpt>
      <trkpt lat="29.392338" lon="96.851792"><time>2026-04-30T05:09:12.935Z</time></trkpt>
      <trkpt lat="29.392338" lon="96.851792"><time>2026-04-30T05:09:12.952Z</time></trkpt>
      <trkpt lat="29.392338" lon="96.851792"><time>2026-04-30T05:09:12.969Z</time></trkpt>
      <trkpt lat="29.392338" lon="96.851792"><time>2026-04-30T05:09:12.985Z</time></trkpt>
      <trkpt lat="29.392338" lon="96.851792"><time>2026-04-30T05:09:13.002Z</time></trkpt>
      <trkpt lat="29.392338" lon="96.851792"><time>2026-04-30T05:09:13.019Z</time></trkpt>
      <trkpt lat="29.392338" lon="96.851792"><time>2026-04-30T05:09:13.035Z</time></trkpt>
      <trkpt lat="29.392338" lon="96.851793"><time>2026-04-30T05:09:13.052Z</time></trkpt>
      <trkpt lat="29.392338" lon="96.851793"><time>2026-04-30T05:09:13.069Z</time></trkpt>
      <trkpt lat="29.392338" lon="96.851793"><time>2026-04-30T05:09:13.085Z</time></trkpt>
      <trkpt lat="29.392338" lon="96.851793"><time>2026-04-30T05:09:13.102Z</time></trkpt>
      <trkpt lat="29.392338" lon="96.851793"><time>2026-04-30T05:09:13.119Z</time></trkpt>
      <trkpt lat="29.392338" lon="96.851793"><time>2026-04-30T05:09:13.135Z</time></trkpt>
      <trkpt lat="29.392338" lon="96.851793"><time>2026-04-30T05:09:13.152Z</time></trkpt>
      <trkpt lat="29.392338" lon="96.851793"><time>2026-04-30T05:09:13.169Z</time></trkpt>
      <trkpt lat="29.392338" lon="96.851793"><time>2026-04-30T05:09:13.185Z</time></trkpt>
      <trkpt lat="29.392338" lon="96.851793"><time>2026-04-30T05:09:13.202Z</time></trkpt>
      <trkpt lat="29.392338" lon="96.851793"><time>2026-04-30T05:09:13.219Z</time></trkpt>
      <trkpt lat="29.392338" lon="96.851793"><time>2026-04-30T05:09:13.236Z</time></trkpt>
      <trkpt lat="29.392338" lon="96.851793"><time>2026-04-30T05:09:13.252Z</time></trkpt>
      <trkpt lat="29.392338" lon="96.851793"><time>2026-04-30T05:09:13.269Z</time></trkpt>
      <trkpt lat="29.392338" lon="96.851793"><time>2026-04-30T05:09:13.286Z</time></trkpt>
      <trkpt lat="29.392338" lon="96.851793"><time>2026-04-30T05:09:13.302Z</time></trkpt>
      <trkpt lat="29.392338" lon="96.851793"><time>2026-04-30T05:09:13.319Z</time></trkpt>
      <trkpt lat="29.392338" lon="96.851793"><time>2026-04-30T05:09:13.336Z</time></trkpt>
      <trkpt lat="29.392338" lon="96.851793"><time>2026-04-30T05:09:13.352Z</time></trkpt>
      <trkpt lat="29.392338" lon="96.851793"><time>2026-04-30T05:09:13.369Z</time></trkpt>
      <trkpt lat="29.392338" lon="96.851793"><time>2026-04-30T05:09:13.386Z</time></trkpt>
      <trkpt lat="29.392338" lon="96.851793"><time>2026-04-30T05:09:13.402Z</time></trkpt>
      <trkpt lat="29.392338" lon="96.851793"><time>2026-04-30T05:09:13.419Z</time></trkpt>
      <trkpt lat="29.392338" lon="96.851793"><time>2026-04-30T05:09:13.436Z</time></trkpt>
      <trkpt lat="29.392338" lon="96.851793"><time>2026-04-30T05:09:13.452Z</time></trkpt>
      <trkpt lat="29.392338" lon="96.851793"><time>2026-04-30T05:09:13.469Z</time></trkpt>
      <trkpt lat="29.392338" lon="96.851793"><time>2026-04-30T05:09:13.486Z</time></trkpt>
      <trkpt lat="29.392338" lon="96.851793"><time>2026-04-30T05:09:13.502Z</time></trkpt>
      <trkpt lat="29.392338" lon="96.851793"><time>2026-04-30T05:09:13.519Z</time></trkpt>
      <trkpt lat="29.392338" lon="96.851793"><time>2026-04-30T05:09:13.536Z</time></trkpt>
      <trkpt lat="29.392338" lon="96.851793"><time>2026-04-30T05:09:13.553Z</time></trkpt>
      <trkpt lat="29.392338" lon="96.851793"><time>2026-04-30T05:09:13.569Z</time></trkpt>
      <trkpt lat="29.392338" lon="96.851793"><time>2026-04-30T05:09:13.586Z</time></trkpt>
      <trkpt lat="29.392338" lon="96.851793"><time>2026-04-30T05:09:13.603Z</time></trkpt>
      <trkpt lat="29.392338" lon="96.851793"><time>2026-04-30T05:09:13.619Z</time></trkpt>
      <trkpt lat="29.392338" lon="96.851793"><time>2026-04-30T05:09:13.636Z</time></trkpt>
      <trkpt lat="29.392338" lon="96.851793"><time>2026-04-30T05:09:13.653Z</time></trkpt>
      <trkpt lat="29.392338" lon="96.851793"><time>2026-04-30T05:09:13.669Z</time></trkpt>
      <trkpt lat="29.392338" lon="96.851793"><time>2026-04-30T05:09:13.686Z</time></trkpt>
      <trkpt lat="29.392338" lon="96.851793"><time>2026-04-30T05:09:13.703Z</time></trkpt>
      <trkpt lat="29.392338" lon="96.851793"><time>2026-04-30T05:09:13.719Z</time></trkpt>
      <trkpt lat="29.392338" lon="96.851793"><time>2026-04-30T05:09:13.736Z</time></trkpt>
      <trkpt lat="29.392338" lon="96.851793"><time>2026-04-30T05:09:13.753Z</time></trkpt>
      <trkpt lat="29.392338" lon="96.851793"><time>2026-04-30T05:09:13.769Z</time></trkpt>
      <trkpt lat="29.392338" lon="96.851793"><time>2026-04-30T05:09:13.786Z</time></trkpt>
      <trkpt lat="29.392338" lon="96.851793"><time>2026-04-30T05:09:13.803Z</time></trkpt>
      <trkpt lat="29.392338" lon="96.851793"><time>2026-04-30T05:09:13.819Z</time></trkpt>
      <trkpt lat="29.392338" lon="96.851793"><time>2026-04-30T05:09:13.836Z</time></trkpt>
      <trkpt lat="29.392338" lon="96.851792"><time>2026-04-30T05:09:13.853Z</time></trkpt>
      <trkpt lat="29.392338" lon="96.851792"><time>2026-04-30T05:09:13.870Z</time></trkpt>
      <trkpt lat="29.392338" lon="96.851792"><time>2026-04-30T05:09:13.886Z</time></trkpt>
      <trkpt lat="29.392338" lon="96.851792"><time>2026-04-30T05:09:13.903Z</time></trkpt>
      <trkpt lat="29.392338" lon="96.851792"><time>2026-04-30T05:09:13.920Z</time></trkpt>
      <trkpt lat="29.392338" lon="96.851792"><time>2026-04-30T05:09:13.936Z</time></trkpt>
      <trkpt lat="29.392338" lon="96.851792"><time>2026-04-30T05:09:13.953Z</time></trkpt>
      <trkpt lat="29.392338" lon="96.851792"><time>2026-04-30T05:09:13.970Z</time></trkpt>
      <trkpt lat="29.392338" lon="96.851792"><time>2026-04-30T05:09:13.986Z</time></trkpt>
      <trkpt lat="29.392338" lon="96.851792"><time>2026-04-30T05:09:14.003Z</time></trkpt>
      <trkpt lat="29.392338" lon="96.851792"><time>2026-04-30T05:09:14.020Z</time></trkpt>
      <trkpt lat="29.392338" lon="96.851792"><time>2026-04-30T05:09:14.036Z</time></trkpt>
      <trkpt lat="29.392338" lon="96.851792"><time>2026-04-30T05:09:14.053Z</time></trkpt>
      <trkpt lat="29.392338" lon="96.851792"><time>2026-04-30T05:09:14.070Z</time></trkpt>
      <trkpt lat="29.392338" lon="96.851792"><time>2026-04-30T05:09:14.086Z</time></trkpt>
      <trkpt lat="29.392338" lon="96.851792"><time>2026-04-30T05:09:14.103Z</time></trkpt>
      <trkpt lat="29.392338" lon="96.851792"><time>2026-04-30T05:09:14.120Z</time></trkpt>
      <trkpt lat="29.392338" lon="96.851792"><time>2026-04-30T05:09:14.136Z</time></trkpt>
      <trkpt lat="29.392339" lon="96.851792"><time>2026-04-30T05:09:14.153Z</time></trkpt>
      <trkpt lat="29.392339" lon="96.851792"><time>2026-04-30T05:09:14.170Z</time></trkpt>
      <trkpt lat="29.392339" lon="96.851792"><time>2026-04-30T05:09:14.187Z</time></trkpt>
      <trkpt lat="29.392339" lon="96.851792"><time>2026-04-30T05:09:14.203Z</time></trkpt>
      <trkpt lat="29.392339" lon="96.851792"><time>2026-04-30T05:09:14.220Z</time></trkpt>
      <trkpt lat="29.392339" lon="96.851792"><time>2026-04-30T05:09:14.237Z</time></trkpt>
      <trkpt lat="29.392339" lon="96.851792"><time>2026-04-30T05:09:14.253Z</time></trkpt>
      <trkpt lat="29.392339" lon="96.851792"><time>2026-04-30T05:09:14.270Z</time></trkpt>
      <trkpt lat="29.392339" lon="96.851792"><time>2026-04-30T05:09:14.287Z</time></trkpt>
      <trkpt lat="29.392339" lon="96.851792"><time>2026-04-30T05:09:14.303Z</time></trkpt>
      <trkpt lat="29.392339" lon="96.851792"><time>2026-04-30T05:09:14.320Z</time></trkpt>
      <trkpt lat="29.392339" lon="96.851792"><time>2026-04-30T05:09:14.337Z</time></trkpt>
      <trkpt lat="29.392339" lon="96.851792"><time>2026-04-30T05:09:14.353Z</time></trkpt>
      <trkpt lat="29.392339" lon="96.851792"><time>2026-04-30T05:09:14.370Z</time></trkpt>
      <trkpt lat="29.392339" lon="96.851792"><time>2026-04-30T05:09:14.387Z</time></trkpt>
      <trkpt lat="29.392339" lon="96.851792"><time>2026-04-30T05:09:14.403Z</time></trkpt>
      <trkpt lat="29.392339" lon="96.851792"><time>2026-04-30T05:09:14.420Z</time></trkpt>
      <trkpt lat="29.392339" lon="96.851792"><time>2026-04-30T05:09:14.437Z</time></trkpt>
      <trkpt lat="29.392339" lon="96.851792"><time>2026-04-30T05:09:14.453Z</time></trkpt>
      <trkpt lat="29.392339" lon="96.851792"><time>2026-04-30T05:09:14.470Z</time></trkpt>
      <trkpt lat="29.392339" lon="96.851792"><time>2026-04-30T05:09:14.487Z</time></trkpt>
      <trkpt lat="29.392339" lon="96.851792"><time>2026-04-30T05:09:14.504Z</time></trkpt>
      <trkpt lat="29.392339" lon="96.851792"><time>2026-04-30T05:09:14.520Z</time></trkpt>
      <trkpt lat="29.392339" lon="96.851792"><time>2026-04-30T05:09:14.537Z</time></trkpt>
      <trkpt lat="29.392339" lon="96.851792"><time>2026-04-30T05:09:14.554Z</time></trkpt>
      <trkpt lat="29.392339" lon="96.851792"><time>2026-04-30T05:09:14.570Z</time></trkpt>
      <trkpt lat="29.392339" lon="96.851792"><time>2026-04-30T05:09:14.587Z</time></trkpt>
      <trkpt lat="29.392339" lon="96.851792"><time>2026-04-30T05:09:14.604Z</time></trkpt>
      <trkpt lat="29.392339" lon="96.851792"><time>2026-04-30T05:09:14.620Z</time></trkpt>
      <trkpt lat="29.392339" lon="96.851792"><time>2026-04-30T05:09:14.637Z</time></trkpt>
      <trkpt lat="29.392339" lon="96.851792"><time>2026-04-30T05:09:14.654Z</time></trkpt>
      <trkpt lat="29.392339" lon="96.851792"><time>2026-04-30T05:09:14.670Z</time></trkpt>
      <trkpt lat="29.392339" lon="96.851792"><time>2026-04-30T05:09:14.687Z</time></trkpt>
      <trkpt lat="29.392339" lon="96.851792"><time>2026-04-30T05:09:14.704Z</time></trkpt>
      <trkpt lat="29.392339" lon="96.851792"><time>2026-04-30T05:09:14.720Z</time></trkpt>
      <trkpt lat="29.392339" lon="96.851792"><time>2026-04-30T05:09:14.737Z</time></trkpt>
      <trkpt lat="29.392339" lon="96.851792"><time>2026-04-30T05:09:14.754Z</time></trkpt>
      <trkpt lat="29.392339" lon="96.851792"><time>2026-04-30T05:09:14.770Z</time></trkpt>
      <trkpt lat="29.392339" lon="96.851792"><time>2026-04-30T05:09:14.787Z</time></trkpt>
      <trkpt lat="29.392339" lon="96.851792"><time>2026-04-30T05:09:14.804Z</time></trkpt>
      <trkpt lat="29.392339" lon="96.851792"><time>2026-04-30T05:09:14.821Z</time></trkpt>
      <trkpt lat="29.392339" lon="96.851792"><time>2026-04-30T05:09:14.837Z</time></trkpt>
      <trkpt lat="29.392339" lon="96.851792"><time>2026-04-30T05:09:14.854Z</time></trkpt>
      <trkpt lat="29.392339" lon="96.851792"><time>2026-04-30T05:09:14.871Z</time></trkpt>
      <trkpt lat="29.392339" lon="96.851792"><time>2026-04-30T05:09:14.887Z</time></trkpt>
      <trkpt lat="29.392339" lon="96.851792"><time>2026-04-30T05:09:14.904Z</time></trkpt>
      <trkpt lat="29.392339" lon="96.851792"><time>2026-04-30T05:09:14.921Z</time></trkpt>
      <trkpt lat="29.392339" lon="96.851792"><time>2026-04-30T05:09:14.937Z</time></trkpt>
      <trkpt lat="29.392338" lon="96.851792"><time>2026-04-30T05:09:14.954Z</time></trkpt>
      <trkpt lat="29.392338" lon="96.851792"><time>2026-04-30T05:09:14.971Z</time></trkpt>
      <trkpt lat="29.392338" lon="96.851792"><time>2026-04-30T05:09:14.987Z</time></trkpt>
      <trkpt lat="29.392338" lon="96.851792"><time>2026-04-30T05:09:15.004Z</time></trkpt>
      <trkpt lat="29.392338" lon="96.851792"><time>2026-04-30T05:09:15.021Z</time></trkpt>
      <trkpt lat="29.392338" lon="96.851792"><time>2026-04-30T05:09:15.037Z</time></trkpt>
      <trkpt lat="29.392338" lon="96.851792"><time>2026-04-30T05:09:15.054Z</time></trkpt>
      <trkpt lat="29.392338" lon="96.851792"><time>2026-04-30T05:09:15.071Z</time></trkpt>
      <trkpt lat="29.392338" lon="96.851792"><time>2026-04-30T05:09:15.087Z</time></trkpt>
      <trkpt lat="29.392338" lon="96.851792"><time>2026-04-30T05:09:15.104Z</time></trkpt>
      <trkpt lat="29.392338" lon="96.851792"><time>2026-04-30T05:09:15.121Z</time></trkpt>
      <trkpt lat="29.392338" lon="96.851792"><time>2026-04-30T05:09:15.138Z</time></trkpt>
      <trkpt lat="29.392338" lon="96.851792"><time>2026-04-30T05:09:15.154Z</time></trkpt>
      <trkpt lat="29.392338" lon="96.851792"><time>2026-04-30T05:09:15.171Z</time></trkpt>
      <trkpt lat="29.392338" lon="96.851792"><time>2026-04-30T05:09:15.188Z</time></trkpt>
      <trkpt lat="29.392338" lon="96.851792"><time>2026-04-30T05:09:15.204Z</time></trkpt>
      <trkpt lat="29.392338" lon="96.851792"><time>2026-04-30T05:09:15.221Z</time></trkpt>
      <trkpt lat="29.392338" lon="96.851792"><time>2026-04-30T05:09:15.238Z</time></trkpt>
      <trkpt lat="29.392338" lon="96.851792"><time>2026-04-30T05:09:15.254Z</time></trkpt>
      <trkpt lat="29.392338" lon="96.851792"><time>2026-04-30T05:09:15.271Z</time></trkpt>
      <trkpt lat="29.392338" lon="96.851792"><time>2026-04-30T05:09:15.288Z</time></trkpt>
      <trkpt lat="29.392338" lon="96.851792"><time>2026-04-30T05:09:15.304Z</time></trkpt>
      <trkpt lat="29.392338" lon="96.851792"><time>2026-04-30T05:09:15.321Z</time></trkpt>
      <trkpt lat="29.392338" lon="96.851792"><time>2026-04-30T05:09:15.338Z</time></trkpt>
      <trkpt lat="29.392338" lon="96.851792"><time>2026-04-30T05:09:15.354Z</time></trkpt>
      <trkpt lat="29.392338" lon="96.851792"><time>2026-04-30T05:09:15.371Z</time></trkpt>
      <trkpt lat="29.392338" lon="96.851792"><time>2026-04-30T05:09:15.388Z</time></trkpt>
      <trkpt lat="29.392338" lon="96.851792"><time>2026-04-30T05:09:15.404Z</time></trkpt>
      <trkpt lat="29.392338" lon="96.851792"><time>2026-04-30T05:09:15.421Z</time></trkpt>
      <trkpt lat="29.392338" lon="96.851792"><time>2026-04-30T05:09:15.438Z</time></trkpt>
      <trkpt lat="29.392338" lon="96.851792"><time>2026-04-30T05:09:15.455Z</time></trkpt>
      <trkpt lat="29.392338" lon="96.851792"><time>2026-04-30T05:09:15.471Z</time></trkpt>
      <trkpt lat="29.392338" lon="96.851792"><time>2026-04-30T05:09:15.488Z</time></trkpt>
      <trkpt lat="29.392338" lon="96.851792"><time>2026-04-30T05:09:15.505Z</time></trkpt>
      <trkpt lat="29.392338" lon="96.851792"><time>2026-04-30T05:09:15.521Z</time></trkpt>
      <trkpt lat="29.392338" lon="96.851792"><time>2026-04-30T05:09:15.538Z</time></trkpt>
      <trkpt lat="29.392338" lon="96.851792"><time>2026-04-30T05:09:15.555Z</time></trkpt>
      <trkpt lat="29.392338" lon="96.851792"><time>2026-04-30T05:09:15.571Z</time></trkpt>
      <trkpt lat="29.392338" lon="96.851792"><time>2026-04-30T05:09:15.588Z</time></trkpt>
      <trkpt lat="29.392338" lon="96.851792"><time>2026-04-30T05:09:15.605Z</time></trkpt>
      <trkpt lat="29.392338" lon="96.851792"><time>2026-04-30T05:09:15.621Z</time></trkpt>
      <trkpt lat="29.392338" lon="96.851792"><time>2026-04-30T05:09:15.638Z</time></trkpt>
      <trkpt lat="29.392338" lon="96.851792"><time>2026-04-30T05:09:15.655Z</time></trkpt>
      <trkpt lat="29.392338" lon="96.851792"><time>2026-04-30T05:09:15.671Z</time></trkpt>
      <trkpt lat="29.392338" lon="96.851792"><time>2026-04-30T05:09:15.688Z</time></trkpt>
      <trkpt lat="29.392338" lon="96.851792"><time>2026-04-30T05:09:15.705Z</time></trkpt>
      <trkpt lat="29.392338" lon="96.851792"><time>2026-04-30T05:09:15.721Z</time></trkpt>
      <trkpt lat="29.392338" lon="96.851792"><time>2026-04-30T05:09:15.738Z</time></trkpt>
      <trkpt lat="29.392339" lon="96.851792"><time>2026-04-30T05:09:15.755Z</time></trkpt>
      <trkpt lat="29.392339" lon="96.851792"><time>2026-04-30T05:09:15.772Z</time></trkpt>
      <trkpt lat="29.392339" lon="96.851792"><time>2026-04-30T05:09:15.788Z</time></trkpt>
      <trkpt lat="29.392339" lon="96.851792"><time>2026-04-30T05:09:15.805Z</time></trkpt>
      <trkpt lat="29.392339" lon="96.851792"><time>2026-04-30T05:09:15.822Z</time></trkpt>
      <trkpt lat="29.392339" lon="96.851792"><time>2026-04-30T05:09:15.838Z</time></trkpt>
      <trkpt lat="29.392339" lon="96.851792"><time>2026-04-30T05:09:15.855Z</time></trkpt>
      <trkpt lat="29.392339" lon="96.851792"><time>2026-04-30T05:09:15.872Z</time></trkpt>
      <trkpt lat="29.392339" lon="96.851792"><time>2026-04-30T05:09:15.888Z</time></trkpt>
      <trkpt lat="29.392339" lon="96.851792"><time>2026-04-30T05:09:15.905Z</time></trkpt>
      <trkpt lat="29.392339" lon="96.851792"><time>2026-04-30T05:09:15.922Z</time></trkpt>
      <trkpt lat="29.392339" lon="96.851792"><time>2026-04-30T05:09:15.938Z</time></trkpt>
      <trkpt lat="29.392339" lon="96.851792"><time>2026-04-30T05:09:15.955Z</time></trkpt>
      <trkpt lat="29.392339" lon="96.851792"><time>2026-04-30T05:09:15.972Z</time></trkpt>
      <trkpt lat="29.392339" lon="96.851792"><time>2026-04-30T05:09:15.988Z</time></trkpt>
      <trkpt lat="29.392339" lon="96.851792"><time>2026-04-30T05:09:16.005Z</time></trkpt>
      <trkpt lat="29.392339" lon="96.851792"><time>2026-04-30T05:09:16.022Z</time></trkpt>
      <trkpt lat="29.392339" lon="96.851792"><time>2026-04-30T05:09:16.038Z</time></trkpt>
      <trkpt lat="29.392339" lon="96.851792"><time>2026-04-30T05:09:16.055Z</time></trkpt>
      <trkpt lat="29.392339" lon="96.851792"><time>2026-04-30T05:09:16.072Z</time></trkpt>
      <trkpt lat="29.392339" lon="96.851792"><time>2026-04-30T05:09:16.089Z</time></trkpt>
      <trkpt lat="29.392339" lon="96.851792"><time>2026-04-30T05:09:16.105Z</time></trkpt>
      <trkpt lat="29.392339" lon="96.851792"><time>2026-04-30T05:09:16.122Z</time></trkpt>
      <trkpt lat="29.392339" lon="96.851792"><time>2026-04-30T05:09:16.139Z</time></trkpt>
      <trkpt lat="29.392339" lon="96.851793"><time>2026-04-30T05:09:16.155Z</time></trkpt>
      <trkpt lat="29.392339" lon="96.851793"><time>2026-04-30T05:09:16.172Z</time></trkpt>
      <trkpt lat="29.392339" lon="96.851793"><time>2026-04-30T05:09:16.189Z</time></trkpt>
      <trkpt lat="29.392339" lon="96.851793"><time>2026-04-30T05:09:16.205Z</time></trkpt>
      <trkpt lat="29.392339" lon="96.851793"><time>2026-04-30T05:09:16.222Z</time></trkpt>
      <trkpt lat="29.392339" lon="96.851793"><time>2026-04-30T05:09:16.239Z</time></trkpt>
      <trkpt lat="29.392339" lon="96.851793"><time>2026-04-30T05:09:16.255Z</time></trkpt>
      <trkpt lat="29.392339" lon="96.851793"><time>2026-04-30T05:09:16.272Z</time></trkpt>
      <trkpt lat="29.392339" lon="96.851793"><time>2026-04-30T05:09:16.289Z</time></trkpt>
      <trkpt lat="29.392339" lon="96.851793"><time>2026-04-30T05:09:16.305Z</time></trkpt>
      <trkpt lat="29.392339" lon="96.851793"><time>2026-04-30T05:09:16.322Z</time></trkpt>
      <trkpt lat="29.392339" lon="96.851793"><time>2026-04-30T05:09:16.339Z</time></trkpt>
      <trkpt lat="29.392339" lon="96.851793"><time>2026-04-30T05:09:16.355Z</time></trkpt>
      <trkpt lat="29.392339" lon="96.851793"><time>2026-04-30T05:09:16.372Z</time></trkpt>
      <trkpt lat="29.392339" lon="96.851793"><time>2026-04-30T05:09:16.389Z</time></trkpt>
      <trkpt lat="29.392339" lon="96.851793"><time>2026-04-30T05:09:16.406Z</time></trkpt>
      <trkpt lat="29.392339" lon="96.851793"><time>2026-04-30T05:09:16.422Z</time></trkpt>
      <trkpt lat="29.392339" lon="96.851793"><time>2026-04-30T05:09:16.439Z</time></trkpt>
      <trkpt lat="29.392339" lon="96.851793"><time>2026-04-30T05:09:16.456Z</time></trkpt>
      <trkpt lat="29.392339" lon="96.851793"><time>2026-04-30T05:09:16.472Z</time></trkpt>
      <trkpt lat="29.392339" lon="96.851793"><time>2026-04-30T05:09:16.489Z</time></trkpt>
      <trkpt lat="29.392339" lon="96.851793"><time>2026-04-30T05:09:16.506Z</time></trkpt>
      <trkpt lat="29.392339" lon="96.851793"><time>2026-04-30T05:09:16.522Z</time></trkpt>
      <trkpt lat="29.392339" lon="96.851793"><time>2026-04-30T05:09:16.539Z</time></trkpt>
      <trkpt lat="29.392339" lon="96.851793"><time>2026-04-30T05:09:16.556Z</time></trkpt>
      <trkpt lat="29.392339" lon="96.851793"><time>2026-04-30T05:09:16.572Z</time></trkpt>
      <trkpt lat="29.392339" lon="96.851793"><time>2026-04-30T05:09:16.589Z</time></trkpt>
      <trkpt lat="29.392339" lon="96.851793"><time>2026-04-30T05:09:16.606Z</time></trkpt>
      <trkpt lat="29.392339" lon="96.851793"><time>2026-04-30T05:09:16.622Z</time></trkpt>
      <trkpt lat="29.392339" lon="96.851793"><time>2026-04-30T05:09:16.639Z</time></trkpt>
      <trkpt lat="29.392339" lon="96.851794"><time>2026-04-30T05:09:16.656Z</time></trkpt>
      <trkpt lat="29.392339" lon="96.851794"><time>2026-04-30T05:09:16.672Z</time></trkpt>
      <trkpt lat="29.392339" lon="96.851794"><time>2026-04-30T05:09:16.689Z</time></trkpt>
      <trkpt lat="29.392339" lon="96.851794"><time>2026-04-30T05:09:16.706Z</time></trkpt>
      <trkpt lat="29.392339" lon="96.851794"><time>2026-04-30T05:09:16.723Z</time></trkpt>
      <trkpt lat="29.392339" lon="96.851794"><time>2026-04-30T05:09:16.739Z</time></trkpt>
      <trkpt lat="29.392338" lon="96.851794"><time>2026-04-30T05:09:16.756Z</time></trkpt>
      <trkpt lat="29.392338" lon="96.851794"><time>2026-04-30T05:09:16.773Z</time></trkpt>
      <trkpt lat="29.392338" lon="96.851794"><time>2026-04-30T05:09:16.789Z</time></trkpt>
      <trkpt lat="29.392338" lon="96.851794"><time>2026-04-30T05:09:16.806Z</time></trkpt>
      <trkpt lat="29.392338" lon="96.851794"><time>2026-04-30T05:09:16.823Z</time></trkpt>
      <trkpt lat="29.392338" lon="96.851794"><time>2026-04-30T05:09:16.839Z</time></trkpt>
      <trkpt lat="29.392338" lon="96.851795"><time>2026-04-30T05:09:16.856Z</time></trkpt>
      <trkpt lat="29.392338" lon="96.851795"><time>2026-04-30T05:09:16.873Z</time></trkpt>
      <trkpt lat="29.392338" lon="96.851795"><time>2026-04-30T05:09:16.889Z</time></trkpt>
      <trkpt lat="29.392338" lon="96.851795"><time>2026-04-30T05:09:16.906Z</time></trkpt>
      <trkpt lat="29.392338" lon="96.851795"><time>2026-04-30T05:09:16.923Z</time></trkpt>
      <trkpt lat="29.392338" lon="96.851795"><time>2026-04-30T05:09:16.939Z</time></trkpt>
      <trkpt lat="29.392338" lon="96.851795"><time>2026-04-30T05:09:16.956Z</time></trkpt>
      <trkpt lat="29.392338" lon="96.851795"><time>2026-04-30T05:09:16.973Z</time></trkpt>
      <trkpt lat="29.392338" lon="96.851795"><time>2026-04-30T05:09:16.989Z</time></trkpt>
      <trkpt lat="29.392338" lon="96.851795"><time>2026-04-30T05:09:17.006Z</time></trkpt>
      <trkpt lat="29.392338" lon="96.851795"><time>2026-04-30T05:09:17.023Z</time></trkpt>
      <trkpt lat="29.392338" lon="96.851795"><time>2026-04-30T05:09:17.040Z</time></trkpt>
      <trkpt lat="29.392338" lon="96.851796"><time>2026-04-30T05:09:17.056Z</time></trkpt>
      <trkpt lat="29.392338" lon="96.851796"><time>2026-04-30T05:09:17.073Z</time></trkpt>
      <trkpt lat="29.392338" lon="96.851796"><time>2026-04-30T05:09:17.090Z</time></trkpt>
      <trkpt lat="29.392338" lon="96.851796"><time>2026-04-30T05:09:17.106Z</time></trkpt>
      <trkpt lat="29.392338" lon="96.851796"><time>2026-04-30T05:09:17.123Z</time></trkpt>
      <trkpt lat="29.392338" lon="96.851796"><time>2026-04-30T05:09:17.140Z</time></trkpt>
      <trkpt lat="29.392337" lon="96.851797"><time>2026-04-30T05:09:17.156Z</time></trkpt>
      <trkpt lat="29.392337" lon="96.851797"><time>2026-04-30T05:09:17.173Z</time></trkpt>
      <trkpt lat="29.392337" lon="96.851797"><time>2026-04-30T05:09:17.190Z</time></trkpt>
      <trkpt lat="29.392337" lon="96.851797"><time>2026-04-30T05:09:17.206Z</time></trkpt>
      <trkpt lat="29.392337" lon="96.851797"><time>2026-04-30T05:09:17.223Z</time></trkpt>
      <trkpt lat="29.392337" lon="96.851797"><time>2026-04-30T05:09:17.240Z</time></trkpt>
      <trkpt lat="29.392337" lon="96.851799"><time>2026-04-30T05:09:17.256Z</time></trkpt>
      <trkpt lat="29.392337" lon="96.851799"><time>2026-04-30T05:09:17.273Z</time></trkpt>
      <trkpt lat="29.392337" lon="96.851799"><time>2026-04-30T05:09:17.290Z</time></trkpt>
      <trkpt lat="29.392337" lon="96.851799"><time>2026-04-30T05:09:17.306Z</time></trkpt>
      <trkpt lat="29.392337" lon="96.851799"><time>2026-04-30T05:09:17.323Z</time></trkpt>
      <trkpt lat="29.392337" lon="96.851799"><time>2026-04-30T05:09:17.340Z</time></trkpt>
      <trkpt lat="29.392336" lon="96.8518"><time>2026-04-30T05:09:17.357Z</time></trkpt>
      <trkpt lat="29.392336" lon="96.8518"><time>2026-04-30T05:09:17.373Z</time></trkpt>
      <trkpt lat="29.392336" lon="96.8518"><time>2026-04-30T05:09:17.390Z</time></trkpt>
      <trkpt lat="29.392336" lon="96.8518"><time>2026-04-30T05:09:17.407Z</time></trkpt>
      <trkpt lat="29.392336" lon="96.8518"><time>2026-04-30T05:09:17.423Z</time></trkpt>
      <trkpt lat="29.392336" lon="96.8518"><time>2026-04-30T05:09:17.440Z</time></trkpt>
      <trkpt lat="29.392336" lon="96.851802"><time>2026-04-30T05:09:17.457Z</time></trkpt>
      <trkpt lat="29.392336" lon="96.851802"><time>2026-04-30T05:09:17.473Z</time></trkpt>
      <trkpt lat="29.392336" lon="96.851802"><time>2026-04-30T05:09:17.490Z</time></trkpt>
      <trkpt lat="29.392336" lon="96.851802"><time>2026-04-30T05:09:17.507Z</time></trkpt>
      <trkpt lat="29.392336" lon="96.851802"><time>2026-04-30T05:09:17.523Z</time></trkpt>
      <trkpt lat="29.392336" lon="96.851802"><time>2026-04-30T05:09:17.540Z</time></trkpt>
      <trkpt lat="29.392335" lon="96.851804"><time>2026-04-30T05:09:17.557Z</time></trkpt>
      <trkpt lat="29.392335" lon="96.851804"><time>2026-04-30T05:09:17.573Z</time></trkpt>
      <trkpt lat="29.392335" lon="96.851804"><time>2026-04-30T05:09:17.590Z</time></trkpt>
      <trkpt lat="29.392335" lon="96.851804"><time>2026-04-30T05:09:17.607Z</time></trkpt>
      <trkpt lat="29.392335" lon="96.851804"><time>2026-04-30T05:09:17.623Z</time></trkpt>
      <trkpt lat="29.392335" lon="96.851804"><time>2026-04-30T05:09:17.640Z</time></trkpt>
      <trkpt lat="29.392334" lon="96.851806"><time>2026-04-30T05:09:17.657Z</time></trkpt>
      <trkpt lat="29.392334" lon="96.851806"><time>2026-04-30T05:09:17.674Z</time></trkpt>
      <trkpt lat="29.392334" lon="96.851806"><time>2026-04-30T05:09:17.690Z</time></trkpt>
      <trkpt lat="29.392334" lon="96.851806"><time>2026-04-30T05:09:17.707Z</time></trkpt>
      <trkpt lat="29.392334" lon="96.851806"><time>2026-04-30T05:09:17.724Z</time></trkpt>
      <trkpt lat="29.392334" lon="96.851806"><time>2026-04-30T05:09:17.740Z</time></trkpt>
      <trkpt lat="29.392333" lon="96.851809"><time>2026-04-30T05:09:17.757Z</time></trkpt>
      <trkpt lat="29.392333" lon="96.851809"><time>2026-04-30T05:09:17.774Z</time></trkpt>
      <trkpt lat="29.392333" lon="96.851809"><time>2026-04-30T05:09:17.790Z</time></trkpt>
      <trkpt lat="29.392333" lon="96.851809"><time>2026-04-30T05:09:17.807Z</time></trkpt>
      <trkpt lat="29.392333" lon="96.851809"><time>2026-04-30T05:09:17.824Z</time></trkpt>
      <trkpt lat="29.392333" lon="96.851809"><time>2026-04-30T05:09:17.840Z</time></trkpt>
      <trkpt lat="29.392332" lon="96.851812"><time>2026-04-30T05:09:17.857Z</time></trkpt>
      <trkpt lat="29.392332" lon="96.851812"><time>2026-04-30T05:09:17.874Z</time></trkpt>
      <trkpt lat="29.392332" lon="96.851812"><time>2026-04-30T05:09:17.890Z</time></trkpt>
      <trkpt lat="29.392332" lon="96.851812"><time>2026-04-30T05:09:17.907Z</time></trkpt>
      <trkpt lat="29.392332" lon="96.851812"><time>2026-04-30T05:09:17.924Z</time></trkpt>
      <trkpt lat="29.392332" lon="96.851812"><time>2026-04-30T05:09:17.940Z</time></trkpt>
      <trkpt lat="29.39233" lon="96.851815"><time>2026-04-30T05:09:17.957Z</time></trkpt>
      <trkpt lat="29.39233" lon="96.851815"><time>2026-04-30T05:09:17.974Z</time></trkpt>
      <trkpt lat="29.39233" lon="96.851815"><time>2026-04-30T05:09:17.991Z</time></trkpt>
      <trkpt lat="29.39233" lon="96.851815"><time>2026-04-30T05:09:18.007Z</time></trkpt>
      <trkpt lat="29.39233" lon="96.851815"><time>2026-04-30T05:09:18.024Z</time></trkpt>
      <trkpt lat="29.39233" lon="96.851815"><time>2026-04-30T05:09:18.041Z</time></trkpt>
      <trkpt lat="29.392329" lon="96.851818"><time>2026-04-30T05:09:18.057Z</time></trkpt>
      <trkpt lat="29.392329" lon="96.851818"><time>2026-04-30T05:09:18.074Z</time></trkpt>
      <trkpt lat="29.392329" lon="96.851818"><time>2026-04-30T05:09:18.091Z</time></trkpt>
      <trkpt lat="29.392329" lon="96.851818"><time>2026-04-30T05:09:18.107Z</time></trkpt>
      <trkpt lat="29.392329" lon="96.851818"><time>2026-04-30T05:09:18.124Z</time></trkpt>
      <trkpt lat="29.392329" lon="96.851818"><time>2026-04-30T05:09:18.141Z</time></trkpt>
      <trkpt lat="29.392327" lon="96.851822"><time>2026-04-30T05:09:18.157Z</time></trkpt>
      <trkpt lat="29.392327" lon="96.851822"><time>2026-04-30T05:09:18.174Z</time></trkpt>
      <trkpt lat="29.392327" lon="96.851822"><time>2026-04-30T05:09:18.191Z</time></trkpt>
      <trkpt lat="29.392327" lon="96.851822"><time>2026-04-30T05:09:18.207Z</time></trkpt>
      <trkpt lat="29.392327" lon="96.851822"><time>2026-04-30T05:09:18.224Z</time></trkpt>
      <trkpt lat="29.392327" lon="96.851822"><time>2026-04-30T05:09:18.241Z</time></trkpt>
      <trkpt lat="29.392326" lon="96.851825"><time>2026-04-30T05:09:18.257Z</time></trkpt>
      <trkpt lat="29.392326" lon="96.851825"><time>2026-04-30T05:09:18.274Z</time></trkpt>
      <trkpt lat="29.392326" lon="96.851825"><time>2026-04-30T05:09:18.291Z</time></trkpt>
      <trkpt lat="29.392326" lon="96.851825"><time>2026-04-30T05:09:18.308Z</time></trkpt>
      <trkpt lat="29.392326" lon="96.851825"><time>2026-04-30T05:09:18.324Z</time></trkpt>
      <trkpt lat="29.392326" lon="96.851825"><time>2026-04-30T05:09:18.341Z</time></trkpt>
      <trkpt lat="29.392325" lon="96.85183"><time>2026-04-30T05:09:18.358Z</time></trkpt>
      <trkpt lat="29.392325" lon="96.85183"><time>2026-04-30T05:09:18.374Z</time></trkpt>
      <trkpt lat="29.392325" lon="96.85183"><time>2026-04-30T05:09:18.391Z</time></trkpt>
      <trkpt lat="29.392325" lon="96.85183"><time>2026-04-30T05:09:18.408Z</time></trkpt>
      <trkpt lat="29.392325" lon="96.85183"><time>2026-04-30T05:09:18.424Z</time></trkpt>
      <trkpt lat="29.392325" lon="96.85183"><time>2026-04-30T05:09:18.441Z</time></trkpt>
      <trkpt lat="29.392322" lon="96.851833"><time>2026-04-30T05:09:18.458Z</time></trkpt>
      <trkpt lat="29.392322" lon="96.851833"><time>2026-04-30T05:09:18.474Z</time></trkpt>
      <trkpt lat="29.392322" lon="96.851833"><time>2026-04-30T05:09:18.491Z</time></trkpt>
      <trkpt lat="29.392322" lon="96.851833"><time>2026-04-30T05:09:18.508Z</time></trkpt>
      <trkpt lat="29.392322" lon="96.851833"><time>2026-04-30T05:09:18.524Z</time></trkpt>
      <trkpt lat="29.392322" lon="96.851833"><time>2026-04-30T05:09:18.541Z</time></trkpt>
      <trkpt lat="29.392319" lon="96.851838"><time>2026-04-30T05:09:18.558Z</time></trkpt>
      <trkpt lat="29.392319" lon="96.851838"><time>2026-04-30T05:09:18.574Z</time></trkpt>
      <trkpt lat="29.392319" lon="96.851838"><time>2026-04-30T05:09:18.591Z</time></trkpt>
      <trkpt lat="29.392319" lon="96.851838"><time>2026-04-30T05:09:18.608Z</time></trkpt>
      <trkpt lat="29.392319" lon="96.851838"><time>2026-04-30T05:09:18.624Z</time></trkpt>
      <trkpt lat="29.392319" lon="96.851838"><time>2026-04-30T05:09:18.641Z</time></trkpt>
      <trkpt lat="29.392317" lon="96.851842"><time>2026-04-30T05:09:18.658Z</time></trkpt>
      <trkpt lat="29.392317" lon="96.851842"><time>2026-04-30T05:09:18.675Z</time></trkpt>
      <trkpt lat="29.392317" lon="96.851842"><time>2026-04-30T05:09:18.691Z</time></trkpt>
      <trkpt lat="29.392317" lon="96.851842"><time>2026-04-30T05:09:18.708Z</time></trkpt>
      <trkpt lat="29.392317" lon="96.851842"><time>2026-04-30T05:09:18.725Z</time></trkpt>
      <trkpt lat="29.392317" lon="96.851842"><time>2026-04-30T05:09:18.741Z</time></trkpt>
      <trkpt lat="29.392315" lon="96.851847"><time>2026-04-30T05:09:18.758Z</time></trkpt>
      <trkpt lat="29.392315" lon="96.851847"><time>2026-04-30T05:09:18.775Z</time></trkpt>
      <trkpt lat="29.392315" lon="96.851847"><time>2026-04-30T05:09:18.791Z</time></trkpt>
      <trkpt lat="29.392315" lon="96.851847"><time>2026-04-30T05:09:18.808Z</time></trkpt>
      <trkpt lat="29.392315" lon="96.851847"><time>2026-04-30T05:09:18.825Z</time></trkpt>
      <trkpt lat="29.392315" lon="96.851847"><time>2026-04-30T05:09:18.841Z</time></trkpt>
      <trkpt lat="29.392313" lon="96.851852"><time>2026-04-30T05:09:18.858Z</time></trkpt>
      <trkpt lat="29.392313" lon="96.851852"><time>2026-04-30T05:09:18.875Z</time></trkpt>
      <trkpt lat="29.392313" lon="96.851852"><time>2026-04-30T05:09:18.891Z</time></trkpt>
      <trkpt lat="29.392313" lon="96.851852"><time>2026-04-30T05:09:18.908Z</time></trkpt>
      <trkpt lat="29.392313" lon="96.851852"><time>2026-04-30T05:09:18.925Z</time></trkpt>
      <trkpt lat="29.392313" lon="96.851852"><time>2026-04-30T05:09:18.941Z</time></trkpt>
      <trkpt lat="29.392311" lon="96.851857"><time>2026-04-30T05:09:18.958Z</time></trkpt>
      <trkpt lat="29.392311" lon="96.851857"><time>2026-04-30T05:09:18.975Z</time></trkpt>
      <trkpt lat="29.392311" lon="96.851857"><time>2026-04-30T05:09:18.992Z</time></trkpt>
      <trkpt lat="29.392311" lon="96.851857"><time>2026-04-30T05:09:19.008Z</time></trkpt>
      <trkpt lat="29.392311" lon="96.851857"><time>2026-04-30T05:09:19.025Z</time></trkpt>
      <trkpt lat="29.392311" lon="96.851857"><time>2026-04-30T05:09:19.042Z</time></trkpt>
      <trkpt lat="29.392308" lon="96.851862"><time>2026-04-30T05:09:19.058Z</time></trkpt>
      <trkpt lat="29.392308" lon="96.851862"><time>2026-04-30T05:09:19.075Z</time></trkpt>
      <trkpt lat="29.392308" lon="96.851862"><time>2026-04-30T05:09:19.092Z</time></trkpt>
      <trkpt lat="29.392308" lon="96.851862"><time>2026-04-30T05:09:19.108Z</time></trkpt>
      <trkpt lat="29.392308" lon="96.851862"><time>2026-04-30T05:09:19.125Z</time></trkpt>
      <trkpt lat="29.392308" lon="96.851862"><time>2026-04-30T05:09:19.142Z</time></trkpt>
      <trkpt lat="29.392306" lon="96.851868"><time>2026-04-30T05:09:19.158Z</time></trkpt>
      <trkpt lat="29.392306" lon="96.851868"><time>2026-04-30T05:09:19.175Z</time></trkpt>
      <trkpt lat="29.392306" lon="96.851868"><time>2026-04-30T05:09:19.192Z</time></trkpt>
      <trkpt lat="29.392306" lon="96.851868"><time>2026-04-30T05:09:19.208Z</time></trkpt>
      <trkpt lat="29.392306" lon="96.851868"><time>2026-04-30T05:09:19.225Z</time></trkpt>
      <trkpt lat="29.392306" lon="96.851868"><time>2026-04-30T05:09:19.242Z</time></trkpt>
      <trkpt lat="29.392304" lon="96.851873"><time>2026-04-30T05:09:19.258Z</time></trkpt>
      <trkpt lat="29.392304" lon="96.851873"><time>2026-04-30T05:09:19.275Z</time></trkpt>
      <trkpt lat="29.392304" lon="96.851873"><time>2026-04-30T05:09:19.292Z</time></trkpt>
      <trkpt lat="29.392304" lon="96.851873"><time>2026-04-30T05:09:19.309Z</time></trkpt>
      <trkpt lat="29.392304" lon="96.851873"><time>2026-04-30T05:09:19.325Z</time></trkpt>
      <trkpt lat="29.392304" lon="96.851873"><time>2026-04-30T05:09:19.342Z</time></trkpt>
      <trkpt lat="29.392301" lon="96.851879"><time>2026-04-30T05:09:19.359Z</time></trkpt>
      <trkpt lat="29.392301" lon="96.851879"><time>2026-04-30T05:09:19.375Z</time></trkpt>
      <trkpt lat="29.392301" lon="96.851879"><time>2026-04-30T05:09:19.392Z</time></trkpt>
      <trkpt lat="29.392301" lon="96.851879"><time>2026-04-30T05:09:19.409Z</time></trkpt>
      <trkpt lat="29.392301" lon="96.851879"><time>2026-04-30T05:09:19.425Z</time></trkpt>
      <trkpt lat="29.392301" lon="96.851879"><time>2026-04-30T05:09:19.442Z</time></trkpt>
      <trkpt lat="29.392298" lon="96.851884"><time>2026-04-30T05:09:19.459Z</time></trkpt>
      <trkpt lat="29.392298" lon="96.851884"><time>2026-04-30T05:09:19.475Z</time></trkpt>
      <trkpt lat="29.392298" lon="96.851884"><time>2026-04-30T05:09:19.492Z</time></trkpt>
      <trkpt lat="29.392298" lon="96.851884"><time>2026-04-30T05:09:19.509Z</time></trkpt>
      <trkpt lat="29.392298" lon="96.851884"><time>2026-04-30T05:09:19.525Z</time></trkpt>
      <trkpt lat="29.392298" lon="96.851884"><time>2026-04-30T05:09:19.542Z</time></trkpt>
      <trkpt lat="29.392296" lon="96.85189"><time>2026-04-30T05:09:19.559Z</time></trkpt>
      <trkpt lat="29.392296" lon="96.85189"><time>2026-04-30T05:09:19.575Z</time></trkpt>
      <trkpt lat="29.392296" lon="96.85189"><time>2026-04-30T05:09:19.592Z</time></trkpt>
      <trkpt lat="29.392296" lon="96.85189"><time>2026-04-30T05:09:19.609Z</time></trkpt>
      <trkpt lat="29.392296" lon="96.85189"><time>2026-04-30T05:09:19.626Z</time></trkpt>
      <trkpt lat="29.392296" lon="96.85189"><time>2026-04-30T05:09:19.642Z</time></trkpt>
      <trkpt lat="29.392293" lon="96.851896"><time>2026-04-30T05:09:19.659Z</time></trkpt>
      <trkpt lat="29.392293" lon="96.851896"><time>2026-04-30T05:09:19.676Z</time></trkpt>
      <trkpt lat="29.392293" lon="96.851896"><time>2026-04-30T05:09:19.692Z</time></trkpt>
      <trkpt lat="29.392293" lon="96.851896"><time>2026-04-30T05:09:19.709Z</time></trkpt>
      <trkpt lat="29.392293" lon="96.851896"><time>2026-04-30T05:09:19.726Z</time></trkpt>
      <trkpt lat="29.392293" lon="96.851896"><time>2026-04-30T05:09:19.742Z</time></trkpt>
      <trkpt lat="29.392291" lon="96.851902"><time>2026-04-30T05:09:19.759Z</time></trkpt>
      <trkpt lat="29.392291" lon="96.851902"><time>2026-04-30T05:09:19.776Z</time></trkpt>
      <trkpt lat="29.392291" lon="96.851902"><time>2026-04-30T05:09:19.792Z</time></trkpt>
      <trkpt lat="29.392291" lon="96.851902"><time>2026-04-30T05:09:19.809Z</time></trkpt>
      <trkpt lat="29.392291" lon="96.851902"><time>2026-04-30T05:09:19.826Z</time></trkpt>
      <trkpt lat="29.392291" lon="96.851902"><time>2026-04-30T05:09:19.842Z</time></trkpt>
      <trkpt lat="29.392288" lon="96.851908"><time>2026-04-30T05:09:19.859Z</time></trkpt>
      <trkpt lat="29.392288" lon="96.851908"><time>2026-04-30T05:09:19.876Z</time></trkpt>
      <trkpt lat="29.392288" lon="96.851908"><time>2026-04-30T05:09:19.892Z</time></trkpt>
      <trkpt lat="29.392288" lon="96.851908"><time>2026-04-30T05:09:19.909Z</time></trkpt>
      <trkpt lat="29.392288" lon="96.851908"><time>2026-04-30T05:09:19.926Z</time></trkpt>
      <trkpt lat="29.392288" lon="96.851908"><time>2026-04-30T05:09:19.943Z</time></trkpt>
      <trkpt lat="29.392285" lon="96.851914"><time>2026-04-30T05:09:19.959Z</time></trkpt>
      <trkpt lat="29.392285" lon="96.851914"><time>2026-04-30T05:09:19.976Z</time></trkpt>
      <trkpt lat="29.392285" lon="96.851914"><time>2026-04-30T05:09:19.993Z</time></trkpt>
      <trkpt lat="29.392285" lon="96.851914"><time>2026-04-30T05:09:20.009Z</time></trkpt>
      <trkpt lat="29.392285" lon="96.851914"><time>2026-04-30T05:09:20.026Z</time></trkpt>
      <trkpt lat="29.392285" lon="96.851914"><time>2026-04-30T05:09:20.043Z</time></trkpt>
      <trkpt lat="29.392282" lon="96.851921"><time>2026-04-30T05:09:20.059Z</time></trkpt>
      <trkpt lat="29.392282" lon="96.851921"><time>2026-04-30T05:09:20.076Z</time></trkpt>
      <trkpt lat="29.392282" lon="96.851921"><time>2026-04-30T05:09:20.093Z</time></trkpt>
      <trkpt lat="29.392282" lon="96.851921"><time>2026-04-30T05:09:20.109Z</time></trkpt>
      <trkpt lat="29.392282" lon="96.851921"><time>2026-04-30T05:09:20.126Z</time></trkpt>
      <trkpt lat="29.392282" lon="96.851921"><time>2026-04-30T05:09:20.143Z</time></trkpt>
      <trkpt lat="29.392279" lon="96.851927"><time>2026-04-30T05:09:20.159Z</time></trkpt>
      <trkpt lat="29.392279" lon="96.851927"><time>2026-04-30T05:09:20.176Z</time></trkpt>
      <trkpt lat="29.392279" lon="96.851927"><time>2026-04-30T05:09:20.193Z</time></trkpt>
      <trkpt lat="29.392279" lon="96.851927"><time>2026-04-30T05:09:20.209Z</time></trkpt>
      <trkpt lat="29.392279" lon="96.851927"><time>2026-04-30T05:09:20.226Z</time></trkpt>
      <trkpt lat="29.392279" lon="96.851927"><time>2026-04-30T05:09:20.243Z</time></trkpt>
      <trkpt lat="29.392277" lon="96.851933"><time>2026-04-30T05:09:20.260Z</time></trkpt>
      <trkpt lat="29.392277" lon="96.851933"><time>2026-04-30T05:09:20.276Z</time></trkpt>
      <trkpt lat="29.392277" lon="96.851933"><time>2026-04-30T05:09:20.293Z</time></trkpt>
      <trkpt lat="29.392277" lon="96.851933"><time>2026-04-30T05:09:20.310Z</time></trkpt>
      <trkpt lat="29.392277" lon="96.851933"><time>2026-04-30T05:09:20.326Z</time></trkpt>
      <trkpt lat="29.392277" lon="96.851933"><time>2026-04-30T05:09:20.343Z</time></trkpt>
      <trkpt lat="29.392274" lon="96.85194"><time>2026-04-30T05:09:20.360Z</time></trkpt>
      <trkpt lat="29.392274" lon="96.85194"><time>2026-04-30T05:09:20.376Z</time></trkpt>
      <trkpt lat="29.392274" lon="96.85194"><time>2026-04-30T05:09:20.393Z</time></trkpt>
      <trkpt lat="29.392274" lon="96.85194"><time>2026-04-30T05:09:20.410Z</time></trkpt>
      <trkpt lat="29.392274" lon="96.85194"><time>2026-04-30T05:09:20.426Z</time></trkpt>
      <trkpt lat="29.392274" lon="96.85194"><time>2026-04-30T05:09:20.443Z</time></trkpt>
      <trkpt lat="29.392271" lon="96.851946"><time>2026-04-30T05:09:20.460Z</time></trkpt>
      <trkpt lat="29.392271" lon="96.851946"><time>2026-04-30T05:09:20.476Z</time></trkpt>
      <trkpt lat="29.392271" lon="96.851946"><time>2026-04-30T05:09:20.493Z</time></trkpt>
      <trkpt lat="29.392271" lon="96.851946"><time>2026-04-30T05:09:20.510Z</time></trkpt>
      <trkpt lat="29.392271" lon="96.851946"><time>2026-04-30T05:09:20.526Z</time></trkpt>
      <trkpt lat="29.392271" lon="96.851946"><time>2026-04-30T05:09:20.543Z</time></trkpt>
      <trkpt lat="29.392268" lon="96.851952"><time>2026-04-30T05:09:20.560Z</time></trkpt>
      <trkpt lat="29.392268" lon="96.851952"><time>2026-04-30T05:09:20.577Z</time></trkpt>
      <trkpt lat="29.392268" lon="96.851952"><time>2026-04-30T05:09:20.593Z</time></trkpt>
      <trkpt lat="29.392268" lon="96.851952"><time>2026-04-30T05:09:20.610Z</time></trkpt>
      <trkpt lat="29.392268" lon="96.851952"><time>2026-04-30T05:09:20.627Z</time></trkpt>
      <trkpt lat="29.392268" lon="96.851952"><time>2026-04-30T05:09:20.643Z</time></trkpt>
      <trkpt lat="29.392265" lon="96.851959"><time>2026-04-30T05:09:20.660Z</time></trkpt>
      <trkpt lat="29.392265" lon="96.851959"><time>2026-04-30T05:09:20.677Z</time></trkpt>
      <trkpt lat="29.392265" lon="96.851959"><time>2026-04-30T05:09:20.693Z</time></trkpt>
      <trkpt lat="29.392265" lon="96.851959"><time>2026-04-30T05:09:20.710Z</time></trkpt>
      <trkpt lat="29.392265" lon="96.851959"><time>2026-04-30T05:09:20.727Z</time></trkpt>
      <trkpt lat="29.392262" lon="96.851966"><time>2026-04-30T05:09:20.743Z</time></trkpt>
      <trkpt lat="29.392262" lon="96.851966"><time>2026-04-30T05:09:20.760Z</time></trkpt>
      <trkpt lat="29.392262" lon="96.851966"><time>2026-04-30T05:09:20.777Z</time></trkpt>
      <trkpt lat="29.392262" lon="96.851966"><time>2026-04-30T05:09:20.793Z</time></trkpt>
      <trkpt lat="29.392262" lon="96.851966"><time>2026-04-30T05:09:20.810Z</time></trkpt>
      <trkpt lat="29.392262" lon="96.851966"><time>2026-04-30T05:09:20.827Z</time></trkpt>
      <trkpt lat="29.392262" lon="96.851966"><time>2026-04-30T05:09:20.843Z</time></trkpt>
      <trkpt lat="29.392259" lon="96.851972"><time>2026-04-30T05:09:20.860Z</time></trkpt>
      <trkpt lat="29.392259" lon="96.851972"><time>2026-04-30T05:09:20.877Z</time></trkpt>
      <trkpt lat="29.392259" lon="96.851972"><time>2026-04-30T05:09:20.894Z</time></trkpt>
      <trkpt lat="29.392259" lon="96.851972"><time>2026-04-30T05:09:20.910Z</time></trkpt>
      <trkpt lat="29.392259" lon="96.851972"><time>2026-04-30T05:09:20.927Z</time></trkpt>
      <trkpt lat="29.392256" lon="96.851979"><time>2026-04-30T05:09:20.944Z</time></trkpt>
      <trkpt lat="29.392256" lon="96.851979"><time>2026-04-30T05:09:20.960Z</time></trkpt>
      <trkpt lat="29.392256" lon="96.851979"><time>2026-04-30T05:09:20.977Z</time></trkpt>
      <trkpt lat="29.392256" lon="96.851979"><time>2026-04-30T05:09:20.994Z</time></trkpt>
      <trkpt lat="29.392256" lon="96.851979"><time>2026-04-30T05:09:21.010Z</time></trkpt>
      <trkpt lat="29.392256" lon="96.851979"><time>2026-04-30T05:09:21.027Z</time></trkpt>
      <trkpt lat="29.392256" lon="96.851979"><time>2026-04-30T05:09:21.044Z</time></trkpt>
      <trkpt lat="29.392253" lon="96.851986"><time>2026-04-30T05:09:21.060Z</time></trkpt>
      <trkpt lat="29.392253" lon="96.851986"><time>2026-04-30T05:09:21.077Z</time></trkpt>
      <trkpt lat="29.392253" lon="96.851986"><time>2026-04-30T05:09:21.094Z</time></trkpt>
      <trkpt lat="29.392253" lon="96.851986"><time>2026-04-30T05:09:21.110Z</time></trkpt>
      <trkpt lat="29.392253" lon="96.851986"><time>2026-04-30T05:09:21.127Z</time></trkpt>
      <trkpt lat="29.39225" lon="96.851993"><time>2026-04-30T05:09:21.144Z</time></trkpt>
      <trkpt lat="29.39225" lon="96.851993"><time>2026-04-30T05:09:21.160Z</time></trkpt>
      <trkpt lat="29.39225" lon="96.851993"><time>2026-04-30T05:09:21.177Z</time></trkpt>
      <trkpt lat="29.39225" lon="96.851993"><time>2026-04-30T05:09:21.194Z</time></trkpt>
      <trkpt lat="29.39225" lon="96.851993"><time>2026-04-30T05:09:21.211Z</time></trkpt>
      <trkpt lat="29.39225" lon="96.851993"><time>2026-04-30T05:09:21.227Z</time></trkpt>
      <trkpt lat="29.39225" lon="96.851993"><time>2026-04-30T05:09:21.244Z</time></trkpt>
      <trkpt lat="29.392247" lon="96.852"><time>2026-04-30T05:09:21.261Z</time></trkpt>
      <trkpt lat="29.392247" lon="96.852"><time>2026-04-30T05:09:21.277Z</time></trkpt>
      <trkpt lat="29.392247" lon="96.852"><time>2026-04-30T05:09:21.294Z</time></trkpt>
      <trkpt lat="29.392247" lon="96.852"><time>2026-04-30T05:09:21.311Z</time></trkpt>
      <trkpt lat="29.392247" lon="96.852"><time>2026-04-30T05:09:21.327Z</time></trkpt>
      <trkpt lat="29.392244" lon="96.852007"><time>2026-04-30T05:09:21.344Z</time></trkpt>
      <trkpt lat="29.392244" lon="96.852007"><time>2026-04-30T05:09:21.361Z</time></trkpt>
      <trkpt lat="29.392244" lon="96.852007"><time>2026-04-30T05:09:21.377Z</time></trkpt>
      <trkpt lat="29.392244" lon="96.852007"><time>2026-04-30T05:09:21.394Z</time></trkpt>
      <trkpt lat="29.392244" lon="96.852007"><time>2026-04-30T05:09:21.411Z</time></trkpt>
      <trkpt lat="29.392244" lon="96.852007"><time>2026-04-30T05:09:21.427Z</time></trkpt>
      <trkpt lat="29.392244" lon="96.852007"><time>2026-04-30T05:09:21.444Z</time></trkpt>
      <trkpt lat="29.392241" lon="96.852014"><time>2026-04-30T05:09:21.461Z</time></trkpt>
      <trkpt lat="29.392241" lon="96.852014"><time>2026-04-30T05:09:21.477Z</time></trkpt>
      <trkpt lat="29.392241" lon="96.852014"><time>2026-04-30T05:09:21.494Z</time></trkpt>
      <trkpt lat="29.392241" lon="96.852014"><time>2026-04-30T05:09:21.511Z</time></trkpt>
      <trkpt lat="29.392241" lon="96.852014"><time>2026-04-30T05:09:21.528Z</time></trkpt>
      <trkpt lat="29.392238" lon="96.852021"><time>2026-04-30T05:09:21.544Z</time></trkpt>
      <trkpt lat="29.392238" lon="96.852021"><time>2026-04-30T05:09:21.561Z</time></trkpt>
      <trkpt lat="29.392238" lon="96.852021"><time>2026-04-30T05:09:21.578Z</time></trkpt>
      <trkpt lat="29.392238" lon="96.852021"><time>2026-04-30T05:09:21.594Z</time></trkpt>
      <trkpt lat="29.392238" lon="96.852021"><time>2026-04-30T05:09:21.611Z</time></trkpt>
      <trkpt lat="29.392238" lon="96.852021"><time>2026-04-30T05:09:21.628Z</time></trkpt>
      <trkpt lat="29.392235" lon="96.852028"><time>2026-04-30T05:09:21.644Z</time></trkpt>
      <trkpt lat="29.392235" lon="96.852028"><time>2026-04-30T05:09:21.661Z</time></trkpt>
      <trkpt lat="29.392235" lon="96.852028"><time>2026-04-30T05:09:21.678Z</time></trkpt>
      <trkpt lat="29.392235" lon="96.852028"><time>2026-04-30T05:09:21.694Z</time></trkpt>
      <trkpt lat="29.392235" lon="96.852028"><time>2026-04-30T05:09:21.711Z</time></trkpt>
      <trkpt lat="29.392235" lon="96.852028"><time>2026-04-30T05:09:21.728Z</time></trkpt>
      <trkpt lat="29.392232" lon="96.852034"><time>2026-04-30T05:09:21.744Z</time></trkpt>
      <trkpt lat="29.392232" lon="96.852034"><time>2026-04-30T05:09:21.761Z</time></trkpt>
      <trkpt lat="29.392232" lon="96.852034"><time>2026-04-30T05:09:21.778Z</time></trkpt>
      <trkpt lat="29.392232" lon="96.852034"><time>2026-04-30T05:09:21.794Z</time></trkpt>
      <trkpt lat="29.392232" lon="96.852034"><time>2026-04-30T05:09:21.811Z</time></trkpt>
      <trkpt lat="29.392232" lon="96.852034"><time>2026-04-30T05:09:21.828Z</time></trkpt>
      <trkpt lat="29.392229" lon="96.852042"><time>2026-04-30T05:09:21.845Z</time></trkpt>
      <trkpt lat="29.392229" lon="96.852042"><time>2026-04-30T05:09:21.861Z</time></trkpt>
      <trkpt lat="29.392229" lon="96.852042"><time>2026-04-30T05:09:21.878Z</time></trkpt>
      <trkpt lat="29.392229" lon="96.852042"><time>2026-04-30T05:09:21.895Z</time></trkpt>
      <trkpt lat="29.392229" lon="96.852042"><time>2026-04-30T05:09:21.911Z</time></trkpt>
      <trkpt lat="29.392229" lon="96.852042"><time>2026-04-30T05:09:21.928Z</time></trkpt>
      <trkpt lat="29.392225" lon="96.852049"><time>2026-04-30T05:09:21.945Z</time></trkpt>
      <trkpt lat="29.392225" lon="96.852049"><time>2026-04-30T05:09:21.961Z</time></trkpt>
      <trkpt lat="29.392225" lon="96.852049"><time>2026-04-30T05:09:21.978Z</time></trkpt>
      <trkpt lat="29.392225" lon="96.852049"><time>2026-04-30T05:09:21.995Z</time></trkpt>
      <trkpt lat="29.392225" lon="96.852049"><time>2026-04-30T05:09:22.011Z</time></trkpt>
      <trkpt lat="29.392225" lon="96.852049"><time>2026-04-30T05:09:22.028Z</time></trkpt>
      <trkpt lat="29.392222" lon="96.852056"><time>2026-04-30T05:09:22.045Z</time></trkpt>
      <trkpt lat="29.392222" lon="96.852056"><time>2026-04-30T05:09:22.061Z</time></trkpt>
      <trkpt lat="29.392222" lon="96.852056"><time>2026-04-30T05:09:22.078Z</time></trkpt>
      <trkpt lat="29.392222" lon="96.852056"><time>2026-04-30T05:09:22.095Z</time></trkpt>
      <trkpt lat="29.392222" lon="96.852056"><time>2026-04-30T05:09:22.111Z</time></trkpt>
      <trkpt lat="29.392222" lon="96.852056"><time>2026-04-30T05:09:22.128Z</time></trkpt>
      <trkpt lat="29.392219" lon="96.852063"><time>2026-04-30T05:09:22.145Z</time></trkpt>
      <trkpt lat="29.392219" lon="96.852063"><time>2026-04-30T05:09:22.162Z</time></trkpt>
      <trkpt lat="29.392219" lon="96.852063"><time>2026-04-30T05:09:22.178Z</time></trkpt>
      <trkpt lat="29.392219" lon="96.852063"><time>2026-04-30T05:09:22.195Z</time></trkpt>
      <trkpt lat="29.392219" lon="96.852063"><time>2026-04-30T05:09:22.212Z</time></trkpt>
      <trkpt lat="29.392219" lon="96.852063"><time>2026-04-30T05:09:22.228Z</time></trkpt>
      <trkpt lat="29.392216" lon="96.85207"><time>2026-04-30T05:09:22.245Z</time></trkpt>
      <trkpt lat="29.392216" lon="96.85207"><time>2026-04-30T05:09:22.262Z</time></trkpt>
      <trkpt lat="29.392216" lon="96.85207"><time>2026-04-30T05:09:22.278Z</time></trkpt>
      <trkpt lat="29.392216" lon="96.85207"><time>2026-04-30T05:09:22.295Z</time></trkpt>
      <trkpt lat="29.392216" lon="96.85207"><time>2026-04-30T05:09:22.312Z</time></trkpt>
      <trkpt lat="29.392216" lon="96.85207"><time>2026-04-30T05:09:22.328Z</time></trkpt>
      <trkpt lat="29.392212" lon="96.852077"><time>2026-04-30T05:09:22.345Z</time></trkpt>
      <trkpt lat="29.392212" lon="96.852077"><time>2026-04-30T05:09:22.362Z</time></trkpt>
      <trkpt lat="29.392212" lon="96.852077"><time>2026-04-30T05:09:22.378Z</time></trkpt>
      <trkpt lat="29.392212" lon="96.852077"><time>2026-04-30T05:09:22.395Z</time></trkpt>
      <trkpt lat="29.392212" lon="96.852077"><time>2026-04-30T05:09:22.412Z</time></trkpt>
      <trkpt lat="29.392212" lon="96.852077"><time>2026-04-30T05:09:22.428Z</time></trkpt>
      <trkpt lat="29.392209" lon="96.852085"><time>2026-04-30T05:09:22.445Z</time></trkpt>
      <trkpt lat="29.392209" lon="96.852085"><time>2026-04-30T05:09:22.462Z</time></trkpt>
      <trkpt lat="29.392209" lon="96.852085"><time>2026-04-30T05:09:22.479Z</time></trkpt>
      <trkpt lat="29.392209" lon="96.852085"><time>2026-04-30T05:09:22.495Z</time></trkpt>
      <trkpt lat="29.392209" lon="96.852085"><time>2026-04-30T05:09:22.512Z</time></trkpt>
      <trkpt lat="29.392209" lon="96.852085"><time>2026-04-30T05:09:22.529Z</time></trkpt>
      <trkpt lat="29.392206" lon="96.852092"><time>2026-04-30T05:09:22.545Z</time></trkpt>
      <trkpt lat="29.392206" lon="96.852092"><time>2026-04-30T05:09:22.562Z</time></trkpt>
      <trkpt lat="29.392206" lon="96.852092"><time>2026-04-30T05:09:22.579Z</time></trkpt>
      <trkpt lat="29.392206" lon="96.852092"><time>2026-04-30T05:09:22.595Z</time></trkpt>
      <trkpt lat="29.392206" lon="96.852092"><time>2026-04-30T05:09:22.612Z</time></trkpt>
      <trkpt lat="29.392206" lon="96.852092"><time>2026-04-30T05:09:22.629Z</time></trkpt>
      <trkpt lat="29.392203" lon="96.852099"><time>2026-04-30T05:09:22.645Z</time></trkpt>
      <trkpt lat="29.392203" lon="96.852099"><time>2026-04-30T05:09:22.662Z</time></trkpt>
      <trkpt lat="29.392203" lon="96.852099"><time>2026-04-30T05:09:22.679Z</time></trkpt>
      <trkpt lat="29.392203" lon="96.852099"><time>2026-04-30T05:09:22.695Z</time></trkpt>
      <trkpt lat="29.392203" lon="96.852099"><time>2026-04-30T05:09:22.712Z</time></trkpt>
      <trkpt lat="29.392203" lon="96.852099"><time>2026-04-30T05:09:22.729Z</time></trkpt>
      <trkpt lat="29.392199" lon="96.852107"><time>2026-04-30T05:09:22.745Z</time></trkpt>
      <trkpt lat="29.392199" lon="96.852107"><time>2026-04-30T05:09:22.762Z</time></trkpt>
      <trkpt lat="29.392199" lon="96.852107"><time>2026-04-30T05:09:22.779Z</time></trkpt>
      <trkpt lat="29.392199" lon="96.852107"><time>2026-04-30T05:09:22.796Z</time></trkpt>
      <trkpt lat="29.392199" lon="96.852107"><time>2026-04-30T05:09:22.812Z</time></trkpt>
      <trkpt lat="29.392199" lon="96.852107"><time>2026-04-30T05:09:22.829Z</time></trkpt>
      <trkpt lat="29.392196" lon="96.852114"><time>2026-04-30T05:09:22.846Z</time></trkpt>
      <trkpt lat="29.392196" lon="96.852114"><time>2026-04-30T05:09:22.862Z</time></trkpt>
      <trkpt lat="29.392196" lon="96.852114"><time>2026-04-30T05:09:22.879Z</time></trkpt>
      <trkpt lat="29.392196" lon="96.852114"><time>2026-04-30T05:09:22.896Z</time></trkpt>
      <trkpt lat="29.392196" lon="96.852114"><time>2026-04-30T05:09:22.912Z</time></trkpt>
      <trkpt lat="29.392196" lon="96.852114"><time>2026-04-30T05:09:22.929Z</time></trkpt>
      <trkpt lat="29.392193" lon="96.852121"><time>2026-04-30T05:09:22.946Z</time></trkpt>
      <trkpt lat="29.392193" lon="96.852121"><time>2026-04-30T05:09:22.962Z</time></trkpt>
      <trkpt lat="29.392193" lon="96.852121"><time>2026-04-30T05:09:22.979Z</time></trkpt>
      <trkpt lat="29.392193" lon="96.852121"><time>2026-04-30T05:09:22.996Z</time></trkpt>
      <trkpt lat="29.392193" lon="96.852121"><time>2026-04-30T05:09:23.012Z</time></trkpt>
      <trkpt lat="29.392193" lon="96.852121"><time>2026-04-30T05:09:23.029Z</time></trkpt>
      <trkpt lat="29.39219" lon="96.852129"><time>2026-04-30T05:09:23.046Z</time></trkpt>
      <trkpt lat="29.39219" lon="96.852129"><time>2026-04-30T05:09:23.062Z</time></trkpt>
      <trkpt lat="29.39219" lon="96.852129"><time>2026-04-30T05:09:23.079Z</time></trkpt>
      <trkpt lat="29.39219" lon="96.852129"><time>2026-04-30T05:09:23.096Z</time></trkpt>
      <trkpt lat="29.39219" lon="96.852129"><time>2026-04-30T05:09:23.113Z</time></trkpt>
      <trkpt lat="29.39219" lon="96.852129"><time>2026-04-30T05:09:23.129Z</time></trkpt>
      <trkpt lat="29.392187" lon="96.852136"><time>2026-04-30T05:09:23.146Z</time></trkpt>
      <trkpt lat="29.392187" lon="96.852136"><time>2026-04-30T05:09:23.163Z</time></trkpt>
      <trkpt lat="29.392187" lon="96.852136"><time>2026-04-30T05:09:23.179Z</time></trkpt>
      <trkpt lat="29.392187" lon="96.852136"><time>2026-04-30T05:09:23.196Z</time></trkpt>
      <trkpt lat="29.392187" lon="96.852136"><time>2026-04-30T05:09:23.213Z</time></trkpt>
      <trkpt lat="29.392187" lon="96.852136"><time>2026-04-30T05:09:23.229Z</time></trkpt>
      <trkpt lat="29.392183" lon="96.852144"><time>2026-04-30T05:09:23.246Z</time></trkpt>
      <trkpt lat="29.392183" lon="96.852144"><time>2026-04-30T05:09:23.263Z</time></trkpt>
      <trkpt lat="29.392183" lon="96.852144"><time>2026-04-30T05:09:23.279Z</time></trkpt>
      <trkpt lat="29.392183" lon="96.852144"><time>2026-04-30T05:09:23.296Z</time></trkpt>
      <trkpt lat="29.392183" lon="96.852144"><time>2026-04-30T05:09:23.313Z</time></trkpt>
      <trkpt lat="29.392183" lon="96.852144"><time>2026-04-30T05:09:23.329Z</time></trkpt>
      <trkpt lat="29.39218" lon="96.852151"><time>2026-04-30T05:09:23.346Z</time></trkpt>
      <trkpt lat="29.39218" lon="96.852151"><time>2026-04-30T05:09:23.363Z</time></trkpt>
      <trkpt lat="29.39218" lon="96.852151"><time>2026-04-30T05:09:23.379Z</time></trkpt>
      <trkpt lat="29.39218" lon="96.852151"><time>2026-04-30T05:09:23.396Z</time></trkpt>
      <trkpt lat="29.39218" lon="96.852151"><time>2026-04-30T05:09:23.413Z</time></trkpt>
      <trkpt lat="29.39218" lon="96.852151"><time>2026-04-30T05:09:23.430Z</time></trkpt>
      <trkpt lat="29.392177" lon="96.852159"><time>2026-04-30T05:09:23.446Z</time></trkpt>
      <trkpt lat="29.392177" lon="96.852159"><time>2026-04-30T05:09:23.463Z</time></trkpt>
      <trkpt lat="29.392177" lon="96.852159"><time>2026-04-30T05:09:23.480Z</time></trkpt>
      <trkpt lat="29.392177" lon="96.852159"><time>2026-04-30T05:09:23.496Z</time></trkpt>
      <trkpt lat="29.392177" lon="96.852159"><time>2026-04-30T05:09:23.513Z</time></trkpt>
      <trkpt lat="29.392177" lon="96.852159"><time>2026-04-30T05:09:23.530Z</time></trkpt>
      <trkpt lat="29.392174" lon="96.852166"><time>2026-04-30T05:09:23.546Z</time></trkpt>
      <trkpt lat="29.392174" lon="96.852166"><time>2026-04-30T05:09:23.563Z</time></trkpt>
      <trkpt lat="29.392174" lon="96.852166"><time>2026-04-30T05:09:23.580Z</time></trkpt>
      <trkpt lat="29.392174" lon="96.852166"><time>2026-04-30T05:09:23.596Z</time></trkpt>
      <trkpt lat="29.392174" lon="96.852166"><time>2026-04-30T05:09:23.613Z</time></trkpt>
      <trkpt lat="29.392174" lon="96.852166"><time>2026-04-30T05:09:23.630Z</time></trkpt>
      <trkpt lat="29.392171" lon="96.852174"><time>2026-04-30T05:09:23.646Z</time></trkpt>
      <trkpt lat="29.392171" lon="96.852174"><time>2026-04-30T05:09:23.663Z</time></trkpt>
      <trkpt lat="29.392171" lon="96.852174"><time>2026-04-30T05:09:23.680Z</time></trkpt>
      <trkpt lat="29.392171" lon="96.852174"><time>2026-04-30T05:09:23.696Z</time></trkpt>
      <trkpt lat="29.392171" lon="96.852174"><time>2026-04-30T05:09:23.713Z</time></trkpt>
      <trkpt lat="29.392171" lon="96.852174"><time>2026-04-30T05:09:23.730Z</time></trkpt>
      <trkpt lat="29.392168" lon="96.852182"><time>2026-04-30T05:09:23.747Z</time></trkpt>
      <trkpt lat="29.392168" lon="96.852182"><time>2026-04-30T05:09:23.763Z</time></trkpt>
      <trkpt lat="29.392168" lon="96.852182"><time>2026-04-30T05:09:23.780Z</time></trkpt>
      <trkpt lat="29.392168" lon="96.852182"><time>2026-04-30T05:09:23.797Z</time></trkpt>
      <trkpt lat="29.392168" lon="96.852182"><time>2026-04-30T05:09:23.813Z</time></trkpt>
      <trkpt lat="29.392168" lon="96.852182"><time>2026-04-30T05:09:23.830Z</time></trkpt>
      <trkpt lat="29.392165" lon="96.852189"><time>2026-04-30T05:09:23.847Z</time></trkpt>
      <trkpt lat="29.392165" lon="96.852189"><time>2026-04-30T05:09:23.863Z</time></trkpt>
      <trkpt lat="29.392165" lon="96.852189"><time>2026-04-30T05:09:23.880Z</time></trkpt>
      <trkpt lat="29.392165" lon="96.852189"><time>2026-04-30T05:09:23.897Z</time></trkpt>
      <trkpt lat="29.392165" lon="96.852189"><time>2026-04-30T05:09:23.913Z</time></trkpt>
      <trkpt lat="29.392165" lon="96.852189"><time>2026-04-30T05:09:23.930Z</time></trkpt>
      <trkpt lat="29.392162" lon="96.852197"><time>2026-04-30T05:09:23.947Z</time></trkpt>
      <trkpt lat="29.392162" lon="96.852197"><time>2026-04-30T05:09:23.963Z</time></trkpt>
      <trkpt lat="29.392162" lon="96.852197"><time>2026-04-30T05:09:23.980Z</time></trkpt>
      <trkpt lat="29.392162" lon="96.852197"><time>2026-04-30T05:09:23.997Z</time></trkpt>
      <trkpt lat="29.392162" lon="96.852197"><time>2026-04-30T05:09:24.013Z</time></trkpt>
      <trkpt lat="29.392162" lon="96.852197"><time>2026-04-30T05:09:24.030Z</time></trkpt>
      <trkpt lat="29.392158" lon="96.852204"><time>2026-04-30T05:09:24.047Z</time></trkpt>
      <trkpt lat="29.392158" lon="96.852204"><time>2026-04-30T05:09:24.064Z</time></trkpt>
      <trkpt lat="29.392158" lon="96.852204"><time>2026-04-30T05:09:24.080Z</time></trkpt>
      <trkpt lat="29.392158" lon="96.852204"><time>2026-04-30T05:09:24.097Z</time></trkpt>
      <trkpt lat="29.392158" lon="96.852204"><time>2026-04-30T05:09:24.114Z</time></trkpt>
      <trkpt lat="29.392158" lon="96.852204"><time>2026-04-30T05:09:24.130Z</time></trkpt>
      <trkpt lat="29.392155" lon="96.852212"><time>2026-04-30T05:09:24.147Z</time></trkpt>
      <trkpt lat="29.392155" lon="96.852212"><time>2026-04-30T05:09:24.164Z</time></trkpt>
      <trkpt lat="29.392155" lon="96.852212"><time>2026-04-30T05:09:24.180Z</time></trkpt>
      <trkpt lat="29.392155" lon="96.852212"><time>2026-04-30T05:09:24.197Z</time></trkpt>
      <trkpt lat="29.392155" lon="96.852212"><time>2026-04-30T05:09:24.214Z</time></trkpt>
      <trkpt lat="29.392155" lon="96.852212"><time>2026-04-30T05:09:24.230Z</time></trkpt>
      <trkpt lat="29.392152" lon="96.852219"><time>2026-04-30T05:09:24.247Z</time></trkpt>
      <trkpt lat="29.392152" lon="96.852219"><time>2026-04-30T05:09:24.264Z</time></trkpt>
      <trkpt lat="29.392152" lon="96.852219"><time>2026-04-30T05:09:24.280Z</time></trkpt>
      <trkpt lat="29.392152" lon="96.852219"><time>2026-04-30T05:09:24.297Z</time></trkpt>
      <trkpt lat="29.392152" lon="96.852219"><time>2026-04-30T05:09:24.314Z</time></trkpt>
      <trkpt lat="29.392152" lon="96.852219"><time>2026-04-30T05:09:24.330Z</time></trkpt>
      <trkpt lat="29.392148" lon="96.852226"><time>2026-04-30T05:09:24.347Z</time></trkpt>
      <trkpt lat="29.392148" lon="96.852226"><time>2026-04-30T05:09:24.364Z</time></trkpt>
      <trkpt lat="29.392148" lon="96.852226"><time>2026-04-30T05:09:24.381Z</time></trkpt>
      <trkpt lat="29.392148" lon="96.852226"><time>2026-04-30T05:09:24.397Z</time></trkpt>
      <trkpt lat="29.392148" lon="96.852226"><time>2026-04-30T05:09:24.414Z</time></trkpt>
      <trkpt lat="29.392148" lon="96.852226"><time>2026-04-30T05:09:24.431Z</time></trkpt>
      <trkpt lat="29.392145" lon="96.852234"><time>2026-04-30T05:09:24.447Z</time></trkpt>
      <trkpt lat="29.392145" lon="96.852234"><time>2026-04-30T05:09:24.464Z</time></trkpt>
      <trkpt lat="29.392145" lon="96.852234"><time>2026-04-30T05:09:24.481Z</time></trkpt>
      <trkpt lat="29.392145" lon="96.852234"><time>2026-04-30T05:09:24.497Z</time></trkpt>
      <trkpt lat="29.392145" lon="96.852234"><time>2026-04-30T05:09:24.514Z</time></trkpt>
      <trkpt lat="29.392145" lon="96.852234"><time>2026-04-30T05:09:24.531Z</time></trkpt>
      <trkpt lat="29.392142" lon="96.852241"><time>2026-04-30T05:09:24.547Z</time></trkpt>
      <trkpt lat="29.392142" lon="96.852241"><time>2026-04-30T05:09:24.564Z</time></trkpt>
      <trkpt lat="29.392142" lon="96.852241"><time>2026-04-30T05:09:24.581Z</time></trkpt>
      <trkpt lat="29.392142" lon="96.852241"><time>2026-04-30T05:09:24.597Z</time></trkpt>
      <trkpt lat="29.392142" lon="96.852241"><time>2026-04-30T05:09:24.614Z</time></trkpt>
      <trkpt lat="29.392142" lon="96.852241"><time>2026-04-30T05:09:24.631Z</time></trkpt>
      <trkpt lat="29.392138" lon="96.852249"><time>2026-04-30T05:09:24.647Z</time></trkpt>
      <trkpt lat="29.392138" lon="96.852249"><time>2026-04-30T05:09:24.664Z</time></trkpt>
      <trkpt lat="29.392138" lon="96.852249"><time>2026-04-30T05:09:24.681Z</time></trkpt>
      <trkpt lat="29.392138" lon="96.852249"><time>2026-04-30T05:09:24.698Z</time></trkpt>
      <trkpt lat="29.392138" lon="96.852249"><time>2026-04-30T05:09:24.714Z</time></trkpt>
      <trkpt lat="29.392138" lon="96.852249"><time>2026-04-30T05:09:24.731Z</time></trkpt>
      <trkpt lat="29.392135" lon="96.852256"><time>2026-04-30T05:09:24.748Z</time></trkpt>
      <trkpt lat="29.392135" lon="96.852256"><time>2026-04-30T05:09:24.764Z</time></trkpt>
      <trkpt lat="29.392135" lon="96.852256"><time>2026-04-30T05:09:24.781Z</time></trkpt>
      <trkpt lat="29.392135" lon="96.852256"><time>2026-04-30T05:09:24.798Z</time></trkpt>
      <trkpt lat="29.392135" lon="96.852256"><time>2026-04-30T05:09:24.814Z</time></trkpt>
      <trkpt lat="29.392135" lon="96.852256"><time>2026-04-30T05:09:24.831Z</time></trkpt>
      <trkpt lat="29.392132" lon="96.852263"><time>2026-04-30T05:09:24.848Z</time></trkpt>
      <trkpt lat="29.392132" lon="96.852263"><time>2026-04-30T05:09:24.864Z</time></trkpt>
      <trkpt lat="29.392132" lon="96.852263"><time>2026-04-30T05:09:24.881Z</time></trkpt>
      <trkpt lat="29.392132" lon="96.852263"><time>2026-04-30T05:09:24.898Z</time></trkpt>
      <trkpt lat="29.392132" lon="96.852263"><time>2026-04-30T05:09:24.914Z</time></trkpt>
      <trkpt lat="29.392132" lon="96.852263"><time>2026-04-30T05:09:24.931Z</time></trkpt>
      <trkpt lat="29.392128" lon="96.852271"><time>2026-04-30T05:09:24.948Z</time></trkpt>
      <trkpt lat="29.392128" lon="96.852271"><time>2026-04-30T05:09:24.964Z</time></trkpt>
      <trkpt lat="29.392128" lon="96.852271"><time>2026-04-30T05:09:24.981Z</time></trkpt>
      <trkpt lat="29.392128" lon="96.852271"><time>2026-04-30T05:09:24.998Z</time></trkpt>
      <trkpt lat="29.392128" lon="96.852271"><time>2026-04-30T05:09:25.014Z</time></trkpt>
      <trkpt lat="29.392128" lon="96.852271"><time>2026-04-30T05:09:25.031Z</time></trkpt>
      <trkpt lat="29.392125" lon="96.852278"><time>2026-04-30T05:09:25.048Z</time></trkpt>
      <trkpt lat="29.392125" lon="96.852278"><time>2026-04-30T05:09:25.065Z</time></trkpt>
      <trkpt lat="29.392125" lon="96.852278"><time>2026-04-30T05:09:25.081Z</time></trkpt>
      <trkpt lat="29.392125" lon="96.852278"><time>2026-04-30T05:09:25.098Z</time></trkpt>
      <trkpt lat="29.392125" lon="96.852278"><time>2026-04-30T05:09:25.115Z</time></trkpt>
      <trkpt lat="29.392125" lon="96.852278"><time>2026-04-30T05:09:25.131Z</time></trkpt>
      <trkpt lat="29.392122" lon="96.852286"><time>2026-04-30T05:09:25.148Z</time></trkpt>
      <trkpt lat="29.392122" lon="96.852286"><time>2026-04-30T05:09:25.165Z</time></trkpt>
      <trkpt lat="29.392122" lon="96.852286"><time>2026-04-30T05:09:25.181Z</time></trkpt>
      <trkpt lat="29.392122" lon="96.852286"><time>2026-04-30T05:09:25.198Z</time></trkpt>
      <trkpt lat="29.392122" lon="96.852286"><time>2026-04-30T05:09:25.215Z</time></trkpt>
      <trkpt lat="29.392122" lon="96.852286"><time>2026-04-30T05:09:25.231Z</time></trkpt>
      <trkpt lat="29.392118" lon="96.852293"><time>2026-04-30T05:09:25.248Z</time></trkpt>
      <trkpt lat="29.392118" lon="96.852293"><time>2026-04-30T05:09:25.265Z</time></trkpt>
      <trkpt lat="29.392118" lon="96.852293"><time>2026-04-30T05:09:25.281Z</time></trkpt>
      <trkpt lat="29.392118" lon="96.852293"><time>2026-04-30T05:09:25.298Z</time></trkpt>
      <trkpt lat="29.392118" lon="96.852293"><time>2026-04-30T05:09:25.315Z</time></trkpt>
      <trkpt lat="29.392118" lon="96.852293"><time>2026-04-30T05:09:25.331Z</time></trkpt>
      <trkpt lat="29.392115" lon="96.8523"><time>2026-04-30T05:09:25.348Z</time></trkpt>
      <trkpt lat="29.392115" lon="96.8523"><time>2026-04-30T05:09:25.365Z</time></trkpt>
      <trkpt lat="29.392115" lon="96.8523"><time>2026-04-30T05:09:25.382Z</time></trkpt>
      <trkpt lat="29.392115" lon="96.8523"><time>2026-04-30T05:09:25.398Z</time></trkpt>
      <trkpt lat="29.392115" lon="96.8523"><time>2026-04-30T05:09:25.415Z</time></trkpt>
      <trkpt lat="29.392115" lon="96.8523"><time>2026-04-30T05:09:25.432Z</time></trkpt>
      <trkpt lat="29.392112" lon="96.852308"><time>2026-04-30T05:09:25.448Z</time></trkpt>
      <trkpt lat="29.392112" lon="96.852308"><time>2026-04-30T05:09:25.465Z</time></trkpt>
      <trkpt lat="29.392112" lon="96.852308"><time>2026-04-30T05:09:25.482Z</time></trkpt>
      <trkpt lat="29.392112" lon="96.852308"><time>2026-04-30T05:09:25.498Z</time></trkpt>
      <trkpt lat="29.392112" lon="96.852308"><time>2026-04-30T05:09:25.515Z</time></trkpt>
      <trkpt lat="29.392112" lon="96.852308"><time>2026-04-30T05:09:25.532Z</time></trkpt>
      <trkpt lat="29.392109" lon="96.852315"><time>2026-04-30T05:09:25.548Z</time></trkpt>
      <trkpt lat="29.392109" lon="96.852315"><time>2026-04-30T05:09:25.565Z</time></trkpt>
      <trkpt lat="29.392109" lon="96.852315"><time>2026-04-30T05:09:25.582Z</time></trkpt>
      <trkpt lat="29.392109" lon="96.852315"><time>2026-04-30T05:09:25.598Z</time></trkpt>
      <trkpt lat="29.392109" lon="96.852315"><time>2026-04-30T05:09:25.615Z</time></trkpt>
      <trkpt lat="29.392109" lon="96.852315"><time>2026-04-30T05:09:25.632Z</time></trkpt>
      <trkpt lat="29.392106" lon="96.852323"><time>2026-04-30T05:09:25.648Z</time></trkpt>
      <trkpt lat="29.392106" lon="96.852323"><time>2026-04-30T05:09:25.665Z</time></trkpt>
      <trkpt lat="29.392106" lon="96.852323"><time>2026-04-30T05:09:25.682Z</time></trkpt>
      <trkpt lat="29.392106" lon="96.852323"><time>2026-04-30T05:09:25.699Z</time></trkpt>
      <trkpt lat="29.392106" lon="96.852323"><time>2026-04-30T05:09:25.715Z</time></trkpt>
      <trkpt lat="29.392106" lon="96.852323"><time>2026-04-30T05:09:25.732Z</time></trkpt>
      <trkpt lat="29.392102" lon="96.85233"><time>2026-04-30T05:09:25.749Z</time></trkpt>
      <trkpt lat="29.392102" lon="96.85233"><time>2026-04-30T05:09:25.765Z</time></trkpt>
      <trkpt lat="29.392102" lon="96.85233"><time>2026-04-30T05:09:25.782Z</time></trkpt>
      <trkpt lat="29.392102" lon="96.85233"><time>2026-04-30T05:09:25.799Z</time></trkpt>
      <trkpt lat="29.392102" lon="96.85233"><time>2026-04-30T05:09:25.815Z</time></trkpt>
      <trkpt lat="29.392102" lon="96.85233"><time>2026-04-30T05:09:25.832Z</time></trkpt>
      <trkpt lat="29.392099" lon="96.852337"><time>2026-04-30T05:09:25.849Z</time></trkpt>
      <trkpt lat="29.392099" lon="96.852337"><time>2026-04-30T05:09:25.865Z</time></trkpt>
      <trkpt lat="29.392099" lon="96.852337"><time>2026-04-30T05:09:25.882Z</time></trkpt>
      <trkpt lat="29.392099" lon="96.852337"><time>2026-04-30T05:09:25.899Z</time></trkpt>
      <trkpt lat="29.392099" lon="96.852337"><time>2026-04-30T05:09:25.915Z</time></trkpt>
      <trkpt lat="29.392099" lon="96.852337"><time>2026-04-30T05:09:25.932Z</time></trkpt>
      <trkpt lat="29.392096" lon="96.852345"><time>2026-04-30T05:09:25.949Z</time></trkpt>
      <trkpt lat="29.392096" lon="96.852345"><time>2026-04-30T05:09:25.965Z</time></trkpt>
      <trkpt lat="29.392096" lon="96.852345"><time>2026-04-30T05:09:25.982Z</time></trkpt>
      <trkpt lat="29.392096" lon="96.852345"><time>2026-04-30T05:09:25.999Z</time></trkpt>
      <trkpt lat="29.392096" lon="96.852345"><time>2026-04-30T05:09:26.016Z</time></trkpt>
      <trkpt lat="29.392096" lon="96.852345"><time>2026-04-30T05:09:26.032Z</time></trkpt>
      <trkpt lat="29.392093" lon="96.852352"><time>2026-04-30T05:09:26.049Z</time></trkpt>
      <trkpt lat="29.392093" lon="96.852352"><time>2026-04-30T05:09:26.066Z</time></trkpt>
      <trkpt lat="29.392093" lon="96.852352"><time>2026-04-30T05:09:26.082Z</time></trkpt>
      <trkpt lat="29.392093" lon="96.852352"><time>2026-04-30T05:09:26.099Z</time></trkpt>
      <trkpt lat="29.392093" lon="96.852352"><time>2026-04-30T05:09:26.116Z</time></trkpt>
      <trkpt lat="29.392093" lon="96.852352"><time>2026-04-30T05:09:26.132Z</time></trkpt>
      <trkpt lat="29.392089" lon="96.85236"><time>2026-04-30T05:09:26.149Z</time></trkpt>
      <trkpt lat="29.392089" lon="96.85236"><time>2026-04-30T05:09:26.166Z</time></trkpt>
      <trkpt lat="29.392089" lon="96.85236"><time>2026-04-30T05:09:26.182Z</time></trkpt>
      <trkpt lat="29.392089" lon="96.85236"><time>2026-04-30T05:09:26.199Z</time></trkpt>
      <trkpt lat="29.392089" lon="96.85236"><time>2026-04-30T05:09:26.216Z</time></trkpt>
      <trkpt lat="29.392089" lon="96.85236"><time>2026-04-30T05:09:26.232Z</time></trkpt>
      <trkpt lat="29.392086" lon="96.852367"><time>2026-04-30T05:09:26.249Z</time></trkpt>
      <trkpt lat="29.392086" lon="96.852367"><time>2026-04-30T05:09:26.266Z</time></trkpt>
      <trkpt lat="29.392086" lon="96.852367"><time>2026-04-30T05:09:26.282Z</time></trkpt>
      <trkpt lat="29.392086" lon="96.852367"><time>2026-04-30T05:09:26.299Z</time></trkpt>
      <trkpt lat="29.392086" lon="96.852367"><time>2026-04-30T05:09:26.316Z</time></trkpt>
      <trkpt lat="29.392086" lon="96.852367"><time>2026-04-30T05:09:26.333Z</time></trkpt>
      <trkpt lat="29.392083" lon="96.852375"><time>2026-04-30T05:09:26.349Z</time></trkpt>
      <trkpt lat="29.392083" lon="96.852375"><time>2026-04-30T05:09:26.366Z</time></trkpt>
      <trkpt lat="29.392083" lon="96.852375"><time>2026-04-30T05:09:26.383Z</time></trkpt>
      <trkpt lat="29.392083" lon="96.852375"><time>2026-04-30T05:09:26.399Z</time></trkpt>
      <trkpt lat="29.392083" lon="96.852375"><time>2026-04-30T05:09:26.416Z</time></trkpt>
      <trkpt lat="29.392083" lon="96.852375"><time>2026-04-30T05:09:26.433Z</time></trkpt>
      <trkpt lat="29.39208" lon="96.852382"><time>2026-04-30T05:09:26.449Z</time></trkpt>
      <trkpt lat="29.39208" lon="96.852382"><time>2026-04-30T05:09:26.466Z</time></trkpt>
      <trkpt lat="29.39208" lon="96.852382"><time>2026-04-30T05:09:26.483Z</time></trkpt>
      <trkpt lat="29.39208" lon="96.852382"><time>2026-04-30T05:09:26.499Z</time></trkpt>
      <trkpt lat="29.39208" lon="96.852382"><time>2026-04-30T05:09:26.516Z</time></trkpt>
      <trkpt lat="29.39208" lon="96.852382"><time>2026-04-30T05:09:26.533Z</time></trkpt>
      <trkpt lat="29.392076" lon="96.85239"><time>2026-04-30T05:09:26.549Z</time></trkpt>
      <trkpt lat="29.392076" lon="96.85239"><time>2026-04-30T05:09:26.566Z</time></trkpt>
      <trkpt lat="29.392076" lon="96.85239"><time>2026-04-30T05:09:26.583Z</time></trkpt>
      <trkpt lat="29.392076" lon="96.85239"><time>2026-04-30T05:09:26.599Z</time></trkpt>
      <trkpt lat="29.392076" lon="96.85239"><time>2026-04-30T05:09:26.616Z</time></trkpt>
      <trkpt lat="29.392076" lon="96.85239"><time>2026-04-30T05:09:26.633Z</time></trkpt>
      <trkpt lat="29.392073" lon="96.852397"><time>2026-04-30T05:09:26.650Z</time></trkpt>
      <trkpt lat="29.392073" lon="96.852397"><time>2026-04-30T05:09:26.666Z</time></trkpt>
      <trkpt lat="29.392073" lon="96.852397"><time>2026-04-30T05:09:26.683Z</time></trkpt>
      <trkpt lat="29.392073" lon="96.852397"><time>2026-04-30T05:09:26.700Z</time></trkpt>
      <trkpt lat="29.392073" lon="96.852397"><time>2026-04-30T05:09:26.716Z</time></trkpt>
      <trkpt lat="29.392073" lon="96.852397"><time>2026-04-30T05:09:26.733Z</time></trkpt>
      <trkpt lat="29.39207" lon="96.852404"><time>2026-04-30T05:09:26.750Z</time></trkpt>
      <trkpt lat="29.39207" lon="96.852404"><time>2026-04-30T05:09:26.766Z</time></trkpt>
      <trkpt lat="29.39207" lon="96.852404"><time>2026-04-30T05:09:26.783Z</time></trkpt>
      <trkpt lat="29.39207" lon="96.852404"><time>2026-04-30T05:09:26.800Z</time></trkpt>
      <trkpt lat="29.39207" lon="96.852404"><time>2026-04-30T05:09:26.816Z</time></trkpt>
      <trkpt lat="29.39207" lon="96.852404"><time>2026-04-30T05:09:26.833Z</time></trkpt>
      <trkpt lat="29.392067" lon="96.852412"><time>2026-04-30T05:09:26.850Z</time></trkpt>
      <trkpt lat="29.392067" lon="96.852412"><time>2026-04-30T05:09:26.866Z</time></trkpt>
    </trkseg>
  </trk>
</gpx>
