<?xml version="1.0" encoding="UTF-8"?>
<gpx version="1.1" creator="Kairos" xmlns="http://www.topografix.com/GPX/1/1">
  <trk>
    <name>sidecar-srt-b767d42d43f2fbba</name>
    <trkseg>
      <trkpt lat="29.749431" lon="99.560511"><time>2026-05-02T07:42:07.000Z</time></trkpt>
      <trkpt lat="29.749431" lon="99.560511"><time>2026-05-02T07:42:07.016Z</time></trkpt>
      <trkpt lat="29.749431" lon="99.560511"><time>2026-05-02T07:42:07.032Z</time></trkpt>
      <trkpt lat="29.749431" lon="99.560511"><time>2026-05-02T07:42:07.049Z</time></trkpt>
      <trkpt lat="29.749431" lon="99.560511"><time>2026-05-02T07:42:07.066Z</time></trkpt>
      <trkpt lat="29.749431" lon="99.560511"><time>2026-05-02T07:42:07.082Z</time></trkpt>
      <trkpt lat="29.749431" lon="99.560511"><time>2026-05-02T07:42:07.099Z</time></trkpt>
      <trkpt lat="29.749431" lon="99.560511"><time>2026-05-02T07:42:07.116Z</time></trkpt>
      <trkpt lat="29.749431" lon="99.560511"><time>2026-05-02T07:42:07.132Z</time></trkpt>
      <trkpt lat="29.749431" lon="99.560511"><time>2026-05-02T07:42:07.149Z</time></trkpt>
      <trkpt lat="29.749431" lon="99.560511"><time>2026-05-02T07:42:07.166Z</time></trkpt>
      <trkpt lat="29.749431" lon="99.560511"><time>2026-05-02T07:42:07.182Z</time></trkpt>
      <trkpt lat="29.749431" lon="99.560511"><time>2026-05-02T07:42:07.199Z</time></trkpt>
      <trkpt lat="29.749431" lon="99.560511"><time>2026-05-02T07:42:07.216Z</time></trkpt>
      <trkpt lat="29.749431" lon="99.560511"><time>2026-05-02T07:42:07.232Z</time></trkpt>
      <trkpt lat="29.749431" lon="99.560511"><time>2026-05-02T07:42:07.249Z</time></trkpt>
      <trkpt lat="29.749431" lon="99.560511"><time>2026-05-02T07:42:07.266Z</time></trkpt>
      <trkpt lat="29.749431" lon="99.560511"><time>2026-05-02T07:42:07.282Z</time></trkpt>
      <trkpt lat="29.749431" lon="99.560511"><time>2026-05-02T07:42:07.299Z</time></trkpt>
      <trkpt lat="29.749431" lon="99.560511"><time>2026-05-02T07:42:07.316Z</time></trkpt>
      <trkpt lat="29.749431" lon="99.560511"><time>2026-05-02T07:42:07.333Z</time></trkpt>
      <trkpt lat="29.749431" lon="99.560511"><time>2026-05-02T07:42:07.349Z</time></trkpt>
      <trkpt lat="29.749431" lon="99.560511"><time>2026-05-02T07:42:07.366Z</time></trkpt>
      <trkpt lat="29.749431" lon="99.560511"><time>2026-05-02T07:42:07.383Z</time></trkpt>
      <trkpt lat="29.749431" lon="99.560511"><time>2026-05-02T07:42:07.399Z</time></trkpt>
      <trkpt lat="29.749431" lon="99.560511"><time>2026-05-02T07:42:07.416Z</time></trkpt>
      <trkpt lat="29.749431" lon="99.560511"><time>2026-05-02T07:42:07.433Z</time></trkpt>
      <trkpt lat="29.749431" lon="99.560511"><time>2026-05-02T07:42:07.449Z</time></trkpt>
      <trkpt lat="29.749431" lon="99.560511"><time>2026-05-02T07:42:07.466Z</time></trkpt>
      <trkpt lat="29.749431" lon="99.560511"><time>2026-05-02T07:42:07.483Z</time></trkpt>
      <trkpt lat="29.749431" lon="99.560511"><time>2026-05-02T07:42:07.499Z</time></trkpt>
      <trkpt lat="29.749431" lon="99.560511"><time>2026-05-02T07:42:07.516Z</time></trkpt>
      <trkpt lat="29.749431" lon="99.560511"><time>2026-05-02T07:42:07.533Z</time></trkpt>
      <trkpt lat="29.749431" lon="99.560511"><time>2026-05-02T07:42:07.549Z</time></trkpt>
      <trkpt lat="29.749431" lon="99.56051"><time>2026-05-02T07:42:07.566Z</time></trkpt>
      <trkpt lat="29.749431" lon="99.56051"><time>2026-05-02T07:42:07.583Z</time></trkpt>
      <trkpt lat="29.749431" lon="99.56051"><time>2026-05-02T07:42:07.599Z</time></trkpt>
      <trkpt lat="29.749431" lon="99.56051"><time>2026-05-02T07:42:07.616Z</time></trkpt>
      <trkpt lat="29.749431" lon="99.56051"><time>2026-05-02T07:42:07.633Z</time></trkpt>
      <trkpt lat="29.749431" lon="99.56051"><time>2026-05-02T07:42:07.649Z</time></trkpt>
      <trkpt lat="29.749431" lon="99.560509"><time>2026-05-02T07:42:07.666Z</time></trkpt>
      <trkpt lat="29.749431" lon="99.560509"><time>2026-05-02T07:42:07.683Z</time></trkpt>
      <trkpt lat="29.749431" lon="99.560509"><time>2026-05-02T07:42:07.700Z</time></trkpt>
      <trkpt lat="29.749431" lon="99.560509"><time>2026-05-02T07:42:07.716Z</time></trkpt>
      <trkpt lat="29.749431" lon="99.560509"><time>2026-05-02T07:42:07.733Z</time></trkpt>
      <trkpt lat="29.749431" lon="99.560509"><time>2026-05-02T07:42:07.750Z</time></trkpt>
      <trkpt lat="29.749431" lon="99.560508"><time>2026-05-02T07:42:07.766Z</time></trkpt>
      <trkpt lat="29.749431" lon="99.560508"><time>2026-05-02T07:42:07.783Z</time></trkpt>
      <trkpt lat="29.749431" lon="99.560508"><time>2026-05-02T07:42:07.800Z</time></trkpt>
      <trkpt lat="29.749431" lon="99.560508"><time>2026-05-02T07:42:07.816Z</time></trkpt>
      <trkpt lat="29.749431" lon="99.560508"><time>2026-05-02T07:42:07.833Z</time></trkpt>
      <trkpt lat="29.749431" lon="99.560508"><time>2026-05-02T07:42:07.850Z</time></trkpt>
      <trkpt lat="29.749431" lon="99.560506"><time>2026-05-02T07:42:07.866Z</time></trkpt>
      <trkpt lat="29.749431" lon="99.560506"><time>2026-05-02T07:42:07.883Z</time></trkpt>
      <trkpt lat="29.749431" lon="99.560506"><time>2026-05-02T07:42:07.900Z</time></trkpt>
      <trkpt lat="29.749431" lon="99.560506"><time>2026-05-02T07:42:07.916Z</time></trkpt>
      <trkpt lat="29.749431" lon="99.560506"><time>2026-05-02T07:42:07.933Z</time></trkpt>
      <trkpt lat="29.749431" lon="99.560506"><time>2026-05-02T07:42:07.950Z</time></trkpt>
      <trkpt lat="29.749431" lon="99.560503"><time>2026-05-02T07:42:07.966Z</time></trkpt>
      <trkpt lat="29.749431" lon="99.560503"><time>2026-05-02T07:42:07.983Z</time></trkpt>
      <trkpt lat="29.749431" lon="99.560503"><time>2026-05-02T07:42:08.000Z</time></trkpt>
      <trkpt lat="29.749431" lon="99.560503"><time>2026-05-02T07:42:08.017Z</time></trkpt>
      <trkpt lat="29.749431" lon="99.560503"><time>2026-05-02T07:42:08.033Z</time></trkpt>
      <trkpt lat="29.749431" lon="99.560503"><time>2026-05-02T07:42:08.050Z</time></trkpt>
      <trkpt lat="29.749431" lon="99.560499"><time>2026-05-02T07:42:08.067Z</time></trkpt>
      <trkpt lat="29.749431" lon="99.560499"><time>2026-05-02T07:42:08.083Z</time></trkpt>
      <trkpt lat="29.749431" lon="99.560499"><time>2026-05-02T07:42:08.100Z</time></trkpt>
      <trkpt lat="29.749431" lon="99.560499"><time>2026-05-02T07:42:08.117Z</time></trkpt>
      <trkpt lat="29.749431" lon="99.560499"><time>2026-05-02T07:42:08.133Z</time></trkpt>
      <trkpt lat="29.749431" lon="99.560499"><time>2026-05-02T07:42:08.150Z</time></trkpt>
      <trkpt lat="29.74943" lon="99.560495"><time>2026-05-02T07:42:08.167Z</time></trkpt>
      <trkpt lat="29.74943" lon="99.560495"><time>2026-05-02T07:42:08.183Z</time></trkpt>
      <trkpt lat="29.74943" lon="99.560495"><time>2026-05-02T07:42:08.200Z</time></trkpt>
      <trkpt lat="29.74943" lon="99.560495"><time>2026-05-02T07:42:08.217Z</time></trkpt>
      <trkpt lat="29.74943" lon="99.560495"><time>2026-05-02T07:42:08.233Z</time></trkpt>
      <trkpt lat="29.74943" lon="99.560495"><time>2026-05-02T07:42:08.250Z</time></trkpt>
      <trkpt lat="29.74943" lon="99.560491"><time>2026-05-02T07:42:08.267Z</time></trkpt>
      <trkpt lat="29.74943" lon="99.560491"><time>2026-05-02T07:42:08.283Z</time></trkpt>
      <trkpt lat="29.74943" lon="99.560491"><time>2026-05-02T07:42:08.300Z</time></trkpt>
      <trkpt lat="29.74943" lon="99.560491"><time>2026-05-02T07:42:08.317Z</time></trkpt>
      <trkpt lat="29.74943" lon="99.560491"><time>2026-05-02T07:42:08.334Z</time></trkpt>
      <trkpt lat="29.74943" lon="99.560491"><time>2026-05-02T07:42:08.350Z</time></trkpt>
      <trkpt lat="29.74943" lon="99.560485"><time>2026-05-02T07:42:08.367Z</time></trkpt>
      <trkpt lat="29.74943" lon="99.560485"><time>2026-05-02T07:42:08.384Z</time></trkpt>
      <trkpt lat="29.74943" lon="99.560485"><time>2026-05-02T07:42:08.400Z</time></trkpt>
      <trkpt lat="29.74943" lon="99.560485"><time>2026-05-02T07:42:08.417Z</time></trkpt>
      <trkpt lat="29.74943" lon="99.560485"><time>2026-05-02T07:42:08.434Z</time></trkpt>
      <trkpt lat="29.74943" lon="99.560485"><time>2026-05-02T07:42:08.450Z</time></trkpt>
      <trkpt lat="29.749429" lon="99.56048"><time>2026-05-02T07:42:08.467Z</time></trkpt>
      <trkpt lat="29.749429" lon="99.56048"><time>2026-05-02T07:42:08.484Z</time></trkpt>
      <trkpt lat="29.749429" lon="99.56048"><time>2026-05-02T07:42:08.500Z</time></trkpt>
      <trkpt lat="29.749429" lon="99.56048"><time>2026-05-02T07:42:08.517Z</time></trkpt>
      <trkpt lat="29.749429" lon="99.56048"><time>2026-05-02T07:42:08.534Z</time></trkpt>
      <trkpt lat="29.749429" lon="99.56048"><time>2026-05-02T07:42:08.550Z</time></trkpt>
      <trkpt lat="29.749429" lon="99.560473"><time>2026-05-02T07:42:08.567Z</time></trkpt>
      <trkpt lat="29.749429" lon="99.560473"><time>2026-05-02T07:42:08.584Z</time></trkpt>
      <trkpt lat="29.749429" lon="99.560473"><time>2026-05-02T07:42:08.600Z</time></trkpt>
      <trkpt lat="29.749429" lon="99.560473"><time>2026-05-02T07:42:08.617Z</time></trkpt>
      <trkpt lat="29.749429" lon="99.560473"><time>2026-05-02T07:42:08.634Z</time></trkpt>
      <trkpt lat="29.749429" lon="99.560473"><time>2026-05-02T07:42:08.651Z</time></trkpt>
      <trkpt lat="29.749429" lon="99.560466"><time>2026-05-02T07:42:08.667Z</time></trkpt>
      <trkpt lat="29.749429" lon="99.560466"><time>2026-05-02T07:42:08.684Z</time></trkpt>
      <trkpt lat="29.749429" lon="99.560466"><time>2026-05-02T07:42:08.701Z</time></trkpt>
      <trkpt lat="29.749429" lon="99.560466"><time>2026-05-02T07:42:08.717Z</time></trkpt>
      <trkpt lat="29.749429" lon="99.560466"><time>2026-05-02T07:42:08.734Z</time></trkpt>
      <trkpt lat="29.749429" lon="99.560466"><time>2026-05-02T07:42:08.751Z</time></trkpt>
      <trkpt lat="29.749428" lon="99.560459"><time>2026-05-02T07:42:08.767Z</time></trkpt>
      <trkpt lat="29.749428" lon="99.560459"><time>2026-05-02T07:42:08.784Z</time></trkpt>
      <trkpt lat="29.749428" lon="99.560459"><time>2026-05-02T07:42:08.801Z</time></trkpt>
      <trkpt lat="29.749428" lon="99.560459"><time>2026-05-02T07:42:08.817Z</time></trkpt>
      <trkpt lat="29.749428" lon="99.560459"><time>2026-05-02T07:42:08.834Z</time></trkpt>
      <trkpt lat="29.749428" lon="99.560452"><time>2026-05-02T07:42:08.851Z</time></trkpt>
      <trkpt lat="29.749428" lon="99.560452"><time>2026-05-02T07:42:08.867Z</time></trkpt>
      <trkpt lat="29.749428" lon="99.560452"><time>2026-05-02T07:42:08.884Z</time></trkpt>
      <trkpt lat="29.749428" lon="99.560452"><time>2026-05-02T07:42:08.901Z</time></trkpt>
      <trkpt lat="29.749428" lon="99.560452"><time>2026-05-02T07:42:08.917Z</time></trkpt>
      <trkpt lat="29.749428" lon="99.560452"><time>2026-05-02T07:42:08.934Z</time></trkpt>
      <trkpt lat="29.749428" lon="99.560452"><time>2026-05-02T07:42:08.951Z</time></trkpt>
      <trkpt lat="29.749428" lon="99.560446"><time>2026-05-02T07:42:08.968Z</time></trkpt>
      <trkpt lat="29.749428" lon="99.560446"><time>2026-05-02T07:42:08.984Z</time></trkpt>
      <trkpt lat="29.749428" lon="99.560446"><time>2026-05-02T07:42:09.001Z</time></trkpt>
      <trkpt lat="29.749428" lon="99.560446"><time>2026-05-02T07:42:09.018Z</time></trkpt>
      <trkpt lat="29.749428" lon="99.560446"><time>2026-05-02T07:42:09.034Z</time></trkpt>
      <trkpt lat="29.749427" lon="99.56044"><time>2026-05-02T07:42:09.051Z</time></trkpt>
      <trkpt lat="29.749427" lon="99.56044"><time>2026-05-02T07:42:09.068Z</time></trkpt>
      <trkpt lat="29.749427" lon="99.56044"><time>2026-05-02T07:42:09.084Z</time></trkpt>
      <trkpt lat="29.749427" lon="99.56044"><time>2026-05-02T07:42:09.101Z</time></trkpt>
      <trkpt lat="29.749427" lon="99.56044"><time>2026-05-02T07:42:09.118Z</time></trkpt>
      <trkpt lat="29.749427" lon="99.56044"><time>2026-05-02T07:42:09.134Z</time></trkpt>
      <trkpt lat="29.749427" lon="99.56044"><time>2026-05-02T07:42:09.151Z</time></trkpt>
      <trkpt lat="29.749427" lon="99.560437"><time>2026-05-02T07:42:09.168Z</time></trkpt>
      <trkpt lat="29.749427" lon="99.560437"><time>2026-05-02T07:42:09.184Z</time></trkpt>
      <trkpt lat="29.749427" lon="99.560437"><time>2026-05-02T07:42:09.201Z</time></trkpt>
      <trkpt lat="29.749427" lon="99.560437"><time>2026-05-02T07:42:09.218Z</time></trkpt>
      <trkpt lat="29.749427" lon="99.560437"><time>2026-05-02T07:42:09.234Z</time></trkpt>
      <trkpt lat="29.749427" lon="99.560434"><time>2026-05-02T07:42:09.251Z</time></trkpt>
      <trkpt lat="29.749427" lon="99.560434"><time>2026-05-02T07:42:09.268Z</time></trkpt>
      <trkpt lat="29.749427" lon="99.560434"><time>2026-05-02T07:42:09.285Z</time></trkpt>
      <trkpt lat="29.749427" lon="99.560434"><time>2026-05-02T07:42:09.301Z</time></trkpt>
      <trkpt lat="29.749427" lon="99.560434"><time>2026-05-02T07:42:09.318Z</time></trkpt>
      <trkpt lat="29.749427" lon="99.560434"><time>2026-05-02T07:42:09.335Z</time></trkpt>
      <trkpt lat="29.749427" lon="99.560432"><time>2026-05-02T07:42:09.351Z</time></trkpt>
      <trkpt lat="29.749427" lon="99.560432"><time>2026-05-02T07:42:09.368Z</time></trkpt>
      <trkpt lat="29.749427" lon="99.560432"><time>2026-05-02T07:42:09.385Z</time></trkpt>
      <trkpt lat="29.749427" lon="99.560432"><time>2026-05-02T07:42:09.401Z</time></trkpt>
      <trkpt lat="29.749427" lon="99.560432"><time>2026-05-02T07:42:09.418Z</time></trkpt>
      <trkpt lat="29.749427" lon="99.560432"><time>2026-05-02T07:42:09.435Z</time></trkpt>
      <trkpt lat="29.749427" lon="99.560431"><time>2026-05-02T07:42:09.451Z</time></trkpt>
      <trkpt lat="29.749427" lon="99.560431"><time>2026-05-02T07:42:09.468Z</time></trkpt>
      <trkpt lat="29.749427" lon="99.560431"><time>2026-05-02T07:42:09.485Z</time></trkpt>
      <trkpt lat="29.749427" lon="99.560431"><time>2026-05-02T07:42:09.501Z</time></trkpt>
      <trkpt lat="29.749427" lon="99.560431"><time>2026-05-02T07:42:09.518Z</time></trkpt>
      <trkpt lat="29.749427" lon="99.560431"><time>2026-05-02T07:42:09.535Z</time></trkpt>
      <trkpt lat="29.749426" lon="99.56043"><time>2026-05-02T07:42:09.551Z</time></trkpt>
      <trkpt lat="29.749426" lon="99.56043"><time>2026-05-02T07:42:09.568Z</time></trkpt>
      <trkpt lat="29.749426" lon="99.56043"><time>2026-05-02T07:42:09.585Z</time></trkpt>
      <trkpt lat="29.749426" lon="99.56043"><time>2026-05-02T07:42:09.602Z</time></trkpt>
      <trkpt lat="29.749426" lon="99.56043"><time>2026-05-02T07:42:09.618Z</time></trkpt>
      <trkpt lat="29.749426" lon="99.56043"><time>2026-05-02T07:42:09.635Z</time></trkpt>
      <trkpt lat="29.749426" lon="99.56043"><time>2026-05-02T07:42:09.652Z</time></trkpt>
      <trkpt lat="29.749426" lon="99.560429"><time>2026-05-02T07:42:09.668Z</time></trkpt>
      <trkpt lat="29.749426" lon="99.560429"><time>2026-05-02T07:42:09.685Z</time></trkpt>
      <trkpt lat="29.749426" lon="99.560429"><time>2026-05-02T07:42:09.702Z</time></trkpt>
      <trkpt lat="29.749426" lon="99.560429"><time>2026-05-02T07:42:09.718Z</time></trkpt>
      <trkpt lat="29.749426" lon="99.560429"><time>2026-05-02T07:42:09.735Z</time></trkpt>
      <trkpt lat="29.749426" lon="99.560429"><time>2026-05-02T07:42:09.752Z</time></trkpt>
      <trkpt lat="29.749426" lon="99.560429"><time>2026-05-02T07:42:09.768Z</time></trkpt>
      <trkpt lat="29.749426" lon="99.560429"><time>2026-05-02T07:42:09.785Z</time></trkpt>
      <trkpt lat="29.749426" lon="99.560429"><time>2026-05-02T07:42:09.802Z</time></trkpt>
      <trkpt lat="29.749426" lon="99.560429"><time>2026-05-02T07:42:09.818Z</time></trkpt>
      <trkpt lat="29.749426" lon="99.560429"><time>2026-05-02T07:42:09.835Z</time></trkpt>
      <trkpt lat="29.749426" lon="99.560429"><time>2026-05-02T07:42:09.852Z</time></trkpt>
      <trkpt lat="29.749426" lon="99.560429"><time>2026-05-02T07:42:09.868Z</time></trkpt>
      <trkpt lat="29.749426" lon="99.560429"><time>2026-05-02T07:42:09.885Z</time></trkpt>
      <trkpt lat="29.749426" lon="99.560429"><time>2026-05-02T07:42:09.902Z</time></trkpt>
      <trkpt lat="29.749426" lon="99.560429"><time>2026-05-02T07:42:09.919Z</time></trkpt>
      <trkpt lat="29.749426" lon="99.560429"><time>2026-05-02T07:42:09.935Z</time></trkpt>
      <trkpt lat="29.749426" lon="99.560429"><time>2026-05-02T07:42:09.952Z</time></trkpt>
      <trkpt lat="29.749426" lon="99.560429"><time>2026-05-02T07:42:09.969Z</time></trkpt>
      <trkpt lat="29.749426" lon="99.560429"><time>2026-05-02T07:42:09.985Z</time></trkpt>
      <trkpt lat="29.749426" lon="99.560429"><time>2026-05-02T07:42:10.002Z</time></trkpt>
      <trkpt lat="29.749426" lon="99.560429"><time>2026-05-02T07:42:10.019Z</time></trkpt>
      <trkpt lat="29.749426" lon="99.560429"><time>2026-05-02T07:42:10.035Z</time></trkpt>
      <trkpt lat="29.749426" lon="99.560429"><time>2026-05-02T07:42:10.052Z</time></trkpt>
      <trkpt lat="29.749426" lon="99.560429"><time>2026-05-02T07:42:10.069Z</time></trkpt>
      <trkpt lat="29.749426" lon="99.560429"><time>2026-05-02T07:42:10.085Z</time></trkpt>
      <trkpt lat="29.749426" lon="99.560429"><time>2026-05-02T07:42:10.102Z</time></trkpt>
      <trkpt lat="29.749426" lon="99.560429"><time>2026-05-02T07:42:10.119Z</time></trkpt>
      <trkpt lat="29.749426" lon="99.560429"><time>2026-05-02T07:42:10.135Z</time></trkpt>
      <trkpt lat="29.749426" lon="99.560429"><time>2026-05-02T07:42:10.152Z</time></trkpt>
      <trkpt lat="29.749426" lon="99.560429"><time>2026-05-02T07:42:10.169Z</time></trkpt>
      <trkpt lat="29.749426" lon="99.560429"><time>2026-05-02T07:42:10.185Z</time></trkpt>
      <trkpt lat="29.749426" lon="99.560429"><time>2026-05-02T07:42:10.202Z</time></trkpt>
      <trkpt lat="29.749426" lon="99.560429"><time>2026-05-02T07:42:10.219Z</time></trkpt>
      <trkpt lat="29.749426" lon="99.560429"><time>2026-05-02T07:42:10.236Z</time></trkpt>
      <trkpt lat="29.749426" lon="99.560429"><time>2026-05-02T07:42:10.252Z</time></trkpt>
      <trkpt lat="29.749426" lon="99.560429"><time>2026-05-02T07:42:10.269Z</time></trkpt>
      <trkpt lat="29.749426" lon="99.560429"><time>2026-05-02T07:42:10.286Z</time></trkpt>
      <trkpt lat="29.749426" lon="99.560429"><time>2026-05-02T07:42:10.302Z</time></trkpt>
      <trkpt lat="29.749426" lon="99.560429"><time>2026-05-02T07:42:10.319Z</time></trkpt>
      <trkpt lat="29.749426" lon="99.560429"><time>2026-05-02T07:42:10.336Z</time></trkpt>
      <trkpt lat="29.749426" lon="99.560429"><time>2026-05-02T07:42:10.352Z</time></trkpt>
      <trkpt lat="29.749426" lon="99.560429"><time>2026-05-02T07:42:10.369Z</time></trkpt>
      <trkpt lat="29.749426" lon="99.560429"><time>2026-05-02T07:42:10.386Z</time></trkpt>
      <trkpt lat="29.749426" lon="99.560429"><time>2026-05-02T07:42:10.402Z</time></trkpt>
      <trkpt lat="29.749426" lon="99.560429"><time>2026-05-02T07:42:10.419Z</time></trkpt>
      <trkpt lat="29.749426" lon="99.560429"><time>2026-05-02T07:42:10.436Z</time></trkpt>
      <trkpt lat="29.749426" lon="99.560429"><time>2026-05-02T07:42:10.452Z</time></trkpt>
      <trkpt lat="29.749426" lon="99.560429"><time>2026-05-02T07:42:10.469Z</time></trkpt>
      <trkpt lat="29.749426" lon="99.560429"><time>2026-05-02T07:42:10.486Z</time></trkpt>
      <trkpt lat="29.749426" lon="99.560429"><time>2026-05-02T07:42:10.502Z</time></trkpt>
      <trkpt lat="29.749426" lon="99.560429"><time>2026-05-02T07:42:10.519Z</time></trkpt>
      <trkpt lat="29.749426" lon="99.560429"><time>2026-05-02T07:42:10.536Z</time></trkpt>
      <trkpt lat="29.749426" lon="99.560429"><time>2026-05-02T07:42:10.553Z</time></trkpt>
      <trkpt lat="29.749426" lon="99.560429"><time>2026-05-02T07:42:10.569Z</time></trkpt>
      <trkpt lat="29.749426" lon="99.560429"><time>2026-05-02T07:42:10.586Z</time></trkpt>
      <trkpt lat="29.749426" lon="99.560429"><time>2026-05-02T07:42:10.603Z</time></trkpt>
      <trkpt lat="29.749426" lon="99.560429"><time>2026-05-02T07:42:10.619Z</time></trkpt>
      <trkpt lat="29.749426" lon="99.560429"><time>2026-05-02T07:42:10.636Z</time></trkpt>
      <trkpt lat="29.749426" lon="99.560429"><time>2026-05-02T07:42:10.653Z</time></trkpt>
      <trkpt lat="29.749426" lon="99.560429"><time>2026-05-02T07:42:10.669Z</time></trkpt>
      <trkpt lat="29.749426" lon="99.560429"><time>2026-05-02T07:42:10.686Z</time></trkpt>
      <trkpt lat="29.749426" lon="99.560429"><time>2026-05-02T07:42:10.703Z</time></trkpt>
      <trkpt lat="29.749426" lon="99.560429"><time>2026-05-02T07:42:10.719Z</time></trkpt>
      <trkpt lat="29.749426" lon="99.560429"><time>2026-05-02T07:42:10.736Z</time></trkpt>
      <trkpt lat="29.749426" lon="99.560429"><time>2026-05-02T07:42:10.753Z</time></trkpt>
      <trkpt lat="29.749426" lon="99.560429"><time>2026-05-02T07:42:10.769Z</time></trkpt>
      <trkpt lat="29.749426" lon="99.560429"><time>2026-05-02T07:42:10.786Z</time></trkpt>
      <trkpt lat="29.749426" lon="99.560429"><time>2026-05-02T07:42:10.803Z</time></trkpt>
      <trkpt lat="29.749426" lon="99.560429"><time>2026-05-02T07:42:10.819Z</time></trkpt>
      <trkpt lat="29.749426" lon="99.560429"><time>2026-05-02T07:42:10.836Z</time></trkpt>
      <trkpt lat="29.749426" lon="99.560429"><time>2026-05-02T07:42:10.853Z</time></trkpt>
      <trkpt lat="29.749426" lon="99.560429"><time>2026-05-02T07:42:10.870Z</time></trkpt>
      <trkpt lat="29.749426" lon="99.560429"><time>2026-05-02T07:42:10.886Z</time></trkpt>
      <trkpt lat="29.749426" lon="99.560429"><time>2026-05-02T07:42:10.903Z</time></trkpt>
      <trkpt lat="29.749426" lon="99.560429"><time>2026-05-02T07:42:10.920Z</time></trkpt>
      <trkpt lat="29.749426" lon="99.560429"><time>2026-05-02T07:42:10.936Z</time></trkpt>
      <trkpt lat="29.749426" lon="99.560429"><time>2026-05-02T07:42:10.953Z</time></trkpt>
      <trkpt lat="29.749426" lon="99.560429"><time>2026-05-02T07:42:10.970Z</time></trkpt>
      <trkpt lat="29.749426" lon="99.560429"><time>2026-05-02T07:42:10.986Z</time></trkpt>
      <trkpt lat="29.749426" lon="99.560429"><time>2026-05-02T07:42:11.003Z</time></trkpt>
      <trkpt lat="29.749426" lon="99.560429"><time>2026-05-02T07:42:11.020Z</time></trkpt>
      <trkpt lat="29.749426" lon="99.560429"><time>2026-05-02T07:42:11.036Z</time></trkpt>
      <trkpt lat="29.749426" lon="99.560429"><time>2026-05-02T07:42:11.053Z</time></trkpt>
      <trkpt lat="29.749426" lon="99.560429"><time>2026-05-02T07:42:11.070Z</time></trkpt>
      <trkpt lat="29.749426" lon="99.560429"><time>2026-05-02T07:42:11.086Z</time></trkpt>
      <trkpt lat="29.749426" lon="99.560429"><time>2026-05-02T07:42:11.103Z</time></trkpt>
      <trkpt lat="29.749426" lon="99.560429"><time>2026-05-02T07:42:11.120Z</time></trkpt>
      <trkpt lat="29.749426" lon="99.560429"><time>2026-05-02T07:42:11.136Z</time></trkpt>
      <trkpt lat="29.749426" lon="99.560429"><time>2026-05-02T07:42:11.153Z</time></trkpt>
      <trkpt lat="29.749426" lon="99.560429"><time>2026-05-02T07:42:11.170Z</time></trkpt>
      <trkpt lat="29.749426" lon="99.560429"><time>2026-05-02T07:42:11.187Z</time></trkpt>
      <trkpt lat="29.749426" lon="99.560429"><time>2026-05-02T07:42:11.203Z</time></trkpt>
      <trkpt lat="29.749426" lon="99.560429"><time>2026-05-02T07:42:11.220Z</time></trkpt>
      <trkpt lat="29.749426" lon="99.560429"><time>2026-05-02T07:42:11.237Z</time></trkpt>
      <trkpt lat="29.749426" lon="99.560429"><time>2026-05-02T07:42:11.253Z</time></trkpt>
      <trkpt lat="29.749426" lon="99.560429"><time>2026-05-02T07:42:11.270Z</time></trkpt>
      <trkpt lat="29.749426" lon="99.560429"><time>2026-05-02T07:42:11.287Z</time></trkpt>
      <trkpt lat="29.749426" lon="99.560429"><time>2026-05-02T07:42:11.303Z</time></trkpt>
      <trkpt lat="29.749426" lon="99.560429"><time>2026-05-02T07:42:11.320Z</time></trkpt>
      <trkpt lat="29.749426" lon="99.560429"><time>2026-05-02T07:42:11.337Z</time></trkpt>
      <trkpt lat="29.749426" lon="99.560429"><time>2026-05-02T07:42:11.353Z</time></trkpt>
      <trkpt lat="29.749426" lon="99.560429"><time>2026-05-02T07:42:11.370Z</time></trkpt>
      <trkpt lat="29.749426" lon="99.560429"><time>2026-05-02T07:42:11.387Z</time></trkpt>
      <trkpt lat="29.749426" lon="99.560429"><time>2026-05-02T07:42:11.403Z</time></trkpt>
      <trkpt lat="29.749426" lon="99.560429"><time>2026-05-02T07:42:11.420Z</time></trkpt>
      <trkpt lat="29.749426" lon="99.560429"><time>2026-05-02T07:42:11.437Z</time></trkpt>
      <trkpt lat="29.749426" lon="99.560429"><time>2026-05-02T07:42:11.453Z</time></trkpt>
      <trkpt lat="29.749426" lon="99.560429"><time>2026-05-02T07:42:11.470Z</time></trkpt>
      <trkpt lat="29.749426" lon="99.560429"><time>2026-05-02T07:42:11.487Z</time></trkpt>
      <trkpt lat="29.749426" lon="99.560429"><time>2026-05-02T07:42:11.504Z</time></trkpt>
      <trkpt lat="29.749426" lon="99.560429"><time>2026-05-02T07:42:11.520Z</time></trkpt>
      <trkpt lat="29.749426" lon="99.560429"><time>2026-05-02T07:42:11.537Z</time></trkpt>
      <trkpt lat="29.749426" lon="99.560429"><time>2026-05-02T07:42:11.554Z</time></trkpt>
      <trkpt lat="29.749426" lon="99.560429"><time>2026-05-02T07:42:11.570Z</time></trkpt>
      <trkpt lat="29.749426" lon="99.560429"><time>2026-05-02T07:42:11.587Z</time></trkpt>
      <trkpt lat="29.749426" lon="99.560429"><time>2026-05-02T07:42:11.604Z</time></trkpt>
      <trkpt lat="29.749426" lon="99.560429"><time>2026-05-02T07:42:11.620Z</time></trkpt>
      <trkpt lat="29.749426" lon="99.560429"><time>2026-05-02T07:42:11.637Z</time></trkpt>
      <trkpt lat="29.749426" lon="99.560429"><time>2026-05-02T07:42:11.654Z</time></trkpt>
      <trkpt lat="29.749426" lon="99.560429"><time>2026-05-02T07:42:11.670Z</time></trkpt>
      <trkpt lat="29.749426" lon="99.560429"><time>2026-05-02T07:42:11.687Z</time></trkpt>
      <trkpt lat="29.749426" lon="99.560429"><time>2026-05-02T07:42:11.704Z</time></trkpt>
      <trkpt lat="29.749426" lon="99.560429"><time>2026-05-02T07:42:11.720Z</time></trkpt>
      <trkpt lat="29.749426" lon="99.560429"><time>2026-05-02T07:42:11.737Z</time></trkpt>
      <trkpt lat="29.749426" lon="99.560429"><time>2026-05-02T07:42:11.754Z</time></trkpt>
      <trkpt lat="29.749426" lon="99.560429"><time>2026-05-02T07:42:11.770Z</time></trkpt>
      <trkpt lat="29.749426" lon="99.560429"><time>2026-05-02T07:42:11.787Z</time></trkpt>
      <trkpt lat="29.749426" lon="99.560429"><time>2026-05-02T07:42:11.804Z</time></trkpt>
      <trkpt lat="29.749426" lon="99.560429"><time>2026-05-02T07:42:11.821Z</time></trkpt>
      <trkpt lat="29.749426" lon="99.560429"><time>2026-05-02T07:42:11.837Z</time></trkpt>
      <trkpt lat="29.749426" lon="99.560429"><time>2026-05-02T07:42:11.854Z</time></trkpt>
      <trkpt lat="29.749426" lon="99.560429"><time>2026-05-02T07:42:11.871Z</time></trkpt>
      <trkpt lat="29.749426" lon="99.560429"><time>2026-05-02T07:42:11.887Z</time></trkpt>
      <trkpt lat="29.749426" lon="99.560429"><time>2026-05-02T07:42:11.904Z</time></trkpt>
      <trkpt lat="29.749426" lon="99.560429"><time>2026-05-02T07:42:11.921Z</time></trkpt>
      <trkpt lat="29.749426" lon="99.560429"><time>2026-05-02T07:42:11.937Z</time></trkpt>
      <trkpt lat="29.749426" lon="99.560429"><time>2026-05-02T07:42:11.954Z</time></trkpt>
      <trkpt lat="29.749426" lon="99.560429"><time>2026-05-02T07:42:11.971Z</time></trkpt>
      <trkpt lat="29.749426" lon="99.560429"><time>2026-05-02T07:42:11.987Z</time></trkpt>
      <trkpt lat="29.749426" lon="99.560429"><time>2026-05-02T07:42:12.004Z</time></trkpt>
      <trkpt lat="29.749426" lon="99.560429"><time>2026-05-02T07:42:12.021Z</time></trkpt>
      <trkpt lat="29.749426" lon="99.560429"><time>2026-05-02T07:42:12.037Z</time></trkpt>
      <trkpt lat="29.749426" lon="99.560429"><time>2026-05-02T07:42:12.054Z</time></trkpt>
      <trkpt lat="29.749426" lon="99.560429"><time>2026-05-02T07:42:12.071Z</time></trkpt>
      <trkpt lat="29.749426" lon="99.560429"><time>2026-05-02T07:42:12.087Z</time></trkpt>
      <trkpt lat="29.749426" lon="99.560429"><time>2026-05-02T07:42:12.104Z</time></trkpt>
      <trkpt lat="29.749426" lon="99.560429"><time>2026-05-02T07:42:12.121Z</time></trkpt>
      <trkpt lat="29.749426" lon="99.560429"><time>2026-05-02T07:42:12.138Z</time></trkpt>
      <trkpt lat="29.749426" lon="99.560429"><time>2026-05-02T07:42:12.154Z</time></trkpt>
      <trkpt lat="29.749426" lon="99.560429"><time>2026-05-02T07:42:12.171Z</time></trkpt>
      <trkpt lat="29.749426" lon="99.560429"><time>2026-05-02T07:42:12.188Z</time></trkpt>
      <trkpt lat="29.749426" lon="99.560429"><time>2026-05-02T07:42:12.204Z</time></trkpt>
      <trkpt lat="29.749426" lon="99.560429"><time>2026-05-02T07:42:12.221Z</time></trkpt>
      <trkpt lat="29.749426" lon="99.560429"><time>2026-05-02T07:42:12.238Z</time></trkpt>
      <trkpt lat="29.749426" lon="99.560429"><time>2026-05-02T07:42:12.254Z</time></trkpt>
      <trkpt lat="29.749426" lon="99.560429"><time>2026-05-02T07:42:12.271Z</time></trkpt>
      <trkpt lat="29.749426" lon="99.560429"><time>2026-05-02T07:42:12.288Z</time></trkpt>
      <trkpt lat="29.749426" lon="99.560429"><time>2026-05-02T07:42:12.304Z</time></trkpt>
      <trkpt lat="29.749426" lon="99.560429"><time>2026-05-02T07:42:12.321Z</time></trkpt>
      <trkpt lat="29.749426" lon="99.560429"><time>2026-05-02T07:42:12.338Z</time></trkpt>
      <trkpt lat="29.749426" lon="99.560429"><time>2026-05-02T07:42:12.354Z</time></trkpt>
      <trkpt lat="29.749426" lon="99.560429"><time>2026-05-02T07:42:12.371Z</time></trkpt>
      <trkpt lat="29.749426" lon="99.560429"><time>2026-05-02T07:42:12.388Z</time></trkpt>
      <trkpt lat="29.749426" lon="99.560429"><time>2026-05-02T07:42:12.404Z</time></trkpt>
      <trkpt lat="29.749426" lon="99.560429"><time>2026-05-02T07:42:12.421Z</time></trkpt>
      <trkpt lat="29.749426" lon="99.560429"><time>2026-05-02T07:42:12.438Z</time></trkpt>
      <trkpt lat="29.749426" lon="99.560429"><time>2026-05-02T07:42:12.455Z</time></trkpt>
      <trkpt lat="29.749426" lon="99.560429"><time>2026-05-02T07:42:12.471Z</time></trkpt>
      <trkpt lat="29.749426" lon="99.560429"><time>2026-05-02T07:42:12.488Z</time></trkpt>
      <trkpt lat="29.749426" lon="99.560429"><time>2026-05-02T07:42:12.505Z</time></trkpt>
      <trkpt lat="29.749426" lon="99.560429"><time>2026-05-02T07:42:12.521Z</time></trkpt>
      <trkpt lat="29.749426" lon="99.560429"><time>2026-05-02T07:42:12.538Z</time></trkpt>
      <trkpt lat="29.749426" lon="99.560429"><time>2026-05-02T07:42:12.555Z</time></trkpt>
      <trkpt lat="29.749426" lon="99.560429"><time>2026-05-02T07:42:12.571Z</time></trkpt>
      <trkpt lat="29.749426" lon="99.560429"><time>2026-05-02T07:42:12.588Z</time></trkpt>
      <trkpt lat="29.749426" lon="99.560429"><time>2026-05-02T07:42:12.605Z</time></trkpt>
      <trkpt lat="29.749426" lon="99.560429"><time>2026-05-02T07:42:12.621Z</time></trkpt>
      <trkpt lat="29.749426" lon="99.560429"><time>2026-05-02T07:42:12.638Z</time></trkpt>
      <trkpt lat="29.749425" lon="99.560429"><time>2026-05-02T07:42:12.655Z</time></trkpt>
      <trkpt lat="29.749425" lon="99.560429"><time>2026-05-02T07:42:12.671Z</time></trkpt>
      <trkpt lat="29.749425" lon="99.560429"><time>2026-05-02T07:42:12.688Z</time></trkpt>
      <trkpt lat="29.749425" lon="99.560429"><time>2026-05-02T07:42:12.705Z</time></trkpt>
      <trkpt lat="29.749425" lon="99.560429"><time>2026-05-02T07:42:12.721Z</time></trkpt>
      <trkpt lat="29.749425" lon="99.560429"><time>2026-05-02T07:42:12.738Z</time></trkpt>
      <trkpt lat="29.749425" lon="99.560429"><time>2026-05-02T07:42:12.755Z</time></trkpt>
      <trkpt lat="29.749425" lon="99.560429"><time>2026-05-02T07:42:12.772Z</time></trkpt>
      <trkpt lat="29.749425" lon="99.560429"><time>2026-05-02T07:42:12.788Z</time></trkpt>
      <trkpt lat="29.749425" lon="99.560429"><time>2026-05-02T07:42:12.805Z</time></trkpt>
      <trkpt lat="29.749425" lon="99.560429"><time>2026-05-02T07:42:12.822Z</time></trkpt>
      <trkpt lat="29.749425" lon="99.560429"><time>2026-05-02T07:42:12.838Z</time></trkpt>
      <trkpt lat="29.749425" lon="99.560429"><time>2026-05-02T07:42:12.855Z</time></trkpt>
      <trkpt lat="29.749425" lon="99.560429"><time>2026-05-02T07:42:12.872Z</time></trkpt>
      <trkpt lat="29.749425" lon="99.560429"><time>2026-05-02T07:42:12.888Z</time></trkpt>
      <trkpt lat="29.749425" lon="99.560429"><time>2026-05-02T07:42:12.905Z</time></trkpt>
      <trkpt lat="29.749425" lon="99.560429"><time>2026-05-02T07:42:12.922Z</time></trkpt>
      <trkpt lat="29.749425" lon="99.560429"><time>2026-05-02T07:42:12.938Z</time></trkpt>
      <trkpt lat="29.749426" lon="99.560429"><time>2026-05-02T07:42:12.955Z</time></trkpt>
      <trkpt lat="29.749426" lon="99.560429"><time>2026-05-02T07:42:12.972Z</time></trkpt>
      <trkpt lat="29.749426" lon="99.560429"><time>2026-05-02T07:42:12.988Z</time></trkpt>
      <trkpt lat="29.749426" lon="99.560429"><time>2026-05-02T07:42:13.005Z</time></trkpt>
      <trkpt lat="29.749426" lon="99.560429"><time>2026-05-02T07:42:13.022Z</time></trkpt>
      <trkpt lat="29.749426" lon="99.560429"><time>2026-05-02T07:42:13.038Z</time></trkpt>
      <trkpt lat="29.749426" lon="99.560429"><time>2026-05-02T07:42:13.055Z</time></trkpt>
      <trkpt lat="29.749426" lon="99.560429"><time>2026-05-02T07:42:13.072Z</time></trkpt>
      <trkpt lat="29.749426" lon="99.560429"><time>2026-05-02T07:42:13.089Z</time></trkpt>
      <trkpt lat="29.749426" lon="99.560429"><time>2026-05-02T07:42:13.105Z</time></trkpt>
      <trkpt lat="29.749426" lon="99.560429"><time>2026-05-02T07:42:13.122Z</time></trkpt>
      <trkpt lat="29.749426" lon="99.560429"><time>2026-05-02T07:42:13.139Z</time></trkpt>
      <trkpt lat="29.749426" lon="99.560429"><time>2026-05-02T07:42:13.155Z</time></trkpt>
      <trkpt lat="29.749426" lon="99.560429"><time>2026-05-02T07:42:13.172Z</time></trkpt>
      <trkpt lat="29.749426" lon="99.560429"><time>2026-05-02T07:42:13.189Z</time></trkpt>
      <trkpt lat="29.749426" lon="99.560429"><time>2026-05-02T07:42:13.205Z</time></trkpt>
      <trkpt lat="29.749426" lon="99.560429"><time>2026-05-02T07:42:13.222Z</time></trkpt>
      <trkpt lat="29.749426" lon="99.560429"><time>2026-05-02T07:42:13.239Z</time></trkpt>
      <trkpt lat="29.749426" lon="99.560429"><time>2026-05-02T07:42:13.255Z</time></trkpt>
      <trkpt lat="29.749426" lon="99.560429"><time>2026-05-02T07:42:13.272Z</time></trkpt>
      <trkpt lat="29.749426" lon="99.560429"><time>2026-05-02T07:42:13.289Z</time></trkpt>
      <trkpt lat="29.749426" lon="99.560429"><time>2026-05-02T07:42:13.305Z</time></trkpt>
      <trkpt lat="29.749426" lon="99.560429"><time>2026-05-02T07:42:13.322Z</time></trkpt>
      <trkpt lat="29.749426" lon="99.560429"><time>2026-05-02T07:42:13.339Z</time></trkpt>
      <trkpt lat="29.749426" lon="99.560429"><time>2026-05-02T07:42:13.355Z</time></trkpt>
      <trkpt lat="29.749426" lon="99.560429"><time>2026-05-02T07:42:13.372Z</time></trkpt>
      <trkpt lat="29.749426" lon="99.560429"><time>2026-05-02T07:42:13.389Z</time></trkpt>
      <trkpt lat="29.749426" lon="99.560429"><time>2026-05-02T07:42:13.406Z</time></trkpt>
      <trkpt lat="29.749426" lon="99.560429"><time>2026-05-02T07:42:13.422Z</time></trkpt>
      <trkpt lat="29.749426" lon="99.560429"><time>2026-05-02T07:42:13.439Z</time></trkpt>
      <trkpt lat="29.749426" lon="99.560429"><time>2026-05-02T07:42:13.456Z</time></trkpt>
      <trkpt lat="29.749426" lon="99.560429"><time>2026-05-02T07:42:13.472Z</time></trkpt>
      <trkpt lat="29.749426" lon="99.560429"><time>2026-05-02T07:42:13.489Z</time></trkpt>
      <trkpt lat="29.749426" lon="99.560429"><time>2026-05-02T07:42:13.506Z</time></trkpt>
      <trkpt lat="29.749426" lon="99.560429"><time>2026-05-02T07:42:13.522Z</time></trkpt>
      <trkpt lat="29.749426" lon="99.560429"><time>2026-05-02T07:42:13.539Z</time></trkpt>
      <trkpt lat="29.749426" lon="99.560429"><time>2026-05-02T07:42:13.556Z</time></trkpt>
      <trkpt lat="29.749426" lon="99.560429"><time>2026-05-02T07:42:13.572Z</time></trkpt>
      <trkpt lat="29.749426" lon="99.560429"><time>2026-05-02T07:42:13.589Z</time></trkpt>
      <trkpt lat="29.749426" lon="99.560429"><time>2026-05-02T07:42:13.606Z</time></trkpt>
      <trkpt lat="29.749426" lon="99.560429"><time>2026-05-02T07:42:13.622Z</time></trkpt>
      <trkpt lat="29.749426" lon="99.560429"><time>2026-05-02T07:42:13.639Z</time></trkpt>
      <trkpt lat="29.749426" lon="99.560429"><time>2026-05-02T07:42:13.656Z</time></trkpt>
      <trkpt lat="29.749426" lon="99.560429"><time>2026-05-02T07:42:13.672Z</time></trkpt>
      <trkpt lat="29.749426" lon="99.560429"><time>2026-05-02T07:42:13.689Z</time></trkpt>
      <trkpt lat="29.749426" lon="99.560429"><time>2026-05-02T07:42:13.706Z</time></trkpt>
      <trkpt lat="29.749426" lon="99.560429"><time>2026-05-02T07:42:13.723Z</time></trkpt>
      <trkpt lat="29.749426" lon="99.560429"><time>2026-05-02T07:42:13.739Z</time></trkpt>
      <trkpt lat="29.749425" lon="99.560429"><time>2026-05-02T07:42:13.756Z</time></trkpt>
      <trkpt lat="29.749425" lon="99.560429"><time>2026-05-02T07:42:13.773Z</time></trkpt>
      <trkpt lat="29.749425" lon="99.560429"><time>2026-05-02T07:42:13.789Z</time></trkpt>
      <trkpt lat="29.749425" lon="99.560429"><time>2026-05-02T07:42:13.806Z</time></trkpt>
      <trkpt lat="29.749425" lon="99.560429"><time>2026-05-02T07:42:13.823Z</time></trkpt>
      <trkpt lat="29.749425" lon="99.560429"><time>2026-05-02T07:42:13.839Z</time></trkpt>
      <trkpt lat="29.749425" lon="99.560429"><time>2026-05-02T07:42:13.856Z</time></trkpt>
      <trkpt lat="29.749425" lon="99.560429"><time>2026-05-02T07:42:13.873Z</time></trkpt>
      <trkpt lat="29.749425" lon="99.560429"><time>2026-05-02T07:42:13.889Z</time></trkpt>
      <trkpt lat="29.749425" lon="99.560429"><time>2026-05-02T07:42:13.906Z</time></trkpt>
      <trkpt lat="29.749425" lon="99.560429"><time>2026-05-02T07:42:13.923Z</time></trkpt>
      <trkpt lat="29.749425" lon="99.560429"><time>2026-05-02T07:42:13.939Z</time></trkpt>
      <trkpt lat="29.749425" lon="99.560429"><time>2026-05-02T07:42:13.956Z</time></trkpt>
      <trkpt lat="29.749425" lon="99.560429"><time>2026-05-02T07:42:13.973Z</time></trkpt>
      <trkpt lat="29.749425" lon="99.560429"><time>2026-05-02T07:42:13.989Z</time></trkpt>
      <trkpt lat="29.749425" lon="99.560429"><time>2026-05-02T07:42:14.006Z</time></trkpt>
      <trkpt lat="29.749425" lon="99.560429"><time>2026-05-02T07:42:14.023Z</time></trkpt>
      <trkpt lat="29.749425" lon="99.560429"><time>2026-05-02T07:42:14.040Z</time></trkpt>
      <trkpt lat="29.749425" lon="99.560429"><time>2026-05-02T07:42:14.056Z</time></trkpt>
      <trkpt lat="29.749425" lon="99.560429"><time>2026-05-02T07:42:14.073Z</time></trkpt>
      <trkpt lat="29.749425" lon="99.560429"><time>2026-05-02T07:42:14.090Z</time></trkpt>
      <trkpt lat="29.749425" lon="99.560429"><time>2026-05-02T07:42:14.106Z</time></trkpt>
      <trkpt lat="29.749425" lon="99.560429"><time>2026-05-02T07:42:14.123Z</time></trkpt>
      <trkpt lat="29.749425" lon="99.560429"><time>2026-05-02T07:42:14.140Z</time></trkpt>
      <trkpt lat="29.749425" lon="99.560429"><time>2026-05-02T07:42:14.156Z</time></trkpt>
      <trkpt lat="29.749425" lon="99.560429"><time>2026-05-02T07:42:14.173Z</time></trkpt>
      <trkpt lat="29.749425" lon="99.560429"><time>2026-05-02T07:42:14.190Z</time></trkpt>
      <trkpt lat="29.749425" lon="99.560429"><time>2026-05-02T07:42:14.206Z</time></trkpt>
      <trkpt lat="29.749425" lon="99.560429"><time>2026-05-02T07:42:14.223Z</time></trkpt>
      <trkpt lat="29.749425" lon="99.560429"><time>2026-05-02T07:42:14.240Z</time></trkpt>
      <trkpt lat="29.749425" lon="99.560429"><time>2026-05-02T07:42:14.256Z</time></trkpt>
      <trkpt lat="29.749425" lon="99.560429"><time>2026-05-02T07:42:14.273Z</time></trkpt>
      <trkpt lat="29.749425" lon="99.560429"><time>2026-05-02T07:42:14.290Z</time></trkpt>
      <trkpt lat="29.749425" lon="99.560429"><time>2026-05-02T07:42:14.306Z</time></trkpt>
      <trkpt lat="29.749425" lon="99.560429"><time>2026-05-02T07:42:14.323Z</time></trkpt>
      <trkpt lat="29.749425" lon="99.560429"><time>2026-05-02T07:42:14.340Z</time></trkpt>
      <trkpt lat="29.749425" lon="99.560429"><time>2026-05-02T07:42:14.356Z</time></trkpt>
      <trkpt lat="29.749425" lon="99.560429"><time>2026-05-02T07:42:14.373Z</time></trkpt>
      <trkpt lat="29.749425" lon="99.560429"><time>2026-05-02T07:42:14.390Z</time></trkpt>
      <trkpt lat="29.749425" lon="99.560429"><time>2026-05-02T07:42:14.407Z</time></trkpt>
      <trkpt lat="29.749425" lon="99.560429"><time>2026-05-02T07:42:14.423Z</time></trkpt>
      <trkpt lat="29.749425" lon="99.560429"><time>2026-05-02T07:42:14.440Z</time></trkpt>
      <trkpt lat="29.749425" lon="99.560429"><time>2026-05-02T07:42:14.457Z</time></trkpt>
      <trkpt lat="29.749425" lon="99.560429"><time>2026-05-02T07:42:14.473Z</time></trkpt>
      <trkpt lat="29.749425" lon="99.560429"><time>2026-05-02T07:42:14.490Z</time></trkpt>
      <trkpt lat="29.749425" lon="99.560429"><time>2026-05-02T07:42:14.507Z</time></trkpt>
      <trkpt lat="29.749425" lon="99.560429"><time>2026-05-02T07:42:14.523Z</time></trkpt>
      <trkpt lat="29.749425" lon="99.560429"><time>2026-05-02T07:42:14.540Z</time></trkpt>
      <trkpt lat="29.749425" lon="99.560429"><time>2026-05-02T07:42:14.557Z</time></trkpt>
      <trkpt lat="29.749425" lon="99.560429"><time>2026-05-02T07:42:14.573Z</time></trkpt>
      <trkpt lat="29.749425" lon="99.560429"><time>2026-05-02T07:42:14.590Z</time></trkpt>
      <trkpt lat="29.749425" lon="99.560429"><time>2026-05-02T07:42:14.607Z</time></trkpt>
      <trkpt lat="29.749425" lon="99.560429"><time>2026-05-02T07:42:14.623Z</time></trkpt>
      <trkpt lat="29.749425" lon="99.560429"><time>2026-05-02T07:42:14.640Z</time></trkpt>
      <trkpt lat="29.749425" lon="99.560429"><time>2026-05-02T07:42:14.657Z</time></trkpt>
      <trkpt lat="29.749425" lon="99.560429"><time>2026-05-02T07:42:14.673Z</time></trkpt>
      <trkpt lat="29.749425" lon="99.560429"><time>2026-05-02T07:42:14.690Z</time></trkpt>
      <trkpt lat="29.749425" lon="99.560429"><time>2026-05-02T07:42:14.707Z</time></trkpt>
      <trkpt lat="29.749425" lon="99.560429"><time>2026-05-02T07:42:14.724Z</time></trkpt>
      <trkpt lat="29.749425" lon="99.560429"><time>2026-05-02T07:42:14.740Z</time></trkpt>
      <trkpt lat="29.749425" lon="99.560429"><time>2026-05-02T07:42:14.757Z</time></trkpt>
      <trkpt lat="29.749425" lon="99.560429"><time>2026-05-02T07:42:14.774Z</time></trkpt>
      <trkpt lat="29.749425" lon="99.560429"><time>2026-05-02T07:42:14.790Z</time></trkpt>
      <trkpt lat="29.749425" lon="99.560429"><time>2026-05-02T07:42:14.807Z</time></trkpt>
      <trkpt lat="29.749425" lon="99.560429"><time>2026-05-02T07:42:14.824Z</time></trkpt>
      <trkpt lat="29.749425" lon="99.560429"><time>2026-05-02T07:42:14.840Z</time></trkpt>
      <trkpt lat="29.749425" lon="99.560429"><time>2026-05-02T07:42:14.857Z</time></trkpt>
      <trkpt lat="29.749425" lon="99.560429"><time>2026-05-02T07:42:14.874Z</time></trkpt>
      <trkpt lat="29.749425" lon="99.560429"><time>2026-05-02T07:42:14.890Z</time></trkpt>
      <trkpt lat="29.749425" lon="99.560429"><time>2026-05-02T07:42:14.907Z</time></trkpt>
      <trkpt lat="29.749425" lon="99.560429"><time>2026-05-02T07:42:14.924Z</time></trkpt>
      <trkpt lat="29.749425" lon="99.560429"><time>2026-05-02T07:42:14.940Z</time></trkpt>
      <trkpt lat="29.749425" lon="99.560429"><time>2026-05-02T07:42:14.957Z</time></trkpt>
      <trkpt lat="29.749425" lon="99.560429"><time>2026-05-02T07:42:14.974Z</time></trkpt>
      <trkpt lat="29.749425" lon="99.560429"><time>2026-05-02T07:42:14.990Z</time></trkpt>
      <trkpt lat="29.749425" lon="99.560429"><time>2026-05-02T07:42:15.007Z</time></trkpt>
      <trkpt lat="29.749425" lon="99.560429"><time>2026-05-02T07:42:15.024Z</time></trkpt>
      <trkpt lat="29.749425" lon="99.560429"><time>2026-05-02T07:42:15.041Z</time></trkpt>
      <trkpt lat="29.749425" lon="99.560429"><time>2026-05-02T07:42:15.057Z</time></trkpt>
      <trkpt lat="29.749425" lon="99.560429"><time>2026-05-02T07:42:15.074Z</time></trkpt>
      <trkpt lat="29.749425" lon="99.560429"><time>2026-05-02T07:42:15.091Z</time></trkpt>
      <trkpt lat="29.749425" lon="99.560429"><time>2026-05-02T07:42:15.107Z</time></trkpt>
      <trkpt lat="29.749425" lon="99.560429"><time>2026-05-02T07:42:15.124Z</time></trkpt>
      <trkpt lat="29.749425" lon="99.560429"><time>2026-05-02T07:42:15.141Z</time></trkpt>
      <trkpt lat="29.749425" lon="99.560429"><time>2026-05-02T07:42:15.157Z</time></trkpt>
      <trkpt lat="29.749425" lon="99.560429"><time>2026-05-02T07:42:15.174Z</time></trkpt>
      <trkpt lat="29.749425" lon="99.560429"><time>2026-05-02T07:42:15.191Z</time></trkpt>
      <trkpt lat="29.749425" lon="99.560429"><time>2026-05-02T07:42:15.207Z</time></trkpt>
      <trkpt lat="29.749425" lon="99.560429"><time>2026-05-02T07:42:15.224Z</time></trkpt>
      <trkpt lat="29.749425" lon="99.560429"><time>2026-05-02T07:42:15.241Z</time></trkpt>
      <trkpt lat="29.749425" lon="99.560429"><time>2026-05-02T07:42:15.257Z</time></trkpt>
      <trkpt lat="29.749425" lon="99.560429"><time>2026-05-02T07:42:15.274Z</time></trkpt>
      <trkpt lat="29.749425" lon="99.560429"><time>2026-05-02T07:42:15.291Z</time></trkpt>
      <trkpt lat="29.749425" lon="99.560429"><time>2026-05-02T07:42:15.307Z</time></trkpt>
      <trkpt lat="29.749425" lon="99.560429"><time>2026-05-02T07:42:15.324Z</time></trkpt>
      <trkpt lat="29.749425" lon="99.560429"><time>2026-05-02T07:42:15.341Z</time></trkpt>
      <trkpt lat="29.749425" lon="99.560429"><time>2026-05-02T07:42:15.358Z</time></trkpt>
      <trkpt lat="29.749425" lon="99.560429"><time>2026-05-02T07:42:15.374Z</time></trkpt>
      <trkpt lat="29.749425" lon="99.560429"><time>2026-05-02T07:42:15.391Z</time></trkpt>
      <trkpt lat="29.749425" lon="99.560429"><time>2026-05-02T07:42:15.408Z</time></trkpt>
      <trkpt lat="29.749425" lon="99.560429"><time>2026-05-02T07:42:15.424Z</time></trkpt>
      <trkpt lat="29.749425" lon="99.560429"><time>2026-05-02T07:42:15.441Z</time></trkpt>
      <trkpt lat="29.749425" lon="99.560429"><time>2026-05-02T07:42:15.458Z</time></trkpt>
      <trkpt lat="29.749425" lon="99.560429"><time>2026-05-02T07:42:15.474Z</time></trkpt>
      <trkpt lat="29.749425" lon="99.560429"><time>2026-05-02T07:42:15.491Z</time></trkpt>
      <trkpt lat="29.749425" lon="99.560429"><time>2026-05-02T07:42:15.508Z</time></trkpt>
      <trkpt lat="29.749425" lon="99.560429"><time>2026-05-02T07:42:15.524Z</time></trkpt>
      <trkpt lat="29.749425" lon="99.560429"><time>2026-05-02T07:42:15.541Z</time></trkpt>
      <trkpt lat="29.749425" lon="99.560429"><time>2026-05-02T07:42:15.558Z</time></trkpt>
      <trkpt lat="29.749425" lon="99.560429"><time>2026-05-02T07:42:15.574Z</time></trkpt>
      <trkpt lat="29.749425" lon="99.560429"><time>2026-05-02T07:42:15.591Z</time></trkpt>
      <trkpt lat="29.749425" lon="99.560429"><time>2026-05-02T07:42:15.608Z</time></trkpt>
      <trkpt lat="29.749425" lon="99.560429"><time>2026-05-02T07:42:15.624Z</time></trkpt>
      <trkpt lat="29.749425" lon="99.560429"><time>2026-05-02T07:42:15.641Z</time></trkpt>
      <trkpt lat="29.749425" lon="99.560429"><time>2026-05-02T07:42:15.658Z</time></trkpt>
      <trkpt lat="29.749425" lon="99.560429"><time>2026-05-02T07:42:15.675Z</time></trkpt>
      <trkpt lat="29.749425" lon="99.560429"><time>2026-05-02T07:42:15.691Z</time></trkpt>
      <trkpt lat="29.749425" lon="99.560429"><time>2026-05-02T07:42:15.708Z</time></trkpt>
      <trkpt lat="29.749425" lon="99.560429"><time>2026-05-02T07:42:15.725Z</time></trkpt>
      <trkpt lat="29.749425" lon="99.560429"><time>2026-05-02T07:42:15.741Z</time></trkpt>
      <trkpt lat="29.749425" lon="99.560429"><time>2026-05-02T07:42:15.758Z</time></trkpt>
      <trkpt lat="29.749425" lon="99.560429"><time>2026-05-02T07:42:15.775Z</time></trkpt>
      <trkpt lat="29.749425" lon="99.560429"><time>2026-05-02T07:42:15.791Z</time></trkpt>
      <trkpt lat="29.749425" lon="99.560429"><time>2026-05-02T07:42:15.808Z</time></trkpt>
      <trkpt lat="29.749425" lon="99.560429"><time>2026-05-02T07:42:15.825Z</time></trkpt>
      <trkpt lat="29.749425" lon="99.560429"><time>2026-05-02T07:42:15.841Z</time></trkpt>
      <trkpt lat="29.749425" lon="99.56043"><time>2026-05-02T07:42:15.858Z</time></trkpt>
      <trkpt lat="29.749425" lon="99.56043"><time>2026-05-02T07:42:15.875Z</time></trkpt>
      <trkpt lat="29.749425" lon="99.56043"><time>2026-05-02T07:42:15.891Z</time></trkpt>
      <trkpt lat="29.749425" lon="99.56043"><time>2026-05-02T07:42:15.908Z</time></trkpt>
      <trkpt lat="29.749425" lon="99.56043"><time>2026-05-02T07:42:15.925Z</time></trkpt>
      <trkpt lat="29.749425" lon="99.56043"><time>2026-05-02T07:42:15.941Z</time></trkpt>
      <trkpt lat="29.749425" lon="99.56043"><time>2026-05-02T07:42:15.958Z</time></trkpt>
      <trkpt lat="29.749425" lon="99.56043"><time>2026-05-02T07:42:15.975Z</time></trkpt>
      <trkpt lat="29.749425" lon="99.56043"><time>2026-05-02T07:42:15.992Z</time></trkpt>
      <trkpt lat="29.749425" lon="99.56043"><time>2026-05-02T07:42:16.008Z</time></trkpt>
      <trkpt lat="29.749425" lon="99.56043"><time>2026-05-02T07:42:16.025Z</time></trkpt>
      <trkpt lat="29.749425" lon="99.56043"><time>2026-05-02T07:42:16.042Z</time></trkpt>
      <trkpt lat="29.749425" lon="99.56043"><time>2026-05-02T07:42:16.058Z</time></trkpt>
      <trkpt lat="29.749425" lon="99.56043"><time>2026-05-02T07:42:16.075Z</time></trkpt>
      <trkpt lat="29.749425" lon="99.56043"><time>2026-05-02T07:42:16.092Z</time></trkpt>
      <trkpt lat="29.749425" lon="99.56043"><time>2026-05-02T07:42:16.108Z</time></trkpt>
      <trkpt lat="29.749425" lon="99.56043"><time>2026-05-02T07:42:16.125Z</time></trkpt>
      <trkpt lat="29.749425" lon="99.56043"><time>2026-05-02T07:42:16.142Z</time></trkpt>
      <trkpt lat="29.749425" lon="99.560429"><time>2026-05-02T07:42:16.158Z</time></trkpt>
      <trkpt lat="29.749425" lon="99.560429"><time>2026-05-02T07:42:16.175Z</time></trkpt>
      <trkpt lat="29.749425" lon="99.560429"><time>2026-05-02T07:42:16.192Z</time></trkpt>
      <trkpt lat="29.749425" lon="99.560429"><time>2026-05-02T07:42:16.208Z</time></trkpt>
      <trkpt lat="29.749425" lon="99.560429"><time>2026-05-02T07:42:16.225Z</time></trkpt>
      <trkpt lat="29.749425" lon="99.560429"><time>2026-05-02T07:42:16.242Z</time></trkpt>
    </trkseg>
  </trk>
</gpx>
