<?xml version="1.0" encoding="UTF-8"?>
<gpx version="1.1" creator="Pyxis" xmlns="http://www.topografix.com/GPX/1/1">
  <trk>
    <name>trip-20260424-9acd9ffa-3f1f-4717-8b22-eca5c3fa9087_2026-04-30_0000-0400</name>
    <trkseg>
      <trkpt lat="28.665608" lon="97.4624525">
        <ele>2296.2001953125</ele>
        <time>2026-04-29T16:13:45.388Z</time>
        <speed>0.0</speed>
      </trkpt>
      <trkpt lat="28.665605" lon="97.4624832">
        <ele>2335.235179218752</ele>
        <time>2026-04-29T16:47:32.385Z</time>
        <speed>0.0</speed>
      </trkpt>
      <trkpt lat="28.6656053" lon="97.4625139">
        <ele>2333.1095175174446</ele>
        <time>2026-04-29T17:24:42.380Z</time>
        <speed>0.0</speed>
      </trkpt>
      <trkpt lat="28.6655503" lon="97.4625448">
        <ele>2333.677199123513</ele>
        <time>2026-04-29T17:28:10.382Z</time>
        <speed>0.0</speed>
      </trkpt>
      <trkpt lat="28.6654994" lon="97.462569">
        <ele>2333.7113109649354</ele>
        <time>2026-04-29T17:28:14.382Z</time>
        <speed>0.0</speed>
      </trkpt>
      <trkpt lat="28.6654869" lon="97.4626102">
        <ele>2333.685656389466</ele>
        <time>2026-04-29T17:28:18.383Z</time>
        <speed>0.0</speed>
      </trkpt>
      <trkpt lat="28.6658863" lon="97.4627564">
        <ele>2265.609375</ele>
        <time>2026-04-29T19:37:09.661Z</time>
        <speed>4.01</speed>
      </trkpt>
      <trkpt lat="28.6654877" lon="97.4627015">
        <ele>2265.9130859375</ele>
        <time>2026-04-29T19:37:46.955Z</time>
        <speed>0.0</speed>
      </trkpt>
      <trkpt lat="28.665374" lon="97.462595">
        <ele>2265.9130859375</ele>
        <time>2026-04-29T19:37:49.956Z</time>
        <speed>0.5630198</speed>
      </trkpt>
      <trkpt lat="28.6654294" lon="97.4625786">
        <ele>2248.11181640625</ele>
        <time>2026-04-29T19:37:55.955Z</time>
        <speed>0.025915522</speed>
      </trkpt>
      <trkpt lat="28.6654572" lon="97.4625819">
        <ele>2265.7277046490403</ele>
        <time>2026-04-29T19:37:58.956Z</time>
        <speed>0.1787445</speed>
      </trkpt>
      <trkpt lat="28.6655058" lon="97.4625809">
        <ele>2265.9267625270263</ele>
        <time>2026-04-29T19:38:02.957Z</time>
        <speed>0.1009154</speed>
      </trkpt>
      <trkpt lat="28.6655313" lon="97.4624735">
        <ele>2265.7694183150925</ele>
        <time>2026-04-29T19:38:14.958Z</time>
        <speed>0.53466344</speed>
      </trkpt>
      <trkpt lat="28.6655517" lon="97.4624109">
        <ele>2248.139853482776</ele>
        <time>2026-04-29T19:38:19.956Z</time>
        <speed>0.69484884</speed>
      </trkpt>
      <trkpt lat="28.665492" lon="97.4623972">
        <ele>2248.139853482776</ele>
        <time>2026-04-29T19:38:27.956Z</time>
        <speed>0.513694</speed>
      </trkpt>
      <trkpt lat="28.6654543" lon="97.4624213">
        <ele>2248.139853482776</ele>
        <time>2026-04-29T19:38:30.956Z</time>
        <speed>1.4001081</speed>
      </trkpt>
      <trkpt lat="28.6653895" lon="97.4625241">
        <ele>2258.318115234375</ele>
        <time>2026-04-29T19:38:35.956Z</time>
        <speed>0.7196834</speed>
      </trkpt>
      <trkpt lat="28.6653361" lon="97.4624971">
        <ele>2265.997197307528</ele>
        <time>2026-04-29T19:38:43.956Z</time>
        <speed>0.29683602</speed>
      </trkpt>
      <trkpt lat="28.665296" lon="97.4624804">
        <ele>2265.997197307528</ele>
        <time>2026-04-29T19:38:51.957Z</time>
        <speed>0.34834898</speed>
      </trkpt>
      <trkpt lat="28.6653036" lon="97.4625119">
        <ele>2267.9082865397795</ele>
        <time>2026-04-29T19:38:58.958Z</time>
        <speed>0.2672114</speed>
      </trkpt>
      <trkpt lat="28.6653396" lon="97.4625833">
        <ele>2266.038911381559</ele>
        <time>2026-04-29T19:39:06.956Z</time>
        <speed>0.41912895</speed>
      </trkpt>
      <trkpt lat="28.6653718" lon="97.4626216">
        <ele>2266.0532720112406</ele>
        <time>2026-04-29T19:39:10.958Z</time>
        <speed>0.43196297</speed>
      </trkpt>
      <trkpt lat="28.6654004" lon="97.4626445">
        <ele>2261.827104817125</ele>
        <time>2026-04-29T19:39:26.958Z</time>
        <speed>0.27806693</speed>
      </trkpt>
      <trkpt lat="28.6654295" lon="97.4626986">
        <ele>2248.2800402364865</ele>
        <time>2026-04-29T19:39:40.955Z</time>
        <speed>0.4140694</speed>
      </trkpt>
      <trkpt lat="28.6653816" lon="97.4626769">
        <ele>2245.1962116944537</ele>
        <time>2026-04-29T19:39:42.956Z</time>
        <speed>0.4965095</speed>
      </trkpt>
      <trkpt lat="28.6653451" lon="97.4626682">
        <ele>2244.007051381078</ele>
        <time>2026-04-29T19:39:47.957Z</time>
        <speed>0.26372492</speed>
      </trkpt>
      <trkpt lat="28.6653873" lon="97.4626346">
        <ele>2233.775112919518</ele>
        <time>2026-04-29T19:39:54.957Z</time>
        <speed>0.33646086</speed>
      </trkpt>
      <trkpt lat="28.6654789" lon="97.4625564">
        <ele>2233.775112919518</ele>
        <time>2026-04-29T19:39:58.958Z</time>
        <speed>0.6245956</speed>
      </trkpt>
      <trkpt lat="28.6655126" lon="97.4625187">
        <ele>2244.0350890506297</ele>
        <time>2026-04-29T19:40:02.957Z</time>
        <speed>0.56063783</speed>
      </trkpt>
      <trkpt lat="28.6655403" lon="97.4624943">
        <ele>2245.237926242811</ele>
        <time>2026-04-29T19:40:10.957Z</time>
        <speed>0.45107916</speed>
      </trkpt>
      <trkpt lat="28.6655655" lon="97.462475">
        <ele>2248.321754784844</ele>
        <time>2026-04-29T19:40:18.958Z</time>
        <speed>0.3477126</speed>
      </trkpt>
      <trkpt lat="28.6655828" lon="97.4624496">
        <ele>2281.183489323099</ele>
        <time>2026-04-29T19:40:43.956Z</time>
        <speed>0.28691095</speed>
      </trkpt>
      <trkpt lat="28.6655813" lon="97.4624811">
        <ele>2324.544715824239</ele>
        <time>2026-04-29T19:42:02.957Z</time>
        <speed>0.15295456</speed>
      </trkpt>
      <trkpt lat="28.6656081" lon="97.4624875">
        <ele>2324.7411729836376</ele>
        <time>2026-04-29T19:43:46.955Z</time>
        <speed>0.2175627</speed>
      </trkpt>
    </trkseg>
  </trk>
</gpx>
