<?xml version="1.0" encoding="UTF-8"?>
<gpx version="1.1" creator="Pyxis" xmlns="http://www.topografix.com/GPX/1/1">
  <trk>
    <name>trip-20260424-9acd9ffa-3f1f-4717-8b22-eca5c3fa9087_2026-05-01_2000-2400</name>
    <trkseg>
      <trkpt lat="30.0027185" lon="99.1022954">
        <ele>2516.74534607262</ele>
        <time>2026-05-01T12:06:55.496Z</time>
        <speed>0.92</speed>
      </trkpt>
      <trkpt lat="30.00283" lon="99.102513">
        <ele>2515.4568796008757</ele>
        <time>2026-05-01T12:07:05.305Z</time>
        <speed>0.13122435</speed>
      </trkpt>
      <trkpt lat="30.0027939" lon="99.1024923">
        <ele>2515.325508045812</ele>
        <time>2026-05-01T12:07:11.496Z</time>
        <speed>0.086292066</speed>
      </trkpt>
      <trkpt lat="30.0027507" lon="99.1024907">
        <ele>2515.2904515899686</ele>
        <time>2026-05-01T12:07:17.764Z</time>
        <speed>0.05378726</speed>
      </trkpt>
      <trkpt lat="30.0027249" lon="99.1025078">
        <ele>2515.127825476745</ele>
        <time>2026-05-01T12:07:27.496Z</time>
        <speed>0.15288466</speed>
      </trkpt>
      <trkpt lat="30.0027605" lon="99.1025127">
        <ele>2514.9242953696303</ele>
        <time>2026-05-01T12:07:36.928Z</time>
        <speed>0.11075825</speed>
      </trkpt>
      <trkpt lat="30.0027573" lon="99.1024812">
        <ele>2514.9844277616794</ele>
        <time>2026-05-01T12:07:44.784Z</time>
        <speed>0.3437398</speed>
      </trkpt>
      <trkpt lat="30.0027614" lon="99.1025289">
        <ele>2515.108996436497</ele>
        <time>2026-05-01T12:07:49.644Z</time>
        <speed>0.92753816</speed>
      </trkpt>
      <trkpt lat="30.002803" lon="99.1025262">
        <ele>2515.6398396777204</ele>
        <time>2026-05-01T12:07:56.347Z</time>
        <speed>0.972485</speed>
      </trkpt>
      <trkpt lat="30.0028667" lon="99.1025382">
        <ele>2515.733741310131</ele>
        <time>2026-05-01T12:08:00.863Z</time>
        <speed>0.8827574</speed>
      </trkpt>
      <trkpt lat="30.0029048" lon="99.1025849">
        <ele>2515.593334537711</ele>
        <time>2026-05-01T12:08:05.802Z</time>
        <speed>1.0031022</speed>
      </trkpt>
      <trkpt lat="30.0029317" lon="99.1025813">
        <ele>2515.7242933722578</ele>
        <time>2026-05-01T12:08:08.403Z</time>
        <speed>1.0083369</speed>
      </trkpt>
      <trkpt lat="30.0029757" lon="99.1025829">
        <ele>2516.0111114089827</ele>
        <time>2026-05-01T12:08:17.770Z</time>
        <speed>0.5224838</speed>
      </trkpt>
      <trkpt lat="30.0030067" lon="99.102575">
        <ele>2515.7334297890725</ele>
        <time>2026-05-01T12:08:22.347Z</time>
        <speed>0.96610564</speed>
      </trkpt>
      <trkpt lat="30.0030076" lon="99.1026166">
        <ele>2515.876185705851</ele>
        <time>2026-05-01T12:08:28.495Z</time>
        <speed>0.95279276</speed>
      </trkpt>
      <trkpt lat="30.0030412" lon="99.1026181">
        <ele>2516.3605950179854</ele>
        <time>2026-05-01T12:08:45.496Z</time>
        <speed>0.13479482</speed>
      </trkpt>
      <trkpt lat="30.0030726" lon="99.1026211">
        <ele>2516.374508661293</ele>
        <time>2026-05-01T12:08:53.496Z</time>
        <speed>0.118966006</speed>
      </trkpt>
      <trkpt lat="30.003105" lon="99.1026124">
        <ele>2516.2561445301426</ele>
        <time>2026-05-01T12:09:17.495Z</time>
        <speed>0.07172892</speed>
      </trkpt>
      <trkpt lat="30.0031362" lon="99.1026019">
        <ele>2516.6895663986265</ele>
        <time>2026-05-01T12:09:25.490Z</time>
        <speed>0.6643943</speed>
      </trkpt>
      <trkpt lat="30.0031729" lon="99.1025901">
        <ele>2516.762171880668</ele>
        <time>2026-05-01T12:09:27.510Z</time>
        <speed>1.2988827</speed>
      </trkpt>
      <trkpt lat="30.0031878" lon="99.1026901">
        <ele>2516.9717141771134</ele>
        <time>2026-05-01T12:09:29.495Z</time>
        <speed>1.2971106</speed>
      </trkpt>
      <trkpt lat="30.0031956" lon="99.1027483">
        <ele>2516.9927044065535</ele>
        <time>2026-05-01T12:09:31.665Z</time>
        <speed>1.3764421</speed>
      </trkpt>
      <trkpt lat="30.0032164" lon="99.1027227">
        <ele>2516.875962914547</ele>
        <time>2026-05-01T12:09:33.496Z</time>
        <speed>1.2040309</speed>
      </trkpt>
      <trkpt lat="30.0032454" lon="99.1027186">
        <ele>2516.9635188849843</ele>
        <time>2026-05-01T12:09:35.944Z</time>
        <speed>1.2962772</speed>
      </trkpt>
      <trkpt lat="30.0032792" lon="99.102739">
        <ele>2516.972549886449</ele>
        <time>2026-05-01T12:09:38.185Z</time>
        <speed>1.2723857</speed>
      </trkpt>
      <trkpt lat="30.0033034" lon="99.1027582">
        <ele>2517.1125863291923</ele>
        <time>2026-05-01T12:09:40.303Z</time>
        <speed>1.3085204</speed>
      </trkpt>
      <trkpt lat="30.0033037" lon="99.1027926">
        <ele>2517.141772097171</ele>
        <time>2026-05-01T12:09:42.104Z</time>
        <speed>1.2162774</speed>
      </trkpt>
      <trkpt lat="30.0033177" lon="99.1028277">
        <ele>2517.5354337185713</ele>
        <time>2026-05-01T12:09:44.502Z</time>
        <speed>1.2895046</speed>
      </trkpt>
      <trkpt lat="30.0033395" lon="99.1028727">
        <ele>2517.692923949637</ele>
        <time>2026-05-01T12:09:46.584Z</time>
        <speed>1.266596</speed>
      </trkpt>
      <trkpt lat="30.0033924" lon="99.1029933">
        <ele>2517.5262601836926</ele>
        <time>2026-05-01T12:09:55.125Z</time>
        <speed>1.3169776</speed>
      </trkpt>
      <trkpt lat="30.003398" lon="99.1030397">
        <ele>2517.475660148935</ele>
        <time>2026-05-01T12:09:59.370Z</time>
        <speed>1.3158886</speed>
      </trkpt>
      <trkpt lat="30.003429" lon="99.1030524">
        <ele>2517.6869727658195</ele>
        <time>2026-05-01T12:10:01.496Z</time>
        <speed>1.0741473</speed>
      </trkpt>
      <trkpt lat="30.0034702" lon="99.1031527">
        <ele>2518.2221823172736</ele>
        <time>2026-05-01T12:10:09.496Z</time>
        <speed>1.1478345</speed>
      </trkpt>
      <trkpt lat="30.0034888" lon="99.1031924">
        <ele>2518.4103809481117</ele>
        <time>2026-05-01T12:10:12.268Z</time>
        <speed>1.218119</speed>
      </trkpt>
      <trkpt lat="30.0034963" lon="99.1032486">
        <ele>2518.5095022170594</ele>
        <time>2026-05-01T12:10:16.591Z</time>
        <speed>1.2396095</speed>
      </trkpt>
      <trkpt lat="30.0035273" lon="99.1032955">
        <ele>2518.7223088211636</ele>
        <time>2026-05-01T12:10:20.922Z</time>
        <speed>1.2393639</speed>
      </trkpt>
      <trkpt lat="30.0035322" lon="99.1033477">
        <ele>2518.8615895874304</ele>
        <time>2026-05-01T12:10:25.289Z</time>
        <speed>1.2876728</speed>
      </trkpt>
      <trkpt lat="30.0035407" lon="99.1033789">
        <ele>2519.304728786371</ele>
        <time>2026-05-01T12:10:29.496Z</time>
        <speed>1.2260693</speed>
      </trkpt>
      <trkpt lat="30.0035738" lon="99.1034882">
        <ele>2519.9132083425147</ele>
        <time>2026-05-01T12:10:39.268Z</time>
        <speed>0.7273535</speed>
      </trkpt>
      <trkpt lat="30.0035801" lon="99.1035306">
        <ele>2520.1048451765673</ele>
        <time>2026-05-01T12:10:45.411Z</time>
        <speed>1.152335</speed>
      </trkpt>
      <trkpt lat="30.0035882" lon="99.1035968">
        <ele>2520.2532089981273</ele>
        <time>2026-05-01T12:10:49.864Z</time>
        <speed>1.3262569</speed>
      </trkpt>
      <trkpt lat="30.0036422" lon="99.1035924">
        <ele>2520.4808192041146</ele>
        <time>2026-05-01T12:10:54.108Z</time>
        <speed>1.0326632</speed>
      </trkpt>
      <trkpt lat="30.0036683" lon="99.103629">
        <ele>2521.0486250966787</ele>
        <time>2026-05-01T12:10:58.027Z</time>
        <speed>1.1936264</speed>
      </trkpt>
      <trkpt lat="30.0036744" lon="99.1036777">
        <ele>2521.1569252256413</ele>
        <time>2026-05-01T12:11:02.270Z</time>
        <speed>1.2113343</speed>
      </trkpt>
      <trkpt lat="30.0036618" lon="99.1037442">
        <ele>2521.373133056204</ele>
        <time>2026-05-01T12:11:05.065Z</time>
        <speed>1.2863529</speed>
      </trkpt>
      <trkpt lat="30.00366" lon="99.1038053">
        <ele>2521.8345095941463</ele>
        <time>2026-05-01T12:11:09.809Z</time>
        <speed>1.1546513</speed>
      </trkpt>
      <trkpt lat="30.003656" lon="99.1038616">
        <ele>2522.038695335096</ele>
        <time>2026-05-01T12:11:14.985Z</time>
        <speed>1.1796157</speed>
      </trkpt>
      <trkpt lat="30.0036421" lon="99.1039104">
        <ele>2522.044798850721</ele>
        <time>2026-05-01T12:11:17.348Z</time>
        <speed>1.194061</speed>
      </trkpt>
      <trkpt lat="30.0036809" lon="99.1039925">
        <ele>2522.2808251004512</ele>
        <time>2026-05-01T12:11:24.262Z</time>
        <speed>1.2003152</speed>
      </trkpt>
      <trkpt lat="30.0036953" lon="99.1040222">
        <ele>2522.347022895162</ele>
        <time>2026-05-01T12:11:26.583Z</time>
        <speed>1.2172364</speed>
      </trkpt>
      <trkpt lat="30.0037067" lon="99.1041068">
        <ele>2522.7584794159216</ele>
        <time>2026-05-01T12:11:33.329Z</time>
        <speed>1.3273998</speed>
      </trkpt>
      <trkpt lat="30.0037421" lon="99.1041555">
        <ele>2522.8745507915737</ele>
        <time>2026-05-01T12:11:37.802Z</time>
        <speed>1.2583511</speed>
      </trkpt>
      <trkpt lat="30.003752" lon="99.1041925">
        <ele>2522.8556863618887</ele>
        <time>2026-05-01T12:11:42.204Z</time>
        <speed>1.1896131</speed>
      </trkpt>
      <trkpt lat="30.0037203" lon="99.1042154">
        <ele>2522.774175093067</ele>
        <time>2026-05-01T12:11:46.342Z</time>
        <speed>1.198666</speed>
      </trkpt>
      <trkpt lat="30.0037584" lon="99.1042359">
        <ele>2523.3420023082513</ele>
        <time>2026-05-01T12:11:54.944Z</time>
        <speed>1.4271717</speed>
      </trkpt>
      <trkpt lat="30.0037288" lon="99.1042627">
        <ele>2523.1524001312355</ele>
        <time>2026-05-01T12:12:01.165Z</time>
        <speed>1.0063462</speed>
      </trkpt>
      <trkpt lat="30.003698" lon="99.1042654">
        <ele>2523.2767059030116</ele>
        <time>2026-05-01T12:12:06.788Z</time>
        <speed>1.2020397</speed>
      </trkpt>
      <trkpt lat="30.0036622" lon="99.1042689">
        <ele>2523.425075983715</ele>
        <time>2026-05-01T12:12:10.707Z</time>
        <speed>1.2716213</speed>
      </trkpt>
      <trkpt lat="30.0036182" lon="99.1042724">
        <ele>2523.6285871518667</ele>
        <time>2026-05-01T12:12:14.644Z</time>
        <speed>1.3152298</speed>
      </trkpt>
      <trkpt lat="30.0036586" lon="99.1042813">
        <ele>2523.488037109375</ele>
        <time>2026-05-01T12:12:22.411Z</time>
        <speed>1.2696941</speed>
      </trkpt>
      <trkpt lat="30.0036833" lon="99.1042266">
        <ele>2523.367788083128</ele>
        <time>2026-05-01T12:12:27.304Z</time>
        <speed>0.9631953</speed>
      </trkpt>
      <trkpt lat="30.0036639" lon="99.1041905">
        <ele>2523.6378014470665</ele>
        <time>2026-05-01T12:12:31.223Z</time>
        <speed>1.304335</speed>
      </trkpt>
      <trkpt lat="30.0036288" lon="99.1041372">
        <ele>2523.5246086668785</ele>
        <time>2026-05-01T12:12:35.168Z</time>
        <speed>1.4141445</speed>
      </trkpt>
      <trkpt lat="30.003595" lon="99.1040841">
        <ele>2523.3603306990058</ele>
        <time>2026-05-01T12:12:39.087Z</time>
        <speed>1.3988141</speed>
      </trkpt>
      <trkpt lat="30.0035473" lon="99.1041037">
        <ele>2522.9725074629905</ele>
        <time>2026-05-01T12:12:43.269Z</time>
        <speed>1.3333037</speed>
      </trkpt>
      <trkpt lat="30.0034236" lon="99.1043728">
        <ele>2523.1412998348105</ele>
        <time>2026-05-01T12:12:50.495Z</time>
        <speed>0.95814466</speed>
      </trkpt>
      <trkpt lat="30.0033586" lon="99.1044123">
        <ele>2523.1490933681707</ele>
        <time>2026-05-01T12:12:58.496Z</time>
        <speed>1.1579083</speed>
      </trkpt>
      <trkpt lat="30.0033524" lon="99.1043472">
        <ele>2523.009856103279</ele>
        <time>2026-05-01T12:13:05.190Z</time>
        <speed>0.12016327</speed>
      </trkpt>
      <trkpt lat="30.0033811" lon="99.1043247">
        <ele>2523.0309186086256</ele>
        <time>2026-05-01T12:13:10.496Z</time>
        <speed>0.08644823</speed>
      </trkpt>
      <trkpt lat="30.0034272" lon="99.1043207">
        <ele>2522.774027458622</ele>
        <time>2026-05-01T12:13:38.070Z</time>
        <speed>1.2524953</speed>
      </trkpt>
      <trkpt lat="30.0034806" lon="99.1042482">
        <ele>2522.5689068112997</ele>
        <time>2026-05-01T12:13:40.125Z</time>
        <speed>1.3133439</speed>
      </trkpt>
      <trkpt lat="30.0035053" lon="99.1042126">
        <ele>2522.423600401251</ele>
        <time>2026-05-01T12:13:42.191Z</time>
        <speed>1.3397647</speed>
      </trkpt>
      <trkpt lat="30.0035387" lon="99.1042019">
        <ele>2522.624595617116</ele>
        <time>2026-05-01T12:13:49.044Z</time>
        <speed>1.2479833</speed>
      </trkpt>
      <trkpt lat="30.0034753" lon="99.1045998">
        <ele>2530.3148895822483</ele>
        <time>2026-05-01T12:15:53.495Z</time>
        <speed>7.739701</speed>
      </trkpt>
      <trkpt lat="30.0036407" lon="99.1043746">
        <ele>2530.0887139972706</ele>
        <time>2026-05-01T12:16:07.496Z</time>
        <speed>0.22063723</speed>
      </trkpt>
      <trkpt lat="30.0036145" lon="99.1044084">
        <ele>2530.7205876501507</ele>
        <time>2026-05-01T12:16:18.429Z</time>
        <speed>0.12327047</speed>
      </trkpt>
      <trkpt lat="30.0035732" lon="99.1044156">
        <ele>2530.600016587347</ele>
        <time>2026-05-01T12:16:35.488Z</time>
        <speed>0.068520576</speed>
      </trkpt>
      <trkpt lat="30.0035482" lon="99.1044331">
        <ele>2530.339586550713</ele>
        <time>2026-05-01T12:17:15.488Z</time>
        <speed>0.075077504</speed>
      </trkpt>
      <trkpt lat="30.0035218" lon="99.1044771">
        <ele>2530.293179443398</ele>
        <time>2026-05-01T12:20:40.488Z</time>
        <speed>0.10300087</speed>
      </trkpt>
      <trkpt lat="30.0035577" lon="99.1044713">
        <ele>2529.9417431830707</ele>
        <time>2026-05-01T12:21:38.488Z</time>
        <speed>0.31255692</speed>
      </trkpt>
      <trkpt lat="30.0035307" lon="99.1044814">
        <ele>2529.342164250633</ele>
        <time>2026-05-01T12:25:02.488Z</time>
        <speed>0.5696637</speed>
      </trkpt>
      <trkpt lat="30.0035048" lon="99.1044272">
        <ele>2526.710859310019</ele>
        <time>2026-05-01T12:39:16.483Z</time>
        <speed>0.5380313</speed>
      </trkpt>
      <trkpt lat="30.0035277" lon="99.1044777">
        <ele>2526.23060369831</ele>
        <time>2026-05-01T12:39:24.483Z</time>
        <speed>0.0019760411</speed>
      </trkpt>
      <trkpt lat="30.0035512" lon="99.1044619">
        <ele>2531.1848981016865</ele>
        <time>2026-05-01T12:51:53.483Z</time>
        <speed>0.18120518</speed>
      </trkpt>
      <trkpt lat="30.0039243" lon="99.1045938">
        <ele>2534.938872319202</ele>
        <time>2026-05-01T14:35:57.474Z</time>
        <speed>0.3818659</speed>
      </trkpt>
      <trkpt lat="30.0038698" lon="99.1045791">
        <ele>2534.8466577882896</ele>
        <time>2026-05-01T14:36:03.778Z</time>
        <speed>0.9314705</speed>
      </trkpt>
      <trkpt lat="30.0038354" lon="99.1045522">
        <ele>2534.802682183711</ele>
        <time>2026-05-01T14:36:07.837Z</time>
        <speed>1.133107</speed>
      </trkpt>
      <trkpt lat="30.0038145" lon="99.1045088">
        <ele>2534.701255437033</ele>
        <time>2026-05-01T14:36:11.879Z</time>
        <speed>1.043259</speed>
      </trkpt>
      <trkpt lat="30.0037937" lon="99.104485">
        <ele>2534.6540777805526</ele>
        <time>2026-05-01T14:36:18.276Z</time>
        <speed>0.16603376</speed>
      </trkpt>
      <trkpt lat="30.0036806" lon="99.1046528">
        <ele>2542.00134033343</ele>
        <time>2026-05-01T14:37:23.474Z</time>
      </trkpt>
      <trkpt lat="30.0036223" lon="99.1043623">
        <ele>2541.827386028993</ele>
        <time>2026-05-01T14:37:28.474Z</time>
        <speed>0.77303344</speed>
      </trkpt>
      <trkpt lat="30.003572" lon="99.1044186">
        <ele>2541.7246930160977</ele>
        <time>2026-05-01T14:37:33.474Z</time>
        <speed>0.10470256</speed>
      </trkpt>
      <trkpt lat="30.0035349" lon="99.1044557">
        <ele>2541.6187467155532</ele>
        <time>2026-05-01T14:37:36.474Z</time>
        <speed>0.063722014</speed>
      </trkpt>
      <trkpt lat="30.0035028" lon="99.1044543">
        <ele>2541.031580124329</ele>
        <time>2026-05-01T14:37:48.474Z</time>
        <speed>0.05943641</speed>
      </trkpt>
      <trkpt lat="30.0034382" lon="99.1044734">
        <ele>2541.379355540446</ele>
        <time>2026-05-01T14:37:57.473Z</time>
        <speed>0.09496929</speed>
      </trkpt>
      <trkpt lat="30.0034857" lon="99.104439">
        <ele>2541.8564900465576</ele>
        <time>2026-05-01T14:38:15.474Z</time>
        <speed>0.68245304</speed>
      </trkpt>
      <trkpt lat="30.0035582" lon="99.1043509">
        <ele>2541.8479679856537</ele>
        <time>2026-05-01T14:38:29.474Z</time>
        <speed>1.0967066</speed>
      </trkpt>
      <trkpt lat="30.0036196" lon="99.1042749">
        <ele>2541.8707246424538</ele>
        <time>2026-05-01T14:38:32.474Z</time>
        <speed>1.4226258</speed>
      </trkpt>
      <trkpt lat="30.0036898" lon="99.1041839">
        <ele>2541.9942132241767</ele>
        <time>2026-05-01T14:38:39.474Z</time>
        <speed>2.1261659</speed>
      </trkpt>
      <trkpt lat="30.0037758" lon="99.1040953">
        <ele>2542.0047258933023</ele>
        <time>2026-05-01T14:38:42.708Z</time>
        <speed>2.2952752</speed>
      </trkpt>
      <trkpt lat="30.0037632" lon="99.1042132">
        <ele>2541.9492344373816</ele>
        <time>2026-05-01T14:38:48.473Z</time>
        <speed>0.37925336</speed>
      </trkpt>
      <trkpt lat="30.0037499" lon="99.104246">
        <ele>2541.9352812202924</ele>
        <time>2026-05-01T14:38:52.474Z</time>
        <speed>0.3159732</speed>
      </trkpt>
      <trkpt lat="30.0037186" lon="99.1042041">
        <ele>2541.5725631157497</ele>
        <time>2026-05-01T14:39:04.474Z</time>
        <speed>0.46974513</speed>
      </trkpt>
      <trkpt lat="30.0036718" lon="99.1042465">
        <ele>2541.6062765324336</ele>
        <time>2026-05-01T14:39:13.474Z</time>
        <speed>0.59529775</speed>
      </trkpt>
      <trkpt lat="30.0035755" lon="99.1043039">
        <ele>2541.614892886401</ele>
        <time>2026-05-01T14:39:19.473Z</time>
        <speed>0.7209051</speed>
      </trkpt>
      <trkpt lat="30.0035186" lon="99.1043124">
        <ele>2541.615137027026</ele>
        <time>2026-05-01T14:39:22.474Z</time>
        <speed>1.0038111</speed>
      </trkpt>
      <trkpt lat="30.0034571" lon="99.1043393">
        <ele>2541.5654891864265</ele>
        <time>2026-05-01T14:39:27.474Z</time>
        <speed>1.0421093</speed>
      </trkpt>
      <trkpt lat="30.0033339" lon="99.1044266">
        <ele>2541.3211508514983</ele>
        <time>2026-05-01T14:39:34.474Z</time>
        <speed>1.1510072</speed>
      </trkpt>
      <trkpt lat="30.0033398" lon="99.1044607">
        <ele>2541.3245728690467</ele>
        <time>2026-05-01T14:39:43.474Z</time>
        <speed>0.77105683</speed>
      </trkpt>
      <trkpt lat="30.0033701" lon="99.1044719">
        <ele>2541.266612219841</ele>
        <time>2026-05-01T14:39:46.474Z</time>
        <speed>0.75101876</speed>
      </trkpt>
      <trkpt lat="30.0034963" lon="99.1043824">
        <ele>2541.274460817471</ele>
        <time>2026-05-01T14:39:50.474Z</time>
        <speed>1.0210042</speed>
      </trkpt>
      <trkpt lat="30.0035763" lon="99.1043388">
        <ele>2541.254596509813</ele>
        <time>2026-05-01T14:40:10.474Z</time>
        <speed>0.56928915</speed>
      </trkpt>
      <trkpt lat="30.0035538" lon="99.1043844">
        <ele>2541.366366427981</ele>
        <time>2026-05-01T14:40:14.474Z</time>
        <speed>0.32139918</speed>
      </trkpt>
      <trkpt lat="30.0035109" lon="99.1044086">
        <ele>2541.326980634696</ele>
        <time>2026-05-01T14:40:19.473Z</time>
        <speed>0.2719865</speed>
      </trkpt>
      <trkpt lat="30.0035104" lon="99.1043545">
        <ele>2541.563010067452</ele>
        <time>2026-05-01T14:40:27.474Z</time>
        <speed>0.32009572</speed>
      </trkpt>
      <trkpt lat="30.0035069" lon="99.1042704">
        <ele>2541.4898651848607</ele>
        <time>2026-05-01T14:40:30.473Z</time>
        <speed>0.44767514</speed>
      </trkpt>
      <trkpt lat="30.0035021" lon="99.104178">
        <ele>2541.4434063591625</ele>
        <time>2026-05-01T14:40:34.473Z</time>
        <speed>0.5527013</speed>
      </trkpt>
      <trkpt lat="30.0035348" lon="99.1042108">
        <ele>2541.2687768296746</ele>
        <time>2026-05-01T14:40:42.474Z</time>
        <speed>0.26636118</speed>
      </trkpt>
      <trkpt lat="30.0035469" lon="99.1042423">
        <ele>2541.4270489372875</ele>
        <time>2026-05-01T14:40:47.473Z</time>
        <speed>0.29328358</speed>
      </trkpt>
      <trkpt lat="30.0035799" lon="99.1043465">
        <ele>2541.429209985768</ele>
        <time>2026-05-01T14:40:58.474Z</time>
        <speed>0.5197928</speed>
      </trkpt>
      <trkpt lat="30.0035227" lon="99.1044724">
        <ele>2541.210573418565</ele>
        <time>2026-05-01T14:41:06.474Z</time>
        <speed>0.7411637</speed>
      </trkpt>
      <trkpt lat="30.0034972" lon="99.1045091">
        <ele>2541.107636203999</ele>
        <time>2026-05-01T14:41:10.473Z</time>
        <speed>0.5524345</speed>
      </trkpt>
      <trkpt lat="30.0034618" lon="99.1045407">
        <ele>2541.2836985096023</ele>
        <time>2026-05-01T14:41:24.474Z</time>
        <speed>0.56971836</speed>
      </trkpt>
      <trkpt lat="30.0034477" lon="99.1046006">
        <ele>2541.2254946085022</ele>
        <time>2026-05-01T14:41:26.474Z</time>
        <speed>0.95253015</speed>
      </trkpt>
      <trkpt lat="30.003442" lon="99.104788">
        <ele>2541.249957837938</ele>
        <time>2026-05-01T14:41:31.474Z</time>
        <speed>1.4482516</speed>
      </trkpt>
      <trkpt lat="30.0034404" lon="99.1048373">
        <ele>2541.429790573956</ele>
        <time>2026-05-01T14:41:34.473Z</time>
        <speed>1.2608112</speed>
      </trkpt>
      <trkpt lat="30.0034953" lon="99.104715">
        <ele>2541.286185927088</ele>
        <time>2026-05-01T14:41:42.473Z</time>
        <speed>0.4415944</speed>
      </trkpt>
      <trkpt lat="30.0035388" lon="99.1046636">
        <ele>2541.0973434140374</ele>
        <time>2026-05-01T14:41:46.474Z</time>
        <speed>0.45751792</speed>
      </trkpt>
      <trkpt lat="30.0035764" lon="99.1046276">
        <ele>2541.065790805626</ele>
        <time>2026-05-01T14:41:51.474Z</time>
        <speed>0.6120339</speed>
      </trkpt>
      <trkpt lat="30.0035349" lon="99.1046155">
        <ele>2541.3974122594445</ele>
        <time>2026-05-01T14:41:58.474Z</time>
        <speed>0.35626718</speed>
      </trkpt>
      <trkpt lat="30.0034945" lon="99.1046269">
        <ele>2541.284281799988</ele>
        <time>2026-05-01T14:42:02.474Z</time>
        <speed>0.30075386</speed>
      </trkpt>
      <trkpt lat="30.0034589" lon="99.104624">
        <ele>2541.0100804683425</ele>
        <time>2026-05-01T14:42:10.473Z</time>
        <speed>0.43688697</speed>
      </trkpt>
      <trkpt lat="30.003431" lon="99.1045712">
        <ele>2540.8187880978153</ele>
        <time>2026-05-01T14:42:15.474Z</time>
        <speed>0.50585884</speed>
      </trkpt>
      <trkpt lat="30.0034035" lon="99.1045995">
        <ele>2541.251903977866</ele>
        <time>2026-05-01T14:42:23.474Z</time>
        <speed>0.42191377</speed>
      </trkpt>
      <trkpt lat="30.0033765" lon="99.1046649">
        <ele>2541.3475720705483</ele>
        <time>2026-05-01T14:42:28.473Z</time>
        <speed>0.60879844</speed>
      </trkpt>
      <trkpt lat="30.0033263" lon="99.1047198">
        <ele>2541.3559485579103</ele>
        <time>2026-05-01T14:42:31.474Z</time>
        <speed>1.0728285</speed>
      </trkpt>
      <trkpt lat="30.0032573" lon="99.1047798">
        <ele>2541.213749448438</ele>
        <time>2026-05-01T14:42:36.473Z</time>
        <speed>1.2888241</speed>
      </trkpt>
      <trkpt lat="30.0036078" lon="99.1042418">
        <ele>2541.080564253703</ele>
        <time>2026-05-01T14:42:44.474Z</time>
        <speed>1.1584086</speed>
      </trkpt>
      <trkpt lat="30.0035798" lon="99.10432">
        <ele>2541.13455012856</ele>
        <time>2026-05-01T14:42:51.474Z</time>
        <speed>0.78055185</speed>
      </trkpt>
      <trkpt lat="30.0035544" lon="99.1043427">
        <ele>2541.1749560463795</ele>
        <time>2026-05-01T14:43:03.474Z</time>
        <speed>0.5833395</speed>
      </trkpt>
      <trkpt lat="30.003477" lon="99.1044633">
        <ele>2540.9932619435695</ele>
        <time>2026-05-01T14:43:11.474Z</time>
        <speed>0.7445768</speed>
      </trkpt>
      <trkpt lat="30.0035049" lon="99.1044433">
        <ele>2540.787003772445</ele>
        <time>2026-05-01T14:43:15.474Z</time>
        <speed>0.4390212</speed>
      </trkpt>
      <trkpt lat="30.0034714" lon="99.1044716">
        <ele>2540.5709468381037</ele>
        <time>2026-05-01T14:43:23.474Z</time>
        <speed>0.5334881</speed>
      </trkpt>
      <trkpt lat="30.0034595" lon="99.1043981">
        <ele>2540.7288042953833</ele>
        <time>2026-05-01T14:43:40.474Z</time>
        <speed>0.47123483</speed>
      </trkpt>
      <trkpt lat="30.003476" lon="99.104369">
        <ele>2540.7569562657595</ele>
        <time>2026-05-01T14:43:43.474Z</time>
        <speed>0.7298211</speed>
      </trkpt>
      <trkpt lat="30.0035673" lon="99.1043521">
        <ele>2540.593659247669</ele>
        <time>2026-05-01T14:43:55.474Z</time>
        <speed>0.4387841</speed>
      </trkpt>
      <trkpt lat="30.0035529" lon="99.1045492">
        <ele>2540.3786692648514</ele>
        <time>2026-05-01T14:44:11.474Z</time>
        <speed>0.6514235</speed>
      </trkpt>
      <trkpt lat="30.00353" lon="99.1045985">
        <ele>2540.505084933095</ele>
        <time>2026-05-01T14:44:16.473Z</time>
        <speed>0.71718156</speed>
      </trkpt>
      <trkpt lat="30.0034859" lon="99.1045957">
        <ele>2540.568006029917</ele>
        <time>2026-05-01T14:44:23.473Z</time>
        <speed>0.4943584</speed>
      </trkpt>
      <trkpt lat="30.0035421" lon="99.1045166">
        <ele>2540.356405965778</ele>
        <time>2026-05-01T14:44:39.474Z</time>
        <speed>0.16318646</speed>
      </trkpt>
      <trkpt lat="30.0035244" lon="99.1045408">
        <ele>2540.2664868667207</ele>
        <time>2026-05-01T14:44:47.474Z</time>
        <speed>0.21310586</speed>
      </trkpt>
      <trkpt lat="30.0034853" lon="99.1045614">
        <ele>2540.4468875213142</ele>
        <time>2026-05-01T14:44:56.474Z</time>
        <speed>0.23473732</speed>
      </trkpt>
      <trkpt lat="30.0034574" lon="99.1045494">
        <ele>2540.135900979486</ele>
        <time>2026-05-01T14:45:11.473Z</time>
        <speed>0.20514576</speed>
      </trkpt>
      <trkpt lat="30.0033972" lon="99.104583">
        <ele>2540.205026724691</ele>
        <time>2026-05-01T14:45:15.474Z</time>
        <speed>0.55098337</speed>
      </trkpt>
      <trkpt lat="30.0034443" lon="99.1045528">
        <ele>2540.019764915888</ele>
        <time>2026-05-01T14:45:27.474Z</time>
        <speed>0.19297051</speed>
      </trkpt>
      <trkpt lat="30.0034705" lon="99.1045404">
        <ele>2540.1938732980925</ele>
        <time>2026-05-01T14:45:35.474Z</time>
        <speed>0.235231</speed>
      </trkpt>
      <trkpt lat="30.0035006" lon="99.1045461">
        <ele>2540.3595921420697</ele>
        <time>2026-05-01T14:45:44.474Z</time>
        <speed>0.25250185</speed>
      </trkpt>
      <trkpt lat="30.0034578" lon="99.1046456">
        <ele>2540.3831312826637</ele>
        <time>2026-05-01T14:45:51.473Z</time>
        <speed>0.39160344</speed>
      </trkpt>
      <trkpt lat="30.0034558" lon="99.1045944">
        <ele>2540.338652694168</ele>
        <time>2026-05-01T14:45:59.474Z</time>
        <speed>0.20315726</speed>
      </trkpt>
      <trkpt lat="30.0034623" lon="99.1045441">
        <ele>2540.2813908168746</ele>
        <time>2026-05-01T14:46:03.474Z</time>
        <speed>0.18109499</speed>
      </trkpt>
      <trkpt lat="30.0034656" lon="99.1045103">
        <ele>2540.635675680697</ele>
        <time>2026-05-01T14:46:15.474Z</time>
        <speed>0.2481632</speed>
      </trkpt>
      <trkpt lat="30.0035098" lon="99.1044543">
        <ele>2540.4956132133902</ele>
        <time>2026-05-01T14:46:23.474Z</time>
        <speed>0.47092256</speed>
      </trkpt>
      <trkpt lat="30.003537" lon="99.1044502">
        <ele>2540.4808689904767</ele>
        <time>2026-05-01T14:46:35.473Z</time>
        <speed>0.31740776</speed>
      </trkpt>
      <trkpt lat="30.0036021" lon="99.104406">
        <ele>2540.3540330198257</ele>
        <time>2026-05-01T14:46:43.474Z</time>
        <speed>0.53245556</speed>
      </trkpt>
      <trkpt lat="30.0041194" lon="99.1040887">
        <ele>2540.8492589512753</ele>
        <time>2026-05-01T14:47:14.473Z</time>
        <speed>6.57</speed>
      </trkpt>
      <trkpt lat="30.0039668" lon="99.104202">
        <ele>2540.6871372870232</ele>
        <time>2026-05-01T14:47:22.474Z</time>
        <speed>2.0124273</speed>
      </trkpt>
      <trkpt lat="30.0038278" lon="99.1043197">
        <ele>2540.815288169544</ele>
        <time>2026-05-01T14:47:29.474Z</time>
        <speed>0.23859373</speed>
      </trkpt>
      <trkpt lat="30.003788" lon="99.1043417">
        <ele>2540.7719937671154</ele>
        <time>2026-05-01T14:47:31.474Z</time>
        <speed>0.34231922</speed>
      </trkpt>
      <trkpt lat="30.0037298" lon="99.1043407">
        <ele>2540.698552672312</ele>
        <time>2026-05-01T14:47:36.474Z</time>
        <speed>1.064836</speed>
      </trkpt>
      <trkpt lat="30.003684" lon="99.1043396">
        <ele>2540.654549714895</ele>
        <time>2026-05-01T14:47:39.474Z</time>
        <speed>1.6130883</speed>
      </trkpt>
      <trkpt lat="30.0036167" lon="99.1043854">
        <ele>2540.8333340216063</ele>
        <time>2026-05-01T14:47:44.474Z</time>
        <speed>0.6495313</speed>
      </trkpt>
      <trkpt lat="30.0035872" lon="99.1043867">
        <ele>2540.87662886352</ele>
        <time>2026-05-01T14:47:47.474Z</time>
        <speed>0.70900357</speed>
      </trkpt>
      <trkpt lat="30.0036139" lon="99.1043519">
        <ele>2540.817485435169</ele>
        <time>2026-05-01T14:47:52.474Z</time>
        <speed>1.3153007</speed>
      </trkpt>
      <trkpt lat="30.0036281" lon="99.1043223">
        <ele>2540.8323901159456</ele>
        <time>2026-05-01T14:47:55.473Z</time>
        <speed>0.20343769</speed>
      </trkpt>
      <trkpt lat="30.0035601" lon="99.1043974">
        <ele>2541.1414441667253</ele>
        <time>2026-05-01T14:47:59.474Z</time>
        <speed>0.082284905</speed>
      </trkpt>
      <trkpt lat="30.0035425" lon="99.1044227">
        <ele>2533.025767827793</ele>
        <time>2026-05-01T14:55:47.474Z</time>
        <speed>0.07156329</speed>
      </trkpt>
      <trkpt lat="30.0036891" lon="99.1045065">
        <ele>2534.5560300233633</ele>
        <time>2026-05-01T15:46:06.031Z</time>
        <speed>1.1908346</speed>
      </trkpt>
      <trkpt lat="30.0037356" lon="99.1045125">
        <ele>2535.4571537980446</ele>
        <time>2026-05-01T15:46:12.726Z</time>
        <speed>0.7971466</speed>
      </trkpt>
      <trkpt lat="30.0036015" lon="99.1044329">
        <ele>2535.3323788629073</ele>
        <time>2026-05-01T15:46:24.740Z</time>
        <speed>0.94333005</speed>
      </trkpt>
      <trkpt lat="30.0037075" lon="99.1045154">
        <ele>2535.124821416729</ele>
        <time>2026-05-01T15:46:45.373Z</time>
        <speed>0.84448224</speed>
      </trkpt>
      <trkpt lat="30.0036326" lon="99.1044634">
        <ele>2535.1815275038853</ele>
        <time>2026-05-01T15:47:26.001Z</time>
        <speed>0.07310246</speed>
      </trkpt>
      <trkpt lat="30.0035941" lon="99.1044531">
        <ele>2534.9529392940767</ele>
        <time>2026-05-01T15:47:30.461Z</time>
        <speed>0.9198592</speed>
      </trkpt>
      <trkpt lat="30.0035431" lon="99.1044389">
        <ele>2534.978109922916</ele>
        <time>2026-05-01T15:47:32.891Z</time>
        <speed>1.4897803</speed>
      </trkpt>
      <trkpt lat="30.003692" lon="99.1044939">
        <ele>2535.127291065902</ele>
        <time>2026-05-01T15:47:39.759Z</time>
        <speed>1.1083436</speed>
      </trkpt>
      <trkpt lat="30.0035516" lon="99.1044434">
        <ele>2535.2000699893206</ele>
        <time>2026-05-01T15:47:44.461Z</time>
        <speed>3.260781</speed>
      </trkpt>
      <trkpt lat="30.0033885" lon="99.1043842">
        <ele>2535.2015580870925</ele>
        <time>2026-05-01T15:47:52.773Z</time>
        <speed>2.3182936</speed>
      </trkpt>
      <trkpt lat="30.0036363" lon="99.1044669">
        <ele>2535.123420249843</ele>
        <time>2026-05-01T15:47:59.680Z</time>
        <speed>1.6727966</speed>
      </trkpt>
      <trkpt lat="30.0037243" lon="99.1045215">
        <ele>2535.1930145175543</ele>
        <time>2026-05-01T15:48:06.480Z</time>
        <speed>1.6333364</speed>
      </trkpt>
      <trkpt lat="30.0036644" lon="99.1044953">
        <ele>2535.2679566992274</ele>
        <time>2026-05-01T15:48:12.939Z</time>
        <speed>0.7165681</speed>
      </trkpt>
      <trkpt lat="30.0037173" lon="99.1045193">
        <ele>2535.335617560182</ele>
        <time>2026-05-01T15:48:26.349Z</time>
        <speed>0.53992003</speed>
      </trkpt>
      <trkpt lat="30.0036797" lon="99.1044812">
        <ele>2535.32219605388</ele>
        <time>2026-05-01T15:48:33.232Z</time>
        <speed>0.42951027</speed>
      </trkpt>
      <trkpt lat="30.0035649" lon="99.1044429">
        <ele>2535.2064475204265</ele>
        <time>2026-05-01T15:48:37.460Z</time>
        <speed>2.4594471</speed>
      </trkpt>
      <trkpt lat="30.0035265" lon="99.1044341">
        <ele>2535.259931435722</ele>
        <time>2026-05-01T15:49:17.461Z</time>
        <speed>5.5667384E-5</speed>
      </trkpt>
    </trkseg>
  </trk>
</gpx>
