<?xml version="1.0" encoding="UTF-8"?>
<gpx version="1.1" creator="Pyxis" xmlns="http://www.topografix.com/GPX/1/1">
  <trk>
    <name>trip-20260424-9acd9ffa-3f1f-4717-8b22-eca5c3fa9087_2026-05-02_0400-0800</name>
    <trkseg>
      <trkpt lat="30.0036279" lon="99.1044164">
        <ele>2532.132783047112</ele>
        <time>2026-05-01T20:00:30.422Z</time>
        <speed>0.25450245</speed>
      </trkpt>
      <trkpt lat="30.0036525" lon="99.1044465">
        <ele>2532.102409975959</ele>
        <time>2026-05-01T20:00:54.421Z</time>
        <speed>0.24620675</speed>
      </trkpt>
      <trkpt lat="30.0036755" lon="99.1044632">
        <ele>2532.023094582152</ele>
        <time>2026-05-01T20:01:15.419Z</time>
        <speed>0.24137062</speed>
      </trkpt>
      <trkpt lat="30.0036448" lon="99.1044506">
        <ele>2531.906046285619</ele>
        <time>2026-05-01T20:01:54.419Z</time>
        <speed>0.20386715</speed>
      </trkpt>
      <trkpt lat="30.0036797" lon="99.1044757">
        <ele>2531.7924376345054</ele>
        <time>2026-05-01T20:04:11.419Z</time>
        <speed>0.2897033</speed>
      </trkpt>
      <trkpt lat="30.0036453" lon="99.1044451">
        <ele>2531.617592276639</ele>
        <time>2026-05-01T20:05:18.420Z</time>
        <speed>0.18954854</speed>
      </trkpt>
      <trkpt lat="30.0036236" lon="99.1044063">
        <ele>2531.375216748983</ele>
        <time>2026-05-01T20:06:14.421Z</time>
        <speed>0.1852013</speed>
      </trkpt>
      <trkpt lat="30.0035984" lon="99.104386">
        <ele>2531.2305913154405</ele>
        <time>2026-05-01T20:08:14.420Z</time>
        <speed>0.1243797</speed>
      </trkpt>
      <trkpt lat="30.0036185" lon="99.1044122">
        <ele>2531.3090613747017</ele>
        <time>2026-05-01T20:10:14.419Z</time>
        <speed>0.13424988</speed>
      </trkpt>
      <trkpt lat="30.0036071" lon="99.1044428">
        <ele>2531.4641752806347</ele>
        <time>2026-05-01T20:12:46.419Z</time>
        <speed>0.26569253</speed>
      </trkpt>
      <trkpt lat="30.003575" lon="99.1044521">
        <ele>2531.2971371993376</ele>
        <time>2026-05-01T20:13:06.418Z</time>
        <speed>0.18714681</speed>
      </trkpt>
      <trkpt lat="30.0035072" lon="99.1044144">
        <ele>2531.467596037348</ele>
        <time>2026-05-01T20:13:18.419Z</time>
        <speed>0.18564698</speed>
      </trkpt>
      <trkpt lat="30.0035321" lon="99.104431">
        <ele>2531.4895862516955</ele>
        <time>2026-05-01T20:13:30.419Z</time>
        <speed>0.20532984</speed>
      </trkpt>
      <trkpt lat="30.0035558" lon="99.1044493">
        <ele>2531.437113527795</ele>
        <time>2026-05-01T20:13:58.417Z</time>
        <speed>0.18479602</speed>
      </trkpt>
      <trkpt lat="30.0034979" lon="99.1044195">
        <ele>2531.6979495630153</ele>
        <time>2026-05-01T20:14:38.417Z</time>
        <speed>0.23549783</speed>
      </trkpt>
      <trkpt lat="30.0035454" lon="99.1044353">
        <ele>2531.7255047335784</ele>
        <time>2026-05-01T20:14:50.418Z</time>
        <speed>0.24596801</speed>
      </trkpt>
      <trkpt lat="30.0035736" lon="99.1044319">
        <ele>2531.7171879790058</ele>
        <time>2026-05-01T20:15:26.417Z</time>
        <speed>0.25483194</speed>
      </trkpt>
      <trkpt lat="30.0036044" lon="99.1044566">
        <ele>2531.957792685909</ele>
        <time>2026-05-01T20:16:10.967Z</time>
        <speed>0.23602845</speed>
      </trkpt>
      <trkpt lat="30.0035496" lon="99.1044446">
        <ele>2531.6563878456277</ele>
        <time>2026-05-01T20:17:34.418Z</time>
        <speed>0.31791827</speed>
      </trkpt>
      <trkpt lat="30.0035851" lon="99.1044618">
        <ele>2531.570765230236</ele>
        <time>2026-05-01T20:17:58.419Z</time>
        <speed>0.21756925</speed>
      </trkpt>
      <trkpt lat="30.003558" lon="99.1044432">
        <ele>2531.887125244676</ele>
        <time>2026-05-01T20:20:10.417Z</time>
        <speed>0.14523457</speed>
      </trkpt>
      <trkpt lat="30.0035834" lon="99.104456">
        <ele>2532.261405878813</ele>
        <time>2026-05-01T20:21:22.418Z</time>
        <speed>0.1581088</speed>
      </trkpt>
      <trkpt lat="30.003558" lon="99.1044425">
        <ele>2532.3013002586504</ele>
        <time>2026-05-01T20:21:48.440Z</time>
        <speed>0.162421</speed>
      </trkpt>
      <trkpt lat="30.0035925" lon="99.1044563">
        <ele>2532.316711023161</ele>
        <time>2026-05-01T20:22:30.417Z</time>
        <speed>0.17935397</speed>
      </trkpt>
      <trkpt lat="30.0036204" lon="99.1044671">
        <ele>2532.3459820624025</ele>
        <time>2026-05-01T20:23:30.417Z</time>
        <speed>0.20676076</speed>
      </trkpt>
      <trkpt lat="30.0035868" lon="99.1044633">
        <ele>2532.695904667113</ele>
        <time>2026-05-01T20:24:10.417Z</time>
        <speed>0.19073786</speed>
      </trkpt>
      <trkpt lat="30.0035338" lon="99.1044446">
        <ele>2532.4261177837257</ele>
        <time>2026-05-01T20:24:30.417Z</time>
        <speed>0.22456191</speed>
      </trkpt>
      <trkpt lat="30.0035708" lon="99.1044566">
        <ele>2536.447312109918</ele>
        <time>2026-05-01T20:25:06.417Z</time>
        <speed>0.2283826</speed>
      </trkpt>
      <trkpt lat="30.0035102" lon="99.1044294">
        <ele>2536.2518909530672</ele>
        <time>2026-05-01T20:25:46.417Z</time>
        <speed>0.24537405</speed>
      </trkpt>
      <trkpt lat="30.0034765" lon="99.104413">
        <ele>2536.420964098155</ele>
        <time>2026-05-01T20:25:54.417Z</time>
        <speed>0.20879582</speed>
      </trkpt>
      <trkpt lat="30.0035224" lon="99.1044362">
        <ele>2536.279715574301</ele>
        <time>2026-05-01T20:26:14.416Z</time>
        <speed>0.20470119</speed>
      </trkpt>
      <trkpt lat="30.0035512" lon="99.1044478">
        <ele>2536.4605294643147</ele>
        <time>2026-05-01T20:26:26.418Z</time>
        <speed>0.19934878</speed>
      </trkpt>
      <trkpt lat="30.0035131" lon="99.1044484">
        <ele>2536.294892721506</ele>
        <time>2026-05-01T20:27:21.417Z</time>
        <speed>0.16929027</speed>
      </trkpt>
      <trkpt lat="30.0034875" lon="99.1044358">
        <ele>2536.209472223676</ele>
        <time>2026-05-01T20:27:37.415Z</time>
        <speed>0.19783843</speed>
      </trkpt>
      <trkpt lat="30.003519" lon="99.1044427">
        <ele>2536.193678920361</ele>
        <time>2026-05-01T20:28:49.415Z</time>
        <speed>0.18339929</speed>
      </trkpt>
      <trkpt lat="30.0034905" lon="99.1044328">
        <ele>2536.321467558366</ele>
        <time>2026-05-01T20:29:25.415Z</time>
        <speed>0.16045685</speed>
      </trkpt>
      <trkpt lat="30.0035216" lon="99.1044464">
        <ele>2536.1121311637153</ele>
        <time>2026-05-01T20:29:37.417Z</time>
        <speed>0.15433912</speed>
      </trkpt>
      <trkpt lat="30.0035482" lon="99.104455">
        <ele>2536.1499681593746</ele>
        <time>2026-05-01T20:30:01.416Z</time>
        <speed>0.18050481</speed>
      </trkpt>
      <trkpt lat="30.0035186" lon="99.104443">
        <ele>2536.265873258113</ele>
        <time>2026-05-01T20:30:17.415Z</time>
        <speed>0.17584352</speed>
      </trkpt>
      <trkpt lat="30.0034866" lon="99.1044296">
        <ele>2536.103653438485</ele>
        <time>2026-05-01T20:30:37.417Z</time>
        <speed>0.1592222</speed>
      </trkpt>
      <trkpt lat="30.0035431" lon="99.1044502">
        <ele>2536.13319445411</ele>
        <time>2026-05-01T20:31:21.416Z</time>
        <speed>0.24607538</speed>
      </trkpt>
      <trkpt lat="30.0035169" lon="99.1044414">
        <ele>2535.9699261812293</ele>
        <time>2026-05-01T20:31:29.415Z</time>
        <speed>0.14751913</speed>
      </trkpt>
      <trkpt lat="30.0034845" lon="99.1044319">
        <ele>2536.0893118416643</ele>
        <time>2026-05-01T20:31:49.415Z</time>
        <speed>0.15872861</speed>
      </trkpt>
      <trkpt lat="30.0035119" lon="99.1044373">
        <ele>2536.048584290235</ele>
        <time>2026-05-01T20:32:13.416Z</time>
        <speed>0.20263898</speed>
      </trkpt>
      <trkpt lat="30.0035437" lon="99.1044351">
        <ele>2535.909704752602</ele>
        <time>2026-05-01T20:33:57.414Z</time>
        <speed>0.19890644</speed>
      </trkpt>
      <trkpt lat="30.0035126" lon="99.1044297">
        <ele>2535.94421770113</ele>
        <time>2026-05-01T20:34:17.415Z</time>
        <speed>0.19194727</speed>
      </trkpt>
      <trkpt lat="30.0034851" lon="99.1044229">
        <ele>2536.1578247674333</ele>
        <time>2026-05-01T20:34:44.851Z</time>
        <speed>0.17594233</speed>
      </trkpt>
      <trkpt lat="30.0035248" lon="99.1044355">
        <ele>2536.1248975851377</ele>
        <time>2026-05-01T20:36:01.413Z</time>
        <speed>0.25864914</speed>
      </trkpt>
      <trkpt lat="30.0035801" lon="99.1044567">
        <ele>2536.0893118416643</ele>
        <time>2026-05-01T20:36:13.414Z</time>
        <speed>0.38561574</speed>
      </trkpt>
      <trkpt lat="30.0036251" lon="99.1044755">
        <ele>2535.913206628999</ele>
        <time>2026-05-01T20:36:18.413Z</time>
        <speed>0.5329527</speed>
      </trkpt>
      <trkpt lat="30.0036676" lon="99.1044936">
        <ele>2535.9341433020427</ele>
        <time>2026-05-01T20:36:26.413Z</time>
        <speed>0.5359056</speed>
      </trkpt>
      <trkpt lat="30.0036088" lon="99.1044855">
        <ele>2535.6520393684086</ele>
        <time>2026-05-01T20:36:45.414Z</time>
        <speed>0.4067193</speed>
      </trkpt>
      <trkpt lat="30.0035139" lon="99.1044599">
        <ele>2535.5509464483243</ele>
        <time>2026-05-01T20:36:53.412Z</time>
        <speed>0.5188</speed>
      </trkpt>
      <trkpt lat="30.0034927" lon="99.1044321">
        <ele>2535.6670186322426</ele>
        <time>2026-05-01T20:37:28.041Z</time>
        <speed>0.2480085</speed>
      </trkpt>
      <trkpt lat="30.0035498" lon="99.1044546">
        <ele>2535.4574751212813</ele>
        <time>2026-05-01T20:38:26.414Z</time>
        <speed>0.33510968</speed>
      </trkpt>
      <trkpt lat="30.003612" lon="99.1044804">
        <ele>2535.541630553175</ele>
        <time>2026-05-01T20:38:33.445Z</time>
        <speed>0.52402514</speed>
      </trkpt>
      <trkpt lat="30.0036407" lon="99.1044846">
        <ele>2535.4465512244938</ele>
        <time>2026-05-01T20:38:43.414Z</time>
        <speed>0.45730495</speed>
      </trkpt>
      <trkpt lat="30.0036065" lon="99.1044818">
        <ele>2535.5115306431867</ele>
        <time>2026-05-01T20:39:22.413Z</time>
        <speed>0.31068507</speed>
      </trkpt>
      <trkpt lat="30.0035378" lon="99.1044534">
        <ele>2535.498457325508</ele>
        <time>2026-05-01T20:39:29.415Z</time>
        <speed>0.37563968</speed>
      </trkpt>
      <trkpt lat="30.0034968" lon="99.1044338">
        <ele>2535.4167336630767</ele>
        <time>2026-05-01T20:39:37.413Z</time>
        <speed>0.32684764</speed>
      </trkpt>
      <trkpt lat="30.0034746" lon="99.1044116">
        <ele>2535.469131056968</ele>
        <time>2026-05-01T20:40:13.412Z</time>
        <speed>0.23074757</speed>
      </trkpt>
      <trkpt lat="30.0035045" lon="99.1044271">
        <ele>2535.2953355129093</ele>
        <time>2026-05-01T20:40:45.415Z</time>
        <speed>0.17288166</speed>
      </trkpt>
      <trkpt lat="30.0034783" lon="99.1044165">
        <ele>2535.01631341275</ele>
        <time>2026-05-01T20:41:21.414Z</time>
        <speed>0.14826073</speed>
      </trkpt>
      <trkpt lat="30.0035124" lon="99.1044355">
        <ele>2535.054848533411</ele>
        <time>2026-05-01T20:42:17.413Z</time>
        <speed>0.19675393</speed>
      </trkpt>
      <trkpt lat="30.0034862" lon="99.1044229">
        <ele>2534.9666168010167</ele>
        <time>2026-05-01T20:42:33.413Z</time>
        <speed>0.16984522</speed>
      </trkpt>
      <trkpt lat="30.0035189" lon="99.1044287">
        <ele>2535.0002724865712</ele>
        <time>2026-05-01T20:43:29.413Z</time>
        <speed>0.19575825</speed>
      </trkpt>
      <trkpt lat="30.0035821" lon="99.1044529">
        <ele>2534.838865714392</ele>
        <time>2026-05-01T20:43:41.413Z</time>
        <speed>0.29522476</speed>
      </trkpt>
      <trkpt lat="30.0035496" lon="99.1044425">
        <ele>2534.5735652839676</ele>
        <time>2026-05-01T20:43:49.413Z</time>
        <speed>0.19188684</speed>
      </trkpt>
      <trkpt lat="30.0035017" lon="99.1044237">
        <ele>2534.7476673987417</ele>
        <time>2026-05-01T20:44:21.414Z</time>
        <speed>0.26039174</speed>
      </trkpt>
      <trkpt lat="30.0034761" lon="99.1044101">
        <ele>2534.8149384460958</ele>
        <time>2026-05-01T20:44:45.413Z</time>
        <speed>0.19382286</speed>
      </trkpt>
      <trkpt lat="30.0034993" lon="99.104427">
        <ele>2534.570518672029</ele>
        <time>2026-05-01T20:47:21.411Z</time>
        <speed>0.2089939</speed>
      </trkpt>
      <trkpt lat="30.0035283" lon="99.1044318">
        <ele>2534.473218284182</ele>
        <time>2026-05-01T20:47:54.412Z</time>
        <speed>0.24971324</speed>
      </trkpt>
      <trkpt lat="30.003498" lon="99.1044266">
        <ele>2533.8343051291627</ele>
        <time>2026-05-01T20:48:10.411Z</time>
        <speed>0.1747954</speed>
      </trkpt>
      <trkpt lat="30.003532" lon="99.1044344">
        <ele>2533.915597112189</ele>
        <time>2026-05-01T20:48:29.413Z</time>
        <speed>0.24591489</speed>
      </trkpt>
      <trkpt lat="30.0035794" lon="99.1044485">
        <ele>2533.8194429162436</ele>
        <time>2026-05-01T20:48:42.412Z</time>
        <speed>0.34769532</speed>
      </trkpt>
      <trkpt lat="30.0036148" lon="99.104461">
        <ele>2533.7406223720354</ele>
        <time>2026-05-01T20:48:57.194Z</time>
        <speed>0.3108527</speed>
      </trkpt>
      <trkpt lat="30.0035822" lon="99.1044526">
        <ele>2533.9637653869004</ele>
        <time>2026-05-01T20:49:13.413Z</time>
        <speed>0.2249195</speed>
      </trkpt>
      <trkpt lat="30.0035535" lon="99.1044467">
        <ele>2533.875949892979</ele>
        <time>2026-05-01T20:49:21.412Z</time>
        <speed>0.22664046</speed>
      </trkpt>
      <trkpt lat="30.0035013" lon="99.1044361">
        <ele>2533.718235094504</ele>
        <time>2026-05-01T20:49:29.412Z</time>
        <speed>0.24158937</speed>
      </trkpt>
      <trkpt lat="30.0034761" lon="99.1044211">
        <ele>2533.6856219695596</ele>
        <time>2026-05-01T20:49:53.412Z</time>
        <speed>0.2546556</speed>
      </trkpt>
      <trkpt lat="30.0035179" lon="99.1044282">
        <ele>2533.8535161946015</ele>
        <time>2026-05-01T20:50:45.412Z</time>
        <speed>0.19592948</speed>
      </trkpt>
      <trkpt lat="30.0035437" lon="99.1044404">
        <ele>2534.2362608020567</ele>
        <time>2026-05-01T20:51:21.184Z</time>
        <speed>0.24305066</speed>
      </trkpt>
      <trkpt lat="30.0035682" lon="99.104455">
        <ele>2533.8818265788873</ele>
        <time>2026-05-01T20:51:45.413Z</time>
        <speed>0.24572705</speed>
      </trkpt>
      <trkpt lat="30.0035964" lon="99.1044708">
        <ele>2533.867504347122</ele>
        <time>2026-05-01T20:51:57.412Z</time>
        <speed>0.25442165</speed>
      </trkpt>
      <trkpt lat="30.0035351" lon="99.1044471">
        <ele>2534.041782000907</ele>
        <time>2026-05-01T20:52:13.412Z</time>
        <speed>0.2984994</speed>
      </trkpt>
      <trkpt lat="30.003563" lon="99.1044464">
        <ele>2533.989047625907</ele>
        <time>2026-05-01T20:53:09.410Z</time>
        <speed>0.2074733</speed>
      </trkpt>
      <trkpt lat="30.003533" lon="99.1044411">
        <ele>2534.0368359462186</ele>
        <time>2026-05-01T20:53:17.411Z</time>
        <speed>0.2065075</speed>
      </trkpt>
      <trkpt lat="30.0035041" lon="99.1044315">
        <ele>2534.0265821904295</ele>
        <time>2026-05-01T20:53:25.413Z</time>
        <speed>0.23428419</speed>
      </trkpt>
      <trkpt lat="30.0034758" lon="99.1044216">
        <ele>2533.9726946764636</ele>
        <time>2026-05-01T20:53:45.280Z</time>
        <speed>0.26221642</speed>
      </trkpt>
      <trkpt lat="30.0035049" lon="99.1044373">
        <ele>2533.8549106208716</ele>
        <time>2026-05-01T20:53:49.410Z</time>
        <speed>0.2755376</speed>
      </trkpt>
      <trkpt lat="30.0035323" lon="99.1044445">
        <ele>2533.86613656704</ele>
        <time>2026-05-01T20:54:01.413Z</time>
        <speed>0.30228627</speed>
      </trkpt>
      <trkpt lat="30.0035631" lon="99.1044581">
        <ele>2534.086598028584</ele>
        <time>2026-05-01T20:54:10.411Z</time>
        <speed>0.30237767</speed>
      </trkpt>
      <trkpt lat="30.0036144" lon="99.1044808">
        <ele>2534.175121087577</ele>
        <time>2026-05-01T20:54:17.770Z</time>
        <speed>0.37432557</speed>
      </trkpt>
      <trkpt lat="30.003655" lon="99.10449">
        <ele>2533.9940487090216</ele>
        <time>2026-05-01T20:54:42.411Z</time>
        <speed>0.29554972</speed>
      </trkpt>
      <trkpt lat="30.003623" lon="99.1044737">
        <ele>2534.0987764093493</ele>
        <time>2026-05-01T20:54:50.411Z</time>
        <speed>0.23751654</speed>
      </trkpt>
      <trkpt lat="30.003581" lon="99.1044409">
        <ele>2534.054405224282</ele>
        <time>2026-05-01T20:55:01.413Z</time>
        <speed>0.3277003</speed>
      </trkpt>
      <trkpt lat="30.0035482" lon="99.1044302">
        <ele>2534.017970015456</ele>
        <time>2026-05-01T20:55:06.410Z</time>
        <speed>0.3790581</speed>
      </trkpt>
      <trkpt lat="30.0035164" lon="99.1044251">
        <ele>2534.008204390456</ele>
        <time>2026-05-01T20:55:42.411Z</time>
        <speed>0.29707903</speed>
      </trkpt>
      <trkpt lat="30.0034902" lon="99.104417">
        <ele>2533.86299811331</ele>
        <time>2026-05-01T20:55:57.411Z</time>
        <speed>0.27296695</speed>
      </trkpt>
      <trkpt lat="30.0035162" lon="99.1044261">
        <ele>2533.886024982303</ele>
        <time>2026-05-01T20:56:13.411Z</time>
        <speed>0.22985442</speed>
      </trkpt>
      <trkpt lat="30.0035557" lon="99.1044534">
        <ele>2533.9198184778998</ele>
        <time>2026-05-01T20:56:18.411Z</time>
        <speed>0.3539238</speed>
      </trkpt>
      <trkpt lat="30.0035845" lon="99.104472">
        <ele>2533.8198236491485</ele>
        <time>2026-05-01T20:56:26.410Z</time>
        <speed>0.30921668</speed>
      </trkpt>
      <trkpt lat="30.0035514" lon="99.1044547">
        <ele>2533.727856343658</ele>
        <time>2026-05-01T20:56:34.411Z</time>
        <speed>0.20073651</speed>
      </trkpt>
      <trkpt lat="30.0035109" lon="99.1044309">
        <ele>2533.5154852147166</ele>
        <time>2026-05-01T20:56:52.411Z</time>
        <speed>0.23181261</speed>
      </trkpt>
      <trkpt lat="30.0035518" lon="99.1044435">
        <ele>2533.624960408103</ele>
        <time>2026-05-01T20:57:04.411Z</time>
        <speed>0.20791651</speed>
      </trkpt>
      <trkpt lat="30.003578" lon="99.1044566">
        <ele>2533.59546388907</ele>
        <time>2026-05-01T20:57:12.412Z</time>
        <speed>0.22254653</speed>
      </trkpt>
      <trkpt lat="30.0035355" lon="99.1044359">
        <ele>2533.6690864160328</ele>
        <time>2026-05-01T20:57:48.412Z</time>
        <speed>0.20532978</speed>
      </trkpt>
      <trkpt lat="30.0035075" lon="99.1044265">
        <ele>2533.624087702557</ele>
        <time>2026-05-01T20:58:04.412Z</time>
        <speed>0.24283297</speed>
      </trkpt>
      <trkpt lat="30.00355" lon="99.1044324">
        <ele>2533.494254519295</ele>
        <time>2026-05-01T20:58:41.409Z</time>
        <speed>0.3411807</speed>
      </trkpt>
      <trkpt lat="30.003574" lon="99.1044502">
        <ele>2533.509810046978</ele>
        <time>2026-05-01T20:59:04.272Z</time>
        <speed>0.3307938</speed>
      </trkpt>
      <trkpt lat="30.0035377" lon="99.1044403">
        <ele>2533.5752298540274</ele>
        <time>2026-05-01T20:59:12.409Z</time>
        <speed>0.26981083</speed>
      </trkpt>
      <trkpt lat="30.0035099" lon="99.1044248">
        <ele>2533.5124871821304</ele>
        <time>2026-05-01T20:59:21.410Z</time>
        <speed>0.29256362</speed>
      </trkpt>
      <trkpt lat="30.0035545" lon="99.1044408">
        <ele>2533.5010505233954</ele>
        <time>2026-05-01T20:59:29.409Z</time>
        <speed>0.2824171</speed>
      </trkpt>
      <trkpt lat="30.0035151" lon="99.1044297">
        <ele>2533.3643923258583</ele>
        <time>2026-05-01T20:59:40.410Z</time>
        <speed>0.17279848</speed>
      </trkpt>
      <trkpt lat="30.0034892" lon="99.104414">
        <ele>2533.324253781086</ele>
        <time>2026-05-01T21:00:12.410Z</time>
        <speed>0.22404233</speed>
      </trkpt>
      <trkpt lat="30.003517" lon="99.1044199">
        <ele>2533.3364656190624</ele>
        <time>2026-05-01T21:00:23.598Z</time>
        <speed>0.2342537</speed>
      </trkpt>
      <trkpt lat="30.003489" lon="99.1044122">
        <ele>2533.277448692809</ele>
        <time>2026-05-01T21:00:52.410Z</time>
        <speed>0.14924613</speed>
      </trkpt>
      <trkpt lat="30.0035223" lon="99.1044254">
        <ele>2533.3935199023854</ele>
        <time>2026-05-01T21:01:48.410Z</time>
        <speed>0.19127399</speed>
      </trkpt>
      <trkpt lat="30.0035561" lon="99.1044406">
        <ele>2533.4973794649754</ele>
        <time>2026-05-01T21:01:52.410Z</time>
        <speed>0.29183635</speed>
      </trkpt>
      <trkpt lat="30.0035145" lon="99.1044274">
        <ele>2533.3496391389817</ele>
        <time>2026-05-01T21:02:20.411Z</time>
        <speed>0.20250328</speed>
      </trkpt>
      <trkpt lat="30.0035452" lon="99.1044339">
        <ele>2533.3191613694908</ele>
        <time>2026-05-01T21:02:34.717Z</time>
        <speed>0.21202268</speed>
      </trkpt>
      <trkpt lat="30.0035718" lon="99.1044456">
        <ele>2533.356689453125</ele>
        <time>2026-05-01T21:02:52.409Z</time>
        <speed>0.25898844</speed>
      </trkpt>
      <trkpt lat="30.003544" lon="99.1044394">
        <ele>2533.4016852890204</ele>
        <time>2026-05-01T21:03:00.410Z</time>
        <speed>0.23538694</speed>
      </trkpt>
      <trkpt lat="30.0035148" lon="99.1044261">
        <ele>2533.2729869687787</ele>
        <time>2026-05-01T21:03:07.314Z</time>
        <speed>0.26232606</speed>
      </trkpt>
      <trkpt lat="30.003489" lon="99.1044156">
        <ele>2533.132361883796</ele>
        <time>2026-05-01T21:03:16.411Z</time>
        <speed>0.28904</speed>
      </trkpt>
      <trkpt lat="30.0035191" lon="99.1044255">
        <ele>2533.258124254936</ele>
        <time>2026-05-01T21:03:36.410Z</time>
        <speed>0.2097192</speed>
      </trkpt>
      <trkpt lat="30.0035648" lon="99.1044468">
        <ele>2533.0923538198813</ele>
        <time>2026-05-01T21:04:08.411Z</time>
        <speed>0.2283062</speed>
      </trkpt>
      <trkpt lat="30.0036021" lon="99.1044688">
        <ele>2533.15468113989</ele>
        <time>2026-05-01T21:04:24.409Z</time>
        <speed>0.22953837</speed>
      </trkpt>
      <trkpt lat="30.0036297" lon="99.1044924">
        <ele>2532.9421570309037</ele>
        <time>2026-05-01T21:05:01.408Z</time>
        <speed>0.2633575</speed>
      </trkpt>
      <trkpt lat="30.0035627" lon="99.1044514">
        <ele>2532.786048336189</ele>
        <time>2026-05-01T21:05:28.409Z</time>
        <speed>0.36028698</speed>
      </trkpt>
      <trkpt lat="30.0035922" lon="99.1044776">
        <ele>2532.699468128358</ele>
        <time>2026-05-01T21:06:08.409Z</time>
        <speed>0.26188436</speed>
      </trkpt>
      <trkpt lat="30.0035484" lon="99.1044546">
        <ele>2532.769515090947</ele>
        <time>2026-05-01T21:06:20.409Z</time>
        <speed>0.31010634</speed>
      </trkpt>
      <trkpt lat="30.0035156" lon="99.104431">
        <ele>2532.507031581081</ele>
        <time>2026-05-01T21:06:28.409Z</time>
        <speed>0.3532133</speed>
      </trkpt>
      <trkpt lat="30.0035421" lon="99.1044381">
        <ele>2532.4460737901195</ele>
        <time>2026-05-01T21:07:08.562Z</time>
        <speed>0.21223801</speed>
      </trkpt>
      <trkpt lat="30.0035675" lon="99.1044493">
        <ele>2532.30598021391</ele>
        <time>2026-05-01T21:07:20.408Z</time>
        <speed>0.26324826</speed>
      </trkpt>
      <trkpt lat="30.0035937" lon="99.1044572">
        <ele>2532.3478053974673</ele>
        <time>2026-05-01T21:07:25.408Z</time>
        <speed>0.27211684</speed>
      </trkpt>
      <trkpt lat="30.0035614" lon="99.1044392">
        <ele>2531.88021442027</ele>
        <time>2026-05-01T21:08:37.409Z</time>
        <speed>0.21788193</speed>
      </trkpt>
      <trkpt lat="30.0035887" lon="99.1044486">
        <ele>2531.884297067084</ele>
        <time>2026-05-01T21:08:52.410Z</time>
        <speed>0.2042667</speed>
      </trkpt>
      <trkpt lat="30.0036169" lon="99.1044543">
        <ele>2532.0027785095763</ele>
        <time>2026-05-01T21:09:00.408Z</time>
        <speed>0.21594805</speed>
      </trkpt>
      <trkpt lat="30.0036413" lon="99.1044763">
        <ele>2531.6223142334</ele>
        <time>2026-05-01T21:09:57.408Z</time>
        <speed>0.3184206</speed>
      </trkpt>
      <trkpt lat="30.0036121" lon="99.1044699">
        <ele>2531.7040224082066</ele>
        <time>2026-05-01T21:10:23.607Z</time>
        <speed>0.38796827</speed>
      </trkpt>
      <trkpt lat="30.003588" lon="99.1044542">
        <ele>2531.2612139440444</ele>
        <time>2026-05-01T21:11:20.409Z</time>
        <speed>0.19958752</speed>
      </trkpt>
      <trkpt lat="30.0036377" lon="99.1044761">
        <ele>2531.260300229672</ele>
        <time>2026-05-01T21:12:37.406Z</time>
        <speed>0.17723353</speed>
      </trkpt>
      <trkpt lat="30.0036029" lon="99.1044634">
        <ele>2530.9894660837736</ele>
        <time>2026-05-01T21:13:08.409Z</time>
        <speed>0.21599387</speed>
      </trkpt>
      <trkpt lat="30.0035822" lon="99.1044395">
        <ele>2531.1369094816064</ele>
        <time>2026-05-01T21:13:52.408Z</time>
        <speed>0.2021796</speed>
      </trkpt>
      <trkpt lat="30.0036082" lon="99.1044588">
        <ele>2530.805944336959</ele>
        <time>2026-05-01T21:17:16.408Z</time>
        <speed>0.21173565</speed>
      </trkpt>
      <trkpt lat="30.0036474" lon="99.1044765">
        <ele>2531.0660558147065</ele>
        <time>2026-05-01T21:18:02.367Z</time>
        <speed>0.22921374</speed>
      </trkpt>
      <trkpt lat="30.0036046" lon="99.1044574">
        <ele>2530.8670512160834</ele>
        <time>2026-05-01T21:18:41.407Z</time>
        <speed>0.3805262</speed>
      </trkpt>
      <trkpt lat="30.0035764" lon="99.1044473">
        <ele>2530.8784994551456</ele>
        <time>2026-05-01T21:18:52.407Z</time>
        <speed>0.5411371</speed>
      </trkpt>
      <trkpt lat="30.0036149" lon="99.1044669">
        <ele>2531.288168359007</ele>
        <time>2026-05-01T21:19:36.406Z</time>
        <speed>0.22282211</speed>
      </trkpt>
      <trkpt lat="30.0035733" lon="99.1044481">
        <ele>2531.5063168266224</ele>
        <time>2026-05-01T21:19:53.233Z</time>
        <speed>0.23885901</speed>
      </trkpt>
      <trkpt lat="30.0035999" lon="99.1044625">
        <ele>2531.447445318842</ele>
        <time>2026-05-01T21:20:04.406Z</time>
        <speed>0.24314678</speed>
      </trkpt>
      <trkpt lat="30.003626" lon="99.1044715">
        <ele>2531.4602193011697</ele>
        <time>2026-05-01T21:20:09.407Z</time>
        <speed>0.28113398</speed>
      </trkpt>
      <trkpt lat="30.0036582" lon="99.1044901">
        <ele>2531.8735013654623</ele>
        <time>2026-05-01T21:20:42.404Z</time>
        <speed>0.34161422</speed>
      </trkpt>
      <trkpt lat="30.0036843" lon="99.1044996">
        <ele>2531.4914592213318</ele>
        <time>2026-05-01T21:20:51.990Z</time>
        <speed>0.33621383</speed>
      </trkpt>
      <trkpt lat="30.0036556" lon="99.1044925">
        <ele>2532.618339443926</ele>
        <time>2026-05-01T21:22:12.406Z</time>
        <speed>0.27322197</speed>
      </trkpt>
      <trkpt lat="30.0036859" lon="99.104506">
        <ele>2532.5045302686044</ele>
        <time>2026-05-01T21:23:37.404Z</time>
        <speed>0.19277537</speed>
      </trkpt>
      <trkpt lat="30.003655" lon="99.1044878">
        <ele>2532.701148797356</ele>
        <time>2026-05-01T21:24:04.406Z</time>
        <speed>0.27923542</speed>
      </trkpt>
      <trkpt lat="30.0036381" lon="99.104462">
        <ele>2532.997991658567</ele>
        <time>2026-05-01T21:24:41.405Z</time>
        <speed>0.30885744</speed>
      </trkpt>
      <trkpt lat="30.0036623" lon="99.1044883">
        <ele>2532.8672191121427</ele>
        <time>2026-05-01T21:25:25.412Z</time>
        <speed>0.22967698</speed>
      </trkpt>
      <trkpt lat="30.0036256" lon="99.1044734">
        <ele>2533.0629610657816</ele>
        <time>2026-05-01T21:26:02.406Z</time>
        <speed>0.22707771</speed>
      </trkpt>
      <trkpt lat="30.0036021" lon="99.1044503">
        <ele>2533.084421328774</ele>
        <time>2026-05-01T21:26:23.403Z</time>
        <speed>0.2661215</speed>
      </trkpt>
      <trkpt lat="30.0035637" lon="99.104431">
        <ele>2533.0706228597246</ele>
        <time>2026-05-01T21:26:54.407Z</time>
        <speed>0.259101</speed>
      </trkpt>
      <trkpt lat="30.0035922" lon="99.1044465">
        <ele>2533.212347093676</ele>
        <time>2026-05-01T21:27:47.405Z</time>
        <speed>0.2850068</speed>
      </trkpt>
      <trkpt lat="30.0036196" lon="99.1044598">
        <ele>2533.0821681470493</ele>
        <time>2026-05-01T21:28:14.404Z</time>
        <speed>0.3473735</speed>
      </trkpt>
      <trkpt lat="30.0036653" lon="99.1044873">
        <ele>2533.0865636317176</ele>
        <time>2026-05-01T21:28:30.404Z</time>
        <speed>0.364528</speed>
      </trkpt>
      <trkpt lat="30.0036384" lon="99.104471">
        <ele>2533.417744497222</ele>
        <time>2026-05-01T21:30:36.403Z</time>
        <speed>0.31464246</speed>
      </trkpt>
      <trkpt lat="30.0036686" lon="99.1044974">
        <ele>2533.585731344164</ele>
        <time>2026-05-01T21:31:03.405Z</time>
        <speed>0.36005083</speed>
      </trkpt>
      <trkpt lat="30.0036483" lon="99.1044749">
        <ele>2533.4248379793594</ele>
        <time>2026-05-01T21:32:09.430Z</time>
        <speed>0.32347792</speed>
      </trkpt>
      <trkpt lat="30.0036263" lon="99.1044539">
        <ele>2533.603542680985</ele>
        <time>2026-05-01T21:32:22.405Z</time>
        <speed>0.37349302</speed>
      </trkpt>
      <trkpt lat="30.0035937" lon="99.1044383">
        <ele>2533.63206217928</ele>
        <time>2026-05-01T21:32:28.404Z</time>
        <speed>0.45562047</speed>
      </trkpt>
      <trkpt lat="30.0035588" lon="99.1044216">
        <ele>2533.6425499554084</ele>
        <time>2026-05-01T21:32:35.169Z</time>
        <speed>0.49208787</speed>
      </trkpt>
      <trkpt lat="30.0036142" lon="99.1044547">
        <ele>2533.5837779095177</ele>
        <time>2026-05-01T21:32:45.404Z</time>
        <speed>0.31079674</speed>
      </trkpt>
      <trkpt lat="30.0036502" lon="99.1044858">
        <ele>2533.5745361733743</ele>
        <time>2026-05-01T21:32:53.404Z</time>
        <speed>0.37240607</speed>
      </trkpt>
      <trkpt lat="30.0036737" lon="99.1045074">
        <ele>2533.4536004943184</ele>
        <time>2026-05-01T21:33:11.403Z</time>
        <speed>0.38654807</speed>
      </trkpt>
      <trkpt lat="30.0036418" lon="99.104508">
        <ele>2533.412461094419</ele>
        <time>2026-05-01T21:33:52.403Z</time>
        <speed>0.50098073</speed>
      </trkpt>
      <trkpt lat="30.0036315" lon="99.1044759">
        <ele>2533.5443218272976</ele>
        <time>2026-05-01T21:34:27.404Z</time>
        <speed>0.3499256</speed>
      </trkpt>
      <trkpt lat="30.0035661" lon="99.1044468">
        <ele>2533.6006261517055</ele>
        <time>2026-05-01T21:35:13.507Z</time>
        <speed>0.3727595</speed>
      </trkpt>
      <trkpt lat="30.0035047" lon="99.1044277">
        <ele>2533.4853307956887</ele>
        <time>2026-05-01T21:35:19.404Z</time>
        <speed>0.38152546</speed>
      </trkpt>
      <trkpt lat="30.0034782" lon="99.1044167">
        <ele>2533.8616908842005</ele>
        <time>2026-05-01T21:35:39.405Z</time>
        <speed>0.24440868</speed>
      </trkpt>
      <trkpt lat="30.0035191" lon="99.1044179">
        <ele>2533.818313687558</ele>
        <time>2026-05-01T21:37:08.404Z</time>
        <speed>0.31627068</speed>
      </trkpt>
      <trkpt lat="30.0034943" lon="99.1044026">
        <ele>2533.8422887528586</ele>
        <time>2026-05-01T21:37:41.692Z</time>
        <speed>0.2727827</speed>
      </trkpt>
      <trkpt lat="30.003526" lon="99.1044089">
        <ele>2533.7828171450287</ele>
        <time>2026-05-01T21:37:59.404Z</time>
        <speed>0.24765904</speed>
      </trkpt>
      <trkpt lat="30.003561" lon="99.1044251">
        <ele>2533.7957289493856</ele>
        <time>2026-05-01T21:38:11.404Z</time>
        <speed>0.24708056</speed>
      </trkpt>
      <trkpt lat="30.0035945" lon="99.1044458">
        <ele>2533.864485032687</ele>
        <time>2026-05-01T21:38:46.803Z</time>
        <speed>0.18729676</speed>
      </trkpt>
      <trkpt lat="30.003539" lon="99.1044276">
        <ele>2533.682161245522</ele>
        <time>2026-05-01T21:38:55.403Z</time>
        <speed>0.1871544</speed>
      </trkpt>
      <trkpt lat="30.0035098" lon="99.1044197">
        <ele>2533.701144393561</ele>
        <time>2026-05-01T21:39:03.405Z</time>
        <speed>0.18691556</speed>
      </trkpt>
      <trkpt lat="30.0034845" lon="99.1044066">
        <ele>2534.0302446203823</ele>
        <time>2026-05-01T21:39:23.405Z</time>
        <speed>0.20587873</speed>
      </trkpt>
      <trkpt lat="30.0035133" lon="99.1044107">
        <ele>2533.856201171875</ele>
        <time>2026-05-01T21:40:52.403Z</time>
        <speed>0.240531</speed>
      </trkpt>
      <trkpt lat="30.0035409" lon="99.1044184">
        <ele>2533.947082479106</ele>
        <time>2026-05-01T21:41:03.403Z</time>
        <speed>0.29391006</speed>
      </trkpt>
      <trkpt lat="30.0035137" lon="99.1044108">
        <ele>2533.915454121486</ele>
        <time>2026-05-01T21:41:19.403Z</time>
        <speed>0.25546592</speed>
      </trkpt>
      <trkpt lat="30.0035379" lon="99.1044257">
        <ele>2533.94322245585</ele>
        <time>2026-05-01T21:41:51.403Z</time>
        <speed>0.30578953</speed>
      </trkpt>
      <trkpt lat="30.0035736" lon="99.1044421">
        <ele>2533.925907017846</ele>
        <time>2026-05-01T21:42:07.401Z</time>
        <speed>0.2971253</speed>
      </trkpt>
      <trkpt lat="30.0035229" lon="99.1044167">
        <ele>2533.889068387628</ele>
        <time>2026-05-01T21:43:00.403Z</time>
        <speed>0.2882055</speed>
      </trkpt>
      <trkpt lat="30.0034962" lon="99.1044063">
        <ele>2533.9117571323427</ele>
        <time>2026-05-01T21:43:35.401Z</time>
        <speed>0.28436145</speed>
      </trkpt>
      <trkpt lat="30.0035557" lon="99.1044411">
        <ele>2533.726024634821</ele>
        <time>2026-05-01T21:43:48.401Z</time>
        <speed>0.3347643</speed>
      </trkpt>
      <trkpt lat="30.0035911" lon="99.1044508">
        <ele>2533.833251953125</ele>
        <time>2026-05-01T21:43:59.402Z</time>
        <speed>0.30361754</speed>
      </trkpt>
      <trkpt lat="30.0036199" lon="99.1044673">
        <ele>2533.7377154449305</ele>
        <time>2026-05-01T21:44:04.402Z</time>
        <speed>0.35219508</speed>
      </trkpt>
      <trkpt lat="30.0035866" lon="99.1044518">
        <ele>2533.798187471747</ele>
        <time>2026-05-01T21:44:15.402Z</time>
        <speed>0.25012937</speed>
      </trkpt>
      <trkpt lat="30.003563" lon="99.1044307">
        <ele>2533.521760766788</ele>
        <time>2026-05-01T21:45:48.401Z</time>
        <speed>0.29040763</speed>
      </trkpt>
      <trkpt lat="30.0035093" lon="99.1044114">
        <ele>2533.534671261128</ele>
        <time>2026-05-01T21:45:59.404Z</time>
        <speed>0.31211016</speed>
      </trkpt>
      <trkpt lat="30.0035523" lon="99.1044318">
        <ele>2533.6869950563123</ele>
        <time>2026-05-01T21:46:19.401Z</time>
        <speed>0.2954504</speed>
      </trkpt>
      <trkpt lat="30.0035886" lon="99.1044448">
        <ele>2533.409141757555</ele>
        <time>2026-05-01T21:46:31.403Z</time>
        <speed>0.29736018</speed>
      </trkpt>
      <trkpt lat="30.003553" lon="99.1044287">
        <ele>2533.379897190625</ele>
        <time>2026-05-01T21:46:43.403Z</time>
        <speed>0.1344637</speed>
      </trkpt>
      <trkpt lat="30.0035828" lon="99.1044458">
        <ele>2533.365986859384</ele>
        <time>2026-05-01T21:46:59.403Z</time>
        <speed>0.17886646</speed>
      </trkpt>
      <trkpt lat="30.0035379" lon="99.1044245">
        <ele>2533.4800626500437</ele>
        <time>2026-05-01T21:47:23.402Z</time>
        <speed>0.1709099</speed>
      </trkpt>
      <trkpt lat="30.003505" lon="99.1044085">
        <ele>2533.231521662003</ele>
        <time>2026-05-01T21:47:35.401Z</time>
        <speed>0.19146708</speed>
      </trkpt>
      <trkpt lat="30.0035358" lon="99.1044233">
        <ele>2533.3360353528824</ele>
        <time>2026-05-01T21:48:55.402Z</time>
        <speed>0.22396801</speed>
      </trkpt>
      <trkpt lat="30.0035058" lon="99.1044075">
        <ele>2533.2636105493093</ele>
        <time>2026-05-01T21:50:32.399Z</time>
        <speed>0.2996513</speed>
      </trkpt>
      <trkpt lat="30.0035494" lon="99.1044183">
        <ele>2533.1490532367566</ele>
        <time>2026-05-01T21:51:59.402Z</time>
        <speed>0.24828477</speed>
      </trkpt>
      <trkpt lat="30.0035756" lon="99.1044357">
        <ele>2532.905816913791</ele>
        <time>2026-05-01T21:52:31.402Z</time>
        <speed>0.25501087</speed>
      </trkpt>
      <trkpt lat="30.003537" lon="99.1044156">
        <ele>2532.8600826726038</ele>
        <time>2026-05-01T21:52:46.164Z</time>
        <speed>0.2340793</speed>
      </trkpt>
      <trkpt lat="30.0035747" lon="99.1044349">
        <ele>2532.9148378442583</ele>
        <time>2026-05-01T21:53:03.402Z</time>
        <speed>0.226247</speed>
      </trkpt>
      <trkpt lat="30.0035475" lon="99.1044235">
        <ele>2532.9202089380083</ele>
        <time>2026-05-01T21:53:11.402Z</time>
        <speed>0.20475228</speed>
      </trkpt>
      <trkpt lat="30.0035204" lon="99.1044077">
        <ele>2532.829374755968</ele>
        <time>2026-05-01T21:53:31.402Z</time>
        <speed>0.16612709</speed>
      </trkpt>
      <trkpt lat="30.0035444" lon="99.1044249">
        <ele>2532.4777461028502</ele>
        <time>2026-05-01T21:55:54.986Z</time>
        <speed>0.2423743</speed>
      </trkpt>
      <trkpt lat="30.0035706" lon="99.1044348">
        <ele>2532.4467783447567</ele>
        <time>2026-05-01T21:55:59.400Z</time>
        <speed>0.25439075</speed>
      </trkpt>
      <trkpt lat="30.0035305" lon="99.1044171">
        <ele>2532.334888429667</ele>
        <time>2026-05-01T21:56:08.400Z</time>
        <speed>0.20528863</speed>
      </trkpt>
      <trkpt lat="30.0035015" lon="99.1044037">
        <ele>2532.3102494302134</ele>
        <time>2026-05-01T21:57:04.401Z</time>
        <speed>0.16485617</speed>
      </trkpt>
      <trkpt lat="30.0035273" lon="99.1044144">
        <ele>2532.365308564374</ele>
        <time>2026-05-01T21:58:56.399Z</time>
        <speed>0.15437682</speed>
      </trkpt>
      <trkpt lat="30.0035524" lon="99.1044286">
        <ele>2532.277895820394</ele>
        <time>2026-05-01T22:00:19.553Z</time>
        <speed>0.19937189</speed>
      </trkpt>
      <trkpt lat="30.0035892" lon="99.1044458">
        <ele>2532.389394740559</ele>
        <time>2026-05-01T22:01:04.399Z</time>
        <speed>0.22296207</speed>
      </trkpt>
      <trkpt lat="30.0035446" lon="99.1044287">
        <ele>2532.2427985508402</ele>
        <time>2026-05-01T22:01:48.401Z</time>
        <speed>0.18936764</speed>
      </trkpt>
      <trkpt lat="30.0035013" lon="99.1044142">
        <ele>2532.272756137813</ele>
        <time>2026-05-01T22:01:56.400Z</time>
        <speed>0.20064779</speed>
      </trkpt>
      <trkpt lat="30.0035299" lon="99.104412">
        <ele>2533.3092293146806</ele>
        <time>2026-05-01T22:05:59.230Z</time>
        <speed>0.21733326</speed>
      </trkpt>
      <trkpt lat="30.0035667" lon="99.1044298">
        <ele>2533.513821246596</ele>
        <time>2026-05-01T22:06:08.398Z</time>
        <speed>0.30808398</speed>
      </trkpt>
      <trkpt lat="30.0035945" lon="99.1044353">
        <ele>2533.5582597252915</ele>
        <time>2026-05-01T22:07:04.399Z</time>
        <speed>0.21551307</speed>
      </trkpt>
      <trkpt lat="30.0036324" lon="99.1044682">
        <ele>2533.7276746836465</ele>
        <time>2026-05-01T22:08:04.399Z</time>
        <speed>0.2867874</speed>
      </trkpt>
      <trkpt lat="30.0036079" lon="99.1044491">
        <ele>2533.7811576734607</ele>
        <time>2026-05-01T22:09:03.625Z</time>
        <speed>0.24483518</speed>
      </trkpt>
      <trkpt lat="30.0035784" lon="99.1044292">
        <ele>2533.861950938305</ele>
        <time>2026-05-01T22:09:24.399Z</time>
        <speed>0.17941503</speed>
      </trkpt>
      <trkpt lat="30.0035435" lon="99.1044213">
        <ele>2534.0303548554302</ele>
        <time>2026-05-01T22:10:12.398Z</time>
        <speed>0.18066429</speed>
      </trkpt>
      <trkpt lat="30.0035753" lon="99.1044335">
        <ele>2534.102502498171</ele>
        <time>2026-05-01T22:10:44.398Z</time>
        <speed>0.15939799</speed>
      </trkpt>
      <trkpt lat="30.0035463" lon="99.104421">
        <ele>2534.5750539820424</ele>
        <time>2026-05-01T22:13:20.399Z</time>
        <speed>0.12810338</speed>
      </trkpt>
      <trkpt lat="30.0035747" lon="99.1044295">
        <ele>2534.6546400441953</ele>
        <time>2026-05-01T22:18:51.730Z</time>
        <speed>0.14975363</speed>
      </trkpt>
      <trkpt lat="30.0035786" lon="99.1043922">
        <ele>2534.502904879514</ele>
        <time>2026-05-01T22:20:06.416Z</time>
        <speed>0.14945517</speed>
      </trkpt>
      <trkpt lat="30.0035653" lon="99.1043559">
        <ele>2534.4538981003884</ele>
        <time>2026-05-01T22:20:16.397Z</time>
        <speed>0.15819891</speed>
      </trkpt>
      <trkpt lat="30.0035954" lon="99.1043731">
        <ele>2534.253279471961</ele>
        <time>2026-05-01T22:21:08.397Z</time>
        <speed>0.2440656</speed>
      </trkpt>
      <trkpt lat="30.0036131" lon="99.1044132">
        <ele>2534.128506675168</ele>
        <time>2026-05-01T22:22:28.395Z</time>
        <speed>0.2407609</speed>
      </trkpt>
      <trkpt lat="30.0035954" lon="99.1043817">
        <ele>2533.7900022283193</ele>
        <time>2026-05-01T22:24:04.394Z</time>
        <speed>0.23113705</speed>
      </trkpt>
      <trkpt lat="30.0035767" lon="99.1043551">
        <ele>2533.703007910809</ele>
        <time>2026-05-01T22:25:04.395Z</time>
        <speed>0.20262149</speed>
      </trkpt>
      <trkpt lat="30.0035932" lon="99.1043901">
        <ele>2533.488570704906</ele>
        <time>2026-05-01T22:26:16.394Z</time>
        <speed>0.15533432</speed>
      </trkpt>
      <trkpt lat="30.0036154" lon="99.1044084">
        <ele>2533.3302223342616</ele>
        <time>2026-05-01T22:27:04.395Z</time>
        <speed>0.14888617</speed>
      </trkpt>
      <trkpt lat="30.0035972" lon="99.1043772">
        <ele>2532.96424161936</ele>
        <time>2026-05-01T22:29:16.394Z</time>
        <speed>0.19425045</speed>
      </trkpt>
    </trkseg>
  </trk>
</gpx>
