<?xml version="1.0" encoding="UTF-8"?>
<gpx version="1.1" creator="Kairos" xmlns="http://www.topografix.com/GPX/1/1">
  <trk>
    <name>sidecar-srt-cd130527692483aa</name>
    <trkseg>
      <trkpt lat="24.706344" lon="115.364236"><time>2026-08-19T22:39:27.000Z</time></trkpt>
      <trkpt lat="24.706344" lon="115.364236"><time>2026-08-19T22:39:27.016Z</time></trkpt>
      <trkpt lat="24.706344" lon="115.364236"><time>2026-08-19T22:39:27.032Z</time></trkpt>
      <trkpt lat="24.706344" lon="115.364236"><time>2026-08-19T22:39:27.049Z</time></trkpt>
      <trkpt lat="24.706344" lon="115.364236"><time>2026-08-19T22:39:27.066Z</time></trkpt>
      <trkpt lat="24.706344" lon="115.364236"><time>2026-08-19T22:39:27.082Z</time></trkpt>
      <trkpt lat="24.706345" lon="115.364236"><time>2026-08-19T22:39:27.099Z</time></trkpt>
      <trkpt lat="24.706345" lon="115.364236"><time>2026-08-19T22:39:27.116Z</time></trkpt>
      <trkpt lat="24.706345" lon="115.364236"><time>2026-08-19T22:39:27.132Z</time></trkpt>
      <trkpt lat="24.706345" lon="115.364236"><time>2026-08-19T22:39:27.149Z</time></trkpt>
      <trkpt lat="24.706345" lon="115.364236"><time>2026-08-19T22:39:27.166Z</time></trkpt>
      <trkpt lat="24.706345" lon="115.364236"><time>2026-08-19T22:39:27.182Z</time></trkpt>
      <trkpt lat="24.706345" lon="115.364236"><time>2026-08-19T22:39:27.199Z</time></trkpt>
      <trkpt lat="24.706345" lon="115.364236"><time>2026-08-19T22:39:27.216Z</time></trkpt>
      <trkpt lat="24.706345" lon="115.364236"><time>2026-08-19T22:39:27.232Z</time></trkpt>
      <trkpt lat="24.706345" lon="115.364236"><time>2026-08-19T22:39:27.249Z</time></trkpt>
      <trkpt lat="24.706345" lon="115.364236"><time>2026-08-19T22:39:27.266Z</time></trkpt>
      <trkpt lat="24.706345" lon="115.364236"><time>2026-08-19T22:39:27.282Z</time></trkpt>
      <trkpt lat="24.706345" lon="115.364236"><time>2026-08-19T22:39:27.299Z</time></trkpt>
      <trkpt lat="24.706345" lon="115.364236"><time>2026-08-19T22:39:27.316Z</time></trkpt>
      <trkpt lat="24.706345" lon="115.364236"><time>2026-08-19T22:39:27.332Z</time></trkpt>
      <trkpt lat="24.706345" lon="115.364236"><time>2026-08-19T22:39:27.349Z</time></trkpt>
      <trkpt lat="24.706345" lon="115.364236"><time>2026-08-19T22:39:27.366Z</time></trkpt>
      <trkpt lat="24.706345" lon="115.364236"><time>2026-08-19T22:39:27.383Z</time></trkpt>
      <trkpt lat="24.706345" lon="115.364236"><time>2026-08-19T22:39:27.399Z</time></trkpt>
      <trkpt lat="24.706345" lon="115.364236"><time>2026-08-19T22:39:27.416Z</time></trkpt>
      <trkpt lat="24.706345" lon="115.364236"><time>2026-08-19T22:39:27.433Z</time></trkpt>
      <trkpt lat="24.706345" lon="115.364236"><time>2026-08-19T22:39:27.449Z</time></trkpt>
      <trkpt lat="24.706345" lon="115.364236"><time>2026-08-19T22:39:27.466Z</time></trkpt>
      <trkpt lat="24.706345" lon="115.364236"><time>2026-08-19T22:39:27.483Z</time></trkpt>
      <trkpt lat="24.706345" lon="115.364236"><time>2026-08-19T22:39:27.499Z</time></trkpt>
      <trkpt lat="24.706345" lon="115.364236"><time>2026-08-19T22:39:27.516Z</time></trkpt>
      <trkpt lat="24.706345" lon="115.364236"><time>2026-08-19T22:39:27.533Z</time></trkpt>
      <trkpt lat="24.706345" lon="115.364236"><time>2026-08-19T22:39:27.549Z</time></trkpt>
      <trkpt lat="24.706345" lon="115.364236"><time>2026-08-19T22:39:27.566Z</time></trkpt>
      <trkpt lat="24.706345" lon="115.364236"><time>2026-08-19T22:39:27.583Z</time></trkpt>
      <trkpt lat="24.706345" lon="115.364236"><time>2026-08-19T22:39:27.599Z</time></trkpt>
      <trkpt lat="24.706345" lon="115.364236"><time>2026-08-19T22:39:27.616Z</time></trkpt>
      <trkpt lat="24.706345" lon="115.364236"><time>2026-08-19T22:39:27.633Z</time></trkpt>
      <trkpt lat="24.706345" lon="115.364236"><time>2026-08-19T22:39:27.649Z</time></trkpt>
      <trkpt lat="24.706345" lon="115.364236"><time>2026-08-19T22:39:27.666Z</time></trkpt>
      <trkpt lat="24.706345" lon="115.364236"><time>2026-08-19T22:39:27.683Z</time></trkpt>
      <trkpt lat="24.706345" lon="115.364236"><time>2026-08-19T22:39:27.699Z</time></trkpt>
      <trkpt lat="24.706345" lon="115.364236"><time>2026-08-19T22:39:27.716Z</time></trkpt>
      <trkpt lat="24.706345" lon="115.364236"><time>2026-08-19T22:39:27.733Z</time></trkpt>
      <trkpt lat="24.706345" lon="115.364236"><time>2026-08-19T22:39:27.750Z</time></trkpt>
      <trkpt lat="24.706345" lon="115.364236"><time>2026-08-19T22:39:27.766Z</time></trkpt>
      <trkpt lat="24.706345" lon="115.364236"><time>2026-08-19T22:39:27.783Z</time></trkpt>
      <trkpt lat="24.706345" lon="115.364236"><time>2026-08-19T22:39:27.800Z</time></trkpt>
      <trkpt lat="24.706345" lon="115.364236"><time>2026-08-19T22:39:27.816Z</time></trkpt>
      <trkpt lat="24.706345" lon="115.364236"><time>2026-08-19T22:39:27.833Z</time></trkpt>
      <trkpt lat="24.706345" lon="115.364236"><time>2026-08-19T22:39:27.850Z</time></trkpt>
      <trkpt lat="24.706345" lon="115.364236"><time>2026-08-19T22:39:27.866Z</time></trkpt>
      <trkpt lat="24.706345" lon="115.364236"><time>2026-08-19T22:39:27.883Z</time></trkpt>
      <trkpt lat="24.706345" lon="115.364236"><time>2026-08-19T22:39:27.900Z</time></trkpt>
      <trkpt lat="24.706345" lon="115.364236"><time>2026-08-19T22:39:27.916Z</time></trkpt>
      <trkpt lat="24.706345" lon="115.364236"><time>2026-08-19T22:39:27.933Z</time></trkpt>
      <trkpt lat="24.706345" lon="115.364236"><time>2026-08-19T22:39:27.950Z</time></trkpt>
      <trkpt lat="24.706345" lon="115.364236"><time>2026-08-19T22:39:27.966Z</time></trkpt>
      <trkpt lat="24.706345" lon="115.364236"><time>2026-08-19T22:39:27.983Z</time></trkpt>
      <trkpt lat="24.706345" lon="115.364236"><time>2026-08-19T22:39:28.000Z</time></trkpt>
      <trkpt lat="24.706345" lon="115.364236"><time>2026-08-19T22:39:28.016Z</time></trkpt>
      <trkpt lat="24.706345" lon="115.364236"><time>2026-08-19T22:39:28.033Z</time></trkpt>
      <trkpt lat="24.706345" lon="115.364236"><time>2026-08-19T22:39:28.050Z</time></trkpt>
      <trkpt lat="24.706345" lon="115.364236"><time>2026-08-19T22:39:28.067Z</time></trkpt>
      <trkpt lat="24.706345" lon="115.364236"><time>2026-08-19T22:39:28.083Z</time></trkpt>
      <trkpt lat="24.706345" lon="115.364236"><time>2026-08-19T22:39:28.100Z</time></trkpt>
      <trkpt lat="24.706345" lon="115.364236"><time>2026-08-19T22:39:28.117Z</time></trkpt>
      <trkpt lat="24.706345" lon="115.364236"><time>2026-08-19T22:39:28.133Z</time></trkpt>
      <trkpt lat="24.706345" lon="115.364236"><time>2026-08-19T22:39:28.150Z</time></trkpt>
      <trkpt lat="24.706345" lon="115.364236"><time>2026-08-19T22:39:28.167Z</time></trkpt>
      <trkpt lat="24.706345" lon="115.364236"><time>2026-08-19T22:39:28.183Z</time></trkpt>
      <trkpt lat="24.706345" lon="115.364236"><time>2026-08-19T22:39:28.200Z</time></trkpt>
      <trkpt lat="24.706345" lon="115.364236"><time>2026-08-19T22:39:28.217Z</time></trkpt>
      <trkpt lat="24.706345" lon="115.364236"><time>2026-08-19T22:39:28.233Z</time></trkpt>
      <trkpt lat="24.706345" lon="115.364236"><time>2026-08-19T22:39:28.250Z</time></trkpt>
      <trkpt lat="24.706345" lon="115.364236"><time>2026-08-19T22:39:28.267Z</time></trkpt>
      <trkpt lat="24.706345" lon="115.364236"><time>2026-08-19T22:39:28.283Z</time></trkpt>
      <trkpt lat="24.706345" lon="115.364236"><time>2026-08-19T22:39:28.300Z</time></trkpt>
      <trkpt lat="24.706345" lon="115.364236"><time>2026-08-19T22:39:28.317Z</time></trkpt>
      <trkpt lat="24.706345" lon="115.364236"><time>2026-08-19T22:39:28.333Z</time></trkpt>
      <trkpt lat="24.706345" lon="115.364236"><time>2026-08-19T22:39:28.350Z</time></trkpt>
      <trkpt lat="24.706345" lon="115.364236"><time>2026-08-19T22:39:28.367Z</time></trkpt>
      <trkpt lat="24.706345" lon="115.364236"><time>2026-08-19T22:39:28.383Z</time></trkpt>
      <trkpt lat="24.706345" lon="115.364236"><time>2026-08-19T22:39:28.400Z</time></trkpt>
      <trkpt lat="24.706345" lon="115.364236"><time>2026-08-19T22:39:28.417Z</time></trkpt>
      <trkpt lat="24.706345" lon="115.364236"><time>2026-08-19T22:39:28.434Z</time></trkpt>
      <trkpt lat="24.706345" lon="115.364236"><time>2026-08-19T22:39:28.450Z</time></trkpt>
      <trkpt lat="24.706345" lon="115.364236"><time>2026-08-19T22:39:28.467Z</time></trkpt>
      <trkpt lat="24.706345" lon="115.364236"><time>2026-08-19T22:39:28.484Z</time></trkpt>
      <trkpt lat="24.706345" lon="115.364236"><time>2026-08-19T22:39:28.500Z</time></trkpt>
      <trkpt lat="24.706345" lon="115.364236"><time>2026-08-19T22:39:28.517Z</time></trkpt>
      <trkpt lat="24.706345" lon="115.364236"><time>2026-08-19T22:39:28.534Z</time></trkpt>
      <trkpt lat="24.706345" lon="115.364236"><time>2026-08-19T22:39:28.550Z</time></trkpt>
      <trkpt lat="24.706345" lon="115.364236"><time>2026-08-19T22:39:28.567Z</time></trkpt>
      <trkpt lat="24.706345" lon="115.364236"><time>2026-08-19T22:39:28.584Z</time></trkpt>
      <trkpt lat="24.706345" lon="115.364236"><time>2026-08-19T22:39:28.600Z</time></trkpt>
      <trkpt lat="24.706345" lon="115.364236"><time>2026-08-19T22:39:28.617Z</time></trkpt>
      <trkpt lat="24.706345" lon="115.364236"><time>2026-08-19T22:39:28.634Z</time></trkpt>
      <trkpt lat="24.706345" lon="115.364236"><time>2026-08-19T22:39:28.650Z</time></trkpt>
      <trkpt lat="24.706345" lon="115.364236"><time>2026-08-19T22:39:28.667Z</time></trkpt>
      <trkpt lat="24.706345" lon="115.364236"><time>2026-08-19T22:39:28.684Z</time></trkpt>
      <trkpt lat="24.706345" lon="115.364236"><time>2026-08-19T22:39:28.700Z</time></trkpt>
      <trkpt lat="24.706345" lon="115.364236"><time>2026-08-19T22:39:28.717Z</time></trkpt>
      <trkpt lat="24.706345" lon="115.364236"><time>2026-08-19T22:39:28.734Z</time></trkpt>
      <trkpt lat="24.706345" lon="115.364236"><time>2026-08-19T22:39:28.751Z</time></trkpt>
      <trkpt lat="24.706345" lon="115.364236"><time>2026-08-19T22:39:28.767Z</time></trkpt>
      <trkpt lat="24.706345" lon="115.364236"><time>2026-08-19T22:39:28.784Z</time></trkpt>
      <trkpt lat="24.706345" lon="115.364236"><time>2026-08-19T22:39:28.801Z</time></trkpt>
      <trkpt lat="24.706345" lon="115.364236"><time>2026-08-19T22:39:28.817Z</time></trkpt>
      <trkpt lat="24.706345" lon="115.364236"><time>2026-08-19T22:39:28.834Z</time></trkpt>
      <trkpt lat="24.706345" lon="115.364236"><time>2026-08-19T22:39:28.851Z</time></trkpt>
      <trkpt lat="24.706345" lon="115.364236"><time>2026-08-19T22:39:28.867Z</time></trkpt>
      <trkpt lat="24.706345" lon="115.364236"><time>2026-08-19T22:39:28.884Z</time></trkpt>
      <trkpt lat="24.706345" lon="115.364236"><time>2026-08-19T22:39:28.901Z</time></trkpt>
      <trkpt lat="24.706345" lon="115.364236"><time>2026-08-19T22:39:28.917Z</time></trkpt>
      <trkpt lat="24.706345" lon="115.364236"><time>2026-08-19T22:39:28.934Z</time></trkpt>
      <trkpt lat="24.706345" lon="115.364236"><time>2026-08-19T22:39:28.951Z</time></trkpt>
      <trkpt lat="24.706345" lon="115.364236"><time>2026-08-19T22:39:28.967Z</time></trkpt>
      <trkpt lat="24.706345" lon="115.364236"><time>2026-08-19T22:39:28.984Z</time></trkpt>
      <trkpt lat="24.706345" lon="115.364236"><time>2026-08-19T22:39:29.001Z</time></trkpt>
      <trkpt lat="24.706345" lon="115.364236"><time>2026-08-19T22:39:29.017Z</time></trkpt>
      <trkpt lat="24.706345" lon="115.364236"><time>2026-08-19T22:39:29.034Z</time></trkpt>
      <trkpt lat="24.706345" lon="115.364236"><time>2026-08-19T22:39:29.051Z</time></trkpt>
      <trkpt lat="24.706345" lon="115.364236"><time>2026-08-19T22:39:29.067Z</time></trkpt>
      <trkpt lat="24.706345" lon="115.364236"><time>2026-08-19T22:39:29.084Z</time></trkpt>
      <trkpt lat="24.706345" lon="115.364236"><time>2026-08-19T22:39:29.101Z</time></trkpt>
      <trkpt lat="24.706345" lon="115.364236"><time>2026-08-19T22:39:29.118Z</time></trkpt>
      <trkpt lat="24.706345" lon="115.364236"><time>2026-08-19T22:39:29.134Z</time></trkpt>
      <trkpt lat="24.706345" lon="115.364236"><time>2026-08-19T22:39:29.151Z</time></trkpt>
      <trkpt lat="24.706345" lon="115.364236"><time>2026-08-19T22:39:29.168Z</time></trkpt>
      <trkpt lat="24.706345" lon="115.364236"><time>2026-08-19T22:39:29.184Z</time></trkpt>
      <trkpt lat="24.706345" lon="115.364236"><time>2026-08-19T22:39:29.201Z</time></trkpt>
      <trkpt lat="24.706345" lon="115.364236"><time>2026-08-19T22:39:29.218Z</time></trkpt>
      <trkpt lat="24.706345" lon="115.364236"><time>2026-08-19T22:39:29.234Z</time></trkpt>
      <trkpt lat="24.706345" lon="115.364236"><time>2026-08-19T22:39:29.251Z</time></trkpt>
      <trkpt lat="24.706345" lon="115.364236"><time>2026-08-19T22:39:29.268Z</time></trkpt>
      <trkpt lat="24.706345" lon="115.364236"><time>2026-08-19T22:39:29.284Z</time></trkpt>
      <trkpt lat="24.706345" lon="115.364236"><time>2026-08-19T22:39:29.301Z</time></trkpt>
      <trkpt lat="24.706345" lon="115.364236"><time>2026-08-19T22:39:29.318Z</time></trkpt>
      <trkpt lat="24.706345" lon="115.364236"><time>2026-08-19T22:39:29.334Z</time></trkpt>
      <trkpt lat="24.706345" lon="115.364236"><time>2026-08-19T22:39:29.351Z</time></trkpt>
      <trkpt lat="24.706345" lon="115.364236"><time>2026-08-19T22:39:29.368Z</time></trkpt>
      <trkpt lat="24.706345" lon="115.364236"><time>2026-08-19T22:39:29.384Z</time></trkpt>
      <trkpt lat="24.706345" lon="115.364236"><time>2026-08-19T22:39:29.401Z</time></trkpt>
      <trkpt lat="24.706345" lon="115.364236"><time>2026-08-19T22:39:29.418Z</time></trkpt>
      <trkpt lat="24.706345" lon="115.364236"><time>2026-08-19T22:39:29.434Z</time></trkpt>
      <trkpt lat="24.706345" lon="115.364236"><time>2026-08-19T22:39:29.451Z</time></trkpt>
      <trkpt lat="24.706345" lon="115.364236"><time>2026-08-19T22:39:29.468Z</time></trkpt>
      <trkpt lat="24.706345" lon="115.364236"><time>2026-08-19T22:39:29.485Z</time></trkpt>
      <trkpt lat="24.706345" lon="115.364236"><time>2026-08-19T22:39:29.501Z</time></trkpt>
      <trkpt lat="24.706345" lon="115.364236"><time>2026-08-19T22:39:29.518Z</time></trkpt>
      <trkpt lat="24.706345" lon="115.364236"><time>2026-08-19T22:39:29.535Z</time></trkpt>
      <trkpt lat="24.706345" lon="115.364236"><time>2026-08-19T22:39:29.551Z</time></trkpt>
      <trkpt lat="24.706345" lon="115.364236"><time>2026-08-19T22:39:29.568Z</time></trkpt>
      <trkpt lat="24.706345" lon="115.364236"><time>2026-08-19T22:39:29.585Z</time></trkpt>
      <trkpt lat="24.706345" lon="115.364236"><time>2026-08-19T22:39:29.601Z</time></trkpt>
      <trkpt lat="24.706345" lon="115.364236"><time>2026-08-19T22:39:29.618Z</time></trkpt>
      <trkpt lat="24.706345" lon="115.364236"><time>2026-08-19T22:39:29.635Z</time></trkpt>
      <trkpt lat="24.706345" lon="115.364236"><time>2026-08-19T22:39:29.651Z</time></trkpt>
      <trkpt lat="24.706345" lon="115.364236"><time>2026-08-19T22:39:29.668Z</time></trkpt>
      <trkpt lat="24.706345" lon="115.364236"><time>2026-08-19T22:39:29.685Z</time></trkpt>
      <trkpt lat="24.706345" lon="115.364236"><time>2026-08-19T22:39:29.701Z</time></trkpt>
      <trkpt lat="24.706345" lon="115.364236"><time>2026-08-19T22:39:29.718Z</time></trkpt>
      <trkpt lat="24.706345" lon="115.364236"><time>2026-08-19T22:39:29.735Z</time></trkpt>
      <trkpt lat="24.706345" lon="115.364236"><time>2026-08-19T22:39:29.751Z</time></trkpt>
      <trkpt lat="24.706345" lon="115.364236"><time>2026-08-19T22:39:29.768Z</time></trkpt>
      <trkpt lat="24.706345" lon="115.364236"><time>2026-08-19T22:39:29.785Z</time></trkpt>
      <trkpt lat="24.706345" lon="115.364236"><time>2026-08-19T22:39:29.802Z</time></trkpt>
      <trkpt lat="24.706345" lon="115.364236"><time>2026-08-19T22:39:29.818Z</time></trkpt>
      <trkpt lat="24.706345" lon="115.364236"><time>2026-08-19T22:39:29.835Z</time></trkpt>
      <trkpt lat="24.706345" lon="115.364236"><time>2026-08-19T22:39:29.852Z</time></trkpt>
      <trkpt lat="24.706345" lon="115.364236"><time>2026-08-19T22:39:29.868Z</time></trkpt>
      <trkpt lat="24.706345" lon="115.364236"><time>2026-08-19T22:39:29.885Z</time></trkpt>
      <trkpt lat="24.706345" lon="115.364235"><time>2026-08-19T22:39:29.902Z</time></trkpt>
      <trkpt lat="24.706345" lon="115.364235"><time>2026-08-19T22:39:29.918Z</time></trkpt>
      <trkpt lat="24.706345" lon="115.364235"><time>2026-08-19T22:39:29.935Z</time></trkpt>
      <trkpt lat="24.706345" lon="115.364235"><time>2026-08-19T22:39:29.952Z</time></trkpt>
      <trkpt lat="24.706345" lon="115.364235"><time>2026-08-19T22:39:29.968Z</time></trkpt>
      <trkpt lat="24.706345" lon="115.364235"><time>2026-08-19T22:39:29.985Z</time></trkpt>
      <trkpt lat="24.706345" lon="115.364235"><time>2026-08-19T22:39:30.002Z</time></trkpt>
      <trkpt lat="24.706345" lon="115.364235"><time>2026-08-19T22:39:30.018Z</time></trkpt>
      <trkpt lat="24.706345" lon="115.364235"><time>2026-08-19T22:39:30.035Z</time></trkpt>
      <trkpt lat="24.706345" lon="115.364235"><time>2026-08-19T22:39:30.052Z</time></trkpt>
      <trkpt lat="24.706345" lon="115.364235"><time>2026-08-19T22:39:30.068Z</time></trkpt>
      <trkpt lat="24.706345" lon="115.364235"><time>2026-08-19T22:39:30.085Z</time></trkpt>
      <trkpt lat="24.706345" lon="115.364235"><time>2026-08-19T22:39:30.102Z</time></trkpt>
      <trkpt lat="24.706345" lon="115.364235"><time>2026-08-19T22:39:30.118Z</time></trkpt>
      <trkpt lat="24.706345" lon="115.364235"><time>2026-08-19T22:39:30.135Z</time></trkpt>
      <trkpt lat="24.706345" lon="115.364235"><time>2026-08-19T22:39:30.152Z</time></trkpt>
      <trkpt lat="24.706345" lon="115.364235"><time>2026-08-19T22:39:30.169Z</time></trkpt>
      <trkpt lat="24.706345" lon="115.364235"><time>2026-08-19T22:39:30.185Z</time></trkpt>
      <trkpt lat="24.706345" lon="115.364235"><time>2026-08-19T22:39:30.202Z</time></trkpt>
      <trkpt lat="24.706345" lon="115.364235"><time>2026-08-19T22:39:30.219Z</time></trkpt>
      <trkpt lat="24.706345" lon="115.364235"><time>2026-08-19T22:39:30.235Z</time></trkpt>
      <trkpt lat="24.706345" lon="115.364235"><time>2026-08-19T22:39:30.252Z</time></trkpt>
      <trkpt lat="24.706345" lon="115.364235"><time>2026-08-19T22:39:30.269Z</time></trkpt>
      <trkpt lat="24.706345" lon="115.364235"><time>2026-08-19T22:39:30.285Z</time></trkpt>
      <trkpt lat="24.706345" lon="115.364235"><time>2026-08-19T22:39:30.302Z</time></trkpt>
      <trkpt lat="24.706345" lon="115.364235"><time>2026-08-19T22:39:30.319Z</time></trkpt>
      <trkpt lat="24.706345" lon="115.364235"><time>2026-08-19T22:39:30.335Z</time></trkpt>
      <trkpt lat="24.706345" lon="115.364235"><time>2026-08-19T22:39:30.352Z</time></trkpt>
      <trkpt lat="24.706345" lon="115.364235"><time>2026-08-19T22:39:30.369Z</time></trkpt>
      <trkpt lat="24.706345" lon="115.364235"><time>2026-08-19T22:39:30.385Z</time></trkpt>
      <trkpt lat="24.706345" lon="115.364235"><time>2026-08-19T22:39:30.402Z</time></trkpt>
      <trkpt lat="24.706345" lon="115.364235"><time>2026-08-19T22:39:30.419Z</time></trkpt>
      <trkpt lat="24.706345" lon="115.364235"><time>2026-08-19T22:39:30.435Z</time></trkpt>
      <trkpt lat="24.706345" lon="115.364235"><time>2026-08-19T22:39:30.452Z</time></trkpt>
      <trkpt lat="24.706345" lon="115.364235"><time>2026-08-19T22:39:30.469Z</time></trkpt>
      <trkpt lat="24.706345" lon="115.364235"><time>2026-08-19T22:39:30.486Z</time></trkpt>
      <trkpt lat="24.706345" lon="115.364235"><time>2026-08-19T22:39:30.502Z</time></trkpt>
      <trkpt lat="24.706345" lon="115.364235"><time>2026-08-19T22:39:30.519Z</time></trkpt>
      <trkpt lat="24.706345" lon="115.364235"><time>2026-08-19T22:39:30.536Z</time></trkpt>
      <trkpt lat="24.706345" lon="115.364235"><time>2026-08-19T22:39:30.552Z</time></trkpt>
      <trkpt lat="24.706345" lon="115.364235"><time>2026-08-19T22:39:30.569Z</time></trkpt>
      <trkpt lat="24.706345" lon="115.364235"><time>2026-08-19T22:39:30.586Z</time></trkpt>
      <trkpt lat="24.706345" lon="115.364235"><time>2026-08-19T22:39:30.602Z</time></trkpt>
      <trkpt lat="24.706345" lon="115.364235"><time>2026-08-19T22:39:30.619Z</time></trkpt>
      <trkpt lat="24.706345" lon="115.364235"><time>2026-08-19T22:39:30.636Z</time></trkpt>
      <trkpt lat="24.706345" lon="115.364235"><time>2026-08-19T22:39:30.652Z</time></trkpt>
      <trkpt lat="24.706345" lon="115.364235"><time>2026-08-19T22:39:30.669Z</time></trkpt>
      <trkpt lat="24.706345" lon="115.364235"><time>2026-08-19T22:39:30.686Z</time></trkpt>
      <trkpt lat="24.706345" lon="115.364235"><time>2026-08-19T22:39:30.702Z</time></trkpt>
      <trkpt lat="24.706345" lon="115.364235"><time>2026-08-19T22:39:30.719Z</time></trkpt>
      <trkpt lat="24.706345" lon="115.364235"><time>2026-08-19T22:39:30.736Z</time></trkpt>
      <trkpt lat="24.706345" lon="115.364235"><time>2026-08-19T22:39:30.752Z</time></trkpt>
      <trkpt lat="24.706345" lon="115.364235"><time>2026-08-19T22:39:30.769Z</time></trkpt>
      <trkpt lat="24.706345" lon="115.364235"><time>2026-08-19T22:39:30.786Z</time></trkpt>
      <trkpt lat="24.706345" lon="115.364235"><time>2026-08-19T22:39:30.802Z</time></trkpt>
      <trkpt lat="24.706345" lon="115.364235"><time>2026-08-19T22:39:30.819Z</time></trkpt>
      <trkpt lat="24.706345" lon="115.364235"><time>2026-08-19T22:39:30.836Z</time></trkpt>
      <trkpt lat="24.706345" lon="115.364235"><time>2026-08-19T22:39:30.853Z</time></trkpt>
      <trkpt lat="24.706345" lon="115.364235"><time>2026-08-19T22:39:30.869Z</time></trkpt>
      <trkpt lat="24.706345" lon="115.364235"><time>2026-08-19T22:39:30.886Z</time></trkpt>
      <trkpt lat="24.706345" lon="115.364235"><time>2026-08-19T22:39:30.903Z</time></trkpt>
      <trkpt lat="24.706345" lon="115.364235"><time>2026-08-19T22:39:30.919Z</time></trkpt>
      <trkpt lat="24.706345" lon="115.364235"><time>2026-08-19T22:39:30.936Z</time></trkpt>
      <trkpt lat="24.706345" lon="115.364235"><time>2026-08-19T22:39:30.953Z</time></trkpt>
      <trkpt lat="24.706345" lon="115.364235"><time>2026-08-19T22:39:30.969Z</time></trkpt>
      <trkpt lat="24.706345" lon="115.364235"><time>2026-08-19T22:39:30.986Z</time></trkpt>
      <trkpt lat="24.706345" lon="115.364235"><time>2026-08-19T22:39:31.003Z</time></trkpt>
      <trkpt lat="24.706345" lon="115.364235"><time>2026-08-19T22:39:31.019Z</time></trkpt>
      <trkpt lat="24.706345" lon="115.364235"><time>2026-08-19T22:39:31.036Z</time></trkpt>
      <trkpt lat="24.706345" lon="115.364235"><time>2026-08-19T22:39:31.053Z</time></trkpt>
      <trkpt lat="24.706345" lon="115.364235"><time>2026-08-19T22:39:31.069Z</time></trkpt>
      <trkpt lat="24.706345" lon="115.364235"><time>2026-08-19T22:39:31.086Z</time></trkpt>
      <trkpt lat="24.706345" lon="115.364235"><time>2026-08-19T22:39:31.103Z</time></trkpt>
      <trkpt lat="24.706345" lon="115.364235"><time>2026-08-19T22:39:31.119Z</time></trkpt>
      <trkpt lat="24.706345" lon="115.364235"><time>2026-08-19T22:39:31.136Z</time></trkpt>
      <trkpt lat="24.706345" lon="115.364235"><time>2026-08-19T22:39:31.153Z</time></trkpt>
      <trkpt lat="24.706345" lon="115.364235"><time>2026-08-19T22:39:31.169Z</time></trkpt>
      <trkpt lat="24.706345" lon="115.364235"><time>2026-08-19T22:39:31.186Z</time></trkpt>
      <trkpt lat="24.706345" lon="115.364235"><time>2026-08-19T22:39:31.203Z</time></trkpt>
      <trkpt lat="24.706345" lon="115.364235"><time>2026-08-19T22:39:31.220Z</time></trkpt>
      <trkpt lat="24.706345" lon="115.364235"><time>2026-08-19T22:39:31.236Z</time></trkpt>
      <trkpt lat="24.706345" lon="115.364235"><time>2026-08-19T22:39:31.253Z</time></trkpt>
      <trkpt lat="24.706345" lon="115.364235"><time>2026-08-19T22:39:31.270Z</time></trkpt>
      <trkpt lat="24.706345" lon="115.364235"><time>2026-08-19T22:39:31.286Z</time></trkpt>
      <trkpt lat="24.706345" lon="115.364235"><time>2026-08-19T22:39:31.303Z</time></trkpt>
      <trkpt lat="24.706345" lon="115.364235"><time>2026-08-19T22:39:31.320Z</time></trkpt>
      <trkpt lat="24.706345" lon="115.364235"><time>2026-08-19T22:39:31.336Z</time></trkpt>
      <trkpt lat="24.706345" lon="115.364235"><time>2026-08-19T22:39:31.353Z</time></trkpt>
      <trkpt lat="24.706345" lon="115.364235"><time>2026-08-19T22:39:31.370Z</time></trkpt>
      <trkpt lat="24.706345" lon="115.364235"><time>2026-08-19T22:39:31.386Z</time></trkpt>
      <trkpt lat="24.706345" lon="115.364235"><time>2026-08-19T22:39:31.403Z</time></trkpt>
      <trkpt lat="24.706345" lon="115.364235"><time>2026-08-19T22:39:31.420Z</time></trkpt>
      <trkpt lat="24.706345" lon="115.364235"><time>2026-08-19T22:39:31.436Z</time></trkpt>
      <trkpt lat="24.706345" lon="115.364235"><time>2026-08-19T22:39:31.453Z</time></trkpt>
      <trkpt lat="24.706345" lon="115.364235"><time>2026-08-19T22:39:31.470Z</time></trkpt>
      <trkpt lat="24.706345" lon="115.364235"><time>2026-08-19T22:39:31.486Z</time></trkpt>
      <trkpt lat="24.706345" lon="115.364235"><time>2026-08-19T22:39:31.503Z</time></trkpt>
      <trkpt lat="24.706345" lon="115.364235"><time>2026-08-19T22:39:31.520Z</time></trkpt>
      <trkpt lat="24.706345" lon="115.364235"><time>2026-08-19T22:39:31.537Z</time></trkpt>
      <trkpt lat="24.706345" lon="115.364235"><time>2026-08-19T22:39:31.553Z</time></trkpt>
      <trkpt lat="24.706345" lon="115.364235"><time>2026-08-19T22:39:31.570Z</time></trkpt>
      <trkpt lat="24.706345" lon="115.364235"><time>2026-08-19T22:39:31.587Z</time></trkpt>
      <trkpt lat="24.706345" lon="115.364235"><time>2026-08-19T22:39:31.603Z</time></trkpt>
      <trkpt lat="24.706345" lon="115.364235"><time>2026-08-19T22:39:31.620Z</time></trkpt>
      <trkpt lat="24.706345" lon="115.364235"><time>2026-08-19T22:39:31.637Z</time></trkpt>
      <trkpt lat="24.706345" lon="115.364235"><time>2026-08-19T22:39:31.653Z</time></trkpt>
      <trkpt lat="24.706345" lon="115.364235"><time>2026-08-19T22:39:31.670Z</time></trkpt>
      <trkpt lat="24.706345" lon="115.364235"><time>2026-08-19T22:39:31.687Z</time></trkpt>
      <trkpt lat="24.706345" lon="115.364235"><time>2026-08-19T22:39:31.703Z</time></trkpt>
      <trkpt lat="24.706345" lon="115.364235"><time>2026-08-19T22:39:31.720Z</time></trkpt>
      <trkpt lat="24.706345" lon="115.364235"><time>2026-08-19T22:39:31.737Z</time></trkpt>
      <trkpt lat="24.706345" lon="115.364235"><time>2026-08-19T22:39:31.753Z</time></trkpt>
      <trkpt lat="24.706345" lon="115.364235"><time>2026-08-19T22:39:31.770Z</time></trkpt>
      <trkpt lat="24.706345" lon="115.364235"><time>2026-08-19T22:39:31.787Z</time></trkpt>
      <trkpt lat="24.706345" lon="115.364235"><time>2026-08-19T22:39:31.803Z</time></trkpt>
      <trkpt lat="24.706345" lon="115.364235"><time>2026-08-19T22:39:31.820Z</time></trkpt>
      <trkpt lat="24.706345" lon="115.364235"><time>2026-08-19T22:39:31.837Z</time></trkpt>
      <trkpt lat="24.706345" lon="115.364235"><time>2026-08-19T22:39:31.853Z</time></trkpt>
      <trkpt lat="24.706345" lon="115.364235"><time>2026-08-19T22:39:31.870Z</time></trkpt>
      <trkpt lat="24.706345" lon="115.364235"><time>2026-08-19T22:39:31.887Z</time></trkpt>
      <trkpt lat="24.706344" lon="115.364235"><time>2026-08-19T22:39:31.904Z</time></trkpt>
      <trkpt lat="24.706344" lon="115.364235"><time>2026-08-19T22:39:31.920Z</time></trkpt>
      <trkpt lat="24.706344" lon="115.364235"><time>2026-08-19T22:39:31.937Z</time></trkpt>
      <trkpt lat="24.706344" lon="115.364235"><time>2026-08-19T22:39:31.954Z</time></trkpt>
      <trkpt lat="24.706344" lon="115.364235"><time>2026-08-19T22:39:31.970Z</time></trkpt>
      <trkpt lat="24.706344" lon="115.364235"><time>2026-08-19T22:39:31.987Z</time></trkpt>
      <trkpt lat="24.706344" lon="115.364235"><time>2026-08-19T22:39:32.004Z</time></trkpt>
      <trkpt lat="24.706344" lon="115.364235"><time>2026-08-19T22:39:32.020Z</time></trkpt>
      <trkpt lat="24.706344" lon="115.364235"><time>2026-08-19T22:39:32.037Z</time></trkpt>
      <trkpt lat="24.706344" lon="115.364235"><time>2026-08-19T22:39:32.054Z</time></trkpt>
      <trkpt lat="24.706344" lon="115.364235"><time>2026-08-19T22:39:32.070Z</time></trkpt>
      <trkpt lat="24.706344" lon="115.364235"><time>2026-08-19T22:39:32.087Z</time></trkpt>
      <trkpt lat="24.706344" lon="115.364235"><time>2026-08-19T22:39:32.104Z</time></trkpt>
      <trkpt lat="24.706344" lon="115.364235"><time>2026-08-19T22:39:32.120Z</time></trkpt>
      <trkpt lat="24.706344" lon="115.364235"><time>2026-08-19T22:39:32.137Z</time></trkpt>
      <trkpt lat="24.706344" lon="115.364235"><time>2026-08-19T22:39:32.154Z</time></trkpt>
      <trkpt lat="24.706344" lon="115.364235"><time>2026-08-19T22:39:32.170Z</time></trkpt>
      <trkpt lat="24.706344" lon="115.364235"><time>2026-08-19T22:39:32.187Z</time></trkpt>
      <trkpt lat="24.706344" lon="115.364235"><time>2026-08-19T22:39:32.204Z</time></trkpt>
      <trkpt lat="24.706344" lon="115.364235"><time>2026-08-19T22:39:32.221Z</time></trkpt>
      <trkpt lat="24.706344" lon="115.364235"><time>2026-08-19T22:39:32.237Z</time></trkpt>
      <trkpt lat="24.706344" lon="115.364235"><time>2026-08-19T22:39:32.254Z</time></trkpt>
      <trkpt lat="24.706344" lon="115.364235"><time>2026-08-19T22:39:32.271Z</time></trkpt>
      <trkpt lat="24.706344" lon="115.364235"><time>2026-08-19T22:39:32.287Z</time></trkpt>
      <trkpt lat="24.706344" lon="115.364235"><time>2026-08-19T22:39:32.304Z</time></trkpt>
      <trkpt lat="24.706344" lon="115.364235"><time>2026-08-19T22:39:32.321Z</time></trkpt>
      <trkpt lat="24.706344" lon="115.364235"><time>2026-08-19T22:39:32.337Z</time></trkpt>
      <trkpt lat="24.706344" lon="115.364235"><time>2026-08-19T22:39:32.354Z</time></trkpt>
      <trkpt lat="24.706344" lon="115.364235"><time>2026-08-19T22:39:32.371Z</time></trkpt>
      <trkpt lat="24.706344" lon="115.364235"><time>2026-08-19T22:39:32.387Z</time></trkpt>
      <trkpt lat="24.706344" lon="115.364235"><time>2026-08-19T22:39:32.404Z</time></trkpt>
      <trkpt lat="24.706344" lon="115.364235"><time>2026-08-19T22:39:32.421Z</time></trkpt>
      <trkpt lat="24.706344" lon="115.364235"><time>2026-08-19T22:39:32.437Z</time></trkpt>
      <trkpt lat="24.706344" lon="115.364235"><time>2026-08-19T22:39:32.454Z</time></trkpt>
      <trkpt lat="24.706344" lon="115.364235"><time>2026-08-19T22:39:32.471Z</time></trkpt>
      <trkpt lat="24.706344" lon="115.364235"><time>2026-08-19T22:39:32.487Z</time></trkpt>
      <trkpt lat="24.706344" lon="115.364235"><time>2026-08-19T22:39:32.504Z</time></trkpt>
      <trkpt lat="24.706344" lon="115.364235"><time>2026-08-19T22:39:32.521Z</time></trkpt>
      <trkpt lat="24.706344" lon="115.364235"><time>2026-08-19T22:39:32.537Z</time></trkpt>
      <trkpt lat="24.706344" lon="115.364235"><time>2026-08-19T22:39:32.554Z</time></trkpt>
      <trkpt lat="24.706344" lon="115.364235"><time>2026-08-19T22:39:32.571Z</time></trkpt>
      <trkpt lat="24.706344" lon="115.364235"><time>2026-08-19T22:39:32.588Z</time></trkpt>
      <trkpt lat="24.706344" lon="115.364236"><time>2026-08-19T22:39:32.604Z</time></trkpt>
      <trkpt lat="24.706344" lon="115.364236"><time>2026-08-19T22:39:32.621Z</time></trkpt>
      <trkpt lat="24.706344" lon="115.364236"><time>2026-08-19T22:39:32.638Z</time></trkpt>
      <trkpt lat="24.706344" lon="115.364236"><time>2026-08-19T22:39:32.654Z</time></trkpt>
      <trkpt lat="24.706344" lon="115.364236"><time>2026-08-19T22:39:32.671Z</time></trkpt>
      <trkpt lat="24.706344" lon="115.364236"><time>2026-08-19T22:39:32.688Z</time></trkpt>
      <trkpt lat="24.706344" lon="115.364236"><time>2026-08-19T22:39:32.704Z</time></trkpt>
      <trkpt lat="24.706344" lon="115.364236"><time>2026-08-19T22:39:32.721Z</time></trkpt>
      <trkpt lat="24.706344" lon="115.364236"><time>2026-08-19T22:39:32.738Z</time></trkpt>
      <trkpt lat="24.706344" lon="115.364236"><time>2026-08-19T22:39:32.754Z</time></trkpt>
      <trkpt lat="24.706344" lon="115.364236"><time>2026-08-19T22:39:32.771Z</time></trkpt>
      <trkpt lat="24.706344" lon="115.364236"><time>2026-08-19T22:39:32.788Z</time></trkpt>
      <trkpt lat="24.706344" lon="115.364236"><time>2026-08-19T22:39:32.804Z</time></trkpt>
      <trkpt lat="24.706344" lon="115.364236"><time>2026-08-19T22:39:32.821Z</time></trkpt>
      <trkpt lat="24.706344" lon="115.364236"><time>2026-08-19T22:39:32.838Z</time></trkpt>
      <trkpt lat="24.706344" lon="115.364236"><time>2026-08-19T22:39:32.854Z</time></trkpt>
      <trkpt lat="24.706344" lon="115.364236"><time>2026-08-19T22:39:32.871Z</time></trkpt>
      <trkpt lat="24.706344" lon="115.364236"><time>2026-08-19T22:39:32.888Z</time></trkpt>
      <trkpt lat="24.706344" lon="115.364236"><time>2026-08-19T22:39:32.904Z</time></trkpt>
      <trkpt lat="24.706344" lon="115.364236"><time>2026-08-19T22:39:32.921Z</time></trkpt>
      <trkpt lat="24.706344" lon="115.364236"><time>2026-08-19T22:39:32.938Z</time></trkpt>
      <trkpt lat="24.706344" lon="115.364236"><time>2026-08-19T22:39:32.955Z</time></trkpt>
      <trkpt lat="24.706344" lon="115.364236"><time>2026-08-19T22:39:32.971Z</time></trkpt>
      <trkpt lat="24.706344" lon="115.364236"><time>2026-08-19T22:39:32.988Z</time></trkpt>
      <trkpt lat="24.706344" lon="115.364236"><time>2026-08-19T22:39:33.005Z</time></trkpt>
      <trkpt lat="24.706344" lon="115.364236"><time>2026-08-19T22:39:33.021Z</time></trkpt>
      <trkpt lat="24.706344" lon="115.364236"><time>2026-08-19T22:39:33.038Z</time></trkpt>
      <trkpt lat="24.706344" lon="115.364236"><time>2026-08-19T22:39:33.055Z</time></trkpt>
      <trkpt lat="24.706344" lon="115.364236"><time>2026-08-19T22:39:33.071Z</time></trkpt>
      <trkpt lat="24.706344" lon="115.364236"><time>2026-08-19T22:39:33.088Z</time></trkpt>
      <trkpt lat="24.706344" lon="115.364236"><time>2026-08-19T22:39:33.105Z</time></trkpt>
      <trkpt lat="24.706344" lon="115.364236"><time>2026-08-19T22:39:33.121Z</time></trkpt>
      <trkpt lat="24.706344" lon="115.364236"><time>2026-08-19T22:39:33.138Z</time></trkpt>
      <trkpt lat="24.706344" lon="115.364236"><time>2026-08-19T22:39:33.155Z</time></trkpt>
      <trkpt lat="24.706344" lon="115.364236"><time>2026-08-19T22:39:33.171Z</time></trkpt>
      <trkpt lat="24.706344" lon="115.364236"><time>2026-08-19T22:39:33.188Z</time></trkpt>
      <trkpt lat="24.706344" lon="115.364236"><time>2026-08-19T22:39:33.205Z</time></trkpt>
      <trkpt lat="24.706344" lon="115.364236"><time>2026-08-19T22:39:33.221Z</time></trkpt>
      <trkpt lat="24.706344" lon="115.364236"><time>2026-08-19T22:39:33.238Z</time></trkpt>
      <trkpt lat="24.706344" lon="115.364236"><time>2026-08-19T22:39:33.255Z</time></trkpt>
      <trkpt lat="24.706344" lon="115.364236"><time>2026-08-19T22:39:33.272Z</time></trkpt>
      <trkpt lat="24.706344" lon="115.364236"><time>2026-08-19T22:39:33.288Z</time></trkpt>
      <trkpt lat="24.706344" lon="115.364236"><time>2026-08-19T22:39:33.305Z</time></trkpt>
      <trkpt lat="24.706344" lon="115.364236"><time>2026-08-19T22:39:33.322Z</time></trkpt>
      <trkpt lat="24.706344" lon="115.364236"><time>2026-08-19T22:39:33.338Z</time></trkpt>
      <trkpt lat="24.706344" lon="115.364236"><time>2026-08-19T22:39:33.355Z</time></trkpt>
      <trkpt lat="24.706344" lon="115.364236"><time>2026-08-19T22:39:33.372Z</time></trkpt>
      <trkpt lat="24.706344" lon="115.364236"><time>2026-08-19T22:39:33.388Z</time></trkpt>
      <trkpt lat="24.706344" lon="115.364236"><time>2026-08-19T22:39:33.405Z</time></trkpt>
      <trkpt lat="24.706344" lon="115.364236"><time>2026-08-19T22:39:33.422Z</time></trkpt>
      <trkpt lat="24.706344" lon="115.364236"><time>2026-08-19T22:39:33.438Z</time></trkpt>
      <trkpt lat="24.706344" lon="115.364236"><time>2026-08-19T22:39:33.455Z</time></trkpt>
      <trkpt lat="24.706344" lon="115.364236"><time>2026-08-19T22:39:33.472Z</time></trkpt>
      <trkpt lat="24.706344" lon="115.364236"><time>2026-08-19T22:39:33.488Z</time></trkpt>
      <trkpt lat="24.706344" lon="115.364236"><time>2026-08-19T22:39:33.505Z</time></trkpt>
      <trkpt lat="24.706344" lon="115.364236"><time>2026-08-19T22:39:33.522Z</time></trkpt>
      <trkpt lat="24.706344" lon="115.364236"><time>2026-08-19T22:39:33.538Z</time></trkpt>
      <trkpt lat="24.706344" lon="115.364236"><time>2026-08-19T22:39:33.555Z</time></trkpt>
      <trkpt lat="24.706344" lon="115.364236"><time>2026-08-19T22:39:33.572Z</time></trkpt>
      <trkpt lat="24.706344" lon="115.364236"><time>2026-08-19T22:39:33.588Z</time></trkpt>
      <trkpt lat="24.706344" lon="115.364235"><time>2026-08-19T22:39:33.605Z</time></trkpt>
      <trkpt lat="24.706344" lon="115.364235"><time>2026-08-19T22:39:33.622Z</time></trkpt>
      <trkpt lat="24.706344" lon="115.364235"><time>2026-08-19T22:39:33.639Z</time></trkpt>
      <trkpt lat="24.706344" lon="115.364235"><time>2026-08-19T22:39:33.655Z</time></trkpt>
      <trkpt lat="24.706344" lon="115.364235"><time>2026-08-19T22:39:33.672Z</time></trkpt>
      <trkpt lat="24.706344" lon="115.364235"><time>2026-08-19T22:39:33.689Z</time></trkpt>
      <trkpt lat="24.706345" lon="115.364235"><time>2026-08-19T22:39:33.705Z</time></trkpt>
      <trkpt lat="24.706345" lon="115.364235"><time>2026-08-19T22:39:33.722Z</time></trkpt>
      <trkpt lat="24.706345" lon="115.364235"><time>2026-08-19T22:39:33.739Z</time></trkpt>
      <trkpt lat="24.706345" lon="115.364235"><time>2026-08-19T22:39:33.755Z</time></trkpt>
      <trkpt lat="24.706345" lon="115.364235"><time>2026-08-19T22:39:33.772Z</time></trkpt>
      <trkpt lat="24.706345" lon="115.364235"><time>2026-08-19T22:39:33.789Z</time></trkpt>
      <trkpt lat="24.706345" lon="115.364235"><time>2026-08-19T22:39:33.805Z</time></trkpt>
      <trkpt lat="24.706345" lon="115.364235"><time>2026-08-19T22:39:33.822Z</time></trkpt>
      <trkpt lat="24.706345" lon="115.364235"><time>2026-08-19T22:39:33.839Z</time></trkpt>
      <trkpt lat="24.706345" lon="115.364235"><time>2026-08-19T22:39:33.855Z</time></trkpt>
      <trkpt lat="24.706345" lon="115.364235"><time>2026-08-19T22:39:33.872Z</time></trkpt>
      <trkpt lat="24.706345" lon="115.364235"><time>2026-08-19T22:39:33.889Z</time></trkpt>
      <trkpt lat="24.706345" lon="115.364235"><time>2026-08-19T22:39:33.905Z</time></trkpt>
      <trkpt lat="24.706345" lon="115.364235"><time>2026-08-19T22:39:33.922Z</time></trkpt>
      <trkpt lat="24.706345" lon="115.364235"><time>2026-08-19T22:39:33.939Z</time></trkpt>
      <trkpt lat="24.706345" lon="115.364235"><time>2026-08-19T22:39:33.955Z</time></trkpt>
      <trkpt lat="24.706345" lon="115.364235"><time>2026-08-19T22:39:33.972Z</time></trkpt>
      <trkpt lat="24.706345" lon="115.364235"><time>2026-08-19T22:39:33.989Z</time></trkpt>
      <trkpt lat="24.706345" lon="115.364235"><time>2026-08-19T22:39:34.006Z</time></trkpt>
      <trkpt lat="24.706345" lon="115.364235"><time>2026-08-19T22:39:34.022Z</time></trkpt>
      <trkpt lat="24.706345" lon="115.364235"><time>2026-08-19T22:39:34.039Z</time></trkpt>
      <trkpt lat="24.706345" lon="115.364235"><time>2026-08-19T22:39:34.056Z</time></trkpt>
      <trkpt lat="24.706345" lon="115.364235"><time>2026-08-19T22:39:34.072Z</time></trkpt>
      <trkpt lat="24.706345" lon="115.364235"><time>2026-08-19T22:39:34.089Z</time></trkpt>
      <trkpt lat="24.706345" lon="115.364235"><time>2026-08-19T22:39:34.106Z</time></trkpt>
      <trkpt lat="24.706345" lon="115.364235"><time>2026-08-19T22:39:34.122Z</time></trkpt>
      <trkpt lat="24.706345" lon="115.364235"><time>2026-08-19T22:39:34.139Z</time></trkpt>
      <trkpt lat="24.706345" lon="115.364235"><time>2026-08-19T22:39:34.156Z</time></trkpt>
      <trkpt lat="24.706345" lon="115.364235"><time>2026-08-19T22:39:34.172Z</time></trkpt>
      <trkpt lat="24.706345" lon="115.364235"><time>2026-08-19T22:39:34.189Z</time></trkpt>
      <trkpt lat="24.706345" lon="115.364235"><time>2026-08-19T22:39:34.206Z</time></trkpt>
      <trkpt lat="24.706345" lon="115.364235"><time>2026-08-19T22:39:34.222Z</time></trkpt>
      <trkpt lat="24.706345" lon="115.364235"><time>2026-08-19T22:39:34.239Z</time></trkpt>
      <trkpt lat="24.706345" lon="115.364235"><time>2026-08-19T22:39:34.256Z</time></trkpt>
      <trkpt lat="24.706345" lon="115.364235"><time>2026-08-19T22:39:34.272Z</time></trkpt>
      <trkpt lat="24.706345" lon="115.364235"><time>2026-08-19T22:39:34.289Z</time></trkpt>
      <trkpt lat="24.706345" lon="115.364235"><time>2026-08-19T22:39:34.306Z</time></trkpt>
      <trkpt lat="24.706345" lon="115.364235"><time>2026-08-19T22:39:34.323Z</time></trkpt>
      <trkpt lat="24.706345" lon="115.364235"><time>2026-08-19T22:39:34.339Z</time></trkpt>
      <trkpt lat="24.706345" lon="115.364235"><time>2026-08-19T22:39:34.356Z</time></trkpt>
      <trkpt lat="24.706345" lon="115.364235"><time>2026-08-19T22:39:34.373Z</time></trkpt>
      <trkpt lat="24.706345" lon="115.364235"><time>2026-08-19T22:39:34.389Z</time></trkpt>
      <trkpt lat="24.706345" lon="115.364235"><time>2026-08-19T22:39:34.406Z</time></trkpt>
      <trkpt lat="24.706345" lon="115.364235"><time>2026-08-19T22:39:34.423Z</time></trkpt>
      <trkpt lat="24.706345" lon="115.364235"><time>2026-08-19T22:39:34.439Z</time></trkpt>
      <trkpt lat="24.706345" lon="115.364235"><time>2026-08-19T22:39:34.456Z</time></trkpt>
      <trkpt lat="24.706345" lon="115.364235"><time>2026-08-19T22:39:34.473Z</time></trkpt>
      <trkpt lat="24.706345" lon="115.364235"><time>2026-08-19T22:39:34.489Z</time></trkpt>
      <trkpt lat="24.706345" lon="115.364235"><time>2026-08-19T22:39:34.506Z</time></trkpt>
      <trkpt lat="24.706345" lon="115.364235"><time>2026-08-19T22:39:34.523Z</time></trkpt>
      <trkpt lat="24.706345" lon="115.364235"><time>2026-08-19T22:39:34.539Z</time></trkpt>
      <trkpt lat="24.706345" lon="115.364235"><time>2026-08-19T22:39:34.556Z</time></trkpt>
      <trkpt lat="24.706345" lon="115.364235"><time>2026-08-19T22:39:34.573Z</time></trkpt>
      <trkpt lat="24.706345" lon="115.364235"><time>2026-08-19T22:39:34.589Z</time></trkpt>
      <trkpt lat="24.706345" lon="115.364235"><time>2026-08-19T22:39:34.606Z</time></trkpt>
      <trkpt lat="24.706345" lon="115.364235"><time>2026-08-19T22:39:34.623Z</time></trkpt>
      <trkpt lat="24.706345" lon="115.364235"><time>2026-08-19T22:39:34.639Z</time></trkpt>
      <trkpt lat="24.706345" lon="115.364235"><time>2026-08-19T22:39:34.656Z</time></trkpt>
      <trkpt lat="24.706345" lon="115.364235"><time>2026-08-19T22:39:34.673Z</time></trkpt>
      <trkpt lat="24.706345" lon="115.364235"><time>2026-08-19T22:39:34.690Z</time></trkpt>
      <trkpt lat="24.706345" lon="115.364235"><time>2026-08-19T22:39:34.706Z</time></trkpt>
      <trkpt lat="24.706345" lon="115.364235"><time>2026-08-19T22:39:34.723Z</time></trkpt>
      <trkpt lat="24.706345" lon="115.364235"><time>2026-08-19T22:39:34.740Z</time></trkpt>
      <trkpt lat="24.706345" lon="115.364235"><time>2026-08-19T22:39:34.756Z</time></trkpt>
      <trkpt lat="24.706345" lon="115.364235"><time>2026-08-19T22:39:34.773Z</time></trkpt>
      <trkpt lat="24.706345" lon="115.364235"><time>2026-08-19T22:39:34.790Z</time></trkpt>
      <trkpt lat="24.706345" lon="115.364235"><time>2026-08-19T22:39:34.806Z</time></trkpt>
      <trkpt lat="24.706345" lon="115.364235"><time>2026-08-19T22:39:34.823Z</time></trkpt>
      <trkpt lat="24.706345" lon="115.364235"><time>2026-08-19T22:39:34.840Z</time></trkpt>
      <trkpt lat="24.706345" lon="115.364235"><time>2026-08-19T22:39:34.856Z</time></trkpt>
      <trkpt lat="24.706345" lon="115.364235"><time>2026-08-19T22:39:34.873Z</time></trkpt>
      <trkpt lat="24.706345" lon="115.364235"><time>2026-08-19T22:39:34.890Z</time></trkpt>
      <trkpt lat="24.706345" lon="115.364235"><time>2026-08-19T22:39:34.906Z</time></trkpt>
      <trkpt lat="24.706345" lon="115.364235"><time>2026-08-19T22:39:34.923Z</time></trkpt>
      <trkpt lat="24.706345" lon="115.364235"><time>2026-08-19T22:39:34.940Z</time></trkpt>
      <trkpt lat="24.706345" lon="115.364235"><time>2026-08-19T22:39:34.956Z</time></trkpt>
      <trkpt lat="24.706345" lon="115.364235"><time>2026-08-19T22:39:34.973Z</time></trkpt>
      <trkpt lat="24.706345" lon="115.364235"><time>2026-08-19T22:39:34.990Z</time></trkpt>
      <trkpt lat="24.706345" lon="115.364235"><time>2026-08-19T22:39:35.007Z</time></trkpt>
      <trkpt lat="24.706345" lon="115.364235"><time>2026-08-19T22:39:35.023Z</time></trkpt>
      <trkpt lat="24.706345" lon="115.364235"><time>2026-08-19T22:39:35.040Z</time></trkpt>
      <trkpt lat="24.706345" lon="115.364235"><time>2026-08-19T22:39:35.057Z</time></trkpt>
      <trkpt lat="24.706345" lon="115.364235"><time>2026-08-19T22:39:35.073Z</time></trkpt>
      <trkpt lat="24.706345" lon="115.364235"><time>2026-08-19T22:39:35.090Z</time></trkpt>
      <trkpt lat="24.706345" lon="115.364235"><time>2026-08-19T22:39:35.107Z</time></trkpt>
      <trkpt lat="24.706345" lon="115.364235"><time>2026-08-19T22:39:35.123Z</time></trkpt>
      <trkpt lat="24.706345" lon="115.364235"><time>2026-08-19T22:39:35.140Z</time></trkpt>
      <trkpt lat="24.706345" lon="115.364235"><time>2026-08-19T22:39:35.157Z</time></trkpt>
      <trkpt lat="24.706345" lon="115.364235"><time>2026-08-19T22:39:35.173Z</time></trkpt>
      <trkpt lat="24.706345" lon="115.364235"><time>2026-08-19T22:39:35.190Z</time></trkpt>
      <trkpt lat="24.706345" lon="115.364235"><time>2026-08-19T22:39:35.207Z</time></trkpt>
      <trkpt lat="24.706345" lon="115.364235"><time>2026-08-19T22:39:35.223Z</time></trkpt>
      <trkpt lat="24.706345" lon="115.364235"><time>2026-08-19T22:39:35.240Z</time></trkpt>
      <trkpt lat="24.706345" lon="115.364235"><time>2026-08-19T22:39:35.257Z</time></trkpt>
      <trkpt lat="24.706345" lon="115.364235"><time>2026-08-19T22:39:35.273Z</time></trkpt>
      <trkpt lat="24.706345" lon="115.364235"><time>2026-08-19T22:39:35.290Z</time></trkpt>
      <trkpt lat="24.706345" lon="115.364235"><time>2026-08-19T22:39:35.307Z</time></trkpt>
      <trkpt lat="24.706345" lon="115.364235"><time>2026-08-19T22:39:35.323Z</time></trkpt>
      <trkpt lat="24.706345" lon="115.364235"><time>2026-08-19T22:39:35.340Z</time></trkpt>
      <trkpt lat="24.706345" lon="115.364235"><time>2026-08-19T22:39:35.357Z</time></trkpt>
      <trkpt lat="24.706345" lon="115.364235"><time>2026-08-19T22:39:35.374Z</time></trkpt>
      <trkpt lat="24.706345" lon="115.364235"><time>2026-08-19T22:39:35.390Z</time></trkpt>
      <trkpt lat="24.706345" lon="115.364235"><time>2026-08-19T22:39:35.407Z</time></trkpt>
      <trkpt lat="24.706345" lon="115.364235"><time>2026-08-19T22:39:35.424Z</time></trkpt>
      <trkpt lat="24.706345" lon="115.364235"><time>2026-08-19T22:39:35.440Z</time></trkpt>
      <trkpt lat="24.706345" lon="115.364235"><time>2026-08-19T22:39:35.457Z</time></trkpt>
      <trkpt lat="24.706345" lon="115.364235"><time>2026-08-19T22:39:35.474Z</time></trkpt>
      <trkpt lat="24.706345" lon="115.364235"><time>2026-08-19T22:39:35.490Z</time></trkpt>
      <trkpt lat="24.706345" lon="115.364235"><time>2026-08-19T22:39:35.507Z</time></trkpt>
      <trkpt lat="24.706345" lon="115.364235"><time>2026-08-19T22:39:35.524Z</time></trkpt>
      <trkpt lat="24.706345" lon="115.364235"><time>2026-08-19T22:39:35.540Z</time></trkpt>
      <trkpt lat="24.706345" lon="115.364235"><time>2026-08-19T22:39:35.557Z</time></trkpt>
      <trkpt lat="24.706345" lon="115.364235"><time>2026-08-19T22:39:35.574Z</time></trkpt>
      <trkpt lat="24.706345" lon="115.364235"><time>2026-08-19T22:39:35.590Z</time></trkpt>
      <trkpt lat="24.706345" lon="115.364235"><time>2026-08-19T22:39:35.607Z</time></trkpt>
      <trkpt lat="24.706345" lon="115.364235"><time>2026-08-19T22:39:35.624Z</time></trkpt>
      <trkpt lat="24.706345" lon="115.364235"><time>2026-08-19T22:39:35.640Z</time></trkpt>
      <trkpt lat="24.706345" lon="115.364235"><time>2026-08-19T22:39:35.657Z</time></trkpt>
      <trkpt lat="24.706345" lon="115.364235"><time>2026-08-19T22:39:35.674Z</time></trkpt>
      <trkpt lat="24.706345" lon="115.364235"><time>2026-08-19T22:39:35.690Z</time></trkpt>
      <trkpt lat="24.706345" lon="115.364235"><time>2026-08-19T22:39:35.707Z</time></trkpt>
      <trkpt lat="24.706345" lon="115.364235"><time>2026-08-19T22:39:35.724Z</time></trkpt>
      <trkpt lat="24.706345" lon="115.364235"><time>2026-08-19T22:39:35.741Z</time></trkpt>
      <trkpt lat="24.706345" lon="115.364235"><time>2026-08-19T22:39:35.757Z</time></trkpt>
      <trkpt lat="24.706345" lon="115.364235"><time>2026-08-19T22:39:35.774Z</time></trkpt>
      <trkpt lat="24.706345" lon="115.364235"><time>2026-08-19T22:39:35.791Z</time></trkpt>
      <trkpt lat="24.706345" lon="115.364235"><time>2026-08-19T22:39:35.807Z</time></trkpt>
      <trkpt lat="24.706345" lon="115.364235"><time>2026-08-19T22:39:35.824Z</time></trkpt>
      <trkpt lat="24.706345" lon="115.364235"><time>2026-08-19T22:39:35.841Z</time></trkpt>
      <trkpt lat="24.706345" lon="115.364235"><time>2026-08-19T22:39:35.857Z</time></trkpt>
      <trkpt lat="24.706345" lon="115.364235"><time>2026-08-19T22:39:35.874Z</time></trkpt>
      <trkpt lat="24.706345" lon="115.364235"><time>2026-08-19T22:39:35.891Z</time></trkpt>
      <trkpt lat="24.706345" lon="115.364235"><time>2026-08-19T22:39:35.907Z</time></trkpt>
      <trkpt lat="24.706345" lon="115.364235"><time>2026-08-19T22:39:35.924Z</time></trkpt>
      <trkpt lat="24.706345" lon="115.364235"><time>2026-08-19T22:39:35.941Z</time></trkpt>
      <trkpt lat="24.706345" lon="115.364235"><time>2026-08-19T22:39:35.957Z</time></trkpt>
      <trkpt lat="24.706345" lon="115.364235"><time>2026-08-19T22:39:35.974Z</time></trkpt>
      <trkpt lat="24.706345" lon="115.364235"><time>2026-08-19T22:39:35.991Z</time></trkpt>
      <trkpt lat="24.706345" lon="115.364235"><time>2026-08-19T22:39:36.007Z</time></trkpt>
      <trkpt lat="24.706345" lon="115.364235"><time>2026-08-19T22:39:36.024Z</time></trkpt>
      <trkpt lat="24.706345" lon="115.364235"><time>2026-08-19T22:39:36.041Z</time></trkpt>
      <trkpt lat="24.706345" lon="115.364235"><time>2026-08-19T22:39:36.058Z</time></trkpt>
      <trkpt lat="24.706345" lon="115.364235"><time>2026-08-19T22:39:36.074Z</time></trkpt>
      <trkpt lat="24.706345" lon="115.364235"><time>2026-08-19T22:39:36.091Z</time></trkpt>
      <trkpt lat="24.706345" lon="115.364235"><time>2026-08-19T22:39:36.108Z</time></trkpt>
      <trkpt lat="24.706345" lon="115.364235"><time>2026-08-19T22:39:36.124Z</time></trkpt>
      <trkpt lat="24.706345" lon="115.364235"><time>2026-08-19T22:39:36.141Z</time></trkpt>
      <trkpt lat="24.706345" lon="115.364235"><time>2026-08-19T22:39:36.158Z</time></trkpt>
      <trkpt lat="24.706345" lon="115.364235"><time>2026-08-19T22:39:36.174Z</time></trkpt>
      <trkpt lat="24.706345" lon="115.364235"><time>2026-08-19T22:39:36.191Z</time></trkpt>
      <trkpt lat="24.706344" lon="115.364235"><time>2026-08-19T22:39:36.208Z</time></trkpt>
      <trkpt lat="24.706344" lon="115.364235"><time>2026-08-19T22:39:36.224Z</time></trkpt>
      <trkpt lat="24.706344" lon="115.364235"><time>2026-08-19T22:39:36.241Z</time></trkpt>
      <trkpt lat="24.706344" lon="115.364235"><time>2026-08-19T22:39:36.258Z</time></trkpt>
      <trkpt lat="24.706344" lon="115.364235"><time>2026-08-19T22:39:36.274Z</time></trkpt>
      <trkpt lat="24.706344" lon="115.364235"><time>2026-08-19T22:39:36.291Z</time></trkpt>
      <trkpt lat="24.706344" lon="115.364235"><time>2026-08-19T22:39:36.308Z</time></trkpt>
      <trkpt lat="24.706344" lon="115.364235"><time>2026-08-19T22:39:36.324Z</time></trkpt>
      <trkpt lat="24.706344" lon="115.364235"><time>2026-08-19T22:39:36.341Z</time></trkpt>
      <trkpt lat="24.706344" lon="115.364235"><time>2026-08-19T22:39:36.358Z</time></trkpt>
      <trkpt lat="24.706344" lon="115.364235"><time>2026-08-19T22:39:36.374Z</time></trkpt>
      <trkpt lat="24.706344" lon="115.364235"><time>2026-08-19T22:39:36.391Z</time></trkpt>
      <trkpt lat="24.706344" lon="115.364235"><time>2026-08-19T22:39:36.408Z</time></trkpt>
      <trkpt lat="24.706344" lon="115.364235"><time>2026-08-19T22:39:36.425Z</time></trkpt>
      <trkpt lat="24.706344" lon="115.364235"><time>2026-08-19T22:39:36.441Z</time></trkpt>
      <trkpt lat="24.706344" lon="115.364235"><time>2026-08-19T22:39:36.458Z</time></trkpt>
      <trkpt lat="24.706344" lon="115.364235"><time>2026-08-19T22:39:36.475Z</time></trkpt>
      <trkpt lat="24.706344" lon="115.364235"><time>2026-08-19T22:39:36.491Z</time></trkpt>
      <trkpt lat="24.706344" lon="115.364235"><time>2026-08-19T22:39:36.508Z</time></trkpt>
      <trkpt lat="24.706344" lon="115.364235"><time>2026-08-19T22:39:36.525Z</time></trkpt>
      <trkpt lat="24.706344" lon="115.364235"><time>2026-08-19T22:39:36.541Z</time></trkpt>
      <trkpt lat="24.706344" lon="115.364235"><time>2026-08-19T22:39:36.558Z</time></trkpt>
      <trkpt lat="24.706344" lon="115.364235"><time>2026-08-19T22:39:36.575Z</time></trkpt>
      <trkpt lat="24.706344" lon="115.364235"><time>2026-08-19T22:39:36.591Z</time></trkpt>
      <trkpt lat="24.706344" lon="115.364235"><time>2026-08-19T22:39:36.608Z</time></trkpt>
      <trkpt lat="24.706344" lon="115.364235"><time>2026-08-19T22:39:36.625Z</time></trkpt>
      <trkpt lat="24.706344" lon="115.364235"><time>2026-08-19T22:39:36.641Z</time></trkpt>
      <trkpt lat="24.706344" lon="115.364235"><time>2026-08-19T22:39:36.658Z</time></trkpt>
      <trkpt lat="24.706344" lon="115.364235"><time>2026-08-19T22:39:36.675Z</time></trkpt>
      <trkpt lat="24.706344" lon="115.364235"><time>2026-08-19T22:39:36.691Z</time></trkpt>
      <trkpt lat="24.706344" lon="115.364235"><time>2026-08-19T22:39:36.708Z</time></trkpt>
      <trkpt lat="24.706344" lon="115.364235"><time>2026-08-19T22:39:36.725Z</time></trkpt>
      <trkpt lat="24.706344" lon="115.364235"><time>2026-08-19T22:39:36.742Z</time></trkpt>
      <trkpt lat="24.706344" lon="115.364235"><time>2026-08-19T22:39:36.758Z</time></trkpt>
      <trkpt lat="24.706344" lon="115.364235"><time>2026-08-19T22:39:36.775Z</time></trkpt>
      <trkpt lat="24.706344" lon="115.364235"><time>2026-08-19T22:39:36.792Z</time></trkpt>
      <trkpt lat="24.706344" lon="115.364235"><time>2026-08-19T22:39:36.808Z</time></trkpt>
      <trkpt lat="24.706344" lon="115.364235"><time>2026-08-19T22:39:36.825Z</time></trkpt>
      <trkpt lat="24.706344" lon="115.364235"><time>2026-08-19T22:39:36.842Z</time></trkpt>
      <trkpt lat="24.706344" lon="115.364235"><time>2026-08-19T22:39:36.858Z</time></trkpt>
      <trkpt lat="24.706344" lon="115.364235"><time>2026-08-19T22:39:36.875Z</time></trkpt>
      <trkpt lat="24.706344" lon="115.364235"><time>2026-08-19T22:39:36.892Z</time></trkpt>
      <trkpt lat="24.706344" lon="115.364235"><time>2026-08-19T22:39:36.908Z</time></trkpt>
      <trkpt lat="24.706344" lon="115.364235"><time>2026-08-19T22:39:36.925Z</time></trkpt>
      <trkpt lat="24.706344" lon="115.364235"><time>2026-08-19T22:39:36.942Z</time></trkpt>
      <trkpt lat="24.706344" lon="115.364235"><time>2026-08-19T22:39:36.958Z</time></trkpt>
      <trkpt lat="24.706344" lon="115.364235"><time>2026-08-19T22:39:36.975Z</time></trkpt>
      <trkpt lat="24.706344" lon="115.364235"><time>2026-08-19T22:39:36.992Z</time></trkpt>
      <trkpt lat="24.706344" lon="115.364235"><time>2026-08-19T22:39:37.008Z</time></trkpt>
      <trkpt lat="24.706344" lon="115.364235"><time>2026-08-19T22:39:37.025Z</time></trkpt>
      <trkpt lat="24.706344" lon="115.364235"><time>2026-08-19T22:39:37.042Z</time></trkpt>
      <trkpt lat="24.706344" lon="115.364235"><time>2026-08-19T22:39:37.058Z</time></trkpt>
      <trkpt lat="24.706344" lon="115.364235"><time>2026-08-19T22:39:37.075Z</time></trkpt>
      <trkpt lat="24.706344" lon="115.364235"><time>2026-08-19T22:39:37.092Z</time></trkpt>
      <trkpt lat="24.706344" lon="115.364236"><time>2026-08-19T22:39:37.109Z</time></trkpt>
      <trkpt lat="24.706344" lon="115.364236"><time>2026-08-19T22:39:37.125Z</time></trkpt>
      <trkpt lat="24.706344" lon="115.364236"><time>2026-08-19T22:39:37.142Z</time></trkpt>
      <trkpt lat="24.706344" lon="115.364236"><time>2026-08-19T22:39:37.159Z</time></trkpt>
      <trkpt lat="24.706344" lon="115.364236"><time>2026-08-19T22:39:37.175Z</time></trkpt>
      <trkpt lat="24.706344" lon="115.364236"><time>2026-08-19T22:39:37.192Z</time></trkpt>
      <trkpt lat="24.706344" lon="115.364236"><time>2026-08-19T22:39:37.209Z</time></trkpt>
      <trkpt lat="24.706344" lon="115.364236"><time>2026-08-19T22:39:37.225Z</time></trkpt>
      <trkpt lat="24.706344" lon="115.364236"><time>2026-08-19T22:39:37.242Z</time></trkpt>
      <trkpt lat="24.706344" lon="115.364236"><time>2026-08-19T22:39:37.259Z</time></trkpt>
      <trkpt lat="24.706344" lon="115.364236"><time>2026-08-19T22:39:37.275Z</time></trkpt>
      <trkpt lat="24.706344" lon="115.364236"><time>2026-08-19T22:39:37.292Z</time></trkpt>
      <trkpt lat="24.706344" lon="115.364236"><time>2026-08-19T22:39:37.309Z</time></trkpt>
      <trkpt lat="24.706344" lon="115.364236"><time>2026-08-19T22:39:37.325Z</time></trkpt>
      <trkpt lat="24.706344" lon="115.364236"><time>2026-08-19T22:39:37.342Z</time></trkpt>
      <trkpt lat="24.706344" lon="115.364236"><time>2026-08-19T22:39:37.359Z</time></trkpt>
      <trkpt lat="24.706344" lon="115.364236"><time>2026-08-19T22:39:37.375Z</time></trkpt>
      <trkpt lat="24.706344" lon="115.364236"><time>2026-08-19T22:39:37.392Z</time></trkpt>
      <trkpt lat="24.706344" lon="115.364236"><time>2026-08-19T22:39:37.409Z</time></trkpt>
      <trkpt lat="24.706344" lon="115.364236"><time>2026-08-19T22:39:37.425Z</time></trkpt>
      <trkpt lat="24.706344" lon="115.364236"><time>2026-08-19T22:39:37.442Z</time></trkpt>
      <trkpt lat="24.706344" lon="115.364236"><time>2026-08-19T22:39:37.459Z</time></trkpt>
      <trkpt lat="24.706344" lon="115.364236"><time>2026-08-19T22:39:37.476Z</time></trkpt>
      <trkpt lat="24.706344" lon="115.364236"><time>2026-08-19T22:39:37.492Z</time></trkpt>
      <trkpt lat="24.706344" lon="115.364235"><time>2026-08-19T22:39:37.509Z</time></trkpt>
      <trkpt lat="24.706344" lon="115.364235"><time>2026-08-19T22:39:37.526Z</time></trkpt>
      <trkpt lat="24.706344" lon="115.364235"><time>2026-08-19T22:39:37.542Z</time></trkpt>
      <trkpt lat="24.706344" lon="115.364235"><time>2026-08-19T22:39:37.559Z</time></trkpt>
      <trkpt lat="24.706344" lon="115.364235"><time>2026-08-19T22:39:37.576Z</time></trkpt>
      <trkpt lat="24.706344" lon="115.364235"><time>2026-08-19T22:39:37.592Z</time></trkpt>
      <trkpt lat="24.706344" lon="115.364235"><time>2026-08-19T22:39:37.609Z</time></trkpt>
      <trkpt lat="24.706344" lon="115.364235"><time>2026-08-19T22:39:37.626Z</time></trkpt>
      <trkpt lat="24.706344" lon="115.364235"><time>2026-08-19T22:39:37.642Z</time></trkpt>
      <trkpt lat="24.706344" lon="115.364235"><time>2026-08-19T22:39:37.659Z</time></trkpt>
      <trkpt lat="24.706344" lon="115.364235"><time>2026-08-19T22:39:37.676Z</time></trkpt>
      <trkpt lat="24.706344" lon="115.364235"><time>2026-08-19T22:39:37.692Z</time></trkpt>
      <trkpt lat="24.706344" lon="115.364235"><time>2026-08-19T22:39:37.709Z</time></trkpt>
      <trkpt lat="24.706344" lon="115.364235"><time>2026-08-19T22:39:37.726Z</time></trkpt>
      <trkpt lat="24.706344" lon="115.364235"><time>2026-08-19T22:39:37.742Z</time></trkpt>
      <trkpt lat="24.706344" lon="115.364235"><time>2026-08-19T22:39:37.759Z</time></trkpt>
      <trkpt lat="24.706344" lon="115.364235"><time>2026-08-19T22:39:37.776Z</time></trkpt>
      <trkpt lat="24.706344" lon="115.364235"><time>2026-08-19T22:39:37.793Z</time></trkpt>
      <trkpt lat="24.706345" lon="115.364235"><time>2026-08-19T22:39:37.809Z</time></trkpt>
      <trkpt lat="24.706345" lon="115.364235"><time>2026-08-19T22:39:37.826Z</time></trkpt>
      <trkpt lat="24.706345" lon="115.364235"><time>2026-08-19T22:39:37.843Z</time></trkpt>
      <trkpt lat="24.706345" lon="115.364235"><time>2026-08-19T22:39:37.859Z</time></trkpt>
      <trkpt lat="24.706345" lon="115.364235"><time>2026-08-19T22:39:37.876Z</time></trkpt>
      <trkpt lat="24.706345" lon="115.364235"><time>2026-08-19T22:39:37.893Z</time></trkpt>
      <trkpt lat="24.706345" lon="115.364235"><time>2026-08-19T22:39:37.909Z</time></trkpt>
      <trkpt lat="24.706345" lon="115.364235"><time>2026-08-19T22:39:37.926Z</time></trkpt>
      <trkpt lat="24.706345" lon="115.364235"><time>2026-08-19T22:39:37.943Z</time></trkpt>
      <trkpt lat="24.706345" lon="115.364235"><time>2026-08-19T22:39:37.959Z</time></trkpt>
      <trkpt lat="24.706345" lon="115.364235"><time>2026-08-19T22:39:37.976Z</time></trkpt>
      <trkpt lat="24.706345" lon="115.364235"><time>2026-08-19T22:39:37.993Z</time></trkpt>
      <trkpt lat="24.706345" lon="115.364235"><time>2026-08-19T22:39:38.009Z</time></trkpt>
      <trkpt lat="24.706345" lon="115.364235"><time>2026-08-19T22:39:38.026Z</time></trkpt>
      <trkpt lat="24.706345" lon="115.364235"><time>2026-08-19T22:39:38.043Z</time></trkpt>
      <trkpt lat="24.706345" lon="115.364235"><time>2026-08-19T22:39:38.059Z</time></trkpt>
      <trkpt lat="24.706345" lon="115.364235"><time>2026-08-19T22:39:38.076Z</time></trkpt>
      <trkpt lat="24.706345" lon="115.364235"><time>2026-08-19T22:39:38.093Z</time></trkpt>
      <trkpt lat="24.706345" lon="115.364235"><time>2026-08-19T22:39:38.109Z</time></trkpt>
      <trkpt lat="24.706345" lon="115.364235"><time>2026-08-19T22:39:38.126Z</time></trkpt>
      <trkpt lat="24.706345" lon="115.364235"><time>2026-08-19T22:39:38.143Z</time></trkpt>
      <trkpt lat="24.706345" lon="115.364235"><time>2026-08-19T22:39:38.160Z</time></trkpt>
      <trkpt lat="24.706345" lon="115.364235"><time>2026-08-19T22:39:38.176Z</time></trkpt>
      <trkpt lat="24.706345" lon="115.364235"><time>2026-08-19T22:39:38.193Z</time></trkpt>
      <trkpt lat="24.706345" lon="115.364235"><time>2026-08-19T22:39:38.210Z</time></trkpt>
      <trkpt lat="24.706345" lon="115.364235"><time>2026-08-19T22:39:38.226Z</time></trkpt>
      <trkpt lat="24.706345" lon="115.364235"><time>2026-08-19T22:39:38.243Z</time></trkpt>
      <trkpt lat="24.706345" lon="115.364235"><time>2026-08-19T22:39:38.260Z</time></trkpt>
      <trkpt lat="24.706345" lon="115.364235"><time>2026-08-19T22:39:38.276Z</time></trkpt>
      <trkpt lat="24.706345" lon="115.364235"><time>2026-08-19T22:39:38.293Z</time></trkpt>
      <trkpt lat="24.706345" lon="115.364235"><time>2026-08-19T22:39:38.310Z</time></trkpt>
      <trkpt lat="24.706345" lon="115.364235"><time>2026-08-19T22:39:38.326Z</time></trkpt>
      <trkpt lat="24.706345" lon="115.364235"><time>2026-08-19T22:39:38.343Z</time></trkpt>
      <trkpt lat="24.706345" lon="115.364235"><time>2026-08-19T22:39:38.360Z</time></trkpt>
      <trkpt lat="24.706345" lon="115.364235"><time>2026-08-19T22:39:38.376Z</time></trkpt>
      <trkpt lat="24.706345" lon="115.364235"><time>2026-08-19T22:39:38.393Z</time></trkpt>
      <trkpt lat="24.706345" lon="115.364235"><time>2026-08-19T22:39:38.410Z</time></trkpt>
      <trkpt lat="24.706345" lon="115.364235"><time>2026-08-19T22:39:38.426Z</time></trkpt>
      <trkpt lat="24.706345" lon="115.364235"><time>2026-08-19T22:39:38.443Z</time></trkpt>
      <trkpt lat="24.706345" lon="115.364235"><time>2026-08-19T22:39:38.460Z</time></trkpt>
      <trkpt lat="24.706345" lon="115.364235"><time>2026-08-19T22:39:38.477Z</time></trkpt>
      <trkpt lat="24.706345" lon="115.364235"><time>2026-08-19T22:39:38.493Z</time></trkpt>
      <trkpt lat="24.706345" lon="115.364235"><time>2026-08-19T22:39:38.510Z</time></trkpt>
      <trkpt lat="24.706345" lon="115.364235"><time>2026-08-19T22:39:38.527Z</time></trkpt>
      <trkpt lat="24.706345" lon="115.364235"><time>2026-08-19T22:39:38.543Z</time></trkpt>
      <trkpt lat="24.706345" lon="115.364235"><time>2026-08-19T22:39:38.560Z</time></trkpt>
      <trkpt lat="24.706345" lon="115.364235"><time>2026-08-19T22:39:38.577Z</time></trkpt>
      <trkpt lat="24.706345" lon="115.364235"><time>2026-08-19T22:39:38.593Z</time></trkpt>
      <trkpt lat="24.706345" lon="115.364235"><time>2026-08-19T22:39:38.610Z</time></trkpt>
      <trkpt lat="24.706345" lon="115.364235"><time>2026-08-19T22:39:38.627Z</time></trkpt>
      <trkpt lat="24.706345" lon="115.364235"><time>2026-08-19T22:39:38.643Z</time></trkpt>
      <trkpt lat="24.706345" lon="115.364235"><time>2026-08-19T22:39:38.660Z</time></trkpt>
      <trkpt lat="24.706345" lon="115.364235"><time>2026-08-19T22:39:38.677Z</time></trkpt>
      <trkpt lat="24.706345" lon="115.364235"><time>2026-08-19T22:39:38.693Z</time></trkpt>
      <trkpt lat="24.706345" lon="115.364235"><time>2026-08-19T22:39:38.710Z</time></trkpt>
      <trkpt lat="24.706345" lon="115.364235"><time>2026-08-19T22:39:38.727Z</time></trkpt>
      <trkpt lat="24.706345" lon="115.364235"><time>2026-08-19T22:39:38.743Z</time></trkpt>
      <trkpt lat="24.706345" lon="115.364235"><time>2026-08-19T22:39:38.760Z</time></trkpt>
      <trkpt lat="24.706345" lon="115.364235"><time>2026-08-19T22:39:38.777Z</time></trkpt>
      <trkpt lat="24.706345" lon="115.364235"><time>2026-08-19T22:39:38.793Z</time></trkpt>
      <trkpt lat="24.706345" lon="115.364235"><time>2026-08-19T22:39:38.810Z</time></trkpt>
      <trkpt lat="24.706345" lon="115.364235"><time>2026-08-19T22:39:38.827Z</time></trkpt>
      <trkpt lat="24.706345" lon="115.364235"><time>2026-08-19T22:39:38.844Z</time></trkpt>
      <trkpt lat="24.706345" lon="115.364235"><time>2026-08-19T22:39:38.860Z</time></trkpt>
      <trkpt lat="24.706345" lon="115.364235"><time>2026-08-19T22:39:38.877Z</time></trkpt>
      <trkpt lat="24.706345" lon="115.364235"><time>2026-08-19T22:39:38.894Z</time></trkpt>
      <trkpt lat="24.706345" lon="115.364235"><time>2026-08-19T22:39:38.910Z</time></trkpt>
      <trkpt lat="24.706345" lon="115.364235"><time>2026-08-19T22:39:38.927Z</time></trkpt>
      <trkpt lat="24.706345" lon="115.364235"><time>2026-08-19T22:39:38.944Z</time></trkpt>
      <trkpt lat="24.706345" lon="115.364235"><time>2026-08-19T22:39:38.960Z</time></trkpt>
      <trkpt lat="24.706345" lon="115.364235"><time>2026-08-19T22:39:38.977Z</time></trkpt>
      <trkpt lat="24.706345" lon="115.364235"><time>2026-08-19T22:39:38.994Z</time></trkpt>
      <trkpt lat="24.706345" lon="115.364235"><time>2026-08-19T22:39:39.010Z</time></trkpt>
      <trkpt lat="24.706345" lon="115.364235"><time>2026-08-19T22:39:39.027Z</time></trkpt>
      <trkpt lat="24.706345" lon="115.364235"><time>2026-08-19T22:39:39.044Z</time></trkpt>
      <trkpt lat="24.706345" lon="115.364235"><time>2026-08-19T22:39:39.060Z</time></trkpt>
    </trkseg>
  </trk>
</gpx>
