<?xml version="1.0" encoding="UTF-8"?>
<gpx version="1.1" creator="Kairos" xmlns="http://www.topografix.com/GPX/1/1">
  <trk>
    <name>sidecar-srt-43e930fbd1d6fef2</name>
    <trkseg>
      <trkpt lat="24.659831" lon="111.460126"><time>2026-08-23T06:54:53.000Z</time></trkpt>
      <trkpt lat="24.659831" lon="111.460126"><time>2026-08-23T06:54:53.016Z</time></trkpt>
      <trkpt lat="24.659831" lon="111.460126"><time>2026-08-23T06:54:53.032Z</time></trkpt>
      <trkpt lat="24.659831" lon="111.460126"><time>2026-08-23T06:54:53.049Z</time></trkpt>
      <trkpt lat="24.659831" lon="111.460126"><time>2026-08-23T06:54:53.066Z</time></trkpt>
      <trkpt lat="24.659831" lon="111.460126"><time>2026-08-23T06:54:53.082Z</time></trkpt>
      <trkpt lat="24.659831" lon="111.460126"><time>2026-08-23T06:54:53.099Z</time></trkpt>
      <trkpt lat="24.659831" lon="111.460126"><time>2026-08-23T06:54:53.116Z</time></trkpt>
      <trkpt lat="24.659831" lon="111.460126"><time>2026-08-23T06:54:53.132Z</time></trkpt>
      <trkpt lat="24.659831" lon="111.460126"><time>2026-08-23T06:54:53.149Z</time></trkpt>
      <trkpt lat="24.659831" lon="111.460126"><time>2026-08-23T06:54:53.166Z</time></trkpt>
      <trkpt lat="24.659831" lon="111.460126"><time>2026-08-23T06:54:53.182Z</time></trkpt>
      <trkpt lat="24.659831" lon="111.460126"><time>2026-08-23T06:54:53.199Z</time></trkpt>
      <trkpt lat="24.659831" lon="111.460126"><time>2026-08-23T06:54:53.216Z</time></trkpt>
      <trkpt lat="24.659831" lon="111.460126"><time>2026-08-23T06:54:53.232Z</time></trkpt>
      <trkpt lat="24.659831" lon="111.460126"><time>2026-08-23T06:54:53.249Z</time></trkpt>
      <trkpt lat="24.659831" lon="111.460126"><time>2026-08-23T06:54:53.266Z</time></trkpt>
      <trkpt lat="24.659831" lon="111.460126"><time>2026-08-23T06:54:53.282Z</time></trkpt>
      <trkpt lat="24.659831" lon="111.460126"><time>2026-08-23T06:54:53.299Z</time></trkpt>
      <trkpt lat="24.659831" lon="111.460126"><time>2026-08-23T06:54:53.316Z</time></trkpt>
      <trkpt lat="24.659831" lon="111.460126"><time>2026-08-23T06:54:53.332Z</time></trkpt>
      <trkpt lat="24.659831" lon="111.460126"><time>2026-08-23T06:54:53.349Z</time></trkpt>
      <trkpt lat="24.659831" lon="111.460126"><time>2026-08-23T06:54:53.366Z</time></trkpt>
      <trkpt lat="24.659831" lon="111.460126"><time>2026-08-23T06:54:53.383Z</time></trkpt>
      <trkpt lat="24.659831" lon="111.460126"><time>2026-08-23T06:54:53.399Z</time></trkpt>
      <trkpt lat="24.659831" lon="111.460126"><time>2026-08-23T06:54:53.416Z</time></trkpt>
      <trkpt lat="24.659831" lon="111.460126"><time>2026-08-23T06:54:53.433Z</time></trkpt>
      <trkpt lat="24.659831" lon="111.460126"><time>2026-08-23T06:54:53.449Z</time></trkpt>
      <trkpt lat="24.659831" lon="111.460126"><time>2026-08-23T06:54:53.466Z</time></trkpt>
      <trkpt lat="24.659831" lon="111.460126"><time>2026-08-23T06:54:53.483Z</time></trkpt>
      <trkpt lat="24.659831" lon="111.460126"><time>2026-08-23T06:54:53.499Z</time></trkpt>
      <trkpt lat="24.659831" lon="111.460126"><time>2026-08-23T06:54:53.516Z</time></trkpt>
      <trkpt lat="24.659831" lon="111.460126"><time>2026-08-23T06:54:53.533Z</time></trkpt>
      <trkpt lat="24.659831" lon="111.460126"><time>2026-08-23T06:54:53.549Z</time></trkpt>
      <trkpt lat="24.659831" lon="111.460126"><time>2026-08-23T06:54:53.566Z</time></trkpt>
      <trkpt lat="24.659831" lon="111.460126"><time>2026-08-23T06:54:53.583Z</time></trkpt>
      <trkpt lat="24.659831" lon="111.460126"><time>2026-08-23T06:54:53.599Z</time></trkpt>
      <trkpt lat="24.659831" lon="111.460126"><time>2026-08-23T06:54:53.616Z</time></trkpt>
      <trkpt lat="24.659831" lon="111.460126"><time>2026-08-23T06:54:53.633Z</time></trkpt>
      <trkpt lat="24.659831" lon="111.460126"><time>2026-08-23T06:54:53.649Z</time></trkpt>
      <trkpt lat="24.659831" lon="111.460126"><time>2026-08-23T06:54:53.666Z</time></trkpt>
      <trkpt lat="24.659831" lon="111.460126"><time>2026-08-23T06:54:53.683Z</time></trkpt>
      <trkpt lat="24.659831" lon="111.460126"><time>2026-08-23T06:54:53.700Z</time></trkpt>
      <trkpt lat="24.659831" lon="111.460126"><time>2026-08-23T06:54:53.716Z</time></trkpt>
      <trkpt lat="24.659831" lon="111.460126"><time>2026-08-23T06:54:53.733Z</time></trkpt>
      <trkpt lat="24.659831" lon="111.460126"><time>2026-08-23T06:54:53.750Z</time></trkpt>
      <trkpt lat="24.659831" lon="111.460126"><time>2026-08-23T06:54:53.766Z</time></trkpt>
      <trkpt lat="24.659831" lon="111.460126"><time>2026-08-23T06:54:53.783Z</time></trkpt>
      <trkpt lat="24.659831" lon="111.460126"><time>2026-08-23T06:54:53.800Z</time></trkpt>
      <trkpt lat="24.659831" lon="111.460126"><time>2026-08-23T06:54:53.816Z</time></trkpt>
      <trkpt lat="24.659831" lon="111.460126"><time>2026-08-23T06:54:53.833Z</time></trkpt>
      <trkpt lat="24.659831" lon="111.460126"><time>2026-08-23T06:54:53.850Z</time></trkpt>
      <trkpt lat="24.659831" lon="111.460126"><time>2026-08-23T06:54:53.866Z</time></trkpt>
      <trkpt lat="24.659831" lon="111.460126"><time>2026-08-23T06:54:53.883Z</time></trkpt>
      <trkpt lat="24.659831" lon="111.460126"><time>2026-08-23T06:54:53.900Z</time></trkpt>
      <trkpt lat="24.659831" lon="111.460126"><time>2026-08-23T06:54:53.916Z</time></trkpt>
      <trkpt lat="24.659831" lon="111.460126"><time>2026-08-23T06:54:53.933Z</time></trkpt>
      <trkpt lat="24.659831" lon="111.460126"><time>2026-08-23T06:54:53.950Z</time></trkpt>
      <trkpt lat="24.659831" lon="111.460126"><time>2026-08-23T06:54:53.966Z</time></trkpt>
      <trkpt lat="24.659831" lon="111.460126"><time>2026-08-23T06:54:53.983Z</time></trkpt>
      <trkpt lat="24.659831" lon="111.460126"><time>2026-08-23T06:54:54.000Z</time></trkpt>
      <trkpt lat="24.659831" lon="111.460126"><time>2026-08-23T06:54:54.017Z</time></trkpt>
      <trkpt lat="24.659831" lon="111.460126"><time>2026-08-23T06:54:54.033Z</time></trkpt>
      <trkpt lat="24.659831" lon="111.460126"><time>2026-08-23T06:54:54.050Z</time></trkpt>
      <trkpt lat="24.659831" lon="111.460126"><time>2026-08-23T06:54:54.067Z</time></trkpt>
      <trkpt lat="24.659831" lon="111.460126"><time>2026-08-23T06:54:54.083Z</time></trkpt>
      <trkpt lat="24.659831" lon="111.460126"><time>2026-08-23T06:54:54.100Z</time></trkpt>
      <trkpt lat="24.659831" lon="111.460126"><time>2026-08-23T06:54:54.117Z</time></trkpt>
      <trkpt lat="24.659831" lon="111.460126"><time>2026-08-23T06:54:54.133Z</time></trkpt>
      <trkpt lat="24.659831" lon="111.460126"><time>2026-08-23T06:54:54.150Z</time></trkpt>
      <trkpt lat="24.659831" lon="111.460126"><time>2026-08-23T06:54:54.167Z</time></trkpt>
      <trkpt lat="24.659831" lon="111.460126"><time>2026-08-23T06:54:54.183Z</time></trkpt>
      <trkpt lat="24.659831" lon="111.460126"><time>2026-08-23T06:54:54.200Z</time></trkpt>
      <trkpt lat="24.659831" lon="111.460126"><time>2026-08-23T06:54:54.217Z</time></trkpt>
      <trkpt lat="24.659831" lon="111.460126"><time>2026-08-23T06:54:54.233Z</time></trkpt>
      <trkpt lat="24.659831" lon="111.460126"><time>2026-08-23T06:54:54.250Z</time></trkpt>
      <trkpt lat="24.659831" lon="111.460126"><time>2026-08-23T06:54:54.267Z</time></trkpt>
      <trkpt lat="24.659831" lon="111.460126"><time>2026-08-23T06:54:54.283Z</time></trkpt>
      <trkpt lat="24.659831" lon="111.460126"><time>2026-08-23T06:54:54.300Z</time></trkpt>
      <trkpt lat="24.659831" lon="111.460126"><time>2026-08-23T06:54:54.317Z</time></trkpt>
      <trkpt lat="24.659831" lon="111.460126"><time>2026-08-23T06:54:54.334Z</time></trkpt>
      <trkpt lat="24.659831" lon="111.460126"><time>2026-08-23T06:54:54.350Z</time></trkpt>
      <trkpt lat="24.659831" lon="111.460126"><time>2026-08-23T06:54:54.367Z</time></trkpt>
      <trkpt lat="24.659831" lon="111.460126"><time>2026-08-23T06:54:54.384Z</time></trkpt>
      <trkpt lat="24.659831" lon="111.460126"><time>2026-08-23T06:54:54.400Z</time></trkpt>
      <trkpt lat="24.659831" lon="111.460126"><time>2026-08-23T06:54:54.417Z</time></trkpt>
      <trkpt lat="24.659831" lon="111.460126"><time>2026-08-23T06:54:54.434Z</time></trkpt>
      <trkpt lat="24.659831" lon="111.460126"><time>2026-08-23T06:54:54.450Z</time></trkpt>
      <trkpt lat="24.659831" lon="111.460126"><time>2026-08-23T06:54:54.467Z</time></trkpt>
      <trkpt lat="24.659831" lon="111.460126"><time>2026-08-23T06:54:54.484Z</time></trkpt>
      <trkpt lat="24.659831" lon="111.460126"><time>2026-08-23T06:54:54.500Z</time></trkpt>
      <trkpt lat="24.659831" lon="111.460126"><time>2026-08-23T06:54:54.517Z</time></trkpt>
      <trkpt lat="24.659831" lon="111.460126"><time>2026-08-23T06:54:54.534Z</time></trkpt>
      <trkpt lat="24.659831" lon="111.460126"><time>2026-08-23T06:54:54.550Z</time></trkpt>
      <trkpt lat="24.659831" lon="111.460126"><time>2026-08-23T06:54:54.567Z</time></trkpt>
      <trkpt lat="24.659831" lon="111.460126"><time>2026-08-23T06:54:54.584Z</time></trkpt>
      <trkpt lat="24.659831" lon="111.460126"><time>2026-08-23T06:54:54.600Z</time></trkpt>
      <trkpt lat="24.659831" lon="111.460126"><time>2026-08-23T06:54:54.617Z</time></trkpt>
      <trkpt lat="24.659831" lon="111.460126"><time>2026-08-23T06:54:54.634Z</time></trkpt>
      <trkpt lat="24.659831" lon="111.460126"><time>2026-08-23T06:54:54.651Z</time></trkpt>
      <trkpt lat="24.659831" lon="111.460126"><time>2026-08-23T06:54:54.667Z</time></trkpt>
      <trkpt lat="24.659831" lon="111.460126"><time>2026-08-23T06:54:54.684Z</time></trkpt>
      <trkpt lat="24.659831" lon="111.460126"><time>2026-08-23T06:54:54.701Z</time></trkpt>
      <trkpt lat="24.659831" lon="111.460126"><time>2026-08-23T06:54:54.717Z</time></trkpt>
      <trkpt lat="24.659831" lon="111.460126"><time>2026-08-23T06:54:54.734Z</time></trkpt>
      <trkpt lat="24.659831" lon="111.460126"><time>2026-08-23T06:54:54.751Z</time></trkpt>
      <trkpt lat="24.659831" lon="111.460126"><time>2026-08-23T06:54:54.767Z</time></trkpt>
      <trkpt lat="24.659831" lon="111.460126"><time>2026-08-23T06:54:54.784Z</time></trkpt>
      <trkpt lat="24.659831" lon="111.460126"><time>2026-08-23T06:54:54.801Z</time></trkpt>
      <trkpt lat="24.659831" lon="111.460126"><time>2026-08-23T06:54:54.817Z</time></trkpt>
      <trkpt lat="24.659831" lon="111.460126"><time>2026-08-23T06:54:54.834Z</time></trkpt>
      <trkpt lat="24.659831" lon="111.460126"><time>2026-08-23T06:54:54.851Z</time></trkpt>
      <trkpt lat="24.659831" lon="111.460126"><time>2026-08-23T06:54:54.867Z</time></trkpt>
      <trkpt lat="24.659831" lon="111.460126"><time>2026-08-23T06:54:54.884Z</time></trkpt>
      <trkpt lat="24.659831" lon="111.460126"><time>2026-08-23T06:54:54.901Z</time></trkpt>
      <trkpt lat="24.659831" lon="111.460126"><time>2026-08-23T06:54:54.917Z</time></trkpt>
      <trkpt lat="24.659831" lon="111.460126"><time>2026-08-23T06:54:54.934Z</time></trkpt>
      <trkpt lat="24.659831" lon="111.460126"><time>2026-08-23T06:54:54.951Z</time></trkpt>
      <trkpt lat="24.659831" lon="111.460126"><time>2026-08-23T06:54:54.968Z</time></trkpt>
      <trkpt lat="24.659831" lon="111.460126"><time>2026-08-23T06:54:54.984Z</time></trkpt>
      <trkpt lat="24.659831" lon="111.460126"><time>2026-08-23T06:54:55.001Z</time></trkpt>
      <trkpt lat="24.659831" lon="111.460126"><time>2026-08-23T06:54:55.018Z</time></trkpt>
      <trkpt lat="24.659831" lon="111.460126"><time>2026-08-23T06:54:55.034Z</time></trkpt>
      <trkpt lat="24.659831" lon="111.460126"><time>2026-08-23T06:54:55.051Z</time></trkpt>
      <trkpt lat="24.659831" lon="111.460126"><time>2026-08-23T06:54:55.068Z</time></trkpt>
      <trkpt lat="24.659831" lon="111.460126"><time>2026-08-23T06:54:55.084Z</time></trkpt>
      <trkpt lat="24.659831" lon="111.460126"><time>2026-08-23T06:54:55.101Z</time></trkpt>
      <trkpt lat="24.659831" lon="111.460126"><time>2026-08-23T06:54:55.118Z</time></trkpt>
      <trkpt lat="24.659831" lon="111.460126"><time>2026-08-23T06:54:55.134Z</time></trkpt>
      <trkpt lat="24.659831" lon="111.460126"><time>2026-08-23T06:54:55.151Z</time></trkpt>
      <trkpt lat="24.659831" lon="111.460126"><time>2026-08-23T06:54:55.168Z</time></trkpt>
      <trkpt lat="24.659831" lon="111.460126"><time>2026-08-23T06:54:55.184Z</time></trkpt>
      <trkpt lat="24.659831" lon="111.460126"><time>2026-08-23T06:54:55.201Z</time></trkpt>
      <trkpt lat="24.659831" lon="111.460126"><time>2026-08-23T06:54:55.218Z</time></trkpt>
      <trkpt lat="24.659831" lon="111.460126"><time>2026-08-23T06:54:55.234Z</time></trkpt>
      <trkpt lat="24.659831" lon="111.460126"><time>2026-08-23T06:54:55.251Z</time></trkpt>
      <trkpt lat="24.659831" lon="111.460126"><time>2026-08-23T06:54:55.268Z</time></trkpt>
      <trkpt lat="24.659831" lon="111.460126"><time>2026-08-23T06:54:55.285Z</time></trkpt>
      <trkpt lat="24.659831" lon="111.460126"><time>2026-08-23T06:54:55.301Z</time></trkpt>
      <trkpt lat="24.659831" lon="111.460126"><time>2026-08-23T06:54:55.318Z</time></trkpt>
      <trkpt lat="24.659831" lon="111.460126"><time>2026-08-23T06:54:55.335Z</time></trkpt>
      <trkpt lat="24.659831" lon="111.460126"><time>2026-08-23T06:54:55.351Z</time></trkpt>
      <trkpt lat="24.659831" lon="111.460126"><time>2026-08-23T06:54:55.368Z</time></trkpt>
      <trkpt lat="24.659831" lon="111.460126"><time>2026-08-23T06:54:55.385Z</time></trkpt>
      <trkpt lat="24.659831" lon="111.460126"><time>2026-08-23T06:54:55.401Z</time></trkpt>
      <trkpt lat="24.659831" lon="111.460126"><time>2026-08-23T06:54:55.418Z</time></trkpt>
      <trkpt lat="24.659831" lon="111.460126"><time>2026-08-23T06:54:55.435Z</time></trkpt>
      <trkpt lat="24.659831" lon="111.460126"><time>2026-08-23T06:54:55.451Z</time></trkpt>
      <trkpt lat="24.659831" lon="111.460126"><time>2026-08-23T06:54:55.468Z</time></trkpt>
      <trkpt lat="24.659831" lon="111.460126"><time>2026-08-23T06:54:55.485Z</time></trkpt>
      <trkpt lat="24.659831" lon="111.460126"><time>2026-08-23T06:54:55.501Z</time></trkpt>
      <trkpt lat="24.659831" lon="111.460126"><time>2026-08-23T06:54:55.518Z</time></trkpt>
      <trkpt lat="24.659831" lon="111.460126"><time>2026-08-23T06:54:55.535Z</time></trkpt>
      <trkpt lat="24.659831" lon="111.460126"><time>2026-08-23T06:54:55.551Z</time></trkpt>
      <trkpt lat="24.659831" lon="111.460126"><time>2026-08-23T06:54:55.568Z</time></trkpt>
      <trkpt lat="24.659831" lon="111.460126"><time>2026-08-23T06:54:55.585Z</time></trkpt>
      <trkpt lat="24.659831" lon="111.460126"><time>2026-08-23T06:54:55.602Z</time></trkpt>
      <trkpt lat="24.659831" lon="111.460126"><time>2026-08-23T06:54:55.618Z</time></trkpt>
      <trkpt lat="24.659831" lon="111.460126"><time>2026-08-23T06:54:55.635Z</time></trkpt>
      <trkpt lat="24.659831" lon="111.460126"><time>2026-08-23T06:54:55.652Z</time></trkpt>
      <trkpt lat="24.659831" lon="111.460126"><time>2026-08-23T06:54:55.668Z</time></trkpt>
      <trkpt lat="24.659831" lon="111.460126"><time>2026-08-23T06:54:55.685Z</time></trkpt>
      <trkpt lat="24.659831" lon="111.460126"><time>2026-08-23T06:54:55.702Z</time></trkpt>
      <trkpt lat="24.659831" lon="111.460126"><time>2026-08-23T06:54:55.718Z</time></trkpt>
      <trkpt lat="24.659831" lon="111.460126"><time>2026-08-23T06:54:55.735Z</time></trkpt>
      <trkpt lat="24.659831" lon="111.460126"><time>2026-08-23T06:54:55.752Z</time></trkpt>
      <trkpt lat="24.659831" lon="111.460126"><time>2026-08-23T06:54:55.768Z</time></trkpt>
      <trkpt lat="24.659831" lon="111.460126"><time>2026-08-23T06:54:55.785Z</time></trkpt>
      <trkpt lat="24.659831" lon="111.460126"><time>2026-08-23T06:54:55.802Z</time></trkpt>
      <trkpt lat="24.659831" lon="111.460127"><time>2026-08-23T06:54:55.818Z</time></trkpt>
      <trkpt lat="24.659831" lon="111.460127"><time>2026-08-23T06:54:55.835Z</time></trkpt>
      <trkpt lat="24.659831" lon="111.460127"><time>2026-08-23T06:54:55.852Z</time></trkpt>
      <trkpt lat="24.659831" lon="111.460127"><time>2026-08-23T06:54:55.868Z</time></trkpt>
      <trkpt lat="24.659831" lon="111.460127"><time>2026-08-23T06:54:55.885Z</time></trkpt>
      <trkpt lat="24.659831" lon="111.460127"><time>2026-08-23T06:54:55.902Z</time></trkpt>
      <trkpt lat="24.659831" lon="111.460127"><time>2026-08-23T06:54:55.919Z</time></trkpt>
      <trkpt lat="24.659831" lon="111.460127"><time>2026-08-23T06:54:55.935Z</time></trkpt>
      <trkpt lat="24.659831" lon="111.460127"><time>2026-08-23T06:54:55.952Z</time></trkpt>
      <trkpt lat="24.659831" lon="111.460127"><time>2026-08-23T06:54:55.969Z</time></trkpt>
      <trkpt lat="24.659831" lon="111.460127"><time>2026-08-23T06:54:55.985Z</time></trkpt>
      <trkpt lat="24.659831" lon="111.460127"><time>2026-08-23T06:54:56.002Z</time></trkpt>
      <trkpt lat="24.659831" lon="111.460127"><time>2026-08-23T06:54:56.019Z</time></trkpt>
      <trkpt lat="24.659831" lon="111.460127"><time>2026-08-23T06:54:56.035Z</time></trkpt>
      <trkpt lat="24.659831" lon="111.460127"><time>2026-08-23T06:54:56.052Z</time></trkpt>
      <trkpt lat="24.659831" lon="111.460127"><time>2026-08-23T06:54:56.069Z</time></trkpt>
      <trkpt lat="24.659831" lon="111.460127"><time>2026-08-23T06:54:56.085Z</time></trkpt>
      <trkpt lat="24.659831" lon="111.460127"><time>2026-08-23T06:54:56.102Z</time></trkpt>
      <trkpt lat="24.659831" lon="111.460127"><time>2026-08-23T06:54:56.119Z</time></trkpt>
      <trkpt lat="24.659831" lon="111.460127"><time>2026-08-23T06:54:56.135Z</time></trkpt>
      <trkpt lat="24.659831" lon="111.460127"><time>2026-08-23T06:54:56.152Z</time></trkpt>
      <trkpt lat="24.659831" lon="111.460127"><time>2026-08-23T06:54:56.169Z</time></trkpt>
      <trkpt lat="24.659831" lon="111.460127"><time>2026-08-23T06:54:56.185Z</time></trkpt>
      <trkpt lat="24.659831" lon="111.460127"><time>2026-08-23T06:54:56.202Z</time></trkpt>
      <trkpt lat="24.659831" lon="111.460127"><time>2026-08-23T06:54:56.219Z</time></trkpt>
      <trkpt lat="24.659831" lon="111.460127"><time>2026-08-23T06:54:56.236Z</time></trkpt>
      <trkpt lat="24.659831" lon="111.460127"><time>2026-08-23T06:54:56.252Z</time></trkpt>
      <trkpt lat="24.659831" lon="111.460127"><time>2026-08-23T06:54:56.269Z</time></trkpt>
      <trkpt lat="24.659831" lon="111.460127"><time>2026-08-23T06:54:56.286Z</time></trkpt>
      <trkpt lat="24.659831" lon="111.460127"><time>2026-08-23T06:54:56.302Z</time></trkpt>
      <trkpt lat="24.659831" lon="111.460127"><time>2026-08-23T06:54:56.319Z</time></trkpt>
      <trkpt lat="24.659831" lon="111.460127"><time>2026-08-23T06:54:56.336Z</time></trkpt>
      <trkpt lat="24.659831" lon="111.460127"><time>2026-08-23T06:54:56.352Z</time></trkpt>
      <trkpt lat="24.659831" lon="111.460127"><time>2026-08-23T06:54:56.369Z</time></trkpt>
      <trkpt lat="24.659831" lon="111.460127"><time>2026-08-23T06:54:56.386Z</time></trkpt>
      <trkpt lat="24.659831" lon="111.460127"><time>2026-08-23T06:54:56.402Z</time></trkpt>
      <trkpt lat="24.659832" lon="111.460127"><time>2026-08-23T06:54:56.419Z</time></trkpt>
      <trkpt lat="24.659832" lon="111.460127"><time>2026-08-23T06:54:56.436Z</time></trkpt>
      <trkpt lat="24.659832" lon="111.460127"><time>2026-08-23T06:54:56.452Z</time></trkpt>
      <trkpt lat="24.659832" lon="111.460127"><time>2026-08-23T06:54:56.469Z</time></trkpt>
      <trkpt lat="24.659832" lon="111.460127"><time>2026-08-23T06:54:56.486Z</time></trkpt>
      <trkpt lat="24.659832" lon="111.460127"><time>2026-08-23T06:54:56.502Z</time></trkpt>
      <trkpt lat="24.659832" lon="111.460127"><time>2026-08-23T06:54:56.519Z</time></trkpt>
      <trkpt lat="24.659832" lon="111.460127"><time>2026-08-23T06:54:56.536Z</time></trkpt>
      <trkpt lat="24.659832" lon="111.460127"><time>2026-08-23T06:54:56.553Z</time></trkpt>
      <trkpt lat="24.659832" lon="111.460127"><time>2026-08-23T06:54:56.569Z</time></trkpt>
    </trkseg>
  </trk>
</gpx>
