<?xml version="1.0" encoding="UTF-8"?>
<gpx version="1.1" creator="Kairos" xmlns="http://www.topografix.com/GPX/1/1">
  <trk>
    <name>sidecar-srt-efb7d93e2a7e4b1f</name>
    <trkseg>
      <trkpt lat="24.473044" lon="111.152335"><time>2026-08-22T09:01:27.000Z</time></trkpt>
      <trkpt lat="24.473044" lon="111.152335"><time>2026-08-22T09:01:27.016Z</time></trkpt>
      <trkpt lat="24.473044" lon="111.152335"><time>2026-08-22T09:01:27.032Z</time></trkpt>
      <trkpt lat="24.473044" lon="111.152335"><time>2026-08-22T09:01:27.049Z</time></trkpt>
      <trkpt lat="24.473044" lon="111.152335"><time>2026-08-22T09:01:27.066Z</time></trkpt>
      <trkpt lat="24.473051" lon="111.152332"><time>2026-08-22T09:01:27.082Z</time></trkpt>
      <trkpt lat="24.473051" lon="111.152332"><time>2026-08-22T09:01:27.099Z</time></trkpt>
      <trkpt lat="24.473051" lon="111.152332"><time>2026-08-22T09:01:27.116Z</time></trkpt>
      <trkpt lat="24.473051" lon="111.152332"><time>2026-08-22T09:01:27.132Z</time></trkpt>
      <trkpt lat="24.473051" lon="111.152332"><time>2026-08-22T09:01:27.149Z</time></trkpt>
      <trkpt lat="24.473051" lon="111.152332"><time>2026-08-22T09:01:27.166Z</time></trkpt>
      <trkpt lat="24.473058" lon="111.152329"><time>2026-08-22T09:01:27.182Z</time></trkpt>
      <trkpt lat="24.473058" lon="111.152329"><time>2026-08-22T09:01:27.199Z</time></trkpt>
      <trkpt lat="24.473058" lon="111.152329"><time>2026-08-22T09:01:27.216Z</time></trkpt>
      <trkpt lat="24.473058" lon="111.152329"><time>2026-08-22T09:01:27.232Z</time></trkpt>
      <trkpt lat="24.473058" lon="111.152329"><time>2026-08-22T09:01:27.249Z</time></trkpt>
      <trkpt lat="24.473058" lon="111.152329"><time>2026-08-22T09:01:27.266Z</time></trkpt>
      <trkpt lat="24.473065" lon="111.152326"><time>2026-08-22T09:01:27.282Z</time></trkpt>
      <trkpt lat="24.473065" lon="111.152326"><time>2026-08-22T09:01:27.299Z</time></trkpt>
      <trkpt lat="24.473065" lon="111.152326"><time>2026-08-22T09:01:27.316Z</time></trkpt>
      <trkpt lat="24.473065" lon="111.152326"><time>2026-08-22T09:01:27.333Z</time></trkpt>
      <trkpt lat="24.473065" lon="111.152326"><time>2026-08-22T09:01:27.349Z</time></trkpt>
      <trkpt lat="24.473065" lon="111.152326"><time>2026-08-22T09:01:27.366Z</time></trkpt>
      <trkpt lat="24.473073" lon="111.152323"><time>2026-08-22T09:01:27.383Z</time></trkpt>
      <trkpt lat="24.473073" lon="111.152323"><time>2026-08-22T09:01:27.399Z</time></trkpt>
      <trkpt lat="24.473073" lon="111.152323"><time>2026-08-22T09:01:27.416Z</time></trkpt>
      <trkpt lat="24.473073" lon="111.152323"><time>2026-08-22T09:01:27.433Z</time></trkpt>
      <trkpt lat="24.473073" lon="111.152323"><time>2026-08-22T09:01:27.449Z</time></trkpt>
      <trkpt lat="24.473073" lon="111.152323"><time>2026-08-22T09:01:27.466Z</time></trkpt>
      <trkpt lat="24.47308" lon="111.15232"><time>2026-08-22T09:01:27.483Z</time></trkpt>
      <trkpt lat="24.47308" lon="111.15232"><time>2026-08-22T09:01:27.499Z</time></trkpt>
      <trkpt lat="24.47308" lon="111.15232"><time>2026-08-22T09:01:27.516Z</time></trkpt>
      <trkpt lat="24.47308" lon="111.15232"><time>2026-08-22T09:01:27.533Z</time></trkpt>
      <trkpt lat="24.47308" lon="111.15232"><time>2026-08-22T09:01:27.549Z</time></trkpt>
      <trkpt lat="24.47308" lon="111.15232"><time>2026-08-22T09:01:27.566Z</time></trkpt>
      <trkpt lat="24.473088" lon="111.152317"><time>2026-08-22T09:01:27.583Z</time></trkpt>
      <trkpt lat="24.473088" lon="111.152317"><time>2026-08-22T09:01:27.599Z</time></trkpt>
      <trkpt lat="24.473088" lon="111.152317"><time>2026-08-22T09:01:27.616Z</time></trkpt>
      <trkpt lat="24.473088" lon="111.152317"><time>2026-08-22T09:01:27.633Z</time></trkpt>
      <trkpt lat="24.473088" lon="111.152317"><time>2026-08-22T09:01:27.650Z</time></trkpt>
      <trkpt lat="24.473088" lon="111.152317"><time>2026-08-22T09:01:27.666Z</time></trkpt>
      <trkpt lat="24.473096" lon="111.152314"><time>2026-08-22T09:01:27.683Z</time></trkpt>
      <trkpt lat="24.473096" lon="111.152314"><time>2026-08-22T09:01:27.700Z</time></trkpt>
      <trkpt lat="24.473096" lon="111.152314"><time>2026-08-22T09:01:27.716Z</time></trkpt>
      <trkpt lat="24.473096" lon="111.152314"><time>2026-08-22T09:01:27.733Z</time></trkpt>
      <trkpt lat="24.473096" lon="111.152314"><time>2026-08-22T09:01:27.750Z</time></trkpt>
      <trkpt lat="24.473096" lon="111.152314"><time>2026-08-22T09:01:27.766Z</time></trkpt>
      <trkpt lat="24.473104" lon="111.15231"><time>2026-08-22T09:01:27.783Z</time></trkpt>
      <trkpt lat="24.473104" lon="111.15231"><time>2026-08-22T09:01:27.800Z</time></trkpt>
      <trkpt lat="24.473104" lon="111.15231"><time>2026-08-22T09:01:27.816Z</time></trkpt>
      <trkpt lat="24.473104" lon="111.15231"><time>2026-08-22T09:01:27.833Z</time></trkpt>
      <trkpt lat="24.473104" lon="111.15231"><time>2026-08-22T09:01:27.850Z</time></trkpt>
      <trkpt lat="24.473104" lon="111.15231"><time>2026-08-22T09:01:27.866Z</time></trkpt>
      <trkpt lat="24.473112" lon="111.152307"><time>2026-08-22T09:01:27.883Z</time></trkpt>
      <trkpt lat="24.473112" lon="111.152307"><time>2026-08-22T09:01:27.900Z</time></trkpt>
      <trkpt lat="24.473112" lon="111.152307"><time>2026-08-22T09:01:27.916Z</time></trkpt>
      <trkpt lat="24.473112" lon="111.152307"><time>2026-08-22T09:01:27.933Z</time></trkpt>
      <trkpt lat="24.473112" lon="111.152307"><time>2026-08-22T09:01:27.950Z</time></trkpt>
      <trkpt lat="24.473112" lon="111.152307"><time>2026-08-22T09:01:27.967Z</time></trkpt>
      <trkpt lat="24.473121" lon="111.152303"><time>2026-08-22T09:01:27.983Z</time></trkpt>
      <trkpt lat="24.473121" lon="111.152303"><time>2026-08-22T09:01:28.000Z</time></trkpt>
      <trkpt lat="24.473121" lon="111.152303"><time>2026-08-22T09:01:28.017Z</time></trkpt>
      <trkpt lat="24.473121" lon="111.152303"><time>2026-08-22T09:01:28.033Z</time></trkpt>
      <trkpt lat="24.473121" lon="111.152303"><time>2026-08-22T09:01:28.050Z</time></trkpt>
      <trkpt lat="24.473121" lon="111.152303"><time>2026-08-22T09:01:28.067Z</time></trkpt>
      <trkpt lat="24.473129" lon="111.1523"><time>2026-08-22T09:01:28.083Z</time></trkpt>
      <trkpt lat="24.473129" lon="111.1523"><time>2026-08-22T09:01:28.100Z</time></trkpt>
      <trkpt lat="24.473129" lon="111.1523"><time>2026-08-22T09:01:28.117Z</time></trkpt>
      <trkpt lat="24.473129" lon="111.1523"><time>2026-08-22T09:01:28.133Z</time></trkpt>
      <trkpt lat="24.473129" lon="111.1523"><time>2026-08-22T09:01:28.150Z</time></trkpt>
      <trkpt lat="24.473129" lon="111.1523"><time>2026-08-22T09:01:28.167Z</time></trkpt>
      <trkpt lat="24.473138" lon="111.152296"><time>2026-08-22T09:01:28.183Z</time></trkpt>
      <trkpt lat="24.473138" lon="111.152296"><time>2026-08-22T09:01:28.200Z</time></trkpt>
      <trkpt lat="24.473138" lon="111.152296"><time>2026-08-22T09:01:28.217Z</time></trkpt>
      <trkpt lat="24.473138" lon="111.152296"><time>2026-08-22T09:01:28.233Z</time></trkpt>
      <trkpt lat="24.473138" lon="111.152296"><time>2026-08-22T09:01:28.250Z</time></trkpt>
      <trkpt lat="24.473138" lon="111.152296"><time>2026-08-22T09:01:28.267Z</time></trkpt>
      <trkpt lat="24.473147" lon="111.152292"><time>2026-08-22T09:01:28.284Z</time></trkpt>
      <trkpt lat="24.473147" lon="111.152292"><time>2026-08-22T09:01:28.300Z</time></trkpt>
      <trkpt lat="24.473147" lon="111.152292"><time>2026-08-22T09:01:28.317Z</time></trkpt>
      <trkpt lat="24.473147" lon="111.152292"><time>2026-08-22T09:01:28.334Z</time></trkpt>
      <trkpt lat="24.473147" lon="111.152292"><time>2026-08-22T09:01:28.350Z</time></trkpt>
      <trkpt lat="24.473147" lon="111.152292"><time>2026-08-22T09:01:28.367Z</time></trkpt>
      <trkpt lat="24.473156" lon="111.152288"><time>2026-08-22T09:01:28.384Z</time></trkpt>
      <trkpt lat="24.473156" lon="111.152288"><time>2026-08-22T09:01:28.400Z</time></trkpt>
      <trkpt lat="24.473156" lon="111.152288"><time>2026-08-22T09:01:28.417Z</time></trkpt>
      <trkpt lat="24.473156" lon="111.152288"><time>2026-08-22T09:01:28.434Z</time></trkpt>
      <trkpt lat="24.473156" lon="111.152288"><time>2026-08-22T09:01:28.450Z</time></trkpt>
      <trkpt lat="24.473156" lon="111.152288"><time>2026-08-22T09:01:28.467Z</time></trkpt>
      <trkpt lat="24.473165" lon="111.152285"><time>2026-08-22T09:01:28.484Z</time></trkpt>
      <trkpt lat="24.473165" lon="111.152285"><time>2026-08-22T09:01:28.500Z</time></trkpt>
      <trkpt lat="24.473165" lon="111.152285"><time>2026-08-22T09:01:28.517Z</time></trkpt>
      <trkpt lat="24.473165" lon="111.152285"><time>2026-08-22T09:01:28.534Z</time></trkpt>
      <trkpt lat="24.473165" lon="111.152285"><time>2026-08-22T09:01:28.550Z</time></trkpt>
      <trkpt lat="24.473165" lon="111.152285"><time>2026-08-22T09:01:28.567Z</time></trkpt>
      <trkpt lat="24.473175" lon="111.152281"><time>2026-08-22T09:01:28.584Z</time></trkpt>
      <trkpt lat="24.473175" lon="111.152281"><time>2026-08-22T09:01:28.601Z</time></trkpt>
      <trkpt lat="24.473175" lon="111.152281"><time>2026-08-22T09:01:28.617Z</time></trkpt>
      <trkpt lat="24.473175" lon="111.152281"><time>2026-08-22T09:01:28.634Z</time></trkpt>
      <trkpt lat="24.473175" lon="111.152281"><time>2026-08-22T09:01:28.651Z</time></trkpt>
      <trkpt lat="24.473175" lon="111.152281"><time>2026-08-22T09:01:28.667Z</time></trkpt>
      <trkpt lat="24.473184" lon="111.152277"><time>2026-08-22T09:01:28.684Z</time></trkpt>
      <trkpt lat="24.473184" lon="111.152277"><time>2026-08-22T09:01:28.701Z</time></trkpt>
      <trkpt lat="24.473184" lon="111.152277"><time>2026-08-22T09:01:28.717Z</time></trkpt>
      <trkpt lat="24.473184" lon="111.152277"><time>2026-08-22T09:01:28.734Z</time></trkpt>
      <trkpt lat="24.473184" lon="111.152277"><time>2026-08-22T09:01:28.751Z</time></trkpt>
      <trkpt lat="24.473184" lon="111.152277"><time>2026-08-22T09:01:28.767Z</time></trkpt>
      <trkpt lat="24.473194" lon="111.152273"><time>2026-08-22T09:01:28.784Z</time></trkpt>
      <trkpt lat="24.473194" lon="111.152273"><time>2026-08-22T09:01:28.801Z</time></trkpt>
      <trkpt lat="24.473194" lon="111.152273"><time>2026-08-22T09:01:28.817Z</time></trkpt>
      <trkpt lat="24.473194" lon="111.152273"><time>2026-08-22T09:01:28.834Z</time></trkpt>
      <trkpt lat="24.473194" lon="111.152273"><time>2026-08-22T09:01:28.851Z</time></trkpt>
      <trkpt lat="24.473194" lon="111.152273"><time>2026-08-22T09:01:28.867Z</time></trkpt>
      <trkpt lat="24.473204" lon="111.152269"><time>2026-08-22T09:01:28.884Z</time></trkpt>
      <trkpt lat="24.473204" lon="111.152269"><time>2026-08-22T09:01:28.901Z</time></trkpt>
      <trkpt lat="24.473204" lon="111.152269"><time>2026-08-22T09:01:28.917Z</time></trkpt>
      <trkpt lat="24.473204" lon="111.152269"><time>2026-08-22T09:01:28.934Z</time></trkpt>
      <trkpt lat="24.473204" lon="111.152269"><time>2026-08-22T09:01:28.951Z</time></trkpt>
      <trkpt lat="24.473204" lon="111.152269"><time>2026-08-22T09:01:28.968Z</time></trkpt>
      <trkpt lat="24.473215" lon="111.152264"><time>2026-08-22T09:01:28.984Z</time></trkpt>
      <trkpt lat="24.473215" lon="111.152264"><time>2026-08-22T09:01:29.001Z</time></trkpt>
      <trkpt lat="24.473215" lon="111.152264"><time>2026-08-22T09:01:29.018Z</time></trkpt>
      <trkpt lat="24.473215" lon="111.152264"><time>2026-08-22T09:01:29.034Z</time></trkpt>
      <trkpt lat="24.473215" lon="111.152264"><time>2026-08-22T09:01:29.051Z</time></trkpt>
      <trkpt lat="24.473215" lon="111.152264"><time>2026-08-22T09:01:29.068Z</time></trkpt>
      <trkpt lat="24.473224" lon="111.15226"><time>2026-08-22T09:01:29.084Z</time></trkpt>
      <trkpt lat="24.473224" lon="111.15226"><time>2026-08-22T09:01:29.101Z</time></trkpt>
      <trkpt lat="24.473224" lon="111.15226"><time>2026-08-22T09:01:29.118Z</time></trkpt>
      <trkpt lat="24.473224" lon="111.15226"><time>2026-08-22T09:01:29.134Z</time></trkpt>
      <trkpt lat="24.473224" lon="111.15226"><time>2026-08-22T09:01:29.151Z</time></trkpt>
      <trkpt lat="24.473224" lon="111.15226"><time>2026-08-22T09:01:29.168Z</time></trkpt>
      <trkpt lat="24.473235" lon="111.152256"><time>2026-08-22T09:01:29.184Z</time></trkpt>
      <trkpt lat="24.473235" lon="111.152256"><time>2026-08-22T09:01:29.201Z</time></trkpt>
      <trkpt lat="24.473235" lon="111.152256"><time>2026-08-22T09:01:29.218Z</time></trkpt>
      <trkpt lat="24.473235" lon="111.152256"><time>2026-08-22T09:01:29.234Z</time></trkpt>
      <trkpt lat="24.473235" lon="111.152256"><time>2026-08-22T09:01:29.251Z</time></trkpt>
      <trkpt lat="24.473235" lon="111.152256"><time>2026-08-22T09:01:29.268Z</time></trkpt>
      <trkpt lat="24.473246" lon="111.152251"><time>2026-08-22T09:01:29.285Z</time></trkpt>
      <trkpt lat="24.473246" lon="111.152251"><time>2026-08-22T09:01:29.301Z</time></trkpt>
      <trkpt lat="24.473246" lon="111.152251"><time>2026-08-22T09:01:29.318Z</time></trkpt>
      <trkpt lat="24.473246" lon="111.152251"><time>2026-08-22T09:01:29.335Z</time></trkpt>
      <trkpt lat="24.473246" lon="111.152251"><time>2026-08-22T09:01:29.351Z</time></trkpt>
      <trkpt lat="24.473246" lon="111.152251"><time>2026-08-22T09:01:29.368Z</time></trkpt>
      <trkpt lat="24.473257" lon="111.152247"><time>2026-08-22T09:01:29.385Z</time></trkpt>
      <trkpt lat="24.473257" lon="111.152247"><time>2026-08-22T09:01:29.401Z</time></trkpt>
      <trkpt lat="24.473257" lon="111.152247"><time>2026-08-22T09:01:29.418Z</time></trkpt>
      <trkpt lat="24.473257" lon="111.152247"><time>2026-08-22T09:01:29.435Z</time></trkpt>
      <trkpt lat="24.473257" lon="111.152247"><time>2026-08-22T09:01:29.451Z</time></trkpt>
      <trkpt lat="24.473257" lon="111.152247"><time>2026-08-22T09:01:29.468Z</time></trkpt>
      <trkpt lat="24.473268" lon="111.152242"><time>2026-08-22T09:01:29.485Z</time></trkpt>
      <trkpt lat="24.473268" lon="111.152242"><time>2026-08-22T09:01:29.501Z</time></trkpt>
      <trkpt lat="24.473268" lon="111.152242"><time>2026-08-22T09:01:29.518Z</time></trkpt>
      <trkpt lat="24.473268" lon="111.152242"><time>2026-08-22T09:01:29.535Z</time></trkpt>
      <trkpt lat="24.473268" lon="111.152242"><time>2026-08-22T09:01:29.551Z</time></trkpt>
      <trkpt lat="24.473268" lon="111.152242"><time>2026-08-22T09:01:29.568Z</time></trkpt>
      <trkpt lat="24.473278" lon="111.152238"><time>2026-08-22T09:01:29.585Z</time></trkpt>
      <trkpt lat="24.473278" lon="111.152238"><time>2026-08-22T09:01:29.602Z</time></trkpt>
      <trkpt lat="24.473278" lon="111.152238"><time>2026-08-22T09:01:29.618Z</time></trkpt>
      <trkpt lat="24.473278" lon="111.152238"><time>2026-08-22T09:01:29.635Z</time></trkpt>
      <trkpt lat="24.473278" lon="111.152238"><time>2026-08-22T09:01:29.652Z</time></trkpt>
      <trkpt lat="24.473278" lon="111.152238"><time>2026-08-22T09:01:29.668Z</time></trkpt>
      <trkpt lat="24.473289" lon="111.152233"><time>2026-08-22T09:01:29.685Z</time></trkpt>
      <trkpt lat="24.473289" lon="111.152233"><time>2026-08-22T09:01:29.702Z</time></trkpt>
      <trkpt lat="24.473289" lon="111.152233"><time>2026-08-22T09:01:29.718Z</time></trkpt>
      <trkpt lat="24.473289" lon="111.152233"><time>2026-08-22T09:01:29.735Z</time></trkpt>
      <trkpt lat="24.473289" lon="111.152233"><time>2026-08-22T09:01:29.752Z</time></trkpt>
      <trkpt lat="24.473289" lon="111.152233"><time>2026-08-22T09:01:29.768Z</time></trkpt>
      <trkpt lat="24.473299" lon="111.152229"><time>2026-08-22T09:01:29.785Z</time></trkpt>
      <trkpt lat="24.473299" lon="111.152229"><time>2026-08-22T09:01:29.802Z</time></trkpt>
      <trkpt lat="24.473299" lon="111.152229"><time>2026-08-22T09:01:29.818Z</time></trkpt>
      <trkpt lat="24.473299" lon="111.152229"><time>2026-08-22T09:01:29.835Z</time></trkpt>
      <trkpt lat="24.473299" lon="111.152229"><time>2026-08-22T09:01:29.852Z</time></trkpt>
      <trkpt lat="24.473299" lon="111.152229"><time>2026-08-22T09:01:29.868Z</time></trkpt>
      <trkpt lat="24.473309" lon="111.152225"><time>2026-08-22T09:01:29.885Z</time></trkpt>
      <trkpt lat="24.473309" lon="111.152225"><time>2026-08-22T09:01:29.902Z</time></trkpt>
      <trkpt lat="24.473309" lon="111.152225"><time>2026-08-22T09:01:29.919Z</time></trkpt>
      <trkpt lat="24.473309" lon="111.152225"><time>2026-08-22T09:01:29.935Z</time></trkpt>
      <trkpt lat="24.473309" lon="111.152225"><time>2026-08-22T09:01:29.952Z</time></trkpt>
      <trkpt lat="24.473309" lon="111.152225"><time>2026-08-22T09:01:29.969Z</time></trkpt>
      <trkpt lat="24.473319" lon="111.152221"><time>2026-08-22T09:01:29.985Z</time></trkpt>
      <trkpt lat="24.473319" lon="111.152221"><time>2026-08-22T09:01:30.002Z</time></trkpt>
      <trkpt lat="24.473319" lon="111.152221"><time>2026-08-22T09:01:30.019Z</time></trkpt>
      <trkpt lat="24.473319" lon="111.152221"><time>2026-08-22T09:01:30.035Z</time></trkpt>
      <trkpt lat="24.473319" lon="111.152221"><time>2026-08-22T09:01:30.052Z</time></trkpt>
      <trkpt lat="24.473319" lon="111.152221"><time>2026-08-22T09:01:30.069Z</time></trkpt>
      <trkpt lat="24.473327" lon="111.152217"><time>2026-08-22T09:01:30.085Z</time></trkpt>
      <trkpt lat="24.473327" lon="111.152217"><time>2026-08-22T09:01:30.102Z</time></trkpt>
      <trkpt lat="24.473327" lon="111.152217"><time>2026-08-22T09:01:30.119Z</time></trkpt>
      <trkpt lat="24.473327" lon="111.152217"><time>2026-08-22T09:01:30.135Z</time></trkpt>
      <trkpt lat="24.473327" lon="111.152217"><time>2026-08-22T09:01:30.152Z</time></trkpt>
      <trkpt lat="24.473327" lon="111.152217"><time>2026-08-22T09:01:30.169Z</time></trkpt>
      <trkpt lat="24.473336" lon="111.152213"><time>2026-08-22T09:01:30.185Z</time></trkpt>
      <trkpt lat="24.473336" lon="111.152213"><time>2026-08-22T09:01:30.202Z</time></trkpt>
      <trkpt lat="24.473336" lon="111.152213"><time>2026-08-22T09:01:30.219Z</time></trkpt>
      <trkpt lat="24.473336" lon="111.152213"><time>2026-08-22T09:01:30.236Z</time></trkpt>
      <trkpt lat="24.473336" lon="111.152213"><time>2026-08-22T09:01:30.252Z</time></trkpt>
      <trkpt lat="24.473336" lon="111.152213"><time>2026-08-22T09:01:30.269Z</time></trkpt>
      <trkpt lat="24.473344" lon="111.152209"><time>2026-08-22T09:01:30.286Z</time></trkpt>
      <trkpt lat="24.473344" lon="111.152209"><time>2026-08-22T09:01:30.302Z</time></trkpt>
      <trkpt lat="24.473344" lon="111.152209"><time>2026-08-22T09:01:30.319Z</time></trkpt>
      <trkpt lat="24.473344" lon="111.152209"><time>2026-08-22T09:01:30.336Z</time></trkpt>
      <trkpt lat="24.473344" lon="111.152209"><time>2026-08-22T09:01:30.352Z</time></trkpt>
      <trkpt lat="24.473344" lon="111.152209"><time>2026-08-22T09:01:30.369Z</time></trkpt>
      <trkpt lat="24.473351" lon="111.152205"><time>2026-08-22T09:01:30.386Z</time></trkpt>
      <trkpt lat="24.473351" lon="111.152205"><time>2026-08-22T09:01:30.402Z</time></trkpt>
      <trkpt lat="24.473351" lon="111.152205"><time>2026-08-22T09:01:30.419Z</time></trkpt>
      <trkpt lat="24.473351" lon="111.152205"><time>2026-08-22T09:01:30.436Z</time></trkpt>
      <trkpt lat="24.473351" lon="111.152205"><time>2026-08-22T09:01:30.452Z</time></trkpt>
      <trkpt lat="24.473351" lon="111.152205"><time>2026-08-22T09:01:30.469Z</time></trkpt>
      <trkpt lat="24.473358" lon="111.1522"><time>2026-08-22T09:01:30.486Z</time></trkpt>
      <trkpt lat="24.473358" lon="111.1522"><time>2026-08-22T09:01:30.502Z</time></trkpt>
      <trkpt lat="24.473358" lon="111.1522"><time>2026-08-22T09:01:30.519Z</time></trkpt>
      <trkpt lat="24.473358" lon="111.1522"><time>2026-08-22T09:01:30.536Z</time></trkpt>
      <trkpt lat="24.473358" lon="111.1522"><time>2026-08-22T09:01:30.553Z</time></trkpt>
      <trkpt lat="24.473358" lon="111.1522"><time>2026-08-22T09:01:30.569Z</time></trkpt>
      <trkpt lat="24.473364" lon="111.152196"><time>2026-08-22T09:01:30.586Z</time></trkpt>
      <trkpt lat="24.473364" lon="111.152196"><time>2026-08-22T09:01:30.603Z</time></trkpt>
      <trkpt lat="24.473364" lon="111.152196"><time>2026-08-22T09:01:30.619Z</time></trkpt>
      <trkpt lat="24.473364" lon="111.152196"><time>2026-08-22T09:01:30.636Z</time></trkpt>
      <trkpt lat="24.473364" lon="111.152196"><time>2026-08-22T09:01:30.653Z</time></trkpt>
      <trkpt lat="24.473364" lon="111.152196"><time>2026-08-22T09:01:30.669Z</time></trkpt>
      <trkpt lat="24.473369" lon="111.152191"><time>2026-08-22T09:01:30.686Z</time></trkpt>
      <trkpt lat="24.473369" lon="111.152191"><time>2026-08-22T09:01:30.703Z</time></trkpt>
      <trkpt lat="24.473369" lon="111.152191"><time>2026-08-22T09:01:30.719Z</time></trkpt>
      <trkpt lat="24.473369" lon="111.152191"><time>2026-08-22T09:01:30.736Z</time></trkpt>
      <trkpt lat="24.473369" lon="111.152191"><time>2026-08-22T09:01:30.753Z</time></trkpt>
      <trkpt lat="24.473369" lon="111.152191"><time>2026-08-22T09:01:30.769Z</time></trkpt>
      <trkpt lat="24.473374" lon="111.152186"><time>2026-08-22T09:01:30.786Z</time></trkpt>
      <trkpt lat="24.473374" lon="111.152186"><time>2026-08-22T09:01:30.803Z</time></trkpt>
      <trkpt lat="24.473374" lon="111.152186"><time>2026-08-22T09:01:30.819Z</time></trkpt>
      <trkpt lat="24.473374" lon="111.152186"><time>2026-08-22T09:01:30.836Z</time></trkpt>
      <trkpt lat="24.473374" lon="111.152186"><time>2026-08-22T09:01:30.853Z</time></trkpt>
      <trkpt lat="24.473374" lon="111.152186"><time>2026-08-22T09:01:30.870Z</time></trkpt>
      <trkpt lat="24.473379" lon="111.15218"><time>2026-08-22T09:01:30.886Z</time></trkpt>
      <trkpt lat="24.473379" lon="111.15218"><time>2026-08-22T09:01:30.903Z</time></trkpt>
      <trkpt lat="24.473379" lon="111.15218"><time>2026-08-22T09:01:30.920Z</time></trkpt>
      <trkpt lat="24.473379" lon="111.15218"><time>2026-08-22T09:01:30.936Z</time></trkpt>
      <trkpt lat="24.473379" lon="111.15218"><time>2026-08-22T09:01:30.953Z</time></trkpt>
      <trkpt lat="24.473379" lon="111.15218"><time>2026-08-22T09:01:30.970Z</time></trkpt>
      <trkpt lat="24.473383" lon="111.152174"><time>2026-08-22T09:01:30.986Z</time></trkpt>
      <trkpt lat="24.473383" lon="111.152174"><time>2026-08-22T09:01:31.003Z</time></trkpt>
      <trkpt lat="24.473383" lon="111.152174"><time>2026-08-22T09:01:31.020Z</time></trkpt>
      <trkpt lat="24.473383" lon="111.152174"><time>2026-08-22T09:01:31.036Z</time></trkpt>
      <trkpt lat="24.473383" lon="111.152174"><time>2026-08-22T09:01:31.053Z</time></trkpt>
      <trkpt lat="24.473383" lon="111.152174"><time>2026-08-22T09:01:31.070Z</time></trkpt>
      <trkpt lat="24.473386" lon="111.152168"><time>2026-08-22T09:01:31.086Z</time></trkpt>
      <trkpt lat="24.473386" lon="111.152168"><time>2026-08-22T09:01:31.103Z</time></trkpt>
      <trkpt lat="24.473386" lon="111.152168"><time>2026-08-22T09:01:31.120Z</time></trkpt>
      <trkpt lat="24.473386" lon="111.152168"><time>2026-08-22T09:01:31.136Z</time></trkpt>
      <trkpt lat="24.473386" lon="111.152168"><time>2026-08-22T09:01:31.153Z</time></trkpt>
      <trkpt lat="24.473386" lon="111.152168"><time>2026-08-22T09:01:31.170Z</time></trkpt>
      <trkpt lat="24.473389" lon="111.152162"><time>2026-08-22T09:01:31.187Z</time></trkpt>
      <trkpt lat="24.473389" lon="111.152162"><time>2026-08-22T09:01:31.203Z</time></trkpt>
      <trkpt lat="24.473389" lon="111.152162"><time>2026-08-22T09:01:31.220Z</time></trkpt>
      <trkpt lat="24.473389" lon="111.152162"><time>2026-08-22T09:01:31.237Z</time></trkpt>
      <trkpt lat="24.473389" lon="111.152162"><time>2026-08-22T09:01:31.253Z</time></trkpt>
      <trkpt lat="24.473389" lon="111.152162"><time>2026-08-22T09:01:31.270Z</time></trkpt>
      <trkpt lat="24.473392" lon="111.152156"><time>2026-08-22T09:01:31.287Z</time></trkpt>
      <trkpt lat="24.473392" lon="111.152156"><time>2026-08-22T09:01:31.303Z</time></trkpt>
      <trkpt lat="24.473392" lon="111.152156"><time>2026-08-22T09:01:31.320Z</time></trkpt>
      <trkpt lat="24.473392" lon="111.152156"><time>2026-08-22T09:01:31.337Z</time></trkpt>
      <trkpt lat="24.473392" lon="111.152156"><time>2026-08-22T09:01:31.353Z</time></trkpt>
      <trkpt lat="24.473392" lon="111.152156"><time>2026-08-22T09:01:31.370Z</time></trkpt>
      <trkpt lat="24.473394" lon="111.152149"><time>2026-08-22T09:01:31.387Z</time></trkpt>
      <trkpt lat="24.473394" lon="111.152149"><time>2026-08-22T09:01:31.403Z</time></trkpt>
      <trkpt lat="24.473394" lon="111.152149"><time>2026-08-22T09:01:31.420Z</time></trkpt>
      <trkpt lat="24.473394" lon="111.152149"><time>2026-08-22T09:01:31.437Z</time></trkpt>
      <trkpt lat="24.473394" lon="111.152149"><time>2026-08-22T09:01:31.453Z</time></trkpt>
      <trkpt lat="24.473394" lon="111.152149"><time>2026-08-22T09:01:31.470Z</time></trkpt>
      <trkpt lat="24.473395" lon="111.152142"><time>2026-08-22T09:01:31.487Z</time></trkpt>
      <trkpt lat="24.473395" lon="111.152142"><time>2026-08-22T09:01:31.504Z</time></trkpt>
      <trkpt lat="24.473395" lon="111.152142"><time>2026-08-22T09:01:31.520Z</time></trkpt>
      <trkpt lat="24.473395" lon="111.152142"><time>2026-08-22T09:01:31.537Z</time></trkpt>
      <trkpt lat="24.473395" lon="111.152142"><time>2026-08-22T09:01:31.554Z</time></trkpt>
      <trkpt lat="24.473395" lon="111.152142"><time>2026-08-22T09:01:31.570Z</time></trkpt>
      <trkpt lat="24.473396" lon="111.152135"><time>2026-08-22T09:01:31.587Z</time></trkpt>
      <trkpt lat="24.473396" lon="111.152135"><time>2026-08-22T09:01:31.604Z</time></trkpt>
      <trkpt lat="24.473396" lon="111.152135"><time>2026-08-22T09:01:31.620Z</time></trkpt>
      <trkpt lat="24.473396" lon="111.152135"><time>2026-08-22T09:01:31.637Z</time></trkpt>
      <trkpt lat="24.473396" lon="111.152135"><time>2026-08-22T09:01:31.654Z</time></trkpt>
      <trkpt lat="24.473396" lon="111.152135"><time>2026-08-22T09:01:31.670Z</time></trkpt>
      <trkpt lat="24.473397" lon="111.152128"><time>2026-08-22T09:01:31.687Z</time></trkpt>
      <trkpt lat="24.473397" lon="111.152128"><time>2026-08-22T09:01:31.704Z</time></trkpt>
      <trkpt lat="24.473397" lon="111.152128"><time>2026-08-22T09:01:31.720Z</time></trkpt>
      <trkpt lat="24.473397" lon="111.152128"><time>2026-08-22T09:01:31.737Z</time></trkpt>
      <trkpt lat="24.473397" lon="111.152128"><time>2026-08-22T09:01:31.754Z</time></trkpt>
      <trkpt lat="24.473397" lon="111.152128"><time>2026-08-22T09:01:31.770Z</time></trkpt>
      <trkpt lat="24.473397" lon="111.15212"><time>2026-08-22T09:01:31.787Z</time></trkpt>
      <trkpt lat="24.473397" lon="111.15212"><time>2026-08-22T09:01:31.804Z</time></trkpt>
      <trkpt lat="24.473397" lon="111.15212"><time>2026-08-22T09:01:31.821Z</time></trkpt>
      <trkpt lat="24.473397" lon="111.15212"><time>2026-08-22T09:01:31.837Z</time></trkpt>
      <trkpt lat="24.473397" lon="111.15212"><time>2026-08-22T09:01:31.854Z</time></trkpt>
      <trkpt lat="24.473397" lon="111.15212"><time>2026-08-22T09:01:31.871Z</time></trkpt>
      <trkpt lat="24.473397" lon="111.152113"><time>2026-08-22T09:01:31.887Z</time></trkpt>
      <trkpt lat="24.473397" lon="111.152113"><time>2026-08-22T09:01:31.904Z</time></trkpt>
      <trkpt lat="24.473397" lon="111.152113"><time>2026-08-22T09:01:31.921Z</time></trkpt>
      <trkpt lat="24.473397" lon="111.152113"><time>2026-08-22T09:01:31.937Z</time></trkpt>
      <trkpt lat="24.473397" lon="111.152113"><time>2026-08-22T09:01:31.954Z</time></trkpt>
      <trkpt lat="24.473397" lon="111.152113"><time>2026-08-22T09:01:31.971Z</time></trkpt>
      <trkpt lat="24.473396" lon="111.152105"><time>2026-08-22T09:01:31.987Z</time></trkpt>
      <trkpt lat="24.473396" lon="111.152105"><time>2026-08-22T09:01:32.004Z</time></trkpt>
      <trkpt lat="24.473396" lon="111.152105"><time>2026-08-22T09:01:32.021Z</time></trkpt>
      <trkpt lat="24.473396" lon="111.152105"><time>2026-08-22T09:01:32.037Z</time></trkpt>
      <trkpt lat="24.473396" lon="111.152105"><time>2026-08-22T09:01:32.054Z</time></trkpt>
      <trkpt lat="24.473396" lon="111.152105"><time>2026-08-22T09:01:32.071Z</time></trkpt>
      <trkpt lat="24.473396" lon="111.152097"><time>2026-08-22T09:01:32.087Z</time></trkpt>
      <trkpt lat="24.473396" lon="111.152097"><time>2026-08-22T09:01:32.104Z</time></trkpt>
      <trkpt lat="24.473396" lon="111.152097"><time>2026-08-22T09:01:32.121Z</time></trkpt>
      <trkpt lat="24.473396" lon="111.152097"><time>2026-08-22T09:01:32.138Z</time></trkpt>
      <trkpt lat="24.473396" lon="111.152097"><time>2026-08-22T09:01:32.154Z</time></trkpt>
      <trkpt lat="24.473396" lon="111.152097"><time>2026-08-22T09:01:32.171Z</time></trkpt>
      <trkpt lat="24.473394" lon="111.152089"><time>2026-08-22T09:01:32.188Z</time></trkpt>
      <trkpt lat="24.473394" lon="111.152089"><time>2026-08-22T09:01:32.204Z</time></trkpt>
      <trkpt lat="24.473394" lon="111.152089"><time>2026-08-22T09:01:32.221Z</time></trkpt>
      <trkpt lat="24.473394" lon="111.152089"><time>2026-08-22T09:01:32.238Z</time></trkpt>
      <trkpt lat="24.473394" lon="111.152089"><time>2026-08-22T09:01:32.254Z</time></trkpt>
      <trkpt lat="24.473394" lon="111.152089"><time>2026-08-22T09:01:32.271Z</time></trkpt>
      <trkpt lat="24.473393" lon="111.15208"><time>2026-08-22T09:01:32.288Z</time></trkpt>
      <trkpt lat="24.473393" lon="111.15208"><time>2026-08-22T09:01:32.304Z</time></trkpt>
      <trkpt lat="24.473393" lon="111.15208"><time>2026-08-22T09:01:32.321Z</time></trkpt>
      <trkpt lat="24.473393" lon="111.15208"><time>2026-08-22T09:01:32.338Z</time></trkpt>
      <trkpt lat="24.473393" lon="111.15208"><time>2026-08-22T09:01:32.354Z</time></trkpt>
      <trkpt lat="24.473393" lon="111.15208"><time>2026-08-22T09:01:32.371Z</time></trkpt>
      <trkpt lat="24.473391" lon="111.152072"><time>2026-08-22T09:01:32.388Z</time></trkpt>
      <trkpt lat="24.473391" lon="111.152072"><time>2026-08-22T09:01:32.404Z</time></trkpt>
      <trkpt lat="24.473391" lon="111.152072"><time>2026-08-22T09:01:32.421Z</time></trkpt>
      <trkpt lat="24.473391" lon="111.152072"><time>2026-08-22T09:01:32.438Z</time></trkpt>
      <trkpt lat="24.473391" lon="111.152072"><time>2026-08-22T09:01:32.455Z</time></trkpt>
      <trkpt lat="24.473391" lon="111.152072"><time>2026-08-22T09:01:32.471Z</time></trkpt>
      <trkpt lat="24.473389" lon="111.152063"><time>2026-08-22T09:01:32.488Z</time></trkpt>
      <trkpt lat="24.473389" lon="111.152063"><time>2026-08-22T09:01:32.505Z</time></trkpt>
      <trkpt lat="24.473389" lon="111.152063"><time>2026-08-22T09:01:32.521Z</time></trkpt>
      <trkpt lat="24.473389" lon="111.152063"><time>2026-08-22T09:01:32.538Z</time></trkpt>
      <trkpt lat="24.473389" lon="111.152063"><time>2026-08-22T09:01:32.555Z</time></trkpt>
      <trkpt lat="24.473389" lon="111.152063"><time>2026-08-22T09:01:32.571Z</time></trkpt>
      <trkpt lat="24.473387" lon="111.152053"><time>2026-08-22T09:01:32.588Z</time></trkpt>
      <trkpt lat="24.473387" lon="111.152053"><time>2026-08-22T09:01:32.605Z</time></trkpt>
      <trkpt lat="24.473387" lon="111.152053"><time>2026-08-22T09:01:32.621Z</time></trkpt>
      <trkpt lat="24.473387" lon="111.152053"><time>2026-08-22T09:01:32.638Z</time></trkpt>
      <trkpt lat="24.473387" lon="111.152053"><time>2026-08-22T09:01:32.655Z</time></trkpt>
      <trkpt lat="24.473387" lon="111.152053"><time>2026-08-22T09:01:32.671Z</time></trkpt>
      <trkpt lat="24.473385" lon="111.152044"><time>2026-08-22T09:01:32.688Z</time></trkpt>
      <trkpt lat="24.473385" lon="111.152044"><time>2026-08-22T09:01:32.705Z</time></trkpt>
      <trkpt lat="24.473385" lon="111.152044"><time>2026-08-22T09:01:32.721Z</time></trkpt>
      <trkpt lat="24.473385" lon="111.152044"><time>2026-08-22T09:01:32.738Z</time></trkpt>
      <trkpt lat="24.473385" lon="111.152044"><time>2026-08-22T09:01:32.755Z</time></trkpt>
      <trkpt lat="24.473385" lon="111.152044"><time>2026-08-22T09:01:32.772Z</time></trkpt>
      <trkpt lat="24.473382" lon="111.152034"><time>2026-08-22T09:01:32.788Z</time></trkpt>
      <trkpt lat="24.473382" lon="111.152034"><time>2026-08-22T09:01:32.805Z</time></trkpt>
      <trkpt lat="24.473382" lon="111.152034"><time>2026-08-22T09:01:32.822Z</time></trkpt>
      <trkpt lat="24.473382" lon="111.152034"><time>2026-08-22T09:01:32.838Z</time></trkpt>
      <trkpt lat="24.473382" lon="111.152034"><time>2026-08-22T09:01:32.855Z</time></trkpt>
      <trkpt lat="24.473382" lon="111.152034"><time>2026-08-22T09:01:32.872Z</time></trkpt>
      <trkpt lat="24.473379" lon="111.152024"><time>2026-08-22T09:01:32.888Z</time></trkpt>
      <trkpt lat="24.473379" lon="111.152024"><time>2026-08-22T09:01:32.905Z</time></trkpt>
      <trkpt lat="24.473379" lon="111.152024"><time>2026-08-22T09:01:32.922Z</time></trkpt>
      <trkpt lat="24.473379" lon="111.152024"><time>2026-08-22T09:01:32.938Z</time></trkpt>
      <trkpt lat="24.473379" lon="111.152024"><time>2026-08-22T09:01:32.955Z</time></trkpt>
      <trkpt lat="24.473379" lon="111.152024"><time>2026-08-22T09:01:32.972Z</time></trkpt>
      <trkpt lat="24.473376" lon="111.152013"><time>2026-08-22T09:01:32.988Z</time></trkpt>
      <trkpt lat="24.473376" lon="111.152013"><time>2026-08-22T09:01:33.005Z</time></trkpt>
      <trkpt lat="24.473376" lon="111.152013"><time>2026-08-22T09:01:33.022Z</time></trkpt>
      <trkpt lat="24.473376" lon="111.152013"><time>2026-08-22T09:01:33.038Z</time></trkpt>
      <trkpt lat="24.473376" lon="111.152013"><time>2026-08-22T09:01:33.055Z</time></trkpt>
      <trkpt lat="24.473376" lon="111.152013"><time>2026-08-22T09:01:33.072Z</time></trkpt>
      <trkpt lat="24.473373" lon="111.152002"><time>2026-08-22T09:01:33.089Z</time></trkpt>
      <trkpt lat="24.473373" lon="111.152002"><time>2026-08-22T09:01:33.105Z</time></trkpt>
      <trkpt lat="24.473373" lon="111.152002"><time>2026-08-22T09:01:33.122Z</time></trkpt>
      <trkpt lat="24.473373" lon="111.152002"><time>2026-08-22T09:01:33.139Z</time></trkpt>
      <trkpt lat="24.473373" lon="111.152002"><time>2026-08-22T09:01:33.155Z</time></trkpt>
      <trkpt lat="24.473373" lon="111.152002"><time>2026-08-22T09:01:33.172Z</time></trkpt>
      <trkpt lat="24.473369" lon="111.151991"><time>2026-08-22T09:01:33.189Z</time></trkpt>
      <trkpt lat="24.473369" lon="111.151991"><time>2026-08-22T09:01:33.205Z</time></trkpt>
      <trkpt lat="24.473369" lon="111.151991"><time>2026-08-22T09:01:33.222Z</time></trkpt>
      <trkpt lat="24.473369" lon="111.151991"><time>2026-08-22T09:01:33.239Z</time></trkpt>
      <trkpt lat="24.473369" lon="111.151991"><time>2026-08-22T09:01:33.255Z</time></trkpt>
      <trkpt lat="24.473369" lon="111.151991"><time>2026-08-22T09:01:33.272Z</time></trkpt>
      <trkpt lat="24.473365" lon="111.15198"><time>2026-08-22T09:01:33.289Z</time></trkpt>
      <trkpt lat="24.473365" lon="111.15198"><time>2026-08-22T09:01:33.305Z</time></trkpt>
      <trkpt lat="24.473365" lon="111.15198"><time>2026-08-22T09:01:33.322Z</time></trkpt>
      <trkpt lat="24.473365" lon="111.15198"><time>2026-08-22T09:01:33.339Z</time></trkpt>
      <trkpt lat="24.473365" lon="111.15198"><time>2026-08-22T09:01:33.355Z</time></trkpt>
      <trkpt lat="24.473365" lon="111.15198"><time>2026-08-22T09:01:33.372Z</time></trkpt>
      <trkpt lat="24.473362" lon="111.151969"><time>2026-08-22T09:01:33.389Z</time></trkpt>
      <trkpt lat="24.473362" lon="111.151969"><time>2026-08-22T09:01:33.406Z</time></trkpt>
      <trkpt lat="24.473362" lon="111.151969"><time>2026-08-22T09:01:33.422Z</time></trkpt>
      <trkpt lat="24.473362" lon="111.151969"><time>2026-08-22T09:01:33.439Z</time></trkpt>
      <trkpt lat="24.473362" lon="111.151969"><time>2026-08-22T09:01:33.456Z</time></trkpt>
      <trkpt lat="24.473362" lon="111.151969"><time>2026-08-22T09:01:33.472Z</time></trkpt>
      <trkpt lat="24.473358" lon="111.151957"><time>2026-08-22T09:01:33.489Z</time></trkpt>
      <trkpt lat="24.473358" lon="111.151957"><time>2026-08-22T09:01:33.506Z</time></trkpt>
      <trkpt lat="24.473358" lon="111.151957"><time>2026-08-22T09:01:33.522Z</time></trkpt>
      <trkpt lat="24.473358" lon="111.151957"><time>2026-08-22T09:01:33.539Z</time></trkpt>
      <trkpt lat="24.473358" lon="111.151957"><time>2026-08-22T09:01:33.556Z</time></trkpt>
      <trkpt lat="24.473358" lon="111.151957"><time>2026-08-22T09:01:33.572Z</time></trkpt>
      <trkpt lat="24.473354" lon="111.151945"><time>2026-08-22T09:01:33.589Z</time></trkpt>
      <trkpt lat="24.473354" lon="111.151945"><time>2026-08-22T09:01:33.606Z</time></trkpt>
      <trkpt lat="24.473354" lon="111.151945"><time>2026-08-22T09:01:33.622Z</time></trkpt>
      <trkpt lat="24.473354" lon="111.151945"><time>2026-08-22T09:01:33.639Z</time></trkpt>
      <trkpt lat="24.473354" lon="111.151945"><time>2026-08-22T09:01:33.656Z</time></trkpt>
      <trkpt lat="24.473354" lon="111.151945"><time>2026-08-22T09:01:33.672Z</time></trkpt>
      <trkpt lat="24.47335" lon="111.151933"><time>2026-08-22T09:01:33.689Z</time></trkpt>
      <trkpt lat="24.47335" lon="111.151933"><time>2026-08-22T09:01:33.706Z</time></trkpt>
      <trkpt lat="24.47335" lon="111.151933"><time>2026-08-22T09:01:33.723Z</time></trkpt>
      <trkpt lat="24.47335" lon="111.151933"><time>2026-08-22T09:01:33.739Z</time></trkpt>
      <trkpt lat="24.47335" lon="111.151933"><time>2026-08-22T09:01:33.756Z</time></trkpt>
      <trkpt lat="24.47335" lon="111.151933"><time>2026-08-22T09:01:33.773Z</time></trkpt>
      <trkpt lat="24.473346" lon="111.151921"><time>2026-08-22T09:01:33.789Z</time></trkpt>
      <trkpt lat="24.473346" lon="111.151921"><time>2026-08-22T09:01:33.806Z</time></trkpt>
      <trkpt lat="24.473346" lon="111.151921"><time>2026-08-22T09:01:33.823Z</time></trkpt>
      <trkpt lat="24.473346" lon="111.151921"><time>2026-08-22T09:01:33.839Z</time></trkpt>
      <trkpt lat="24.473346" lon="111.151921"><time>2026-08-22T09:01:33.856Z</time></trkpt>
      <trkpt lat="24.473346" lon="111.151921"><time>2026-08-22T09:01:33.873Z</time></trkpt>
      <trkpt lat="24.473341" lon="111.151907"><time>2026-08-22T09:01:33.889Z</time></trkpt>
      <trkpt lat="24.473341" lon="111.151907"><time>2026-08-22T09:01:33.906Z</time></trkpt>
      <trkpt lat="24.473341" lon="111.151907"><time>2026-08-22T09:01:33.923Z</time></trkpt>
      <trkpt lat="24.473341" lon="111.151907"><time>2026-08-22T09:01:33.939Z</time></trkpt>
      <trkpt lat="24.473341" lon="111.151907"><time>2026-08-22T09:01:33.956Z</time></trkpt>
      <trkpt lat="24.473341" lon="111.151907"><time>2026-08-22T09:01:33.973Z</time></trkpt>
      <trkpt lat="24.473337" lon="111.151895"><time>2026-08-22T09:01:33.989Z</time></trkpt>
      <trkpt lat="24.473337" lon="111.151895"><time>2026-08-22T09:01:34.006Z</time></trkpt>
      <trkpt lat="24.473337" lon="111.151895"><time>2026-08-22T09:01:34.023Z</time></trkpt>
      <trkpt lat="24.473337" lon="111.151895"><time>2026-08-22T09:01:34.040Z</time></trkpt>
      <trkpt lat="24.473337" lon="111.151895"><time>2026-08-22T09:01:34.056Z</time></trkpt>
      <trkpt lat="24.473337" lon="111.151895"><time>2026-08-22T09:01:34.073Z</time></trkpt>
      <trkpt lat="24.473332" lon="111.151882"><time>2026-08-22T09:01:34.090Z</time></trkpt>
      <trkpt lat="24.473332" lon="111.151882"><time>2026-08-22T09:01:34.106Z</time></trkpt>
      <trkpt lat="24.473332" lon="111.151882"><time>2026-08-22T09:01:34.123Z</time></trkpt>
      <trkpt lat="24.473332" lon="111.151882"><time>2026-08-22T09:01:34.140Z</time></trkpt>
      <trkpt lat="24.473332" lon="111.151882"><time>2026-08-22T09:01:34.156Z</time></trkpt>
      <trkpt lat="24.473332" lon="111.151882"><time>2026-08-22T09:01:34.173Z</time></trkpt>
      <trkpt lat="24.473327" lon="111.151868"><time>2026-08-22T09:01:34.190Z</time></trkpt>
      <trkpt lat="24.473327" lon="111.151868"><time>2026-08-22T09:01:34.206Z</time></trkpt>
      <trkpt lat="24.473327" lon="111.151868"><time>2026-08-22T09:01:34.223Z</time></trkpt>
      <trkpt lat="24.473327" lon="111.151868"><time>2026-08-22T09:01:34.240Z</time></trkpt>
      <trkpt lat="24.473327" lon="111.151868"><time>2026-08-22T09:01:34.256Z</time></trkpt>
      <trkpt lat="24.473327" lon="111.151868"><time>2026-08-22T09:01:34.273Z</time></trkpt>
      <trkpt lat="24.473322" lon="111.151856"><time>2026-08-22T09:01:34.290Z</time></trkpt>
      <trkpt lat="24.473322" lon="111.151856"><time>2026-08-22T09:01:34.306Z</time></trkpt>
      <trkpt lat="24.473322" lon="111.151856"><time>2026-08-22T09:01:34.323Z</time></trkpt>
      <trkpt lat="24.473322" lon="111.151856"><time>2026-08-22T09:01:34.340Z</time></trkpt>
      <trkpt lat="24.473322" lon="111.151856"><time>2026-08-22T09:01:34.357Z</time></trkpt>
      <trkpt lat="24.473322" lon="111.151856"><time>2026-08-22T09:01:34.373Z</time></trkpt>
      <trkpt lat="24.473317" lon="111.151842"><time>2026-08-22T09:01:34.390Z</time></trkpt>
      <trkpt lat="24.473317" lon="111.151842"><time>2026-08-22T09:01:34.407Z</time></trkpt>
      <trkpt lat="24.473317" lon="111.151842"><time>2026-08-22T09:01:34.423Z</time></trkpt>
      <trkpt lat="24.473317" lon="111.151842"><time>2026-08-22T09:01:34.440Z</time></trkpt>
      <trkpt lat="24.473317" lon="111.151842"><time>2026-08-22T09:01:34.457Z</time></trkpt>
      <trkpt lat="24.473317" lon="111.151842"><time>2026-08-22T09:01:34.473Z</time></trkpt>
      <trkpt lat="24.473311" lon="111.151829"><time>2026-08-22T09:01:34.490Z</time></trkpt>
      <trkpt lat="24.473311" lon="111.151829"><time>2026-08-22T09:01:34.507Z</time></trkpt>
      <trkpt lat="24.473311" lon="111.151829"><time>2026-08-22T09:01:34.523Z</time></trkpt>
      <trkpt lat="24.473311" lon="111.151829"><time>2026-08-22T09:01:34.540Z</time></trkpt>
      <trkpt lat="24.473311" lon="111.151829"><time>2026-08-22T09:01:34.557Z</time></trkpt>
      <trkpt lat="24.473311" lon="111.151829"><time>2026-08-22T09:01:34.573Z</time></trkpt>
      <trkpt lat="24.473306" lon="111.151815"><time>2026-08-22T09:01:34.590Z</time></trkpt>
      <trkpt lat="24.473306" lon="111.151815"><time>2026-08-22T09:01:34.607Z</time></trkpt>
      <trkpt lat="24.473306" lon="111.151815"><time>2026-08-22T09:01:34.623Z</time></trkpt>
      <trkpt lat="24.473306" lon="111.151815"><time>2026-08-22T09:01:34.640Z</time></trkpt>
      <trkpt lat="24.473306" lon="111.151815"><time>2026-08-22T09:01:34.657Z</time></trkpt>
      <trkpt lat="24.473306" lon="111.151815"><time>2026-08-22T09:01:34.674Z</time></trkpt>
      <trkpt lat="24.473301" lon="111.151802"><time>2026-08-22T09:01:34.690Z</time></trkpt>
      <trkpt lat="24.473301" lon="111.151802"><time>2026-08-22T09:01:34.707Z</time></trkpt>
      <trkpt lat="24.473301" lon="111.151802"><time>2026-08-22T09:01:34.724Z</time></trkpt>
      <trkpt lat="24.473301" lon="111.151802"><time>2026-08-22T09:01:34.740Z</time></trkpt>
      <trkpt lat="24.473301" lon="111.151802"><time>2026-08-22T09:01:34.757Z</time></trkpt>
      <trkpt lat="24.473301" lon="111.151802"><time>2026-08-22T09:01:34.774Z</time></trkpt>
      <trkpt lat="24.473295" lon="111.151788"><time>2026-08-22T09:01:34.790Z</time></trkpt>
      <trkpt lat="24.473295" lon="111.151788"><time>2026-08-22T09:01:34.807Z</time></trkpt>
      <trkpt lat="24.473295" lon="111.151788"><time>2026-08-22T09:01:34.824Z</time></trkpt>
      <trkpt lat="24.473295" lon="111.151788"><time>2026-08-22T09:01:34.840Z</time></trkpt>
      <trkpt lat="24.473295" lon="111.151788"><time>2026-08-22T09:01:34.857Z</time></trkpt>
      <trkpt lat="24.473295" lon="111.151788"><time>2026-08-22T09:01:34.874Z</time></trkpt>
      <trkpt lat="24.47329" lon="111.151774"><time>2026-08-22T09:01:34.890Z</time></trkpt>
      <trkpt lat="24.47329" lon="111.151774"><time>2026-08-22T09:01:34.907Z</time></trkpt>
      <trkpt lat="24.47329" lon="111.151774"><time>2026-08-22T09:01:34.924Z</time></trkpt>
      <trkpt lat="24.47329" lon="111.151774"><time>2026-08-22T09:01:34.940Z</time></trkpt>
      <trkpt lat="24.47329" lon="111.151774"><time>2026-08-22T09:01:34.957Z</time></trkpt>
      <trkpt lat="24.47329" lon="111.151774"><time>2026-08-22T09:01:34.974Z</time></trkpt>
      <trkpt lat="24.473284" lon="111.151761"><time>2026-08-22T09:01:34.991Z</time></trkpt>
      <trkpt lat="24.473284" lon="111.151761"><time>2026-08-22T09:01:35.007Z</time></trkpt>
      <trkpt lat="24.473284" lon="111.151761"><time>2026-08-22T09:01:35.024Z</time></trkpt>
      <trkpt lat="24.473284" lon="111.151761"><time>2026-08-22T09:01:35.041Z</time></trkpt>
      <trkpt lat="24.473284" lon="111.151761"><time>2026-08-22T09:01:35.057Z</time></trkpt>
      <trkpt lat="24.473284" lon="111.151761"><time>2026-08-22T09:01:35.074Z</time></trkpt>
      <trkpt lat="24.473278" lon="111.151747"><time>2026-08-22T09:01:35.091Z</time></trkpt>
      <trkpt lat="24.473278" lon="111.151747"><time>2026-08-22T09:01:35.107Z</time></trkpt>
      <trkpt lat="24.473278" lon="111.151747"><time>2026-08-22T09:01:35.124Z</time></trkpt>
      <trkpt lat="24.473278" lon="111.151747"><time>2026-08-22T09:01:35.141Z</time></trkpt>
      <trkpt lat="24.473278" lon="111.151747"><time>2026-08-22T09:01:35.157Z</time></trkpt>
      <trkpt lat="24.473278" lon="111.151747"><time>2026-08-22T09:01:35.174Z</time></trkpt>
      <trkpt lat="24.473272" lon="111.151733"><time>2026-08-22T09:01:35.191Z</time></trkpt>
      <trkpt lat="24.473272" lon="111.151733"><time>2026-08-22T09:01:35.207Z</time></trkpt>
      <trkpt lat="24.473272" lon="111.151733"><time>2026-08-22T09:01:35.224Z</time></trkpt>
      <trkpt lat="24.473272" lon="111.151733"><time>2026-08-22T09:01:35.241Z</time></trkpt>
      <trkpt lat="24.473272" lon="111.151733"><time>2026-08-22T09:01:35.257Z</time></trkpt>
      <trkpt lat="24.473272" lon="111.151733"><time>2026-08-22T09:01:35.274Z</time></trkpt>
      <trkpt lat="24.473266" lon="111.151719"><time>2026-08-22T09:01:35.291Z</time></trkpt>
      <trkpt lat="24.473266" lon="111.151719"><time>2026-08-22T09:01:35.307Z</time></trkpt>
      <trkpt lat="24.473266" lon="111.151719"><time>2026-08-22T09:01:35.324Z</time></trkpt>
      <trkpt lat="24.473266" lon="111.151719"><time>2026-08-22T09:01:35.341Z</time></trkpt>
      <trkpt lat="24.473266" lon="111.151719"><time>2026-08-22T09:01:35.358Z</time></trkpt>
      <trkpt lat="24.473266" lon="111.151719"><time>2026-08-22T09:01:35.374Z</time></trkpt>
      <trkpt lat="24.47326" lon="111.151705"><time>2026-08-22T09:01:35.391Z</time></trkpt>
      <trkpt lat="24.47326" lon="111.151705"><time>2026-08-22T09:01:35.408Z</time></trkpt>
      <trkpt lat="24.47326" lon="111.151705"><time>2026-08-22T09:01:35.424Z</time></trkpt>
      <trkpt lat="24.47326" lon="111.151705"><time>2026-08-22T09:01:35.441Z</time></trkpt>
      <trkpt lat="24.47326" lon="111.151705"><time>2026-08-22T09:01:35.458Z</time></trkpt>
      <trkpt lat="24.473254" lon="111.151691"><time>2026-08-22T09:01:35.474Z</time></trkpt>
      <trkpt lat="24.473254" lon="111.151691"><time>2026-08-22T09:01:35.491Z</time></trkpt>
      <trkpt lat="24.473254" lon="111.151691"><time>2026-08-22T09:01:35.508Z</time></trkpt>
      <trkpt lat="24.473254" lon="111.151691"><time>2026-08-22T09:01:35.524Z</time></trkpt>
      <trkpt lat="24.473254" lon="111.151691"><time>2026-08-22T09:01:35.541Z</time></trkpt>
      <trkpt lat="24.473254" lon="111.151691"><time>2026-08-22T09:01:35.558Z</time></trkpt>
      <trkpt lat="24.473248" lon="111.151677"><time>2026-08-22T09:01:35.574Z</time></trkpt>
      <trkpt lat="24.473248" lon="111.151677"><time>2026-08-22T09:01:35.591Z</time></trkpt>
      <trkpt lat="24.473248" lon="111.151677"><time>2026-08-22T09:01:35.608Z</time></trkpt>
      <trkpt lat="24.473248" lon="111.151677"><time>2026-08-22T09:01:35.624Z</time></trkpt>
      <trkpt lat="24.473248" lon="111.151677"><time>2026-08-22T09:01:35.641Z</time></trkpt>
      <trkpt lat="24.473248" lon="111.151677"><time>2026-08-22T09:01:35.658Z</time></trkpt>
      <trkpt lat="24.473242" lon="111.151663"><time>2026-08-22T09:01:35.675Z</time></trkpt>
      <trkpt lat="24.473242" lon="111.151663"><time>2026-08-22T09:01:35.691Z</time></trkpt>
      <trkpt lat="24.473242" lon="111.151663"><time>2026-08-22T09:01:35.708Z</time></trkpt>
      <trkpt lat="24.473242" lon="111.151663"><time>2026-08-22T09:01:35.725Z</time></trkpt>
      <trkpt lat="24.473242" lon="111.151663"><time>2026-08-22T09:01:35.741Z</time></trkpt>
      <trkpt lat="24.473242" lon="111.151663"><time>2026-08-22T09:01:35.758Z</time></trkpt>
      <trkpt lat="24.473235" lon="111.151649"><time>2026-08-22T09:01:35.775Z</time></trkpt>
      <trkpt lat="24.473235" lon="111.151649"><time>2026-08-22T09:01:35.791Z</time></trkpt>
      <trkpt lat="24.473235" lon="111.151649"><time>2026-08-22T09:01:35.808Z</time></trkpt>
      <trkpt lat="24.473235" lon="111.151649"><time>2026-08-22T09:01:35.825Z</time></trkpt>
      <trkpt lat="24.473235" lon="111.151649"><time>2026-08-22T09:01:35.841Z</time></trkpt>
      <trkpt lat="24.473235" lon="111.151649"><time>2026-08-22T09:01:35.858Z</time></trkpt>
      <trkpt lat="24.473229" lon="111.151635"><time>2026-08-22T09:01:35.875Z</time></trkpt>
      <trkpt lat="24.473229" lon="111.151635"><time>2026-08-22T09:01:35.891Z</time></trkpt>
      <trkpt lat="24.473229" lon="111.151635"><time>2026-08-22T09:01:35.908Z</time></trkpt>
      <trkpt lat="24.473229" lon="111.151635"><time>2026-08-22T09:01:35.925Z</time></trkpt>
      <trkpt lat="24.473229" lon="111.151635"><time>2026-08-22T09:01:35.941Z</time></trkpt>
      <trkpt lat="24.473229" lon="111.151635"><time>2026-08-22T09:01:35.958Z</time></trkpt>
      <trkpt lat="24.473222" lon="111.151621"><time>2026-08-22T09:01:35.975Z</time></trkpt>
      <trkpt lat="24.473222" lon="111.151621"><time>2026-08-22T09:01:35.992Z</time></trkpt>
      <trkpt lat="24.473222" lon="111.151621"><time>2026-08-22T09:01:36.008Z</time></trkpt>
      <trkpt lat="24.473222" lon="111.151621"><time>2026-08-22T09:01:36.025Z</time></trkpt>
      <trkpt lat="24.473222" lon="111.151621"><time>2026-08-22T09:01:36.042Z</time></trkpt>
      <trkpt lat="24.473222" lon="111.151621"><time>2026-08-22T09:01:36.058Z</time></trkpt>
      <trkpt lat="24.473216" lon="111.151607"><time>2026-08-22T09:01:36.075Z</time></trkpt>
      <trkpt lat="24.473216" lon="111.151607"><time>2026-08-22T09:01:36.092Z</time></trkpt>
      <trkpt lat="24.473216" lon="111.151607"><time>2026-08-22T09:01:36.108Z</time></trkpt>
      <trkpt lat="24.473216" lon="111.151607"><time>2026-08-22T09:01:36.125Z</time></trkpt>
      <trkpt lat="24.473216" lon="111.151607"><time>2026-08-22T09:01:36.142Z</time></trkpt>
      <trkpt lat="24.473216" lon="111.151607"><time>2026-08-22T09:01:36.158Z</time></trkpt>
      <trkpt lat="24.473209" lon="111.151593"><time>2026-08-22T09:01:36.175Z</time></trkpt>
      <trkpt lat="24.473209" lon="111.151593"><time>2026-08-22T09:01:36.192Z</time></trkpt>
      <trkpt lat="24.473209" lon="111.151593"><time>2026-08-22T09:01:36.208Z</time></trkpt>
      <trkpt lat="24.473209" lon="111.151593"><time>2026-08-22T09:01:36.225Z</time></trkpt>
      <trkpt lat="24.473209" lon="111.151593"><time>2026-08-22T09:01:36.242Z</time></trkpt>
      <trkpt lat="24.473209" lon="111.151593"><time>2026-08-22T09:01:36.258Z</time></trkpt>
      <trkpt lat="24.473202" lon="111.151579"><time>2026-08-22T09:01:36.275Z</time></trkpt>
      <trkpt lat="24.473202" lon="111.151579"><time>2026-08-22T09:01:36.292Z</time></trkpt>
      <trkpt lat="24.473202" lon="111.151579"><time>2026-08-22T09:01:36.309Z</time></trkpt>
      <trkpt lat="24.473202" lon="111.151579"><time>2026-08-22T09:01:36.325Z</time></trkpt>
      <trkpt lat="24.473202" lon="111.151579"><time>2026-08-22T09:01:36.342Z</time></trkpt>
      <trkpt lat="24.473202" lon="111.151579"><time>2026-08-22T09:01:36.359Z</time></trkpt>
      <trkpt lat="24.473196" lon="111.151566"><time>2026-08-22T09:01:36.375Z</time></trkpt>
      <trkpt lat="24.473196" lon="111.151566"><time>2026-08-22T09:01:36.392Z</time></trkpt>
      <trkpt lat="24.473196" lon="111.151566"><time>2026-08-22T09:01:36.409Z</time></trkpt>
      <trkpt lat="24.473196" lon="111.151566"><time>2026-08-22T09:01:36.425Z</time></trkpt>
      <trkpt lat="24.473196" lon="111.151566"><time>2026-08-22T09:01:36.442Z</time></trkpt>
      <trkpt lat="24.473196" lon="111.151566"><time>2026-08-22T09:01:36.459Z</time></trkpt>
      <trkpt lat="24.473189" lon="111.151553"><time>2026-08-22T09:01:36.475Z</time></trkpt>
      <trkpt lat="24.473189" lon="111.151553"><time>2026-08-22T09:01:36.492Z</time></trkpt>
      <trkpt lat="24.473189" lon="111.151553"><time>2026-08-22T09:01:36.509Z</time></trkpt>
      <trkpt lat="24.473189" lon="111.151553"><time>2026-08-22T09:01:36.525Z</time></trkpt>
      <trkpt lat="24.473189" lon="111.151553"><time>2026-08-22T09:01:36.542Z</time></trkpt>
      <trkpt lat="24.473189" lon="111.151553"><time>2026-08-22T09:01:36.559Z</time></trkpt>
      <trkpt lat="24.473182" lon="111.151538"><time>2026-08-22T09:01:36.575Z</time></trkpt>
      <trkpt lat="24.473182" lon="111.151538"><time>2026-08-22T09:01:36.592Z</time></trkpt>
      <trkpt lat="24.473182" lon="111.151538"><time>2026-08-22T09:01:36.609Z</time></trkpt>
      <trkpt lat="24.473182" lon="111.151538"><time>2026-08-22T09:01:36.626Z</time></trkpt>
      <trkpt lat="24.473182" lon="111.151538"><time>2026-08-22T09:01:36.642Z</time></trkpt>
      <trkpt lat="24.473182" lon="111.151538"><time>2026-08-22T09:01:36.659Z</time></trkpt>
      <trkpt lat="24.473175" lon="111.151524"><time>2026-08-22T09:01:36.676Z</time></trkpt>
      <trkpt lat="24.473175" lon="111.151524"><time>2026-08-22T09:01:36.692Z</time></trkpt>
      <trkpt lat="24.473175" lon="111.151524"><time>2026-08-22T09:01:36.709Z</time></trkpt>
      <trkpt lat="24.473175" lon="111.151524"><time>2026-08-22T09:01:36.726Z</time></trkpt>
      <trkpt lat="24.473175" lon="111.151524"><time>2026-08-22T09:01:36.742Z</time></trkpt>
      <trkpt lat="24.473175" lon="111.151524"><time>2026-08-22T09:01:36.759Z</time></trkpt>
      <trkpt lat="24.473168" lon="111.15151"><time>2026-08-22T09:01:36.776Z</time></trkpt>
      <trkpt lat="24.473168" lon="111.15151"><time>2026-08-22T09:01:36.792Z</time></trkpt>
      <trkpt lat="24.473168" lon="111.15151"><time>2026-08-22T09:01:36.809Z</time></trkpt>
      <trkpt lat="24.473168" lon="111.15151"><time>2026-08-22T09:01:36.826Z</time></trkpt>
      <trkpt lat="24.473168" lon="111.15151"><time>2026-08-22T09:01:36.842Z</time></trkpt>
      <trkpt lat="24.473168" lon="111.15151"><time>2026-08-22T09:01:36.859Z</time></trkpt>
      <trkpt lat="24.473161" lon="111.151496"><time>2026-08-22T09:01:36.876Z</time></trkpt>
      <trkpt lat="24.473161" lon="111.151496"><time>2026-08-22T09:01:36.892Z</time></trkpt>
      <trkpt lat="24.473161" lon="111.151496"><time>2026-08-22T09:01:36.909Z</time></trkpt>
      <trkpt lat="24.473161" lon="111.151496"><time>2026-08-22T09:01:36.926Z</time></trkpt>
      <trkpt lat="24.473161" lon="111.151496"><time>2026-08-22T09:01:36.943Z</time></trkpt>
      <trkpt lat="24.473161" lon="111.151496"><time>2026-08-22T09:01:36.959Z</time></trkpt>
      <trkpt lat="24.473154" lon="111.151483"><time>2026-08-22T09:01:36.976Z</time></trkpt>
      <trkpt lat="24.473154" lon="111.151483"><time>2026-08-22T09:01:36.993Z</time></trkpt>
      <trkpt lat="24.473154" lon="111.151483"><time>2026-08-22T09:01:37.009Z</time></trkpt>
      <trkpt lat="24.473154" lon="111.151483"><time>2026-08-22T09:01:37.026Z</time></trkpt>
      <trkpt lat="24.473154" lon="111.151483"><time>2026-08-22T09:01:37.043Z</time></trkpt>
      <trkpt lat="24.473154" lon="111.151483"><time>2026-08-22T09:01:37.059Z</time></trkpt>
      <trkpt lat="24.473147" lon="111.151469"><time>2026-08-22T09:01:37.076Z</time></trkpt>
      <trkpt lat="24.473147" lon="111.151469"><time>2026-08-22T09:01:37.093Z</time></trkpt>
      <trkpt lat="24.473147" lon="111.151469"><time>2026-08-22T09:01:37.109Z</time></trkpt>
      <trkpt lat="24.473147" lon="111.151469"><time>2026-08-22T09:01:37.126Z</time></trkpt>
      <trkpt lat="24.473147" lon="111.151469"><time>2026-08-22T09:01:37.143Z</time></trkpt>
      <trkpt lat="24.473147" lon="111.151469"><time>2026-08-22T09:01:37.159Z</time></trkpt>
      <trkpt lat="24.47314" lon="111.151455"><time>2026-08-22T09:01:37.176Z</time></trkpt>
      <trkpt lat="24.47314" lon="111.151455"><time>2026-08-22T09:01:37.193Z</time></trkpt>
      <trkpt lat="24.47314" lon="111.151455"><time>2026-08-22T09:01:37.209Z</time></trkpt>
      <trkpt lat="24.47314" lon="111.151455"><time>2026-08-22T09:01:37.226Z</time></trkpt>
      <trkpt lat="24.47314" lon="111.151455"><time>2026-08-22T09:01:37.243Z</time></trkpt>
      <trkpt lat="24.47314" lon="111.151455"><time>2026-08-22T09:01:37.260Z</time></trkpt>
      <trkpt lat="24.473133" lon="111.151441"><time>2026-08-22T09:01:37.276Z</time></trkpt>
      <trkpt lat="24.473133" lon="111.151441"><time>2026-08-22T09:01:37.293Z</time></trkpt>
      <trkpt lat="24.473133" lon="111.151441"><time>2026-08-22T09:01:37.310Z</time></trkpt>
      <trkpt lat="24.473133" lon="111.151441"><time>2026-08-22T09:01:37.326Z</time></trkpt>
      <trkpt lat="24.473133" lon="111.151441"><time>2026-08-22T09:01:37.343Z</time></trkpt>
      <trkpt lat="24.473133" lon="111.151441"><time>2026-08-22T09:01:37.360Z</time></trkpt>
      <trkpt lat="24.473125" lon="111.151427"><time>2026-08-22T09:01:37.376Z</time></trkpt>
      <trkpt lat="24.473125" lon="111.151427"><time>2026-08-22T09:01:37.393Z</time></trkpt>
      <trkpt lat="24.473125" lon="111.151427"><time>2026-08-22T09:01:37.410Z</time></trkpt>
      <trkpt lat="24.473125" lon="111.151427"><time>2026-08-22T09:01:37.426Z</time></trkpt>
      <trkpt lat="24.473125" lon="111.151427"><time>2026-08-22T09:01:37.443Z</time></trkpt>
      <trkpt lat="24.473125" lon="111.151427"><time>2026-08-22T09:01:37.460Z</time></trkpt>
      <trkpt lat="24.473118" lon="111.151413"><time>2026-08-22T09:01:37.476Z</time></trkpt>
      <trkpt lat="24.473118" lon="111.151413"><time>2026-08-22T09:01:37.493Z</time></trkpt>
      <trkpt lat="24.473118" lon="111.151413"><time>2026-08-22T09:01:37.510Z</time></trkpt>
      <trkpt lat="24.473118" lon="111.151413"><time>2026-08-22T09:01:37.526Z</time></trkpt>
      <trkpt lat="24.473118" lon="111.151413"><time>2026-08-22T09:01:37.543Z</time></trkpt>
      <trkpt lat="24.473118" lon="111.151413"><time>2026-08-22T09:01:37.560Z</time></trkpt>
      <trkpt lat="24.47311" lon="111.151399"><time>2026-08-22T09:01:37.577Z</time></trkpt>
      <trkpt lat="24.47311" lon="111.151399"><time>2026-08-22T09:01:37.593Z</time></trkpt>
      <trkpt lat="24.47311" lon="111.151399"><time>2026-08-22T09:01:37.610Z</time></trkpt>
      <trkpt lat="24.47311" lon="111.151399"><time>2026-08-22T09:01:37.627Z</time></trkpt>
      <trkpt lat="24.47311" lon="111.151399"><time>2026-08-22T09:01:37.643Z</time></trkpt>
      <trkpt lat="24.47311" lon="111.151399"><time>2026-08-22T09:01:37.660Z</time></trkpt>
      <trkpt lat="24.473102" lon="111.151385"><time>2026-08-22T09:01:37.677Z</time></trkpt>
      <trkpt lat="24.473102" lon="111.151385"><time>2026-08-22T09:01:37.693Z</time></trkpt>
      <trkpt lat="24.473102" lon="111.151385"><time>2026-08-22T09:01:37.710Z</time></trkpt>
      <trkpt lat="24.473102" lon="111.151385"><time>2026-08-22T09:01:37.727Z</time></trkpt>
      <trkpt lat="24.473102" lon="111.151385"><time>2026-08-22T09:01:37.743Z</time></trkpt>
      <trkpt lat="24.473102" lon="111.151385"><time>2026-08-22T09:01:37.760Z</time></trkpt>
      <trkpt lat="24.473095" lon="111.151371"><time>2026-08-22T09:01:37.777Z</time></trkpt>
      <trkpt lat="24.473095" lon="111.151371"><time>2026-08-22T09:01:37.793Z</time></trkpt>
      <trkpt lat="24.473095" lon="111.151371"><time>2026-08-22T09:01:37.810Z</time></trkpt>
      <trkpt lat="24.473095" lon="111.151371"><time>2026-08-22T09:01:37.827Z</time></trkpt>
      <trkpt lat="24.473095" lon="111.151371"><time>2026-08-22T09:01:37.843Z</time></trkpt>
      <trkpt lat="24.473095" lon="111.151371"><time>2026-08-22T09:01:37.860Z</time></trkpt>
      <trkpt lat="24.473087" lon="111.151358"><time>2026-08-22T09:01:37.877Z</time></trkpt>
      <trkpt lat="24.473087" lon="111.151358"><time>2026-08-22T09:01:37.894Z</time></trkpt>
      <trkpt lat="24.473087" lon="111.151358"><time>2026-08-22T09:01:37.910Z</time></trkpt>
      <trkpt lat="24.473087" lon="111.151358"><time>2026-08-22T09:01:37.927Z</time></trkpt>
      <trkpt lat="24.473087" lon="111.151358"><time>2026-08-22T09:01:37.944Z</time></trkpt>
      <trkpt lat="24.473087" lon="111.151358"><time>2026-08-22T09:01:37.960Z</time></trkpt>
      <trkpt lat="24.473079" lon="111.151344"><time>2026-08-22T09:01:37.977Z</time></trkpt>
      <trkpt lat="24.473079" lon="111.151344"><time>2026-08-22T09:01:37.994Z</time></trkpt>
      <trkpt lat="24.473079" lon="111.151344"><time>2026-08-22T09:01:38.010Z</time></trkpt>
      <trkpt lat="24.473079" lon="111.151344"><time>2026-08-22T09:01:38.027Z</time></trkpt>
      <trkpt lat="24.473079" lon="111.151344"><time>2026-08-22T09:01:38.044Z</time></trkpt>
      <trkpt lat="24.473079" lon="111.151344"><time>2026-08-22T09:01:38.060Z</time></trkpt>
      <trkpt lat="24.473072" lon="111.15133"><time>2026-08-22T09:01:38.077Z</time></trkpt>
      <trkpt lat="24.473072" lon="111.15133"><time>2026-08-22T09:01:38.094Z</time></trkpt>
      <trkpt lat="24.473072" lon="111.15133"><time>2026-08-22T09:01:38.110Z</time></trkpt>
      <trkpt lat="24.473072" lon="111.15133"><time>2026-08-22T09:01:38.127Z</time></trkpt>
      <trkpt lat="24.473072" lon="111.15133"><time>2026-08-22T09:01:38.144Z</time></trkpt>
      <trkpt lat="24.473072" lon="111.15133"><time>2026-08-22T09:01:38.160Z</time></trkpt>
      <trkpt lat="24.473063" lon="111.151316"><time>2026-08-22T09:01:38.177Z</time></trkpt>
      <trkpt lat="24.473063" lon="111.151316"><time>2026-08-22T09:01:38.194Z</time></trkpt>
      <trkpt lat="24.473063" lon="111.151316"><time>2026-08-22T09:01:38.211Z</time></trkpt>
      <trkpt lat="24.473063" lon="111.151316"><time>2026-08-22T09:01:38.227Z</time></trkpt>
      <trkpt lat="24.473063" lon="111.151316"><time>2026-08-22T09:01:38.244Z</time></trkpt>
      <trkpt lat="24.473063" lon="111.151316"><time>2026-08-22T09:01:38.261Z</time></trkpt>
      <trkpt lat="24.473055" lon="111.151302"><time>2026-08-22T09:01:38.277Z</time></trkpt>
      <trkpt lat="24.473055" lon="111.151302"><time>2026-08-22T09:01:38.294Z</time></trkpt>
      <trkpt lat="24.473055" lon="111.151302"><time>2026-08-22T09:01:38.311Z</time></trkpt>
      <trkpt lat="24.473055" lon="111.151302"><time>2026-08-22T09:01:38.327Z</time></trkpt>
      <trkpt lat="24.473055" lon="111.151302"><time>2026-08-22T09:01:38.344Z</time></trkpt>
      <trkpt lat="24.473055" lon="111.151302"><time>2026-08-22T09:01:38.361Z</time></trkpt>
      <trkpt lat="24.473047" lon="111.151288"><time>2026-08-22T09:01:38.377Z</time></trkpt>
      <trkpt lat="24.473047" lon="111.151288"><time>2026-08-22T09:01:38.394Z</time></trkpt>
      <trkpt lat="24.473047" lon="111.151288"><time>2026-08-22T09:01:38.411Z</time></trkpt>
      <trkpt lat="24.473047" lon="111.151288"><time>2026-08-22T09:01:38.427Z</time></trkpt>
      <trkpt lat="24.473047" lon="111.151288"><time>2026-08-22T09:01:38.444Z</time></trkpt>
      <trkpt lat="24.473047" lon="111.151288"><time>2026-08-22T09:01:38.461Z</time></trkpt>
      <trkpt lat="24.473039" lon="111.151275"><time>2026-08-22T09:01:38.477Z</time></trkpt>
      <trkpt lat="24.473039" lon="111.151275"><time>2026-08-22T09:01:38.494Z</time></trkpt>
      <trkpt lat="24.473039" lon="111.151275"><time>2026-08-22T09:01:38.511Z</time></trkpt>
      <trkpt lat="24.473039" lon="111.151275"><time>2026-08-22T09:01:38.528Z</time></trkpt>
      <trkpt lat="24.473039" lon="111.151275"><time>2026-08-22T09:01:38.544Z</time></trkpt>
      <trkpt lat="24.473039" lon="111.151275"><time>2026-08-22T09:01:38.561Z</time></trkpt>
      <trkpt lat="24.473031" lon="111.151261"><time>2026-08-22T09:01:38.578Z</time></trkpt>
      <trkpt lat="24.473031" lon="111.151261"><time>2026-08-22T09:01:38.594Z</time></trkpt>
      <trkpt lat="24.473031" lon="111.151261"><time>2026-08-22T09:01:38.611Z</time></trkpt>
      <trkpt lat="24.473031" lon="111.151261"><time>2026-08-22T09:01:38.628Z</time></trkpt>
      <trkpt lat="24.473031" lon="111.151261"><time>2026-08-22T09:01:38.644Z</time></trkpt>
      <trkpt lat="24.473031" lon="111.151261"><time>2026-08-22T09:01:38.661Z</time></trkpt>
      <trkpt lat="24.473022" lon="111.151247"><time>2026-08-22T09:01:38.678Z</time></trkpt>
      <trkpt lat="24.473022" lon="111.151247"><time>2026-08-22T09:01:38.694Z</time></trkpt>
      <trkpt lat="24.473022" lon="111.151247"><time>2026-08-22T09:01:38.711Z</time></trkpt>
      <trkpt lat="24.473022" lon="111.151247"><time>2026-08-22T09:01:38.728Z</time></trkpt>
      <trkpt lat="24.473022" lon="111.151247"><time>2026-08-22T09:01:38.744Z</time></trkpt>
      <trkpt lat="24.473022" lon="111.151247"><time>2026-08-22T09:01:38.761Z</time></trkpt>
      <trkpt lat="24.473014" lon="111.151233"><time>2026-08-22T09:01:38.778Z</time></trkpt>
      <trkpt lat="24.473014" lon="111.151233"><time>2026-08-22T09:01:38.794Z</time></trkpt>
      <trkpt lat="24.473014" lon="111.151233"><time>2026-08-22T09:01:38.811Z</time></trkpt>
      <trkpt lat="24.473014" lon="111.151233"><time>2026-08-22T09:01:38.828Z</time></trkpt>
      <trkpt lat="24.473014" lon="111.151233"><time>2026-08-22T09:01:38.845Z</time></trkpt>
      <trkpt lat="24.473014" lon="111.151233"><time>2026-08-22T09:01:38.861Z</time></trkpt>
      <trkpt lat="24.473006" lon="111.15122"><time>2026-08-22T09:01:38.878Z</time></trkpt>
      <trkpt lat="24.473006" lon="111.15122"><time>2026-08-22T09:01:38.895Z</time></trkpt>
      <trkpt lat="24.473006" lon="111.15122"><time>2026-08-22T09:01:38.911Z</time></trkpt>
      <trkpt lat="24.473006" lon="111.15122"><time>2026-08-22T09:01:38.928Z</time></trkpt>
      <trkpt lat="24.473006" lon="111.15122"><time>2026-08-22T09:01:38.945Z</time></trkpt>
      <trkpt lat="24.473006" lon="111.15122"><time>2026-08-22T09:01:38.961Z</time></trkpt>
      <trkpt lat="24.472997" lon="111.151206"><time>2026-08-22T09:01:38.978Z</time></trkpt>
      <trkpt lat="24.472997" lon="111.151206"><time>2026-08-22T09:01:38.995Z</time></trkpt>
      <trkpt lat="24.472997" lon="111.151206"><time>2026-08-22T09:01:39.011Z</time></trkpt>
    </trkseg>
  </trk>
</gpx>
