<?xml version="1.0" encoding="UTF-8"?>
<gpx version="1.1" creator="Kairos" xmlns="http://www.topografix.com/GPX/1/1">
  <trk>
    <name>sidecar-srt-61a3adacc461a40d</name>
    <trkseg>
      <trkpt lat="24.740598" lon="110.511104"><time>2026-08-21T11:26:27.000Z</time></trkpt>
      <trkpt lat="24.740598" lon="110.511104"><time>2026-08-21T11:26:27.016Z</time></trkpt>
      <trkpt lat="24.740598" lon="110.511104"><time>2026-08-21T11:26:27.032Z</time></trkpt>
      <trkpt lat="24.740598" lon="110.511104"><time>2026-08-21T11:26:27.049Z</time></trkpt>
      <trkpt lat="24.740598" lon="110.511104"><time>2026-08-21T11:26:27.066Z</time></trkpt>
      <trkpt lat="24.740598" lon="110.511104"><time>2026-08-21T11:26:27.082Z</time></trkpt>
      <trkpt lat="24.740598" lon="110.511104"><time>2026-08-21T11:26:27.099Z</time></trkpt>
      <trkpt lat="24.740598" lon="110.511104"><time>2026-08-21T11:26:27.116Z</time></trkpt>
      <trkpt lat="24.740598" lon="110.511104"><time>2026-08-21T11:26:27.132Z</time></trkpt>
      <trkpt lat="24.740598" lon="110.511104"><time>2026-08-21T11:26:27.149Z</time></trkpt>
      <trkpt lat="24.740598" lon="110.511104"><time>2026-08-21T11:26:27.166Z</time></trkpt>
      <trkpt lat="24.740598" lon="110.511104"><time>2026-08-21T11:26:27.182Z</time></trkpt>
      <trkpt lat="24.740598" lon="110.511104"><time>2026-08-21T11:26:27.199Z</time></trkpt>
      <trkpt lat="24.740598" lon="110.511104"><time>2026-08-21T11:26:27.216Z</time></trkpt>
      <trkpt lat="24.740598" lon="110.511104"><time>2026-08-21T11:26:27.232Z</time></trkpt>
      <trkpt lat="24.740598" lon="110.511104"><time>2026-08-21T11:26:27.249Z</time></trkpt>
      <trkpt lat="24.740598" lon="110.511104"><time>2026-08-21T11:26:27.266Z</time></trkpt>
      <trkpt lat="24.740598" lon="110.511104"><time>2026-08-21T11:26:27.282Z</time></trkpt>
      <trkpt lat="24.740598" lon="110.511104"><time>2026-08-21T11:26:27.299Z</time></trkpt>
      <trkpt lat="24.740598" lon="110.511104"><time>2026-08-21T11:26:27.316Z</time></trkpt>
      <trkpt lat="24.740598" lon="110.511104"><time>2026-08-21T11:26:27.333Z</time></trkpt>
      <trkpt lat="24.740598" lon="110.511104"><time>2026-08-21T11:26:27.349Z</time></trkpt>
      <trkpt lat="24.740598" lon="110.511104"><time>2026-08-21T11:26:27.366Z</time></trkpt>
      <trkpt lat="24.740598" lon="110.511104"><time>2026-08-21T11:26:27.383Z</time></trkpt>
      <trkpt lat="24.740598" lon="110.511104"><time>2026-08-21T11:26:27.399Z</time></trkpt>
      <trkpt lat="24.740598" lon="110.511104"><time>2026-08-21T11:26:27.416Z</time></trkpt>
      <trkpt lat="24.740598" lon="110.511104"><time>2026-08-21T11:26:27.433Z</time></trkpt>
      <trkpt lat="24.740598" lon="110.511104"><time>2026-08-21T11:26:27.449Z</time></trkpt>
      <trkpt lat="24.740598" lon="110.511104"><time>2026-08-21T11:26:27.466Z</time></trkpt>
      <trkpt lat="24.740598" lon="110.511104"><time>2026-08-21T11:26:27.483Z</time></trkpt>
      <trkpt lat="24.740598" lon="110.511104"><time>2026-08-21T11:26:27.499Z</time></trkpt>
      <trkpt lat="24.740598" lon="110.511104"><time>2026-08-21T11:26:27.516Z</time></trkpt>
      <trkpt lat="24.740598" lon="110.511104"><time>2026-08-21T11:26:27.533Z</time></trkpt>
      <trkpt lat="24.740598" lon="110.511104"><time>2026-08-21T11:26:27.549Z</time></trkpt>
      <trkpt lat="24.740598" lon="110.511104"><time>2026-08-21T11:26:27.566Z</time></trkpt>
      <trkpt lat="24.740598" lon="110.511104"><time>2026-08-21T11:26:27.583Z</time></trkpt>
      <trkpt lat="24.740598" lon="110.511104"><time>2026-08-21T11:26:27.599Z</time></trkpt>
      <trkpt lat="24.740598" lon="110.511104"><time>2026-08-21T11:26:27.616Z</time></trkpt>
      <trkpt lat="24.740598" lon="110.511104"><time>2026-08-21T11:26:27.633Z</time></trkpt>
      <trkpt lat="24.740598" lon="110.511104"><time>2026-08-21T11:26:27.650Z</time></trkpt>
      <trkpt lat="24.740598" lon="110.511104"><time>2026-08-21T11:26:27.666Z</time></trkpt>
      <trkpt lat="24.740598" lon="110.511104"><time>2026-08-21T11:26:27.683Z</time></trkpt>
      <trkpt lat="24.740598" lon="110.511104"><time>2026-08-21T11:26:27.700Z</time></trkpt>
      <trkpt lat="24.740598" lon="110.511104"><time>2026-08-21T11:26:27.716Z</time></trkpt>
      <trkpt lat="24.740598" lon="110.511104"><time>2026-08-21T11:26:27.733Z</time></trkpt>
      <trkpt lat="24.740598" lon="110.511104"><time>2026-08-21T11:26:27.750Z</time></trkpt>
      <trkpt lat="24.740598" lon="110.511104"><time>2026-08-21T11:26:27.766Z</time></trkpt>
      <trkpt lat="24.740598" lon="110.511104"><time>2026-08-21T11:26:27.783Z</time></trkpt>
      <trkpt lat="24.740598" lon="110.511104"><time>2026-08-21T11:26:27.800Z</time></trkpt>
      <trkpt lat="24.740598" lon="110.511104"><time>2026-08-21T11:26:27.816Z</time></trkpt>
      <trkpt lat="24.740598" lon="110.511104"><time>2026-08-21T11:26:27.833Z</time></trkpt>
      <trkpt lat="24.740598" lon="110.511104"><time>2026-08-21T11:26:27.850Z</time></trkpt>
      <trkpt lat="24.740598" lon="110.511104"><time>2026-08-21T11:26:27.866Z</time></trkpt>
      <trkpt lat="24.740598" lon="110.511104"><time>2026-08-21T11:26:27.883Z</time></trkpt>
      <trkpt lat="24.740598" lon="110.511104"><time>2026-08-21T11:26:27.900Z</time></trkpt>
      <trkpt lat="24.740598" lon="110.511104"><time>2026-08-21T11:26:27.916Z</time></trkpt>
      <trkpt lat="24.740598" lon="110.511104"><time>2026-08-21T11:26:27.933Z</time></trkpt>
      <trkpt lat="24.740598" lon="110.511104"><time>2026-08-21T11:26:27.950Z</time></trkpt>
      <trkpt lat="24.740598" lon="110.511104"><time>2026-08-21T11:26:27.967Z</time></trkpt>
      <trkpt lat="24.740598" lon="110.511104"><time>2026-08-21T11:26:27.983Z</time></trkpt>
      <trkpt lat="24.740598" lon="110.511105"><time>2026-08-21T11:26:28.000Z</time></trkpt>
      <trkpt lat="24.740598" lon="110.511105"><time>2026-08-21T11:26:28.017Z</time></trkpt>
      <trkpt lat="24.740598" lon="110.511105"><time>2026-08-21T11:26:28.033Z</time></trkpt>
      <trkpt lat="24.740598" lon="110.511105"><time>2026-08-21T11:26:28.050Z</time></trkpt>
      <trkpt lat="24.740598" lon="110.511105"><time>2026-08-21T11:26:28.067Z</time></trkpt>
      <trkpt lat="24.740598" lon="110.511105"><time>2026-08-21T11:26:28.083Z</time></trkpt>
      <trkpt lat="24.740598" lon="110.511105"><time>2026-08-21T11:26:28.100Z</time></trkpt>
      <trkpt lat="24.740598" lon="110.511105"><time>2026-08-21T11:26:28.117Z</time></trkpt>
      <trkpt lat="24.740598" lon="110.511105"><time>2026-08-21T11:26:28.133Z</time></trkpt>
      <trkpt lat="24.740598" lon="110.511105"><time>2026-08-21T11:26:28.150Z</time></trkpt>
      <trkpt lat="24.740598" lon="110.511105"><time>2026-08-21T11:26:28.167Z</time></trkpt>
      <trkpt lat="24.740598" lon="110.511105"><time>2026-08-21T11:26:28.183Z</time></trkpt>
      <trkpt lat="24.740598" lon="110.511105"><time>2026-08-21T11:26:28.200Z</time></trkpt>
      <trkpt lat="24.740598" lon="110.511105"><time>2026-08-21T11:26:28.217Z</time></trkpt>
      <trkpt lat="24.740598" lon="110.511105"><time>2026-08-21T11:26:28.233Z</time></trkpt>
      <trkpt lat="24.740598" lon="110.511105"><time>2026-08-21T11:26:28.250Z</time></trkpt>
      <trkpt lat="24.740598" lon="110.511105"><time>2026-08-21T11:26:28.267Z</time></trkpt>
      <trkpt lat="24.740598" lon="110.511105"><time>2026-08-21T11:26:28.284Z</time></trkpt>
      <trkpt lat="24.740598" lon="110.511105"><time>2026-08-21T11:26:28.300Z</time></trkpt>
      <trkpt lat="24.740598" lon="110.511105"><time>2026-08-21T11:26:28.317Z</time></trkpt>
      <trkpt lat="24.740598" lon="110.511105"><time>2026-08-21T11:26:28.334Z</time></trkpt>
      <trkpt lat="24.740598" lon="110.511105"><time>2026-08-21T11:26:28.350Z</time></trkpt>
      <trkpt lat="24.740598" lon="110.511105"><time>2026-08-21T11:26:28.367Z</time></trkpt>
      <trkpt lat="24.740598" lon="110.511105"><time>2026-08-21T11:26:28.384Z</time></trkpt>
      <trkpt lat="24.740598" lon="110.511105"><time>2026-08-21T11:26:28.400Z</time></trkpt>
      <trkpt lat="24.740598" lon="110.511105"><time>2026-08-21T11:26:28.417Z</time></trkpt>
      <trkpt lat="24.740598" lon="110.511105"><time>2026-08-21T11:26:28.434Z</time></trkpt>
      <trkpt lat="24.740598" lon="110.511105"><time>2026-08-21T11:26:28.450Z</time></trkpt>
      <trkpt lat="24.740598" lon="110.511105"><time>2026-08-21T11:26:28.467Z</time></trkpt>
      <trkpt lat="24.740598" lon="110.511105"><time>2026-08-21T11:26:28.484Z</time></trkpt>
      <trkpt lat="24.740598" lon="110.511105"><time>2026-08-21T11:26:28.500Z</time></trkpt>
      <trkpt lat="24.740598" lon="110.511105"><time>2026-08-21T11:26:28.517Z</time></trkpt>
      <trkpt lat="24.740598" lon="110.511105"><time>2026-08-21T11:26:28.534Z</time></trkpt>
      <trkpt lat="24.740598" lon="110.511105"><time>2026-08-21T11:26:28.550Z</time></trkpt>
      <trkpt lat="24.740598" lon="110.511105"><time>2026-08-21T11:26:28.567Z</time></trkpt>
      <trkpt lat="24.740598" lon="110.511105"><time>2026-08-21T11:26:28.584Z</time></trkpt>
      <trkpt lat="24.740598" lon="110.511105"><time>2026-08-21T11:26:28.601Z</time></trkpt>
      <trkpt lat="24.740598" lon="110.511105"><time>2026-08-21T11:26:28.617Z</time></trkpt>
      <trkpt lat="24.740598" lon="110.511105"><time>2026-08-21T11:26:28.634Z</time></trkpt>
      <trkpt lat="24.740598" lon="110.511105"><time>2026-08-21T11:26:28.651Z</time></trkpt>
      <trkpt lat="24.740598" lon="110.511105"><time>2026-08-21T11:26:28.667Z</time></trkpt>
      <trkpt lat="24.740598" lon="110.511105"><time>2026-08-21T11:26:28.684Z</time></trkpt>
      <trkpt lat="24.740598" lon="110.511105"><time>2026-08-21T11:26:28.701Z</time></trkpt>
      <trkpt lat="24.740598" lon="110.511105"><time>2026-08-21T11:26:28.717Z</time></trkpt>
      <trkpt lat="24.740598" lon="110.511105"><time>2026-08-21T11:26:28.734Z</time></trkpt>
      <trkpt lat="24.740598" lon="110.511105"><time>2026-08-21T11:26:28.751Z</time></trkpt>
      <trkpt lat="24.740598" lon="110.511105"><time>2026-08-21T11:26:28.767Z</time></trkpt>
      <trkpt lat="24.740598" lon="110.511105"><time>2026-08-21T11:26:28.784Z</time></trkpt>
      <trkpt lat="24.740598" lon="110.511105"><time>2026-08-21T11:26:28.801Z</time></trkpt>
      <trkpt lat="24.740598" lon="110.511105"><time>2026-08-21T11:26:28.817Z</time></trkpt>
      <trkpt lat="24.740598" lon="110.511105"><time>2026-08-21T11:26:28.834Z</time></trkpt>
      <trkpt lat="24.740598" lon="110.511105"><time>2026-08-21T11:26:28.851Z</time></trkpt>
      <trkpt lat="24.740598" lon="110.511105"><time>2026-08-21T11:26:28.867Z</time></trkpt>
      <trkpt lat="24.740598" lon="110.511105"><time>2026-08-21T11:26:28.884Z</time></trkpt>
      <trkpt lat="24.740598" lon="110.511105"><time>2026-08-21T11:26:28.901Z</time></trkpt>
      <trkpt lat="24.740598" lon="110.511105"><time>2026-08-21T11:26:28.917Z</time></trkpt>
      <trkpt lat="24.740598" lon="110.511105"><time>2026-08-21T11:26:28.934Z</time></trkpt>
      <trkpt lat="24.740598" lon="110.511105"><time>2026-08-21T11:26:28.951Z</time></trkpt>
      <trkpt lat="24.740598" lon="110.511105"><time>2026-08-21T11:26:28.968Z</time></trkpt>
      <trkpt lat="24.740598" lon="110.511105"><time>2026-08-21T11:26:28.984Z</time></trkpt>
      <trkpt lat="24.740598" lon="110.511105"><time>2026-08-21T11:26:29.001Z</time></trkpt>
      <trkpt lat="24.740598" lon="110.511105"><time>2026-08-21T11:26:29.018Z</time></trkpt>
      <trkpt lat="24.740598" lon="110.511105"><time>2026-08-21T11:26:29.034Z</time></trkpt>
      <trkpt lat="24.740598" lon="110.511105"><time>2026-08-21T11:26:29.051Z</time></trkpt>
      <trkpt lat="24.740598" lon="110.511105"><time>2026-08-21T11:26:29.068Z</time></trkpt>
      <trkpt lat="24.740598" lon="110.511105"><time>2026-08-21T11:26:29.084Z</time></trkpt>
      <trkpt lat="24.740598" lon="110.511105"><time>2026-08-21T11:26:29.101Z</time></trkpt>
      <trkpt lat="24.740598" lon="110.511105"><time>2026-08-21T11:26:29.118Z</time></trkpt>
      <trkpt lat="24.740598" lon="110.511105"><time>2026-08-21T11:26:29.134Z</time></trkpt>
      <trkpt lat="24.740598" lon="110.511105"><time>2026-08-21T11:26:29.151Z</time></trkpt>
      <trkpt lat="24.740598" lon="110.511105"><time>2026-08-21T11:26:29.168Z</time></trkpt>
      <trkpt lat="24.740598" lon="110.511105"><time>2026-08-21T11:26:29.184Z</time></trkpt>
      <trkpt lat="24.740598" lon="110.511105"><time>2026-08-21T11:26:29.201Z</time></trkpt>
      <trkpt lat="24.740598" lon="110.511105"><time>2026-08-21T11:26:29.218Z</time></trkpt>
      <trkpt lat="24.740598" lon="110.511105"><time>2026-08-21T11:26:29.234Z</time></trkpt>
      <trkpt lat="24.740598" lon="110.511105"><time>2026-08-21T11:26:29.251Z</time></trkpt>
      <trkpt lat="24.740598" lon="110.511105"><time>2026-08-21T11:26:29.268Z</time></trkpt>
      <trkpt lat="24.740598" lon="110.511105"><time>2026-08-21T11:26:29.285Z</time></trkpt>
      <trkpt lat="24.740598" lon="110.511105"><time>2026-08-21T11:26:29.301Z</time></trkpt>
      <trkpt lat="24.740598" lon="110.511105"><time>2026-08-21T11:26:29.318Z</time></trkpt>
      <trkpt lat="24.740598" lon="110.511105"><time>2026-08-21T11:26:29.335Z</time></trkpt>
      <trkpt lat="24.740598" lon="110.511105"><time>2026-08-21T11:26:29.351Z</time></trkpt>
      <trkpt lat="24.740598" lon="110.511105"><time>2026-08-21T11:26:29.368Z</time></trkpt>
      <trkpt lat="24.740598" lon="110.511105"><time>2026-08-21T11:26:29.385Z</time></trkpt>
      <trkpt lat="24.740598" lon="110.511105"><time>2026-08-21T11:26:29.401Z</time></trkpt>
      <trkpt lat="24.740598" lon="110.511105"><time>2026-08-21T11:26:29.418Z</time></trkpt>
      <trkpt lat="24.740598" lon="110.511105"><time>2026-08-21T11:26:29.435Z</time></trkpt>
      <trkpt lat="24.740598" lon="110.511105"><time>2026-08-21T11:26:29.451Z</time></trkpt>
      <trkpt lat="24.740598" lon="110.511105"><time>2026-08-21T11:26:29.468Z</time></trkpt>
      <trkpt lat="24.740598" lon="110.511105"><time>2026-08-21T11:26:29.485Z</time></trkpt>
      <trkpt lat="24.740598" lon="110.511105"><time>2026-08-21T11:26:29.501Z</time></trkpt>
      <trkpt lat="24.740598" lon="110.511105"><time>2026-08-21T11:26:29.518Z</time></trkpt>
      <trkpt lat="24.740598" lon="110.511105"><time>2026-08-21T11:26:29.535Z</time></trkpt>
      <trkpt lat="24.740598" lon="110.511105"><time>2026-08-21T11:26:29.551Z</time></trkpt>
      <trkpt lat="24.740598" lon="110.511105"><time>2026-08-21T11:26:29.568Z</time></trkpt>
      <trkpt lat="24.740598" lon="110.511105"><time>2026-08-21T11:26:29.585Z</time></trkpt>
      <trkpt lat="24.740598" lon="110.511105"><time>2026-08-21T11:26:29.602Z</time></trkpt>
      <trkpt lat="24.740598" lon="110.511105"><time>2026-08-21T11:26:29.618Z</time></trkpt>
      <trkpt lat="24.740598" lon="110.511105"><time>2026-08-21T11:26:29.635Z</time></trkpt>
      <trkpt lat="24.740598" lon="110.511105"><time>2026-08-21T11:26:29.652Z</time></trkpt>
      <trkpt lat="24.740598" lon="110.511105"><time>2026-08-21T11:26:29.668Z</time></trkpt>
      <trkpt lat="24.740598" lon="110.511105"><time>2026-08-21T11:26:29.685Z</time></trkpt>
      <trkpt lat="24.740598" lon="110.511104"><time>2026-08-21T11:26:29.702Z</time></trkpt>
      <trkpt lat="24.740598" lon="110.511104"><time>2026-08-21T11:26:29.718Z</time></trkpt>
      <trkpt lat="24.740598" lon="110.511104"><time>2026-08-21T11:26:29.735Z</time></trkpt>
      <trkpt lat="24.740598" lon="110.511104"><time>2026-08-21T11:26:29.752Z</time></trkpt>
      <trkpt lat="24.740598" lon="110.511104"><time>2026-08-21T11:26:29.768Z</time></trkpt>
      <trkpt lat="24.740598" lon="110.511104"><time>2026-08-21T11:26:29.785Z</time></trkpt>
      <trkpt lat="24.740598" lon="110.511104"><time>2026-08-21T11:26:29.802Z</time></trkpt>
      <trkpt lat="24.740598" lon="110.511104"><time>2026-08-21T11:26:29.818Z</time></trkpt>
      <trkpt lat="24.740598" lon="110.511104"><time>2026-08-21T11:26:29.835Z</time></trkpt>
      <trkpt lat="24.740598" lon="110.511104"><time>2026-08-21T11:26:29.852Z</time></trkpt>
      <trkpt lat="24.740598" lon="110.511104"><time>2026-08-21T11:26:29.868Z</time></trkpt>
      <trkpt lat="24.740598" lon="110.511104"><time>2026-08-21T11:26:29.885Z</time></trkpt>
      <trkpt lat="24.740598" lon="110.511104"><time>2026-08-21T11:26:29.902Z</time></trkpt>
      <trkpt lat="24.740598" lon="110.511104"><time>2026-08-21T11:26:29.919Z</time></trkpt>
      <trkpt lat="24.740598" lon="110.511104"><time>2026-08-21T11:26:29.935Z</time></trkpt>
      <trkpt lat="24.740598" lon="110.511104"><time>2026-08-21T11:26:29.952Z</time></trkpt>
      <trkpt lat="24.740598" lon="110.511104"><time>2026-08-21T11:26:29.969Z</time></trkpt>
      <trkpt lat="24.740598" lon="110.511104"><time>2026-08-21T11:26:29.985Z</time></trkpt>
      <trkpt lat="24.740598" lon="110.511104"><time>2026-08-21T11:26:30.002Z</time></trkpt>
      <trkpt lat="24.740598" lon="110.511104"><time>2026-08-21T11:26:30.019Z</time></trkpt>
      <trkpt lat="24.740598" lon="110.511104"><time>2026-08-21T11:26:30.035Z</time></trkpt>
      <trkpt lat="24.740598" lon="110.511104"><time>2026-08-21T11:26:30.052Z</time></trkpt>
      <trkpt lat="24.740598" lon="110.511104"><time>2026-08-21T11:26:30.069Z</time></trkpt>
      <trkpt lat="24.740598" lon="110.511104"><time>2026-08-21T11:26:30.085Z</time></trkpt>
      <trkpt lat="24.740598" lon="110.511104"><time>2026-08-21T11:26:30.102Z</time></trkpt>
      <trkpt lat="24.740598" lon="110.511104"><time>2026-08-21T11:26:30.119Z</time></trkpt>
      <trkpt lat="24.740598" lon="110.511104"><time>2026-08-21T11:26:30.135Z</time></trkpt>
      <trkpt lat="24.740598" lon="110.511104"><time>2026-08-21T11:26:30.152Z</time></trkpt>
      <trkpt lat="24.740598" lon="110.511104"><time>2026-08-21T11:26:30.169Z</time></trkpt>
      <trkpt lat="24.740598" lon="110.511104"><time>2026-08-21T11:26:30.185Z</time></trkpt>
      <trkpt lat="24.740598" lon="110.511104"><time>2026-08-21T11:26:30.202Z</time></trkpt>
      <trkpt lat="24.740598" lon="110.511104"><time>2026-08-21T11:26:30.219Z</time></trkpt>
      <trkpt lat="24.740598" lon="110.511104"><time>2026-08-21T11:26:30.236Z</time></trkpt>
      <trkpt lat="24.740598" lon="110.511104"><time>2026-08-21T11:26:30.252Z</time></trkpt>
      <trkpt lat="24.740598" lon="110.511104"><time>2026-08-21T11:26:30.269Z</time></trkpt>
      <trkpt lat="24.740598" lon="110.511104"><time>2026-08-21T11:26:30.286Z</time></trkpt>
      <trkpt lat="24.740598" lon="110.511104"><time>2026-08-21T11:26:30.302Z</time></trkpt>
      <trkpt lat="24.740598" lon="110.511104"><time>2026-08-21T11:26:30.319Z</time></trkpt>
      <trkpt lat="24.740598" lon="110.511104"><time>2026-08-21T11:26:30.336Z</time></trkpt>
      <trkpt lat="24.740598" lon="110.511104"><time>2026-08-21T11:26:30.352Z</time></trkpt>
      <trkpt lat="24.740598" lon="110.511104"><time>2026-08-21T11:26:30.369Z</time></trkpt>
      <trkpt lat="24.740598" lon="110.511104"><time>2026-08-21T11:26:30.386Z</time></trkpt>
      <trkpt lat="24.740598" lon="110.511104"><time>2026-08-21T11:26:30.402Z</time></trkpt>
      <trkpt lat="24.740598" lon="110.511104"><time>2026-08-21T11:26:30.419Z</time></trkpt>
      <trkpt lat="24.740598" lon="110.511104"><time>2026-08-21T11:26:30.436Z</time></trkpt>
      <trkpt lat="24.740598" lon="110.511104"><time>2026-08-21T11:26:30.452Z</time></trkpt>
      <trkpt lat="24.740598" lon="110.511104"><time>2026-08-21T11:26:30.469Z</time></trkpt>
      <trkpt lat="24.740598" lon="110.511104"><time>2026-08-21T11:26:30.486Z</time></trkpt>
      <trkpt lat="24.740598" lon="110.511104"><time>2026-08-21T11:26:30.502Z</time></trkpt>
      <trkpt lat="24.740598" lon="110.511104"><time>2026-08-21T11:26:30.519Z</time></trkpt>
      <trkpt lat="24.740598" lon="110.511104"><time>2026-08-21T11:26:30.536Z</time></trkpt>
      <trkpt lat="24.740598" lon="110.511104"><time>2026-08-21T11:26:30.553Z</time></trkpt>
      <trkpt lat="24.740598" lon="110.511104"><time>2026-08-21T11:26:30.569Z</time></trkpt>
      <trkpt lat="24.740598" lon="110.511104"><time>2026-08-21T11:26:30.586Z</time></trkpt>
      <trkpt lat="24.740598" lon="110.511104"><time>2026-08-21T11:26:30.603Z</time></trkpt>
      <trkpt lat="24.740598" lon="110.511104"><time>2026-08-21T11:26:30.619Z</time></trkpt>
      <trkpt lat="24.740598" lon="110.511104"><time>2026-08-21T11:26:30.636Z</time></trkpt>
      <trkpt lat="24.740598" lon="110.511104"><time>2026-08-21T11:26:30.653Z</time></trkpt>
      <trkpt lat="24.740598" lon="110.511104"><time>2026-08-21T11:26:30.669Z</time></trkpt>
      <trkpt lat="24.740598" lon="110.511104"><time>2026-08-21T11:26:30.686Z</time></trkpt>
      <trkpt lat="24.740598" lon="110.511104"><time>2026-08-21T11:26:30.703Z</time></trkpt>
      <trkpt lat="24.740598" lon="110.511104"><time>2026-08-21T11:26:30.719Z</time></trkpt>
      <trkpt lat="24.740598" lon="110.511104"><time>2026-08-21T11:26:30.736Z</time></trkpt>
      <trkpt lat="24.740598" lon="110.511104"><time>2026-08-21T11:26:30.753Z</time></trkpt>
      <trkpt lat="24.740598" lon="110.511104"><time>2026-08-21T11:26:30.769Z</time></trkpt>
      <trkpt lat="24.740598" lon="110.511104"><time>2026-08-21T11:26:30.786Z</time></trkpt>
      <trkpt lat="24.740598" lon="110.511104"><time>2026-08-21T11:26:30.803Z</time></trkpt>
      <trkpt lat="24.740598" lon="110.511104"><time>2026-08-21T11:26:30.819Z</time></trkpt>
      <trkpt lat="24.740598" lon="110.511104"><time>2026-08-21T11:26:30.836Z</time></trkpt>
      <trkpt lat="24.740598" lon="110.511104"><time>2026-08-21T11:26:30.853Z</time></trkpt>
      <trkpt lat="24.740598" lon="110.511104"><time>2026-08-21T11:26:30.870Z</time></trkpt>
      <trkpt lat="24.740598" lon="110.511104"><time>2026-08-21T11:26:30.886Z</time></trkpt>
      <trkpt lat="24.740598" lon="110.511104"><time>2026-08-21T11:26:30.903Z</time></trkpt>
      <trkpt lat="24.740598" lon="110.511104"><time>2026-08-21T11:26:30.920Z</time></trkpt>
      <trkpt lat="24.740598" lon="110.511104"><time>2026-08-21T11:26:30.936Z</time></trkpt>
      <trkpt lat="24.740598" lon="110.511104"><time>2026-08-21T11:26:30.953Z</time></trkpt>
      <trkpt lat="24.740598" lon="110.511104"><time>2026-08-21T11:26:30.970Z</time></trkpt>
      <trkpt lat="24.740598" lon="110.511104"><time>2026-08-21T11:26:30.986Z</time></trkpt>
      <trkpt lat="24.740598" lon="110.511104"><time>2026-08-21T11:26:31.003Z</time></trkpt>
      <trkpt lat="24.740598" lon="110.511104"><time>2026-08-21T11:26:31.020Z</time></trkpt>
      <trkpt lat="24.740598" lon="110.511104"><time>2026-08-21T11:26:31.036Z</time></trkpt>
      <trkpt lat="24.740598" lon="110.511104"><time>2026-08-21T11:26:31.053Z</time></trkpt>
      <trkpt lat="24.740598" lon="110.511104"><time>2026-08-21T11:26:31.070Z</time></trkpt>
      <trkpt lat="24.740598" lon="110.511104"><time>2026-08-21T11:26:31.086Z</time></trkpt>
      <trkpt lat="24.740598" lon="110.511104"><time>2026-08-21T11:26:31.103Z</time></trkpt>
      <trkpt lat="24.740598" lon="110.511104"><time>2026-08-21T11:26:31.120Z</time></trkpt>
      <trkpt lat="24.740598" lon="110.511104"><time>2026-08-21T11:26:31.136Z</time></trkpt>
      <trkpt lat="24.740598" lon="110.511104"><time>2026-08-21T11:26:31.153Z</time></trkpt>
      <trkpt lat="24.740598" lon="110.511104"><time>2026-08-21T11:26:31.170Z</time></trkpt>
      <trkpt lat="24.740598" lon="110.511104"><time>2026-08-21T11:26:31.187Z</time></trkpt>
      <trkpt lat="24.740598" lon="110.511104"><time>2026-08-21T11:26:31.203Z</time></trkpt>
      <trkpt lat="24.740598" lon="110.511104"><time>2026-08-21T11:26:31.220Z</time></trkpt>
      <trkpt lat="24.740598" lon="110.511104"><time>2026-08-21T11:26:31.237Z</time></trkpt>
      <trkpt lat="24.740598" lon="110.511104"><time>2026-08-21T11:26:31.253Z</time></trkpt>
      <trkpt lat="24.740598" lon="110.511104"><time>2026-08-21T11:26:31.270Z</time></trkpt>
      <trkpt lat="24.740598" lon="110.511104"><time>2026-08-21T11:26:31.287Z</time></trkpt>
      <trkpt lat="24.740598" lon="110.511104"><time>2026-08-21T11:26:31.303Z</time></trkpt>
      <trkpt lat="24.740598" lon="110.511104"><time>2026-08-21T11:26:31.320Z</time></trkpt>
      <trkpt lat="24.740598" lon="110.511104"><time>2026-08-21T11:26:31.337Z</time></trkpt>
      <trkpt lat="24.740598" lon="110.511104"><time>2026-08-21T11:26:31.353Z</time></trkpt>
      <trkpt lat="24.740598" lon="110.511104"><time>2026-08-21T11:26:31.370Z</time></trkpt>
      <trkpt lat="24.740598" lon="110.511104"><time>2026-08-21T11:26:31.387Z</time></trkpt>
      <trkpt lat="24.740598" lon="110.511104"><time>2026-08-21T11:26:31.403Z</time></trkpt>
      <trkpt lat="24.740598" lon="110.511104"><time>2026-08-21T11:26:31.420Z</time></trkpt>
      <trkpt lat="24.740598" lon="110.511104"><time>2026-08-21T11:26:31.437Z</time></trkpt>
      <trkpt lat="24.740598" lon="110.511104"><time>2026-08-21T11:26:31.453Z</time></trkpt>
      <trkpt lat="24.740598" lon="110.511104"><time>2026-08-21T11:26:31.470Z</time></trkpt>
      <trkpt lat="24.740598" lon="110.511104"><time>2026-08-21T11:26:31.487Z</time></trkpt>
      <trkpt lat="24.740598" lon="110.511104"><time>2026-08-21T11:26:31.504Z</time></trkpt>
      <trkpt lat="24.740598" lon="110.511104"><time>2026-08-21T11:26:31.520Z</time></trkpt>
      <trkpt lat="24.740598" lon="110.511104"><time>2026-08-21T11:26:31.537Z</time></trkpt>
      <trkpt lat="24.740598" lon="110.511104"><time>2026-08-21T11:26:31.554Z</time></trkpt>
      <trkpt lat="24.740598" lon="110.511104"><time>2026-08-21T11:26:31.570Z</time></trkpt>
      <trkpt lat="24.740598" lon="110.511104"><time>2026-08-21T11:26:31.587Z</time></trkpt>
      <trkpt lat="24.740598" lon="110.511104"><time>2026-08-21T11:26:31.604Z</time></trkpt>
      <trkpt lat="24.740598" lon="110.511104"><time>2026-08-21T11:26:31.620Z</time></trkpt>
      <trkpt lat="24.740598" lon="110.511104"><time>2026-08-21T11:26:31.637Z</time></trkpt>
      <trkpt lat="24.740598" lon="110.511104"><time>2026-08-21T11:26:31.654Z</time></trkpt>
      <trkpt lat="24.740598" lon="110.511104"><time>2026-08-21T11:26:31.670Z</time></trkpt>
      <trkpt lat="24.740598" lon="110.511104"><time>2026-08-21T11:26:31.687Z</time></trkpt>
      <trkpt lat="24.740598" lon="110.511104"><time>2026-08-21T11:26:31.704Z</time></trkpt>
      <trkpt lat="24.740598" lon="110.511104"><time>2026-08-21T11:26:31.720Z</time></trkpt>
      <trkpt lat="24.740598" lon="110.511104"><time>2026-08-21T11:26:31.737Z</time></trkpt>
      <trkpt lat="24.740598" lon="110.511104"><time>2026-08-21T11:26:31.754Z</time></trkpt>
      <trkpt lat="24.740598" lon="110.511104"><time>2026-08-21T11:26:31.770Z</time></trkpt>
      <trkpt lat="24.740598" lon="110.511104"><time>2026-08-21T11:26:31.787Z</time></trkpt>
      <trkpt lat="24.740598" lon="110.511104"><time>2026-08-21T11:26:31.804Z</time></trkpt>
      <trkpt lat="24.740598" lon="110.511104"><time>2026-08-21T11:26:31.821Z</time></trkpt>
      <trkpt lat="24.740598" lon="110.511104"><time>2026-08-21T11:26:31.837Z</time></trkpt>
      <trkpt lat="24.740598" lon="110.511104"><time>2026-08-21T11:26:31.854Z</time></trkpt>
      <trkpt lat="24.740598" lon="110.511104"><time>2026-08-21T11:26:31.871Z</time></trkpt>
      <trkpt lat="24.740598" lon="110.511104"><time>2026-08-21T11:26:31.887Z</time></trkpt>
      <trkpt lat="24.740598" lon="110.511104"><time>2026-08-21T11:26:31.904Z</time></trkpt>
      <trkpt lat="24.740598" lon="110.511104"><time>2026-08-21T11:26:31.921Z</time></trkpt>
      <trkpt lat="24.740598" lon="110.511104"><time>2026-08-21T11:26:31.937Z</time></trkpt>
      <trkpt lat="24.740598" lon="110.511104"><time>2026-08-21T11:26:31.954Z</time></trkpt>
      <trkpt lat="24.740598" lon="110.511104"><time>2026-08-21T11:26:31.971Z</time></trkpt>
      <trkpt lat="24.740598" lon="110.511104"><time>2026-08-21T11:26:31.987Z</time></trkpt>
      <trkpt lat="24.740598" lon="110.511104"><time>2026-08-21T11:26:32.004Z</time></trkpt>
      <trkpt lat="24.740598" lon="110.511104"><time>2026-08-21T11:26:32.021Z</time></trkpt>
      <trkpt lat="24.740598" lon="110.511104"><time>2026-08-21T11:26:32.037Z</time></trkpt>
      <trkpt lat="24.740598" lon="110.511104"><time>2026-08-21T11:26:32.054Z</time></trkpt>
      <trkpt lat="24.740598" lon="110.511104"><time>2026-08-21T11:26:32.071Z</time></trkpt>
      <trkpt lat="24.740598" lon="110.511104"><time>2026-08-21T11:26:32.087Z</time></trkpt>
      <trkpt lat="24.740598" lon="110.511104"><time>2026-08-21T11:26:32.104Z</time></trkpt>
      <trkpt lat="24.740598" lon="110.511104"><time>2026-08-21T11:26:32.121Z</time></trkpt>
      <trkpt lat="24.740598" lon="110.511104"><time>2026-08-21T11:26:32.138Z</time></trkpt>
      <trkpt lat="24.740598" lon="110.511104"><time>2026-08-21T11:26:32.154Z</time></trkpt>
      <trkpt lat="24.740598" lon="110.511104"><time>2026-08-21T11:26:32.171Z</time></trkpt>
      <trkpt lat="24.740598" lon="110.511104"><time>2026-08-21T11:26:32.188Z</time></trkpt>
      <trkpt lat="24.740598" lon="110.511104"><time>2026-08-21T11:26:32.204Z</time></trkpt>
      <trkpt lat="24.740598" lon="110.511104"><time>2026-08-21T11:26:32.221Z</time></trkpt>
      <trkpt lat="24.740598" lon="110.511104"><time>2026-08-21T11:26:32.238Z</time></trkpt>
      <trkpt lat="24.740598" lon="110.511104"><time>2026-08-21T11:26:32.254Z</time></trkpt>
      <trkpt lat="24.740598" lon="110.511104"><time>2026-08-21T11:26:32.271Z</time></trkpt>
      <trkpt lat="24.740598" lon="110.511104"><time>2026-08-21T11:26:32.288Z</time></trkpt>
      <trkpt lat="24.740598" lon="110.511104"><time>2026-08-21T11:26:32.304Z</time></trkpt>
      <trkpt lat="24.740598" lon="110.511104"><time>2026-08-21T11:26:32.321Z</time></trkpt>
      <trkpt lat="24.740598" lon="110.511104"><time>2026-08-21T11:26:32.338Z</time></trkpt>
      <trkpt lat="24.740598" lon="110.511104"><time>2026-08-21T11:26:32.354Z</time></trkpt>
      <trkpt lat="24.740598" lon="110.511104"><time>2026-08-21T11:26:32.371Z</time></trkpt>
      <trkpt lat="24.740598" lon="110.511104"><time>2026-08-21T11:26:32.388Z</time></trkpt>
      <trkpt lat="24.740598" lon="110.511104"><time>2026-08-21T11:26:32.404Z</time></trkpt>
      <trkpt lat="24.740598" lon="110.511104"><time>2026-08-21T11:26:32.421Z</time></trkpt>
      <trkpt lat="24.740598" lon="110.511104"><time>2026-08-21T11:26:32.438Z</time></trkpt>
      <trkpt lat="24.740598" lon="110.511104"><time>2026-08-21T11:26:32.455Z</time></trkpt>
      <trkpt lat="24.740598" lon="110.511104"><time>2026-08-21T11:26:32.471Z</time></trkpt>
      <trkpt lat="24.740598" lon="110.511104"><time>2026-08-21T11:26:32.488Z</time></trkpt>
      <trkpt lat="24.740598" lon="110.511104"><time>2026-08-21T11:26:32.505Z</time></trkpt>
      <trkpt lat="24.740598" lon="110.511104"><time>2026-08-21T11:26:32.521Z</time></trkpt>
      <trkpt lat="24.740598" lon="110.511104"><time>2026-08-21T11:26:32.538Z</time></trkpt>
      <trkpt lat="24.740598" lon="110.511104"><time>2026-08-21T11:26:32.555Z</time></trkpt>
      <trkpt lat="24.740598" lon="110.511104"><time>2026-08-21T11:26:32.571Z</time></trkpt>
      <trkpt lat="24.740598" lon="110.511104"><time>2026-08-21T11:26:32.588Z</time></trkpt>
      <trkpt lat="24.740598" lon="110.511104"><time>2026-08-21T11:26:32.605Z</time></trkpt>
      <trkpt lat="24.740598" lon="110.511104"><time>2026-08-21T11:26:32.621Z</time></trkpt>
      <trkpt lat="24.740598" lon="110.511104"><time>2026-08-21T11:26:32.638Z</time></trkpt>
      <trkpt lat="24.740598" lon="110.511104"><time>2026-08-21T11:26:32.655Z</time></trkpt>
      <trkpt lat="24.740598" lon="110.511104"><time>2026-08-21T11:26:32.671Z</time></trkpt>
      <trkpt lat="24.740598" lon="110.511104"><time>2026-08-21T11:26:32.688Z</time></trkpt>
      <trkpt lat="24.740598" lon="110.511104"><time>2026-08-21T11:26:32.705Z</time></trkpt>
      <trkpt lat="24.740598" lon="110.511104"><time>2026-08-21T11:26:32.721Z</time></trkpt>
      <trkpt lat="24.740598" lon="110.511104"><time>2026-08-21T11:26:32.738Z</time></trkpt>
      <trkpt lat="24.740598" lon="110.511104"><time>2026-08-21T11:26:32.755Z</time></trkpt>
      <trkpt lat="24.740598" lon="110.511104"><time>2026-08-21T11:26:32.772Z</time></trkpt>
      <trkpt lat="24.740598" lon="110.511104"><time>2026-08-21T11:26:32.788Z</time></trkpt>
      <trkpt lat="24.740598" lon="110.511104"><time>2026-08-21T11:26:32.805Z</time></trkpt>
      <trkpt lat="24.740598" lon="110.511104"><time>2026-08-21T11:26:32.822Z</time></trkpt>
      <trkpt lat="24.740598" lon="110.511104"><time>2026-08-21T11:26:32.838Z</time></trkpt>
      <trkpt lat="24.740598" lon="110.511104"><time>2026-08-21T11:26:32.855Z</time></trkpt>
      <trkpt lat="24.740598" lon="110.511104"><time>2026-08-21T11:26:32.872Z</time></trkpt>
      <trkpt lat="24.740598" lon="110.511104"><time>2026-08-21T11:26:32.888Z</time></trkpt>
      <trkpt lat="24.740598" lon="110.511104"><time>2026-08-21T11:26:32.905Z</time></trkpt>
      <trkpt lat="24.740598" lon="110.511104"><time>2026-08-21T11:26:32.922Z</time></trkpt>
      <trkpt lat="24.740598" lon="110.511104"><time>2026-08-21T11:26:32.938Z</time></trkpt>
      <trkpt lat="24.740598" lon="110.511104"><time>2026-08-21T11:26:32.955Z</time></trkpt>
      <trkpt lat="24.740598" lon="110.511104"><time>2026-08-21T11:26:32.972Z</time></trkpt>
      <trkpt lat="24.740598" lon="110.511104"><time>2026-08-21T11:26:32.988Z</time></trkpt>
      <trkpt lat="24.740598" lon="110.511104"><time>2026-08-21T11:26:33.005Z</time></trkpt>
      <trkpt lat="24.740598" lon="110.511104"><time>2026-08-21T11:26:33.022Z</time></trkpt>
      <trkpt lat="24.740598" lon="110.511104"><time>2026-08-21T11:26:33.038Z</time></trkpt>
      <trkpt lat="24.740598" lon="110.511104"><time>2026-08-21T11:26:33.055Z</time></trkpt>
      <trkpt lat="24.740598" lon="110.511104"><time>2026-08-21T11:26:33.072Z</time></trkpt>
      <trkpt lat="24.740598" lon="110.511104"><time>2026-08-21T11:26:33.089Z</time></trkpt>
      <trkpt lat="24.740598" lon="110.511104"><time>2026-08-21T11:26:33.105Z</time></trkpt>
      <trkpt lat="24.740598" lon="110.511104"><time>2026-08-21T11:26:33.122Z</time></trkpt>
      <trkpt lat="24.740598" lon="110.511104"><time>2026-08-21T11:26:33.139Z</time></trkpt>
      <trkpt lat="24.740598" lon="110.511104"><time>2026-08-21T11:26:33.155Z</time></trkpt>
      <trkpt lat="24.740598" lon="110.511104"><time>2026-08-21T11:26:33.172Z</time></trkpt>
      <trkpt lat="24.740598" lon="110.511104"><time>2026-08-21T11:26:33.189Z</time></trkpt>
      <trkpt lat="24.740598" lon="110.511104"><time>2026-08-21T11:26:33.205Z</time></trkpt>
      <trkpt lat="24.740598" lon="110.511104"><time>2026-08-21T11:26:33.222Z</time></trkpt>
      <trkpt lat="24.740598" lon="110.511104"><time>2026-08-21T11:26:33.239Z</time></trkpt>
      <trkpt lat="24.740598" lon="110.511104"><time>2026-08-21T11:26:33.255Z</time></trkpt>
      <trkpt lat="24.740598" lon="110.511104"><time>2026-08-21T11:26:33.272Z</time></trkpt>
      <trkpt lat="24.740598" lon="110.511104"><time>2026-08-21T11:26:33.289Z</time></trkpt>
      <trkpt lat="24.740598" lon="110.511104"><time>2026-08-21T11:26:33.305Z</time></trkpt>
      <trkpt lat="24.740598" lon="110.511104"><time>2026-08-21T11:26:33.322Z</time></trkpt>
      <trkpt lat="24.740598" lon="110.511104"><time>2026-08-21T11:26:33.339Z</time></trkpt>
      <trkpt lat="24.740598" lon="110.511104"><time>2026-08-21T11:26:33.355Z</time></trkpt>
      <trkpt lat="24.740598" lon="110.511104"><time>2026-08-21T11:26:33.372Z</time></trkpt>
      <trkpt lat="24.740598" lon="110.511104"><time>2026-08-21T11:26:33.389Z</time></trkpt>
      <trkpt lat="24.740598" lon="110.511104"><time>2026-08-21T11:26:33.406Z</time></trkpt>
      <trkpt lat="24.740598" lon="110.511104"><time>2026-08-21T11:26:33.422Z</time></trkpt>
      <trkpt lat="24.740598" lon="110.511104"><time>2026-08-21T11:26:33.439Z</time></trkpt>
      <trkpt lat="24.740598" lon="110.511104"><time>2026-08-21T11:26:33.456Z</time></trkpt>
      <trkpt lat="24.740598" lon="110.511104"><time>2026-08-21T11:26:33.472Z</time></trkpt>
      <trkpt lat="24.740598" lon="110.511104"><time>2026-08-21T11:26:33.489Z</time></trkpt>
      <trkpt lat="24.740598" lon="110.511104"><time>2026-08-21T11:26:33.506Z</time></trkpt>
      <trkpt lat="24.740598" lon="110.511104"><time>2026-08-21T11:26:33.522Z</time></trkpt>
      <trkpt lat="24.740598" lon="110.511104"><time>2026-08-21T11:26:33.539Z</time></trkpt>
      <trkpt lat="24.740598" lon="110.511104"><time>2026-08-21T11:26:33.556Z</time></trkpt>
      <trkpt lat="24.740598" lon="110.511104"><time>2026-08-21T11:26:33.572Z</time></trkpt>
      <trkpt lat="24.740598" lon="110.511104"><time>2026-08-21T11:26:33.589Z</time></trkpt>
      <trkpt lat="24.740598" lon="110.511104"><time>2026-08-21T11:26:33.606Z</time></trkpt>
      <trkpt lat="24.740598" lon="110.511104"><time>2026-08-21T11:26:33.622Z</time></trkpt>
      <trkpt lat="24.740598" lon="110.511104"><time>2026-08-21T11:26:33.639Z</time></trkpt>
      <trkpt lat="24.740598" lon="110.511104"><time>2026-08-21T11:26:33.656Z</time></trkpt>
      <trkpt lat="24.740598" lon="110.511104"><time>2026-08-21T11:26:33.672Z</time></trkpt>
      <trkpt lat="24.740598" lon="110.511104"><time>2026-08-21T11:26:33.689Z</time></trkpt>
      <trkpt lat="24.740598" lon="110.511104"><time>2026-08-21T11:26:33.706Z</time></trkpt>
      <trkpt lat="24.740598" lon="110.511104"><time>2026-08-21T11:26:33.723Z</time></trkpt>
      <trkpt lat="24.740598" lon="110.511104"><time>2026-08-21T11:26:33.739Z</time></trkpt>
      <trkpt lat="24.740598" lon="110.511104"><time>2026-08-21T11:26:33.756Z</time></trkpt>
      <trkpt lat="24.740598" lon="110.511104"><time>2026-08-21T11:26:33.773Z</time></trkpt>
      <trkpt lat="24.740598" lon="110.511104"><time>2026-08-21T11:26:33.789Z</time></trkpt>
      <trkpt lat="24.740598" lon="110.511104"><time>2026-08-21T11:26:33.806Z</time></trkpt>
      <trkpt lat="24.740598" lon="110.511104"><time>2026-08-21T11:26:33.823Z</time></trkpt>
      <trkpt lat="24.740598" lon="110.511104"><time>2026-08-21T11:26:33.839Z</time></trkpt>
      <trkpt lat="24.740598" lon="110.511104"><time>2026-08-21T11:26:33.856Z</time></trkpt>
      <trkpt lat="24.740598" lon="110.511104"><time>2026-08-21T11:26:33.873Z</time></trkpt>
      <trkpt lat="24.740598" lon="110.511104"><time>2026-08-21T11:26:33.889Z</time></trkpt>
      <trkpt lat="24.740598" lon="110.511104"><time>2026-08-21T11:26:33.906Z</time></trkpt>
      <trkpt lat="24.740598" lon="110.511104"><time>2026-08-21T11:26:33.923Z</time></trkpt>
      <trkpt lat="24.740598" lon="110.511104"><time>2026-08-21T11:26:33.939Z</time></trkpt>
      <trkpt lat="24.740598" lon="110.511104"><time>2026-08-21T11:26:33.956Z</time></trkpt>
      <trkpt lat="24.740598" lon="110.511104"><time>2026-08-21T11:26:33.973Z</time></trkpt>
      <trkpt lat="24.740598" lon="110.511104"><time>2026-08-21T11:26:33.989Z</time></trkpt>
      <trkpt lat="24.740598" lon="110.511104"><time>2026-08-21T11:26:34.006Z</time></trkpt>
      <trkpt lat="24.740598" lon="110.511104"><time>2026-08-21T11:26:34.023Z</time></trkpt>
      <trkpt lat="24.740598" lon="110.511104"><time>2026-08-21T11:26:34.040Z</time></trkpt>
      <trkpt lat="24.740598" lon="110.511104"><time>2026-08-21T11:26:34.056Z</time></trkpt>
      <trkpt lat="24.740598" lon="110.511104"><time>2026-08-21T11:26:34.073Z</time></trkpt>
      <trkpt lat="24.740598" lon="110.511104"><time>2026-08-21T11:26:34.090Z</time></trkpt>
      <trkpt lat="24.740598" lon="110.511104"><time>2026-08-21T11:26:34.106Z</time></trkpt>
      <trkpt lat="24.740598" lon="110.511104"><time>2026-08-21T11:26:34.123Z</time></trkpt>
      <trkpt lat="24.740598" lon="110.511104"><time>2026-08-21T11:26:34.140Z</time></trkpt>
      <trkpt lat="24.740598" lon="110.511104"><time>2026-08-21T11:26:34.156Z</time></trkpt>
      <trkpt lat="24.740598" lon="110.511104"><time>2026-08-21T11:26:34.173Z</time></trkpt>
      <trkpt lat="24.740598" lon="110.511104"><time>2026-08-21T11:26:34.190Z</time></trkpt>
      <trkpt lat="24.740598" lon="110.511104"><time>2026-08-21T11:26:34.206Z</time></trkpt>
      <trkpt lat="24.740598" lon="110.511104"><time>2026-08-21T11:26:34.223Z</time></trkpt>
      <trkpt lat="24.740598" lon="110.511104"><time>2026-08-21T11:26:34.240Z</time></trkpt>
      <trkpt lat="24.740598" lon="110.511104"><time>2026-08-21T11:26:34.256Z</time></trkpt>
      <trkpt lat="24.740598" lon="110.511104"><time>2026-08-21T11:26:34.273Z</time></trkpt>
      <trkpt lat="24.740598" lon="110.511104"><time>2026-08-21T11:26:34.290Z</time></trkpt>
      <trkpt lat="24.740598" lon="110.511104"><time>2026-08-21T11:26:34.306Z</time></trkpt>
      <trkpt lat="24.740598" lon="110.511104"><time>2026-08-21T11:26:34.323Z</time></trkpt>
      <trkpt lat="24.740598" lon="110.511104"><time>2026-08-21T11:26:34.340Z</time></trkpt>
      <trkpt lat="24.740598" lon="110.511104"><time>2026-08-21T11:26:34.357Z</time></trkpt>
      <trkpt lat="24.740598" lon="110.511104"><time>2026-08-21T11:26:34.373Z</time></trkpt>
      <trkpt lat="24.740598" lon="110.511104"><time>2026-08-21T11:26:34.390Z</time></trkpt>
      <trkpt lat="24.740598" lon="110.511104"><time>2026-08-21T11:26:34.407Z</time></trkpt>
      <trkpt lat="24.740598" lon="110.511104"><time>2026-08-21T11:26:34.423Z</time></trkpt>
      <trkpt lat="24.740598" lon="110.511104"><time>2026-08-21T11:26:34.440Z</time></trkpt>
      <trkpt lat="24.740598" lon="110.511104"><time>2026-08-21T11:26:34.457Z</time></trkpt>
      <trkpt lat="24.740598" lon="110.511104"><time>2026-08-21T11:26:34.473Z</time></trkpt>
      <trkpt lat="24.740598" lon="110.511104"><time>2026-08-21T11:26:34.490Z</time></trkpt>
      <trkpt lat="24.740598" lon="110.511104"><time>2026-08-21T11:26:34.507Z</time></trkpt>
      <trkpt lat="24.740598" lon="110.511104"><time>2026-08-21T11:26:34.523Z</time></trkpt>
      <trkpt lat="24.740598" lon="110.511104"><time>2026-08-21T11:26:34.540Z</time></trkpt>
      <trkpt lat="24.740598" lon="110.511104"><time>2026-08-21T11:26:34.557Z</time></trkpt>
      <trkpt lat="24.740598" lon="110.511104"><time>2026-08-21T11:26:34.573Z</time></trkpt>
      <trkpt lat="24.740598" lon="110.511104"><time>2026-08-21T11:26:34.590Z</time></trkpt>
      <trkpt lat="24.740598" lon="110.511104"><time>2026-08-21T11:26:34.607Z</time></trkpt>
      <trkpt lat="24.740598" lon="110.511104"><time>2026-08-21T11:26:34.623Z</time></trkpt>
      <trkpt lat="24.740598" lon="110.511104"><time>2026-08-21T11:26:34.640Z</time></trkpt>
      <trkpt lat="24.740598" lon="110.511104"><time>2026-08-21T11:26:34.657Z</time></trkpt>
      <trkpt lat="24.740598" lon="110.511104"><time>2026-08-21T11:26:34.674Z</time></trkpt>
      <trkpt lat="24.740598" lon="110.511104"><time>2026-08-21T11:26:34.690Z</time></trkpt>
      <trkpt lat="24.740598" lon="110.511104"><time>2026-08-21T11:26:34.707Z</time></trkpt>
      <trkpt lat="24.740598" lon="110.511104"><time>2026-08-21T11:26:34.724Z</time></trkpt>
      <trkpt lat="24.740598" lon="110.511104"><time>2026-08-21T11:26:34.740Z</time></trkpt>
      <trkpt lat="24.740598" lon="110.511104"><time>2026-08-21T11:26:34.757Z</time></trkpt>
      <trkpt lat="24.740598" lon="110.511104"><time>2026-08-21T11:26:34.774Z</time></trkpt>
      <trkpt lat="24.740598" lon="110.511104"><time>2026-08-21T11:26:34.790Z</time></trkpt>
      <trkpt lat="24.740598" lon="110.511104"><time>2026-08-21T11:26:34.807Z</time></trkpt>
      <trkpt lat="24.740598" lon="110.511104"><time>2026-08-21T11:26:34.824Z</time></trkpt>
      <trkpt lat="24.740598" lon="110.511104"><time>2026-08-21T11:26:34.840Z</time></trkpt>
      <trkpt lat="24.740598" lon="110.511104"><time>2026-08-21T11:26:34.857Z</time></trkpt>
      <trkpt lat="24.740598" lon="110.511104"><time>2026-08-21T11:26:34.874Z</time></trkpt>
      <trkpt lat="24.740598" lon="110.511104"><time>2026-08-21T11:26:34.890Z</time></trkpt>
      <trkpt lat="24.740598" lon="110.511104"><time>2026-08-21T11:26:34.907Z</time></trkpt>
      <trkpt lat="24.740598" lon="110.511104"><time>2026-08-21T11:26:34.924Z</time></trkpt>
      <trkpt lat="24.740598" lon="110.511104"><time>2026-08-21T11:26:34.940Z</time></trkpt>
      <trkpt lat="24.740598" lon="110.511104"><time>2026-08-21T11:26:34.957Z</time></trkpt>
      <trkpt lat="24.740598" lon="110.511104"><time>2026-08-21T11:26:34.974Z</time></trkpt>
      <trkpt lat="24.740598" lon="110.511104"><time>2026-08-21T11:26:34.991Z</time></trkpt>
      <trkpt lat="24.740596" lon="110.511104"><time>2026-08-21T11:26:35.007Z</time></trkpt>
      <trkpt lat="24.740596" lon="110.511104"><time>2026-08-21T11:26:35.024Z</time></trkpt>
      <trkpt lat="24.740596" lon="110.511104"><time>2026-08-21T11:26:35.041Z</time></trkpt>
      <trkpt lat="24.740596" lon="110.511104"><time>2026-08-21T11:26:35.057Z</time></trkpt>
      <trkpt lat="24.740596" lon="110.511104"><time>2026-08-21T11:26:35.074Z</time></trkpt>
      <trkpt lat="24.740596" lon="110.511104"><time>2026-08-21T11:26:35.091Z</time></trkpt>
      <trkpt lat="24.740596" lon="110.511104"><time>2026-08-21T11:26:35.107Z</time></trkpt>
      <trkpt lat="24.740596" lon="110.511104"><time>2026-08-21T11:26:35.124Z</time></trkpt>
      <trkpt lat="24.740596" lon="110.511104"><time>2026-08-21T11:26:35.141Z</time></trkpt>
      <trkpt lat="24.740596" lon="110.511104"><time>2026-08-21T11:26:35.157Z</time></trkpt>
      <trkpt lat="24.740596" lon="110.511104"><time>2026-08-21T11:26:35.174Z</time></trkpt>
      <trkpt lat="24.740596" lon="110.511104"><time>2026-08-21T11:26:35.191Z</time></trkpt>
      <trkpt lat="24.740596" lon="110.511104"><time>2026-08-21T11:26:35.207Z</time></trkpt>
      <trkpt lat="24.740596" lon="110.511104"><time>2026-08-21T11:26:35.224Z</time></trkpt>
      <trkpt lat="24.740596" lon="110.511104"><time>2026-08-21T11:26:35.241Z</time></trkpt>
      <trkpt lat="24.740596" lon="110.511104"><time>2026-08-21T11:26:35.257Z</time></trkpt>
      <trkpt lat="24.740596" lon="110.511104"><time>2026-08-21T11:26:35.274Z</time></trkpt>
      <trkpt lat="24.740596" lon="110.511104"><time>2026-08-21T11:26:35.291Z</time></trkpt>
      <trkpt lat="24.740596" lon="110.511104"><time>2026-08-21T11:26:35.307Z</time></trkpt>
      <trkpt lat="24.740596" lon="110.511104"><time>2026-08-21T11:26:35.324Z</time></trkpt>
      <trkpt lat="24.740596" lon="110.511104"><time>2026-08-21T11:26:35.341Z</time></trkpt>
      <trkpt lat="24.740596" lon="110.511104"><time>2026-08-21T11:26:35.358Z</time></trkpt>
      <trkpt lat="24.740596" lon="110.511104"><time>2026-08-21T11:26:35.374Z</time></trkpt>
      <trkpt lat="24.740596" lon="110.511104"><time>2026-08-21T11:26:35.391Z</time></trkpt>
      <trkpt lat="24.740596" lon="110.511104"><time>2026-08-21T11:26:35.408Z</time></trkpt>
      <trkpt lat="24.740596" lon="110.511104"><time>2026-08-21T11:26:35.424Z</time></trkpt>
      <trkpt lat="24.740596" lon="110.511104"><time>2026-08-21T11:26:35.441Z</time></trkpt>
      <trkpt lat="24.740596" lon="110.511104"><time>2026-08-21T11:26:35.458Z</time></trkpt>
      <trkpt lat="24.740596" lon="110.511104"><time>2026-08-21T11:26:35.474Z</time></trkpt>
      <trkpt lat="24.740596" lon="110.511104"><time>2026-08-21T11:26:35.491Z</time></trkpt>
      <trkpt lat="24.740596" lon="110.511104"><time>2026-08-21T11:26:35.508Z</time></trkpt>
      <trkpt lat="24.740596" lon="110.511104"><time>2026-08-21T11:26:35.524Z</time></trkpt>
      <trkpt lat="24.740596" lon="110.511104"><time>2026-08-21T11:26:35.541Z</time></trkpt>
      <trkpt lat="24.740596" lon="110.511104"><time>2026-08-21T11:26:35.558Z</time></trkpt>
      <trkpt lat="24.740596" lon="110.511104"><time>2026-08-21T11:26:35.574Z</time></trkpt>
      <trkpt lat="24.740596" lon="110.511104"><time>2026-08-21T11:26:35.591Z</time></trkpt>
      <trkpt lat="24.740596" lon="110.511104"><time>2026-08-21T11:26:35.608Z</time></trkpt>
      <trkpt lat="24.740596" lon="110.511104"><time>2026-08-21T11:26:35.624Z</time></trkpt>
      <trkpt lat="24.740596" lon="110.511104"><time>2026-08-21T11:26:35.641Z</time></trkpt>
      <trkpt lat="24.740596" lon="110.511104"><time>2026-08-21T11:26:35.658Z</time></trkpt>
      <trkpt lat="24.740596" lon="110.511104"><time>2026-08-21T11:26:35.675Z</time></trkpt>
      <trkpt lat="24.740596" lon="110.511104"><time>2026-08-21T11:26:35.691Z</time></trkpt>
      <trkpt lat="24.740596" lon="110.511104"><time>2026-08-21T11:26:35.708Z</time></trkpt>
      <trkpt lat="24.740596" lon="110.511104"><time>2026-08-21T11:26:35.725Z</time></trkpt>
      <trkpt lat="24.740596" lon="110.511104"><time>2026-08-21T11:26:35.741Z</time></trkpt>
      <trkpt lat="24.740596" lon="110.511104"><time>2026-08-21T11:26:35.758Z</time></trkpt>
      <trkpt lat="24.740596" lon="110.511104"><time>2026-08-21T11:26:35.775Z</time></trkpt>
      <trkpt lat="24.740596" lon="110.511104"><time>2026-08-21T11:26:35.791Z</time></trkpt>
      <trkpt lat="24.740596" lon="110.511104"><time>2026-08-21T11:26:35.808Z</time></trkpt>
      <trkpt lat="24.740596" lon="110.511104"><time>2026-08-21T11:26:35.825Z</time></trkpt>
      <trkpt lat="24.740596" lon="110.511104"><time>2026-08-21T11:26:35.841Z</time></trkpt>
      <trkpt lat="24.740596" lon="110.511104"><time>2026-08-21T11:26:35.858Z</time></trkpt>
      <trkpt lat="24.740596" lon="110.511104"><time>2026-08-21T11:26:35.875Z</time></trkpt>
      <trkpt lat="24.740596" lon="110.511104"><time>2026-08-21T11:26:35.891Z</time></trkpt>
      <trkpt lat="24.740596" lon="110.511104"><time>2026-08-21T11:26:35.908Z</time></trkpt>
      <trkpt lat="24.740596" lon="110.511104"><time>2026-08-21T11:26:35.925Z</time></trkpt>
      <trkpt lat="24.740596" lon="110.511104"><time>2026-08-21T11:26:35.941Z</time></trkpt>
      <trkpt lat="24.740596" lon="110.511104"><time>2026-08-21T11:26:35.958Z</time></trkpt>
      <trkpt lat="24.740596" lon="110.511104"><time>2026-08-21T11:26:35.975Z</time></trkpt>
      <trkpt lat="24.740596" lon="110.511104"><time>2026-08-21T11:26:35.992Z</time></trkpt>
      <trkpt lat="24.740596" lon="110.511104"><time>2026-08-21T11:26:36.008Z</time></trkpt>
      <trkpt lat="24.740596" lon="110.511104"><time>2026-08-21T11:26:36.025Z</time></trkpt>
      <trkpt lat="24.740596" lon="110.511104"><time>2026-08-21T11:26:36.042Z</time></trkpt>
      <trkpt lat="24.740596" lon="110.511104"><time>2026-08-21T11:26:36.058Z</time></trkpt>
      <trkpt lat="24.740596" lon="110.511104"><time>2026-08-21T11:26:36.075Z</time></trkpt>
      <trkpt lat="24.740596" lon="110.511104"><time>2026-08-21T11:26:36.092Z</time></trkpt>
      <trkpt lat="24.740596" lon="110.511104"><time>2026-08-21T11:26:36.108Z</time></trkpt>
      <trkpt lat="24.740596" lon="110.511104"><time>2026-08-21T11:26:36.125Z</time></trkpt>
      <trkpt lat="24.740596" lon="110.511104"><time>2026-08-21T11:26:36.142Z</time></trkpt>
      <trkpt lat="24.740596" lon="110.511104"><time>2026-08-21T11:26:36.158Z</time></trkpt>
      <trkpt lat="24.740596" lon="110.511104"><time>2026-08-21T11:26:36.175Z</time></trkpt>
      <trkpt lat="24.740596" lon="110.511104"><time>2026-08-21T11:26:36.192Z</time></trkpt>
      <trkpt lat="24.740596" lon="110.511104"><time>2026-08-21T11:26:36.208Z</time></trkpt>
      <trkpt lat="24.740596" lon="110.511104"><time>2026-08-21T11:26:36.225Z</time></trkpt>
      <trkpt lat="24.740596" lon="110.511104"><time>2026-08-21T11:26:36.242Z</time></trkpt>
      <trkpt lat="24.740596" lon="110.511104"><time>2026-08-21T11:26:36.258Z</time></trkpt>
      <trkpt lat="24.740596" lon="110.511104"><time>2026-08-21T11:26:36.275Z</time></trkpt>
      <trkpt lat="24.740596" lon="110.511104"><time>2026-08-21T11:26:36.292Z</time></trkpt>
      <trkpt lat="24.740596" lon="110.511104"><time>2026-08-21T11:26:36.309Z</time></trkpt>
      <trkpt lat="24.740596" lon="110.511104"><time>2026-08-21T11:26:36.325Z</time></trkpt>
      <trkpt lat="24.740596" lon="110.511104"><time>2026-08-21T11:26:36.342Z</time></trkpt>
      <trkpt lat="24.740596" lon="110.511104"><time>2026-08-21T11:26:36.359Z</time></trkpt>
      <trkpt lat="24.740596" lon="110.511104"><time>2026-08-21T11:26:36.375Z</time></trkpt>
      <trkpt lat="24.740596" lon="110.511104"><time>2026-08-21T11:26:36.392Z</time></trkpt>
      <trkpt lat="24.740596" lon="110.511104"><time>2026-08-21T11:26:36.409Z</time></trkpt>
      <trkpt lat="24.740596" lon="110.511104"><time>2026-08-21T11:26:36.425Z</time></trkpt>
      <trkpt lat="24.740596" lon="110.511104"><time>2026-08-21T11:26:36.442Z</time></trkpt>
      <trkpt lat="24.740596" lon="110.511104"><time>2026-08-21T11:26:36.459Z</time></trkpt>
      <trkpt lat="24.740596" lon="110.511104"><time>2026-08-21T11:26:36.475Z</time></trkpt>
      <trkpt lat="24.740596" lon="110.511104"><time>2026-08-21T11:26:36.492Z</time></trkpt>
      <trkpt lat="24.740596" lon="110.511104"><time>2026-08-21T11:26:36.509Z</time></trkpt>
      <trkpt lat="24.740596" lon="110.511104"><time>2026-08-21T11:26:36.525Z</time></trkpt>
      <trkpt lat="24.740596" lon="110.511104"><time>2026-08-21T11:26:36.542Z</time></trkpt>
      <trkpt lat="24.740596" lon="110.511104"><time>2026-08-21T11:26:36.559Z</time></trkpt>
      <trkpt lat="24.740596" lon="110.511104"><time>2026-08-21T11:26:36.575Z</time></trkpt>
      <trkpt lat="24.740596" lon="110.511104"><time>2026-08-21T11:26:36.592Z</time></trkpt>
      <trkpt lat="24.740596" lon="110.511104"><time>2026-08-21T11:26:36.609Z</time></trkpt>
      <trkpt lat="24.740596" lon="110.511104"><time>2026-08-21T11:26:36.626Z</time></trkpt>
      <trkpt lat="24.740596" lon="110.511104"><time>2026-08-21T11:26:36.642Z</time></trkpt>
      <trkpt lat="24.740596" lon="110.511104"><time>2026-08-21T11:26:36.659Z</time></trkpt>
      <trkpt lat="24.740596" lon="110.511104"><time>2026-08-21T11:26:36.676Z</time></trkpt>
      <trkpt lat="24.740596" lon="110.511104"><time>2026-08-21T11:26:36.692Z</time></trkpt>
      <trkpt lat="24.740596" lon="110.511104"><time>2026-08-21T11:26:36.709Z</time></trkpt>
      <trkpt lat="24.740596" lon="110.511104"><time>2026-08-21T11:26:36.726Z</time></trkpt>
      <trkpt lat="24.740596" lon="110.511104"><time>2026-08-21T11:26:36.742Z</time></trkpt>
      <trkpt lat="24.740596" lon="110.511104"><time>2026-08-21T11:26:36.759Z</time></trkpt>
      <trkpt lat="24.740596" lon="110.511104"><time>2026-08-21T11:26:36.776Z</time></trkpt>
      <trkpt lat="24.740596" lon="110.511104"><time>2026-08-21T11:26:36.792Z</time></trkpt>
      <trkpt lat="24.740596" lon="110.511104"><time>2026-08-21T11:26:36.809Z</time></trkpt>
      <trkpt lat="24.740596" lon="110.511104"><time>2026-08-21T11:26:36.826Z</time></trkpt>
      <trkpt lat="24.740596" lon="110.511104"><time>2026-08-21T11:26:36.842Z</time></trkpt>
      <trkpt lat="24.740596" lon="110.511104"><time>2026-08-21T11:26:36.859Z</time></trkpt>
      <trkpt lat="24.740596" lon="110.511104"><time>2026-08-21T11:26:36.876Z</time></trkpt>
      <trkpt lat="24.740596" lon="110.511104"><time>2026-08-21T11:26:36.892Z</time></trkpt>
      <trkpt lat="24.740596" lon="110.511104"><time>2026-08-21T11:26:36.909Z</time></trkpt>
      <trkpt lat="24.740596" lon="110.511104"><time>2026-08-21T11:26:36.926Z</time></trkpt>
      <trkpt lat="24.740596" lon="110.511104"><time>2026-08-21T11:26:36.943Z</time></trkpt>
      <trkpt lat="24.740596" lon="110.511104"><time>2026-08-21T11:26:36.959Z</time></trkpt>
      <trkpt lat="24.740596" lon="110.511104"><time>2026-08-21T11:26:36.976Z</time></trkpt>
      <trkpt lat="24.740596" lon="110.511104"><time>2026-08-21T11:26:36.993Z</time></trkpt>
      <trkpt lat="24.740596" lon="110.511104"><time>2026-08-21T11:26:37.009Z</time></trkpt>
      <trkpt lat="24.740596" lon="110.511104"><time>2026-08-21T11:26:37.026Z</time></trkpt>
      <trkpt lat="24.740596" lon="110.511104"><time>2026-08-21T11:26:37.043Z</time></trkpt>
      <trkpt lat="24.740596" lon="110.511104"><time>2026-08-21T11:26:37.059Z</time></trkpt>
      <trkpt lat="24.740596" lon="110.511104"><time>2026-08-21T11:26:37.076Z</time></trkpt>
      <trkpt lat="24.740596" lon="110.511104"><time>2026-08-21T11:26:37.093Z</time></trkpt>
    </trkseg>
  </trk>
</gpx>
