<?xml version="1.0" encoding="UTF-8"?>
<gpx version="1.1" creator="Kairos" xmlns="http://www.topografix.com/GPX/1/1">
  <trk>
    <name>sidecar-srt-f1c916b41306318f</name>
    <trkseg>
      <trkpt lat="24.666508" lon="111.456691"><time>2026-08-23T07:15:15.000Z</time></trkpt>
      <trkpt lat="24.666507" lon="111.456691"><time>2026-08-23T07:15:15.016Z</time></trkpt>
      <trkpt lat="24.666507" lon="111.456691"><time>2026-08-23T07:15:15.032Z</time></trkpt>
      <trkpt lat="24.666507" lon="111.456691"><time>2026-08-23T07:15:15.049Z</time></trkpt>
      <trkpt lat="24.666507" lon="111.456691"><time>2026-08-23T07:15:15.066Z</time></trkpt>
      <trkpt lat="24.666507" lon="111.456691"><time>2026-08-23T07:15:15.082Z</time></trkpt>
      <trkpt lat="24.666507" lon="111.456691"><time>2026-08-23T07:15:15.099Z</time></trkpt>
      <trkpt lat="24.666507" lon="111.456691"><time>2026-08-23T07:15:15.116Z</time></trkpt>
      <trkpt lat="24.666507" lon="111.456691"><time>2026-08-23T07:15:15.132Z</time></trkpt>
      <trkpt lat="24.666507" lon="111.456691"><time>2026-08-23T07:15:15.149Z</time></trkpt>
      <trkpt lat="24.666507" lon="111.456691"><time>2026-08-23T07:15:15.166Z</time></trkpt>
      <trkpt lat="24.666507" lon="111.456691"><time>2026-08-23T07:15:15.182Z</time></trkpt>
      <trkpt lat="24.666507" lon="111.456691"><time>2026-08-23T07:15:15.199Z</time></trkpt>
      <trkpt lat="24.666507" lon="111.456691"><time>2026-08-23T07:15:15.216Z</time></trkpt>
      <trkpt lat="24.666507" lon="111.456691"><time>2026-08-23T07:15:15.232Z</time></trkpt>
      <trkpt lat="24.666507" lon="111.456691"><time>2026-08-23T07:15:15.249Z</time></trkpt>
      <trkpt lat="24.666507" lon="111.456691"><time>2026-08-23T07:15:15.266Z</time></trkpt>
      <trkpt lat="24.666507" lon="111.456691"><time>2026-08-23T07:15:15.282Z</time></trkpt>
      <trkpt lat="24.666507" lon="111.456691"><time>2026-08-23T07:15:15.299Z</time></trkpt>
      <trkpt lat="24.666507" lon="111.456691"><time>2026-08-23T07:15:15.316Z</time></trkpt>
      <trkpt lat="24.666507" lon="111.456691"><time>2026-08-23T07:15:15.333Z</time></trkpt>
      <trkpt lat="24.666507" lon="111.456691"><time>2026-08-23T07:15:15.349Z</time></trkpt>
      <trkpt lat="24.666507" lon="111.456691"><time>2026-08-23T07:15:15.366Z</time></trkpt>
      <trkpt lat="24.666507" lon="111.456691"><time>2026-08-23T07:15:15.383Z</time></trkpt>
      <trkpt lat="24.666507" lon="111.456691"><time>2026-08-23T07:15:15.399Z</time></trkpt>
      <trkpt lat="24.666507" lon="111.456691"><time>2026-08-23T07:15:15.416Z</time></trkpt>
      <trkpt lat="24.666507" lon="111.456691"><time>2026-08-23T07:15:15.433Z</time></trkpt>
      <trkpt lat="24.666507" lon="111.456691"><time>2026-08-23T07:15:15.449Z</time></trkpt>
      <trkpt lat="24.666507" lon="111.456691"><time>2026-08-23T07:15:15.466Z</time></trkpt>
      <trkpt lat="24.666507" lon="111.456691"><time>2026-08-23T07:15:15.483Z</time></trkpt>
      <trkpt lat="24.666507" lon="111.456691"><time>2026-08-23T07:15:15.499Z</time></trkpt>
      <trkpt lat="24.666507" lon="111.456691"><time>2026-08-23T07:15:15.516Z</time></trkpt>
      <trkpt lat="24.666507" lon="111.456691"><time>2026-08-23T07:15:15.533Z</time></trkpt>
      <trkpt lat="24.666507" lon="111.456691"><time>2026-08-23T07:15:15.549Z</time></trkpt>
      <trkpt lat="24.666507" lon="111.456691"><time>2026-08-23T07:15:15.566Z</time></trkpt>
      <trkpt lat="24.666507" lon="111.456691"><time>2026-08-23T07:15:15.583Z</time></trkpt>
      <trkpt lat="24.666507" lon="111.456691"><time>2026-08-23T07:15:15.599Z</time></trkpt>
      <trkpt lat="24.666507" lon="111.456691"><time>2026-08-23T07:15:15.616Z</time></trkpt>
      <trkpt lat="24.666507" lon="111.456691"><time>2026-08-23T07:15:15.633Z</time></trkpt>
      <trkpt lat="24.666507" lon="111.456691"><time>2026-08-23T07:15:15.650Z</time></trkpt>
      <trkpt lat="24.666507" lon="111.456691"><time>2026-08-23T07:15:15.666Z</time></trkpt>
      <trkpt lat="24.666507" lon="111.456691"><time>2026-08-23T07:15:15.683Z</time></trkpt>
      <trkpt lat="24.666507" lon="111.456691"><time>2026-08-23T07:15:15.700Z</time></trkpt>
      <trkpt lat="24.666507" lon="111.456691"><time>2026-08-23T07:15:15.716Z</time></trkpt>
      <trkpt lat="24.666507" lon="111.456691"><time>2026-08-23T07:15:15.733Z</time></trkpt>
      <trkpt lat="24.666507" lon="111.456691"><time>2026-08-23T07:15:15.750Z</time></trkpt>
      <trkpt lat="24.666507" lon="111.456691"><time>2026-08-23T07:15:15.766Z</time></trkpt>
      <trkpt lat="24.666507" lon="111.456691"><time>2026-08-23T07:15:15.783Z</time></trkpt>
      <trkpt lat="24.666507" lon="111.456691"><time>2026-08-23T07:15:15.800Z</time></trkpt>
      <trkpt lat="24.666507" lon="111.456691"><time>2026-08-23T07:15:15.816Z</time></trkpt>
      <trkpt lat="24.666507" lon="111.456691"><time>2026-08-23T07:15:15.833Z</time></trkpt>
      <trkpt lat="24.666507" lon="111.456691"><time>2026-08-23T07:15:15.850Z</time></trkpt>
      <trkpt lat="24.666507" lon="111.456691"><time>2026-08-23T07:15:15.866Z</time></trkpt>
      <trkpt lat="24.666507" lon="111.456691"><time>2026-08-23T07:15:15.883Z</time></trkpt>
      <trkpt lat="24.666507" lon="111.456691"><time>2026-08-23T07:15:15.900Z</time></trkpt>
      <trkpt lat="24.666507" lon="111.456691"><time>2026-08-23T07:15:15.916Z</time></trkpt>
      <trkpt lat="24.666507" lon="111.456691"><time>2026-08-23T07:15:15.933Z</time></trkpt>
      <trkpt lat="24.666507" lon="111.456691"><time>2026-08-23T07:15:15.950Z</time></trkpt>
      <trkpt lat="24.666507" lon="111.456691"><time>2026-08-23T07:15:15.967Z</time></trkpt>
      <trkpt lat="24.666507" lon="111.456691"><time>2026-08-23T07:15:15.983Z</time></trkpt>
      <trkpt lat="24.666507" lon="111.456691"><time>2026-08-23T07:15:16.000Z</time></trkpt>
      <trkpt lat="24.666507" lon="111.456691"><time>2026-08-23T07:15:16.017Z</time></trkpt>
      <trkpt lat="24.666507" lon="111.456691"><time>2026-08-23T07:15:16.033Z</time></trkpt>
      <trkpt lat="24.666507" lon="111.456691"><time>2026-08-23T07:15:16.050Z</time></trkpt>
      <trkpt lat="24.666507" lon="111.456691"><time>2026-08-23T07:15:16.067Z</time></trkpt>
      <trkpt lat="24.666507" lon="111.456691"><time>2026-08-23T07:15:16.083Z</time></trkpt>
      <trkpt lat="24.666507" lon="111.456691"><time>2026-08-23T07:15:16.100Z</time></trkpt>
      <trkpt lat="24.666507" lon="111.456691"><time>2026-08-23T07:15:16.117Z</time></trkpt>
      <trkpt lat="24.666507" lon="111.456691"><time>2026-08-23T07:15:16.133Z</time></trkpt>
      <trkpt lat="24.666507" lon="111.456691"><time>2026-08-23T07:15:16.150Z</time></trkpt>
      <trkpt lat="24.666507" lon="111.456691"><time>2026-08-23T07:15:16.167Z</time></trkpt>
      <trkpt lat="24.666507" lon="111.456691"><time>2026-08-23T07:15:16.183Z</time></trkpt>
      <trkpt lat="24.666507" lon="111.456691"><time>2026-08-23T07:15:16.200Z</time></trkpt>
      <trkpt lat="24.666507" lon="111.456692"><time>2026-08-23T07:15:16.217Z</time></trkpt>
      <trkpt lat="24.666507" lon="111.456692"><time>2026-08-23T07:15:16.233Z</time></trkpt>
      <trkpt lat="24.666507" lon="111.456692"><time>2026-08-23T07:15:16.250Z</time></trkpt>
      <trkpt lat="24.666507" lon="111.456692"><time>2026-08-23T07:15:16.267Z</time></trkpt>
      <trkpt lat="24.666507" lon="111.456692"><time>2026-08-23T07:15:16.284Z</time></trkpt>
      <trkpt lat="24.666507" lon="111.456692"><time>2026-08-23T07:15:16.300Z</time></trkpt>
      <trkpt lat="24.666507" lon="111.456692"><time>2026-08-23T07:15:16.317Z</time></trkpt>
      <trkpt lat="24.666507" lon="111.456692"><time>2026-08-23T07:15:16.334Z</time></trkpt>
      <trkpt lat="24.666507" lon="111.456692"><time>2026-08-23T07:15:16.350Z</time></trkpt>
      <trkpt lat="24.666507" lon="111.456692"><time>2026-08-23T07:15:16.367Z</time></trkpt>
      <trkpt lat="24.666507" lon="111.456692"><time>2026-08-23T07:15:16.384Z</time></trkpt>
      <trkpt lat="24.666507" lon="111.456692"><time>2026-08-23T07:15:16.400Z</time></trkpt>
      <trkpt lat="24.666507" lon="111.456692"><time>2026-08-23T07:15:16.417Z</time></trkpt>
      <trkpt lat="24.666507" lon="111.456692"><time>2026-08-23T07:15:16.434Z</time></trkpt>
      <trkpt lat="24.666507" lon="111.456692"><time>2026-08-23T07:15:16.450Z</time></trkpt>
      <trkpt lat="24.666507" lon="111.456692"><time>2026-08-23T07:15:16.467Z</time></trkpt>
      <trkpt lat="24.666507" lon="111.456692"><time>2026-08-23T07:15:16.484Z</time></trkpt>
      <trkpt lat="24.666507" lon="111.456692"><time>2026-08-23T07:15:16.500Z</time></trkpt>
      <trkpt lat="24.666506" lon="111.456692"><time>2026-08-23T07:15:16.517Z</time></trkpt>
      <trkpt lat="24.666506" lon="111.456692"><time>2026-08-23T07:15:16.534Z</time></trkpt>
      <trkpt lat="24.666506" lon="111.456692"><time>2026-08-23T07:15:16.550Z</time></trkpt>
      <trkpt lat="24.666506" lon="111.456692"><time>2026-08-23T07:15:16.567Z</time></trkpt>
      <trkpt lat="24.666506" lon="111.456692"><time>2026-08-23T07:15:16.584Z</time></trkpt>
      <trkpt lat="24.666506" lon="111.456692"><time>2026-08-23T07:15:16.601Z</time></trkpt>
      <trkpt lat="24.666506" lon="111.456693"><time>2026-08-23T07:15:16.617Z</time></trkpt>
      <trkpt lat="24.666506" lon="111.456693"><time>2026-08-23T07:15:16.634Z</time></trkpt>
      <trkpt lat="24.666506" lon="111.456693"><time>2026-08-23T07:15:16.651Z</time></trkpt>
      <trkpt lat="24.666506" lon="111.456693"><time>2026-08-23T07:15:16.667Z</time></trkpt>
      <trkpt lat="24.666506" lon="111.456693"><time>2026-08-23T07:15:16.684Z</time></trkpt>
      <trkpt lat="24.666506" lon="111.456693"><time>2026-08-23T07:15:16.701Z</time></trkpt>
      <trkpt lat="24.666505" lon="111.456693"><time>2026-08-23T07:15:16.717Z</time></trkpt>
      <trkpt lat="24.666505" lon="111.456693"><time>2026-08-23T07:15:16.734Z</time></trkpt>
      <trkpt lat="24.666505" lon="111.456693"><time>2026-08-23T07:15:16.751Z</time></trkpt>
      <trkpt lat="24.666505" lon="111.456693"><time>2026-08-23T07:15:16.767Z</time></trkpt>
      <trkpt lat="24.666505" lon="111.456693"><time>2026-08-23T07:15:16.784Z</time></trkpt>
      <trkpt lat="24.666505" lon="111.456693"><time>2026-08-23T07:15:16.801Z</time></trkpt>
      <trkpt lat="24.666504" lon="111.456694"><time>2026-08-23T07:15:16.817Z</time></trkpt>
      <trkpt lat="24.666504" lon="111.456694"><time>2026-08-23T07:15:16.834Z</time></trkpt>
      <trkpt lat="24.666504" lon="111.456694"><time>2026-08-23T07:15:16.851Z</time></trkpt>
      <trkpt lat="24.666504" lon="111.456694"><time>2026-08-23T07:15:16.867Z</time></trkpt>
      <trkpt lat="24.666504" lon="111.456694"><time>2026-08-23T07:15:16.884Z</time></trkpt>
      <trkpt lat="24.666504" lon="111.456694"><time>2026-08-23T07:15:16.901Z</time></trkpt>
      <trkpt lat="24.666503" lon="111.456694"><time>2026-08-23T07:15:16.917Z</time></trkpt>
      <trkpt lat="24.666503" lon="111.456694"><time>2026-08-23T07:15:16.934Z</time></trkpt>
      <trkpt lat="24.666503" lon="111.456694"><time>2026-08-23T07:15:16.951Z</time></trkpt>
      <trkpt lat="24.666503" lon="111.456694"><time>2026-08-23T07:15:16.968Z</time></trkpt>
      <trkpt lat="24.666503" lon="111.456694"><time>2026-08-23T07:15:16.984Z</time></trkpt>
      <trkpt lat="24.666503" lon="111.456694"><time>2026-08-23T07:15:17.001Z</time></trkpt>
      <trkpt lat="24.666501" lon="111.456695"><time>2026-08-23T07:15:17.018Z</time></trkpt>
      <trkpt lat="24.666501" lon="111.456695"><time>2026-08-23T07:15:17.034Z</time></trkpt>
      <trkpt lat="24.666501" lon="111.456695"><time>2026-08-23T07:15:17.051Z</time></trkpt>
      <trkpt lat="24.666501" lon="111.456695"><time>2026-08-23T07:15:17.068Z</time></trkpt>
      <trkpt lat="24.666501" lon="111.456695"><time>2026-08-23T07:15:17.084Z</time></trkpt>
      <trkpt lat="24.666501" lon="111.456695"><time>2026-08-23T07:15:17.101Z</time></trkpt>
      <trkpt lat="24.6665" lon="111.456696"><time>2026-08-23T07:15:17.118Z</time></trkpt>
      <trkpt lat="24.6665" lon="111.456696"><time>2026-08-23T07:15:17.134Z</time></trkpt>
      <trkpt lat="24.6665" lon="111.456696"><time>2026-08-23T07:15:17.151Z</time></trkpt>
      <trkpt lat="24.6665" lon="111.456696"><time>2026-08-23T07:15:17.168Z</time></trkpt>
      <trkpt lat="24.6665" lon="111.456696"><time>2026-08-23T07:15:17.184Z</time></trkpt>
      <trkpt lat="24.6665" lon="111.456696"><time>2026-08-23T07:15:17.201Z</time></trkpt>
      <trkpt lat="24.666498" lon="111.456697"><time>2026-08-23T07:15:17.218Z</time></trkpt>
      <trkpt lat="24.666498" lon="111.456697"><time>2026-08-23T07:15:17.234Z</time></trkpt>
      <trkpt lat="24.666498" lon="111.456697"><time>2026-08-23T07:15:17.251Z</time></trkpt>
      <trkpt lat="24.666498" lon="111.456697"><time>2026-08-23T07:15:17.268Z</time></trkpt>
      <trkpt lat="24.666498" lon="111.456697"><time>2026-08-23T07:15:17.285Z</time></trkpt>
      <trkpt lat="24.666498" lon="111.456697"><time>2026-08-23T07:15:17.301Z</time></trkpt>
      <trkpt lat="24.666497" lon="111.456699"><time>2026-08-23T07:15:17.318Z</time></trkpt>
      <trkpt lat="24.666497" lon="111.456699"><time>2026-08-23T07:15:17.335Z</time></trkpt>
      <trkpt lat="24.666497" lon="111.456699"><time>2026-08-23T07:15:17.351Z</time></trkpt>
      <trkpt lat="24.666497" lon="111.456699"><time>2026-08-23T07:15:17.368Z</time></trkpt>
      <trkpt lat="24.666497" lon="111.456699"><time>2026-08-23T07:15:17.385Z</time></trkpt>
      <trkpt lat="24.666497" lon="111.456699"><time>2026-08-23T07:15:17.401Z</time></trkpt>
      <trkpt lat="24.666495" lon="111.4567"><time>2026-08-23T07:15:17.418Z</time></trkpt>
      <trkpt lat="24.666495" lon="111.4567"><time>2026-08-23T07:15:17.435Z</time></trkpt>
      <trkpt lat="24.666495" lon="111.4567"><time>2026-08-23T07:15:17.451Z</time></trkpt>
      <trkpt lat="24.666495" lon="111.4567"><time>2026-08-23T07:15:17.468Z</time></trkpt>
      <trkpt lat="24.666495" lon="111.4567"><time>2026-08-23T07:15:17.485Z</time></trkpt>
      <trkpt lat="24.666495" lon="111.4567"><time>2026-08-23T07:15:17.501Z</time></trkpt>
      <trkpt lat="24.666492" lon="111.456702"><time>2026-08-23T07:15:17.518Z</time></trkpt>
      <trkpt lat="24.666492" lon="111.456702"><time>2026-08-23T07:15:17.535Z</time></trkpt>
      <trkpt lat="24.666492" lon="111.456702"><time>2026-08-23T07:15:17.551Z</time></trkpt>
      <trkpt lat="24.666492" lon="111.456702"><time>2026-08-23T07:15:17.568Z</time></trkpt>
      <trkpt lat="24.666492" lon="111.456702"><time>2026-08-23T07:15:17.585Z</time></trkpt>
      <trkpt lat="24.666492" lon="111.456702"><time>2026-08-23T07:15:17.602Z</time></trkpt>
      <trkpt lat="24.66649" lon="111.456703"><time>2026-08-23T07:15:17.618Z</time></trkpt>
      <trkpt lat="24.66649" lon="111.456703"><time>2026-08-23T07:15:17.635Z</time></trkpt>
      <trkpt lat="24.66649" lon="111.456703"><time>2026-08-23T07:15:17.652Z</time></trkpt>
      <trkpt lat="24.66649" lon="111.456703"><time>2026-08-23T07:15:17.668Z</time></trkpt>
      <trkpt lat="24.66649" lon="111.456703"><time>2026-08-23T07:15:17.685Z</time></trkpt>
      <trkpt lat="24.666487" lon="111.456705"><time>2026-08-23T07:15:17.702Z</time></trkpt>
      <trkpt lat="24.666487" lon="111.456705"><time>2026-08-23T07:15:17.718Z</time></trkpt>
      <trkpt lat="24.666487" lon="111.456705"><time>2026-08-23T07:15:17.735Z</time></trkpt>
      <trkpt lat="24.666487" lon="111.456705"><time>2026-08-23T07:15:17.752Z</time></trkpt>
      <trkpt lat="24.666487" lon="111.456705"><time>2026-08-23T07:15:17.768Z</time></trkpt>
      <trkpt lat="24.666487" lon="111.456705"><time>2026-08-23T07:15:17.785Z</time></trkpt>
      <trkpt lat="24.666487" lon="111.456705"><time>2026-08-23T07:15:17.802Z</time></trkpt>
      <trkpt lat="24.666485" lon="111.456707"><time>2026-08-23T07:15:17.818Z</time></trkpt>
      <trkpt lat="24.666485" lon="111.456707"><time>2026-08-23T07:15:17.835Z</time></trkpt>
      <trkpt lat="24.666485" lon="111.456707"><time>2026-08-23T07:15:17.852Z</time></trkpt>
      <trkpt lat="24.666485" lon="111.456707"><time>2026-08-23T07:15:17.868Z</time></trkpt>
      <trkpt lat="24.666485" lon="111.456707"><time>2026-08-23T07:15:17.885Z</time></trkpt>
      <trkpt lat="24.666485" lon="111.456707"><time>2026-08-23T07:15:17.902Z</time></trkpt>
      <trkpt lat="24.666482" lon="111.456709"><time>2026-08-23T07:15:17.919Z</time></trkpt>
      <trkpt lat="24.666482" lon="111.456709"><time>2026-08-23T07:15:17.935Z</time></trkpt>
      <trkpt lat="24.666482" lon="111.456709"><time>2026-08-23T07:15:17.952Z</time></trkpt>
      <trkpt lat="24.666482" lon="111.456709"><time>2026-08-23T07:15:17.969Z</time></trkpt>
      <trkpt lat="24.666482" lon="111.456709"><time>2026-08-23T07:15:17.985Z</time></trkpt>
      <trkpt lat="24.666479" lon="111.456711"><time>2026-08-23T07:15:18.002Z</time></trkpt>
      <trkpt lat="24.666479" lon="111.456711"><time>2026-08-23T07:15:18.019Z</time></trkpt>
      <trkpt lat="24.666479" lon="111.456711"><time>2026-08-23T07:15:18.035Z</time></trkpt>
      <trkpt lat="24.666479" lon="111.456711"><time>2026-08-23T07:15:18.052Z</time></trkpt>
      <trkpt lat="24.666479" lon="111.456711"><time>2026-08-23T07:15:18.069Z</time></trkpt>
      <trkpt lat="24.666479" lon="111.456711"><time>2026-08-23T07:15:18.085Z</time></trkpt>
      <trkpt lat="24.666475" lon="111.456714"><time>2026-08-23T07:15:18.102Z</time></trkpt>
      <trkpt lat="24.666475" lon="111.456714"><time>2026-08-23T07:15:18.119Z</time></trkpt>
      <trkpt lat="24.666475" lon="111.456714"><time>2026-08-23T07:15:18.135Z</time></trkpt>
      <trkpt lat="24.666475" lon="111.456714"><time>2026-08-23T07:15:18.152Z</time></trkpt>
      <trkpt lat="24.666475" lon="111.456714"><time>2026-08-23T07:15:18.169Z</time></trkpt>
      <trkpt lat="24.666475" lon="111.456714"><time>2026-08-23T07:15:18.185Z</time></trkpt>
      <trkpt lat="24.666471" lon="111.456716"><time>2026-08-23T07:15:18.202Z</time></trkpt>
      <trkpt lat="24.666471" lon="111.456716"><time>2026-08-23T07:15:18.219Z</time></trkpt>
      <trkpt lat="24.666471" lon="111.456716"><time>2026-08-23T07:15:18.236Z</time></trkpt>
      <trkpt lat="24.666471" lon="111.456716"><time>2026-08-23T07:15:18.252Z</time></trkpt>
      <trkpt lat="24.666471" lon="111.456716"><time>2026-08-23T07:15:18.269Z</time></trkpt>
      <trkpt lat="24.666471" lon="111.456716"><time>2026-08-23T07:15:18.286Z</time></trkpt>
      <trkpt lat="24.666468" lon="111.456719"><time>2026-08-23T07:15:18.302Z</time></trkpt>
      <trkpt lat="24.666468" lon="111.456719"><time>2026-08-23T07:15:18.319Z</time></trkpt>
      <trkpt lat="24.666468" lon="111.456719"><time>2026-08-23T07:15:18.336Z</time></trkpt>
      <trkpt lat="24.666468" lon="111.456719"><time>2026-08-23T07:15:18.352Z</time></trkpt>
      <trkpt lat="24.666468" lon="111.456719"><time>2026-08-23T07:15:18.369Z</time></trkpt>
      <trkpt lat="24.666468" lon="111.456719"><time>2026-08-23T07:15:18.386Z</time></trkpt>
      <trkpt lat="24.666464" lon="111.456721"><time>2026-08-23T07:15:18.402Z</time></trkpt>
      <trkpt lat="24.666464" lon="111.456721"><time>2026-08-23T07:15:18.419Z</time></trkpt>
      <trkpt lat="24.666464" lon="111.456721"><time>2026-08-23T07:15:18.436Z</time></trkpt>
      <trkpt lat="24.666464" lon="111.456721"><time>2026-08-23T07:15:18.452Z</time></trkpt>
      <trkpt lat="24.666464" lon="111.456721"><time>2026-08-23T07:15:18.469Z</time></trkpt>
      <trkpt lat="24.666464" lon="111.456721"><time>2026-08-23T07:15:18.486Z</time></trkpt>
      <trkpt lat="24.66646" lon="111.456724"><time>2026-08-23T07:15:18.502Z</time></trkpt>
      <trkpt lat="24.66646" lon="111.456724"><time>2026-08-23T07:15:18.519Z</time></trkpt>
      <trkpt lat="24.66646" lon="111.456724"><time>2026-08-23T07:15:18.536Z</time></trkpt>
      <trkpt lat="24.66646" lon="111.456724"><time>2026-08-23T07:15:18.553Z</time></trkpt>
      <trkpt lat="24.66646" lon="111.456724"><time>2026-08-23T07:15:18.569Z</time></trkpt>
      <trkpt lat="24.66646" lon="111.456724"><time>2026-08-23T07:15:18.586Z</time></trkpt>
      <trkpt lat="24.66646" lon="111.456724"><time>2026-08-23T07:15:18.603Z</time></trkpt>
      <trkpt lat="24.666456" lon="111.456727"><time>2026-08-23T07:15:18.619Z</time></trkpt>
      <trkpt lat="24.666456" lon="111.456727"><time>2026-08-23T07:15:18.636Z</time></trkpt>
      <trkpt lat="24.666456" lon="111.456727"><time>2026-08-23T07:15:18.653Z</time></trkpt>
      <trkpt lat="24.666456" lon="111.456727"><time>2026-08-23T07:15:18.669Z</time></trkpt>
      <trkpt lat="24.666456" lon="111.456727"><time>2026-08-23T07:15:18.686Z</time></trkpt>
      <trkpt lat="24.666451" lon="111.45673"><time>2026-08-23T07:15:18.703Z</time></trkpt>
      <trkpt lat="24.666451" lon="111.45673"><time>2026-08-23T07:15:18.719Z</time></trkpt>
      <trkpt lat="24.666451" lon="111.45673"><time>2026-08-23T07:15:18.736Z</time></trkpt>
      <trkpt lat="24.666451" lon="111.45673"><time>2026-08-23T07:15:18.753Z</time></trkpt>
      <trkpt lat="24.666451" lon="111.45673"><time>2026-08-23T07:15:18.769Z</time></trkpt>
      <trkpt lat="24.666451" lon="111.45673"><time>2026-08-23T07:15:18.786Z</time></trkpt>
      <trkpt lat="24.666447" lon="111.456733"><time>2026-08-23T07:15:18.803Z</time></trkpt>
      <trkpt lat="24.666447" lon="111.456733"><time>2026-08-23T07:15:18.819Z</time></trkpt>
      <trkpt lat="24.666447" lon="111.456733"><time>2026-08-23T07:15:18.836Z</time></trkpt>
      <trkpt lat="24.666447" lon="111.456733"><time>2026-08-23T07:15:18.853Z</time></trkpt>
      <trkpt lat="24.666447" lon="111.456733"><time>2026-08-23T07:15:18.870Z</time></trkpt>
      <trkpt lat="24.666447" lon="111.456733"><time>2026-08-23T07:15:18.886Z</time></trkpt>
      <trkpt lat="24.666442" lon="111.456736"><time>2026-08-23T07:15:18.903Z</time></trkpt>
      <trkpt lat="24.666442" lon="111.456736"><time>2026-08-23T07:15:18.920Z</time></trkpt>
      <trkpt lat="24.666442" lon="111.456736"><time>2026-08-23T07:15:18.936Z</time></trkpt>
      <trkpt lat="24.666442" lon="111.456736"><time>2026-08-23T07:15:18.953Z</time></trkpt>
      <trkpt lat="24.666442" lon="111.456736"><time>2026-08-23T07:15:18.970Z</time></trkpt>
      <trkpt lat="24.666442" lon="111.456736"><time>2026-08-23T07:15:18.986Z</time></trkpt>
      <trkpt lat="24.666437" lon="111.456739"><time>2026-08-23T07:15:19.003Z</time></trkpt>
      <trkpt lat="24.666437" lon="111.456739"><time>2026-08-23T07:15:19.020Z</time></trkpt>
      <trkpt lat="24.666437" lon="111.456739"><time>2026-08-23T07:15:19.036Z</time></trkpt>
      <trkpt lat="24.666437" lon="111.456739"><time>2026-08-23T07:15:19.053Z</time></trkpt>
      <trkpt lat="24.666437" lon="111.456739"><time>2026-08-23T07:15:19.070Z</time></trkpt>
      <trkpt lat="24.666437" lon="111.456739"><time>2026-08-23T07:15:19.086Z</time></trkpt>
      <trkpt lat="24.666432" lon="111.456742"><time>2026-08-23T07:15:19.103Z</time></trkpt>
      <trkpt lat="24.666432" lon="111.456742"><time>2026-08-23T07:15:19.120Z</time></trkpt>
      <trkpt lat="24.666432" lon="111.456742"><time>2026-08-23T07:15:19.136Z</time></trkpt>
      <trkpt lat="24.666432" lon="111.456742"><time>2026-08-23T07:15:19.153Z</time></trkpt>
      <trkpt lat="24.666432" lon="111.456742"><time>2026-08-23T07:15:19.170Z</time></trkpt>
      <trkpt lat="24.666432" lon="111.456742"><time>2026-08-23T07:15:19.187Z</time></trkpt>
      <trkpt lat="24.666428" lon="111.456746"><time>2026-08-23T07:15:19.203Z</time></trkpt>
      <trkpt lat="24.666428" lon="111.456746"><time>2026-08-23T07:15:19.220Z</time></trkpt>
      <trkpt lat="24.666428" lon="111.456746"><time>2026-08-23T07:15:19.237Z</time></trkpt>
      <trkpt lat="24.666428" lon="111.456746"><time>2026-08-23T07:15:19.253Z</time></trkpt>
      <trkpt lat="24.666428" lon="111.456746"><time>2026-08-23T07:15:19.270Z</time></trkpt>
      <trkpt lat="24.666428" lon="111.456746"><time>2026-08-23T07:15:19.287Z</time></trkpt>
      <trkpt lat="24.666423" lon="111.456749"><time>2026-08-23T07:15:19.303Z</time></trkpt>
      <trkpt lat="24.666423" lon="111.456749"><time>2026-08-23T07:15:19.320Z</time></trkpt>
      <trkpt lat="24.666423" lon="111.456749"><time>2026-08-23T07:15:19.337Z</time></trkpt>
      <trkpt lat="24.666423" lon="111.456749"><time>2026-08-23T07:15:19.353Z</time></trkpt>
      <trkpt lat="24.666423" lon="111.456749"><time>2026-08-23T07:15:19.370Z</time></trkpt>
      <trkpt lat="24.666423" lon="111.456749"><time>2026-08-23T07:15:19.387Z</time></trkpt>
      <trkpt lat="24.666417" lon="111.456753"><time>2026-08-23T07:15:19.403Z</time></trkpt>
      <trkpt lat="24.666417" lon="111.456753"><time>2026-08-23T07:15:19.420Z</time></trkpt>
      <trkpt lat="24.666417" lon="111.456753"><time>2026-08-23T07:15:19.437Z</time></trkpt>
      <trkpt lat="24.666417" lon="111.456753"><time>2026-08-23T07:15:19.453Z</time></trkpt>
      <trkpt lat="24.666417" lon="111.456753"><time>2026-08-23T07:15:19.470Z</time></trkpt>
      <trkpt lat="24.666417" lon="111.456753"><time>2026-08-23T07:15:19.487Z</time></trkpt>
      <trkpt lat="24.666412" lon="111.456756"><time>2026-08-23T07:15:19.504Z</time></trkpt>
      <trkpt lat="24.666412" lon="111.456756"><time>2026-08-23T07:15:19.520Z</time></trkpt>
      <trkpt lat="24.666412" lon="111.456756"><time>2026-08-23T07:15:19.537Z</time></trkpt>
      <trkpt lat="24.666412" lon="111.456756"><time>2026-08-23T07:15:19.554Z</time></trkpt>
      <trkpt lat="24.666412" lon="111.456756"><time>2026-08-23T07:15:19.570Z</time></trkpt>
      <trkpt lat="24.666412" lon="111.456756"><time>2026-08-23T07:15:19.587Z</time></trkpt>
      <trkpt lat="24.666407" lon="111.45676"><time>2026-08-23T07:15:19.604Z</time></trkpt>
      <trkpt lat="24.666407" lon="111.45676"><time>2026-08-23T07:15:19.620Z</time></trkpt>
      <trkpt lat="24.666407" lon="111.45676"><time>2026-08-23T07:15:19.637Z</time></trkpt>
      <trkpt lat="24.666407" lon="111.45676"><time>2026-08-23T07:15:19.654Z</time></trkpt>
      <trkpt lat="24.666407" lon="111.45676"><time>2026-08-23T07:15:19.670Z</time></trkpt>
      <trkpt lat="24.666407" lon="111.45676"><time>2026-08-23T07:15:19.687Z</time></trkpt>
      <trkpt lat="24.666402" lon="111.456763"><time>2026-08-23T07:15:19.704Z</time></trkpt>
      <trkpt lat="24.666402" lon="111.456763"><time>2026-08-23T07:15:19.720Z</time></trkpt>
      <trkpt lat="24.666402" lon="111.456763"><time>2026-08-23T07:15:19.737Z</time></trkpt>
      <trkpt lat="24.666402" lon="111.456763"><time>2026-08-23T07:15:19.754Z</time></trkpt>
      <trkpt lat="24.666402" lon="111.456763"><time>2026-08-23T07:15:19.770Z</time></trkpt>
      <trkpt lat="24.666402" lon="111.456763"><time>2026-08-23T07:15:19.787Z</time></trkpt>
      <trkpt lat="24.666396" lon="111.456767"><time>2026-08-23T07:15:19.804Z</time></trkpt>
      <trkpt lat="24.666396" lon="111.456767"><time>2026-08-23T07:15:19.821Z</time></trkpt>
      <trkpt lat="24.666396" lon="111.456767"><time>2026-08-23T07:15:19.837Z</time></trkpt>
      <trkpt lat="24.666396" lon="111.456767"><time>2026-08-23T07:15:19.854Z</time></trkpt>
      <trkpt lat="24.666396" lon="111.456767"><time>2026-08-23T07:15:19.871Z</time></trkpt>
      <trkpt lat="24.666396" lon="111.456767"><time>2026-08-23T07:15:19.887Z</time></trkpt>
      <trkpt lat="24.666391" lon="111.456771"><time>2026-08-23T07:15:19.904Z</time></trkpt>
      <trkpt lat="24.666391" lon="111.456771"><time>2026-08-23T07:15:19.921Z</time></trkpt>
      <trkpt lat="24.666391" lon="111.456771"><time>2026-08-23T07:15:19.937Z</time></trkpt>
      <trkpt lat="24.666391" lon="111.456771"><time>2026-08-23T07:15:19.954Z</time></trkpt>
      <trkpt lat="24.666391" lon="111.456771"><time>2026-08-23T07:15:19.971Z</time></trkpt>
      <trkpt lat="24.666391" lon="111.456771"><time>2026-08-23T07:15:19.987Z</time></trkpt>
      <trkpt lat="24.666385" lon="111.456775"><time>2026-08-23T07:15:20.004Z</time></trkpt>
      <trkpt lat="24.666385" lon="111.456775"><time>2026-08-23T07:15:20.021Z</time></trkpt>
      <trkpt lat="24.666385" lon="111.456775"><time>2026-08-23T07:15:20.037Z</time></trkpt>
      <trkpt lat="24.666385" lon="111.456775"><time>2026-08-23T07:15:20.054Z</time></trkpt>
      <trkpt lat="24.666385" lon="111.456775"><time>2026-08-23T07:15:20.071Z</time></trkpt>
      <trkpt lat="24.666385" lon="111.456775"><time>2026-08-23T07:15:20.087Z</time></trkpt>
      <trkpt lat="24.666379" lon="111.456778"><time>2026-08-23T07:15:20.104Z</time></trkpt>
      <trkpt lat="24.666379" lon="111.456778"><time>2026-08-23T07:15:20.121Z</time></trkpt>
      <trkpt lat="24.666379" lon="111.456778"><time>2026-08-23T07:15:20.138Z</time></trkpt>
      <trkpt lat="24.666379" lon="111.456778"><time>2026-08-23T07:15:20.154Z</time></trkpt>
      <trkpt lat="24.666379" lon="111.456778"><time>2026-08-23T07:15:20.171Z</time></trkpt>
      <trkpt lat="24.666379" lon="111.456778"><time>2026-08-23T07:15:20.188Z</time></trkpt>
      <trkpt lat="24.666374" lon="111.456782"><time>2026-08-23T07:15:20.204Z</time></trkpt>
      <trkpt lat="24.666374" lon="111.456782"><time>2026-08-23T07:15:20.221Z</time></trkpt>
      <trkpt lat="24.666374" lon="111.456782"><time>2026-08-23T07:15:20.238Z</time></trkpt>
      <trkpt lat="24.666374" lon="111.456782"><time>2026-08-23T07:15:20.254Z</time></trkpt>
      <trkpt lat="24.666374" lon="111.456782"><time>2026-08-23T07:15:20.271Z</time></trkpt>
      <trkpt lat="24.666374" lon="111.456782"><time>2026-08-23T07:15:20.288Z</time></trkpt>
      <trkpt lat="24.666368" lon="111.456786"><time>2026-08-23T07:15:20.304Z</time></trkpt>
      <trkpt lat="24.666368" lon="111.456786"><time>2026-08-23T07:15:20.321Z</time></trkpt>
      <trkpt lat="24.666368" lon="111.456786"><time>2026-08-23T07:15:20.338Z</time></trkpt>
      <trkpt lat="24.666368" lon="111.456786"><time>2026-08-23T07:15:20.354Z</time></trkpt>
      <trkpt lat="24.666368" lon="111.456786"><time>2026-08-23T07:15:20.371Z</time></trkpt>
      <trkpt lat="24.666368" lon="111.456786"><time>2026-08-23T07:15:20.388Z</time></trkpt>
      <trkpt lat="24.666362" lon="111.45679"><time>2026-08-23T07:15:20.404Z</time></trkpt>
      <trkpt lat="24.666362" lon="111.45679"><time>2026-08-23T07:15:20.421Z</time></trkpt>
      <trkpt lat="24.666362" lon="111.45679"><time>2026-08-23T07:15:20.438Z</time></trkpt>
      <trkpt lat="24.666362" lon="111.45679"><time>2026-08-23T07:15:20.455Z</time></trkpt>
      <trkpt lat="24.666362" lon="111.45679"><time>2026-08-23T07:15:20.471Z</time></trkpt>
      <trkpt lat="24.666362" lon="111.45679"><time>2026-08-23T07:15:20.488Z</time></trkpt>
      <trkpt lat="24.666356" lon="111.456794"><time>2026-08-23T07:15:20.505Z</time></trkpt>
      <trkpt lat="24.666356" lon="111.456794"><time>2026-08-23T07:15:20.521Z</time></trkpt>
      <trkpt lat="24.666356" lon="111.456794"><time>2026-08-23T07:15:20.538Z</time></trkpt>
      <trkpt lat="24.666356" lon="111.456794"><time>2026-08-23T07:15:20.555Z</time></trkpt>
      <trkpt lat="24.666356" lon="111.456794"><time>2026-08-23T07:15:20.571Z</time></trkpt>
      <trkpt lat="24.666356" lon="111.456794"><time>2026-08-23T07:15:20.588Z</time></trkpt>
      <trkpt lat="24.66635" lon="111.456799"><time>2026-08-23T07:15:20.605Z</time></trkpt>
      <trkpt lat="24.66635" lon="111.456799"><time>2026-08-23T07:15:20.621Z</time></trkpt>
      <trkpt lat="24.66635" lon="111.456799"><time>2026-08-23T07:15:20.638Z</time></trkpt>
      <trkpt lat="24.66635" lon="111.456799"><time>2026-08-23T07:15:20.655Z</time></trkpt>
      <trkpt lat="24.66635" lon="111.456799"><time>2026-08-23T07:15:20.671Z</time></trkpt>
      <trkpt lat="24.66635" lon="111.456799"><time>2026-08-23T07:15:20.688Z</time></trkpt>
      <trkpt lat="24.666344" lon="111.456803"><time>2026-08-23T07:15:20.705Z</time></trkpt>
      <trkpt lat="24.666344" lon="111.456803"><time>2026-08-23T07:15:20.721Z</time></trkpt>
      <trkpt lat="24.666344" lon="111.456803"><time>2026-08-23T07:15:20.738Z</time></trkpt>
      <trkpt lat="24.666344" lon="111.456803"><time>2026-08-23T07:15:20.755Z</time></trkpt>
      <trkpt lat="24.666344" lon="111.456803"><time>2026-08-23T07:15:20.772Z</time></trkpt>
      <trkpt lat="24.666344" lon="111.456803"><time>2026-08-23T07:15:20.788Z</time></trkpt>
      <trkpt lat="24.666338" lon="111.456807"><time>2026-08-23T07:15:20.805Z</time></trkpt>
      <trkpt lat="24.666338" lon="111.456807"><time>2026-08-23T07:15:20.822Z</time></trkpt>
      <trkpt lat="24.666338" lon="111.456807"><time>2026-08-23T07:15:20.838Z</time></trkpt>
      <trkpt lat="24.666338" lon="111.456807"><time>2026-08-23T07:15:20.855Z</time></trkpt>
      <trkpt lat="24.666338" lon="111.456807"><time>2026-08-23T07:15:20.872Z</time></trkpt>
      <trkpt lat="24.666338" lon="111.456807"><time>2026-08-23T07:15:20.888Z</time></trkpt>
      <trkpt lat="24.666332" lon="111.456811"><time>2026-08-23T07:15:20.905Z</time></trkpt>
      <trkpt lat="24.666332" lon="111.456811"><time>2026-08-23T07:15:20.922Z</time></trkpt>
      <trkpt lat="24.666332" lon="111.456811"><time>2026-08-23T07:15:20.938Z</time></trkpt>
      <trkpt lat="24.666332" lon="111.456811"><time>2026-08-23T07:15:20.955Z</time></trkpt>
      <trkpt lat="24.666332" lon="111.456811"><time>2026-08-23T07:15:20.972Z</time></trkpt>
      <trkpt lat="24.666332" lon="111.456811"><time>2026-08-23T07:15:20.988Z</time></trkpt>
      <trkpt lat="24.666326" lon="111.456815"><time>2026-08-23T07:15:21.005Z</time></trkpt>
      <trkpt lat="24.666326" lon="111.456815"><time>2026-08-23T07:15:21.022Z</time></trkpt>
      <trkpt lat="24.666326" lon="111.456815"><time>2026-08-23T07:15:21.038Z</time></trkpt>
      <trkpt lat="24.666326" lon="111.456815"><time>2026-08-23T07:15:21.055Z</time></trkpt>
      <trkpt lat="24.666326" lon="111.456815"><time>2026-08-23T07:15:21.072Z</time></trkpt>
      <trkpt lat="24.666326" lon="111.456815"><time>2026-08-23T07:15:21.089Z</time></trkpt>
      <trkpt lat="24.666319" lon="111.45682"><time>2026-08-23T07:15:21.105Z</time></trkpt>
      <trkpt lat="24.666319" lon="111.45682"><time>2026-08-23T07:15:21.122Z</time></trkpt>
      <trkpt lat="24.666319" lon="111.45682"><time>2026-08-23T07:15:21.139Z</time></trkpt>
      <trkpt lat="24.666319" lon="111.45682"><time>2026-08-23T07:15:21.155Z</time></trkpt>
      <trkpt lat="24.666319" lon="111.45682"><time>2026-08-23T07:15:21.172Z</time></trkpt>
      <trkpt lat="24.666319" lon="111.45682"><time>2026-08-23T07:15:21.189Z</time></trkpt>
      <trkpt lat="24.666313" lon="111.456824"><time>2026-08-23T07:15:21.205Z</time></trkpt>
      <trkpt lat="24.666313" lon="111.456824"><time>2026-08-23T07:15:21.222Z</time></trkpt>
      <trkpt lat="24.666313" lon="111.456824"><time>2026-08-23T07:15:21.239Z</time></trkpt>
      <trkpt lat="24.666313" lon="111.456824"><time>2026-08-23T07:15:21.255Z</time></trkpt>
      <trkpt lat="24.666313" lon="111.456824"><time>2026-08-23T07:15:21.272Z</time></trkpt>
      <trkpt lat="24.666313" lon="111.456824"><time>2026-08-23T07:15:21.289Z</time></trkpt>
      <trkpt lat="24.666307" lon="111.456829"><time>2026-08-23T07:15:21.305Z</time></trkpt>
      <trkpt lat="24.666307" lon="111.456829"><time>2026-08-23T07:15:21.322Z</time></trkpt>
      <trkpt lat="24.666307" lon="111.456829"><time>2026-08-23T07:15:21.339Z</time></trkpt>
      <trkpt lat="24.666307" lon="111.456829"><time>2026-08-23T07:15:21.355Z</time></trkpt>
      <trkpt lat="24.666307" lon="111.456829"><time>2026-08-23T07:15:21.372Z</time></trkpt>
      <trkpt lat="24.666307" lon="111.456829"><time>2026-08-23T07:15:21.389Z</time></trkpt>
      <trkpt lat="24.6663" lon="111.456833"><time>2026-08-23T07:15:21.406Z</time></trkpt>
      <trkpt lat="24.6663" lon="111.456833"><time>2026-08-23T07:15:21.422Z</time></trkpt>
      <trkpt lat="24.6663" lon="111.456833"><time>2026-08-23T07:15:21.439Z</time></trkpt>
      <trkpt lat="24.6663" lon="111.456833"><time>2026-08-23T07:15:21.456Z</time></trkpt>
      <trkpt lat="24.6663" lon="111.456833"><time>2026-08-23T07:15:21.472Z</time></trkpt>
      <trkpt lat="24.6663" lon="111.456833"><time>2026-08-23T07:15:21.489Z</time></trkpt>
      <trkpt lat="24.666294" lon="111.456838"><time>2026-08-23T07:15:21.506Z</time></trkpt>
      <trkpt lat="24.666294" lon="111.456838"><time>2026-08-23T07:15:21.522Z</time></trkpt>
      <trkpt lat="24.666294" lon="111.456838"><time>2026-08-23T07:15:21.539Z</time></trkpt>
      <trkpt lat="24.666294" lon="111.456838"><time>2026-08-23T07:15:21.556Z</time></trkpt>
      <trkpt lat="24.666294" lon="111.456838"><time>2026-08-23T07:15:21.572Z</time></trkpt>
      <trkpt lat="24.666294" lon="111.456838"><time>2026-08-23T07:15:21.589Z</time></trkpt>
      <trkpt lat="24.666287" lon="111.456842"><time>2026-08-23T07:15:21.606Z</time></trkpt>
      <trkpt lat="24.666287" lon="111.456842"><time>2026-08-23T07:15:21.622Z</time></trkpt>
      <trkpt lat="24.666287" lon="111.456842"><time>2026-08-23T07:15:21.639Z</time></trkpt>
      <trkpt lat="24.666287" lon="111.456842"><time>2026-08-23T07:15:21.656Z</time></trkpt>
      <trkpt lat="24.666287" lon="111.456842"><time>2026-08-23T07:15:21.672Z</time></trkpt>
      <trkpt lat="24.666287" lon="111.456842"><time>2026-08-23T07:15:21.689Z</time></trkpt>
      <trkpt lat="24.666281" lon="111.456847"><time>2026-08-23T07:15:21.706Z</time></trkpt>
      <trkpt lat="24.666281" lon="111.456847"><time>2026-08-23T07:15:21.723Z</time></trkpt>
      <trkpt lat="24.666281" lon="111.456847"><time>2026-08-23T07:15:21.739Z</time></trkpt>
      <trkpt lat="24.666281" lon="111.456847"><time>2026-08-23T07:15:21.756Z</time></trkpt>
      <trkpt lat="24.666281" lon="111.456847"><time>2026-08-23T07:15:21.773Z</time></trkpt>
      <trkpt lat="24.666281" lon="111.456847"><time>2026-08-23T07:15:21.789Z</time></trkpt>
      <trkpt lat="24.666275" lon="111.456851"><time>2026-08-23T07:15:21.806Z</time></trkpt>
      <trkpt lat="24.666275" lon="111.456851"><time>2026-08-23T07:15:21.823Z</time></trkpt>
      <trkpt lat="24.666275" lon="111.456851"><time>2026-08-23T07:15:21.839Z</time></trkpt>
      <trkpt lat="24.666275" lon="111.456851"><time>2026-08-23T07:15:21.856Z</time></trkpt>
      <trkpt lat="24.666275" lon="111.456851"><time>2026-08-23T07:15:21.873Z</time></trkpt>
      <trkpt lat="24.666275" lon="111.456851"><time>2026-08-23T07:15:21.889Z</time></trkpt>
      <trkpt lat="24.666268" lon="111.456856"><time>2026-08-23T07:15:21.906Z</time></trkpt>
      <trkpt lat="24.666268" lon="111.456856"><time>2026-08-23T07:15:21.923Z</time></trkpt>
      <trkpt lat="24.666268" lon="111.456856"><time>2026-08-23T07:15:21.939Z</time></trkpt>
      <trkpt lat="24.666268" lon="111.456856"><time>2026-08-23T07:15:21.956Z</time></trkpt>
      <trkpt lat="24.666268" lon="111.456856"><time>2026-08-23T07:15:21.973Z</time></trkpt>
      <trkpt lat="24.666268" lon="111.456856"><time>2026-08-23T07:15:21.989Z</time></trkpt>
      <trkpt lat="24.666262" lon="111.456861"><time>2026-08-23T07:15:22.006Z</time></trkpt>
      <trkpt lat="24.666262" lon="111.456861"><time>2026-08-23T07:15:22.023Z</time></trkpt>
      <trkpt lat="24.666262" lon="111.456861"><time>2026-08-23T07:15:22.040Z</time></trkpt>
      <trkpt lat="24.666262" lon="111.456861"><time>2026-08-23T07:15:22.056Z</time></trkpt>
      <trkpt lat="24.666262" lon="111.456861"><time>2026-08-23T07:15:22.073Z</time></trkpt>
      <trkpt lat="24.666262" lon="111.456861"><time>2026-08-23T07:15:22.090Z</time></trkpt>
      <trkpt lat="24.666255" lon="111.456865"><time>2026-08-23T07:15:22.106Z</time></trkpt>
      <trkpt lat="24.666255" lon="111.456865"><time>2026-08-23T07:15:22.123Z</time></trkpt>
      <trkpt lat="24.666255" lon="111.456865"><time>2026-08-23T07:15:22.140Z</time></trkpt>
      <trkpt lat="24.666255" lon="111.456865"><time>2026-08-23T07:15:22.156Z</time></trkpt>
      <trkpt lat="24.666255" lon="111.456865"><time>2026-08-23T07:15:22.173Z</time></trkpt>
      <trkpt lat="24.666255" lon="111.456865"><time>2026-08-23T07:15:22.190Z</time></trkpt>
      <trkpt lat="24.666249" lon="111.456869"><time>2026-08-23T07:15:22.206Z</time></trkpt>
      <trkpt lat="24.666249" lon="111.456869"><time>2026-08-23T07:15:22.223Z</time></trkpt>
      <trkpt lat="24.666249" lon="111.456869"><time>2026-08-23T07:15:22.240Z</time></trkpt>
      <trkpt lat="24.666249" lon="111.456869"><time>2026-08-23T07:15:22.256Z</time></trkpt>
      <trkpt lat="24.666249" lon="111.456869"><time>2026-08-23T07:15:22.273Z</time></trkpt>
      <trkpt lat="24.666249" lon="111.456869"><time>2026-08-23T07:15:22.290Z</time></trkpt>
      <trkpt lat="24.666244" lon="111.456873"><time>2026-08-23T07:15:22.306Z</time></trkpt>
      <trkpt lat="24.666244" lon="111.456873"><time>2026-08-23T07:15:22.323Z</time></trkpt>
      <trkpt lat="24.666244" lon="111.456873"><time>2026-08-23T07:15:22.340Z</time></trkpt>
      <trkpt lat="24.666244" lon="111.456873"><time>2026-08-23T07:15:22.357Z</time></trkpt>
      <trkpt lat="24.666244" lon="111.456873"><time>2026-08-23T07:15:22.373Z</time></trkpt>
      <trkpt lat="24.666244" lon="111.456873"><time>2026-08-23T07:15:22.390Z</time></trkpt>
      <trkpt lat="24.666239" lon="111.456877"><time>2026-08-23T07:15:22.407Z</time></trkpt>
      <trkpt lat="24.666239" lon="111.456877"><time>2026-08-23T07:15:22.423Z</time></trkpt>
      <trkpt lat="24.666239" lon="111.456877"><time>2026-08-23T07:15:22.440Z</time></trkpt>
      <trkpt lat="24.666239" lon="111.456877"><time>2026-08-23T07:15:22.457Z</time></trkpt>
      <trkpt lat="24.666239" lon="111.456877"><time>2026-08-23T07:15:22.473Z</time></trkpt>
      <trkpt lat="24.666239" lon="111.456877"><time>2026-08-23T07:15:22.490Z</time></trkpt>
      <trkpt lat="24.666234" lon="111.45688"><time>2026-08-23T07:15:22.507Z</time></trkpt>
      <trkpt lat="24.666234" lon="111.45688"><time>2026-08-23T07:15:22.523Z</time></trkpt>
      <trkpt lat="24.666234" lon="111.45688"><time>2026-08-23T07:15:22.540Z</time></trkpt>
      <trkpt lat="24.666234" lon="111.45688"><time>2026-08-23T07:15:22.557Z</time></trkpt>
      <trkpt lat="24.666234" lon="111.45688"><time>2026-08-23T07:15:22.573Z</time></trkpt>
      <trkpt lat="24.666234" lon="111.45688"><time>2026-08-23T07:15:22.590Z</time></trkpt>
      <trkpt lat="24.66623" lon="111.456883"><time>2026-08-23T07:15:22.607Z</time></trkpt>
      <trkpt lat="24.66623" lon="111.456883"><time>2026-08-23T07:15:22.623Z</time></trkpt>
      <trkpt lat="24.66623" lon="111.456883"><time>2026-08-23T07:15:22.640Z</time></trkpt>
      <trkpt lat="24.66623" lon="111.456883"><time>2026-08-23T07:15:22.657Z</time></trkpt>
      <trkpt lat="24.66623" lon="111.456883"><time>2026-08-23T07:15:22.674Z</time></trkpt>
      <trkpt lat="24.66623" lon="111.456883"><time>2026-08-23T07:15:22.690Z</time></trkpt>
      <trkpt lat="24.666226" lon="111.456885"><time>2026-08-23T07:15:22.707Z</time></trkpt>
      <trkpt lat="24.666226" lon="111.456885"><time>2026-08-23T07:15:22.724Z</time></trkpt>
      <trkpt lat="24.666226" lon="111.456885"><time>2026-08-23T07:15:22.740Z</time></trkpt>
      <trkpt lat="24.666226" lon="111.456885"><time>2026-08-23T07:15:22.757Z</time></trkpt>
      <trkpt lat="24.666226" lon="111.456885"><time>2026-08-23T07:15:22.774Z</time></trkpt>
      <trkpt lat="24.666226" lon="111.456885"><time>2026-08-23T07:15:22.790Z</time></trkpt>
      <trkpt lat="24.666223" lon="111.456887"><time>2026-08-23T07:15:22.807Z</time></trkpt>
      <trkpt lat="24.666223" lon="111.456887"><time>2026-08-23T07:15:22.824Z</time></trkpt>
      <trkpt lat="24.666223" lon="111.456887"><time>2026-08-23T07:15:22.840Z</time></trkpt>
      <trkpt lat="24.666223" lon="111.456887"><time>2026-08-23T07:15:22.857Z</time></trkpt>
      <trkpt lat="24.666223" lon="111.456887"><time>2026-08-23T07:15:22.874Z</time></trkpt>
      <trkpt lat="24.666223" lon="111.456887"><time>2026-08-23T07:15:22.890Z</time></trkpt>
      <trkpt lat="24.666221" lon="111.456889"><time>2026-08-23T07:15:22.907Z</time></trkpt>
      <trkpt lat="24.666221" lon="111.456889"><time>2026-08-23T07:15:22.924Z</time></trkpt>
      <trkpt lat="24.666221" lon="111.456889"><time>2026-08-23T07:15:22.940Z</time></trkpt>
      <trkpt lat="24.666221" lon="111.456889"><time>2026-08-23T07:15:22.957Z</time></trkpt>
      <trkpt lat="24.666221" lon="111.456889"><time>2026-08-23T07:15:22.974Z</time></trkpt>
      <trkpt lat="24.666221" lon="111.456889"><time>2026-08-23T07:15:22.991Z</time></trkpt>
      <trkpt lat="24.666219" lon="111.456891"><time>2026-08-23T07:15:23.007Z</time></trkpt>
      <trkpt lat="24.666219" lon="111.456891"><time>2026-08-23T07:15:23.024Z</time></trkpt>
      <trkpt lat="24.666219" lon="111.456891"><time>2026-08-23T07:15:23.041Z</time></trkpt>
      <trkpt lat="24.666219" lon="111.456891"><time>2026-08-23T07:15:23.057Z</time></trkpt>
      <trkpt lat="24.666219" lon="111.456891"><time>2026-08-23T07:15:23.074Z</time></trkpt>
      <trkpt lat="24.666219" lon="111.456891"><time>2026-08-23T07:15:23.091Z</time></trkpt>
      <trkpt lat="24.666218" lon="111.456892"><time>2026-08-23T07:15:23.107Z</time></trkpt>
      <trkpt lat="24.666218" lon="111.456892"><time>2026-08-23T07:15:23.124Z</time></trkpt>
      <trkpt lat="24.666218" lon="111.456892"><time>2026-08-23T07:15:23.141Z</time></trkpt>
      <trkpt lat="24.666218" lon="111.456892"><time>2026-08-23T07:15:23.157Z</time></trkpt>
      <trkpt lat="24.666218" lon="111.456892"><time>2026-08-23T07:15:23.174Z</time></trkpt>
      <trkpt lat="24.666218" lon="111.456892"><time>2026-08-23T07:15:23.191Z</time></trkpt>
      <trkpt lat="24.666216" lon="111.456893"><time>2026-08-23T07:15:23.207Z</time></trkpt>
      <trkpt lat="24.666216" lon="111.456893"><time>2026-08-23T07:15:23.224Z</time></trkpt>
      <trkpt lat="24.666216" lon="111.456893"><time>2026-08-23T07:15:23.241Z</time></trkpt>
      <trkpt lat="24.666216" lon="111.456893"><time>2026-08-23T07:15:23.257Z</time></trkpt>
      <trkpt lat="24.666216" lon="111.456893"><time>2026-08-23T07:15:23.274Z</time></trkpt>
      <trkpt lat="24.666216" lon="111.456893"><time>2026-08-23T07:15:23.291Z</time></trkpt>
      <trkpt lat="24.666216" lon="111.456893"><time>2026-08-23T07:15:23.307Z</time></trkpt>
      <trkpt lat="24.666216" lon="111.456893"><time>2026-08-23T07:15:23.324Z</time></trkpt>
      <trkpt lat="24.666216" lon="111.456893"><time>2026-08-23T07:15:23.341Z</time></trkpt>
      <trkpt lat="24.666216" lon="111.456893"><time>2026-08-23T07:15:23.358Z</time></trkpt>
      <trkpt lat="24.666216" lon="111.456893"><time>2026-08-23T07:15:23.374Z</time></trkpt>
      <trkpt lat="24.666216" lon="111.456893"><time>2026-08-23T07:15:23.391Z</time></trkpt>
      <trkpt lat="24.666216" lon="111.456894"><time>2026-08-23T07:15:23.408Z</time></trkpt>
      <trkpt lat="24.666216" lon="111.456894"><time>2026-08-23T07:15:23.424Z</time></trkpt>
      <trkpt lat="24.666216" lon="111.456894"><time>2026-08-23T07:15:23.441Z</time></trkpt>
      <trkpt lat="24.666216" lon="111.456894"><time>2026-08-23T07:15:23.458Z</time></trkpt>
      <trkpt lat="24.666216" lon="111.456894"><time>2026-08-23T07:15:23.474Z</time></trkpt>
      <trkpt lat="24.666216" lon="111.456894"><time>2026-08-23T07:15:23.491Z</time></trkpt>
      <trkpt lat="24.666215" lon="111.456894"><time>2026-08-23T07:15:23.508Z</time></trkpt>
      <trkpt lat="24.666215" lon="111.456894"><time>2026-08-23T07:15:23.524Z</time></trkpt>
      <trkpt lat="24.666215" lon="111.456894"><time>2026-08-23T07:15:23.541Z</time></trkpt>
      <trkpt lat="24.666215" lon="111.456894"><time>2026-08-23T07:15:23.558Z</time></trkpt>
      <trkpt lat="24.666215" lon="111.456894"><time>2026-08-23T07:15:23.574Z</time></trkpt>
      <trkpt lat="24.666215" lon="111.456894"><time>2026-08-23T07:15:23.591Z</time></trkpt>
      <trkpt lat="24.666215" lon="111.456894"><time>2026-08-23T07:15:23.608Z</time></trkpt>
      <trkpt lat="24.666215" lon="111.456894"><time>2026-08-23T07:15:23.624Z</time></trkpt>
      <trkpt lat="24.666215" lon="111.456894"><time>2026-08-23T07:15:23.641Z</time></trkpt>
      <trkpt lat="24.666215" lon="111.456894"><time>2026-08-23T07:15:23.658Z</time></trkpt>
    </trkseg>
  </trk>
</gpx>
