<?xml version="1.0" encoding="UTF-8"?>
<gpx version="1.1" creator="Kairos" xmlns="http://www.topografix.com/GPX/1/1">
  <trk>
    <name>sidecar-srt-723d269e6d753f3a</name>
    <trkseg>
      <trkpt lat="24.666445" lon="111.456655"><time>2026-08-23T07:13:12.000Z</time></trkpt>
      <trkpt lat="24.666445" lon="111.456655"><time>2026-08-23T07:13:12.016Z</time></trkpt>
      <trkpt lat="24.666445" lon="111.456655"><time>2026-08-23T07:13:12.032Z</time></trkpt>
      <trkpt lat="24.666445" lon="111.456655"><time>2026-08-23T07:13:12.049Z</time></trkpt>
      <trkpt lat="24.666445" lon="111.456655"><time>2026-08-23T07:13:12.066Z</time></trkpt>
      <trkpt lat="24.666445" lon="111.456655"><time>2026-08-23T07:13:12.082Z</time></trkpt>
      <trkpt lat="24.666444" lon="111.456653"><time>2026-08-23T07:13:12.099Z</time></trkpt>
      <trkpt lat="24.666444" lon="111.456653"><time>2026-08-23T07:13:12.116Z</time></trkpt>
      <trkpt lat="24.666444" lon="111.456653"><time>2026-08-23T07:13:12.132Z</time></trkpt>
      <trkpt lat="24.666444" lon="111.456653"><time>2026-08-23T07:13:12.149Z</time></trkpt>
      <trkpt lat="24.666444" lon="111.456653"><time>2026-08-23T07:13:12.166Z</time></trkpt>
      <trkpt lat="24.666444" lon="111.456653"><time>2026-08-23T07:13:12.182Z</time></trkpt>
      <trkpt lat="24.666444" lon="111.456652"><time>2026-08-23T07:13:12.199Z</time></trkpt>
      <trkpt lat="24.666444" lon="111.456652"><time>2026-08-23T07:13:12.216Z</time></trkpt>
      <trkpt lat="24.666444" lon="111.456652"><time>2026-08-23T07:13:12.232Z</time></trkpt>
      <trkpt lat="24.666444" lon="111.456652"><time>2026-08-23T07:13:12.249Z</time></trkpt>
      <trkpt lat="24.666444" lon="111.456652"><time>2026-08-23T07:13:12.266Z</time></trkpt>
      <trkpt lat="24.666444" lon="111.456652"><time>2026-08-23T07:13:12.282Z</time></trkpt>
      <trkpt lat="24.666443" lon="111.45665"><time>2026-08-23T07:13:12.299Z</time></trkpt>
      <trkpt lat="24.666443" lon="111.45665"><time>2026-08-23T07:13:12.316Z</time></trkpt>
      <trkpt lat="24.666443" lon="111.45665"><time>2026-08-23T07:13:12.333Z</time></trkpt>
      <trkpt lat="24.666443" lon="111.45665"><time>2026-08-23T07:13:12.349Z</time></trkpt>
      <trkpt lat="24.666443" lon="111.45665"><time>2026-08-23T07:13:12.366Z</time></trkpt>
      <trkpt lat="24.666443" lon="111.45665"><time>2026-08-23T07:13:12.383Z</time></trkpt>
      <trkpt lat="24.666443" lon="111.456649"><time>2026-08-23T07:13:12.399Z</time></trkpt>
      <trkpt lat="24.666443" lon="111.456649"><time>2026-08-23T07:13:12.416Z</time></trkpt>
      <trkpt lat="24.666443" lon="111.456649"><time>2026-08-23T07:13:12.433Z</time></trkpt>
      <trkpt lat="24.666443" lon="111.456649"><time>2026-08-23T07:13:12.449Z</time></trkpt>
      <trkpt lat="24.666443" lon="111.456649"><time>2026-08-23T07:13:12.466Z</time></trkpt>
      <trkpt lat="24.666443" lon="111.456649"><time>2026-08-23T07:13:12.483Z</time></trkpt>
      <trkpt lat="24.666443" lon="111.456647"><time>2026-08-23T07:13:12.499Z</time></trkpt>
      <trkpt lat="24.666443" lon="111.456647"><time>2026-08-23T07:13:12.516Z</time></trkpt>
      <trkpt lat="24.666443" lon="111.456647"><time>2026-08-23T07:13:12.533Z</time></trkpt>
      <trkpt lat="24.666443" lon="111.456647"><time>2026-08-23T07:13:12.549Z</time></trkpt>
      <trkpt lat="24.666443" lon="111.456647"><time>2026-08-23T07:13:12.566Z</time></trkpt>
      <trkpt lat="24.666443" lon="111.456647"><time>2026-08-23T07:13:12.583Z</time></trkpt>
      <trkpt lat="24.666442" lon="111.456645"><time>2026-08-23T07:13:12.599Z</time></trkpt>
      <trkpt lat="24.666442" lon="111.456645"><time>2026-08-23T07:13:12.616Z</time></trkpt>
      <trkpt lat="24.666442" lon="111.456645"><time>2026-08-23T07:13:12.633Z</time></trkpt>
      <trkpt lat="24.666442" lon="111.456645"><time>2026-08-23T07:13:12.650Z</time></trkpt>
      <trkpt lat="24.666442" lon="111.456645"><time>2026-08-23T07:13:12.666Z</time></trkpt>
      <trkpt lat="24.666442" lon="111.456645"><time>2026-08-23T07:13:12.683Z</time></trkpt>
      <trkpt lat="24.666442" lon="111.456643"><time>2026-08-23T07:13:12.700Z</time></trkpt>
      <trkpt lat="24.666442" lon="111.456643"><time>2026-08-23T07:13:12.716Z</time></trkpt>
      <trkpt lat="24.666442" lon="111.456643"><time>2026-08-23T07:13:12.733Z</time></trkpt>
      <trkpt lat="24.666442" lon="111.456643"><time>2026-08-23T07:13:12.750Z</time></trkpt>
      <trkpt lat="24.666442" lon="111.456643"><time>2026-08-23T07:13:12.766Z</time></trkpt>
      <trkpt lat="24.666442" lon="111.456643"><time>2026-08-23T07:13:12.783Z</time></trkpt>
      <trkpt lat="24.666441" lon="111.456642"><time>2026-08-23T07:13:12.800Z</time></trkpt>
      <trkpt lat="24.666441" lon="111.456642"><time>2026-08-23T07:13:12.816Z</time></trkpt>
      <trkpt lat="24.666441" lon="111.456642"><time>2026-08-23T07:13:12.833Z</time></trkpt>
      <trkpt lat="24.666441" lon="111.456642"><time>2026-08-23T07:13:12.850Z</time></trkpt>
      <trkpt lat="24.666441" lon="111.456642"><time>2026-08-23T07:13:12.866Z</time></trkpt>
      <trkpt lat="24.666441" lon="111.456642"><time>2026-08-23T07:13:12.883Z</time></trkpt>
      <trkpt lat="24.666441" lon="111.45664"><time>2026-08-23T07:13:12.900Z</time></trkpt>
      <trkpt lat="24.666441" lon="111.45664"><time>2026-08-23T07:13:12.916Z</time></trkpt>
      <trkpt lat="24.666441" lon="111.45664"><time>2026-08-23T07:13:12.933Z</time></trkpt>
      <trkpt lat="24.666441" lon="111.45664"><time>2026-08-23T07:13:12.950Z</time></trkpt>
      <trkpt lat="24.666441" lon="111.45664"><time>2026-08-23T07:13:12.967Z</time></trkpt>
      <trkpt lat="24.666441" lon="111.45664"><time>2026-08-23T07:13:12.983Z</time></trkpt>
      <trkpt lat="24.666441" lon="111.456638"><time>2026-08-23T07:13:13.000Z</time></trkpt>
      <trkpt lat="24.666441" lon="111.456638"><time>2026-08-23T07:13:13.017Z</time></trkpt>
      <trkpt lat="24.666441" lon="111.456638"><time>2026-08-23T07:13:13.033Z</time></trkpt>
      <trkpt lat="24.666441" lon="111.456638"><time>2026-08-23T07:13:13.050Z</time></trkpt>
      <trkpt lat="24.666441" lon="111.456638"><time>2026-08-23T07:13:13.067Z</time></trkpt>
      <trkpt lat="24.666441" lon="111.456638"><time>2026-08-23T07:13:13.083Z</time></trkpt>
      <trkpt lat="24.666441" lon="111.456637"><time>2026-08-23T07:13:13.100Z</time></trkpt>
      <trkpt lat="24.666441" lon="111.456637"><time>2026-08-23T07:13:13.117Z</time></trkpt>
      <trkpt lat="24.666441" lon="111.456637"><time>2026-08-23T07:13:13.133Z</time></trkpt>
      <trkpt lat="24.666441" lon="111.456637"><time>2026-08-23T07:13:13.150Z</time></trkpt>
      <trkpt lat="24.666441" lon="111.456637"><time>2026-08-23T07:13:13.167Z</time></trkpt>
      <trkpt lat="24.666441" lon="111.456637"><time>2026-08-23T07:13:13.183Z</time></trkpt>
      <trkpt lat="24.66644" lon="111.456635"><time>2026-08-23T07:13:13.200Z</time></trkpt>
      <trkpt lat="24.66644" lon="111.456635"><time>2026-08-23T07:13:13.217Z</time></trkpt>
      <trkpt lat="24.66644" lon="111.456635"><time>2026-08-23T07:13:13.233Z</time></trkpt>
      <trkpt lat="24.66644" lon="111.456635"><time>2026-08-23T07:13:13.250Z</time></trkpt>
      <trkpt lat="24.66644" lon="111.456635"><time>2026-08-23T07:13:13.267Z</time></trkpt>
      <trkpt lat="24.66644" lon="111.456635"><time>2026-08-23T07:13:13.284Z</time></trkpt>
      <trkpt lat="24.66644" lon="111.456634"><time>2026-08-23T07:13:13.300Z</time></trkpt>
      <trkpt lat="24.66644" lon="111.456634"><time>2026-08-23T07:13:13.317Z</time></trkpt>
      <trkpt lat="24.66644" lon="111.456634"><time>2026-08-23T07:13:13.334Z</time></trkpt>
      <trkpt lat="24.66644" lon="111.456634"><time>2026-08-23T07:13:13.350Z</time></trkpt>
      <trkpt lat="24.66644" lon="111.456634"><time>2026-08-23T07:13:13.367Z</time></trkpt>
      <trkpt lat="24.66644" lon="111.456634"><time>2026-08-23T07:13:13.384Z</time></trkpt>
      <trkpt lat="24.66644" lon="111.456632"><time>2026-08-23T07:13:13.400Z</time></trkpt>
      <trkpt lat="24.66644" lon="111.456632"><time>2026-08-23T07:13:13.417Z</time></trkpt>
      <trkpt lat="24.66644" lon="111.456632"><time>2026-08-23T07:13:13.434Z</time></trkpt>
      <trkpt lat="24.66644" lon="111.456632"><time>2026-08-23T07:13:13.450Z</time></trkpt>
      <trkpt lat="24.66644" lon="111.456632"><time>2026-08-23T07:13:13.467Z</time></trkpt>
      <trkpt lat="24.66644" lon="111.456632"><time>2026-08-23T07:13:13.484Z</time></trkpt>
      <trkpt lat="24.66644" lon="111.456631"><time>2026-08-23T07:13:13.500Z</time></trkpt>
      <trkpt lat="24.66644" lon="111.456631"><time>2026-08-23T07:13:13.517Z</time></trkpt>
      <trkpt lat="24.66644" lon="111.456631"><time>2026-08-23T07:13:13.534Z</time></trkpt>
      <trkpt lat="24.66644" lon="111.456631"><time>2026-08-23T07:13:13.550Z</time></trkpt>
      <trkpt lat="24.66644" lon="111.456631"><time>2026-08-23T07:13:13.567Z</time></trkpt>
      <trkpt lat="24.66644" lon="111.456631"><time>2026-08-23T07:13:13.584Z</time></trkpt>
      <trkpt lat="24.666439" lon="111.45663"><time>2026-08-23T07:13:13.601Z</time></trkpt>
      <trkpt lat="24.666439" lon="111.45663"><time>2026-08-23T07:13:13.617Z</time></trkpt>
      <trkpt lat="24.666439" lon="111.45663"><time>2026-08-23T07:13:13.634Z</time></trkpt>
      <trkpt lat="24.666439" lon="111.45663"><time>2026-08-23T07:13:13.651Z</time></trkpt>
      <trkpt lat="24.666439" lon="111.45663"><time>2026-08-23T07:13:13.667Z</time></trkpt>
      <trkpt lat="24.666439" lon="111.45663"><time>2026-08-23T07:13:13.684Z</time></trkpt>
      <trkpt lat="24.666439" lon="111.456629"><time>2026-08-23T07:13:13.701Z</time></trkpt>
      <trkpt lat="24.666439" lon="111.456629"><time>2026-08-23T07:13:13.717Z</time></trkpt>
      <trkpt lat="24.666439" lon="111.456629"><time>2026-08-23T07:13:13.734Z</time></trkpt>
      <trkpt lat="24.666439" lon="111.456629"><time>2026-08-23T07:13:13.751Z</time></trkpt>
      <trkpt lat="24.666439" lon="111.456629"><time>2026-08-23T07:13:13.767Z</time></trkpt>
      <trkpt lat="24.666439" lon="111.456629"><time>2026-08-23T07:13:13.784Z</time></trkpt>
      <trkpt lat="24.666439" lon="111.456627"><time>2026-08-23T07:13:13.801Z</time></trkpt>
      <trkpt lat="24.666439" lon="111.456627"><time>2026-08-23T07:13:13.817Z</time></trkpt>
      <trkpt lat="24.666439" lon="111.456627"><time>2026-08-23T07:13:13.834Z</time></trkpt>
      <trkpt lat="24.666439" lon="111.456627"><time>2026-08-23T07:13:13.851Z</time></trkpt>
      <trkpt lat="24.666439" lon="111.456627"><time>2026-08-23T07:13:13.867Z</time></trkpt>
      <trkpt lat="24.666439" lon="111.456627"><time>2026-08-23T07:13:13.884Z</time></trkpt>
      <trkpt lat="24.666438" lon="111.456626"><time>2026-08-23T07:13:13.901Z</time></trkpt>
      <trkpt lat="24.666438" lon="111.456626"><time>2026-08-23T07:13:13.917Z</time></trkpt>
      <trkpt lat="24.666438" lon="111.456626"><time>2026-08-23T07:13:13.934Z</time></trkpt>
      <trkpt lat="24.666438" lon="111.456626"><time>2026-08-23T07:13:13.951Z</time></trkpt>
      <trkpt lat="24.666438" lon="111.456626"><time>2026-08-23T07:13:13.968Z</time></trkpt>
      <trkpt lat="24.666438" lon="111.456626"><time>2026-08-23T07:13:13.984Z</time></trkpt>
      <trkpt lat="24.666438" lon="111.456625"><time>2026-08-23T07:13:14.001Z</time></trkpt>
      <trkpt lat="24.666438" lon="111.456625"><time>2026-08-23T07:13:14.018Z</time></trkpt>
      <trkpt lat="24.666438" lon="111.456625"><time>2026-08-23T07:13:14.034Z</time></trkpt>
      <trkpt lat="24.666438" lon="111.456625"><time>2026-08-23T07:13:14.051Z</time></trkpt>
      <trkpt lat="24.666438" lon="111.456625"><time>2026-08-23T07:13:14.068Z</time></trkpt>
      <trkpt lat="24.666438" lon="111.456625"><time>2026-08-23T07:13:14.084Z</time></trkpt>
      <trkpt lat="24.666437" lon="111.456623"><time>2026-08-23T07:13:14.101Z</time></trkpt>
      <trkpt lat="24.666437" lon="111.456623"><time>2026-08-23T07:13:14.118Z</time></trkpt>
      <trkpt lat="24.666437" lon="111.456623"><time>2026-08-23T07:13:14.134Z</time></trkpt>
      <trkpt lat="24.666437" lon="111.456623"><time>2026-08-23T07:13:14.151Z</time></trkpt>
      <trkpt lat="24.666437" lon="111.456623"><time>2026-08-23T07:13:14.168Z</time></trkpt>
      <trkpt lat="24.666437" lon="111.456623"><time>2026-08-23T07:13:14.184Z</time></trkpt>
      <trkpt lat="24.666437" lon="111.456622"><time>2026-08-23T07:13:14.201Z</time></trkpt>
      <trkpt lat="24.666437" lon="111.456622"><time>2026-08-23T07:13:14.218Z</time></trkpt>
      <trkpt lat="24.666437" lon="111.456622"><time>2026-08-23T07:13:14.234Z</time></trkpt>
      <trkpt lat="24.666437" lon="111.456622"><time>2026-08-23T07:13:14.251Z</time></trkpt>
      <trkpt lat="24.666437" lon="111.456622"><time>2026-08-23T07:13:14.268Z</time></trkpt>
      <trkpt lat="24.666437" lon="111.456622"><time>2026-08-23T07:13:14.285Z</time></trkpt>
      <trkpt lat="24.666437" lon="111.456621"><time>2026-08-23T07:13:14.301Z</time></trkpt>
      <trkpt lat="24.666437" lon="111.456621"><time>2026-08-23T07:13:14.318Z</time></trkpt>
      <trkpt lat="24.666437" lon="111.456621"><time>2026-08-23T07:13:14.335Z</time></trkpt>
      <trkpt lat="24.666437" lon="111.456621"><time>2026-08-23T07:13:14.351Z</time></trkpt>
      <trkpt lat="24.666437" lon="111.456621"><time>2026-08-23T07:13:14.368Z</time></trkpt>
      <trkpt lat="24.666437" lon="111.456621"><time>2026-08-23T07:13:14.385Z</time></trkpt>
      <trkpt lat="24.666437" lon="111.45662"><time>2026-08-23T07:13:14.401Z</time></trkpt>
      <trkpt lat="24.666437" lon="111.45662"><time>2026-08-23T07:13:14.418Z</time></trkpt>
      <trkpt lat="24.666437" lon="111.45662"><time>2026-08-23T07:13:14.435Z</time></trkpt>
      <trkpt lat="24.666437" lon="111.45662"><time>2026-08-23T07:13:14.451Z</time></trkpt>
      <trkpt lat="24.666437" lon="111.45662"><time>2026-08-23T07:13:14.468Z</time></trkpt>
      <trkpt lat="24.666437" lon="111.45662"><time>2026-08-23T07:13:14.485Z</time></trkpt>
      <trkpt lat="24.666437" lon="111.456618"><time>2026-08-23T07:13:14.501Z</time></trkpt>
      <trkpt lat="24.666437" lon="111.456618"><time>2026-08-23T07:13:14.518Z</time></trkpt>
      <trkpt lat="24.666437" lon="111.456618"><time>2026-08-23T07:13:14.535Z</time></trkpt>
      <trkpt lat="24.666437" lon="111.456618"><time>2026-08-23T07:13:14.551Z</time></trkpt>
      <trkpt lat="24.666437" lon="111.456618"><time>2026-08-23T07:13:14.568Z</time></trkpt>
      <trkpt lat="24.666437" lon="111.456618"><time>2026-08-23T07:13:14.585Z</time></trkpt>
      <trkpt lat="24.666437" lon="111.456617"><time>2026-08-23T07:13:14.602Z</time></trkpt>
      <trkpt lat="24.666437" lon="111.456617"><time>2026-08-23T07:13:14.618Z</time></trkpt>
      <trkpt lat="24.666437" lon="111.456617"><time>2026-08-23T07:13:14.635Z</time></trkpt>
      <trkpt lat="24.666437" lon="111.456617"><time>2026-08-23T07:13:14.652Z</time></trkpt>
      <trkpt lat="24.666437" lon="111.456617"><time>2026-08-23T07:13:14.668Z</time></trkpt>
      <trkpt lat="24.666437" lon="111.456617"><time>2026-08-23T07:13:14.685Z</time></trkpt>
      <trkpt lat="24.666437" lon="111.456616"><time>2026-08-23T07:13:14.702Z</time></trkpt>
      <trkpt lat="24.666437" lon="111.456616"><time>2026-08-23T07:13:14.718Z</time></trkpt>
      <trkpt lat="24.666437" lon="111.456616"><time>2026-08-23T07:13:14.735Z</time></trkpt>
      <trkpt lat="24.666437" lon="111.456616"><time>2026-08-23T07:13:14.752Z</time></trkpt>
      <trkpt lat="24.666437" lon="111.456616"><time>2026-08-23T07:13:14.768Z</time></trkpt>
      <trkpt lat="24.666437" lon="111.456616"><time>2026-08-23T07:13:14.785Z</time></trkpt>
      <trkpt lat="24.666438" lon="111.456614"><time>2026-08-23T07:13:14.802Z</time></trkpt>
      <trkpt lat="24.666438" lon="111.456614"><time>2026-08-23T07:13:14.818Z</time></trkpt>
      <trkpt lat="24.666438" lon="111.456614"><time>2026-08-23T07:13:14.835Z</time></trkpt>
      <trkpt lat="24.666438" lon="111.456614"><time>2026-08-23T07:13:14.852Z</time></trkpt>
      <trkpt lat="24.666438" lon="111.456614"><time>2026-08-23T07:13:14.868Z</time></trkpt>
      <trkpt lat="24.666438" lon="111.456614"><time>2026-08-23T07:13:14.885Z</time></trkpt>
      <trkpt lat="24.666438" lon="111.456613"><time>2026-08-23T07:13:14.902Z</time></trkpt>
      <trkpt lat="24.666438" lon="111.456613"><time>2026-08-23T07:13:14.919Z</time></trkpt>
      <trkpt lat="24.666438" lon="111.456613"><time>2026-08-23T07:13:14.935Z</time></trkpt>
      <trkpt lat="24.666438" lon="111.456613"><time>2026-08-23T07:13:14.952Z</time></trkpt>
      <trkpt lat="24.666438" lon="111.456613"><time>2026-08-23T07:13:14.969Z</time></trkpt>
      <trkpt lat="24.666438" lon="111.456613"><time>2026-08-23T07:13:14.985Z</time></trkpt>
      <trkpt lat="24.666438" lon="111.456612"><time>2026-08-23T07:13:15.002Z</time></trkpt>
      <trkpt lat="24.666438" lon="111.456612"><time>2026-08-23T07:13:15.019Z</time></trkpt>
      <trkpt lat="24.666438" lon="111.456612"><time>2026-08-23T07:13:15.035Z</time></trkpt>
      <trkpt lat="24.666438" lon="111.456612"><time>2026-08-23T07:13:15.052Z</time></trkpt>
      <trkpt lat="24.666438" lon="111.456612"><time>2026-08-23T07:13:15.069Z</time></trkpt>
      <trkpt lat="24.666438" lon="111.456612"><time>2026-08-23T07:13:15.085Z</time></trkpt>
      <trkpt lat="24.666439" lon="111.45661"><time>2026-08-23T07:13:15.102Z</time></trkpt>
      <trkpt lat="24.666439" lon="111.45661"><time>2026-08-23T07:13:15.119Z</time></trkpt>
      <trkpt lat="24.666439" lon="111.45661"><time>2026-08-23T07:13:15.135Z</time></trkpt>
      <trkpt lat="24.666439" lon="111.45661"><time>2026-08-23T07:13:15.152Z</time></trkpt>
      <trkpt lat="24.666439" lon="111.45661"><time>2026-08-23T07:13:15.169Z</time></trkpt>
      <trkpt lat="24.666439" lon="111.45661"><time>2026-08-23T07:13:15.185Z</time></trkpt>
      <trkpt lat="24.66644" lon="111.456609"><time>2026-08-23T07:13:15.202Z</time></trkpt>
      <trkpt lat="24.66644" lon="111.456609"><time>2026-08-23T07:13:15.219Z</time></trkpt>
      <trkpt lat="24.66644" lon="111.456609"><time>2026-08-23T07:13:15.236Z</time></trkpt>
      <trkpt lat="24.66644" lon="111.456609"><time>2026-08-23T07:13:15.252Z</time></trkpt>
      <trkpt lat="24.66644" lon="111.456609"><time>2026-08-23T07:13:15.269Z</time></trkpt>
      <trkpt lat="24.66644" lon="111.456609"><time>2026-08-23T07:13:15.286Z</time></trkpt>
      <trkpt lat="24.666441" lon="111.456608"><time>2026-08-23T07:13:15.302Z</time></trkpt>
      <trkpt lat="24.666441" lon="111.456608"><time>2026-08-23T07:13:15.319Z</time></trkpt>
      <trkpt lat="24.666441" lon="111.456608"><time>2026-08-23T07:13:15.336Z</time></trkpt>
      <trkpt lat="24.666441" lon="111.456608"><time>2026-08-23T07:13:15.352Z</time></trkpt>
      <trkpt lat="24.666441" lon="111.456608"><time>2026-08-23T07:13:15.369Z</time></trkpt>
      <trkpt lat="24.666441" lon="111.456608"><time>2026-08-23T07:13:15.386Z</time></trkpt>
      <trkpt lat="24.666442" lon="111.456606"><time>2026-08-23T07:13:15.402Z</time></trkpt>
      <trkpt lat="24.666442" lon="111.456606"><time>2026-08-23T07:13:15.419Z</time></trkpt>
      <trkpt lat="24.666442" lon="111.456606"><time>2026-08-23T07:13:15.436Z</time></trkpt>
      <trkpt lat="24.666442" lon="111.456606"><time>2026-08-23T07:13:15.452Z</time></trkpt>
      <trkpt lat="24.666442" lon="111.456606"><time>2026-08-23T07:13:15.469Z</time></trkpt>
      <trkpt lat="24.666442" lon="111.456606"><time>2026-08-23T07:13:15.486Z</time></trkpt>
      <trkpt lat="24.666443" lon="111.456605"><time>2026-08-23T07:13:15.502Z</time></trkpt>
      <trkpt lat="24.666443" lon="111.456605"><time>2026-08-23T07:13:15.519Z</time></trkpt>
      <trkpt lat="24.666443" lon="111.456605"><time>2026-08-23T07:13:15.536Z</time></trkpt>
      <trkpt lat="24.666443" lon="111.456605"><time>2026-08-23T07:13:15.553Z</time></trkpt>
      <trkpt lat="24.666443" lon="111.456605"><time>2026-08-23T07:13:15.569Z</time></trkpt>
      <trkpt lat="24.666443" lon="111.456605"><time>2026-08-23T07:13:15.586Z</time></trkpt>
      <trkpt lat="24.666445" lon="111.456604"><time>2026-08-23T07:13:15.603Z</time></trkpt>
      <trkpt lat="24.666445" lon="111.456604"><time>2026-08-23T07:13:15.619Z</time></trkpt>
      <trkpt lat="24.666445" lon="111.456604"><time>2026-08-23T07:13:15.636Z</time></trkpt>
      <trkpt lat="24.666445" lon="111.456604"><time>2026-08-23T07:13:15.653Z</time></trkpt>
      <trkpt lat="24.666445" lon="111.456604"><time>2026-08-23T07:13:15.669Z</time></trkpt>
      <trkpt lat="24.666445" lon="111.456604"><time>2026-08-23T07:13:15.686Z</time></trkpt>
      <trkpt lat="24.666446" lon="111.456603"><time>2026-08-23T07:13:15.703Z</time></trkpt>
      <trkpt lat="24.666446" lon="111.456603"><time>2026-08-23T07:13:15.719Z</time></trkpt>
      <trkpt lat="24.666446" lon="111.456603"><time>2026-08-23T07:13:15.736Z</time></trkpt>
      <trkpt lat="24.666446" lon="111.456603"><time>2026-08-23T07:13:15.753Z</time></trkpt>
      <trkpt lat="24.666446" lon="111.456603"><time>2026-08-23T07:13:15.769Z</time></trkpt>
      <trkpt lat="24.666446" lon="111.456603"><time>2026-08-23T07:13:15.786Z</time></trkpt>
      <trkpt lat="24.666448" lon="111.456603"><time>2026-08-23T07:13:15.803Z</time></trkpt>
      <trkpt lat="24.666448" lon="111.456603"><time>2026-08-23T07:13:15.819Z</time></trkpt>
      <trkpt lat="24.666448" lon="111.456603"><time>2026-08-23T07:13:15.836Z</time></trkpt>
      <trkpt lat="24.666448" lon="111.456603"><time>2026-08-23T07:13:15.853Z</time></trkpt>
      <trkpt lat="24.666448" lon="111.456603"><time>2026-08-23T07:13:15.870Z</time></trkpt>
      <trkpt lat="24.666448" lon="111.456603"><time>2026-08-23T07:13:15.886Z</time></trkpt>
      <trkpt lat="24.66645" lon="111.456602"><time>2026-08-23T07:13:15.903Z</time></trkpt>
      <trkpt lat="24.66645" lon="111.456602"><time>2026-08-23T07:13:15.920Z</time></trkpt>
      <trkpt lat="24.66645" lon="111.456602"><time>2026-08-23T07:13:15.936Z</time></trkpt>
      <trkpt lat="24.66645" lon="111.456602"><time>2026-08-23T07:13:15.953Z</time></trkpt>
      <trkpt lat="24.66645" lon="111.456602"><time>2026-08-23T07:13:15.970Z</time></trkpt>
      <trkpt lat="24.66645" lon="111.456602"><time>2026-08-23T07:13:15.986Z</time></trkpt>
      <trkpt lat="24.666452" lon="111.456601"><time>2026-08-23T07:13:16.003Z</time></trkpt>
      <trkpt lat="24.666452" lon="111.456601"><time>2026-08-23T07:13:16.020Z</time></trkpt>
      <trkpt lat="24.666452" lon="111.456601"><time>2026-08-23T07:13:16.036Z</time></trkpt>
      <trkpt lat="24.666452" lon="111.456601"><time>2026-08-23T07:13:16.053Z</time></trkpt>
      <trkpt lat="24.666452" lon="111.456601"><time>2026-08-23T07:13:16.070Z</time></trkpt>
      <trkpt lat="24.666452" lon="111.456601"><time>2026-08-23T07:13:16.086Z</time></trkpt>
      <trkpt lat="24.666455" lon="111.456601"><time>2026-08-23T07:13:16.103Z</time></trkpt>
      <trkpt lat="24.666455" lon="111.456601"><time>2026-08-23T07:13:16.120Z</time></trkpt>
      <trkpt lat="24.666455" lon="111.456601"><time>2026-08-23T07:13:16.136Z</time></trkpt>
      <trkpt lat="24.666455" lon="111.456601"><time>2026-08-23T07:13:16.153Z</time></trkpt>
      <trkpt lat="24.666455" lon="111.456601"><time>2026-08-23T07:13:16.170Z</time></trkpt>
      <trkpt lat="24.666455" lon="111.456601"><time>2026-08-23T07:13:16.187Z</time></trkpt>
      <trkpt lat="24.666457" lon="111.4566"><time>2026-08-23T07:13:16.203Z</time></trkpt>
      <trkpt lat="24.666457" lon="111.4566"><time>2026-08-23T07:13:16.220Z</time></trkpt>
      <trkpt lat="24.666457" lon="111.4566"><time>2026-08-23T07:13:16.237Z</time></trkpt>
      <trkpt lat="24.666457" lon="111.4566"><time>2026-08-23T07:13:16.253Z</time></trkpt>
      <trkpt lat="24.666457" lon="111.4566"><time>2026-08-23T07:13:16.270Z</time></trkpt>
      <trkpt lat="24.666457" lon="111.4566"><time>2026-08-23T07:13:16.287Z</time></trkpt>
      <trkpt lat="24.666459" lon="111.4566"><time>2026-08-23T07:13:16.303Z</time></trkpt>
      <trkpt lat="24.666459" lon="111.4566"><time>2026-08-23T07:13:16.320Z</time></trkpt>
      <trkpt lat="24.666459" lon="111.4566"><time>2026-08-23T07:13:16.337Z</time></trkpt>
      <trkpt lat="24.666459" lon="111.4566"><time>2026-08-23T07:13:16.353Z</time></trkpt>
      <trkpt lat="24.666459" lon="111.4566"><time>2026-08-23T07:13:16.370Z</time></trkpt>
      <trkpt lat="24.666459" lon="111.4566"><time>2026-08-23T07:13:16.387Z</time></trkpt>
      <trkpt lat="24.666462" lon="111.4566"><time>2026-08-23T07:13:16.403Z</time></trkpt>
      <trkpt lat="24.666462" lon="111.4566"><time>2026-08-23T07:13:16.420Z</time></trkpt>
      <trkpt lat="24.666462" lon="111.4566"><time>2026-08-23T07:13:16.437Z</time></trkpt>
      <trkpt lat="24.666462" lon="111.4566"><time>2026-08-23T07:13:16.453Z</time></trkpt>
      <trkpt lat="24.666462" lon="111.4566"><time>2026-08-23T07:13:16.470Z</time></trkpt>
      <trkpt lat="24.666462" lon="111.4566"><time>2026-08-23T07:13:16.487Z</time></trkpt>
      <trkpt lat="24.666464" lon="111.456599"><time>2026-08-23T07:13:16.504Z</time></trkpt>
      <trkpt lat="24.666464" lon="111.456599"><time>2026-08-23T07:13:16.520Z</time></trkpt>
      <trkpt lat="24.666464" lon="111.456599"><time>2026-08-23T07:13:16.537Z</time></trkpt>
      <trkpt lat="24.666464" lon="111.456599"><time>2026-08-23T07:13:16.554Z</time></trkpt>
      <trkpt lat="24.666464" lon="111.456599"><time>2026-08-23T07:13:16.570Z</time></trkpt>
      <trkpt lat="24.666464" lon="111.456599"><time>2026-08-23T07:13:16.587Z</time></trkpt>
      <trkpt lat="24.666466" lon="111.456599"><time>2026-08-23T07:13:16.604Z</time></trkpt>
      <trkpt lat="24.666466" lon="111.456599"><time>2026-08-23T07:13:16.620Z</time></trkpt>
      <trkpt lat="24.666466" lon="111.456599"><time>2026-08-23T07:13:16.637Z</time></trkpt>
      <trkpt lat="24.666466" lon="111.456599"><time>2026-08-23T07:13:16.654Z</time></trkpt>
      <trkpt lat="24.666466" lon="111.456599"><time>2026-08-23T07:13:16.670Z</time></trkpt>
      <trkpt lat="24.666466" lon="111.456599"><time>2026-08-23T07:13:16.687Z</time></trkpt>
      <trkpt lat="24.666469" lon="111.456599"><time>2026-08-23T07:13:16.704Z</time></trkpt>
      <trkpt lat="24.666469" lon="111.456599"><time>2026-08-23T07:13:16.720Z</time></trkpt>
      <trkpt lat="24.666469" lon="111.456599"><time>2026-08-23T07:13:16.737Z</time></trkpt>
      <trkpt lat="24.666469" lon="111.456599"><time>2026-08-23T07:13:16.754Z</time></trkpt>
      <trkpt lat="24.666469" lon="111.456599"><time>2026-08-23T07:13:16.770Z</time></trkpt>
      <trkpt lat="24.666469" lon="111.456599"><time>2026-08-23T07:13:16.787Z</time></trkpt>
      <trkpt lat="24.666471" lon="111.456599"><time>2026-08-23T07:13:16.804Z</time></trkpt>
      <trkpt lat="24.666471" lon="111.456599"><time>2026-08-23T07:13:16.821Z</time></trkpt>
      <trkpt lat="24.666471" lon="111.456599"><time>2026-08-23T07:13:16.837Z</time></trkpt>
      <trkpt lat="24.666471" lon="111.456599"><time>2026-08-23T07:13:16.854Z</time></trkpt>
      <trkpt lat="24.666471" lon="111.456599"><time>2026-08-23T07:13:16.871Z</time></trkpt>
      <trkpt lat="24.666471" lon="111.456599"><time>2026-08-23T07:13:16.887Z</time></trkpt>
      <trkpt lat="24.666473" lon="111.456598"><time>2026-08-23T07:13:16.904Z</time></trkpt>
      <trkpt lat="24.666473" lon="111.456598"><time>2026-08-23T07:13:16.921Z</time></trkpt>
      <trkpt lat="24.666473" lon="111.456598"><time>2026-08-23T07:13:16.937Z</time></trkpt>
      <trkpt lat="24.666473" lon="111.456598"><time>2026-08-23T07:13:16.954Z</time></trkpt>
      <trkpt lat="24.666473" lon="111.456598"><time>2026-08-23T07:13:16.971Z</time></trkpt>
      <trkpt lat="24.666473" lon="111.456598"><time>2026-08-23T07:13:16.987Z</time></trkpt>
      <trkpt lat="24.666475" lon="111.456598"><time>2026-08-23T07:13:17.004Z</time></trkpt>
      <trkpt lat="24.666475" lon="111.456598"><time>2026-08-23T07:13:17.021Z</time></trkpt>
      <trkpt lat="24.666475" lon="111.456598"><time>2026-08-23T07:13:17.037Z</time></trkpt>
      <trkpt lat="24.666475" lon="111.456598"><time>2026-08-23T07:13:17.054Z</time></trkpt>
      <trkpt lat="24.666475" lon="111.456598"><time>2026-08-23T07:13:17.071Z</time></trkpt>
      <trkpt lat="24.666475" lon="111.456598"><time>2026-08-23T07:13:17.087Z</time></trkpt>
      <trkpt lat="24.666477" lon="111.456598"><time>2026-08-23T07:13:17.104Z</time></trkpt>
      <trkpt lat="24.666477" lon="111.456598"><time>2026-08-23T07:13:17.121Z</time></trkpt>
      <trkpt lat="24.666477" lon="111.456598"><time>2026-08-23T07:13:17.138Z</time></trkpt>
      <trkpt lat="24.666477" lon="111.456598"><time>2026-08-23T07:13:17.154Z</time></trkpt>
      <trkpt lat="24.666477" lon="111.456598"><time>2026-08-23T07:13:17.171Z</time></trkpt>
      <trkpt lat="24.666477" lon="111.456598"><time>2026-08-23T07:13:17.188Z</time></trkpt>
      <trkpt lat="24.666479" lon="111.456597"><time>2026-08-23T07:13:17.204Z</time></trkpt>
      <trkpt lat="24.666479" lon="111.456597"><time>2026-08-23T07:13:17.221Z</time></trkpt>
      <trkpt lat="24.666479" lon="111.456597"><time>2026-08-23T07:13:17.238Z</time></trkpt>
      <trkpt lat="24.666479" lon="111.456597"><time>2026-08-23T07:13:17.254Z</time></trkpt>
      <trkpt lat="24.666479" lon="111.456597"><time>2026-08-23T07:13:17.271Z</time></trkpt>
      <trkpt lat="24.666479" lon="111.456597"><time>2026-08-23T07:13:17.288Z</time></trkpt>
      <trkpt lat="24.666481" lon="111.456597"><time>2026-08-23T07:13:17.304Z</time></trkpt>
      <trkpt lat="24.666481" lon="111.456597"><time>2026-08-23T07:13:17.321Z</time></trkpt>
      <trkpt lat="24.666481" lon="111.456597"><time>2026-08-23T07:13:17.338Z</time></trkpt>
      <trkpt lat="24.666481" lon="111.456597"><time>2026-08-23T07:13:17.354Z</time></trkpt>
      <trkpt lat="24.666481" lon="111.456597"><time>2026-08-23T07:13:17.371Z</time></trkpt>
      <trkpt lat="24.666481" lon="111.456597"><time>2026-08-23T07:13:17.388Z</time></trkpt>
      <trkpt lat="24.666482" lon="111.456596"><time>2026-08-23T07:13:17.404Z</time></trkpt>
      <trkpt lat="24.666482" lon="111.456596"><time>2026-08-23T07:13:17.421Z</time></trkpt>
      <trkpt lat="24.666482" lon="111.456596"><time>2026-08-23T07:13:17.438Z</time></trkpt>
      <trkpt lat="24.666482" lon="111.456596"><time>2026-08-23T07:13:17.455Z</time></trkpt>
      <trkpt lat="24.666482" lon="111.456596"><time>2026-08-23T07:13:17.471Z</time></trkpt>
      <trkpt lat="24.666482" lon="111.456596"><time>2026-08-23T07:13:17.488Z</time></trkpt>
      <trkpt lat="24.666483" lon="111.456596"><time>2026-08-23T07:13:17.505Z</time></trkpt>
      <trkpt lat="24.666483" lon="111.456596"><time>2026-08-23T07:13:17.521Z</time></trkpt>
      <trkpt lat="24.666483" lon="111.456596"><time>2026-08-23T07:13:17.538Z</time></trkpt>
      <trkpt lat="24.666483" lon="111.456596"><time>2026-08-23T07:13:17.555Z</time></trkpt>
      <trkpt lat="24.666483" lon="111.456596"><time>2026-08-23T07:13:17.571Z</time></trkpt>
      <trkpt lat="24.666483" lon="111.456596"><time>2026-08-23T07:13:17.588Z</time></trkpt>
      <trkpt lat="24.666484" lon="111.456595"><time>2026-08-23T07:13:17.605Z</time></trkpt>
      <trkpt lat="24.666484" lon="111.456595"><time>2026-08-23T07:13:17.621Z</time></trkpt>
      <trkpt lat="24.666484" lon="111.456595"><time>2026-08-23T07:13:17.638Z</time></trkpt>
      <trkpt lat="24.666484" lon="111.456595"><time>2026-08-23T07:13:17.655Z</time></trkpt>
      <trkpt lat="24.666484" lon="111.456595"><time>2026-08-23T07:13:17.671Z</time></trkpt>
      <trkpt lat="24.666484" lon="111.456595"><time>2026-08-23T07:13:17.688Z</time></trkpt>
      <trkpt lat="24.666486" lon="111.456594"><time>2026-08-23T07:13:17.705Z</time></trkpt>
      <trkpt lat="24.666486" lon="111.456594"><time>2026-08-23T07:13:17.721Z</time></trkpt>
      <trkpt lat="24.666486" lon="111.456594"><time>2026-08-23T07:13:17.738Z</time></trkpt>
      <trkpt lat="24.666486" lon="111.456594"><time>2026-08-23T07:13:17.755Z</time></trkpt>
      <trkpt lat="24.666486" lon="111.456594"><time>2026-08-23T07:13:17.772Z</time></trkpt>
      <trkpt lat="24.666486" lon="111.456594"><time>2026-08-23T07:13:17.788Z</time></trkpt>
      <trkpt lat="24.666487" lon="111.456594"><time>2026-08-23T07:13:17.805Z</time></trkpt>
      <trkpt lat="24.666487" lon="111.456594"><time>2026-08-23T07:13:17.822Z</time></trkpt>
      <trkpt lat="24.666487" lon="111.456594"><time>2026-08-23T07:13:17.838Z</time></trkpt>
      <trkpt lat="24.666487" lon="111.456594"><time>2026-08-23T07:13:17.855Z</time></trkpt>
      <trkpt lat="24.666487" lon="111.456594"><time>2026-08-23T07:13:17.872Z</time></trkpt>
      <trkpt lat="24.666487" lon="111.456594"><time>2026-08-23T07:13:17.888Z</time></trkpt>
      <trkpt lat="24.666488" lon="111.456593"><time>2026-08-23T07:13:17.905Z</time></trkpt>
      <trkpt lat="24.666488" lon="111.456593"><time>2026-08-23T07:13:17.922Z</time></trkpt>
      <trkpt lat="24.666488" lon="111.456593"><time>2026-08-23T07:13:17.938Z</time></trkpt>
      <trkpt lat="24.666488" lon="111.456593"><time>2026-08-23T07:13:17.955Z</time></trkpt>
      <trkpt lat="24.666488" lon="111.456593"><time>2026-08-23T07:13:17.972Z</time></trkpt>
      <trkpt lat="24.666488" lon="111.456593"><time>2026-08-23T07:13:17.988Z</time></trkpt>
      <trkpt lat="24.666489" lon="111.456593"><time>2026-08-23T07:13:18.005Z</time></trkpt>
      <trkpt lat="24.666489" lon="111.456593"><time>2026-08-23T07:13:18.022Z</time></trkpt>
      <trkpt lat="24.666489" lon="111.456593"><time>2026-08-23T07:13:18.038Z</time></trkpt>
      <trkpt lat="24.666489" lon="111.456593"><time>2026-08-23T07:13:18.055Z</time></trkpt>
      <trkpt lat="24.666489" lon="111.456593"><time>2026-08-23T07:13:18.072Z</time></trkpt>
      <trkpt lat="24.666489" lon="111.456593"><time>2026-08-23T07:13:18.089Z</time></trkpt>
      <trkpt lat="24.666491" lon="111.456593"><time>2026-08-23T07:13:18.105Z</time></trkpt>
      <trkpt lat="24.666491" lon="111.456593"><time>2026-08-23T07:13:18.122Z</time></trkpt>
      <trkpt lat="24.666491" lon="111.456593"><time>2026-08-23T07:13:18.139Z</time></trkpt>
      <trkpt lat="24.666491" lon="111.456593"><time>2026-08-23T07:13:18.155Z</time></trkpt>
      <trkpt lat="24.666491" lon="111.456593"><time>2026-08-23T07:13:18.172Z</time></trkpt>
      <trkpt lat="24.666491" lon="111.456593"><time>2026-08-23T07:13:18.189Z</time></trkpt>
      <trkpt lat="24.666493" lon="111.456593"><time>2026-08-23T07:13:18.205Z</time></trkpt>
      <trkpt lat="24.666493" lon="111.456593"><time>2026-08-23T07:13:18.222Z</time></trkpt>
      <trkpt lat="24.666493" lon="111.456593"><time>2026-08-23T07:13:18.239Z</time></trkpt>
      <trkpt lat="24.666493" lon="111.456593"><time>2026-08-23T07:13:18.255Z</time></trkpt>
      <trkpt lat="24.666493" lon="111.456593"><time>2026-08-23T07:13:18.272Z</time></trkpt>
      <trkpt lat="24.666493" lon="111.456593"><time>2026-08-23T07:13:18.289Z</time></trkpt>
      <trkpt lat="24.666495" lon="111.456594"><time>2026-08-23T07:13:18.305Z</time></trkpt>
      <trkpt lat="24.666495" lon="111.456594"><time>2026-08-23T07:13:18.322Z</time></trkpt>
      <trkpt lat="24.666495" lon="111.456594"><time>2026-08-23T07:13:18.339Z</time></trkpt>
      <trkpt lat="24.666495" lon="111.456594"><time>2026-08-23T07:13:18.355Z</time></trkpt>
      <trkpt lat="24.666495" lon="111.456594"><time>2026-08-23T07:13:18.372Z</time></trkpt>
      <trkpt lat="24.666495" lon="111.456594"><time>2026-08-23T07:13:18.389Z</time></trkpt>
      <trkpt lat="24.666497" lon="111.456594"><time>2026-08-23T07:13:18.406Z</time></trkpt>
      <trkpt lat="24.666497" lon="111.456594"><time>2026-08-23T07:13:18.422Z</time></trkpt>
      <trkpt lat="24.666497" lon="111.456594"><time>2026-08-23T07:13:18.439Z</time></trkpt>
      <trkpt lat="24.666497" lon="111.456594"><time>2026-08-23T07:13:18.456Z</time></trkpt>
      <trkpt lat="24.666497" lon="111.456594"><time>2026-08-23T07:13:18.472Z</time></trkpt>
      <trkpt lat="24.666497" lon="111.456594"><time>2026-08-23T07:13:18.489Z</time></trkpt>
      <trkpt lat="24.666499" lon="111.456595"><time>2026-08-23T07:13:18.506Z</time></trkpt>
      <trkpt lat="24.666499" lon="111.456595"><time>2026-08-23T07:13:18.522Z</time></trkpt>
      <trkpt lat="24.666499" lon="111.456595"><time>2026-08-23T07:13:18.539Z</time></trkpt>
      <trkpt lat="24.666499" lon="111.456595"><time>2026-08-23T07:13:18.556Z</time></trkpt>
      <trkpt lat="24.666499" lon="111.456595"><time>2026-08-23T07:13:18.572Z</time></trkpt>
      <trkpt lat="24.666499" lon="111.456595"><time>2026-08-23T07:13:18.589Z</time></trkpt>
      <trkpt lat="24.666501" lon="111.456596"><time>2026-08-23T07:13:18.606Z</time></trkpt>
      <trkpt lat="24.666501" lon="111.456596"><time>2026-08-23T07:13:18.622Z</time></trkpt>
      <trkpt lat="24.666501" lon="111.456596"><time>2026-08-23T07:13:18.639Z</time></trkpt>
      <trkpt lat="24.666501" lon="111.456596"><time>2026-08-23T07:13:18.656Z</time></trkpt>
      <trkpt lat="24.666501" lon="111.456596"><time>2026-08-23T07:13:18.672Z</time></trkpt>
      <trkpt lat="24.666501" lon="111.456596"><time>2026-08-23T07:13:18.689Z</time></trkpt>
      <trkpt lat="24.666504" lon="111.456597"><time>2026-08-23T07:13:18.706Z</time></trkpt>
      <trkpt lat="24.666504" lon="111.456597"><time>2026-08-23T07:13:18.723Z</time></trkpt>
      <trkpt lat="24.666504" lon="111.456597"><time>2026-08-23T07:13:18.739Z</time></trkpt>
      <trkpt lat="24.666504" lon="111.456597"><time>2026-08-23T07:13:18.756Z</time></trkpt>
      <trkpt lat="24.666504" lon="111.456597"><time>2026-08-23T07:13:18.773Z</time></trkpt>
      <trkpt lat="24.666504" lon="111.456597"><time>2026-08-23T07:13:18.789Z</time></trkpt>
      <trkpt lat="24.666506" lon="111.456598"><time>2026-08-23T07:13:18.806Z</time></trkpt>
      <trkpt lat="24.666506" lon="111.456598"><time>2026-08-23T07:13:18.823Z</time></trkpt>
      <trkpt lat="24.666506" lon="111.456598"><time>2026-08-23T07:13:18.839Z</time></trkpt>
      <trkpt lat="24.666506" lon="111.456598"><time>2026-08-23T07:13:18.856Z</time></trkpt>
      <trkpt lat="24.666506" lon="111.456598"><time>2026-08-23T07:13:18.873Z</time></trkpt>
      <trkpt lat="24.666506" lon="111.456598"><time>2026-08-23T07:13:18.889Z</time></trkpt>
      <trkpt lat="24.666509" lon="111.456599"><time>2026-08-23T07:13:18.906Z</time></trkpt>
      <trkpt lat="24.666509" lon="111.456599"><time>2026-08-23T07:13:18.923Z</time></trkpt>
      <trkpt lat="24.666509" lon="111.456599"><time>2026-08-23T07:13:18.939Z</time></trkpt>
      <trkpt lat="24.666509" lon="111.456599"><time>2026-08-23T07:13:18.956Z</time></trkpt>
      <trkpt lat="24.666509" lon="111.456599"><time>2026-08-23T07:13:18.973Z</time></trkpt>
      <trkpt lat="24.666509" lon="111.456599"><time>2026-08-23T07:13:18.989Z</time></trkpt>
      <trkpt lat="24.666511" lon="111.456601"><time>2026-08-23T07:13:19.006Z</time></trkpt>
      <trkpt lat="24.666511" lon="111.456601"><time>2026-08-23T07:13:19.023Z</time></trkpt>
      <trkpt lat="24.666511" lon="111.456601"><time>2026-08-23T07:13:19.040Z</time></trkpt>
      <trkpt lat="24.666511" lon="111.456601"><time>2026-08-23T07:13:19.056Z</time></trkpt>
      <trkpt lat="24.666511" lon="111.456601"><time>2026-08-23T07:13:19.073Z</time></trkpt>
      <trkpt lat="24.666511" lon="111.456601"><time>2026-08-23T07:13:19.090Z</time></trkpt>
      <trkpt lat="24.666514" lon="111.456602"><time>2026-08-23T07:13:19.106Z</time></trkpt>
      <trkpt lat="24.666514" lon="111.456602"><time>2026-08-23T07:13:19.123Z</time></trkpt>
      <trkpt lat="24.666514" lon="111.456602"><time>2026-08-23T07:13:19.140Z</time></trkpt>
      <trkpt lat="24.666514" lon="111.456602"><time>2026-08-23T07:13:19.156Z</time></trkpt>
      <trkpt lat="24.666514" lon="111.456602"><time>2026-08-23T07:13:19.173Z</time></trkpt>
      <trkpt lat="24.666514" lon="111.456602"><time>2026-08-23T07:13:19.190Z</time></trkpt>
      <trkpt lat="24.666516" lon="111.456603"><time>2026-08-23T07:13:19.206Z</time></trkpt>
      <trkpt lat="24.666516" lon="111.456603"><time>2026-08-23T07:13:19.223Z</time></trkpt>
      <trkpt lat="24.666516" lon="111.456603"><time>2026-08-23T07:13:19.240Z</time></trkpt>
      <trkpt lat="24.666516" lon="111.456603"><time>2026-08-23T07:13:19.256Z</time></trkpt>
      <trkpt lat="24.666516" lon="111.456603"><time>2026-08-23T07:13:19.273Z</time></trkpt>
      <trkpt lat="24.666516" lon="111.456603"><time>2026-08-23T07:13:19.290Z</time></trkpt>
      <trkpt lat="24.666518" lon="111.456603"><time>2026-08-23T07:13:19.306Z</time></trkpt>
      <trkpt lat="24.666518" lon="111.456603"><time>2026-08-23T07:13:19.323Z</time></trkpt>
      <trkpt lat="24.666518" lon="111.456603"><time>2026-08-23T07:13:19.340Z</time></trkpt>
      <trkpt lat="24.666518" lon="111.456603"><time>2026-08-23T07:13:19.357Z</time></trkpt>
    </trkseg>
  </trk>
</gpx>
