<?xml version="1.0" encoding="UTF-8"?>
<gpx version="1.1" creator="Kairos" xmlns="http://www.topografix.com/GPX/1/1">
  <trk>
    <name>sidecar-srt-a18ef932a52169c8</name>
    <trkseg>
      <trkpt lat="24.740694" lon="110.51103"><time>2026-08-21T11:16:46.000Z</time></trkpt>
      <trkpt lat="24.740694" lon="110.51103"><time>2026-08-21T11:16:46.016Z</time></trkpt>
      <trkpt lat="24.740694" lon="110.51103"><time>2026-08-21T11:16:46.032Z</time></trkpt>
      <trkpt lat="24.740694" lon="110.51103"><time>2026-08-21T11:16:46.049Z</time></trkpt>
      <trkpt lat="24.740694" lon="110.51103"><time>2026-08-21T11:16:46.066Z</time></trkpt>
      <trkpt lat="24.740694" lon="110.51103"><time>2026-08-21T11:16:46.082Z</time></trkpt>
      <trkpt lat="24.740694" lon="110.51103"><time>2026-08-21T11:16:46.099Z</time></trkpt>
      <trkpt lat="24.740694" lon="110.51103"><time>2026-08-21T11:16:46.116Z</time></trkpt>
      <trkpt lat="24.740694" lon="110.51103"><time>2026-08-21T11:16:46.132Z</time></trkpt>
      <trkpt lat="24.740694" lon="110.51103"><time>2026-08-21T11:16:46.149Z</time></trkpt>
      <trkpt lat="24.740694" lon="110.51103"><time>2026-08-21T11:16:46.166Z</time></trkpt>
      <trkpt lat="24.740694" lon="110.51103"><time>2026-08-21T11:16:46.182Z</time></trkpt>
      <trkpt lat="24.740694" lon="110.51103"><time>2026-08-21T11:16:46.199Z</time></trkpt>
      <trkpt lat="24.740694" lon="110.51103"><time>2026-08-21T11:16:46.216Z</time></trkpt>
      <trkpt lat="24.740694" lon="110.51103"><time>2026-08-21T11:16:46.232Z</time></trkpt>
      <trkpt lat="24.740694" lon="110.51103"><time>2026-08-21T11:16:46.249Z</time></trkpt>
      <trkpt lat="24.740694" lon="110.51103"><time>2026-08-21T11:16:46.266Z</time></trkpt>
      <trkpt lat="24.740694" lon="110.51103"><time>2026-08-21T11:16:46.282Z</time></trkpt>
      <trkpt lat="24.740694" lon="110.51103"><time>2026-08-21T11:16:46.299Z</time></trkpt>
      <trkpt lat="24.740694" lon="110.51103"><time>2026-08-21T11:16:46.316Z</time></trkpt>
      <trkpt lat="24.740694" lon="110.51103"><time>2026-08-21T11:16:46.333Z</time></trkpt>
      <trkpt lat="24.740694" lon="110.51103"><time>2026-08-21T11:16:46.349Z</time></trkpt>
      <trkpt lat="24.740694" lon="110.51103"><time>2026-08-21T11:16:46.366Z</time></trkpt>
      <trkpt lat="24.740694" lon="110.51103"><time>2026-08-21T11:16:46.383Z</time></trkpt>
      <trkpt lat="24.740694" lon="110.51103"><time>2026-08-21T11:16:46.399Z</time></trkpt>
      <trkpt lat="24.740694" lon="110.51103"><time>2026-08-21T11:16:46.416Z</time></trkpt>
      <trkpt lat="24.740694" lon="110.51103"><time>2026-08-21T11:16:46.433Z</time></trkpt>
      <trkpt lat="24.740694" lon="110.51103"><time>2026-08-21T11:16:46.449Z</time></trkpt>
      <trkpt lat="24.740694" lon="110.51103"><time>2026-08-21T11:16:46.466Z</time></trkpt>
      <trkpt lat="24.740694" lon="110.51103"><time>2026-08-21T11:16:46.483Z</time></trkpt>
      <trkpt lat="24.740694" lon="110.51103"><time>2026-08-21T11:16:46.499Z</time></trkpt>
      <trkpt lat="24.740694" lon="110.51103"><time>2026-08-21T11:16:46.516Z</time></trkpt>
      <trkpt lat="24.740694" lon="110.51103"><time>2026-08-21T11:16:46.533Z</time></trkpt>
      <trkpt lat="24.740694" lon="110.51103"><time>2026-08-21T11:16:46.549Z</time></trkpt>
      <trkpt lat="24.740693" lon="110.51103"><time>2026-08-21T11:16:46.566Z</time></trkpt>
      <trkpt lat="24.740693" lon="110.51103"><time>2026-08-21T11:16:46.583Z</time></trkpt>
      <trkpt lat="24.740693" lon="110.51103"><time>2026-08-21T11:16:46.599Z</time></trkpt>
      <trkpt lat="24.740693" lon="110.51103"><time>2026-08-21T11:16:46.616Z</time></trkpt>
      <trkpt lat="24.740693" lon="110.51103"><time>2026-08-21T11:16:46.633Z</time></trkpt>
      <trkpt lat="24.740693" lon="110.51103"><time>2026-08-21T11:16:46.650Z</time></trkpt>
      <trkpt lat="24.740693" lon="110.51103"><time>2026-08-21T11:16:46.666Z</time></trkpt>
      <trkpt lat="24.740693" lon="110.51103"><time>2026-08-21T11:16:46.683Z</time></trkpt>
      <trkpt lat="24.740693" lon="110.51103"><time>2026-08-21T11:16:46.700Z</time></trkpt>
      <trkpt lat="24.740693" lon="110.51103"><time>2026-08-21T11:16:46.716Z</time></trkpt>
      <trkpt lat="24.740693" lon="110.51103"><time>2026-08-21T11:16:46.733Z</time></trkpt>
      <trkpt lat="24.740693" lon="110.51103"><time>2026-08-21T11:16:46.750Z</time></trkpt>
      <trkpt lat="24.740693" lon="110.51103"><time>2026-08-21T11:16:46.766Z</time></trkpt>
      <trkpt lat="24.740693" lon="110.51103"><time>2026-08-21T11:16:46.783Z</time></trkpt>
      <trkpt lat="24.740693" lon="110.51103"><time>2026-08-21T11:16:46.800Z</time></trkpt>
      <trkpt lat="24.740693" lon="110.51103"><time>2026-08-21T11:16:46.816Z</time></trkpt>
      <trkpt lat="24.740693" lon="110.51103"><time>2026-08-21T11:16:46.833Z</time></trkpt>
      <trkpt lat="24.740693" lon="110.51103"><time>2026-08-21T11:16:46.850Z</time></trkpt>
      <trkpt lat="24.740693" lon="110.51103"><time>2026-08-21T11:16:46.866Z</time></trkpt>
      <trkpt lat="24.740693" lon="110.51103"><time>2026-08-21T11:16:46.883Z</time></trkpt>
      <trkpt lat="24.740693" lon="110.51103"><time>2026-08-21T11:16:46.900Z</time></trkpt>
      <trkpt lat="24.740693" lon="110.51103"><time>2026-08-21T11:16:46.916Z</time></trkpt>
      <trkpt lat="24.740693" lon="110.51103"><time>2026-08-21T11:16:46.933Z</time></trkpt>
      <trkpt lat="24.740693" lon="110.51103"><time>2026-08-21T11:16:46.950Z</time></trkpt>
      <trkpt lat="24.740693" lon="110.51103"><time>2026-08-21T11:16:46.966Z</time></trkpt>
      <trkpt lat="24.740693" lon="110.51103"><time>2026-08-21T11:16:46.983Z</time></trkpt>
      <trkpt lat="24.740693" lon="110.51103"><time>2026-08-21T11:16:47.000Z</time></trkpt>
      <trkpt lat="24.740693" lon="110.51103"><time>2026-08-21T11:16:47.017Z</time></trkpt>
      <trkpt lat="24.740693" lon="110.51103"><time>2026-08-21T11:16:47.033Z</time></trkpt>
      <trkpt lat="24.740693" lon="110.51103"><time>2026-08-21T11:16:47.050Z</time></trkpt>
      <trkpt lat="24.740693" lon="110.51103"><time>2026-08-21T11:16:47.067Z</time></trkpt>
      <trkpt lat="24.740693" lon="110.51103"><time>2026-08-21T11:16:47.083Z</time></trkpt>
      <trkpt lat="24.740693" lon="110.51103"><time>2026-08-21T11:16:47.100Z</time></trkpt>
      <trkpt lat="24.740693" lon="110.51103"><time>2026-08-21T11:16:47.117Z</time></trkpt>
      <trkpt lat="24.740693" lon="110.51103"><time>2026-08-21T11:16:47.133Z</time></trkpt>
      <trkpt lat="24.740693" lon="110.51103"><time>2026-08-21T11:16:47.150Z</time></trkpt>
      <trkpt lat="24.740693" lon="110.51103"><time>2026-08-21T11:16:47.167Z</time></trkpt>
      <trkpt lat="24.740693" lon="110.51103"><time>2026-08-21T11:16:47.183Z</time></trkpt>
    </trkseg>
  </trk>
</gpx>
