<?xml version="1.0" encoding="UTF-8"?>
<gpx version="1.1" creator="Kairos" xmlns="http://www.topografix.com/GPX/1/1">
  <trk>
    <name>sidecar-srt-a67f9cbcd324cf33</name>
    <trkseg>
      <trkpt lat="24.707574" lon="115.364393"><time>2026-08-20T01:01:30.000Z</time></trkpt>
      <trkpt lat="24.707574" lon="115.364393"><time>2026-08-20T01:01:30.016Z</time></trkpt>
      <trkpt lat="24.707574" lon="115.364393"><time>2026-08-20T01:01:30.032Z</time></trkpt>
      <trkpt lat="24.707574" lon="115.364393"><time>2026-08-20T01:01:30.049Z</time></trkpt>
      <trkpt lat="24.707574" lon="115.364393"><time>2026-08-20T01:01:30.066Z</time></trkpt>
      <trkpt lat="24.707574" lon="115.364393"><time>2026-08-20T01:01:30.082Z</time></trkpt>
      <trkpt lat="24.707574" lon="115.364393"><time>2026-08-20T01:01:30.099Z</time></trkpt>
      <trkpt lat="24.707574" lon="115.364393"><time>2026-08-20T01:01:30.116Z</time></trkpt>
      <trkpt lat="24.707574" lon="115.364393"><time>2026-08-20T01:01:30.132Z</time></trkpt>
      <trkpt lat="24.707574" lon="115.364393"><time>2026-08-20T01:01:30.149Z</time></trkpt>
      <trkpt lat="24.707574" lon="115.364393"><time>2026-08-20T01:01:30.166Z</time></trkpt>
      <trkpt lat="24.707574" lon="115.364393"><time>2026-08-20T01:01:30.182Z</time></trkpt>
      <trkpt lat="24.707574" lon="115.364393"><time>2026-08-20T01:01:30.199Z</time></trkpt>
      <trkpt lat="24.707574" lon="115.364393"><time>2026-08-20T01:01:30.216Z</time></trkpt>
      <trkpt lat="24.707574" lon="115.364393"><time>2026-08-20T01:01:30.232Z</time></trkpt>
      <trkpt lat="24.707574" lon="115.364393"><time>2026-08-20T01:01:30.249Z</time></trkpt>
      <trkpt lat="24.707574" lon="115.364393"><time>2026-08-20T01:01:30.266Z</time></trkpt>
      <trkpt lat="24.707574" lon="115.364393"><time>2026-08-20T01:01:30.282Z</time></trkpt>
      <trkpt lat="24.707574" lon="115.364393"><time>2026-08-20T01:01:30.299Z</time></trkpt>
      <trkpt lat="24.707574" lon="115.364393"><time>2026-08-20T01:01:30.316Z</time></trkpt>
      <trkpt lat="24.707574" lon="115.364393"><time>2026-08-20T01:01:30.333Z</time></trkpt>
      <trkpt lat="24.707574" lon="115.364393"><time>2026-08-20T01:01:30.349Z</time></trkpt>
      <trkpt lat="24.707574" lon="115.364393"><time>2026-08-20T01:01:30.366Z</time></trkpt>
      <trkpt lat="24.707574" lon="115.364393"><time>2026-08-20T01:01:30.383Z</time></trkpt>
      <trkpt lat="24.707574" lon="115.364393"><time>2026-08-20T01:01:30.399Z</time></trkpt>
      <trkpt lat="24.707574" lon="115.364393"><time>2026-08-20T01:01:30.416Z</time></trkpt>
      <trkpt lat="24.707574" lon="115.364393"><time>2026-08-20T01:01:30.433Z</time></trkpt>
      <trkpt lat="24.707574" lon="115.364392"><time>2026-08-20T01:01:30.449Z</time></trkpt>
      <trkpt lat="24.707574" lon="115.364392"><time>2026-08-20T01:01:30.466Z</time></trkpt>
      <trkpt lat="24.707574" lon="115.364392"><time>2026-08-20T01:01:30.483Z</time></trkpt>
      <trkpt lat="24.707574" lon="115.364392"><time>2026-08-20T01:01:30.499Z</time></trkpt>
      <trkpt lat="24.707574" lon="115.364392"><time>2026-08-20T01:01:30.516Z</time></trkpt>
      <trkpt lat="24.707574" lon="115.364392"><time>2026-08-20T01:01:30.533Z</time></trkpt>
      <trkpt lat="24.707574" lon="115.364392"><time>2026-08-20T01:01:30.549Z</time></trkpt>
      <trkpt lat="24.707574" lon="115.364392"><time>2026-08-20T01:01:30.566Z</time></trkpt>
      <trkpt lat="24.707574" lon="115.364392"><time>2026-08-20T01:01:30.583Z</time></trkpt>
      <trkpt lat="24.707574" lon="115.364392"><time>2026-08-20T01:01:30.599Z</time></trkpt>
      <trkpt lat="24.707574" lon="115.364392"><time>2026-08-20T01:01:30.616Z</time></trkpt>
      <trkpt lat="24.707574" lon="115.364392"><time>2026-08-20T01:01:30.633Z</time></trkpt>
      <trkpt lat="24.707574" lon="115.364392"><time>2026-08-20T01:01:30.650Z</time></trkpt>
      <trkpt lat="24.707574" lon="115.364392"><time>2026-08-20T01:01:30.666Z</time></trkpt>
      <trkpt lat="24.707574" lon="115.364392"><time>2026-08-20T01:01:30.683Z</time></trkpt>
      <trkpt lat="24.707574" lon="115.364392"><time>2026-08-20T01:01:30.700Z</time></trkpt>
      <trkpt lat="24.707574" lon="115.364392"><time>2026-08-20T01:01:30.716Z</time></trkpt>
      <trkpt lat="24.707574" lon="115.364392"><time>2026-08-20T01:01:30.733Z</time></trkpt>
      <trkpt lat="24.707574" lon="115.364392"><time>2026-08-20T01:01:30.750Z</time></trkpt>
      <trkpt lat="24.707574" lon="115.364392"><time>2026-08-20T01:01:30.766Z</time></trkpt>
      <trkpt lat="24.707574" lon="115.364392"><time>2026-08-20T01:01:30.783Z</time></trkpt>
      <trkpt lat="24.707574" lon="115.364392"><time>2026-08-20T01:01:30.800Z</time></trkpt>
      <trkpt lat="24.707574" lon="115.364392"><time>2026-08-20T01:01:30.816Z</time></trkpt>
      <trkpt lat="24.707574" lon="115.364392"><time>2026-08-20T01:01:30.833Z</time></trkpt>
      <trkpt lat="24.707574" lon="115.364392"><time>2026-08-20T01:01:30.850Z</time></trkpt>
      <trkpt lat="24.707574" lon="115.364392"><time>2026-08-20T01:01:30.866Z</time></trkpt>
      <trkpt lat="24.707574" lon="115.364392"><time>2026-08-20T01:01:30.883Z</time></trkpt>
      <trkpt lat="24.707574" lon="115.364392"><time>2026-08-20T01:01:30.900Z</time></trkpt>
      <trkpt lat="24.707574" lon="115.364392"><time>2026-08-20T01:01:30.916Z</time></trkpt>
      <trkpt lat="24.707574" lon="115.364392"><time>2026-08-20T01:01:30.933Z</time></trkpt>
      <trkpt lat="24.707574" lon="115.364392"><time>2026-08-20T01:01:30.950Z</time></trkpt>
      <trkpt lat="24.707574" lon="115.364392"><time>2026-08-20T01:01:30.966Z</time></trkpt>
      <trkpt lat="24.707574" lon="115.364392"><time>2026-08-20T01:01:30.983Z</time></trkpt>
      <trkpt lat="24.707574" lon="115.364392"><time>2026-08-20T01:01:31.000Z</time></trkpt>
      <trkpt lat="24.707574" lon="115.364392"><time>2026-08-20T01:01:31.017Z</time></trkpt>
      <trkpt lat="24.707574" lon="115.364392"><time>2026-08-20T01:01:31.033Z</time></trkpt>
      <trkpt lat="24.707574" lon="115.364392"><time>2026-08-20T01:01:31.050Z</time></trkpt>
      <trkpt lat="24.707574" lon="115.364392"><time>2026-08-20T01:01:31.067Z</time></trkpt>
      <trkpt lat="24.707574" lon="115.364392"><time>2026-08-20T01:01:31.083Z</time></trkpt>
      <trkpt lat="24.707574" lon="115.364392"><time>2026-08-20T01:01:31.100Z</time></trkpt>
      <trkpt lat="24.707574" lon="115.364392"><time>2026-08-20T01:01:31.117Z</time></trkpt>
      <trkpt lat="24.707574" lon="115.364392"><time>2026-08-20T01:01:31.133Z</time></trkpt>
      <trkpt lat="24.707574" lon="115.364392"><time>2026-08-20T01:01:31.150Z</time></trkpt>
      <trkpt lat="24.707574" lon="115.364392"><time>2026-08-20T01:01:31.167Z</time></trkpt>
      <trkpt lat="24.707574" lon="115.364392"><time>2026-08-20T01:01:31.183Z</time></trkpt>
      <trkpt lat="24.707574" lon="115.364392"><time>2026-08-20T01:01:31.200Z</time></trkpt>
      <trkpt lat="24.707574" lon="115.364392"><time>2026-08-20T01:01:31.217Z</time></trkpt>
      <trkpt lat="24.707574" lon="115.364392"><time>2026-08-20T01:01:31.233Z</time></trkpt>
      <trkpt lat="24.707574" lon="115.364392"><time>2026-08-20T01:01:31.250Z</time></trkpt>
      <trkpt lat="24.707574" lon="115.364392"><time>2026-08-20T01:01:31.267Z</time></trkpt>
      <trkpt lat="24.707574" lon="115.364392"><time>2026-08-20T01:01:31.283Z</time></trkpt>
      <trkpt lat="24.707574" lon="115.364392"><time>2026-08-20T01:01:31.300Z</time></trkpt>
      <trkpt lat="24.707574" lon="115.364392"><time>2026-08-20T01:01:31.317Z</time></trkpt>
      <trkpt lat="24.707574" lon="115.364392"><time>2026-08-20T01:01:31.334Z</time></trkpt>
      <trkpt lat="24.707574" lon="115.364392"><time>2026-08-20T01:01:31.350Z</time></trkpt>
      <trkpt lat="24.707574" lon="115.364392"><time>2026-08-20T01:01:31.367Z</time></trkpt>
      <trkpt lat="24.707574" lon="115.364392"><time>2026-08-20T01:01:31.384Z</time></trkpt>
      <trkpt lat="24.707574" lon="115.364392"><time>2026-08-20T01:01:31.400Z</time></trkpt>
      <trkpt lat="24.707574" lon="115.364392"><time>2026-08-20T01:01:31.417Z</time></trkpt>
      <trkpt lat="24.707574" lon="115.364392"><time>2026-08-20T01:01:31.434Z</time></trkpt>
      <trkpt lat="24.707574" lon="115.364392"><time>2026-08-20T01:01:31.450Z</time></trkpt>
      <trkpt lat="24.707574" lon="115.364392"><time>2026-08-20T01:01:31.467Z</time></trkpt>
      <trkpt lat="24.707574" lon="115.364392"><time>2026-08-20T01:01:31.484Z</time></trkpt>
      <trkpt lat="24.707574" lon="115.364392"><time>2026-08-20T01:01:31.500Z</time></trkpt>
      <trkpt lat="24.707574" lon="115.364392"><time>2026-08-20T01:01:31.517Z</time></trkpt>
      <trkpt lat="24.707574" lon="115.364392"><time>2026-08-20T01:01:31.534Z</time></trkpt>
      <trkpt lat="24.707574" lon="115.364392"><time>2026-08-20T01:01:31.550Z</time></trkpt>
      <trkpt lat="24.707574" lon="115.364392"><time>2026-08-20T01:01:31.567Z</time></trkpt>
      <trkpt lat="24.707574" lon="115.364392"><time>2026-08-20T01:01:31.584Z</time></trkpt>
      <trkpt lat="24.707574" lon="115.364392"><time>2026-08-20T01:01:31.600Z</time></trkpt>
      <trkpt lat="24.707574" lon="115.364392"><time>2026-08-20T01:01:31.617Z</time></trkpt>
      <trkpt lat="24.707574" lon="115.364392"><time>2026-08-20T01:01:31.634Z</time></trkpt>
      <trkpt lat="24.707574" lon="115.364392"><time>2026-08-20T01:01:31.651Z</time></trkpt>
      <trkpt lat="24.707574" lon="115.364392"><time>2026-08-20T01:01:31.667Z</time></trkpt>
      <trkpt lat="24.707574" lon="115.364392"><time>2026-08-20T01:01:31.684Z</time></trkpt>
      <trkpt lat="24.707574" lon="115.364392"><time>2026-08-20T01:01:31.701Z</time></trkpt>
      <trkpt lat="24.707574" lon="115.364392"><time>2026-08-20T01:01:31.717Z</time></trkpt>
      <trkpt lat="24.707574" lon="115.364392"><time>2026-08-20T01:01:31.734Z</time></trkpt>
      <trkpt lat="24.707574" lon="115.364392"><time>2026-08-20T01:01:31.751Z</time></trkpt>
      <trkpt lat="24.707574" lon="115.364392"><time>2026-08-20T01:01:31.767Z</time></trkpt>
      <trkpt lat="24.707574" lon="115.364392"><time>2026-08-20T01:01:31.784Z</time></trkpt>
      <trkpt lat="24.707574" lon="115.364392"><time>2026-08-20T01:01:31.801Z</time></trkpt>
      <trkpt lat="24.707574" lon="115.364392"><time>2026-08-20T01:01:31.817Z</time></trkpt>
      <trkpt lat="24.707574" lon="115.364392"><time>2026-08-20T01:01:31.834Z</time></trkpt>
      <trkpt lat="24.707574" lon="115.364392"><time>2026-08-20T01:01:31.851Z</time></trkpt>
      <trkpt lat="24.707574" lon="115.364392"><time>2026-08-20T01:01:31.867Z</time></trkpt>
      <trkpt lat="24.707574" lon="115.364392"><time>2026-08-20T01:01:31.884Z</time></trkpt>
      <trkpt lat="24.707574" lon="115.364392"><time>2026-08-20T01:01:31.901Z</time></trkpt>
      <trkpt lat="24.707574" lon="115.364392"><time>2026-08-20T01:01:31.917Z</time></trkpt>
      <trkpt lat="24.707574" lon="115.364392"><time>2026-08-20T01:01:31.934Z</time></trkpt>
      <trkpt lat="24.707574" lon="115.364391"><time>2026-08-20T01:01:31.951Z</time></trkpt>
      <trkpt lat="24.707574" lon="115.364391"><time>2026-08-20T01:01:31.968Z</time></trkpt>
      <trkpt lat="24.707574" lon="115.364391"><time>2026-08-20T01:01:31.984Z</time></trkpt>
      <trkpt lat="24.707574" lon="115.364391"><time>2026-08-20T01:01:32.001Z</time></trkpt>
      <trkpt lat="24.707574" lon="115.364391"><time>2026-08-20T01:01:32.018Z</time></trkpt>
      <trkpt lat="24.707574" lon="115.364391"><time>2026-08-20T01:01:32.034Z</time></trkpt>
      <trkpt lat="24.707574" lon="115.364391"><time>2026-08-20T01:01:32.051Z</time></trkpt>
      <trkpt lat="24.707574" lon="115.364391"><time>2026-08-20T01:01:32.068Z</time></trkpt>
      <trkpt lat="24.707574" lon="115.364391"><time>2026-08-20T01:01:32.084Z</time></trkpt>
      <trkpt lat="24.707574" lon="115.364391"><time>2026-08-20T01:01:32.101Z</time></trkpt>
      <trkpt lat="24.707574" lon="115.364391"><time>2026-08-20T01:01:32.118Z</time></trkpt>
      <trkpt lat="24.707574" lon="115.364391"><time>2026-08-20T01:01:32.134Z</time></trkpt>
      <trkpt lat="24.707574" lon="115.364391"><time>2026-08-20T01:01:32.151Z</time></trkpt>
      <trkpt lat="24.707574" lon="115.364391"><time>2026-08-20T01:01:32.168Z</time></trkpt>
      <trkpt lat="24.707574" lon="115.364391"><time>2026-08-20T01:01:32.184Z</time></trkpt>
      <trkpt lat="24.707574" lon="115.364391"><time>2026-08-20T01:01:32.201Z</time></trkpt>
      <trkpt lat="24.707574" lon="115.364391"><time>2026-08-20T01:01:32.218Z</time></trkpt>
      <trkpt lat="24.707574" lon="115.364391"><time>2026-08-20T01:01:32.234Z</time></trkpt>
      <trkpt lat="24.707574" lon="115.364391"><time>2026-08-20T01:01:32.251Z</time></trkpt>
      <trkpt lat="24.707574" lon="115.364391"><time>2026-08-20T01:01:32.268Z</time></trkpt>
      <trkpt lat="24.707574" lon="115.364391"><time>2026-08-20T01:01:32.285Z</time></trkpt>
      <trkpt lat="24.707574" lon="115.364391"><time>2026-08-20T01:01:32.301Z</time></trkpt>
      <trkpt lat="24.707574" lon="115.364391"><time>2026-08-20T01:01:32.318Z</time></trkpt>
      <trkpt lat="24.707574" lon="115.364391"><time>2026-08-20T01:01:32.335Z</time></trkpt>
      <trkpt lat="24.707574" lon="115.364391"><time>2026-08-20T01:01:32.351Z</time></trkpt>
      <trkpt lat="24.707574" lon="115.364391"><time>2026-08-20T01:01:32.368Z</time></trkpt>
      <trkpt lat="24.707574" lon="115.364391"><time>2026-08-20T01:01:32.385Z</time></trkpt>
      <trkpt lat="24.707574" lon="115.364391"><time>2026-08-20T01:01:32.401Z</time></trkpt>
      <trkpt lat="24.707574" lon="115.364391"><time>2026-08-20T01:01:32.418Z</time></trkpt>
      <trkpt lat="24.707574" lon="115.364391"><time>2026-08-20T01:01:32.435Z</time></trkpt>
      <trkpt lat="24.707574" lon="115.364391"><time>2026-08-20T01:01:32.451Z</time></trkpt>
      <trkpt lat="24.707574" lon="115.364391"><time>2026-08-20T01:01:32.468Z</time></trkpt>
      <trkpt lat="24.707574" lon="115.364391"><time>2026-08-20T01:01:32.485Z</time></trkpt>
      <trkpt lat="24.707574" lon="115.364391"><time>2026-08-20T01:01:32.501Z</time></trkpt>
      <trkpt lat="24.707574" lon="115.364391"><time>2026-08-20T01:01:32.518Z</time></trkpt>
      <trkpt lat="24.707574" lon="115.364391"><time>2026-08-20T01:01:32.535Z</time></trkpt>
      <trkpt lat="24.707574" lon="115.364391"><time>2026-08-20T01:01:32.551Z</time></trkpt>
      <trkpt lat="24.707574" lon="115.364391"><time>2026-08-20T01:01:32.568Z</time></trkpt>
      <trkpt lat="24.707574" lon="115.364391"><time>2026-08-20T01:01:32.585Z</time></trkpt>
      <trkpt lat="24.707574" lon="115.364391"><time>2026-08-20T01:01:32.602Z</time></trkpt>
      <trkpt lat="24.707574" lon="115.364391"><time>2026-08-20T01:01:32.618Z</time></trkpt>
      <trkpt lat="24.707574" lon="115.364391"><time>2026-08-20T01:01:32.635Z</time></trkpt>
      <trkpt lat="24.707574" lon="115.364391"><time>2026-08-20T01:01:32.652Z</time></trkpt>
      <trkpt lat="24.707574" lon="115.364391"><time>2026-08-20T01:01:32.668Z</time></trkpt>
      <trkpt lat="24.707574" lon="115.364391"><time>2026-08-20T01:01:32.685Z</time></trkpt>
      <trkpt lat="24.707574" lon="115.364391"><time>2026-08-20T01:01:32.702Z</time></trkpt>
      <trkpt lat="24.707574" lon="115.364391"><time>2026-08-20T01:01:32.718Z</time></trkpt>
      <trkpt lat="24.707574" lon="115.364391"><time>2026-08-20T01:01:32.735Z</time></trkpt>
      <trkpt lat="24.707574" lon="115.364391"><time>2026-08-20T01:01:32.752Z</time></trkpt>
      <trkpt lat="24.707574" lon="115.364391"><time>2026-08-20T01:01:32.768Z</time></trkpt>
      <trkpt lat="24.707574" lon="115.364391"><time>2026-08-20T01:01:32.785Z</time></trkpt>
      <trkpt lat="24.707574" lon="115.364391"><time>2026-08-20T01:01:32.802Z</time></trkpt>
      <trkpt lat="24.707574" lon="115.364391"><time>2026-08-20T01:01:32.818Z</time></trkpt>
      <trkpt lat="24.707574" lon="115.364391"><time>2026-08-20T01:01:32.835Z</time></trkpt>
      <trkpt lat="24.707574" lon="115.364391"><time>2026-08-20T01:01:32.852Z</time></trkpt>
      <trkpt lat="24.707574" lon="115.364391"><time>2026-08-20T01:01:32.868Z</time></trkpt>
      <trkpt lat="24.707574" lon="115.364391"><time>2026-08-20T01:01:32.885Z</time></trkpt>
      <trkpt lat="24.707574" lon="115.364391"><time>2026-08-20T01:01:32.902Z</time></trkpt>
      <trkpt lat="24.707574" lon="115.364391"><time>2026-08-20T01:01:32.919Z</time></trkpt>
      <trkpt lat="24.707574" lon="115.364391"><time>2026-08-20T01:01:32.935Z</time></trkpt>
      <trkpt lat="24.707574" lon="115.364391"><time>2026-08-20T01:01:32.952Z</time></trkpt>
      <trkpt lat="24.707574" lon="115.364391"><time>2026-08-20T01:01:32.969Z</time></trkpt>
      <trkpt lat="24.707574" lon="115.364391"><time>2026-08-20T01:01:32.985Z</time></trkpt>
      <trkpt lat="24.707574" lon="115.364391"><time>2026-08-20T01:01:33.002Z</time></trkpt>
      <trkpt lat="24.707574" lon="115.364391"><time>2026-08-20T01:01:33.019Z</time></trkpt>
      <trkpt lat="24.707574" lon="115.364391"><time>2026-08-20T01:01:33.035Z</time></trkpt>
      <trkpt lat="24.707574" lon="115.364391"><time>2026-08-20T01:01:33.052Z</time></trkpt>
      <trkpt lat="24.707574" lon="115.364391"><time>2026-08-20T01:01:33.069Z</time></trkpt>
      <trkpt lat="24.707574" lon="115.364391"><time>2026-08-20T01:01:33.085Z</time></trkpt>
      <trkpt lat="24.707574" lon="115.364391"><time>2026-08-20T01:01:33.102Z</time></trkpt>
      <trkpt lat="24.707574" lon="115.364391"><time>2026-08-20T01:01:33.119Z</time></trkpt>
      <trkpt lat="24.707574" lon="115.364391"><time>2026-08-20T01:01:33.135Z</time></trkpt>
      <trkpt lat="24.707574" lon="115.364391"><time>2026-08-20T01:01:33.152Z</time></trkpt>
      <trkpt lat="24.707574" lon="115.364391"><time>2026-08-20T01:01:33.169Z</time></trkpt>
      <trkpt lat="24.707574" lon="115.364391"><time>2026-08-20T01:01:33.185Z</time></trkpt>
      <trkpt lat="24.707574" lon="115.364391"><time>2026-08-20T01:01:33.202Z</time></trkpt>
      <trkpt lat="24.707574" lon="115.364391"><time>2026-08-20T01:01:33.219Z</time></trkpt>
      <trkpt lat="24.707574" lon="115.364391"><time>2026-08-20T01:01:33.236Z</time></trkpt>
      <trkpt lat="24.707574" lon="115.364391"><time>2026-08-20T01:01:33.252Z</time></trkpt>
      <trkpt lat="24.707574" lon="115.364391"><time>2026-08-20T01:01:33.269Z</time></trkpt>
      <trkpt lat="24.707574" lon="115.364391"><time>2026-08-20T01:01:33.286Z</time></trkpt>
      <trkpt lat="24.707574" lon="115.364391"><time>2026-08-20T01:01:33.302Z</time></trkpt>
      <trkpt lat="24.707574" lon="115.364391"><time>2026-08-20T01:01:33.319Z</time></trkpt>
      <trkpt lat="24.707574" lon="115.364391"><time>2026-08-20T01:01:33.336Z</time></trkpt>
      <trkpt lat="24.707574" lon="115.364391"><time>2026-08-20T01:01:33.352Z</time></trkpt>
      <trkpt lat="24.707574" lon="115.364391"><time>2026-08-20T01:01:33.369Z</time></trkpt>
      <trkpt lat="24.707574" lon="115.364391"><time>2026-08-20T01:01:33.386Z</time></trkpt>
      <trkpt lat="24.707574" lon="115.364391"><time>2026-08-20T01:01:33.402Z</time></trkpt>
      <trkpt lat="24.707574" lon="115.364391"><time>2026-08-20T01:01:33.419Z</time></trkpt>
      <trkpt lat="24.707574" lon="115.364391"><time>2026-08-20T01:01:33.436Z</time></trkpt>
      <trkpt lat="24.707574" lon="115.364391"><time>2026-08-20T01:01:33.452Z</time></trkpt>
      <trkpt lat="24.707574" lon="115.364391"><time>2026-08-20T01:01:33.469Z</time></trkpt>
      <trkpt lat="24.707574" lon="115.364391"><time>2026-08-20T01:01:33.486Z</time></trkpt>
      <trkpt lat="24.707574" lon="115.364391"><time>2026-08-20T01:01:33.502Z</time></trkpt>
      <trkpt lat="24.707574" lon="115.364391"><time>2026-08-20T01:01:33.519Z</time></trkpt>
      <trkpt lat="24.707574" lon="115.364391"><time>2026-08-20T01:01:33.536Z</time></trkpt>
      <trkpt lat="24.707574" lon="115.364391"><time>2026-08-20T01:01:33.553Z</time></trkpt>
      <trkpt lat="24.707574" lon="115.364391"><time>2026-08-20T01:01:33.569Z</time></trkpt>
      <trkpt lat="24.707574" lon="115.364391"><time>2026-08-20T01:01:33.586Z</time></trkpt>
      <trkpt lat="24.707574" lon="115.364391"><time>2026-08-20T01:01:33.603Z</time></trkpt>
      <trkpt lat="24.707574" lon="115.364391"><time>2026-08-20T01:01:33.619Z</time></trkpt>
      <trkpt lat="24.707574" lon="115.364391"><time>2026-08-20T01:01:33.636Z</time></trkpt>
      <trkpt lat="24.707573" lon="115.364391"><time>2026-08-20T01:01:33.653Z</time></trkpt>
      <trkpt lat="24.707573" lon="115.364391"><time>2026-08-20T01:01:33.669Z</time></trkpt>
      <trkpt lat="24.707573" lon="115.364391"><time>2026-08-20T01:01:33.686Z</time></trkpt>
      <trkpt lat="24.707573" lon="115.364391"><time>2026-08-20T01:01:33.703Z</time></trkpt>
      <trkpt lat="24.707573" lon="115.364391"><time>2026-08-20T01:01:33.719Z</time></trkpt>
      <trkpt lat="24.707573" lon="115.364391"><time>2026-08-20T01:01:33.736Z</time></trkpt>
      <trkpt lat="24.707573" lon="115.364391"><time>2026-08-20T01:01:33.753Z</time></trkpt>
      <trkpt lat="24.707573" lon="115.364391"><time>2026-08-20T01:01:33.769Z</time></trkpt>
      <trkpt lat="24.707573" lon="115.364391"><time>2026-08-20T01:01:33.786Z</time></trkpt>
      <trkpt lat="24.707573" lon="115.364391"><time>2026-08-20T01:01:33.803Z</time></trkpt>
      <trkpt lat="24.707573" lon="115.364391"><time>2026-08-20T01:01:33.819Z</time></trkpt>
      <trkpt lat="24.707573" lon="115.364391"><time>2026-08-20T01:01:33.836Z</time></trkpt>
      <trkpt lat="24.707573" lon="115.36439"><time>2026-08-20T01:01:33.853Z</time></trkpt>
      <trkpt lat="24.707573" lon="115.36439"><time>2026-08-20T01:01:33.870Z</time></trkpt>
      <trkpt lat="24.707573" lon="115.36439"><time>2026-08-20T01:01:33.886Z</time></trkpt>
      <trkpt lat="24.707573" lon="115.36439"><time>2026-08-20T01:01:33.903Z</time></trkpt>
      <trkpt lat="24.707573" lon="115.36439"><time>2026-08-20T01:01:33.920Z</time></trkpt>
      <trkpt lat="24.707573" lon="115.36439"><time>2026-08-20T01:01:33.936Z</time></trkpt>
      <trkpt lat="24.707573" lon="115.364391"><time>2026-08-20T01:01:33.953Z</time></trkpt>
      <trkpt lat="24.707573" lon="115.364391"><time>2026-08-20T01:01:33.970Z</time></trkpt>
      <trkpt lat="24.707573" lon="115.364391"><time>2026-08-20T01:01:33.986Z</time></trkpt>
      <trkpt lat="24.707573" lon="115.364391"><time>2026-08-20T01:01:34.003Z</time></trkpt>
      <trkpt lat="24.707573" lon="115.364391"><time>2026-08-20T01:01:34.020Z</time></trkpt>
      <trkpt lat="24.707573" lon="115.364391"><time>2026-08-20T01:01:34.036Z</time></trkpt>
      <trkpt lat="24.707573" lon="115.36439"><time>2026-08-20T01:01:34.053Z</time></trkpt>
      <trkpt lat="24.707573" lon="115.36439"><time>2026-08-20T01:01:34.070Z</time></trkpt>
      <trkpt lat="24.707573" lon="115.36439"><time>2026-08-20T01:01:34.086Z</time></trkpt>
      <trkpt lat="24.707573" lon="115.36439"><time>2026-08-20T01:01:34.103Z</time></trkpt>
      <trkpt lat="24.707573" lon="115.36439"><time>2026-08-20T01:01:34.120Z</time></trkpt>
      <trkpt lat="24.707573" lon="115.36439"><time>2026-08-20T01:01:34.136Z</time></trkpt>
      <trkpt lat="24.707573" lon="115.36439"><time>2026-08-20T01:01:34.153Z</time></trkpt>
      <trkpt lat="24.707573" lon="115.36439"><time>2026-08-20T01:01:34.170Z</time></trkpt>
      <trkpt lat="24.707573" lon="115.36439"><time>2026-08-20T01:01:34.187Z</time></trkpt>
      <trkpt lat="24.707573" lon="115.36439"><time>2026-08-20T01:01:34.203Z</time></trkpt>
      <trkpt lat="24.707573" lon="115.36439"><time>2026-08-20T01:01:34.220Z</time></trkpt>
      <trkpt lat="24.707573" lon="115.36439"><time>2026-08-20T01:01:34.237Z</time></trkpt>
      <trkpt lat="24.707573" lon="115.36439"><time>2026-08-20T01:01:34.253Z</time></trkpt>
      <trkpt lat="24.707573" lon="115.36439"><time>2026-08-20T01:01:34.270Z</time></trkpt>
      <trkpt lat="24.707573" lon="115.36439"><time>2026-08-20T01:01:34.287Z</time></trkpt>
      <trkpt lat="24.707573" lon="115.36439"><time>2026-08-20T01:01:34.303Z</time></trkpt>
      <trkpt lat="24.707573" lon="115.36439"><time>2026-08-20T01:01:34.320Z</time></trkpt>
      <trkpt lat="24.707573" lon="115.36439"><time>2026-08-20T01:01:34.337Z</time></trkpt>
      <trkpt lat="24.707573" lon="115.36439"><time>2026-08-20T01:01:34.353Z</time></trkpt>
      <trkpt lat="24.707573" lon="115.36439"><time>2026-08-20T01:01:34.370Z</time></trkpt>
      <trkpt lat="24.707573" lon="115.36439"><time>2026-08-20T01:01:34.387Z</time></trkpt>
      <trkpt lat="24.707573" lon="115.36439"><time>2026-08-20T01:01:34.403Z</time></trkpt>
      <trkpt lat="24.707573" lon="115.36439"><time>2026-08-20T01:01:34.420Z</time></trkpt>
      <trkpt lat="24.707573" lon="115.36439"><time>2026-08-20T01:01:34.437Z</time></trkpt>
      <trkpt lat="24.707573" lon="115.36439"><time>2026-08-20T01:01:34.453Z</time></trkpt>
      <trkpt lat="24.707573" lon="115.36439"><time>2026-08-20T01:01:34.470Z</time></trkpt>
      <trkpt lat="24.707573" lon="115.36439"><time>2026-08-20T01:01:34.487Z</time></trkpt>
      <trkpt lat="24.707573" lon="115.36439"><time>2026-08-20T01:01:34.504Z</time></trkpt>
      <trkpt lat="24.707573" lon="115.36439"><time>2026-08-20T01:01:34.520Z</time></trkpt>
      <trkpt lat="24.707573" lon="115.36439"><time>2026-08-20T01:01:34.537Z</time></trkpt>
      <trkpt lat="24.707573" lon="115.364391"><time>2026-08-20T01:01:34.554Z</time></trkpt>
      <trkpt lat="24.707573" lon="115.364391"><time>2026-08-20T01:01:34.570Z</time></trkpt>
      <trkpt lat="24.707573" lon="115.364391"><time>2026-08-20T01:01:34.587Z</time></trkpt>
      <trkpt lat="24.707573" lon="115.364391"><time>2026-08-20T01:01:34.604Z</time></trkpt>
      <trkpt lat="24.707573" lon="115.364391"><time>2026-08-20T01:01:34.620Z</time></trkpt>
      <trkpt lat="24.707573" lon="115.364391"><time>2026-08-20T01:01:34.637Z</time></trkpt>
      <trkpt lat="24.707573" lon="115.36439"><time>2026-08-20T01:01:34.654Z</time></trkpt>
      <trkpt lat="24.707573" lon="115.36439"><time>2026-08-20T01:01:34.670Z</time></trkpt>
      <trkpt lat="24.707573" lon="115.36439"><time>2026-08-20T01:01:34.687Z</time></trkpt>
      <trkpt lat="24.707573" lon="115.36439"><time>2026-08-20T01:01:34.704Z</time></trkpt>
      <trkpt lat="24.707573" lon="115.36439"><time>2026-08-20T01:01:34.720Z</time></trkpt>
      <trkpt lat="24.707573" lon="115.36439"><time>2026-08-20T01:01:34.737Z</time></trkpt>
      <trkpt lat="24.707573" lon="115.364391"><time>2026-08-20T01:01:34.754Z</time></trkpt>
      <trkpt lat="24.707573" lon="115.364391"><time>2026-08-20T01:01:34.770Z</time></trkpt>
      <trkpt lat="24.707573" lon="115.364391"><time>2026-08-20T01:01:34.787Z</time></trkpt>
      <trkpt lat="24.707573" lon="115.364391"><time>2026-08-20T01:01:34.804Z</time></trkpt>
      <trkpt lat="24.707573" lon="115.364391"><time>2026-08-20T01:01:34.821Z</time></trkpt>
      <trkpt lat="24.707573" lon="115.364391"><time>2026-08-20T01:01:34.837Z</time></trkpt>
      <trkpt lat="24.707573" lon="115.364391"><time>2026-08-20T01:01:34.854Z</time></trkpt>
      <trkpt lat="24.707573" lon="115.364391"><time>2026-08-20T01:01:34.871Z</time></trkpt>
      <trkpt lat="24.707573" lon="115.364391"><time>2026-08-20T01:01:34.887Z</time></trkpt>
      <trkpt lat="24.707573" lon="115.364391"><time>2026-08-20T01:01:34.904Z</time></trkpt>
      <trkpt lat="24.707573" lon="115.364391"><time>2026-08-20T01:01:34.921Z</time></trkpt>
      <trkpt lat="24.707573" lon="115.364391"><time>2026-08-20T01:01:34.937Z</time></trkpt>
      <trkpt lat="24.707573" lon="115.364391"><time>2026-08-20T01:01:34.954Z</time></trkpt>
      <trkpt lat="24.707573" lon="115.364391"><time>2026-08-20T01:01:34.971Z</time></trkpt>
      <trkpt lat="24.707573" lon="115.364391"><time>2026-08-20T01:01:34.987Z</time></trkpt>
      <trkpt lat="24.707573" lon="115.364391"><time>2026-08-20T01:01:35.004Z</time></trkpt>
      <trkpt lat="24.707573" lon="115.364391"><time>2026-08-20T01:01:35.021Z</time></trkpt>
      <trkpt lat="24.707573" lon="115.364391"><time>2026-08-20T01:01:35.037Z</time></trkpt>
      <trkpt lat="24.707573" lon="115.36439"><time>2026-08-20T01:01:35.054Z</time></trkpt>
      <trkpt lat="24.707573" lon="115.36439"><time>2026-08-20T01:01:35.071Z</time></trkpt>
      <trkpt lat="24.707573" lon="115.36439"><time>2026-08-20T01:01:35.087Z</time></trkpt>
      <trkpt lat="24.707573" lon="115.36439"><time>2026-08-20T01:01:35.104Z</time></trkpt>
      <trkpt lat="24.707573" lon="115.36439"><time>2026-08-20T01:01:35.121Z</time></trkpt>
      <trkpt lat="24.707573" lon="115.36439"><time>2026-08-20T01:01:35.138Z</time></trkpt>
      <trkpt lat="24.707573" lon="115.36439"><time>2026-08-20T01:01:35.154Z</time></trkpt>
      <trkpt lat="24.707573" lon="115.36439"><time>2026-08-20T01:01:35.171Z</time></trkpt>
      <trkpt lat="24.707573" lon="115.36439"><time>2026-08-20T01:01:35.188Z</time></trkpt>
      <trkpt lat="24.707573" lon="115.36439"><time>2026-08-20T01:01:35.204Z</time></trkpt>
      <trkpt lat="24.707573" lon="115.36439"><time>2026-08-20T01:01:35.221Z</time></trkpt>
      <trkpt lat="24.707573" lon="115.36439"><time>2026-08-20T01:01:35.238Z</time></trkpt>
      <trkpt lat="24.707573" lon="115.36439"><time>2026-08-20T01:01:35.254Z</time></trkpt>
      <trkpt lat="24.707573" lon="115.36439"><time>2026-08-20T01:01:35.271Z</time></trkpt>
      <trkpt lat="24.707573" lon="115.36439"><time>2026-08-20T01:01:35.288Z</time></trkpt>
      <trkpt lat="24.707573" lon="115.36439"><time>2026-08-20T01:01:35.304Z</time></trkpt>
      <trkpt lat="24.707573" lon="115.36439"><time>2026-08-20T01:01:35.321Z</time></trkpt>
      <trkpt lat="24.707573" lon="115.36439"><time>2026-08-20T01:01:35.338Z</time></trkpt>
      <trkpt lat="24.707573" lon="115.36439"><time>2026-08-20T01:01:35.354Z</time></trkpt>
      <trkpt lat="24.707573" lon="115.36439"><time>2026-08-20T01:01:35.371Z</time></trkpt>
      <trkpt lat="24.707573" lon="115.36439"><time>2026-08-20T01:01:35.388Z</time></trkpt>
      <trkpt lat="24.707573" lon="115.36439"><time>2026-08-20T01:01:35.404Z</time></trkpt>
      <trkpt lat="24.707573" lon="115.36439"><time>2026-08-20T01:01:35.421Z</time></trkpt>
      <trkpt lat="24.707573" lon="115.36439"><time>2026-08-20T01:01:35.438Z</time></trkpt>
      <trkpt lat="24.707573" lon="115.36439"><time>2026-08-20T01:01:35.455Z</time></trkpt>
      <trkpt lat="24.707573" lon="115.36439"><time>2026-08-20T01:01:35.471Z</time></trkpt>
      <trkpt lat="24.707573" lon="115.36439"><time>2026-08-20T01:01:35.488Z</time></trkpt>
      <trkpt lat="24.707573" lon="115.36439"><time>2026-08-20T01:01:35.505Z</time></trkpt>
      <trkpt lat="24.707573" lon="115.36439"><time>2026-08-20T01:01:35.521Z</time></trkpt>
      <trkpt lat="24.707573" lon="115.36439"><time>2026-08-20T01:01:35.538Z</time></trkpt>
      <trkpt lat="24.707573" lon="115.36439"><time>2026-08-20T01:01:35.555Z</time></trkpt>
      <trkpt lat="24.707573" lon="115.36439"><time>2026-08-20T01:01:35.571Z</time></trkpt>
      <trkpt lat="24.707573" lon="115.36439"><time>2026-08-20T01:01:35.588Z</time></trkpt>
      <trkpt lat="24.707573" lon="115.36439"><time>2026-08-20T01:01:35.605Z</time></trkpt>
      <trkpt lat="24.707573" lon="115.36439"><time>2026-08-20T01:01:35.621Z</time></trkpt>
      <trkpt lat="24.707573" lon="115.36439"><time>2026-08-20T01:01:35.638Z</time></trkpt>
      <trkpt lat="24.707573" lon="115.36439"><time>2026-08-20T01:01:35.655Z</time></trkpt>
      <trkpt lat="24.707573" lon="115.36439"><time>2026-08-20T01:01:35.671Z</time></trkpt>
      <trkpt lat="24.707573" lon="115.36439"><time>2026-08-20T01:01:35.688Z</time></trkpt>
      <trkpt lat="24.707573" lon="115.36439"><time>2026-08-20T01:01:35.705Z</time></trkpt>
      <trkpt lat="24.707573" lon="115.36439"><time>2026-08-20T01:01:35.721Z</time></trkpt>
      <trkpt lat="24.707573" lon="115.36439"><time>2026-08-20T01:01:35.738Z</time></trkpt>
      <trkpt lat="24.707573" lon="115.36439"><time>2026-08-20T01:01:35.755Z</time></trkpt>
      <trkpt lat="24.707573" lon="115.36439"><time>2026-08-20T01:01:35.772Z</time></trkpt>
      <trkpt lat="24.707573" lon="115.36439"><time>2026-08-20T01:01:35.788Z</time></trkpt>
      <trkpt lat="24.707573" lon="115.36439"><time>2026-08-20T01:01:35.805Z</time></trkpt>
      <trkpt lat="24.707573" lon="115.36439"><time>2026-08-20T01:01:35.822Z</time></trkpt>
      <trkpt lat="24.707573" lon="115.36439"><time>2026-08-20T01:01:35.838Z</time></trkpt>
      <trkpt lat="24.707573" lon="115.36439"><time>2026-08-20T01:01:35.855Z</time></trkpt>
      <trkpt lat="24.707573" lon="115.36439"><time>2026-08-20T01:01:35.872Z</time></trkpt>
      <trkpt lat="24.707573" lon="115.36439"><time>2026-08-20T01:01:35.888Z</time></trkpt>
      <trkpt lat="24.707573" lon="115.36439"><time>2026-08-20T01:01:35.905Z</time></trkpt>
      <trkpt lat="24.707573" lon="115.36439"><time>2026-08-20T01:01:35.922Z</time></trkpt>
      <trkpt lat="24.707573" lon="115.36439"><time>2026-08-20T01:01:35.938Z</time></trkpt>
      <trkpt lat="24.707574" lon="115.36439"><time>2026-08-20T01:01:35.955Z</time></trkpt>
      <trkpt lat="24.707574" lon="115.36439"><time>2026-08-20T01:01:35.972Z</time></trkpt>
      <trkpt lat="24.707574" lon="115.36439"><time>2026-08-20T01:01:35.988Z</time></trkpt>
      <trkpt lat="24.707574" lon="115.36439"><time>2026-08-20T01:01:36.005Z</time></trkpt>
      <trkpt lat="24.707574" lon="115.36439"><time>2026-08-20T01:01:36.022Z</time></trkpt>
      <trkpt lat="24.707574" lon="115.36439"><time>2026-08-20T01:01:36.038Z</time></trkpt>
      <trkpt lat="24.707574" lon="115.36439"><time>2026-08-20T01:01:36.055Z</time></trkpt>
      <trkpt lat="24.707574" lon="115.36439"><time>2026-08-20T01:01:36.072Z</time></trkpt>
      <trkpt lat="24.707574" lon="115.36439"><time>2026-08-20T01:01:36.089Z</time></trkpt>
      <trkpt lat="24.707574" lon="115.36439"><time>2026-08-20T01:01:36.105Z</time></trkpt>
      <trkpt lat="24.707574" lon="115.36439"><time>2026-08-20T01:01:36.122Z</time></trkpt>
      <trkpt lat="24.707574" lon="115.36439"><time>2026-08-20T01:01:36.139Z</time></trkpt>
      <trkpt lat="24.707574" lon="115.36439"><time>2026-08-20T01:01:36.155Z</time></trkpt>
      <trkpt lat="24.707574" lon="115.36439"><time>2026-08-20T01:01:36.172Z</time></trkpt>
      <trkpt lat="24.707574" lon="115.36439"><time>2026-08-20T01:01:36.189Z</time></trkpt>
      <trkpt lat="24.707574" lon="115.36439"><time>2026-08-20T01:01:36.205Z</time></trkpt>
      <trkpt lat="24.707574" lon="115.36439"><time>2026-08-20T01:01:36.222Z</time></trkpt>
      <trkpt lat="24.707574" lon="115.36439"><time>2026-08-20T01:01:36.239Z</time></trkpt>
      <trkpt lat="24.707574" lon="115.36439"><time>2026-08-20T01:01:36.255Z</time></trkpt>
      <trkpt lat="24.707574" lon="115.36439"><time>2026-08-20T01:01:36.272Z</time></trkpt>
      <trkpt lat="24.707574" lon="115.36439"><time>2026-08-20T01:01:36.289Z</time></trkpt>
      <trkpt lat="24.707574" lon="115.36439"><time>2026-08-20T01:01:36.305Z</time></trkpt>
      <trkpt lat="24.707574" lon="115.36439"><time>2026-08-20T01:01:36.322Z</time></trkpt>
      <trkpt lat="24.707574" lon="115.36439"><time>2026-08-20T01:01:36.339Z</time></trkpt>
      <trkpt lat="24.707574" lon="115.36439"><time>2026-08-20T01:01:36.355Z</time></trkpt>
      <trkpt lat="24.707574" lon="115.36439"><time>2026-08-20T01:01:36.372Z</time></trkpt>
      <trkpt lat="24.707574" lon="115.36439"><time>2026-08-20T01:01:36.389Z</time></trkpt>
      <trkpt lat="24.707574" lon="115.36439"><time>2026-08-20T01:01:36.406Z</time></trkpt>
      <trkpt lat="24.707574" lon="115.36439"><time>2026-08-20T01:01:36.422Z</time></trkpt>
      <trkpt lat="24.707574" lon="115.36439"><time>2026-08-20T01:01:36.439Z</time></trkpt>
      <trkpt lat="24.707574" lon="115.36439"><time>2026-08-20T01:01:36.456Z</time></trkpt>
      <trkpt lat="24.707574" lon="115.36439"><time>2026-08-20T01:01:36.472Z</time></trkpt>
      <trkpt lat="24.707574" lon="115.36439"><time>2026-08-20T01:01:36.489Z</time></trkpt>
      <trkpt lat="24.707574" lon="115.36439"><time>2026-08-20T01:01:36.506Z</time></trkpt>
      <trkpt lat="24.707574" lon="115.36439"><time>2026-08-20T01:01:36.522Z</time></trkpt>
      <trkpt lat="24.707574" lon="115.36439"><time>2026-08-20T01:01:36.539Z</time></trkpt>
      <trkpt lat="24.707574" lon="115.36439"><time>2026-08-20T01:01:36.556Z</time></trkpt>
      <trkpt lat="24.707574" lon="115.36439"><time>2026-08-20T01:01:36.572Z</time></trkpt>
      <trkpt lat="24.707574" lon="115.36439"><time>2026-08-20T01:01:36.589Z</time></trkpt>
      <trkpt lat="24.707574" lon="115.36439"><time>2026-08-20T01:01:36.606Z</time></trkpt>
      <trkpt lat="24.707574" lon="115.36439"><time>2026-08-20T01:01:36.622Z</time></trkpt>
      <trkpt lat="24.707574" lon="115.36439"><time>2026-08-20T01:01:36.639Z</time></trkpt>
      <trkpt lat="24.707574" lon="115.36439"><time>2026-08-20T01:01:36.656Z</time></trkpt>
      <trkpt lat="24.707574" lon="115.36439"><time>2026-08-20T01:01:36.672Z</time></trkpt>
      <trkpt lat="24.707574" lon="115.36439"><time>2026-08-20T01:01:36.689Z</time></trkpt>
      <trkpt lat="24.707574" lon="115.36439"><time>2026-08-20T01:01:36.706Z</time></trkpt>
      <trkpt lat="24.707574" lon="115.36439"><time>2026-08-20T01:01:36.723Z</time></trkpt>
      <trkpt lat="24.707574" lon="115.36439"><time>2026-08-20T01:01:36.739Z</time></trkpt>
      <trkpt lat="24.707574" lon="115.36439"><time>2026-08-20T01:01:36.756Z</time></trkpt>
      <trkpt lat="24.707574" lon="115.36439"><time>2026-08-20T01:01:36.773Z</time></trkpt>
      <trkpt lat="24.707574" lon="115.36439"><time>2026-08-20T01:01:36.789Z</time></trkpt>
      <trkpt lat="24.707574" lon="115.36439"><time>2026-08-20T01:01:36.806Z</time></trkpt>
      <trkpt lat="24.707574" lon="115.36439"><time>2026-08-20T01:01:36.823Z</time></trkpt>
      <trkpt lat="24.707574" lon="115.36439"><time>2026-08-20T01:01:36.839Z</time></trkpt>
      <trkpt lat="24.707574" lon="115.364389"><time>2026-08-20T01:01:36.856Z</time></trkpt>
      <trkpt lat="24.707574" lon="115.364389"><time>2026-08-20T01:01:36.873Z</time></trkpt>
      <trkpt lat="24.707574" lon="115.364389"><time>2026-08-20T01:01:36.889Z</time></trkpt>
      <trkpt lat="24.707574" lon="115.364389"><time>2026-08-20T01:01:36.906Z</time></trkpt>
      <trkpt lat="24.707574" lon="115.364389"><time>2026-08-20T01:01:36.923Z</time></trkpt>
      <trkpt lat="24.707574" lon="115.364389"><time>2026-08-20T01:01:36.939Z</time></trkpt>
      <trkpt lat="24.707574" lon="115.364389"><time>2026-08-20T01:01:36.956Z</time></trkpt>
      <trkpt lat="24.707574" lon="115.364389"><time>2026-08-20T01:01:36.973Z</time></trkpt>
      <trkpt lat="24.707574" lon="115.364389"><time>2026-08-20T01:01:36.989Z</time></trkpt>
      <trkpt lat="24.707574" lon="115.364389"><time>2026-08-20T01:01:37.006Z</time></trkpt>
      <trkpt lat="24.707574" lon="115.364389"><time>2026-08-20T01:01:37.023Z</time></trkpt>
      <trkpt lat="24.707574" lon="115.364389"><time>2026-08-20T01:01:37.040Z</time></trkpt>
      <trkpt lat="24.707574" lon="115.364389"><time>2026-08-20T01:01:37.056Z</time></trkpt>
      <trkpt lat="24.707574" lon="115.364389"><time>2026-08-20T01:01:37.073Z</time></trkpt>
      <trkpt lat="24.707574" lon="115.364389"><time>2026-08-20T01:01:37.090Z</time></trkpt>
      <trkpt lat="24.707574" lon="115.364389"><time>2026-08-20T01:01:37.106Z</time></trkpt>
      <trkpt lat="24.707574" lon="115.364389"><time>2026-08-20T01:01:37.123Z</time></trkpt>
      <trkpt lat="24.707574" lon="115.364389"><time>2026-08-20T01:01:37.140Z</time></trkpt>
      <trkpt lat="24.707574" lon="115.364389"><time>2026-08-20T01:01:37.156Z</time></trkpt>
      <trkpt lat="24.707574" lon="115.364389"><time>2026-08-20T01:01:37.173Z</time></trkpt>
      <trkpt lat="24.707574" lon="115.364389"><time>2026-08-20T01:01:37.190Z</time></trkpt>
      <trkpt lat="24.707574" lon="115.364389"><time>2026-08-20T01:01:37.206Z</time></trkpt>
      <trkpt lat="24.707574" lon="115.364389"><time>2026-08-20T01:01:37.223Z</time></trkpt>
      <trkpt lat="24.707574" lon="115.364389"><time>2026-08-20T01:01:37.240Z</time></trkpt>
      <trkpt lat="24.707574" lon="115.364389"><time>2026-08-20T01:01:37.256Z</time></trkpt>
      <trkpt lat="24.707574" lon="115.364389"><time>2026-08-20T01:01:37.273Z</time></trkpt>
      <trkpt lat="24.707574" lon="115.364389"><time>2026-08-20T01:01:37.290Z</time></trkpt>
      <trkpt lat="24.707574" lon="115.364389"><time>2026-08-20T01:01:37.306Z</time></trkpt>
      <trkpt lat="24.707574" lon="115.364389"><time>2026-08-20T01:01:37.323Z</time></trkpt>
      <trkpt lat="24.707574" lon="115.364389"><time>2026-08-20T01:01:37.340Z</time></trkpt>
      <trkpt lat="24.707574" lon="115.364389"><time>2026-08-20T01:01:37.356Z</time></trkpt>
      <trkpt lat="24.707574" lon="115.364389"><time>2026-08-20T01:01:37.373Z</time></trkpt>
      <trkpt lat="24.707574" lon="115.364389"><time>2026-08-20T01:01:37.390Z</time></trkpt>
      <trkpt lat="24.707574" lon="115.364389"><time>2026-08-20T01:01:37.407Z</time></trkpt>
      <trkpt lat="24.707574" lon="115.364389"><time>2026-08-20T01:01:37.423Z</time></trkpt>
      <trkpt lat="24.707574" lon="115.364389"><time>2026-08-20T01:01:37.440Z</time></trkpt>
      <trkpt lat="24.707574" lon="115.364389"><time>2026-08-20T01:01:37.457Z</time></trkpt>
      <trkpt lat="24.707574" lon="115.364389"><time>2026-08-20T01:01:37.473Z</time></trkpt>
      <trkpt lat="24.707574" lon="115.364389"><time>2026-08-20T01:01:37.490Z</time></trkpt>
      <trkpt lat="24.707574" lon="115.364389"><time>2026-08-20T01:01:37.507Z</time></trkpt>
      <trkpt lat="24.707574" lon="115.364389"><time>2026-08-20T01:01:37.523Z</time></trkpt>
      <trkpt lat="24.707574" lon="115.364389"><time>2026-08-20T01:01:37.540Z</time></trkpt>
      <trkpt lat="24.707574" lon="115.364389"><time>2026-08-20T01:01:37.557Z</time></trkpt>
      <trkpt lat="24.707574" lon="115.364389"><time>2026-08-20T01:01:37.573Z</time></trkpt>
      <trkpt lat="24.707574" lon="115.364389"><time>2026-08-20T01:01:37.590Z</time></trkpt>
      <trkpt lat="24.707574" lon="115.364389"><time>2026-08-20T01:01:37.607Z</time></trkpt>
      <trkpt lat="24.707574" lon="115.364389"><time>2026-08-20T01:01:37.623Z</time></trkpt>
      <trkpt lat="24.707574" lon="115.364389"><time>2026-08-20T01:01:37.640Z</time></trkpt>
      <trkpt lat="24.707574" lon="115.364389"><time>2026-08-20T01:01:37.657Z</time></trkpt>
      <trkpt lat="24.707574" lon="115.364389"><time>2026-08-20T01:01:37.673Z</time></trkpt>
      <trkpt lat="24.707574" lon="115.364389"><time>2026-08-20T01:01:37.690Z</time></trkpt>
      <trkpt lat="24.707574" lon="115.364389"><time>2026-08-20T01:01:37.707Z</time></trkpt>
      <trkpt lat="24.707574" lon="115.364389"><time>2026-08-20T01:01:37.724Z</time></trkpt>
      <trkpt lat="24.707574" lon="115.364389"><time>2026-08-20T01:01:37.740Z</time></trkpt>
      <trkpt lat="24.707574" lon="115.364389"><time>2026-08-20T01:01:37.757Z</time></trkpt>
      <trkpt lat="24.707574" lon="115.364389"><time>2026-08-20T01:01:37.774Z</time></trkpt>
      <trkpt lat="24.707574" lon="115.364389"><time>2026-08-20T01:01:37.790Z</time></trkpt>
      <trkpt lat="24.707574" lon="115.364389"><time>2026-08-20T01:01:37.807Z</time></trkpt>
      <trkpt lat="24.707574" lon="115.364389"><time>2026-08-20T01:01:37.824Z</time></trkpt>
      <trkpt lat="24.707574" lon="115.364389"><time>2026-08-20T01:01:37.840Z</time></trkpt>
      <trkpt lat="24.707574" lon="115.364389"><time>2026-08-20T01:01:37.857Z</time></trkpt>
      <trkpt lat="24.707574" lon="115.364389"><time>2026-08-20T01:01:37.874Z</time></trkpt>
      <trkpt lat="24.707574" lon="115.364389"><time>2026-08-20T01:01:37.890Z</time></trkpt>
      <trkpt lat="24.707574" lon="115.364389"><time>2026-08-20T01:01:37.907Z</time></trkpt>
      <trkpt lat="24.707574" lon="115.364389"><time>2026-08-20T01:01:37.924Z</time></trkpt>
      <trkpt lat="24.707574" lon="115.364389"><time>2026-08-20T01:01:37.940Z</time></trkpt>
      <trkpt lat="24.707574" lon="115.364389"><time>2026-08-20T01:01:37.957Z</time></trkpt>
      <trkpt lat="24.707574" lon="115.364389"><time>2026-08-20T01:01:37.974Z</time></trkpt>
      <trkpt lat="24.707574" lon="115.364389"><time>2026-08-20T01:01:37.990Z</time></trkpt>
      <trkpt lat="24.707574" lon="115.364389"><time>2026-08-20T01:01:38.007Z</time></trkpt>
      <trkpt lat="24.707574" lon="115.364389"><time>2026-08-20T01:01:38.024Z</time></trkpt>
      <trkpt lat="24.707574" lon="115.364389"><time>2026-08-20T01:01:38.041Z</time></trkpt>
      <trkpt lat="24.707574" lon="115.364389"><time>2026-08-20T01:01:38.057Z</time></trkpt>
      <trkpt lat="24.707574" lon="115.364389"><time>2026-08-20T01:01:38.074Z</time></trkpt>
      <trkpt lat="24.707574" lon="115.364389"><time>2026-08-20T01:01:38.091Z</time></trkpt>
      <trkpt lat="24.707574" lon="115.364389"><time>2026-08-20T01:01:38.107Z</time></trkpt>
      <trkpt lat="24.707574" lon="115.364389"><time>2026-08-20T01:01:38.124Z</time></trkpt>
      <trkpt lat="24.707574" lon="115.36439"><time>2026-08-20T01:01:38.141Z</time></trkpt>
      <trkpt lat="24.707574" lon="115.36439"><time>2026-08-20T01:01:38.157Z</time></trkpt>
      <trkpt lat="24.707574" lon="115.36439"><time>2026-08-20T01:01:38.174Z</time></trkpt>
      <trkpt lat="24.707574" lon="115.36439"><time>2026-08-20T01:01:38.191Z</time></trkpt>
      <trkpt lat="24.707574" lon="115.36439"><time>2026-08-20T01:01:38.207Z</time></trkpt>
      <trkpt lat="24.707574" lon="115.36439"><time>2026-08-20T01:01:38.224Z</time></trkpt>
      <trkpt lat="24.707573" lon="115.36439"><time>2026-08-20T01:01:38.241Z</time></trkpt>
      <trkpt lat="24.707573" lon="115.36439"><time>2026-08-20T01:01:38.257Z</time></trkpt>
      <trkpt lat="24.707573" lon="115.36439"><time>2026-08-20T01:01:38.274Z</time></trkpt>
      <trkpt lat="24.707573" lon="115.36439"><time>2026-08-20T01:01:38.291Z</time></trkpt>
      <trkpt lat="24.707573" lon="115.36439"><time>2026-08-20T01:01:38.307Z</time></trkpt>
      <trkpt lat="24.707573" lon="115.36439"><time>2026-08-20T01:01:38.324Z</time></trkpt>
      <trkpt lat="24.707573" lon="115.36439"><time>2026-08-20T01:01:38.341Z</time></trkpt>
      <trkpt lat="24.707573" lon="115.36439"><time>2026-08-20T01:01:38.358Z</time></trkpt>
      <trkpt lat="24.707573" lon="115.36439"><time>2026-08-20T01:01:38.374Z</time></trkpt>
      <trkpt lat="24.707573" lon="115.36439"><time>2026-08-20T01:01:38.391Z</time></trkpt>
      <trkpt lat="24.707573" lon="115.36439"><time>2026-08-20T01:01:38.408Z</time></trkpt>
      <trkpt lat="24.707573" lon="115.36439"><time>2026-08-20T01:01:38.424Z</time></trkpt>
      <trkpt lat="24.707573" lon="115.36439"><time>2026-08-20T01:01:38.441Z</time></trkpt>
      <trkpt lat="24.707573" lon="115.36439"><time>2026-08-20T01:01:38.458Z</time></trkpt>
      <trkpt lat="24.707573" lon="115.36439"><time>2026-08-20T01:01:38.474Z</time></trkpt>
      <trkpt lat="24.707573" lon="115.36439"><time>2026-08-20T01:01:38.491Z</time></trkpt>
      <trkpt lat="24.707573" lon="115.36439"><time>2026-08-20T01:01:38.508Z</time></trkpt>
      <trkpt lat="24.707573" lon="115.36439"><time>2026-08-20T01:01:38.524Z</time></trkpt>
      <trkpt lat="24.707573" lon="115.36439"><time>2026-08-20T01:01:38.541Z</time></trkpt>
      <trkpt lat="24.707573" lon="115.36439"><time>2026-08-20T01:01:38.558Z</time></trkpt>
      <trkpt lat="24.707573" lon="115.36439"><time>2026-08-20T01:01:38.574Z</time></trkpt>
      <trkpt lat="24.707573" lon="115.36439"><time>2026-08-20T01:01:38.591Z</time></trkpt>
      <trkpt lat="24.707573" lon="115.36439"><time>2026-08-20T01:01:38.608Z</time></trkpt>
      <trkpt lat="24.707573" lon="115.36439"><time>2026-08-20T01:01:38.624Z</time></trkpt>
      <trkpt lat="24.707573" lon="115.36439"><time>2026-08-20T01:01:38.641Z</time></trkpt>
      <trkpt lat="24.707573" lon="115.36439"><time>2026-08-20T01:01:38.658Z</time></trkpt>
      <trkpt lat="24.707573" lon="115.36439"><time>2026-08-20T01:01:38.675Z</time></trkpt>
      <trkpt lat="24.707573" lon="115.36439"><time>2026-08-20T01:01:38.691Z</time></trkpt>
      <trkpt lat="24.707573" lon="115.36439"><time>2026-08-20T01:01:38.708Z</time></trkpt>
      <trkpt lat="24.707573" lon="115.36439"><time>2026-08-20T01:01:38.725Z</time></trkpt>
      <trkpt lat="24.707573" lon="115.36439"><time>2026-08-20T01:01:38.741Z</time></trkpt>
      <trkpt lat="24.707573" lon="115.36439"><time>2026-08-20T01:01:38.758Z</time></trkpt>
      <trkpt lat="24.707573" lon="115.36439"><time>2026-08-20T01:01:38.775Z</time></trkpt>
      <trkpt lat="24.707573" lon="115.36439"><time>2026-08-20T01:01:38.791Z</time></trkpt>
      <trkpt lat="24.707573" lon="115.36439"><time>2026-08-20T01:01:38.808Z</time></trkpt>
      <trkpt lat="24.707573" lon="115.36439"><time>2026-08-20T01:01:38.825Z</time></trkpt>
      <trkpt lat="24.707573" lon="115.364389"><time>2026-08-20T01:01:38.841Z</time></trkpt>
      <trkpt lat="24.707573" lon="115.364389"><time>2026-08-20T01:01:38.858Z</time></trkpt>
      <trkpt lat="24.707573" lon="115.364389"><time>2026-08-20T01:01:38.875Z</time></trkpt>
      <trkpt lat="24.707573" lon="115.364389"><time>2026-08-20T01:01:38.891Z</time></trkpt>
      <trkpt lat="24.707573" lon="115.364389"><time>2026-08-20T01:01:38.908Z</time></trkpt>
      <trkpt lat="24.707573" lon="115.364389"><time>2026-08-20T01:01:38.925Z</time></trkpt>
      <trkpt lat="24.707573" lon="115.364389"><time>2026-08-20T01:01:38.941Z</time></trkpt>
      <trkpt lat="24.707573" lon="115.364389"><time>2026-08-20T01:01:38.958Z</time></trkpt>
      <trkpt lat="24.707573" lon="115.364389"><time>2026-08-20T01:01:38.975Z</time></trkpt>
      <trkpt lat="24.707573" lon="115.364389"><time>2026-08-20T01:01:38.992Z</time></trkpt>
      <trkpt lat="24.707573" lon="115.364389"><time>2026-08-20T01:01:39.008Z</time></trkpt>
      <trkpt lat="24.707573" lon="115.364389"><time>2026-08-20T01:01:39.025Z</time></trkpt>
      <trkpt lat="24.707573" lon="115.364389"><time>2026-08-20T01:01:39.042Z</time></trkpt>
      <trkpt lat="24.707573" lon="115.364389"><time>2026-08-20T01:01:39.058Z</time></trkpt>
      <trkpt lat="24.707573" lon="115.364389"><time>2026-08-20T01:01:39.075Z</time></trkpt>
      <trkpt lat="24.707573" lon="115.364389"><time>2026-08-20T01:01:39.092Z</time></trkpt>
      <trkpt lat="24.707573" lon="115.364389"><time>2026-08-20T01:01:39.108Z</time></trkpt>
      <trkpt lat="24.707573" lon="115.364389"><time>2026-08-20T01:01:39.125Z</time></trkpt>
      <trkpt lat="24.707573" lon="115.364389"><time>2026-08-20T01:01:39.142Z</time></trkpt>
      <trkpt lat="24.707573" lon="115.364389"><time>2026-08-20T01:01:39.158Z</time></trkpt>
      <trkpt lat="24.707573" lon="115.364389"><time>2026-08-20T01:01:39.175Z</time></trkpt>
      <trkpt lat="24.707573" lon="115.364389"><time>2026-08-20T01:01:39.192Z</time></trkpt>
      <trkpt lat="24.707573" lon="115.364389"><time>2026-08-20T01:01:39.208Z</time></trkpt>
      <trkpt lat="24.707573" lon="115.364389"><time>2026-08-20T01:01:39.225Z</time></trkpt>
      <trkpt lat="24.707573" lon="115.364389"><time>2026-08-20T01:01:39.242Z</time></trkpt>
      <trkpt lat="24.707573" lon="115.364389"><time>2026-08-20T01:01:39.258Z</time></trkpt>
      <trkpt lat="24.707573" lon="115.364389"><time>2026-08-20T01:01:39.275Z</time></trkpt>
      <trkpt lat="24.707573" lon="115.364389"><time>2026-08-20T01:01:39.292Z</time></trkpt>
      <trkpt lat="24.707573" lon="115.364389"><time>2026-08-20T01:01:39.309Z</time></trkpt>
      <trkpt lat="24.707573" lon="115.364389"><time>2026-08-20T01:01:39.325Z</time></trkpt>
      <trkpt lat="24.707573" lon="115.364389"><time>2026-08-20T01:01:39.342Z</time></trkpt>
      <trkpt lat="24.707573" lon="115.364389"><time>2026-08-20T01:01:39.359Z</time></trkpt>
      <trkpt lat="24.707573" lon="115.364389"><time>2026-08-20T01:01:39.375Z</time></trkpt>
      <trkpt lat="24.707573" lon="115.364389"><time>2026-08-20T01:01:39.392Z</time></trkpt>
      <trkpt lat="24.707573" lon="115.364389"><time>2026-08-20T01:01:39.409Z</time></trkpt>
      <trkpt lat="24.707573" lon="115.364389"><time>2026-08-20T01:01:39.425Z</time></trkpt>
      <trkpt lat="24.707573" lon="115.364389"><time>2026-08-20T01:01:39.442Z</time></trkpt>
      <trkpt lat="24.707573" lon="115.364389"><time>2026-08-20T01:01:39.459Z</time></trkpt>
      <trkpt lat="24.707573" lon="115.364389"><time>2026-08-20T01:01:39.475Z</time></trkpt>
      <trkpt lat="24.707573" lon="115.364389"><time>2026-08-20T01:01:39.492Z</time></trkpt>
      <trkpt lat="24.707573" lon="115.364389"><time>2026-08-20T01:01:39.509Z</time></trkpt>
      <trkpt lat="24.707573" lon="115.364389"><time>2026-08-20T01:01:39.525Z</time></trkpt>
      <trkpt lat="24.707573" lon="115.364389"><time>2026-08-20T01:01:39.542Z</time></trkpt>
      <trkpt lat="24.707573" lon="115.364389"><time>2026-08-20T01:01:39.559Z</time></trkpt>
      <trkpt lat="24.707573" lon="115.364389"><time>2026-08-20T01:01:39.575Z</time></trkpt>
      <trkpt lat="24.707573" lon="115.364389"><time>2026-08-20T01:01:39.592Z</time></trkpt>
      <trkpt lat="24.707573" lon="115.364389"><time>2026-08-20T01:01:39.609Z</time></trkpt>
      <trkpt lat="24.707573" lon="115.364389"><time>2026-08-20T01:01:39.626Z</time></trkpt>
      <trkpt lat="24.707573" lon="115.364389"><time>2026-08-20T01:01:39.642Z</time></trkpt>
      <trkpt lat="24.707573" lon="115.364389"><time>2026-08-20T01:01:39.659Z</time></trkpt>
      <trkpt lat="24.707573" lon="115.364389"><time>2026-08-20T01:01:39.676Z</time></trkpt>
      <trkpt lat="24.707573" lon="115.364389"><time>2026-08-20T01:01:39.692Z</time></trkpt>
      <trkpt lat="24.707573" lon="115.364389"><time>2026-08-20T01:01:39.709Z</time></trkpt>
      <trkpt lat="24.707573" lon="115.364389"><time>2026-08-20T01:01:39.726Z</time></trkpt>
      <trkpt lat="24.707573" lon="115.364388"><time>2026-08-20T01:01:39.742Z</time></trkpt>
      <trkpt lat="24.707573" lon="115.364388"><time>2026-08-20T01:01:39.759Z</time></trkpt>
      <trkpt lat="24.707573" lon="115.364388"><time>2026-08-20T01:01:39.776Z</time></trkpt>
      <trkpt lat="24.707573" lon="115.364388"><time>2026-08-20T01:01:39.792Z</time></trkpt>
      <trkpt lat="24.707573" lon="115.364388"><time>2026-08-20T01:01:39.809Z</time></trkpt>
      <trkpt lat="24.707573" lon="115.364388"><time>2026-08-20T01:01:39.826Z</time></trkpt>
      <trkpt lat="24.707573" lon="115.364388"><time>2026-08-20T01:01:39.842Z</time></trkpt>
      <trkpt lat="24.707573" lon="115.364388"><time>2026-08-20T01:01:39.859Z</time></trkpt>
      <trkpt lat="24.707573" lon="115.364388"><time>2026-08-20T01:01:39.876Z</time></trkpt>
      <trkpt lat="24.707573" lon="115.364388"><time>2026-08-20T01:01:39.892Z</time></trkpt>
      <trkpt lat="24.707573" lon="115.364388"><time>2026-08-20T01:01:39.909Z</time></trkpt>
      <trkpt lat="24.707573" lon="115.364388"><time>2026-08-20T01:01:39.926Z</time></trkpt>
      <trkpt lat="24.707573" lon="115.364388"><time>2026-08-20T01:01:39.943Z</time></trkpt>
      <trkpt lat="24.707573" lon="115.364388"><time>2026-08-20T01:01:39.959Z</time></trkpt>
      <trkpt lat="24.707573" lon="115.364388"><time>2026-08-20T01:01:39.976Z</time></trkpt>
      <trkpt lat="24.707573" lon="115.364388"><time>2026-08-20T01:01:39.993Z</time></trkpt>
      <trkpt lat="24.707573" lon="115.364388"><time>2026-08-20T01:01:40.009Z</time></trkpt>
      <trkpt lat="24.707573" lon="115.364388"><time>2026-08-20T01:01:40.026Z</time></trkpt>
      <trkpt lat="24.707573" lon="115.364388"><time>2026-08-20T01:01:40.043Z</time></trkpt>
      <trkpt lat="24.707573" lon="115.364388"><time>2026-08-20T01:01:40.059Z</time></trkpt>
      <trkpt lat="24.707573" lon="115.364388"><time>2026-08-20T01:01:40.076Z</time></trkpt>
      <trkpt lat="24.707573" lon="115.364388"><time>2026-08-20T01:01:40.093Z</time></trkpt>
      <trkpt lat="24.707573" lon="115.364388"><time>2026-08-20T01:01:40.109Z</time></trkpt>
      <trkpt lat="24.707573" lon="115.364388"><time>2026-08-20T01:01:40.126Z</time></trkpt>
      <trkpt lat="24.707573" lon="115.364388"><time>2026-08-20T01:01:40.143Z</time></trkpt>
      <trkpt lat="24.707573" lon="115.364388"><time>2026-08-20T01:01:40.159Z</time></trkpt>
      <trkpt lat="24.707573" lon="115.364388"><time>2026-08-20T01:01:40.176Z</time></trkpt>
      <trkpt lat="24.707573" lon="115.364388"><time>2026-08-20T01:01:40.193Z</time></trkpt>
      <trkpt lat="24.707573" lon="115.364388"><time>2026-08-20T01:01:40.209Z</time></trkpt>
      <trkpt lat="24.707573" lon="115.364388"><time>2026-08-20T01:01:40.226Z</time></trkpt>
      <trkpt lat="24.707573" lon="115.364388"><time>2026-08-20T01:01:40.243Z</time></trkpt>
      <trkpt lat="24.707573" lon="115.364388"><time>2026-08-20T01:01:40.260Z</time></trkpt>
    </trkseg>
  </trk>
</gpx>
