<?xml version="1.0" encoding="UTF-8"?>
<gpx version="1.1" creator="Kairos" xmlns="http://www.topografix.com/GPX/1/1">
  <trk>
    <name>sidecar-srt-520aea608346ebb8</name>
    <trkseg>
      <trkpt lat="-0.000001" lon="0"><time>2026-06-18T11:07:29.000Z</time></trkpt>
      <trkpt lat="-0.000001" lon="0"><time>2026-06-18T11:07:29.016Z</time></trkpt>
      <trkpt lat="-0.000001" lon="0"><time>2026-06-18T11:07:29.032Z</time></trkpt>
      <trkpt lat="-0.000001" lon="0"><time>2026-06-18T11:07:29.049Z</time></trkpt>
      <trkpt lat="-0.000001" lon="0"><time>2026-06-18T11:07:29.066Z</time></trkpt>
      <trkpt lat="-0.000001" lon="0"><time>2026-06-18T11:07:29.082Z</time></trkpt>
      <trkpt lat="-0.000001" lon="0"><time>2026-06-18T11:07:29.099Z</time></trkpt>
      <trkpt lat="-0.000001" lon="0"><time>2026-06-18T11:07:29.116Z</time></trkpt>
      <trkpt lat="-0.000001" lon="0"><time>2026-06-18T11:07:29.132Z</time></trkpt>
      <trkpt lat="-0.000001" lon="0"><time>2026-06-18T11:07:29.149Z</time></trkpt>
      <trkpt lat="-0.000001" lon="0"><time>2026-06-18T11:07:29.166Z</time></trkpt>
      <trkpt lat="-0.000001" lon="0"><time>2026-06-18T11:07:29.182Z</time></trkpt>
      <trkpt lat="-0.000001" lon="0"><time>2026-06-18T11:07:29.199Z</time></trkpt>
      <trkpt lat="-0.000001" lon="0"><time>2026-06-18T11:07:29.216Z</time></trkpt>
      <trkpt lat="-0.000001" lon="0"><time>2026-06-18T11:07:29.232Z</time></trkpt>
      <trkpt lat="-0.000001" lon="0"><time>2026-06-18T11:07:29.249Z</time></trkpt>
      <trkpt lat="-0.000001" lon="0"><time>2026-06-18T11:07:29.266Z</time></trkpt>
      <trkpt lat="-0.000001" lon="0"><time>2026-06-18T11:07:29.282Z</time></trkpt>
      <trkpt lat="-0.000001" lon="0"><time>2026-06-18T11:07:29.299Z</time></trkpt>
      <trkpt lat="-0.000001" lon="0"><time>2026-06-18T11:07:29.316Z</time></trkpt>
      <trkpt lat="-0.000001" lon="0"><time>2026-06-18T11:07:29.333Z</time></trkpt>
      <trkpt lat="-0.000001" lon="0"><time>2026-06-18T11:07:29.349Z</time></trkpt>
      <trkpt lat="-0.000001" lon="0"><time>2026-06-18T11:07:29.366Z</time></trkpt>
      <trkpt lat="-0.000001" lon="0"><time>2026-06-18T11:07:29.383Z</time></trkpt>
      <trkpt lat="-0.000001" lon="0"><time>2026-06-18T11:07:29.399Z</time></trkpt>
      <trkpt lat="-0.000001" lon="0"><time>2026-06-18T11:07:29.416Z</time></trkpt>
      <trkpt lat="-0.000001" lon="0"><time>2026-06-18T11:07:29.433Z</time></trkpt>
      <trkpt lat="-0.000001" lon="0"><time>2026-06-18T11:07:29.449Z</time></trkpt>
      <trkpt lat="-0.000001" lon="0"><time>2026-06-18T11:07:29.466Z</time></trkpt>
      <trkpt lat="-0.000001" lon="0"><time>2026-06-18T11:07:29.483Z</time></trkpt>
      <trkpt lat="-0.000001" lon="0"><time>2026-06-18T11:07:29.499Z</time></trkpt>
      <trkpt lat="-0.000001" lon="0"><time>2026-06-18T11:07:29.516Z</time></trkpt>
      <trkpt lat="-0.000001" lon="0"><time>2026-06-18T11:07:29.533Z</time></trkpt>
      <trkpt lat="-0.000001" lon="0"><time>2026-06-18T11:07:29.549Z</time></trkpt>
      <trkpt lat="-0.000001" lon="0"><time>2026-06-18T11:07:29.566Z</time></trkpt>
      <trkpt lat="-0.000001" lon="0"><time>2026-06-18T11:07:29.583Z</time></trkpt>
      <trkpt lat="-0.000001" lon="0"><time>2026-06-18T11:07:29.599Z</time></trkpt>
      <trkpt lat="-0.000001" lon="0"><time>2026-06-18T11:07:29.616Z</time></trkpt>
      <trkpt lat="-0.000001" lon="0"><time>2026-06-18T11:07:29.633Z</time></trkpt>
      <trkpt lat="-0.000001" lon="0"><time>2026-06-18T11:07:29.650Z</time></trkpt>
      <trkpt lat="-0.000001" lon="0"><time>2026-06-18T11:07:29.666Z</time></trkpt>
      <trkpt lat="-0.000001" lon="0"><time>2026-06-18T11:07:29.683Z</time></trkpt>
      <trkpt lat="-0.000001" lon="0"><time>2026-06-18T11:07:29.700Z</time></trkpt>
      <trkpt lat="-0.000001" lon="0"><time>2026-06-18T11:07:29.716Z</time></trkpt>
      <trkpt lat="-0.000001" lon="0"><time>2026-06-18T11:07:29.733Z</time></trkpt>
      <trkpt lat="-0.000001" lon="0"><time>2026-06-18T11:07:29.750Z</time></trkpt>
      <trkpt lat="-0.000001" lon="0"><time>2026-06-18T11:07:29.766Z</time></trkpt>
      <trkpt lat="-0.000001" lon="0"><time>2026-06-18T11:07:29.783Z</time></trkpt>
      <trkpt lat="-0.000001" lon="0"><time>2026-06-18T11:07:29.800Z</time></trkpt>
      <trkpt lat="-0.000001" lon="0"><time>2026-06-18T11:07:29.816Z</time></trkpt>
      <trkpt lat="-0.000001" lon="0"><time>2026-06-18T11:07:29.833Z</time></trkpt>
      <trkpt lat="-0.000001" lon="0"><time>2026-06-18T11:07:29.850Z</time></trkpt>
      <trkpt lat="-0.000001" lon="0"><time>2026-06-18T11:07:29.866Z</time></trkpt>
      <trkpt lat="-0.000001" lon="0"><time>2026-06-18T11:07:29.883Z</time></trkpt>
      <trkpt lat="-0.000001" lon="0"><time>2026-06-18T11:07:29.900Z</time></trkpt>
      <trkpt lat="-0.000001" lon="0"><time>2026-06-18T11:07:29.916Z</time></trkpt>
      <trkpt lat="-0.000001" lon="0"><time>2026-06-18T11:07:29.933Z</time></trkpt>
      <trkpt lat="-0.000001" lon="0"><time>2026-06-18T11:07:29.950Z</time></trkpt>
      <trkpt lat="-0.000001" lon="0"><time>2026-06-18T11:07:29.966Z</time></trkpt>
      <trkpt lat="-0.000001" lon="0"><time>2026-06-18T11:07:29.983Z</time></trkpt>
      <trkpt lat="-0.000001" lon="0"><time>2026-06-18T11:07:30.000Z</time></trkpt>
      <trkpt lat="-0.000001" lon="0"><time>2026-06-18T11:07:30.017Z</time></trkpt>
      <trkpt lat="-0.000001" lon="0"><time>2026-06-18T11:07:30.033Z</time></trkpt>
      <trkpt lat="-0.000001" lon="0"><time>2026-06-18T11:07:30.050Z</time></trkpt>
      <trkpt lat="-0.000001" lon="0"><time>2026-06-18T11:07:30.067Z</time></trkpt>
      <trkpt lat="-0.000001" lon="0"><time>2026-06-18T11:07:30.083Z</time></trkpt>
      <trkpt lat="-0.000001" lon="0"><time>2026-06-18T11:07:30.100Z</time></trkpt>
      <trkpt lat="-0.000001" lon="0"><time>2026-06-18T11:07:30.117Z</time></trkpt>
      <trkpt lat="-0.000001" lon="0"><time>2026-06-18T11:07:30.133Z</time></trkpt>
      <trkpt lat="-0.000001" lon="0"><time>2026-06-18T11:07:30.150Z</time></trkpt>
      <trkpt lat="-0.000001" lon="0"><time>2026-06-18T11:07:30.167Z</time></trkpt>
      <trkpt lat="-0.000001" lon="0"><time>2026-06-18T11:07:30.183Z</time></trkpt>
      <trkpt lat="-0.000001" lon="0"><time>2026-06-18T11:07:30.200Z</time></trkpt>
      <trkpt lat="-0.000001" lon="0"><time>2026-06-18T11:07:30.217Z</time></trkpt>
      <trkpt lat="-0.000001" lon="0"><time>2026-06-18T11:07:30.233Z</time></trkpt>
      <trkpt lat="-0.000001" lon="0"><time>2026-06-18T11:07:30.250Z</time></trkpt>
      <trkpt lat="-0.000001" lon="0"><time>2026-06-18T11:07:30.267Z</time></trkpt>
      <trkpt lat="-0.000001" lon="0"><time>2026-06-18T11:07:30.283Z</time></trkpt>
      <trkpt lat="-0.000001" lon="0"><time>2026-06-18T11:07:30.300Z</time></trkpt>
      <trkpt lat="-0.000001" lon="0"><time>2026-06-18T11:07:30.317Z</time></trkpt>
      <trkpt lat="-0.000001" lon="0"><time>2026-06-18T11:07:30.334Z</time></trkpt>
      <trkpt lat="-0.000001" lon="0"><time>2026-06-18T11:07:30.350Z</time></trkpt>
      <trkpt lat="-0.000001" lon="0"><time>2026-06-18T11:07:30.367Z</time></trkpt>
      <trkpt lat="-0.000001" lon="0"><time>2026-06-18T11:07:30.384Z</time></trkpt>
      <trkpt lat="-0.000001" lon="0"><time>2026-06-18T11:07:30.400Z</time></trkpt>
      <trkpt lat="-0.000001" lon="0"><time>2026-06-18T11:07:30.417Z</time></trkpt>
      <trkpt lat="-0.000001" lon="0"><time>2026-06-18T11:07:30.434Z</time></trkpt>
      <trkpt lat="-0.000001" lon="0"><time>2026-06-18T11:07:30.450Z</time></trkpt>
      <trkpt lat="-0.000001" lon="0"><time>2026-06-18T11:07:30.467Z</time></trkpt>
      <trkpt lat="-0.000001" lon="0"><time>2026-06-18T11:07:30.484Z</time></trkpt>
      <trkpt lat="-0.000001" lon="0"><time>2026-06-18T11:07:30.500Z</time></trkpt>
      <trkpt lat="-0.000001" lon="0"><time>2026-06-18T11:07:30.517Z</time></trkpt>
      <trkpt lat="-0.000001" lon="0"><time>2026-06-18T11:07:30.534Z</time></trkpt>
      <trkpt lat="-0.000001" lon="0"><time>2026-06-18T11:07:30.550Z</time></trkpt>
      <trkpt lat="-0.000001" lon="0"><time>2026-06-18T11:07:30.567Z</time></trkpt>
      <trkpt lat="-0.000001" lon="0"><time>2026-06-18T11:07:30.584Z</time></trkpt>
      <trkpt lat="-0.000001" lon="0"><time>2026-06-18T11:07:30.600Z</time></trkpt>
      <trkpt lat="-0.000001" lon="0"><time>2026-06-18T11:07:30.617Z</time></trkpt>
      <trkpt lat="-0.000001" lon="0"><time>2026-06-18T11:07:30.634Z</time></trkpt>
      <trkpt lat="-0.000001" lon="0"><time>2026-06-18T11:07:30.651Z</time></trkpt>
      <trkpt lat="-0.000001" lon="0"><time>2026-06-18T11:07:30.667Z</time></trkpt>
      <trkpt lat="-0.000001" lon="0"><time>2026-06-18T11:07:30.684Z</time></trkpt>
      <trkpt lat="-0.000001" lon="0"><time>2026-06-18T11:07:30.701Z</time></trkpt>
      <trkpt lat="-0.000001" lon="0"><time>2026-06-18T11:07:30.717Z</time></trkpt>
      <trkpt lat="-0.000001" lon="0"><time>2026-06-18T11:07:30.734Z</time></trkpt>
      <trkpt lat="-0.000001" lon="0"><time>2026-06-18T11:07:30.751Z</time></trkpt>
      <trkpt lat="-0.000001" lon="0"><time>2026-06-18T11:07:30.767Z</time></trkpt>
      <trkpt lat="-0.000001" lon="0"><time>2026-06-18T11:07:30.784Z</time></trkpt>
      <trkpt lat="-0.000001" lon="0"><time>2026-06-18T11:07:30.801Z</time></trkpt>
      <trkpt lat="-0.000001" lon="0"><time>2026-06-18T11:07:30.817Z</time></trkpt>
      <trkpt lat="-0.000001" lon="0"><time>2026-06-18T11:07:30.834Z</time></trkpt>
      <trkpt lat="-0.000001" lon="0"><time>2026-06-18T11:07:30.851Z</time></trkpt>
      <trkpt lat="-0.000001" lon="0"><time>2026-06-18T11:07:30.867Z</time></trkpt>
      <trkpt lat="-0.000001" lon="0"><time>2026-06-18T11:07:30.884Z</time></trkpt>
      <trkpt lat="-0.000001" lon="0"><time>2026-06-18T11:07:30.901Z</time></trkpt>
      <trkpt lat="-0.000001" lon="0"><time>2026-06-18T11:07:30.917Z</time></trkpt>
      <trkpt lat="-0.000001" lon="0"><time>2026-06-18T11:07:30.934Z</time></trkpt>
      <trkpt lat="-0.000001" lon="0"><time>2026-06-18T11:07:30.951Z</time></trkpt>
      <trkpt lat="-0.000001" lon="0"><time>2026-06-18T11:07:30.968Z</time></trkpt>
      <trkpt lat="-0.000001" lon="0"><time>2026-06-18T11:07:30.984Z</time></trkpt>
      <trkpt lat="-0.000001" lon="0"><time>2026-06-18T11:07:31.001Z</time></trkpt>
      <trkpt lat="-0.000001" lon="0"><time>2026-06-18T11:07:31.018Z</time></trkpt>
      <trkpt lat="-0.000001" lon="0"><time>2026-06-18T11:07:31.034Z</time></trkpt>
      <trkpt lat="-0.000001" lon="0"><time>2026-06-18T11:07:31.051Z</time></trkpt>
      <trkpt lat="-0.000001" lon="0"><time>2026-06-18T11:07:31.068Z</time></trkpt>
      <trkpt lat="-0.000001" lon="0"><time>2026-06-18T11:07:31.084Z</time></trkpt>
      <trkpt lat="-0.000001" lon="0"><time>2026-06-18T11:07:31.101Z</time></trkpt>
      <trkpt lat="-0.000001" lon="0"><time>2026-06-18T11:07:31.118Z</time></trkpt>
      <trkpt lat="-0.000001" lon="0"><time>2026-06-18T11:07:31.134Z</time></trkpt>
      <trkpt lat="-0.000001" lon="0"><time>2026-06-18T11:07:31.151Z</time></trkpt>
      <trkpt lat="-0.000001" lon="0"><time>2026-06-18T11:07:31.168Z</time></trkpt>
      <trkpt lat="-0.000001" lon="0"><time>2026-06-18T11:07:31.184Z</time></trkpt>
      <trkpt lat="-0.000001" lon="0"><time>2026-06-18T11:07:31.201Z</time></trkpt>
      <trkpt lat="-0.000001" lon="0"><time>2026-06-18T11:07:31.218Z</time></trkpt>
      <trkpt lat="-0.000001" lon="0"><time>2026-06-18T11:07:31.234Z</time></trkpt>
      <trkpt lat="-0.000001" lon="0"><time>2026-06-18T11:07:31.251Z</time></trkpt>
      <trkpt lat="-0.000001" lon="0"><time>2026-06-18T11:07:31.268Z</time></trkpt>
      <trkpt lat="-0.000001" lon="0"><time>2026-06-18T11:07:31.285Z</time></trkpt>
      <trkpt lat="-0.000001" lon="0"><time>2026-06-18T11:07:31.301Z</time></trkpt>
      <trkpt lat="-0.000001" lon="0"><time>2026-06-18T11:07:31.318Z</time></trkpt>
      <trkpt lat="0" lon="0"><time>2026-06-18T11:07:31.335Z</time></trkpt>
      <trkpt lat="0" lon="0"><time>2026-06-18T11:07:31.351Z</time></trkpt>
      <trkpt lat="0" lon="0"><time>2026-06-18T11:07:31.368Z</time></trkpt>
      <trkpt lat="0" lon="0"><time>2026-06-18T11:07:31.385Z</time></trkpt>
      <trkpt lat="0" lon="0"><time>2026-06-18T11:07:31.401Z</time></trkpt>
      <trkpt lat="0" lon="0"><time>2026-06-18T11:07:31.418Z</time></trkpt>
      <trkpt lat="0" lon="0"><time>2026-06-18T11:07:31.435Z</time></trkpt>
      <trkpt lat="0" lon="0"><time>2026-06-18T11:07:31.451Z</time></trkpt>
      <trkpt lat="0" lon="0"><time>2026-06-18T11:07:31.468Z</time></trkpt>
      <trkpt lat="0" lon="0"><time>2026-06-18T11:07:31.485Z</time></trkpt>
      <trkpt lat="0" lon="0"><time>2026-06-18T11:07:31.501Z</time></trkpt>
      <trkpt lat="0" lon="0"><time>2026-06-18T11:07:31.518Z</time></trkpt>
      <trkpt lat="0" lon="0"><time>2026-06-18T11:07:31.535Z</time></trkpt>
      <trkpt lat="0" lon="0"><time>2026-06-18T11:07:31.551Z</time></trkpt>
      <trkpt lat="0" lon="0"><time>2026-06-18T11:07:31.568Z</time></trkpt>
      <trkpt lat="0" lon="0"><time>2026-06-18T11:07:31.585Z</time></trkpt>
      <trkpt lat="0" lon="0"><time>2026-06-18T11:07:31.602Z</time></trkpt>
      <trkpt lat="0" lon="0"><time>2026-06-18T11:07:31.618Z</time></trkpt>
      <trkpt lat="0" lon="0"><time>2026-06-18T11:07:31.635Z</time></trkpt>
      <trkpt lat="0" lon="0"><time>2026-06-18T11:07:31.652Z</time></trkpt>
      <trkpt lat="0" lon="0"><time>2026-06-18T11:07:31.668Z</time></trkpt>
      <trkpt lat="0" lon="0"><time>2026-06-18T11:07:31.685Z</time></trkpt>
      <trkpt lat="0" lon="0"><time>2026-06-18T11:07:31.702Z</time></trkpt>
      <trkpt lat="0" lon="0"><time>2026-06-18T11:07:31.718Z</time></trkpt>
      <trkpt lat="0" lon="0"><time>2026-06-18T11:07:31.735Z</time></trkpt>
      <trkpt lat="0" lon="0"><time>2026-06-18T11:07:31.752Z</time></trkpt>
      <trkpt lat="0" lon="0"><time>2026-06-18T11:07:31.768Z</time></trkpt>
      <trkpt lat="0" lon="0"><time>2026-06-18T11:07:31.785Z</time></trkpt>
      <trkpt lat="0" lon="0"><time>2026-06-18T11:07:31.802Z</time></trkpt>
      <trkpt lat="0" lon="0"><time>2026-06-18T11:07:31.818Z</time></trkpt>
      <trkpt lat="0" lon="0"><time>2026-06-18T11:07:31.835Z</time></trkpt>
      <trkpt lat="0" lon="0"><time>2026-06-18T11:07:31.852Z</time></trkpt>
      <trkpt lat="0" lon="0"><time>2026-06-18T11:07:31.868Z</time></trkpt>
      <trkpt lat="0" lon="0"><time>2026-06-18T11:07:31.885Z</time></trkpt>
      <trkpt lat="0" lon="0"><time>2026-06-18T11:07:31.902Z</time></trkpt>
      <trkpt lat="0" lon="0"><time>2026-06-18T11:07:31.919Z</time></trkpt>
      <trkpt lat="0" lon="0"><time>2026-06-18T11:07:31.935Z</time></trkpt>
      <trkpt lat="0" lon="0"><time>2026-06-18T11:07:31.952Z</time></trkpt>
      <trkpt lat="0" lon="0"><time>2026-06-18T11:07:31.969Z</time></trkpt>
      <trkpt lat="0" lon="0"><time>2026-06-18T11:07:31.985Z</time></trkpt>
      <trkpt lat="0" lon="0"><time>2026-06-18T11:07:32.002Z</time></trkpt>
      <trkpt lat="0" lon="0"><time>2026-06-18T11:07:32.019Z</time></trkpt>
      <trkpt lat="0" lon="0"><time>2026-06-18T11:07:32.035Z</time></trkpt>
      <trkpt lat="0" lon="0"><time>2026-06-18T11:07:32.052Z</time></trkpt>
      <trkpt lat="0" lon="0"><time>2026-06-18T11:07:32.069Z</time></trkpt>
      <trkpt lat="0" lon="0"><time>2026-06-18T11:07:32.085Z</time></trkpt>
      <trkpt lat="0" lon="0"><time>2026-06-18T11:07:32.102Z</time></trkpt>
      <trkpt lat="0" lon="0"><time>2026-06-18T11:07:32.119Z</time></trkpt>
      <trkpt lat="38.041448" lon="114.030673"><time>2026-06-18T11:07:32.135Z</time></trkpt>
      <trkpt lat="38.041448" lon="114.030673"><time>2026-06-18T11:07:32.152Z</time></trkpt>
      <trkpt lat="38.041448" lon="114.030673"><time>2026-06-18T11:07:32.169Z</time></trkpt>
      <trkpt lat="38.041448" lon="114.030673"><time>2026-06-18T11:07:32.185Z</time></trkpt>
      <trkpt lat="38.041448" lon="114.030673"><time>2026-06-18T11:07:32.202Z</time></trkpt>
      <trkpt lat="38.041448" lon="114.030673"><time>2026-06-18T11:07:32.219Z</time></trkpt>
      <trkpt lat="38.041448" lon="114.030673"><time>2026-06-18T11:07:32.236Z</time></trkpt>
      <trkpt lat="38.041448" lon="114.030673"><time>2026-06-18T11:07:32.252Z</time></trkpt>
      <trkpt lat="38.041448" lon="114.030673"><time>2026-06-18T11:07:32.269Z</time></trkpt>
      <trkpt lat="38.041448" lon="114.030673"><time>2026-06-18T11:07:32.286Z</time></trkpt>
      <trkpt lat="38.041448" lon="114.030673"><time>2026-06-18T11:07:32.302Z</time></trkpt>
      <trkpt lat="38.041448" lon="114.030673"><time>2026-06-18T11:07:32.319Z</time></trkpt>
      <trkpt lat="38.041448" lon="114.030674"><time>2026-06-18T11:07:32.336Z</time></trkpt>
      <trkpt lat="38.041448" lon="114.030674"><time>2026-06-18T11:07:32.352Z</time></trkpt>
      <trkpt lat="38.041448" lon="114.030674"><time>2026-06-18T11:07:32.369Z</time></trkpt>
      <trkpt lat="38.041448" lon="114.030674"><time>2026-06-18T11:07:32.386Z</time></trkpt>
      <trkpt lat="38.041448" lon="114.030674"><time>2026-06-18T11:07:32.402Z</time></trkpt>
      <trkpt lat="38.041448" lon="114.030674"><time>2026-06-18T11:07:32.419Z</time></trkpt>
      <trkpt lat="38.041448" lon="114.030674"><time>2026-06-18T11:07:32.436Z</time></trkpt>
      <trkpt lat="38.041448" lon="114.030674"><time>2026-06-18T11:07:32.452Z</time></trkpt>
      <trkpt lat="38.041448" lon="114.030674"><time>2026-06-18T11:07:32.469Z</time></trkpt>
      <trkpt lat="38.041448" lon="114.030674"><time>2026-06-18T11:07:32.486Z</time></trkpt>
      <trkpt lat="38.041448" lon="114.030674"><time>2026-06-18T11:07:32.502Z</time></trkpt>
      <trkpt lat="38.041448" lon="114.030674"><time>2026-06-18T11:07:32.519Z</time></trkpt>
      <trkpt lat="38.041447" lon="114.030674"><time>2026-06-18T11:07:32.536Z</time></trkpt>
      <trkpt lat="38.041447" lon="114.030674"><time>2026-06-18T11:07:32.553Z</time></trkpt>
      <trkpt lat="38.041447" lon="114.030674"><time>2026-06-18T11:07:32.569Z</time></trkpt>
      <trkpt lat="38.041447" lon="114.030674"><time>2026-06-18T11:07:32.586Z</time></trkpt>
      <trkpt lat="38.041447" lon="114.030674"><time>2026-06-18T11:07:32.603Z</time></trkpt>
      <trkpt lat="38.041447" lon="114.030674"><time>2026-06-18T11:07:32.619Z</time></trkpt>
      <trkpt lat="38.041447" lon="114.030674"><time>2026-06-18T11:07:32.636Z</time></trkpt>
      <trkpt lat="38.041447" lon="114.030674"><time>2026-06-18T11:07:32.653Z</time></trkpt>
      <trkpt lat="38.041447" lon="114.030674"><time>2026-06-18T11:07:32.669Z</time></trkpt>
      <trkpt lat="38.041447" lon="114.030674"><time>2026-06-18T11:07:32.686Z</time></trkpt>
      <trkpt lat="38.041447" lon="114.030674"><time>2026-06-18T11:07:32.703Z</time></trkpt>
      <trkpt lat="38.041447" lon="114.030674"><time>2026-06-18T11:07:32.719Z</time></trkpt>
      <trkpt lat="38.041447" lon="114.030675"><time>2026-06-18T11:07:32.736Z</time></trkpt>
      <trkpt lat="38.041447" lon="114.030675"><time>2026-06-18T11:07:32.753Z</time></trkpt>
      <trkpt lat="38.041447" lon="114.030675"><time>2026-06-18T11:07:32.769Z</time></trkpt>
      <trkpt lat="38.041447" lon="114.030675"><time>2026-06-18T11:07:32.786Z</time></trkpt>
      <trkpt lat="38.041447" lon="114.030675"><time>2026-06-18T11:07:32.803Z</time></trkpt>
      <trkpt lat="38.041447" lon="114.030675"><time>2026-06-18T11:07:32.819Z</time></trkpt>
      <trkpt lat="38.041447" lon="114.030675"><time>2026-06-18T11:07:32.836Z</time></trkpt>
      <trkpt lat="38.041447" lon="114.030675"><time>2026-06-18T11:07:32.853Z</time></trkpt>
      <trkpt lat="38.041447" lon="114.030675"><time>2026-06-18T11:07:32.870Z</time></trkpt>
      <trkpt lat="38.041447" lon="114.030675"><time>2026-06-18T11:07:32.886Z</time></trkpt>
      <trkpt lat="38.041447" lon="114.030675"><time>2026-06-18T11:07:32.903Z</time></trkpt>
      <trkpt lat="38.041447" lon="114.030675"><time>2026-06-18T11:07:32.920Z</time></trkpt>
      <trkpt lat="38.041446" lon="114.030675"><time>2026-06-18T11:07:32.936Z</time></trkpt>
      <trkpt lat="38.041446" lon="114.030675"><time>2026-06-18T11:07:32.953Z</time></trkpt>
      <trkpt lat="38.041446" lon="114.030675"><time>2026-06-18T11:07:32.970Z</time></trkpt>
      <trkpt lat="38.041446" lon="114.030675"><time>2026-06-18T11:07:32.986Z</time></trkpt>
      <trkpt lat="38.041446" lon="114.030675"><time>2026-06-18T11:07:33.003Z</time></trkpt>
      <trkpt lat="38.041446" lon="114.030675"><time>2026-06-18T11:07:33.020Z</time></trkpt>
      <trkpt lat="38.041446" lon="114.030675"><time>2026-06-18T11:07:33.036Z</time></trkpt>
      <trkpt lat="38.041446" lon="114.030675"><time>2026-06-18T11:07:33.053Z</time></trkpt>
      <trkpt lat="38.041446" lon="114.030675"><time>2026-06-18T11:07:33.070Z</time></trkpt>
      <trkpt lat="38.041446" lon="114.030675"><time>2026-06-18T11:07:33.086Z</time></trkpt>
      <trkpt lat="38.041446" lon="114.030675"><time>2026-06-18T11:07:33.103Z</time></trkpt>
      <trkpt lat="38.041446" lon="114.030675"><time>2026-06-18T11:07:33.120Z</time></trkpt>
      <trkpt lat="38.041446" lon="114.030675"><time>2026-06-18T11:07:33.136Z</time></trkpt>
      <trkpt lat="38.041446" lon="114.030675"><time>2026-06-18T11:07:33.153Z</time></trkpt>
      <trkpt lat="38.041446" lon="114.030675"><time>2026-06-18T11:07:33.170Z</time></trkpt>
      <trkpt lat="38.041446" lon="114.030675"><time>2026-06-18T11:07:33.187Z</time></trkpt>
      <trkpt lat="38.041446" lon="114.030675"><time>2026-06-18T11:07:33.203Z</time></trkpt>
      <trkpt lat="38.041446" lon="114.030675"><time>2026-06-18T11:07:33.220Z</time></trkpt>
      <trkpt lat="38.041446" lon="114.030675"><time>2026-06-18T11:07:33.237Z</time></trkpt>
      <trkpt lat="38.041446" lon="114.030675"><time>2026-06-18T11:07:33.253Z</time></trkpt>
      <trkpt lat="38.041446" lon="114.030675"><time>2026-06-18T11:07:33.270Z</time></trkpt>
      <trkpt lat="38.041446" lon="114.030675"><time>2026-06-18T11:07:33.287Z</time></trkpt>
      <trkpt lat="38.041446" lon="114.030675"><time>2026-06-18T11:07:33.303Z</time></trkpt>
      <trkpt lat="38.041446" lon="114.030675"><time>2026-06-18T11:07:33.320Z</time></trkpt>
      <trkpt lat="38.041445" lon="114.030676"><time>2026-06-18T11:07:33.337Z</time></trkpt>
      <trkpt lat="38.041445" lon="114.030676"><time>2026-06-18T11:07:33.353Z</time></trkpt>
      <trkpt lat="38.041445" lon="114.030676"><time>2026-06-18T11:07:33.370Z</time></trkpt>
      <trkpt lat="38.041445" lon="114.030676"><time>2026-06-18T11:07:33.387Z</time></trkpt>
      <trkpt lat="38.041445" lon="114.030676"><time>2026-06-18T11:07:33.403Z</time></trkpt>
      <trkpt lat="38.041445" lon="114.030676"><time>2026-06-18T11:07:33.420Z</time></trkpt>
      <trkpt lat="38.041445" lon="114.030676"><time>2026-06-18T11:07:33.437Z</time></trkpt>
      <trkpt lat="38.041445" lon="114.030676"><time>2026-06-18T11:07:33.453Z</time></trkpt>
      <trkpt lat="38.041445" lon="114.030676"><time>2026-06-18T11:07:33.470Z</time></trkpt>
      <trkpt lat="38.041445" lon="114.030676"><time>2026-06-18T11:07:33.487Z</time></trkpt>
      <trkpt lat="38.041445" lon="114.030676"><time>2026-06-18T11:07:33.504Z</time></trkpt>
      <trkpt lat="38.041445" lon="114.030676"><time>2026-06-18T11:07:33.520Z</time></trkpt>
      <trkpt lat="38.041445" lon="114.030676"><time>2026-06-18T11:07:33.537Z</time></trkpt>
      <trkpt lat="38.041445" lon="114.030676"><time>2026-06-18T11:07:33.554Z</time></trkpt>
      <trkpt lat="38.041445" lon="114.030676"><time>2026-06-18T11:07:33.570Z</time></trkpt>
      <trkpt lat="38.041445" lon="114.030676"><time>2026-06-18T11:07:33.587Z</time></trkpt>
      <trkpt lat="38.041445" lon="114.030676"><time>2026-06-18T11:07:33.604Z</time></trkpt>
      <trkpt lat="38.041445" lon="114.030676"><time>2026-06-18T11:07:33.620Z</time></trkpt>
      <trkpt lat="38.041445" lon="114.030676"><time>2026-06-18T11:07:33.637Z</time></trkpt>
      <trkpt lat="38.041445" lon="114.030676"><time>2026-06-18T11:07:33.654Z</time></trkpt>
      <trkpt lat="38.041445" lon="114.030676"><time>2026-06-18T11:07:33.670Z</time></trkpt>
      <trkpt lat="38.041445" lon="114.030676"><time>2026-06-18T11:07:33.687Z</time></trkpt>
      <trkpt lat="38.041445" lon="114.030676"><time>2026-06-18T11:07:33.704Z</time></trkpt>
      <trkpt lat="38.041445" lon="114.030676"><time>2026-06-18T11:07:33.720Z</time></trkpt>
      <trkpt lat="38.041444" lon="114.030675"><time>2026-06-18T11:07:33.737Z</time></trkpt>
      <trkpt lat="38.041444" lon="114.030675"><time>2026-06-18T11:07:33.754Z</time></trkpt>
      <trkpt lat="38.041444" lon="114.030675"><time>2026-06-18T11:07:33.770Z</time></trkpt>
      <trkpt lat="38.041444" lon="114.030675"><time>2026-06-18T11:07:33.787Z</time></trkpt>
      <trkpt lat="38.041444" lon="114.030675"><time>2026-06-18T11:07:33.804Z</time></trkpt>
      <trkpt lat="38.041444" lon="114.030675"><time>2026-06-18T11:07:33.821Z</time></trkpt>
      <trkpt lat="38.041444" lon="114.030675"><time>2026-06-18T11:07:33.837Z</time></trkpt>
      <trkpt lat="38.041444" lon="114.030675"><time>2026-06-18T11:07:33.854Z</time></trkpt>
      <trkpt lat="38.041444" lon="114.030675"><time>2026-06-18T11:07:33.871Z</time></trkpt>
      <trkpt lat="38.041444" lon="114.030675"><time>2026-06-18T11:07:33.887Z</time></trkpt>
      <trkpt lat="38.041444" lon="114.030675"><time>2026-06-18T11:07:33.904Z</time></trkpt>
      <trkpt lat="38.041444" lon="114.030675"><time>2026-06-18T11:07:33.921Z</time></trkpt>
      <trkpt lat="38.041444" lon="114.030676"><time>2026-06-18T11:07:33.937Z</time></trkpt>
      <trkpt lat="38.041444" lon="114.030676"><time>2026-06-18T11:07:33.954Z</time></trkpt>
      <trkpt lat="38.041444" lon="114.030676"><time>2026-06-18T11:07:33.971Z</time></trkpt>
      <trkpt lat="38.041444" lon="114.030676"><time>2026-06-18T11:07:33.987Z</time></trkpt>
      <trkpt lat="38.041444" lon="114.030676"><time>2026-06-18T11:07:34.004Z</time></trkpt>
      <trkpt lat="38.041444" lon="114.030676"><time>2026-06-18T11:07:34.021Z</time></trkpt>
      <trkpt lat="38.041444" lon="114.030676"><time>2026-06-18T11:07:34.037Z</time></trkpt>
      <trkpt lat="38.041444" lon="114.030676"><time>2026-06-18T11:07:34.054Z</time></trkpt>
      <trkpt lat="38.041444" lon="114.030676"><time>2026-06-18T11:07:34.071Z</time></trkpt>
      <trkpt lat="38.041444" lon="114.030676"><time>2026-06-18T11:07:34.087Z</time></trkpt>
      <trkpt lat="38.041444" lon="114.030676"><time>2026-06-18T11:07:34.104Z</time></trkpt>
      <trkpt lat="38.041444" lon="114.030676"><time>2026-06-18T11:07:34.121Z</time></trkpt>
      <trkpt lat="38.041444" lon="114.030676"><time>2026-06-18T11:07:34.138Z</time></trkpt>
      <trkpt lat="38.041444" lon="114.030676"><time>2026-06-18T11:07:34.154Z</time></trkpt>
      <trkpt lat="38.041444" lon="114.030676"><time>2026-06-18T11:07:34.171Z</time></trkpt>
      <trkpt lat="38.041444" lon="114.030676"><time>2026-06-18T11:07:34.188Z</time></trkpt>
      <trkpt lat="38.041444" lon="114.030676"><time>2026-06-18T11:07:34.204Z</time></trkpt>
      <trkpt lat="38.041444" lon="114.030676"><time>2026-06-18T11:07:34.221Z</time></trkpt>
      <trkpt lat="38.041443" lon="114.030677"><time>2026-06-18T11:07:34.238Z</time></trkpt>
      <trkpt lat="38.041443" lon="114.030677"><time>2026-06-18T11:07:34.254Z</time></trkpt>
      <trkpt lat="38.041443" lon="114.030677"><time>2026-06-18T11:07:34.271Z</time></trkpt>
      <trkpt lat="38.041443" lon="114.030677"><time>2026-06-18T11:07:34.288Z</time></trkpt>
      <trkpt lat="38.041443" lon="114.030677"><time>2026-06-18T11:07:34.304Z</time></trkpt>
      <trkpt lat="38.041443" lon="114.030677"><time>2026-06-18T11:07:34.321Z</time></trkpt>
      <trkpt lat="38.041443" lon="114.030678"><time>2026-06-18T11:07:34.338Z</time></trkpt>
      <trkpt lat="38.041443" lon="114.030678"><time>2026-06-18T11:07:34.354Z</time></trkpt>
      <trkpt lat="38.041443" lon="114.030678"><time>2026-06-18T11:07:34.371Z</time></trkpt>
      <trkpt lat="38.041443" lon="114.030678"><time>2026-06-18T11:07:34.388Z</time></trkpt>
      <trkpt lat="38.041443" lon="114.030678"><time>2026-06-18T11:07:34.404Z</time></trkpt>
      <trkpt lat="38.041443" lon="114.030678"><time>2026-06-18T11:07:34.421Z</time></trkpt>
      <trkpt lat="38.041443" lon="114.030679"><time>2026-06-18T11:07:34.438Z</time></trkpt>
      <trkpt lat="38.041443" lon="114.030679"><time>2026-06-18T11:07:34.455Z</time></trkpt>
      <trkpt lat="38.041443" lon="114.030679"><time>2026-06-18T11:07:34.471Z</time></trkpt>
      <trkpt lat="38.041443" lon="114.030679"><time>2026-06-18T11:07:34.488Z</time></trkpt>
      <trkpt lat="38.041443" lon="114.030679"><time>2026-06-18T11:07:34.505Z</time></trkpt>
      <trkpt lat="38.041443" lon="114.030679"><time>2026-06-18T11:07:34.521Z</time></trkpt>
      <trkpt lat="38.041444" lon="114.030681"><time>2026-06-18T11:07:34.538Z</time></trkpt>
      <trkpt lat="38.041444" lon="114.030681"><time>2026-06-18T11:07:34.555Z</time></trkpt>
      <trkpt lat="38.041444" lon="114.030681"><time>2026-06-18T11:07:34.571Z</time></trkpt>
      <trkpt lat="38.041444" lon="114.030681"><time>2026-06-18T11:07:34.588Z</time></trkpt>
      <trkpt lat="38.041444" lon="114.030681"><time>2026-06-18T11:07:34.605Z</time></trkpt>
      <trkpt lat="38.041444" lon="114.030681"><time>2026-06-18T11:07:34.621Z</time></trkpt>
      <trkpt lat="38.041443" lon="114.030683"><time>2026-06-18T11:07:34.638Z</time></trkpt>
      <trkpt lat="38.041443" lon="114.030683"><time>2026-06-18T11:07:34.655Z</time></trkpt>
      <trkpt lat="38.041443" lon="114.030683"><time>2026-06-18T11:07:34.671Z</time></trkpt>
      <trkpt lat="38.041443" lon="114.030683"><time>2026-06-18T11:07:34.688Z</time></trkpt>
      <trkpt lat="38.041443" lon="114.030683"><time>2026-06-18T11:07:34.705Z</time></trkpt>
      <trkpt lat="38.041443" lon="114.030683"><time>2026-06-18T11:07:34.721Z</time></trkpt>
      <trkpt lat="38.041444" lon="114.030685"><time>2026-06-18T11:07:34.738Z</time></trkpt>
      <trkpt lat="38.041444" lon="114.030685"><time>2026-06-18T11:07:34.755Z</time></trkpt>
      <trkpt lat="38.041444" lon="114.030685"><time>2026-06-18T11:07:34.772Z</time></trkpt>
      <trkpt lat="38.041444" lon="114.030685"><time>2026-06-18T11:07:34.788Z</time></trkpt>
      <trkpt lat="38.041444" lon="114.030685"><time>2026-06-18T11:07:34.805Z</time></trkpt>
      <trkpt lat="38.041444" lon="114.030685"><time>2026-06-18T11:07:34.822Z</time></trkpt>
      <trkpt lat="38.041443" lon="114.030688"><time>2026-06-18T11:07:34.838Z</time></trkpt>
      <trkpt lat="38.041443" lon="114.030688"><time>2026-06-18T11:07:34.855Z</time></trkpt>
      <trkpt lat="38.041443" lon="114.030688"><time>2026-06-18T11:07:34.872Z</time></trkpt>
      <trkpt lat="38.041443" lon="114.030688"><time>2026-06-18T11:07:34.888Z</time></trkpt>
      <trkpt lat="38.041443" lon="114.030688"><time>2026-06-18T11:07:34.905Z</time></trkpt>
      <trkpt lat="38.041443" lon="114.030688"><time>2026-06-18T11:07:34.922Z</time></trkpt>
      <trkpt lat="38.041445" lon="114.030691"><time>2026-06-18T11:07:34.938Z</time></trkpt>
      <trkpt lat="38.041445" lon="114.030691"><time>2026-06-18T11:07:34.955Z</time></trkpt>
      <trkpt lat="38.041445" lon="114.030691"><time>2026-06-18T11:07:34.972Z</time></trkpt>
      <trkpt lat="38.041445" lon="114.030691"><time>2026-06-18T11:07:34.988Z</time></trkpt>
      <trkpt lat="38.041445" lon="114.030691"><time>2026-06-18T11:07:35.005Z</time></trkpt>
      <trkpt lat="38.041445" lon="114.030691"><time>2026-06-18T11:07:35.022Z</time></trkpt>
      <trkpt lat="38.041445" lon="114.030695"><time>2026-06-18T11:07:35.038Z</time></trkpt>
      <trkpt lat="38.041445" lon="114.030695"><time>2026-06-18T11:07:35.055Z</time></trkpt>
      <trkpt lat="38.041445" lon="114.030695"><time>2026-06-18T11:07:35.072Z</time></trkpt>
      <trkpt lat="38.041445" lon="114.030695"><time>2026-06-18T11:07:35.089Z</time></trkpt>
      <trkpt lat="38.041445" lon="114.030695"><time>2026-06-18T11:07:35.105Z</time></trkpt>
      <trkpt lat="38.041445" lon="114.030695"><time>2026-06-18T11:07:35.122Z</time></trkpt>
      <trkpt lat="38.041446" lon="114.030699"><time>2026-06-18T11:07:35.139Z</time></trkpt>
      <trkpt lat="38.041446" lon="114.030699"><time>2026-06-18T11:07:35.155Z</time></trkpt>
      <trkpt lat="38.041446" lon="114.030699"><time>2026-06-18T11:07:35.172Z</time></trkpt>
      <trkpt lat="38.041446" lon="114.030699"><time>2026-06-18T11:07:35.189Z</time></trkpt>
      <trkpt lat="38.041446" lon="114.030699"><time>2026-06-18T11:07:35.205Z</time></trkpt>
      <trkpt lat="38.041446" lon="114.030699"><time>2026-06-18T11:07:35.222Z</time></trkpt>
      <trkpt lat="38.041446" lon="114.030703"><time>2026-06-18T11:07:35.239Z</time></trkpt>
      <trkpt lat="38.041446" lon="114.030703"><time>2026-06-18T11:07:35.255Z</time></trkpt>
      <trkpt lat="38.041446" lon="114.030703"><time>2026-06-18T11:07:35.272Z</time></trkpt>
      <trkpt lat="38.041446" lon="114.030703"><time>2026-06-18T11:07:35.289Z</time></trkpt>
      <trkpt lat="38.041446" lon="114.030703"><time>2026-06-18T11:07:35.305Z</time></trkpt>
      <trkpt lat="38.041446" lon="114.030703"><time>2026-06-18T11:07:35.322Z</time></trkpt>
      <trkpt lat="38.041448" lon="114.030707"><time>2026-06-18T11:07:35.339Z</time></trkpt>
      <trkpt lat="38.041448" lon="114.030707"><time>2026-06-18T11:07:35.355Z</time></trkpt>
      <trkpt lat="38.041448" lon="114.030707"><time>2026-06-18T11:07:35.372Z</time></trkpt>
      <trkpt lat="38.041448" lon="114.030707"><time>2026-06-18T11:07:35.389Z</time></trkpt>
      <trkpt lat="38.041448" lon="114.030707"><time>2026-06-18T11:07:35.406Z</time></trkpt>
      <trkpt lat="38.041448" lon="114.030707"><time>2026-06-18T11:07:35.422Z</time></trkpt>
      <trkpt lat="38.041448" lon="114.030712"><time>2026-06-18T11:07:35.439Z</time></trkpt>
      <trkpt lat="38.041448" lon="114.030712"><time>2026-06-18T11:07:35.456Z</time></trkpt>
      <trkpt lat="38.041448" lon="114.030712"><time>2026-06-18T11:07:35.472Z</time></trkpt>
      <trkpt lat="38.041448" lon="114.030712"><time>2026-06-18T11:07:35.489Z</time></trkpt>
      <trkpt lat="38.041448" lon="114.030712"><time>2026-06-18T11:07:35.506Z</time></trkpt>
      <trkpt lat="38.041448" lon="114.030712"><time>2026-06-18T11:07:35.522Z</time></trkpt>
      <trkpt lat="38.041451" lon="114.030717"><time>2026-06-18T11:07:35.539Z</time></trkpt>
      <trkpt lat="38.041451" lon="114.030717"><time>2026-06-18T11:07:35.556Z</time></trkpt>
      <trkpt lat="38.041451" lon="114.030717"><time>2026-06-18T11:07:35.572Z</time></trkpt>
      <trkpt lat="38.041451" lon="114.030717"><time>2026-06-18T11:07:35.589Z</time></trkpt>
      <trkpt lat="38.041451" lon="114.030717"><time>2026-06-18T11:07:35.606Z</time></trkpt>
      <trkpt lat="38.041451" lon="114.030717"><time>2026-06-18T11:07:35.622Z</time></trkpt>
      <trkpt lat="38.04145" lon="114.030723"><time>2026-06-18T11:07:35.639Z</time></trkpt>
      <trkpt lat="38.04145" lon="114.030723"><time>2026-06-18T11:07:35.656Z</time></trkpt>
      <trkpt lat="38.04145" lon="114.030723"><time>2026-06-18T11:07:35.672Z</time></trkpt>
      <trkpt lat="38.04145" lon="114.030723"><time>2026-06-18T11:07:35.689Z</time></trkpt>
      <trkpt lat="38.04145" lon="114.030723"><time>2026-06-18T11:07:35.706Z</time></trkpt>
      <trkpt lat="38.04145" lon="114.030723"><time>2026-06-18T11:07:35.723Z</time></trkpt>
      <trkpt lat="38.041453" lon="114.030728"><time>2026-06-18T11:07:35.739Z</time></trkpt>
      <trkpt lat="38.041453" lon="114.030728"><time>2026-06-18T11:07:35.756Z</time></trkpt>
      <trkpt lat="38.041453" lon="114.030728"><time>2026-06-18T11:07:35.773Z</time></trkpt>
      <trkpt lat="38.041453" lon="114.030728"><time>2026-06-18T11:07:35.789Z</time></trkpt>
      <trkpt lat="38.041453" lon="114.030728"><time>2026-06-18T11:07:35.806Z</time></trkpt>
      <trkpt lat="38.041453" lon="114.030728"><time>2026-06-18T11:07:35.823Z</time></trkpt>
      <trkpt lat="38.041453" lon="114.030734"><time>2026-06-18T11:07:35.839Z</time></trkpt>
      <trkpt lat="38.041453" lon="114.030734"><time>2026-06-18T11:07:35.856Z</time></trkpt>
      <trkpt lat="38.041453" lon="114.030734"><time>2026-06-18T11:07:35.873Z</time></trkpt>
      <trkpt lat="38.041453" lon="114.030734"><time>2026-06-18T11:07:35.889Z</time></trkpt>
      <trkpt lat="38.041453" lon="114.030734"><time>2026-06-18T11:07:35.906Z</time></trkpt>
      <trkpt lat="38.041453" lon="114.030734"><time>2026-06-18T11:07:35.923Z</time></trkpt>
      <trkpt lat="38.041456" lon="114.03074"><time>2026-06-18T11:07:35.939Z</time></trkpt>
      <trkpt lat="38.041456" lon="114.03074"><time>2026-06-18T11:07:35.956Z</time></trkpt>
      <trkpt lat="38.041456" lon="114.03074"><time>2026-06-18T11:07:35.973Z</time></trkpt>
      <trkpt lat="38.041456" lon="114.03074"><time>2026-06-18T11:07:35.989Z</time></trkpt>
      <trkpt lat="38.041456" lon="114.03074"><time>2026-06-18T11:07:36.006Z</time></trkpt>
      <trkpt lat="38.041456" lon="114.03074"><time>2026-06-18T11:07:36.023Z</time></trkpt>
      <trkpt lat="38.041457" lon="114.030746"><time>2026-06-18T11:07:36.040Z</time></trkpt>
      <trkpt lat="38.041457" lon="114.030746"><time>2026-06-18T11:07:36.056Z</time></trkpt>
      <trkpt lat="38.041457" lon="114.030746"><time>2026-06-18T11:07:36.073Z</time></trkpt>
      <trkpt lat="38.041457" lon="114.030746"><time>2026-06-18T11:07:36.090Z</time></trkpt>
      <trkpt lat="38.041457" lon="114.030746"><time>2026-06-18T11:07:36.106Z</time></trkpt>
      <trkpt lat="38.041457" lon="114.030746"><time>2026-06-18T11:07:36.123Z</time></trkpt>
      <trkpt lat="38.041459" lon="114.030752"><time>2026-06-18T11:07:36.140Z</time></trkpt>
      <trkpt lat="38.041459" lon="114.030752"><time>2026-06-18T11:07:36.156Z</time></trkpt>
      <trkpt lat="38.041459" lon="114.030752"><time>2026-06-18T11:07:36.173Z</time></trkpt>
      <trkpt lat="38.041459" lon="114.030752"><time>2026-06-18T11:07:36.190Z</time></trkpt>
      <trkpt lat="38.041459" lon="114.030752"><time>2026-06-18T11:07:36.206Z</time></trkpt>
      <trkpt lat="38.041459" lon="114.030752"><time>2026-06-18T11:07:36.223Z</time></trkpt>
      <trkpt lat="38.041461" lon="114.030759"><time>2026-06-18T11:07:36.240Z</time></trkpt>
      <trkpt lat="38.041461" lon="114.030759"><time>2026-06-18T11:07:36.256Z</time></trkpt>
      <trkpt lat="38.041461" lon="114.030759"><time>2026-06-18T11:07:36.273Z</time></trkpt>
      <trkpt lat="38.041461" lon="114.030759"><time>2026-06-18T11:07:36.290Z</time></trkpt>
      <trkpt lat="38.041461" lon="114.030759"><time>2026-06-18T11:07:36.306Z</time></trkpt>
      <trkpt lat="38.041461" lon="114.030759"><time>2026-06-18T11:07:36.323Z</time></trkpt>
      <trkpt lat="38.041463" lon="114.030766"><time>2026-06-18T11:07:36.340Z</time></trkpt>
      <trkpt lat="38.041463" lon="114.030766"><time>2026-06-18T11:07:36.356Z</time></trkpt>
      <trkpt lat="38.041463" lon="114.030766"><time>2026-06-18T11:07:36.373Z</time></trkpt>
      <trkpt lat="38.041463" lon="114.030766"><time>2026-06-18T11:07:36.390Z</time></trkpt>
      <trkpt lat="38.041463" lon="114.030766"><time>2026-06-18T11:07:36.407Z</time></trkpt>
      <trkpt lat="38.041463" lon="114.030766"><time>2026-06-18T11:07:36.423Z</time></trkpt>
      <trkpt lat="38.041464" lon="114.030772"><time>2026-06-18T11:07:36.440Z</time></trkpt>
      <trkpt lat="38.041464" lon="114.030772"><time>2026-06-18T11:07:36.457Z</time></trkpt>
      <trkpt lat="38.041464" lon="114.030772"><time>2026-06-18T11:07:36.473Z</time></trkpt>
      <trkpt lat="38.041464" lon="114.030772"><time>2026-06-18T11:07:36.490Z</time></trkpt>
      <trkpt lat="38.041464" lon="114.030772"><time>2026-06-18T11:07:36.507Z</time></trkpt>
      <trkpt lat="38.041464" lon="114.030772"><time>2026-06-18T11:07:36.523Z</time></trkpt>
      <trkpt lat="38.041466" lon="114.030779"><time>2026-06-18T11:07:36.540Z</time></trkpt>
      <trkpt lat="38.041466" lon="114.030779"><time>2026-06-18T11:07:36.557Z</time></trkpt>
      <trkpt lat="38.041466" lon="114.030779"><time>2026-06-18T11:07:36.573Z</time></trkpt>
      <trkpt lat="38.041466" lon="114.030779"><time>2026-06-18T11:07:36.590Z</time></trkpt>
      <trkpt lat="38.041466" lon="114.030779"><time>2026-06-18T11:07:36.607Z</time></trkpt>
      <trkpt lat="38.041466" lon="114.030779"><time>2026-06-18T11:07:36.623Z</time></trkpt>
      <trkpt lat="38.041468" lon="114.030786"><time>2026-06-18T11:07:36.640Z</time></trkpt>
      <trkpt lat="38.041468" lon="114.030786"><time>2026-06-18T11:07:36.657Z</time></trkpt>
      <trkpt lat="38.041468" lon="114.030786"><time>2026-06-18T11:07:36.673Z</time></trkpt>
      <trkpt lat="38.041468" lon="114.030786"><time>2026-06-18T11:07:36.690Z</time></trkpt>
      <trkpt lat="38.041468" lon="114.030786"><time>2026-06-18T11:07:36.707Z</time></trkpt>
      <trkpt lat="38.041468" lon="114.030786"><time>2026-06-18T11:07:36.724Z</time></trkpt>
      <trkpt lat="38.041469" lon="114.030794"><time>2026-06-18T11:07:36.740Z</time></trkpt>
      <trkpt lat="38.041469" lon="114.030794"><time>2026-06-18T11:07:36.757Z</time></trkpt>
      <trkpt lat="38.041469" lon="114.030794"><time>2026-06-18T11:07:36.774Z</time></trkpt>
      <trkpt lat="38.041469" lon="114.030794"><time>2026-06-18T11:07:36.790Z</time></trkpt>
      <trkpt lat="38.041469" lon="114.030794"><time>2026-06-18T11:07:36.807Z</time></trkpt>
      <trkpt lat="38.041469" lon="114.030794"><time>2026-06-18T11:07:36.824Z</time></trkpt>
      <trkpt lat="38.041471" lon="114.030801"><time>2026-06-18T11:07:36.840Z</time></trkpt>
      <trkpt lat="38.041471" lon="114.030801"><time>2026-06-18T11:07:36.857Z</time></trkpt>
      <trkpt lat="38.041471" lon="114.030801"><time>2026-06-18T11:07:36.874Z</time></trkpt>
      <trkpt lat="38.041471" lon="114.030801"><time>2026-06-18T11:07:36.890Z</time></trkpt>
      <trkpt lat="38.041471" lon="114.030801"><time>2026-06-18T11:07:36.907Z</time></trkpt>
      <trkpt lat="38.041471" lon="114.030801"><time>2026-06-18T11:07:36.924Z</time></trkpt>
      <trkpt lat="38.041473" lon="114.030809"><time>2026-06-18T11:07:36.940Z</time></trkpt>
      <trkpt lat="38.041473" lon="114.030809"><time>2026-06-18T11:07:36.957Z</time></trkpt>
      <trkpt lat="38.041473" lon="114.030809"><time>2026-06-18T11:07:36.974Z</time></trkpt>
      <trkpt lat="38.041473" lon="114.030809"><time>2026-06-18T11:07:36.990Z</time></trkpt>
      <trkpt lat="38.041473" lon="114.030809"><time>2026-06-18T11:07:37.007Z</time></trkpt>
      <trkpt lat="38.041473" lon="114.030809"><time>2026-06-18T11:07:37.024Z</time></trkpt>
      <trkpt lat="38.041475" lon="114.030816"><time>2026-06-18T11:07:37.041Z</time></trkpt>
      <trkpt lat="38.041475" lon="114.030816"><time>2026-06-18T11:07:37.057Z</time></trkpt>
      <trkpt lat="38.041475" lon="114.030816"><time>2026-06-18T11:07:37.074Z</time></trkpt>
      <trkpt lat="38.041475" lon="114.030816"><time>2026-06-18T11:07:37.091Z</time></trkpt>
      <trkpt lat="38.041475" lon="114.030816"><time>2026-06-18T11:07:37.107Z</time></trkpt>
      <trkpt lat="38.041475" lon="114.030816"><time>2026-06-18T11:07:37.124Z</time></trkpt>
      <trkpt lat="38.041477" lon="114.030824"><time>2026-06-18T11:07:37.141Z</time></trkpt>
      <trkpt lat="38.041477" lon="114.030824"><time>2026-06-18T11:07:37.157Z</time></trkpt>
      <trkpt lat="38.041477" lon="114.030824"><time>2026-06-18T11:07:37.174Z</time></trkpt>
      <trkpt lat="38.041477" lon="114.030824"><time>2026-06-18T11:07:37.191Z</time></trkpt>
      <trkpt lat="38.041477" lon="114.030824"><time>2026-06-18T11:07:37.207Z</time></trkpt>
      <trkpt lat="38.041477" lon="114.030824"><time>2026-06-18T11:07:37.224Z</time></trkpt>
      <trkpt lat="38.041479" lon="114.030832"><time>2026-06-18T11:07:37.241Z</time></trkpt>
      <trkpt lat="38.041479" lon="114.030832"><time>2026-06-18T11:07:37.257Z</time></trkpt>
      <trkpt lat="38.041479" lon="114.030832"><time>2026-06-18T11:07:37.274Z</time></trkpt>
      <trkpt lat="38.041479" lon="114.030832"><time>2026-06-18T11:07:37.291Z</time></trkpt>
      <trkpt lat="38.041479" lon="114.030832"><time>2026-06-18T11:07:37.307Z</time></trkpt>
      <trkpt lat="38.041479" lon="114.030832"><time>2026-06-18T11:07:37.324Z</time></trkpt>
      <trkpt lat="38.041481" lon="114.03084"><time>2026-06-18T11:07:37.341Z</time></trkpt>
      <trkpt lat="38.041481" lon="114.03084"><time>2026-06-18T11:07:37.358Z</time></trkpt>
      <trkpt lat="38.041481" lon="114.03084"><time>2026-06-18T11:07:37.374Z</time></trkpt>
      <trkpt lat="38.041481" lon="114.03084"><time>2026-06-18T11:07:37.391Z</time></trkpt>
      <trkpt lat="38.041481" lon="114.03084"><time>2026-06-18T11:07:37.408Z</time></trkpt>
      <trkpt lat="38.041481" lon="114.03084"><time>2026-06-18T11:07:37.424Z</time></trkpt>
      <trkpt lat="38.041483" lon="114.030848"><time>2026-06-18T11:07:37.441Z</time></trkpt>
      <trkpt lat="38.041483" lon="114.030848"><time>2026-06-18T11:07:37.458Z</time></trkpt>
      <trkpt lat="38.041483" lon="114.030848"><time>2026-06-18T11:07:37.474Z</time></trkpt>
      <trkpt lat="38.041483" lon="114.030848"><time>2026-06-18T11:07:37.491Z</time></trkpt>
      <trkpt lat="38.041483" lon="114.030848"><time>2026-06-18T11:07:37.508Z</time></trkpt>
      <trkpt lat="38.041483" lon="114.030848"><time>2026-06-18T11:07:37.524Z</time></trkpt>
      <trkpt lat="38.041485" lon="114.030856"><time>2026-06-18T11:07:37.541Z</time></trkpt>
      <trkpt lat="38.041485" lon="114.030856"><time>2026-06-18T11:07:37.558Z</time></trkpt>
      <trkpt lat="38.041485" lon="114.030856"><time>2026-06-18T11:07:37.574Z</time></trkpt>
      <trkpt lat="38.041485" lon="114.030856"><time>2026-06-18T11:07:37.591Z</time></trkpt>
      <trkpt lat="38.041485" lon="114.030856"><time>2026-06-18T11:07:37.608Z</time></trkpt>
      <trkpt lat="38.041485" lon="114.030856"><time>2026-06-18T11:07:37.624Z</time></trkpt>
      <trkpt lat="38.041487" lon="114.030864"><time>2026-06-18T11:07:37.641Z</time></trkpt>
      <trkpt lat="38.041487" lon="114.030864"><time>2026-06-18T11:07:37.658Z</time></trkpt>
      <trkpt lat="38.041487" lon="114.030864"><time>2026-06-18T11:07:37.675Z</time></trkpt>
      <trkpt lat="38.041487" lon="114.030864"><time>2026-06-18T11:07:37.691Z</time></trkpt>
      <trkpt lat="38.041487" lon="114.030864"><time>2026-06-18T11:07:37.708Z</time></trkpt>
      <trkpt lat="38.041487" lon="114.030864"><time>2026-06-18T11:07:37.725Z</time></trkpt>
      <trkpt lat="38.041489" lon="114.030873"><time>2026-06-18T11:07:37.741Z</time></trkpt>
      <trkpt lat="38.041489" lon="114.030873"><time>2026-06-18T11:07:37.758Z</time></trkpt>
      <trkpt lat="38.041489" lon="114.030873"><time>2026-06-18T11:07:37.775Z</time></trkpt>
      <trkpt lat="38.041489" lon="114.030873"><time>2026-06-18T11:07:37.791Z</time></trkpt>
      <trkpt lat="38.041489" lon="114.030873"><time>2026-06-18T11:07:37.808Z</time></trkpt>
      <trkpt lat="38.041489" lon="114.030873"><time>2026-06-18T11:07:37.825Z</time></trkpt>
      <trkpt lat="38.041491" lon="114.030881"><time>2026-06-18T11:07:37.841Z</time></trkpt>
      <trkpt lat="38.041491" lon="114.030881"><time>2026-06-18T11:07:37.858Z</time></trkpt>
      <trkpt lat="38.041491" lon="114.030881"><time>2026-06-18T11:07:37.875Z</time></trkpt>
      <trkpt lat="38.041491" lon="114.030881"><time>2026-06-18T11:07:37.891Z</time></trkpt>
      <trkpt lat="38.041491" lon="114.030881"><time>2026-06-18T11:07:37.908Z</time></trkpt>
      <trkpt lat="38.041491" lon="114.030881"><time>2026-06-18T11:07:37.925Z</time></trkpt>
      <trkpt lat="38.041493" lon="114.03089"><time>2026-06-18T11:07:37.941Z</time></trkpt>
      <trkpt lat="38.041493" lon="114.03089"><time>2026-06-18T11:07:37.958Z</time></trkpt>
      <trkpt lat="38.041493" lon="114.03089"><time>2026-06-18T11:07:37.975Z</time></trkpt>
      <trkpt lat="38.041493" lon="114.03089"><time>2026-06-18T11:07:37.992Z</time></trkpt>
      <trkpt lat="38.041493" lon="114.03089"><time>2026-06-18T11:07:38.008Z</time></trkpt>
      <trkpt lat="38.041493" lon="114.03089"><time>2026-06-18T11:07:38.025Z</time></trkpt>
      <trkpt lat="38.041495" lon="114.030899"><time>2026-06-18T11:07:38.042Z</time></trkpt>
      <trkpt lat="38.041495" lon="114.030899"><time>2026-06-18T11:07:38.058Z</time></trkpt>
      <trkpt lat="38.041495" lon="114.030899"><time>2026-06-18T11:07:38.075Z</time></trkpt>
      <trkpt lat="38.041495" lon="114.030899"><time>2026-06-18T11:07:38.092Z</time></trkpt>
      <trkpt lat="38.041495" lon="114.030899"><time>2026-06-18T11:07:38.108Z</time></trkpt>
      <trkpt lat="38.041497" lon="114.030907"><time>2026-06-18T11:07:38.125Z</time></trkpt>
      <trkpt lat="38.041497" lon="114.030907"><time>2026-06-18T11:07:38.142Z</time></trkpt>
      <trkpt lat="38.041497" lon="114.030907"><time>2026-06-18T11:07:38.158Z</time></trkpt>
      <trkpt lat="38.041497" lon="114.030907"><time>2026-06-18T11:07:38.175Z</time></trkpt>
      <trkpt lat="38.041497" lon="114.030907"><time>2026-06-18T11:07:38.192Z</time></trkpt>
      <trkpt lat="38.041497" lon="114.030907"><time>2026-06-18T11:07:38.208Z</time></trkpt>
      <trkpt lat="38.041497" lon="114.030907"><time>2026-06-18T11:07:38.225Z</time></trkpt>
      <trkpt lat="38.041499" lon="114.030916"><time>2026-06-18T11:07:38.242Z</time></trkpt>
      <trkpt lat="38.041499" lon="114.030916"><time>2026-06-18T11:07:38.258Z</time></trkpt>
      <trkpt lat="38.041499" lon="114.030916"><time>2026-06-18T11:07:38.275Z</time></trkpt>
      <trkpt lat="38.041499" lon="114.030916"><time>2026-06-18T11:07:38.292Z</time></trkpt>
      <trkpt lat="38.041499" lon="114.030916"><time>2026-06-18T11:07:38.309Z</time></trkpt>
      <trkpt lat="38.041501" lon="114.030925"><time>2026-06-18T11:07:38.325Z</time></trkpt>
      <trkpt lat="38.041501" lon="114.030925"><time>2026-06-18T11:07:38.342Z</time></trkpt>
      <trkpt lat="38.041501" lon="114.030925"><time>2026-06-18T11:07:38.359Z</time></trkpt>
      <trkpt lat="38.041501" lon="114.030925"><time>2026-06-18T11:07:38.375Z</time></trkpt>
      <trkpt lat="38.041501" lon="114.030925"><time>2026-06-18T11:07:38.392Z</time></trkpt>
      <trkpt lat="38.041501" lon="114.030925"><time>2026-06-18T11:07:38.409Z</time></trkpt>
      <trkpt lat="38.041501" lon="114.030925"><time>2026-06-18T11:07:38.425Z</time></trkpt>
      <trkpt lat="38.041503" lon="114.030934"><time>2026-06-18T11:07:38.442Z</time></trkpt>
      <trkpt lat="38.041503" lon="114.030934"><time>2026-06-18T11:07:38.459Z</time></trkpt>
      <trkpt lat="38.041503" lon="114.030934"><time>2026-06-18T11:07:38.475Z</time></trkpt>
      <trkpt lat="38.041503" lon="114.030934"><time>2026-06-18T11:07:38.492Z</time></trkpt>
      <trkpt lat="38.041503" lon="114.030934"><time>2026-06-18T11:07:38.509Z</time></trkpt>
      <trkpt lat="38.041503" lon="114.030934"><time>2026-06-18T11:07:38.525Z</time></trkpt>
      <trkpt lat="38.041505" lon="114.030943"><time>2026-06-18T11:07:38.542Z</time></trkpt>
      <trkpt lat="38.041505" lon="114.030943"><time>2026-06-18T11:07:38.559Z</time></trkpt>
      <trkpt lat="38.041505" lon="114.030943"><time>2026-06-18T11:07:38.575Z</time></trkpt>
      <trkpt lat="38.041505" lon="114.030943"><time>2026-06-18T11:07:38.592Z</time></trkpt>
      <trkpt lat="38.041505" lon="114.030943"><time>2026-06-18T11:07:38.609Z</time></trkpt>
      <trkpt lat="38.041505" lon="114.030943"><time>2026-06-18T11:07:38.626Z</time></trkpt>
      <trkpt lat="38.041508" lon="114.030952"><time>2026-06-18T11:07:38.642Z</time></trkpt>
      <trkpt lat="38.041508" lon="114.030952"><time>2026-06-18T11:07:38.659Z</time></trkpt>
      <trkpt lat="38.041508" lon="114.030952"><time>2026-06-18T11:07:38.676Z</time></trkpt>
      <trkpt lat="38.041508" lon="114.030952"><time>2026-06-18T11:07:38.692Z</time></trkpt>
      <trkpt lat="38.041508" lon="114.030952"><time>2026-06-18T11:07:38.709Z</time></trkpt>
      <trkpt lat="38.041508" lon="114.030952"><time>2026-06-18T11:07:38.726Z</time></trkpt>
      <trkpt lat="38.04151" lon="114.030961"><time>2026-06-18T11:07:38.742Z</time></trkpt>
      <trkpt lat="38.04151" lon="114.030961"><time>2026-06-18T11:07:38.759Z</time></trkpt>
      <trkpt lat="38.04151" lon="114.030961"><time>2026-06-18T11:07:38.776Z</time></trkpt>
      <trkpt lat="38.04151" lon="114.030961"><time>2026-06-18T11:07:38.792Z</time></trkpt>
      <trkpt lat="38.04151" lon="114.030961"><time>2026-06-18T11:07:38.809Z</time></trkpt>
      <trkpt lat="38.04151" lon="114.030961"><time>2026-06-18T11:07:38.826Z</time></trkpt>
      <trkpt lat="38.041512" lon="114.03097"><time>2026-06-18T11:07:38.842Z</time></trkpt>
      <trkpt lat="38.041512" lon="114.03097"><time>2026-06-18T11:07:38.859Z</time></trkpt>
      <trkpt lat="38.041512" lon="114.03097"><time>2026-06-18T11:07:38.876Z</time></trkpt>
      <trkpt lat="38.041512" lon="114.03097"><time>2026-06-18T11:07:38.892Z</time></trkpt>
      <trkpt lat="38.041512" lon="114.03097"><time>2026-06-18T11:07:38.909Z</time></trkpt>
      <trkpt lat="38.041514" lon="114.03098"><time>2026-06-18T11:07:38.926Z</time></trkpt>
      <trkpt lat="38.041514" lon="114.03098"><time>2026-06-18T11:07:38.943Z</time></trkpt>
      <trkpt lat="38.041514" lon="114.03098"><time>2026-06-18T11:07:38.959Z</time></trkpt>
      <trkpt lat="38.041514" lon="114.03098"><time>2026-06-18T11:07:38.976Z</time></trkpt>
      <trkpt lat="38.041514" lon="114.03098"><time>2026-06-18T11:07:38.993Z</time></trkpt>
      <trkpt lat="38.041514" lon="114.03098"><time>2026-06-18T11:07:39.009Z</time></trkpt>
      <trkpt lat="38.041517" lon="114.030989"><time>2026-06-18T11:07:39.026Z</time></trkpt>
      <trkpt lat="38.041517" lon="114.030989"><time>2026-06-18T11:07:39.043Z</time></trkpt>
      <trkpt lat="38.041517" lon="114.030989"><time>2026-06-18T11:07:39.059Z</time></trkpt>
      <trkpt lat="38.041517" lon="114.030989"><time>2026-06-18T11:07:39.076Z</time></trkpt>
      <trkpt lat="38.041517" lon="114.030989"><time>2026-06-18T11:07:39.093Z</time></trkpt>
      <trkpt lat="38.041517" lon="114.030989"><time>2026-06-18T11:07:39.109Z</time></trkpt>
      <trkpt lat="38.041519" lon="114.030998"><time>2026-06-18T11:07:39.126Z</time></trkpt>
      <trkpt lat="38.041519" lon="114.030998"><time>2026-06-18T11:07:39.143Z</time></trkpt>
      <trkpt lat="38.041519" lon="114.030998"><time>2026-06-18T11:07:39.159Z</time></trkpt>
      <trkpt lat="38.041519" lon="114.030998"><time>2026-06-18T11:07:39.176Z</time></trkpt>
      <trkpt lat="38.041519" lon="114.030998"><time>2026-06-18T11:07:39.193Z</time></trkpt>
      <trkpt lat="38.041519" lon="114.030998"><time>2026-06-18T11:07:39.209Z</time></trkpt>
      <trkpt lat="38.041521" lon="114.031006"><time>2026-06-18T11:07:39.226Z</time></trkpt>
      <trkpt lat="38.041521" lon="114.031006"><time>2026-06-18T11:07:39.243Z</time></trkpt>
      <trkpt lat="38.041521" lon="114.031006"><time>2026-06-18T11:07:39.260Z</time></trkpt>
      <trkpt lat="38.041521" lon="114.031006"><time>2026-06-18T11:07:39.276Z</time></trkpt>
      <trkpt lat="38.041521" lon="114.031006"><time>2026-06-18T11:07:39.293Z</time></trkpt>
      <trkpt lat="38.041521" lon="114.031006"><time>2026-06-18T11:07:39.310Z</time></trkpt>
      <trkpt lat="38.041523" lon="114.031014"><time>2026-06-18T11:07:39.326Z</time></trkpt>
      <trkpt lat="38.041523" lon="114.031014"><time>2026-06-18T11:07:39.343Z</time></trkpt>
      <trkpt lat="38.041523" lon="114.031014"><time>2026-06-18T11:07:39.360Z</time></trkpt>
      <trkpt lat="38.041523" lon="114.031014"><time>2026-06-18T11:07:39.376Z</time></trkpt>
      <trkpt lat="38.041523" lon="114.031014"><time>2026-06-18T11:07:39.393Z</time></trkpt>
      <trkpt lat="38.041523" lon="114.031014"><time>2026-06-18T11:07:39.410Z</time></trkpt>
      <trkpt lat="38.041525" lon="114.031022"><time>2026-06-18T11:07:39.426Z</time></trkpt>
      <trkpt lat="38.041525" lon="114.031022"><time>2026-06-18T11:07:39.443Z</time></trkpt>
      <trkpt lat="38.041525" lon="114.031022"><time>2026-06-18T11:07:39.460Z</time></trkpt>
      <trkpt lat="38.041525" lon="114.031022"><time>2026-06-18T11:07:39.476Z</time></trkpt>
      <trkpt lat="38.041525" lon="114.031022"><time>2026-06-18T11:07:39.493Z</time></trkpt>
      <trkpt lat="38.041525" lon="114.031022"><time>2026-06-18T11:07:39.510Z</time></trkpt>
      <trkpt lat="38.041527" lon="114.031029"><time>2026-06-18T11:07:39.526Z</time></trkpt>
      <trkpt lat="38.041527" lon="114.031029"><time>2026-06-18T11:07:39.543Z</time></trkpt>
      <trkpt lat="38.041527" lon="114.031029"><time>2026-06-18T11:07:39.560Z</time></trkpt>
      <trkpt lat="38.041527" lon="114.031029"><time>2026-06-18T11:07:39.577Z</time></trkpt>
      <trkpt lat="38.041527" lon="114.031029"><time>2026-06-18T11:07:39.593Z</time></trkpt>
      <trkpt lat="38.041527" lon="114.031029"><time>2026-06-18T11:07:39.610Z</time></trkpt>
      <trkpt lat="38.041529" lon="114.031036"><time>2026-06-18T11:07:39.627Z</time></trkpt>
      <trkpt lat="38.041529" lon="114.031036"><time>2026-06-18T11:07:39.643Z</time></trkpt>
      <trkpt lat="38.041529" lon="114.031036"><time>2026-06-18T11:07:39.660Z</time></trkpt>
      <trkpt lat="38.041529" lon="114.031036"><time>2026-06-18T11:07:39.677Z</time></trkpt>
      <trkpt lat="38.041529" lon="114.031036"><time>2026-06-18T11:07:39.693Z</time></trkpt>
      <trkpt lat="38.041529" lon="114.031036"><time>2026-06-18T11:07:39.710Z</time></trkpt>
      <trkpt lat="38.041531" lon="114.031042"><time>2026-06-18T11:07:39.727Z</time></trkpt>
      <trkpt lat="38.041531" lon="114.031042"><time>2026-06-18T11:07:39.743Z</time></trkpt>
      <trkpt lat="38.041531" lon="114.031042"><time>2026-06-18T11:07:39.760Z</time></trkpt>
      <trkpt lat="38.041531" lon="114.031042"><time>2026-06-18T11:07:39.777Z</time></trkpt>
      <trkpt lat="38.041531" lon="114.031042"><time>2026-06-18T11:07:39.793Z</time></trkpt>
      <trkpt lat="38.041531" lon="114.031042"><time>2026-06-18T11:07:39.810Z</time></trkpt>
      <trkpt lat="38.041532" lon="114.031048"><time>2026-06-18T11:07:39.827Z</time></trkpt>
      <trkpt lat="38.041532" lon="114.031048"><time>2026-06-18T11:07:39.843Z</time></trkpt>
      <trkpt lat="38.041532" lon="114.031048"><time>2026-06-18T11:07:39.860Z</time></trkpt>
      <trkpt lat="38.041532" lon="114.031048"><time>2026-06-18T11:07:39.877Z</time></trkpt>
      <trkpt lat="38.041532" lon="114.031048"><time>2026-06-18T11:07:39.894Z</time></trkpt>
      <trkpt lat="38.041532" lon="114.031048"><time>2026-06-18T11:07:39.910Z</time></trkpt>
      <trkpt lat="38.041534" lon="114.031054"><time>2026-06-18T11:07:39.927Z</time></trkpt>
      <trkpt lat="38.041534" lon="114.031054"><time>2026-06-18T11:07:39.944Z</time></trkpt>
      <trkpt lat="38.041534" lon="114.031054"><time>2026-06-18T11:07:39.960Z</time></trkpt>
      <trkpt lat="38.041534" lon="114.031054"><time>2026-06-18T11:07:39.977Z</time></trkpt>
      <trkpt lat="38.041534" lon="114.031054"><time>2026-06-18T11:07:39.994Z</time></trkpt>
      <trkpt lat="38.041534" lon="114.031054"><time>2026-06-18T11:07:40.010Z</time></trkpt>
      <trkpt lat="38.041535" lon="114.031059"><time>2026-06-18T11:07:40.027Z</time></trkpt>
      <trkpt lat="38.041535" lon="114.031059"><time>2026-06-18T11:07:40.044Z</time></trkpt>
      <trkpt lat="38.041535" lon="114.031059"><time>2026-06-18T11:07:40.060Z</time></trkpt>
      <trkpt lat="38.041535" lon="114.031059"><time>2026-06-18T11:07:40.077Z</time></trkpt>
      <trkpt lat="38.041535" lon="114.031059"><time>2026-06-18T11:07:40.094Z</time></trkpt>
      <trkpt lat="38.041535" lon="114.031059"><time>2026-06-18T11:07:40.110Z</time></trkpt>
      <trkpt lat="38.041536" lon="114.031062"><time>2026-06-18T11:07:40.127Z</time></trkpt>
      <trkpt lat="38.041536" lon="114.031062"><time>2026-06-18T11:07:40.144Z</time></trkpt>
      <trkpt lat="38.041536" lon="114.031062"><time>2026-06-18T11:07:40.160Z</time></trkpt>
      <trkpt lat="38.041536" lon="114.031062"><time>2026-06-18T11:07:40.177Z</time></trkpt>
      <trkpt lat="38.041536" lon="114.031062"><time>2026-06-18T11:07:40.194Z</time></trkpt>
      <trkpt lat="38.041536" lon="114.031062"><time>2026-06-18T11:07:40.211Z</time></trkpt>
      <trkpt lat="38.041537" lon="114.031066"><time>2026-06-18T11:07:40.227Z</time></trkpt>
      <trkpt lat="38.041537" lon="114.031066"><time>2026-06-18T11:07:40.244Z</time></trkpt>
      <trkpt lat="38.041537" lon="114.031066"><time>2026-06-18T11:07:40.261Z</time></trkpt>
      <trkpt lat="38.041537" lon="114.031066"><time>2026-06-18T11:07:40.277Z</time></trkpt>
      <trkpt lat="38.041537" lon="114.031066"><time>2026-06-18T11:07:40.294Z</time></trkpt>
      <trkpt lat="38.041537" lon="114.031066"><time>2026-06-18T11:07:40.311Z</time></trkpt>
      <trkpt lat="38.041537" lon="114.031069"><time>2026-06-18T11:07:40.327Z</time></trkpt>
      <trkpt lat="38.041537" lon="114.031069"><time>2026-06-18T11:07:40.344Z</time></trkpt>
      <trkpt lat="38.041537" lon="114.031069"><time>2026-06-18T11:07:40.361Z</time></trkpt>
      <trkpt lat="38.041537" lon="114.031069"><time>2026-06-18T11:07:40.377Z</time></trkpt>
      <trkpt lat="38.041537" lon="114.031069"><time>2026-06-18T11:07:40.394Z</time></trkpt>
      <trkpt lat="38.041537" lon="114.031069"><time>2026-06-18T11:07:40.411Z</time></trkpt>
      <trkpt lat="38.041538" lon="114.03107"><time>2026-06-18T11:07:40.427Z</time></trkpt>
      <trkpt lat="38.041538" lon="114.03107"><time>2026-06-18T11:07:40.444Z</time></trkpt>
      <trkpt lat="38.041538" lon="114.03107"><time>2026-06-18T11:07:40.461Z</time></trkpt>
      <trkpt lat="38.041538" lon="114.03107"><time>2026-06-18T11:07:40.477Z</time></trkpt>
      <trkpt lat="38.041538" lon="114.03107"><time>2026-06-18T11:07:40.494Z</time></trkpt>
      <trkpt lat="38.041538" lon="114.03107"><time>2026-06-18T11:07:40.511Z</time></trkpt>
      <trkpt lat="38.041538" lon="114.031072"><time>2026-06-18T11:07:40.528Z</time></trkpt>
      <trkpt lat="38.041538" lon="114.031072"><time>2026-06-18T11:07:40.544Z</time></trkpt>
      <trkpt lat="38.041538" lon="114.031072"><time>2026-06-18T11:07:40.561Z</time></trkpt>
      <trkpt lat="38.041538" lon="114.031072"><time>2026-06-18T11:07:40.578Z</time></trkpt>
      <trkpt lat="38.041538" lon="114.031072"><time>2026-06-18T11:07:40.594Z</time></trkpt>
      <trkpt lat="38.041538" lon="114.031072"><time>2026-06-18T11:07:40.611Z</time></trkpt>
      <trkpt lat="38.041538" lon="114.031072"><time>2026-06-18T11:07:40.628Z</time></trkpt>
      <trkpt lat="38.041538" lon="114.031072"><time>2026-06-18T11:07:40.644Z</time></trkpt>
      <trkpt lat="38.041538" lon="114.031072"><time>2026-06-18T11:07:40.661Z</time></trkpt>
      <trkpt lat="38.041538" lon="114.031072"><time>2026-06-18T11:07:40.678Z</time></trkpt>
      <trkpt lat="38.041538" lon="114.031072"><time>2026-06-18T11:07:40.694Z</time></trkpt>
      <trkpt lat="38.041538" lon="114.031072"><time>2026-06-18T11:07:40.711Z</time></trkpt>
      <trkpt lat="38.041539" lon="114.031073"><time>2026-06-18T11:07:40.728Z</time></trkpt>
      <trkpt lat="38.041539" lon="114.031073"><time>2026-06-18T11:07:40.744Z</time></trkpt>
      <trkpt lat="38.041539" lon="114.031073"><time>2026-06-18T11:07:40.761Z</time></trkpt>
      <trkpt lat="38.041539" lon="114.031073"><time>2026-06-18T11:07:40.778Z</time></trkpt>
      <trkpt lat="38.041539" lon="114.031073"><time>2026-06-18T11:07:40.794Z</time></trkpt>
      <trkpt lat="38.041539" lon="114.031073"><time>2026-06-18T11:07:40.811Z</time></trkpt>
    </trkseg>
  </trk>
</gpx>
