<?xml version="1.0" encoding="UTF-8"?>
<gpx version="1.1" creator="Kairos" xmlns="http://www.topografix.com/GPX/1/1">
  <trk>
    <name>sidecar-srt-7509dd8d38c5f81e</name>
    <trkseg>
      <trkpt lat="38.04154" lon="114.031152"><time>2026-06-18T11:16:39.000Z</time></trkpt>
      <trkpt lat="38.04154" lon="114.031152"><time>2026-06-18T11:16:39.016Z</time></trkpt>
      <trkpt lat="38.04154" lon="114.031152"><time>2026-06-18T11:16:39.032Z</time></trkpt>
      <trkpt lat="38.04154" lon="114.031153"><time>2026-06-18T11:16:39.049Z</time></trkpt>
      <trkpt lat="38.04154" lon="114.031153"><time>2026-06-18T11:16:39.066Z</time></trkpt>
      <trkpt lat="38.04154" lon="114.031153"><time>2026-06-18T11:16:39.082Z</time></trkpt>
      <trkpt lat="38.04154" lon="114.031153"><time>2026-06-18T11:16:39.099Z</time></trkpt>
      <trkpt lat="38.04154" lon="114.031153"><time>2026-06-18T11:16:39.116Z</time></trkpt>
      <trkpt lat="38.04154" lon="114.031153"><time>2026-06-18T11:16:39.132Z</time></trkpt>
      <trkpt lat="38.04154" lon="114.031153"><time>2026-06-18T11:16:39.149Z</time></trkpt>
      <trkpt lat="38.04154" lon="114.031153"><time>2026-06-18T11:16:39.166Z</time></trkpt>
      <trkpt lat="38.04154" lon="114.031153"><time>2026-06-18T11:16:39.182Z</time></trkpt>
      <trkpt lat="38.04154" lon="114.031153"><time>2026-06-18T11:16:39.199Z</time></trkpt>
      <trkpt lat="38.04154" lon="114.031153"><time>2026-06-18T11:16:39.216Z</time></trkpt>
      <trkpt lat="38.04154" lon="114.031153"><time>2026-06-18T11:16:39.232Z</time></trkpt>
      <trkpt lat="38.041539" lon="114.031154"><time>2026-06-18T11:16:39.249Z</time></trkpt>
      <trkpt lat="38.041539" lon="114.031154"><time>2026-06-18T11:16:39.266Z</time></trkpt>
      <trkpt lat="38.041539" lon="114.031154"><time>2026-06-18T11:16:39.282Z</time></trkpt>
      <trkpt lat="38.041539" lon="114.031154"><time>2026-06-18T11:16:39.299Z</time></trkpt>
      <trkpt lat="38.041539" lon="114.031154"><time>2026-06-18T11:16:39.316Z</time></trkpt>
      <trkpt lat="38.041539" lon="114.031154"><time>2026-06-18T11:16:39.333Z</time></trkpt>
      <trkpt lat="38.041539" lon="114.031155"><time>2026-06-18T11:16:39.349Z</time></trkpt>
      <trkpt lat="38.041539" lon="114.031155"><time>2026-06-18T11:16:39.366Z</time></trkpt>
      <trkpt lat="38.041539" lon="114.031155"><time>2026-06-18T11:16:39.383Z</time></trkpt>
      <trkpt lat="38.041539" lon="114.031155"><time>2026-06-18T11:16:39.399Z</time></trkpt>
      <trkpt lat="38.041539" lon="114.031155"><time>2026-06-18T11:16:39.416Z</time></trkpt>
      <trkpt lat="38.041539" lon="114.031155"><time>2026-06-18T11:16:39.433Z</time></trkpt>
      <trkpt lat="38.041538" lon="114.031155"><time>2026-06-18T11:16:39.449Z</time></trkpt>
      <trkpt lat="38.041538" lon="114.031155"><time>2026-06-18T11:16:39.466Z</time></trkpt>
      <trkpt lat="38.041538" lon="114.031155"><time>2026-06-18T11:16:39.483Z</time></trkpt>
      <trkpt lat="38.041538" lon="114.031155"><time>2026-06-18T11:16:39.499Z</time></trkpt>
      <trkpt lat="38.041538" lon="114.031155"><time>2026-06-18T11:16:39.516Z</time></trkpt>
      <trkpt lat="38.041538" lon="114.031155"><time>2026-06-18T11:16:39.533Z</time></trkpt>
      <trkpt lat="38.041538" lon="114.031156"><time>2026-06-18T11:16:39.549Z</time></trkpt>
      <trkpt lat="38.041538" lon="114.031156"><time>2026-06-18T11:16:39.566Z</time></trkpt>
      <trkpt lat="38.041538" lon="114.031156"><time>2026-06-18T11:16:39.583Z</time></trkpt>
      <trkpt lat="38.041538" lon="114.031156"><time>2026-06-18T11:16:39.599Z</time></trkpt>
      <trkpt lat="38.041538" lon="114.031156"><time>2026-06-18T11:16:39.616Z</time></trkpt>
      <trkpt lat="38.041538" lon="114.031156"><time>2026-06-18T11:16:39.633Z</time></trkpt>
      <trkpt lat="38.041537" lon="114.031157"><time>2026-06-18T11:16:39.650Z</time></trkpt>
      <trkpt lat="38.041537" lon="114.031157"><time>2026-06-18T11:16:39.666Z</time></trkpt>
      <trkpt lat="38.041537" lon="114.031157"><time>2026-06-18T11:16:39.683Z</time></trkpt>
      <trkpt lat="38.041537" lon="114.031157"><time>2026-06-18T11:16:39.700Z</time></trkpt>
      <trkpt lat="38.041537" lon="114.031157"><time>2026-06-18T11:16:39.716Z</time></trkpt>
      <trkpt lat="38.041537" lon="114.031157"><time>2026-06-18T11:16:39.733Z</time></trkpt>
      <trkpt lat="38.041537" lon="114.031157"><time>2026-06-18T11:16:39.750Z</time></trkpt>
      <trkpt lat="38.041537" lon="114.031157"><time>2026-06-18T11:16:39.766Z</time></trkpt>
      <trkpt lat="38.041537" lon="114.031157"><time>2026-06-18T11:16:39.783Z</time></trkpt>
      <trkpt lat="38.041537" lon="114.031157"><time>2026-06-18T11:16:39.800Z</time></trkpt>
      <trkpt lat="38.041537" lon="114.031157"><time>2026-06-18T11:16:39.816Z</time></trkpt>
      <trkpt lat="38.041537" lon="114.031157"><time>2026-06-18T11:16:39.833Z</time></trkpt>
      <trkpt lat="38.041537" lon="114.031158"><time>2026-06-18T11:16:39.850Z</time></trkpt>
      <trkpt lat="38.041537" lon="114.031158"><time>2026-06-18T11:16:39.866Z</time></trkpt>
      <trkpt lat="38.041537" lon="114.031158"><time>2026-06-18T11:16:39.883Z</time></trkpt>
      <trkpt lat="38.041537" lon="114.031158"><time>2026-06-18T11:16:39.900Z</time></trkpt>
      <trkpt lat="38.041537" lon="114.031158"><time>2026-06-18T11:16:39.916Z</time></trkpt>
      <trkpt lat="38.041537" lon="114.031158"><time>2026-06-18T11:16:39.933Z</time></trkpt>
      <trkpt lat="38.041536" lon="114.031159"><time>2026-06-18T11:16:39.950Z</time></trkpt>
      <trkpt lat="38.041536" lon="114.031159"><time>2026-06-18T11:16:39.966Z</time></trkpt>
      <trkpt lat="38.041536" lon="114.031159"><time>2026-06-18T11:16:39.983Z</time></trkpt>
      <trkpt lat="38.041536" lon="114.031159"><time>2026-06-18T11:16:40.000Z</time></trkpt>
      <trkpt lat="38.041536" lon="114.031159"><time>2026-06-18T11:16:40.017Z</time></trkpt>
      <trkpt lat="38.041536" lon="114.031159"><time>2026-06-18T11:16:40.033Z</time></trkpt>
      <trkpt lat="38.041536" lon="114.03116"><time>2026-06-18T11:16:40.050Z</time></trkpt>
      <trkpt lat="38.041536" lon="114.03116"><time>2026-06-18T11:16:40.067Z</time></trkpt>
      <trkpt lat="38.041536" lon="114.03116"><time>2026-06-18T11:16:40.083Z</time></trkpt>
      <trkpt lat="38.041536" lon="114.03116"><time>2026-06-18T11:16:40.100Z</time></trkpt>
      <trkpt lat="38.041536" lon="114.03116"><time>2026-06-18T11:16:40.117Z</time></trkpt>
      <trkpt lat="38.041536" lon="114.03116"><time>2026-06-18T11:16:40.133Z</time></trkpt>
      <trkpt lat="38.041535" lon="114.03116"><time>2026-06-18T11:16:40.150Z</time></trkpt>
      <trkpt lat="38.041535" lon="114.03116"><time>2026-06-18T11:16:40.167Z</time></trkpt>
      <trkpt lat="38.041535" lon="114.03116"><time>2026-06-18T11:16:40.183Z</time></trkpt>
      <trkpt lat="38.041535" lon="114.03116"><time>2026-06-18T11:16:40.200Z</time></trkpt>
      <trkpt lat="38.041535" lon="114.03116"><time>2026-06-18T11:16:40.217Z</time></trkpt>
      <trkpt lat="38.041535" lon="114.03116"><time>2026-06-18T11:16:40.233Z</time></trkpt>
      <trkpt lat="38.041535" lon="114.031161"><time>2026-06-18T11:16:40.250Z</time></trkpt>
      <trkpt lat="38.041535" lon="114.031161"><time>2026-06-18T11:16:40.267Z</time></trkpt>
      <trkpt lat="38.041535" lon="114.031161"><time>2026-06-18T11:16:40.283Z</time></trkpt>
      <trkpt lat="38.041535" lon="114.031161"><time>2026-06-18T11:16:40.300Z</time></trkpt>
      <trkpt lat="38.041535" lon="114.031161"><time>2026-06-18T11:16:40.317Z</time></trkpt>
      <trkpt lat="38.041535" lon="114.031161"><time>2026-06-18T11:16:40.334Z</time></trkpt>
      <trkpt lat="38.041535" lon="114.031162"><time>2026-06-18T11:16:40.350Z</time></trkpt>
      <trkpt lat="38.041535" lon="114.031162"><time>2026-06-18T11:16:40.367Z</time></trkpt>
      <trkpt lat="38.041535" lon="114.031162"><time>2026-06-18T11:16:40.384Z</time></trkpt>
      <trkpt lat="38.041535" lon="114.031162"><time>2026-06-18T11:16:40.400Z</time></trkpt>
      <trkpt lat="38.041535" lon="114.031162"><time>2026-06-18T11:16:40.417Z</time></trkpt>
      <trkpt lat="38.041535" lon="114.031162"><time>2026-06-18T11:16:40.434Z</time></trkpt>
      <trkpt lat="38.041534" lon="114.031163"><time>2026-06-18T11:16:40.450Z</time></trkpt>
      <trkpt lat="38.041534" lon="114.031163"><time>2026-06-18T11:16:40.467Z</time></trkpt>
      <trkpt lat="38.041534" lon="114.031163"><time>2026-06-18T11:16:40.484Z</time></trkpt>
      <trkpt lat="38.041534" lon="114.031163"><time>2026-06-18T11:16:40.500Z</time></trkpt>
      <trkpt lat="38.041534" lon="114.031163"><time>2026-06-18T11:16:40.517Z</time></trkpt>
      <trkpt lat="38.041534" lon="114.031163"><time>2026-06-18T11:16:40.534Z</time></trkpt>
      <trkpt lat="38.041534" lon="114.031165"><time>2026-06-18T11:16:40.550Z</time></trkpt>
      <trkpt lat="38.041534" lon="114.031165"><time>2026-06-18T11:16:40.567Z</time></trkpt>
      <trkpt lat="38.041534" lon="114.031165"><time>2026-06-18T11:16:40.584Z</time></trkpt>
      <trkpt lat="38.041534" lon="114.031165"><time>2026-06-18T11:16:40.600Z</time></trkpt>
      <trkpt lat="38.041534" lon="114.031165"><time>2026-06-18T11:16:40.617Z</time></trkpt>
      <trkpt lat="38.041534" lon="114.031165"><time>2026-06-18T11:16:40.634Z</time></trkpt>
      <trkpt lat="38.041534" lon="114.031166"><time>2026-06-18T11:16:40.651Z</time></trkpt>
      <trkpt lat="38.041534" lon="114.031166"><time>2026-06-18T11:16:40.667Z</time></trkpt>
      <trkpt lat="38.041534" lon="114.031166"><time>2026-06-18T11:16:40.684Z</time></trkpt>
      <trkpt lat="38.041534" lon="114.031166"><time>2026-06-18T11:16:40.701Z</time></trkpt>
      <trkpt lat="38.041534" lon="114.031166"><time>2026-06-18T11:16:40.717Z</time></trkpt>
      <trkpt lat="38.041534" lon="114.031166"><time>2026-06-18T11:16:40.734Z</time></trkpt>
      <trkpt lat="38.041533" lon="114.031167"><time>2026-06-18T11:16:40.751Z</time></trkpt>
      <trkpt lat="38.041533" lon="114.031167"><time>2026-06-18T11:16:40.767Z</time></trkpt>
      <trkpt lat="38.041533" lon="114.031167"><time>2026-06-18T11:16:40.784Z</time></trkpt>
      <trkpt lat="38.041533" lon="114.031167"><time>2026-06-18T11:16:40.801Z</time></trkpt>
      <trkpt lat="38.041533" lon="114.031167"><time>2026-06-18T11:16:40.817Z</time></trkpt>
      <trkpt lat="38.041533" lon="114.031167"><time>2026-06-18T11:16:40.834Z</time></trkpt>
      <trkpt lat="38.041533" lon="114.031168"><time>2026-06-18T11:16:40.851Z</time></trkpt>
      <trkpt lat="38.041533" lon="114.031168"><time>2026-06-18T11:16:40.867Z</time></trkpt>
      <trkpt lat="38.041533" lon="114.031168"><time>2026-06-18T11:16:40.884Z</time></trkpt>
      <trkpt lat="38.041533" lon="114.031168"><time>2026-06-18T11:16:40.901Z</time></trkpt>
      <trkpt lat="38.041533" lon="114.031168"><time>2026-06-18T11:16:40.917Z</time></trkpt>
      <trkpt lat="38.041533" lon="114.031168"><time>2026-06-18T11:16:40.934Z</time></trkpt>
      <trkpt lat="38.041533" lon="114.03117"><time>2026-06-18T11:16:40.951Z</time></trkpt>
      <trkpt lat="38.041533" lon="114.03117"><time>2026-06-18T11:16:40.968Z</time></trkpt>
      <trkpt lat="38.041533" lon="114.03117"><time>2026-06-18T11:16:40.984Z</time></trkpt>
      <trkpt lat="38.041533" lon="114.03117"><time>2026-06-18T11:16:41.001Z</time></trkpt>
      <trkpt lat="38.041533" lon="114.03117"><time>2026-06-18T11:16:41.018Z</time></trkpt>
      <trkpt lat="38.041533" lon="114.03117"><time>2026-06-18T11:16:41.034Z</time></trkpt>
      <trkpt lat="38.041532" lon="114.031171"><time>2026-06-18T11:16:41.051Z</time></trkpt>
      <trkpt lat="38.041532" lon="114.031171"><time>2026-06-18T11:16:41.068Z</time></trkpt>
      <trkpt lat="38.041532" lon="114.031171"><time>2026-06-18T11:16:41.084Z</time></trkpt>
      <trkpt lat="38.041532" lon="114.031171"><time>2026-06-18T11:16:41.101Z</time></trkpt>
      <trkpt lat="38.041532" lon="114.031171"><time>2026-06-18T11:16:41.118Z</time></trkpt>
      <trkpt lat="38.041532" lon="114.031171"><time>2026-06-18T11:16:41.134Z</time></trkpt>
      <trkpt lat="38.041532" lon="114.031172"><time>2026-06-18T11:16:41.151Z</time></trkpt>
      <trkpt lat="38.041532" lon="114.031172"><time>2026-06-18T11:16:41.168Z</time></trkpt>
      <trkpt lat="38.041532" lon="114.031172"><time>2026-06-18T11:16:41.184Z</time></trkpt>
      <trkpt lat="38.041532" lon="114.031172"><time>2026-06-18T11:16:41.201Z</time></trkpt>
      <trkpt lat="38.041532" lon="114.031172"><time>2026-06-18T11:16:41.218Z</time></trkpt>
      <trkpt lat="38.041532" lon="114.031172"><time>2026-06-18T11:16:41.234Z</time></trkpt>
      <trkpt lat="38.041531" lon="114.031174"><time>2026-06-18T11:16:41.251Z</time></trkpt>
      <trkpt lat="38.041531" lon="114.031174"><time>2026-06-18T11:16:41.268Z</time></trkpt>
      <trkpt lat="38.041531" lon="114.031174"><time>2026-06-18T11:16:41.285Z</time></trkpt>
      <trkpt lat="38.041531" lon="114.031174"><time>2026-06-18T11:16:41.301Z</time></trkpt>
      <trkpt lat="38.041531" lon="114.031174"><time>2026-06-18T11:16:41.318Z</time></trkpt>
      <trkpt lat="38.041531" lon="114.031174"><time>2026-06-18T11:16:41.335Z</time></trkpt>
      <trkpt lat="38.041531" lon="114.031175"><time>2026-06-18T11:16:41.351Z</time></trkpt>
      <trkpt lat="38.041531" lon="114.031175"><time>2026-06-18T11:16:41.368Z</time></trkpt>
      <trkpt lat="38.041531" lon="114.031175"><time>2026-06-18T11:16:41.385Z</time></trkpt>
      <trkpt lat="38.041531" lon="114.031175"><time>2026-06-18T11:16:41.401Z</time></trkpt>
      <trkpt lat="38.041531" lon="114.031175"><time>2026-06-18T11:16:41.418Z</time></trkpt>
      <trkpt lat="38.041531" lon="114.031175"><time>2026-06-18T11:16:41.435Z</time></trkpt>
      <trkpt lat="38.041531" lon="114.031177"><time>2026-06-18T11:16:41.451Z</time></trkpt>
      <trkpt lat="38.041531" lon="114.031177"><time>2026-06-18T11:16:41.468Z</time></trkpt>
      <trkpt lat="38.041531" lon="114.031177"><time>2026-06-18T11:16:41.485Z</time></trkpt>
      <trkpt lat="38.041531" lon="114.031177"><time>2026-06-18T11:16:41.501Z</time></trkpt>
      <trkpt lat="38.041531" lon="114.031177"><time>2026-06-18T11:16:41.518Z</time></trkpt>
      <trkpt lat="38.041531" lon="114.031177"><time>2026-06-18T11:16:41.535Z</time></trkpt>
      <trkpt lat="38.04153" lon="114.031178"><time>2026-06-18T11:16:41.551Z</time></trkpt>
      <trkpt lat="38.04153" lon="114.031178"><time>2026-06-18T11:16:41.568Z</time></trkpt>
      <trkpt lat="38.04153" lon="114.031178"><time>2026-06-18T11:16:41.585Z</time></trkpt>
      <trkpt lat="38.04153" lon="114.031178"><time>2026-06-18T11:16:41.602Z</time></trkpt>
      <trkpt lat="38.04153" lon="114.031178"><time>2026-06-18T11:16:41.618Z</time></trkpt>
      <trkpt lat="38.04153" lon="114.031178"><time>2026-06-18T11:16:41.635Z</time></trkpt>
      <trkpt lat="38.04153" lon="114.031179"><time>2026-06-18T11:16:41.652Z</time></trkpt>
      <trkpt lat="38.04153" lon="114.031179"><time>2026-06-18T11:16:41.668Z</time></trkpt>
      <trkpt lat="38.04153" lon="114.031179"><time>2026-06-18T11:16:41.685Z</time></trkpt>
      <trkpt lat="38.04153" lon="114.031179"><time>2026-06-18T11:16:41.702Z</time></trkpt>
      <trkpt lat="38.04153" lon="114.031179"><time>2026-06-18T11:16:41.718Z</time></trkpt>
      <trkpt lat="38.04153" lon="114.031179"><time>2026-06-18T11:16:41.735Z</time></trkpt>
      <trkpt lat="38.04153" lon="114.031181"><time>2026-06-18T11:16:41.752Z</time></trkpt>
      <trkpt lat="38.04153" lon="114.031181"><time>2026-06-18T11:16:41.768Z</time></trkpt>
      <trkpt lat="38.04153" lon="114.031181"><time>2026-06-18T11:16:41.785Z</time></trkpt>
      <trkpt lat="38.04153" lon="114.031181"><time>2026-06-18T11:16:41.802Z</time></trkpt>
      <trkpt lat="38.04153" lon="114.031181"><time>2026-06-18T11:16:41.818Z</time></trkpt>
      <trkpt lat="38.04153" lon="114.031181"><time>2026-06-18T11:16:41.835Z</time></trkpt>
      <trkpt lat="38.041529" lon="114.031182"><time>2026-06-18T11:16:41.852Z</time></trkpt>
      <trkpt lat="38.041529" lon="114.031182"><time>2026-06-18T11:16:41.868Z</time></trkpt>
      <trkpt lat="38.041529" lon="114.031182"><time>2026-06-18T11:16:41.885Z</time></trkpt>
      <trkpt lat="38.041529" lon="114.031182"><time>2026-06-18T11:16:41.902Z</time></trkpt>
      <trkpt lat="38.041529" lon="114.031182"><time>2026-06-18T11:16:41.919Z</time></trkpt>
      <trkpt lat="38.041529" lon="114.031182"><time>2026-06-18T11:16:41.935Z</time></trkpt>
      <trkpt lat="38.041529" lon="114.031183"><time>2026-06-18T11:16:41.952Z</time></trkpt>
      <trkpt lat="38.041529" lon="114.031183"><time>2026-06-18T11:16:41.969Z</time></trkpt>
      <trkpt lat="38.041529" lon="114.031183"><time>2026-06-18T11:16:41.985Z</time></trkpt>
      <trkpt lat="38.041529" lon="114.031183"><time>2026-06-18T11:16:42.002Z</time></trkpt>
      <trkpt lat="38.041529" lon="114.031183"><time>2026-06-18T11:16:42.019Z</time></trkpt>
      <trkpt lat="38.041529" lon="114.031183"><time>2026-06-18T11:16:42.035Z</time></trkpt>
      <trkpt lat="38.041528" lon="114.031185"><time>2026-06-18T11:16:42.052Z</time></trkpt>
      <trkpt lat="38.041528" lon="114.031185"><time>2026-06-18T11:16:42.069Z</time></trkpt>
      <trkpt lat="38.041528" lon="114.031185"><time>2026-06-18T11:16:42.085Z</time></trkpt>
      <trkpt lat="38.041528" lon="114.031185"><time>2026-06-18T11:16:42.102Z</time></trkpt>
      <trkpt lat="38.041528" lon="114.031185"><time>2026-06-18T11:16:42.119Z</time></trkpt>
      <trkpt lat="38.041528" lon="114.031185"><time>2026-06-18T11:16:42.135Z</time></trkpt>
      <trkpt lat="38.041528" lon="114.031186"><time>2026-06-18T11:16:42.152Z</time></trkpt>
      <trkpt lat="38.041528" lon="114.031186"><time>2026-06-18T11:16:42.169Z</time></trkpt>
      <trkpt lat="38.041528" lon="114.031186"><time>2026-06-18T11:16:42.185Z</time></trkpt>
      <trkpt lat="38.041528" lon="114.031186"><time>2026-06-18T11:16:42.202Z</time></trkpt>
      <trkpt lat="38.041528" lon="114.031186"><time>2026-06-18T11:16:42.219Z</time></trkpt>
      <trkpt lat="38.041528" lon="114.031186"><time>2026-06-18T11:16:42.236Z</time></trkpt>
      <trkpt lat="38.041528" lon="114.031187"><time>2026-06-18T11:16:42.252Z</time></trkpt>
      <trkpt lat="38.041528" lon="114.031187"><time>2026-06-18T11:16:42.269Z</time></trkpt>
      <trkpt lat="38.041528" lon="114.031187"><time>2026-06-18T11:16:42.286Z</time></trkpt>
      <trkpt lat="38.041528" lon="114.031187"><time>2026-06-18T11:16:42.302Z</time></trkpt>
      <trkpt lat="38.041528" lon="114.031187"><time>2026-06-18T11:16:42.319Z</time></trkpt>
      <trkpt lat="38.041528" lon="114.031187"><time>2026-06-18T11:16:42.336Z</time></trkpt>
      <trkpt lat="38.041527" lon="114.031189"><time>2026-06-18T11:16:42.352Z</time></trkpt>
      <trkpt lat="38.041527" lon="114.031189"><time>2026-06-18T11:16:42.369Z</time></trkpt>
      <trkpt lat="38.041527" lon="114.031189"><time>2026-06-18T11:16:42.386Z</time></trkpt>
      <trkpt lat="38.041527" lon="114.031189"><time>2026-06-18T11:16:42.402Z</time></trkpt>
      <trkpt lat="38.041527" lon="114.031189"><time>2026-06-18T11:16:42.419Z</time></trkpt>
      <trkpt lat="38.041527" lon="114.031189"><time>2026-06-18T11:16:42.436Z</time></trkpt>
      <trkpt lat="38.041527" lon="114.03119"><time>2026-06-18T11:16:42.452Z</time></trkpt>
      <trkpt lat="38.041527" lon="114.03119"><time>2026-06-18T11:16:42.469Z</time></trkpt>
      <trkpt lat="38.041527" lon="114.03119"><time>2026-06-18T11:16:42.486Z</time></trkpt>
      <trkpt lat="38.041527" lon="114.03119"><time>2026-06-18T11:16:42.502Z</time></trkpt>
      <trkpt lat="38.041527" lon="114.03119"><time>2026-06-18T11:16:42.519Z</time></trkpt>
      <trkpt lat="38.041527" lon="114.03119"><time>2026-06-18T11:16:42.536Z</time></trkpt>
      <trkpt lat="38.041526" lon="114.031191"><time>2026-06-18T11:16:42.553Z</time></trkpt>
      <trkpt lat="38.041526" lon="114.031191"><time>2026-06-18T11:16:42.569Z</time></trkpt>
      <trkpt lat="38.041526" lon="114.031191"><time>2026-06-18T11:16:42.586Z</time></trkpt>
      <trkpt lat="38.041526" lon="114.031191"><time>2026-06-18T11:16:42.603Z</time></trkpt>
      <trkpt lat="38.041526" lon="114.031191"><time>2026-06-18T11:16:42.619Z</time></trkpt>
      <trkpt lat="38.041526" lon="114.031191"><time>2026-06-18T11:16:42.636Z</time></trkpt>
      <trkpt lat="38.041525" lon="114.031192"><time>2026-06-18T11:16:42.653Z</time></trkpt>
      <trkpt lat="38.041525" lon="114.031192"><time>2026-06-18T11:16:42.669Z</time></trkpt>
      <trkpt lat="38.041525" lon="114.031192"><time>2026-06-18T11:16:42.686Z</time></trkpt>
      <trkpt lat="38.041525" lon="114.031192"><time>2026-06-18T11:16:42.703Z</time></trkpt>
      <trkpt lat="38.041525" lon="114.031192"><time>2026-06-18T11:16:42.719Z</time></trkpt>
      <trkpt lat="38.041525" lon="114.031192"><time>2026-06-18T11:16:42.736Z</time></trkpt>
      <trkpt lat="38.041525" lon="114.031193"><time>2026-06-18T11:16:42.753Z</time></trkpt>
      <trkpt lat="38.041525" lon="114.031193"><time>2026-06-18T11:16:42.769Z</time></trkpt>
      <trkpt lat="38.041525" lon="114.031193"><time>2026-06-18T11:16:42.786Z</time></trkpt>
      <trkpt lat="38.041525" lon="114.031193"><time>2026-06-18T11:16:42.803Z</time></trkpt>
      <trkpt lat="38.041525" lon="114.031193"><time>2026-06-18T11:16:42.819Z</time></trkpt>
      <trkpt lat="38.041525" lon="114.031193"><time>2026-06-18T11:16:42.836Z</time></trkpt>
      <trkpt lat="38.041524" lon="114.031194"><time>2026-06-18T11:16:42.853Z</time></trkpt>
      <trkpt lat="38.041524" lon="114.031194"><time>2026-06-18T11:16:42.870Z</time></trkpt>
      <trkpt lat="38.041524" lon="114.031194"><time>2026-06-18T11:16:42.886Z</time></trkpt>
      <trkpt lat="38.041524" lon="114.031194"><time>2026-06-18T11:16:42.903Z</time></trkpt>
      <trkpt lat="38.041524" lon="114.031194"><time>2026-06-18T11:16:42.920Z</time></trkpt>
      <trkpt lat="38.041524" lon="114.031194"><time>2026-06-18T11:16:42.936Z</time></trkpt>
      <trkpt lat="38.041523" lon="114.031195"><time>2026-06-18T11:16:42.953Z</time></trkpt>
      <trkpt lat="38.041523" lon="114.031195"><time>2026-06-18T11:16:42.970Z</time></trkpt>
      <trkpt lat="38.041523" lon="114.031195"><time>2026-06-18T11:16:42.986Z</time></trkpt>
      <trkpt lat="38.041523" lon="114.031195"><time>2026-06-18T11:16:43.003Z</time></trkpt>
      <trkpt lat="38.041523" lon="114.031195"><time>2026-06-18T11:16:43.020Z</time></trkpt>
      <trkpt lat="38.041523" lon="114.031195"><time>2026-06-18T11:16:43.036Z</time></trkpt>
      <trkpt lat="38.041522" lon="114.031196"><time>2026-06-18T11:16:43.053Z</time></trkpt>
      <trkpt lat="38.041522" lon="114.031196"><time>2026-06-18T11:16:43.070Z</time></trkpt>
      <trkpt lat="38.041522" lon="114.031196"><time>2026-06-18T11:16:43.086Z</time></trkpt>
      <trkpt lat="38.041522" lon="114.031196"><time>2026-06-18T11:16:43.103Z</time></trkpt>
      <trkpt lat="38.041522" lon="114.031196"><time>2026-06-18T11:16:43.120Z</time></trkpt>
      <trkpt lat="38.041522" lon="114.031196"><time>2026-06-18T11:16:43.136Z</time></trkpt>
      <trkpt lat="38.041521" lon="114.031197"><time>2026-06-18T11:16:43.153Z</time></trkpt>
      <trkpt lat="38.041521" lon="114.031197"><time>2026-06-18T11:16:43.170Z</time></trkpt>
      <trkpt lat="38.041521" lon="114.031197"><time>2026-06-18T11:16:43.187Z</time></trkpt>
      <trkpt lat="38.041521" lon="114.031197"><time>2026-06-18T11:16:43.203Z</time></trkpt>
      <trkpt lat="38.041521" lon="114.031197"><time>2026-06-18T11:16:43.220Z</time></trkpt>
      <trkpt lat="38.041521" lon="114.031197"><time>2026-06-18T11:16:43.237Z</time></trkpt>
      <trkpt lat="38.041521" lon="114.031198"><time>2026-06-18T11:16:43.253Z</time></trkpt>
      <trkpt lat="38.041521" lon="114.031198"><time>2026-06-18T11:16:43.270Z</time></trkpt>
      <trkpt lat="38.041521" lon="114.031198"><time>2026-06-18T11:16:43.287Z</time></trkpt>
      <trkpt lat="38.041521" lon="114.031198"><time>2026-06-18T11:16:43.303Z</time></trkpt>
      <trkpt lat="38.041521" lon="114.031198"><time>2026-06-18T11:16:43.320Z</time></trkpt>
      <trkpt lat="38.041521" lon="114.031198"><time>2026-06-18T11:16:43.337Z</time></trkpt>
      <trkpt lat="38.04152" lon="114.031199"><time>2026-06-18T11:16:43.353Z</time></trkpt>
      <trkpt lat="38.04152" lon="114.031199"><time>2026-06-18T11:16:43.370Z</time></trkpt>
      <trkpt lat="38.04152" lon="114.031199"><time>2026-06-18T11:16:43.387Z</time></trkpt>
      <trkpt lat="38.04152" lon="114.031199"><time>2026-06-18T11:16:43.403Z</time></trkpt>
      <trkpt lat="38.04152" lon="114.031199"><time>2026-06-18T11:16:43.420Z</time></trkpt>
      <trkpt lat="38.04152" lon="114.031199"><time>2026-06-18T11:16:43.437Z</time></trkpt>
      <trkpt lat="38.041519" lon="114.0312"><time>2026-06-18T11:16:43.453Z</time></trkpt>
      <trkpt lat="38.041519" lon="114.0312"><time>2026-06-18T11:16:43.470Z</time></trkpt>
      <trkpt lat="38.041519" lon="114.0312"><time>2026-06-18T11:16:43.487Z</time></trkpt>
      <trkpt lat="38.041519" lon="114.0312"><time>2026-06-18T11:16:43.504Z</time></trkpt>
      <trkpt lat="38.041519" lon="114.0312"><time>2026-06-18T11:16:43.520Z</time></trkpt>
      <trkpt lat="38.041519" lon="114.0312"><time>2026-06-18T11:16:43.537Z</time></trkpt>
      <trkpt lat="38.041518" lon="114.031201"><time>2026-06-18T11:16:43.554Z</time></trkpt>
      <trkpt lat="38.041518" lon="114.031201"><time>2026-06-18T11:16:43.570Z</time></trkpt>
      <trkpt lat="38.041518" lon="114.031201"><time>2026-06-18T11:16:43.587Z</time></trkpt>
      <trkpt lat="38.041518" lon="114.031201"><time>2026-06-18T11:16:43.604Z</time></trkpt>
      <trkpt lat="38.041518" lon="114.031201"><time>2026-06-18T11:16:43.620Z</time></trkpt>
      <trkpt lat="38.041518" lon="114.031201"><time>2026-06-18T11:16:43.637Z</time></trkpt>
      <trkpt lat="38.041517" lon="114.031202"><time>2026-06-18T11:16:43.654Z</time></trkpt>
      <trkpt lat="38.041517" lon="114.031202"><time>2026-06-18T11:16:43.670Z</time></trkpt>
      <trkpt lat="38.041517" lon="114.031202"><time>2026-06-18T11:16:43.687Z</time></trkpt>
      <trkpt lat="38.041517" lon="114.031202"><time>2026-06-18T11:16:43.704Z</time></trkpt>
      <trkpt lat="38.041517" lon="114.031202"><time>2026-06-18T11:16:43.720Z</time></trkpt>
      <trkpt lat="38.041517" lon="114.031202"><time>2026-06-18T11:16:43.737Z</time></trkpt>
      <trkpt lat="38.041516" lon="114.031203"><time>2026-06-18T11:16:43.754Z</time></trkpt>
      <trkpt lat="38.041516" lon="114.031203"><time>2026-06-18T11:16:43.770Z</time></trkpt>
      <trkpt lat="38.041516" lon="114.031203"><time>2026-06-18T11:16:43.787Z</time></trkpt>
      <trkpt lat="38.041516" lon="114.031203"><time>2026-06-18T11:16:43.804Z</time></trkpt>
      <trkpt lat="38.041516" lon="114.031203"><time>2026-06-18T11:16:43.821Z</time></trkpt>
      <trkpt lat="38.041516" lon="114.031203"><time>2026-06-18T11:16:43.837Z</time></trkpt>
      <trkpt lat="38.041514" lon="114.031204"><time>2026-06-18T11:16:43.854Z</time></trkpt>
      <trkpt lat="38.041514" lon="114.031204"><time>2026-06-18T11:16:43.871Z</time></trkpt>
      <trkpt lat="38.041514" lon="114.031204"><time>2026-06-18T11:16:43.887Z</time></trkpt>
      <trkpt lat="38.041514" lon="114.031204"><time>2026-06-18T11:16:43.904Z</time></trkpt>
      <trkpt lat="38.041514" lon="114.031204"><time>2026-06-18T11:16:43.921Z</time></trkpt>
      <trkpt lat="38.041514" lon="114.031204"><time>2026-06-18T11:16:43.937Z</time></trkpt>
      <trkpt lat="38.041513" lon="114.031204"><time>2026-06-18T11:16:43.954Z</time></trkpt>
      <trkpt lat="38.041513" lon="114.031204"><time>2026-06-18T11:16:43.971Z</time></trkpt>
      <trkpt lat="38.041513" lon="114.031204"><time>2026-06-18T11:16:43.987Z</time></trkpt>
      <trkpt lat="38.041513" lon="114.031204"><time>2026-06-18T11:16:44.004Z</time></trkpt>
      <trkpt lat="38.041513" lon="114.031204"><time>2026-06-18T11:16:44.021Z</time></trkpt>
      <trkpt lat="38.041513" lon="114.031204"><time>2026-06-18T11:16:44.037Z</time></trkpt>
      <trkpt lat="38.041512" lon="114.031205"><time>2026-06-18T11:16:44.054Z</time></trkpt>
      <trkpt lat="38.041512" lon="114.031205"><time>2026-06-18T11:16:44.071Z</time></trkpt>
      <trkpt lat="38.041512" lon="114.031205"><time>2026-06-18T11:16:44.087Z</time></trkpt>
      <trkpt lat="38.041512" lon="114.031205"><time>2026-06-18T11:16:44.104Z</time></trkpt>
      <trkpt lat="38.041512" lon="114.031205"><time>2026-06-18T11:16:44.121Z</time></trkpt>
      <trkpt lat="38.041512" lon="114.031205"><time>2026-06-18T11:16:44.138Z</time></trkpt>
      <trkpt lat="38.041511" lon="114.031206"><time>2026-06-18T11:16:44.154Z</time></trkpt>
      <trkpt lat="38.041511" lon="114.031206"><time>2026-06-18T11:16:44.171Z</time></trkpt>
      <trkpt lat="38.041511" lon="114.031206"><time>2026-06-18T11:16:44.188Z</time></trkpt>
      <trkpt lat="38.041511" lon="114.031206"><time>2026-06-18T11:16:44.204Z</time></trkpt>
      <trkpt lat="38.041511" lon="114.031206"><time>2026-06-18T11:16:44.221Z</time></trkpt>
      <trkpt lat="38.041511" lon="114.031206"><time>2026-06-18T11:16:44.238Z</time></trkpt>
      <trkpt lat="38.04151" lon="114.031207"><time>2026-06-18T11:16:44.254Z</time></trkpt>
      <trkpt lat="38.04151" lon="114.031207"><time>2026-06-18T11:16:44.271Z</time></trkpt>
      <trkpt lat="38.04151" lon="114.031207"><time>2026-06-18T11:16:44.288Z</time></trkpt>
      <trkpt lat="38.04151" lon="114.031207"><time>2026-06-18T11:16:44.304Z</time></trkpt>
      <trkpt lat="38.04151" lon="114.031207"><time>2026-06-18T11:16:44.321Z</time></trkpt>
      <trkpt lat="38.04151" lon="114.031207"><time>2026-06-18T11:16:44.338Z</time></trkpt>
      <trkpt lat="38.041509" lon="114.031208"><time>2026-06-18T11:16:44.354Z</time></trkpt>
      <trkpt lat="38.041509" lon="114.031208"><time>2026-06-18T11:16:44.371Z</time></trkpt>
      <trkpt lat="38.041509" lon="114.031208"><time>2026-06-18T11:16:44.388Z</time></trkpt>
      <trkpt lat="38.041509" lon="114.031208"><time>2026-06-18T11:16:44.404Z</time></trkpt>
      <trkpt lat="38.041509" lon="114.031208"><time>2026-06-18T11:16:44.421Z</time></trkpt>
      <trkpt lat="38.041509" lon="114.031208"><time>2026-06-18T11:16:44.438Z</time></trkpt>
      <trkpt lat="38.041508" lon="114.031209"><time>2026-06-18T11:16:44.455Z</time></trkpt>
      <trkpt lat="38.041508" lon="114.031209"><time>2026-06-18T11:16:44.471Z</time></trkpt>
      <trkpt lat="38.041508" lon="114.031209"><time>2026-06-18T11:16:44.488Z</time></trkpt>
      <trkpt lat="38.041508" lon="114.031209"><time>2026-06-18T11:16:44.505Z</time></trkpt>
      <trkpt lat="38.041508" lon="114.031209"><time>2026-06-18T11:16:44.521Z</time></trkpt>
      <trkpt lat="38.041508" lon="114.031209"><time>2026-06-18T11:16:44.538Z</time></trkpt>
      <trkpt lat="38.041506" lon="114.03121"><time>2026-06-18T11:16:44.555Z</time></trkpt>
      <trkpt lat="38.041506" lon="114.03121"><time>2026-06-18T11:16:44.571Z</time></trkpt>
      <trkpt lat="38.041506" lon="114.03121"><time>2026-06-18T11:16:44.588Z</time></trkpt>
      <trkpt lat="38.041506" lon="114.03121"><time>2026-06-18T11:16:44.605Z</time></trkpt>
      <trkpt lat="38.041506" lon="114.03121"><time>2026-06-18T11:16:44.621Z</time></trkpt>
      <trkpt lat="38.041506" lon="114.03121"><time>2026-06-18T11:16:44.638Z</time></trkpt>
      <trkpt lat="38.041505" lon="114.031211"><time>2026-06-18T11:16:44.655Z</time></trkpt>
      <trkpt lat="38.041505" lon="114.031211"><time>2026-06-18T11:16:44.671Z</time></trkpt>
      <trkpt lat="38.041505" lon="114.031211"><time>2026-06-18T11:16:44.688Z</time></trkpt>
      <trkpt lat="38.041505" lon="114.031211"><time>2026-06-18T11:16:44.705Z</time></trkpt>
      <trkpt lat="38.041505" lon="114.031211"><time>2026-06-18T11:16:44.721Z</time></trkpt>
      <trkpt lat="38.041505" lon="114.031211"><time>2026-06-18T11:16:44.738Z</time></trkpt>
      <trkpt lat="38.041504" lon="114.031212"><time>2026-06-18T11:16:44.755Z</time></trkpt>
      <trkpt lat="38.041504" lon="114.031212"><time>2026-06-18T11:16:44.772Z</time></trkpt>
      <trkpt lat="38.041504" lon="114.031212"><time>2026-06-18T11:16:44.788Z</time></trkpt>
      <trkpt lat="38.041504" lon="114.031212"><time>2026-06-18T11:16:44.805Z</time></trkpt>
      <trkpt lat="38.041504" lon="114.031212"><time>2026-06-18T11:16:44.822Z</time></trkpt>
      <trkpt lat="38.041504" lon="114.031212"><time>2026-06-18T11:16:44.838Z</time></trkpt>
      <trkpt lat="38.041503" lon="114.031212"><time>2026-06-18T11:16:44.855Z</time></trkpt>
      <trkpt lat="38.041503" lon="114.031212"><time>2026-06-18T11:16:44.872Z</time></trkpt>
      <trkpt lat="38.041503" lon="114.031212"><time>2026-06-18T11:16:44.888Z</time></trkpt>
      <trkpt lat="38.041503" lon="114.031212"><time>2026-06-18T11:16:44.905Z</time></trkpt>
      <trkpt lat="38.041503" lon="114.031212"><time>2026-06-18T11:16:44.922Z</time></trkpt>
      <trkpt lat="38.041503" lon="114.031212"><time>2026-06-18T11:16:44.938Z</time></trkpt>
      <trkpt lat="38.041502" lon="114.031213"><time>2026-06-18T11:16:44.955Z</time></trkpt>
      <trkpt lat="38.041502" lon="114.031213"><time>2026-06-18T11:16:44.972Z</time></trkpt>
      <trkpt lat="38.041502" lon="114.031213"><time>2026-06-18T11:16:44.988Z</time></trkpt>
      <trkpt lat="38.041502" lon="114.031213"><time>2026-06-18T11:16:45.005Z</time></trkpt>
      <trkpt lat="38.041502" lon="114.031213"><time>2026-06-18T11:16:45.022Z</time></trkpt>
      <trkpt lat="38.041502" lon="114.031213"><time>2026-06-18T11:16:45.038Z</time></trkpt>
      <trkpt lat="38.041501" lon="114.031214"><time>2026-06-18T11:16:45.055Z</time></trkpt>
      <trkpt lat="38.041501" lon="114.031214"><time>2026-06-18T11:16:45.072Z</time></trkpt>
      <trkpt lat="38.041501" lon="114.031214"><time>2026-06-18T11:16:45.089Z</time></trkpt>
      <trkpt lat="38.041501" lon="114.031214"><time>2026-06-18T11:16:45.105Z</time></trkpt>
      <trkpt lat="38.041501" lon="114.031214"><time>2026-06-18T11:16:45.122Z</time></trkpt>
      <trkpt lat="38.041501" lon="114.031214"><time>2026-06-18T11:16:45.139Z</time></trkpt>
      <trkpt lat="38.0415" lon="114.031215"><time>2026-06-18T11:16:45.155Z</time></trkpt>
      <trkpt lat="38.0415" lon="114.031215"><time>2026-06-18T11:16:45.172Z</time></trkpt>
      <trkpt lat="38.0415" lon="114.031215"><time>2026-06-18T11:16:45.189Z</time></trkpt>
      <trkpt lat="38.0415" lon="114.031215"><time>2026-06-18T11:16:45.205Z</time></trkpt>
      <trkpt lat="38.0415" lon="114.031215"><time>2026-06-18T11:16:45.222Z</time></trkpt>
      <trkpt lat="38.0415" lon="114.031215"><time>2026-06-18T11:16:45.239Z</time></trkpt>
      <trkpt lat="38.041499" lon="114.031216"><time>2026-06-18T11:16:45.255Z</time></trkpt>
      <trkpt lat="38.041499" lon="114.031216"><time>2026-06-18T11:16:45.272Z</time></trkpt>
      <trkpt lat="38.041499" lon="114.031216"><time>2026-06-18T11:16:45.289Z</time></trkpt>
      <trkpt lat="38.041499" lon="114.031216"><time>2026-06-18T11:16:45.305Z</time></trkpt>
      <trkpt lat="38.041499" lon="114.031216"><time>2026-06-18T11:16:45.322Z</time></trkpt>
      <trkpt lat="38.041499" lon="114.031216"><time>2026-06-18T11:16:45.339Z</time></trkpt>
      <trkpt lat="38.041497" lon="114.031217"><time>2026-06-18T11:16:45.355Z</time></trkpt>
      <trkpt lat="38.041497" lon="114.031217"><time>2026-06-18T11:16:45.372Z</time></trkpt>
      <trkpt lat="38.041497" lon="114.031217"><time>2026-06-18T11:16:45.389Z</time></trkpt>
      <trkpt lat="38.041497" lon="114.031217"><time>2026-06-18T11:16:45.406Z</time></trkpt>
      <trkpt lat="38.041497" lon="114.031217"><time>2026-06-18T11:16:45.422Z</time></trkpt>
      <trkpt lat="38.041497" lon="114.031217"><time>2026-06-18T11:16:45.439Z</time></trkpt>
      <trkpt lat="38.041496" lon="114.031218"><time>2026-06-18T11:16:45.456Z</time></trkpt>
      <trkpt lat="38.041496" lon="114.031218"><time>2026-06-18T11:16:45.472Z</time></trkpt>
      <trkpt lat="38.041496" lon="114.031218"><time>2026-06-18T11:16:45.489Z</time></trkpt>
      <trkpt lat="38.041496" lon="114.031218"><time>2026-06-18T11:16:45.506Z</time></trkpt>
      <trkpt lat="38.041496" lon="114.031218"><time>2026-06-18T11:16:45.522Z</time></trkpt>
      <trkpt lat="38.041496" lon="114.031218"><time>2026-06-18T11:16:45.539Z</time></trkpt>
      <trkpt lat="38.041495" lon="114.031219"><time>2026-06-18T11:16:45.556Z</time></trkpt>
      <trkpt lat="38.041495" lon="114.031219"><time>2026-06-18T11:16:45.572Z</time></trkpt>
      <trkpt lat="38.041495" lon="114.031219"><time>2026-06-18T11:16:45.589Z</time></trkpt>
      <trkpt lat="38.041495" lon="114.031219"><time>2026-06-18T11:16:45.606Z</time></trkpt>
      <trkpt lat="38.041495" lon="114.031219"><time>2026-06-18T11:16:45.622Z</time></trkpt>
      <trkpt lat="38.041495" lon="114.031219"><time>2026-06-18T11:16:45.639Z</time></trkpt>
      <trkpt lat="38.041495" lon="114.03122"><time>2026-06-18T11:16:45.656Z</time></trkpt>
      <trkpt lat="38.041495" lon="114.03122"><time>2026-06-18T11:16:45.672Z</time></trkpt>
      <trkpt lat="38.041495" lon="114.03122"><time>2026-06-18T11:16:45.689Z</time></trkpt>
      <trkpt lat="38.041495" lon="114.03122"><time>2026-06-18T11:16:45.706Z</time></trkpt>
      <trkpt lat="38.041495" lon="114.03122"><time>2026-06-18T11:16:45.723Z</time></trkpt>
      <trkpt lat="38.041495" lon="114.03122"><time>2026-06-18T11:16:45.739Z</time></trkpt>
      <trkpt lat="38.041494" lon="114.031221"><time>2026-06-18T11:16:45.756Z</time></trkpt>
      <trkpt lat="38.041494" lon="114.031221"><time>2026-06-18T11:16:45.773Z</time></trkpt>
      <trkpt lat="38.041494" lon="114.031221"><time>2026-06-18T11:16:45.789Z</time></trkpt>
      <trkpt lat="38.041494" lon="114.031221"><time>2026-06-18T11:16:45.806Z</time></trkpt>
      <trkpt lat="38.041494" lon="114.031221"><time>2026-06-18T11:16:45.823Z</time></trkpt>
      <trkpt lat="38.041494" lon="114.031221"><time>2026-06-18T11:16:45.839Z</time></trkpt>
      <trkpt lat="38.041493" lon="114.031222"><time>2026-06-18T11:16:45.856Z</time></trkpt>
      <trkpt lat="38.041493" lon="114.031222"><time>2026-06-18T11:16:45.873Z</time></trkpt>
      <trkpt lat="38.041493" lon="114.031222"><time>2026-06-18T11:16:45.889Z</time></trkpt>
      <trkpt lat="38.041493" lon="114.031222"><time>2026-06-18T11:16:45.906Z</time></trkpt>
      <trkpt lat="38.041493" lon="114.031222"><time>2026-06-18T11:16:45.923Z</time></trkpt>
      <trkpt lat="38.041493" lon="114.031222"><time>2026-06-18T11:16:45.939Z</time></trkpt>
      <trkpt lat="38.041492" lon="114.031223"><time>2026-06-18T11:16:45.956Z</time></trkpt>
      <trkpt lat="38.041492" lon="114.031223"><time>2026-06-18T11:16:45.973Z</time></trkpt>
      <trkpt lat="38.041492" lon="114.031223"><time>2026-06-18T11:16:45.989Z</time></trkpt>
      <trkpt lat="38.041492" lon="114.031223"><time>2026-06-18T11:16:46.006Z</time></trkpt>
      <trkpt lat="38.041492" lon="114.031223"><time>2026-06-18T11:16:46.023Z</time></trkpt>
      <trkpt lat="38.041492" lon="114.031223"><time>2026-06-18T11:16:46.040Z</time></trkpt>
      <trkpt lat="38.041491" lon="114.031224"><time>2026-06-18T11:16:46.056Z</time></trkpt>
      <trkpt lat="38.041491" lon="114.031224"><time>2026-06-18T11:16:46.073Z</time></trkpt>
      <trkpt lat="38.041491" lon="114.031224"><time>2026-06-18T11:16:46.090Z</time></trkpt>
      <trkpt lat="38.041491" lon="114.031224"><time>2026-06-18T11:16:46.106Z</time></trkpt>
      <trkpt lat="38.041491" lon="114.031224"><time>2026-06-18T11:16:46.123Z</time></trkpt>
      <trkpt lat="38.041491" lon="114.031224"><time>2026-06-18T11:16:46.140Z</time></trkpt>
      <trkpt lat="38.04149" lon="114.031226"><time>2026-06-18T11:16:46.156Z</time></trkpt>
      <trkpt lat="38.04149" lon="114.031226"><time>2026-06-18T11:16:46.173Z</time></trkpt>
      <trkpt lat="38.04149" lon="114.031226"><time>2026-06-18T11:16:46.190Z</time></trkpt>
      <trkpt lat="38.04149" lon="114.031226"><time>2026-06-18T11:16:46.206Z</time></trkpt>
      <trkpt lat="38.04149" lon="114.031226"><time>2026-06-18T11:16:46.223Z</time></trkpt>
      <trkpt lat="38.04149" lon="114.031226"><time>2026-06-18T11:16:46.240Z</time></trkpt>
      <trkpt lat="38.041489" lon="114.031227"><time>2026-06-18T11:16:46.256Z</time></trkpt>
      <trkpt lat="38.041489" lon="114.031227"><time>2026-06-18T11:16:46.273Z</time></trkpt>
      <trkpt lat="38.041489" lon="114.031227"><time>2026-06-18T11:16:46.290Z</time></trkpt>
      <trkpt lat="38.041489" lon="114.031227"><time>2026-06-18T11:16:46.306Z</time></trkpt>
      <trkpt lat="38.041489" lon="114.031227"><time>2026-06-18T11:16:46.323Z</time></trkpt>
      <trkpt lat="38.041489" lon="114.031227"><time>2026-06-18T11:16:46.340Z</time></trkpt>
      <trkpt lat="38.041488" lon="114.031228"><time>2026-06-18T11:16:46.356Z</time></trkpt>
      <trkpt lat="38.041488" lon="114.031228"><time>2026-06-18T11:16:46.373Z</time></trkpt>
      <trkpt lat="38.041488" lon="114.031228"><time>2026-06-18T11:16:46.390Z</time></trkpt>
      <trkpt lat="38.041488" lon="114.031228"><time>2026-06-18T11:16:46.407Z</time></trkpt>
      <trkpt lat="38.041488" lon="114.031228"><time>2026-06-18T11:16:46.423Z</time></trkpt>
      <trkpt lat="38.041488" lon="114.031228"><time>2026-06-18T11:16:46.440Z</time></trkpt>
      <trkpt lat="38.041487" lon="114.031229"><time>2026-06-18T11:16:46.457Z</time></trkpt>
      <trkpt lat="38.041487" lon="114.031229"><time>2026-06-18T11:16:46.473Z</time></trkpt>
      <trkpt lat="38.041487" lon="114.031229"><time>2026-06-18T11:16:46.490Z</time></trkpt>
      <trkpt lat="38.041487" lon="114.031229"><time>2026-06-18T11:16:46.507Z</time></trkpt>
      <trkpt lat="38.041487" lon="114.031229"><time>2026-06-18T11:16:46.523Z</time></trkpt>
      <trkpt lat="38.041487" lon="114.031229"><time>2026-06-18T11:16:46.540Z</time></trkpt>
      <trkpt lat="38.041487" lon="114.03123"><time>2026-06-18T11:16:46.557Z</time></trkpt>
      <trkpt lat="38.041487" lon="114.03123"><time>2026-06-18T11:16:46.573Z</time></trkpt>
      <trkpt lat="38.041487" lon="114.03123"><time>2026-06-18T11:16:46.590Z</time></trkpt>
      <trkpt lat="38.041487" lon="114.03123"><time>2026-06-18T11:16:46.607Z</time></trkpt>
      <trkpt lat="38.041487" lon="114.03123"><time>2026-06-18T11:16:46.623Z</time></trkpt>
      <trkpt lat="38.041487" lon="114.03123"><time>2026-06-18T11:16:46.640Z</time></trkpt>
      <trkpt lat="38.041486" lon="114.031231"><time>2026-06-18T11:16:46.657Z</time></trkpt>
      <trkpt lat="38.041486" lon="114.031231"><time>2026-06-18T11:16:46.673Z</time></trkpt>
      <trkpt lat="38.041486" lon="114.031231"><time>2026-06-18T11:16:46.690Z</time></trkpt>
      <trkpt lat="38.041486" lon="114.031231"><time>2026-06-18T11:16:46.707Z</time></trkpt>
      <trkpt lat="38.041486" lon="114.031231"><time>2026-06-18T11:16:46.724Z</time></trkpt>
      <trkpt lat="38.041486" lon="114.031231"><time>2026-06-18T11:16:46.740Z</time></trkpt>
      <trkpt lat="38.041485" lon="114.031232"><time>2026-06-18T11:16:46.757Z</time></trkpt>
      <trkpt lat="38.041485" lon="114.031232"><time>2026-06-18T11:16:46.774Z</time></trkpt>
      <trkpt lat="38.041485" lon="114.031232"><time>2026-06-18T11:16:46.790Z</time></trkpt>
      <trkpt lat="38.041485" lon="114.031232"><time>2026-06-18T11:16:46.807Z</time></trkpt>
      <trkpt lat="38.041485" lon="114.031232"><time>2026-06-18T11:16:46.824Z</time></trkpt>
      <trkpt lat="38.041485" lon="114.031232"><time>2026-06-18T11:16:46.840Z</time></trkpt>
      <trkpt lat="38.041484" lon="114.031233"><time>2026-06-18T11:16:46.857Z</time></trkpt>
      <trkpt lat="38.041484" lon="114.031233"><time>2026-06-18T11:16:46.874Z</time></trkpt>
      <trkpt lat="38.041484" lon="114.031233"><time>2026-06-18T11:16:46.890Z</time></trkpt>
      <trkpt lat="38.041484" lon="114.031233"><time>2026-06-18T11:16:46.907Z</time></trkpt>
      <trkpt lat="38.041484" lon="114.031233"><time>2026-06-18T11:16:46.924Z</time></trkpt>
      <trkpt lat="38.041484" lon="114.031233"><time>2026-06-18T11:16:46.940Z</time></trkpt>
      <trkpt lat="38.041483" lon="114.031234"><time>2026-06-18T11:16:46.957Z</time></trkpt>
      <trkpt lat="38.041483" lon="114.031234"><time>2026-06-18T11:16:46.974Z</time></trkpt>
      <trkpt lat="38.041483" lon="114.031234"><time>2026-06-18T11:16:46.990Z</time></trkpt>
      <trkpt lat="38.041483" lon="114.031234"><time>2026-06-18T11:16:47.007Z</time></trkpt>
      <trkpt lat="38.041483" lon="114.031234"><time>2026-06-18T11:16:47.024Z</time></trkpt>
      <trkpt lat="38.041483" lon="114.031234"><time>2026-06-18T11:16:47.041Z</time></trkpt>
      <trkpt lat="38.041482" lon="114.031234"><time>2026-06-18T11:16:47.057Z</time></trkpt>
      <trkpt lat="38.041482" lon="114.031234"><time>2026-06-18T11:16:47.074Z</time></trkpt>
      <trkpt lat="38.041482" lon="114.031234"><time>2026-06-18T11:16:47.091Z</time></trkpt>
      <trkpt lat="38.041482" lon="114.031234"><time>2026-06-18T11:16:47.107Z</time></trkpt>
      <trkpt lat="38.041482" lon="114.031234"><time>2026-06-18T11:16:47.124Z</time></trkpt>
      <trkpt lat="38.041482" lon="114.031234"><time>2026-06-18T11:16:47.141Z</time></trkpt>
      <trkpt lat="38.041481" lon="114.031235"><time>2026-06-18T11:16:47.157Z</time></trkpt>
      <trkpt lat="38.041481" lon="114.031235"><time>2026-06-18T11:16:47.174Z</time></trkpt>
      <trkpt lat="38.041481" lon="114.031235"><time>2026-06-18T11:16:47.191Z</time></trkpt>
      <trkpt lat="38.041481" lon="114.031235"><time>2026-06-18T11:16:47.207Z</time></trkpt>
      <trkpt lat="38.041481" lon="114.031235"><time>2026-06-18T11:16:47.224Z</time></trkpt>
      <trkpt lat="38.041481" lon="114.031235"><time>2026-06-18T11:16:47.241Z</time></trkpt>
      <trkpt lat="38.041481" lon="114.031236"><time>2026-06-18T11:16:47.257Z</time></trkpt>
    </trkseg>
  </trk>
</gpx>
