<?xml version="1.0" encoding="UTF-8"?>
<gpx version="1.1" creator="Kairos" xmlns="http://www.topografix.com/GPX/1/1">
  <trk>
    <name>sidecar-srt-843433a4fafb9176</name>
    <trkseg>
      <trkpt lat="38.040505" lon="114.031209"><time>2026-06-18T11:11:04.000Z</time></trkpt>
      <trkpt lat="38.040505" lon="114.031209"><time>2026-06-18T11:11:04.016Z</time></trkpt>
      <trkpt lat="38.040505" lon="114.031209"><time>2026-06-18T11:11:04.032Z</time></trkpt>
      <trkpt lat="38.040505" lon="114.031209"><time>2026-06-18T11:11:04.049Z</time></trkpt>
      <trkpt lat="38.040505" lon="114.031209"><time>2026-06-18T11:11:04.066Z</time></trkpt>
      <trkpt lat="38.040505" lon="114.03121"><time>2026-06-18T11:11:04.082Z</time></trkpt>
      <trkpt lat="38.040505" lon="114.03121"><time>2026-06-18T11:11:04.099Z</time></trkpt>
      <trkpt lat="38.040505" lon="114.03121"><time>2026-06-18T11:11:04.116Z</time></trkpt>
      <trkpt lat="38.040505" lon="114.03121"><time>2026-06-18T11:11:04.132Z</time></trkpt>
      <trkpt lat="38.040505" lon="114.03121"><time>2026-06-18T11:11:04.149Z</time></trkpt>
      <trkpt lat="38.040506" lon="114.031211"><time>2026-06-18T11:11:04.166Z</time></trkpt>
      <trkpt lat="38.040506" lon="114.031211"><time>2026-06-18T11:11:04.182Z</time></trkpt>
      <trkpt lat="38.040506" lon="114.031211"><time>2026-06-18T11:11:04.199Z</time></trkpt>
      <trkpt lat="38.040506" lon="114.031211"><time>2026-06-18T11:11:04.216Z</time></trkpt>
      <trkpt lat="38.040506" lon="114.031211"><time>2026-06-18T11:11:04.232Z</time></trkpt>
      <trkpt lat="38.040506" lon="114.031211"><time>2026-06-18T11:11:04.249Z</time></trkpt>
      <trkpt lat="38.040507" lon="114.031212"><time>2026-06-18T11:11:04.266Z</time></trkpt>
      <trkpt lat="38.040507" lon="114.031212"><time>2026-06-18T11:11:04.282Z</time></trkpt>
      <trkpt lat="38.040507" lon="114.031212"><time>2026-06-18T11:11:04.299Z</time></trkpt>
      <trkpt lat="38.040507" lon="114.031212"><time>2026-06-18T11:11:04.316Z</time></trkpt>
      <trkpt lat="38.040507" lon="114.031212"><time>2026-06-18T11:11:04.333Z</time></trkpt>
      <trkpt lat="38.040507" lon="114.031212"><time>2026-06-18T11:11:04.349Z</time></trkpt>
      <trkpt lat="38.040508" lon="114.031214"><time>2026-06-18T11:11:04.366Z</time></trkpt>
      <trkpt lat="38.040508" lon="114.031214"><time>2026-06-18T11:11:04.383Z</time></trkpt>
      <trkpt lat="38.040508" lon="114.031214"><time>2026-06-18T11:11:04.399Z</time></trkpt>
      <trkpt lat="38.040508" lon="114.031214"><time>2026-06-18T11:11:04.416Z</time></trkpt>
      <trkpt lat="38.040508" lon="114.031214"><time>2026-06-18T11:11:04.433Z</time></trkpt>
      <trkpt lat="38.040508" lon="114.031214"><time>2026-06-18T11:11:04.449Z</time></trkpt>
      <trkpt lat="38.040509" lon="114.031216"><time>2026-06-18T11:11:04.466Z</time></trkpt>
      <trkpt lat="38.040509" lon="114.031216"><time>2026-06-18T11:11:04.483Z</time></trkpt>
      <trkpt lat="38.040509" lon="114.031216"><time>2026-06-18T11:11:04.499Z</time></trkpt>
      <trkpt lat="38.040509" lon="114.031216"><time>2026-06-18T11:11:04.516Z</time></trkpt>
      <trkpt lat="38.040509" lon="114.031216"><time>2026-06-18T11:11:04.533Z</time></trkpt>
      <trkpt lat="38.040509" lon="114.031216"><time>2026-06-18T11:11:04.549Z</time></trkpt>
      <trkpt lat="38.04051" lon="114.031218"><time>2026-06-18T11:11:04.566Z</time></trkpt>
      <trkpt lat="38.04051" lon="114.031218"><time>2026-06-18T11:11:04.583Z</time></trkpt>
      <trkpt lat="38.04051" lon="114.031218"><time>2026-06-18T11:11:04.599Z</time></trkpt>
      <trkpt lat="38.04051" lon="114.031218"><time>2026-06-18T11:11:04.616Z</time></trkpt>
      <trkpt lat="38.04051" lon="114.031218"><time>2026-06-18T11:11:04.633Z</time></trkpt>
      <trkpt lat="38.04051" lon="114.031218"><time>2026-06-18T11:11:04.650Z</time></trkpt>
      <trkpt lat="38.040512" lon="114.03122"><time>2026-06-18T11:11:04.666Z</time></trkpt>
      <trkpt lat="38.040512" lon="114.03122"><time>2026-06-18T11:11:04.683Z</time></trkpt>
      <trkpt lat="38.040512" lon="114.03122"><time>2026-06-18T11:11:04.700Z</time></trkpt>
      <trkpt lat="38.040512" lon="114.03122"><time>2026-06-18T11:11:04.716Z</time></trkpt>
      <trkpt lat="38.040512" lon="114.03122"><time>2026-06-18T11:11:04.733Z</time></trkpt>
      <trkpt lat="38.040512" lon="114.03122"><time>2026-06-18T11:11:04.750Z</time></trkpt>
      <trkpt lat="38.040514" lon="114.031223"><time>2026-06-18T11:11:04.766Z</time></trkpt>
      <trkpt lat="38.040514" lon="114.031223"><time>2026-06-18T11:11:04.783Z</time></trkpt>
      <trkpt lat="38.040514" lon="114.031223"><time>2026-06-18T11:11:04.800Z</time></trkpt>
      <trkpt lat="38.040514" lon="114.031223"><time>2026-06-18T11:11:04.816Z</time></trkpt>
      <trkpt lat="38.040514" lon="114.031223"><time>2026-06-18T11:11:04.833Z</time></trkpt>
      <trkpt lat="38.040514" lon="114.031223"><time>2026-06-18T11:11:04.850Z</time></trkpt>
      <trkpt lat="38.040516" lon="114.031226"><time>2026-06-18T11:11:04.866Z</time></trkpt>
      <trkpt lat="38.040516" lon="114.031226"><time>2026-06-18T11:11:04.883Z</time></trkpt>
      <trkpt lat="38.040516" lon="114.031226"><time>2026-06-18T11:11:04.900Z</time></trkpt>
      <trkpt lat="38.040516" lon="114.031226"><time>2026-06-18T11:11:04.916Z</time></trkpt>
      <trkpt lat="38.040516" lon="114.031226"><time>2026-06-18T11:11:04.933Z</time></trkpt>
      <trkpt lat="38.040516" lon="114.031226"><time>2026-06-18T11:11:04.950Z</time></trkpt>
      <trkpt lat="38.040518" lon="114.03123"><time>2026-06-18T11:11:04.967Z</time></trkpt>
      <trkpt lat="38.040518" lon="114.03123"><time>2026-06-18T11:11:04.983Z</time></trkpt>
      <trkpt lat="38.040518" lon="114.03123"><time>2026-06-18T11:11:05.000Z</time></trkpt>
      <trkpt lat="38.040518" lon="114.03123"><time>2026-06-18T11:11:05.017Z</time></trkpt>
      <trkpt lat="38.040518" lon="114.03123"><time>2026-06-18T11:11:05.033Z</time></trkpt>
      <trkpt lat="38.040518" lon="114.03123"><time>2026-06-18T11:11:05.050Z</time></trkpt>
      <trkpt lat="38.04052" lon="114.031233"><time>2026-06-18T11:11:05.067Z</time></trkpt>
      <trkpt lat="38.04052" lon="114.031233"><time>2026-06-18T11:11:05.083Z</time></trkpt>
      <trkpt lat="38.04052" lon="114.031233"><time>2026-06-18T11:11:05.100Z</time></trkpt>
      <trkpt lat="38.04052" lon="114.031233"><time>2026-06-18T11:11:05.117Z</time></trkpt>
      <trkpt lat="38.04052" lon="114.031233"><time>2026-06-18T11:11:05.133Z</time></trkpt>
      <trkpt lat="38.04052" lon="114.031233"><time>2026-06-18T11:11:05.150Z</time></trkpt>
      <trkpt lat="38.040522" lon="114.031237"><time>2026-06-18T11:11:05.167Z</time></trkpt>
      <trkpt lat="38.040522" lon="114.031237"><time>2026-06-18T11:11:05.183Z</time></trkpt>
      <trkpt lat="38.040522" lon="114.031237"><time>2026-06-18T11:11:05.200Z</time></trkpt>
      <trkpt lat="38.040522" lon="114.031237"><time>2026-06-18T11:11:05.217Z</time></trkpt>
      <trkpt lat="38.040522" lon="114.031237"><time>2026-06-18T11:11:05.233Z</time></trkpt>
      <trkpt lat="38.040522" lon="114.031237"><time>2026-06-18T11:11:05.250Z</time></trkpt>
      <trkpt lat="38.040525" lon="114.031241"><time>2026-06-18T11:11:05.267Z</time></trkpt>
      <trkpt lat="38.040525" lon="114.031241"><time>2026-06-18T11:11:05.284Z</time></trkpt>
      <trkpt lat="38.040525" lon="114.031241"><time>2026-06-18T11:11:05.300Z</time></trkpt>
      <trkpt lat="38.040525" lon="114.031241"><time>2026-06-18T11:11:05.317Z</time></trkpt>
      <trkpt lat="38.040525" lon="114.031241"><time>2026-06-18T11:11:05.334Z</time></trkpt>
      <trkpt lat="38.040525" lon="114.031241"><time>2026-06-18T11:11:05.350Z</time></trkpt>
      <trkpt lat="38.040527" lon="114.031245"><time>2026-06-18T11:11:05.367Z</time></trkpt>
      <trkpt lat="38.040527" lon="114.031245"><time>2026-06-18T11:11:05.384Z</time></trkpt>
      <trkpt lat="38.040527" lon="114.031245"><time>2026-06-18T11:11:05.400Z</time></trkpt>
      <trkpt lat="38.040527" lon="114.031245"><time>2026-06-18T11:11:05.417Z</time></trkpt>
      <trkpt lat="38.040527" lon="114.031245"><time>2026-06-18T11:11:05.434Z</time></trkpt>
      <trkpt lat="38.040527" lon="114.031245"><time>2026-06-18T11:11:05.450Z</time></trkpt>
      <trkpt lat="38.04053" lon="114.031249"><time>2026-06-18T11:11:05.467Z</time></trkpt>
      <trkpt lat="38.04053" lon="114.031249"><time>2026-06-18T11:11:05.484Z</time></trkpt>
      <trkpt lat="38.04053" lon="114.031249"><time>2026-06-18T11:11:05.500Z</time></trkpt>
      <trkpt lat="38.04053" lon="114.031249"><time>2026-06-18T11:11:05.517Z</time></trkpt>
      <trkpt lat="38.04053" lon="114.031249"><time>2026-06-18T11:11:05.534Z</time></trkpt>
      <trkpt lat="38.04053" lon="114.031249"><time>2026-06-18T11:11:05.550Z</time></trkpt>
      <trkpt lat="38.040533" lon="114.031254"><time>2026-06-18T11:11:05.567Z</time></trkpt>
      <trkpt lat="38.040533" lon="114.031254"><time>2026-06-18T11:11:05.584Z</time></trkpt>
      <trkpt lat="38.040533" lon="114.031254"><time>2026-06-18T11:11:05.600Z</time></trkpt>
      <trkpt lat="38.040533" lon="114.031254"><time>2026-06-18T11:11:05.617Z</time></trkpt>
      <trkpt lat="38.040533" lon="114.031254"><time>2026-06-18T11:11:05.634Z</time></trkpt>
      <trkpt lat="38.040533" lon="114.031254"><time>2026-06-18T11:11:05.651Z</time></trkpt>
      <trkpt lat="38.040536" lon="114.031258"><time>2026-06-18T11:11:05.667Z</time></trkpt>
      <trkpt lat="38.040536" lon="114.031258"><time>2026-06-18T11:11:05.684Z</time></trkpt>
      <trkpt lat="38.040536" lon="114.031258"><time>2026-06-18T11:11:05.701Z</time></trkpt>
      <trkpt lat="38.040536" lon="114.031258"><time>2026-06-18T11:11:05.717Z</time></trkpt>
      <trkpt lat="38.040536" lon="114.031258"><time>2026-06-18T11:11:05.734Z</time></trkpt>
      <trkpt lat="38.040536" lon="114.031258"><time>2026-06-18T11:11:05.751Z</time></trkpt>
      <trkpt lat="38.040539" lon="114.031263"><time>2026-06-18T11:11:05.767Z</time></trkpt>
      <trkpt lat="38.040539" lon="114.031263"><time>2026-06-18T11:11:05.784Z</time></trkpt>
      <trkpt lat="38.040539" lon="114.031263"><time>2026-06-18T11:11:05.801Z</time></trkpt>
      <trkpt lat="38.040539" lon="114.031263"><time>2026-06-18T11:11:05.817Z</time></trkpt>
      <trkpt lat="38.040539" lon="114.031263"><time>2026-06-18T11:11:05.834Z</time></trkpt>
      <trkpt lat="38.040539" lon="114.031263"><time>2026-06-18T11:11:05.851Z</time></trkpt>
      <trkpt lat="38.040542" lon="114.031268"><time>2026-06-18T11:11:05.867Z</time></trkpt>
      <trkpt lat="38.040542" lon="114.031268"><time>2026-06-18T11:11:05.884Z</time></trkpt>
      <trkpt lat="38.040542" lon="114.031268"><time>2026-06-18T11:11:05.901Z</time></trkpt>
      <trkpt lat="38.040542" lon="114.031268"><time>2026-06-18T11:11:05.917Z</time></trkpt>
      <trkpt lat="38.040542" lon="114.031268"><time>2026-06-18T11:11:05.934Z</time></trkpt>
      <trkpt lat="38.040542" lon="114.031268"><time>2026-06-18T11:11:05.951Z</time></trkpt>
      <trkpt lat="38.040545" lon="114.031273"><time>2026-06-18T11:11:05.968Z</time></trkpt>
      <trkpt lat="38.040545" lon="114.031273"><time>2026-06-18T11:11:05.984Z</time></trkpt>
      <trkpt lat="38.040545" lon="114.031273"><time>2026-06-18T11:11:06.001Z</time></trkpt>
      <trkpt lat="38.040545" lon="114.031273"><time>2026-06-18T11:11:06.018Z</time></trkpt>
      <trkpt lat="38.040545" lon="114.031273"><time>2026-06-18T11:11:06.034Z</time></trkpt>
      <trkpt lat="38.040545" lon="114.031273"><time>2026-06-18T11:11:06.051Z</time></trkpt>
      <trkpt lat="38.040548" lon="114.031278"><time>2026-06-18T11:11:06.068Z</time></trkpt>
      <trkpt lat="38.040548" lon="114.031278"><time>2026-06-18T11:11:06.084Z</time></trkpt>
      <trkpt lat="38.040548" lon="114.031278"><time>2026-06-18T11:11:06.101Z</time></trkpt>
      <trkpt lat="38.040548" lon="114.031278"><time>2026-06-18T11:11:06.118Z</time></trkpt>
      <trkpt lat="38.040548" lon="114.031278"><time>2026-06-18T11:11:06.134Z</time></trkpt>
      <trkpt lat="38.040548" lon="114.031278"><time>2026-06-18T11:11:06.151Z</time></trkpt>
      <trkpt lat="38.040552" lon="114.031284"><time>2026-06-18T11:11:06.168Z</time></trkpt>
      <trkpt lat="38.040552" lon="114.031284"><time>2026-06-18T11:11:06.184Z</time></trkpt>
      <trkpt lat="38.040552" lon="114.031284"><time>2026-06-18T11:11:06.201Z</time></trkpt>
      <trkpt lat="38.040552" lon="114.031284"><time>2026-06-18T11:11:06.218Z</time></trkpt>
      <trkpt lat="38.040552" lon="114.031284"><time>2026-06-18T11:11:06.234Z</time></trkpt>
      <trkpt lat="38.040552" lon="114.031284"><time>2026-06-18T11:11:06.251Z</time></trkpt>
      <trkpt lat="38.040555" lon="114.031289"><time>2026-06-18T11:11:06.268Z</time></trkpt>
      <trkpt lat="38.040555" lon="114.031289"><time>2026-06-18T11:11:06.285Z</time></trkpt>
      <trkpt lat="38.040555" lon="114.031289"><time>2026-06-18T11:11:06.301Z</time></trkpt>
      <trkpt lat="38.040555" lon="114.031289"><time>2026-06-18T11:11:06.318Z</time></trkpt>
      <trkpt lat="38.040555" lon="114.031289"><time>2026-06-18T11:11:06.335Z</time></trkpt>
      <trkpt lat="38.040555" lon="114.031289"><time>2026-06-18T11:11:06.351Z</time></trkpt>
      <trkpt lat="38.040559" lon="114.031295"><time>2026-06-18T11:11:06.368Z</time></trkpt>
      <trkpt lat="38.040559" lon="114.031295"><time>2026-06-18T11:11:06.385Z</time></trkpt>
      <trkpt lat="38.040559" lon="114.031295"><time>2026-06-18T11:11:06.401Z</time></trkpt>
      <trkpt lat="38.040559" lon="114.031295"><time>2026-06-18T11:11:06.418Z</time></trkpt>
      <trkpt lat="38.040559" lon="114.031295"><time>2026-06-18T11:11:06.435Z</time></trkpt>
      <trkpt lat="38.040559" lon="114.031295"><time>2026-06-18T11:11:06.451Z</time></trkpt>
      <trkpt lat="38.040563" lon="114.031301"><time>2026-06-18T11:11:06.468Z</time></trkpt>
      <trkpt lat="38.040563" lon="114.031301"><time>2026-06-18T11:11:06.485Z</time></trkpt>
      <trkpt lat="38.040563" lon="114.031301"><time>2026-06-18T11:11:06.501Z</time></trkpt>
      <trkpt lat="38.040563" lon="114.031301"><time>2026-06-18T11:11:06.518Z</time></trkpt>
      <trkpt lat="38.040563" lon="114.031301"><time>2026-06-18T11:11:06.535Z</time></trkpt>
      <trkpt lat="38.040563" lon="114.031301"><time>2026-06-18T11:11:06.551Z</time></trkpt>
      <trkpt lat="38.040566" lon="114.031307"><time>2026-06-18T11:11:06.568Z</time></trkpt>
      <trkpt lat="38.040566" lon="114.031307"><time>2026-06-18T11:11:06.585Z</time></trkpt>
      <trkpt lat="38.040566" lon="114.031307"><time>2026-06-18T11:11:06.602Z</time></trkpt>
      <trkpt lat="38.040566" lon="114.031307"><time>2026-06-18T11:11:06.618Z</time></trkpt>
      <trkpt lat="38.040566" lon="114.031307"><time>2026-06-18T11:11:06.635Z</time></trkpt>
      <trkpt lat="38.040566" lon="114.031307"><time>2026-06-18T11:11:06.652Z</time></trkpt>
      <trkpt lat="38.04057" lon="114.031313"><time>2026-06-18T11:11:06.668Z</time></trkpt>
      <trkpt lat="38.04057" lon="114.031313"><time>2026-06-18T11:11:06.685Z</time></trkpt>
      <trkpt lat="38.04057" lon="114.031313"><time>2026-06-18T11:11:06.702Z</time></trkpt>
      <trkpt lat="38.04057" lon="114.031313"><time>2026-06-18T11:11:06.718Z</time></trkpt>
      <trkpt lat="38.04057" lon="114.031313"><time>2026-06-18T11:11:06.735Z</time></trkpt>
      <trkpt lat="38.04057" lon="114.031313"><time>2026-06-18T11:11:06.752Z</time></trkpt>
      <trkpt lat="38.040574" lon="114.031319"><time>2026-06-18T11:11:06.768Z</time></trkpt>
      <trkpt lat="38.040574" lon="114.031319"><time>2026-06-18T11:11:06.785Z</time></trkpt>
      <trkpt lat="38.040574" lon="114.031319"><time>2026-06-18T11:11:06.802Z</time></trkpt>
      <trkpt lat="38.040574" lon="114.031319"><time>2026-06-18T11:11:06.818Z</time></trkpt>
      <trkpt lat="38.040574" lon="114.031319"><time>2026-06-18T11:11:06.835Z</time></trkpt>
      <trkpt lat="38.040574" lon="114.031319"><time>2026-06-18T11:11:06.852Z</time></trkpt>
      <trkpt lat="38.040578" lon="114.031325"><time>2026-06-18T11:11:06.868Z</time></trkpt>
      <trkpt lat="38.040578" lon="114.031325"><time>2026-06-18T11:11:06.885Z</time></trkpt>
      <trkpt lat="38.040578" lon="114.031325"><time>2026-06-18T11:11:06.902Z</time></trkpt>
      <trkpt lat="38.040578" lon="114.031325"><time>2026-06-18T11:11:06.919Z</time></trkpt>
      <trkpt lat="38.040578" lon="114.031325"><time>2026-06-18T11:11:06.935Z</time></trkpt>
      <trkpt lat="38.040578" lon="114.031325"><time>2026-06-18T11:11:06.952Z</time></trkpt>
      <trkpt lat="38.040582" lon="114.031332"><time>2026-06-18T11:11:06.969Z</time></trkpt>
      <trkpt lat="38.040582" lon="114.031332"><time>2026-06-18T11:11:06.985Z</time></trkpt>
      <trkpt lat="38.040582" lon="114.031332"><time>2026-06-18T11:11:07.002Z</time></trkpt>
      <trkpt lat="38.040582" lon="114.031332"><time>2026-06-18T11:11:07.019Z</time></trkpt>
      <trkpt lat="38.040582" lon="114.031332"><time>2026-06-18T11:11:07.035Z</time></trkpt>
      <trkpt lat="38.040582" lon="114.031332"><time>2026-06-18T11:11:07.052Z</time></trkpt>
      <trkpt lat="38.040586" lon="114.031338"><time>2026-06-18T11:11:07.069Z</time></trkpt>
      <trkpt lat="38.040586" lon="114.031338"><time>2026-06-18T11:11:07.085Z</time></trkpt>
      <trkpt lat="38.040586" lon="114.031338"><time>2026-06-18T11:11:07.102Z</time></trkpt>
      <trkpt lat="38.040586" lon="114.031338"><time>2026-06-18T11:11:07.119Z</time></trkpt>
      <trkpt lat="38.040586" lon="114.031338"><time>2026-06-18T11:11:07.135Z</time></trkpt>
      <trkpt lat="38.040586" lon="114.031338"><time>2026-06-18T11:11:07.152Z</time></trkpt>
      <trkpt lat="38.04059" lon="114.031344"><time>2026-06-18T11:11:07.169Z</time></trkpt>
      <trkpt lat="38.04059" lon="114.031344"><time>2026-06-18T11:11:07.185Z</time></trkpt>
      <trkpt lat="38.04059" lon="114.031344"><time>2026-06-18T11:11:07.202Z</time></trkpt>
      <trkpt lat="38.04059" lon="114.031344"><time>2026-06-18T11:11:07.219Z</time></trkpt>
      <trkpt lat="38.04059" lon="114.031344"><time>2026-06-18T11:11:07.236Z</time></trkpt>
      <trkpt lat="38.04059" lon="114.031344"><time>2026-06-18T11:11:07.252Z</time></trkpt>
      <trkpt lat="38.040597" lon="114.031351"><time>2026-06-18T11:11:07.269Z</time></trkpt>
      <trkpt lat="38.040597" lon="114.031351"><time>2026-06-18T11:11:07.286Z</time></trkpt>
      <trkpt lat="38.040597" lon="114.031351"><time>2026-06-18T11:11:07.302Z</time></trkpt>
      <trkpt lat="38.040597" lon="114.031351"><time>2026-06-18T11:11:07.319Z</time></trkpt>
      <trkpt lat="38.040597" lon="114.031351"><time>2026-06-18T11:11:07.336Z</time></trkpt>
      <trkpt lat="38.040597" lon="114.031351"><time>2026-06-18T11:11:07.352Z</time></trkpt>
      <trkpt lat="38.040601" lon="114.031359"><time>2026-06-18T11:11:07.369Z</time></trkpt>
      <trkpt lat="38.040601" lon="114.031359"><time>2026-06-18T11:11:07.386Z</time></trkpt>
      <trkpt lat="38.040601" lon="114.031359"><time>2026-06-18T11:11:07.402Z</time></trkpt>
      <trkpt lat="38.040601" lon="114.031359"><time>2026-06-18T11:11:07.419Z</time></trkpt>
      <trkpt lat="38.040601" lon="114.031359"><time>2026-06-18T11:11:07.436Z</time></trkpt>
      <trkpt lat="38.040601" lon="114.031359"><time>2026-06-18T11:11:07.452Z</time></trkpt>
      <trkpt lat="38.040605" lon="114.031366"><time>2026-06-18T11:11:07.469Z</time></trkpt>
      <trkpt lat="38.040605" lon="114.031366"><time>2026-06-18T11:11:07.486Z</time></trkpt>
      <trkpt lat="38.040605" lon="114.031366"><time>2026-06-18T11:11:07.502Z</time></trkpt>
      <trkpt lat="38.040605" lon="114.031366"><time>2026-06-18T11:11:07.519Z</time></trkpt>
      <trkpt lat="38.040605" lon="114.031366"><time>2026-06-18T11:11:07.536Z</time></trkpt>
      <trkpt lat="38.040605" lon="114.031366"><time>2026-06-18T11:11:07.553Z</time></trkpt>
      <trkpt lat="38.04061" lon="114.031373"><time>2026-06-18T11:11:07.569Z</time></trkpt>
      <trkpt lat="38.04061" lon="114.031373"><time>2026-06-18T11:11:07.586Z</time></trkpt>
      <trkpt lat="38.04061" lon="114.031373"><time>2026-06-18T11:11:07.603Z</time></trkpt>
      <trkpt lat="38.04061" lon="114.031373"><time>2026-06-18T11:11:07.619Z</time></trkpt>
      <trkpt lat="38.04061" lon="114.031373"><time>2026-06-18T11:11:07.636Z</time></trkpt>
      <trkpt lat="38.04061" lon="114.031373"><time>2026-06-18T11:11:07.653Z</time></trkpt>
      <trkpt lat="38.040614" lon="114.03138"><time>2026-06-18T11:11:07.669Z</time></trkpt>
      <trkpt lat="38.040614" lon="114.03138"><time>2026-06-18T11:11:07.686Z</time></trkpt>
      <trkpt lat="38.040614" lon="114.03138"><time>2026-06-18T11:11:07.703Z</time></trkpt>
      <trkpt lat="38.040614" lon="114.03138"><time>2026-06-18T11:11:07.719Z</time></trkpt>
      <trkpt lat="38.040614" lon="114.03138"><time>2026-06-18T11:11:07.736Z</time></trkpt>
      <trkpt lat="38.040614" lon="114.03138"><time>2026-06-18T11:11:07.753Z</time></trkpt>
      <trkpt lat="38.040618" lon="114.031387"><time>2026-06-18T11:11:07.769Z</time></trkpt>
      <trkpt lat="38.040618" lon="114.031387"><time>2026-06-18T11:11:07.786Z</time></trkpt>
      <trkpt lat="38.040618" lon="114.031387"><time>2026-06-18T11:11:07.803Z</time></trkpt>
      <trkpt lat="38.040618" lon="114.031387"><time>2026-06-18T11:11:07.819Z</time></trkpt>
      <trkpt lat="38.040618" lon="114.031387"><time>2026-06-18T11:11:07.836Z</time></trkpt>
      <trkpt lat="38.040618" lon="114.031387"><time>2026-06-18T11:11:07.853Z</time></trkpt>
      <trkpt lat="38.040623" lon="114.031394"><time>2026-06-18T11:11:07.870Z</time></trkpt>
      <trkpt lat="38.040623" lon="114.031394"><time>2026-06-18T11:11:07.886Z</time></trkpt>
      <trkpt lat="38.040623" lon="114.031394"><time>2026-06-18T11:11:07.903Z</time></trkpt>
      <trkpt lat="38.040623" lon="114.031394"><time>2026-06-18T11:11:07.920Z</time></trkpt>
      <trkpt lat="38.040623" lon="114.031394"><time>2026-06-18T11:11:07.936Z</time></trkpt>
      <trkpt lat="38.040623" lon="114.031394"><time>2026-06-18T11:11:07.953Z</time></trkpt>
      <trkpt lat="38.040627" lon="114.031402"><time>2026-06-18T11:11:07.970Z</time></trkpt>
      <trkpt lat="38.040627" lon="114.031402"><time>2026-06-18T11:11:07.986Z</time></trkpt>
      <trkpt lat="38.040627" lon="114.031402"><time>2026-06-18T11:11:08.003Z</time></trkpt>
      <trkpt lat="38.040627" lon="114.031402"><time>2026-06-18T11:11:08.020Z</time></trkpt>
      <trkpt lat="38.040627" lon="114.031402"><time>2026-06-18T11:11:08.036Z</time></trkpt>
      <trkpt lat="38.040627" lon="114.031402"><time>2026-06-18T11:11:08.053Z</time></trkpt>
      <trkpt lat="38.040632" lon="114.031408"><time>2026-06-18T11:11:08.070Z</time></trkpt>
      <trkpt lat="38.040632" lon="114.031408"><time>2026-06-18T11:11:08.086Z</time></trkpt>
      <trkpt lat="38.040632" lon="114.031408"><time>2026-06-18T11:11:08.103Z</time></trkpt>
      <trkpt lat="38.040632" lon="114.031408"><time>2026-06-18T11:11:08.120Z</time></trkpt>
      <trkpt lat="38.040632" lon="114.031408"><time>2026-06-18T11:11:08.136Z</time></trkpt>
      <trkpt lat="38.040632" lon="114.031408"><time>2026-06-18T11:11:08.153Z</time></trkpt>
      <trkpt lat="38.040637" lon="114.031416"><time>2026-06-18T11:11:08.170Z</time></trkpt>
      <trkpt lat="38.040637" lon="114.031416"><time>2026-06-18T11:11:08.187Z</time></trkpt>
      <trkpt lat="38.040637" lon="114.031416"><time>2026-06-18T11:11:08.203Z</time></trkpt>
      <trkpt lat="38.040637" lon="114.031416"><time>2026-06-18T11:11:08.220Z</time></trkpt>
      <trkpt lat="38.040637" lon="114.031416"><time>2026-06-18T11:11:08.237Z</time></trkpt>
      <trkpt lat="38.040637" lon="114.031416"><time>2026-06-18T11:11:08.253Z</time></trkpt>
      <trkpt lat="38.040642" lon="114.031424"><time>2026-06-18T11:11:08.270Z</time></trkpt>
      <trkpt lat="38.040642" lon="114.031424"><time>2026-06-18T11:11:08.287Z</time></trkpt>
      <trkpt lat="38.040642" lon="114.031424"><time>2026-06-18T11:11:08.303Z</time></trkpt>
      <trkpt lat="38.040642" lon="114.031424"><time>2026-06-18T11:11:08.320Z</time></trkpt>
      <trkpt lat="38.040642" lon="114.031424"><time>2026-06-18T11:11:08.337Z</time></trkpt>
      <trkpt lat="38.040642" lon="114.031424"><time>2026-06-18T11:11:08.353Z</time></trkpt>
      <trkpt lat="38.040646" lon="114.031431"><time>2026-06-18T11:11:08.370Z</time></trkpt>
      <trkpt lat="38.040646" lon="114.031431"><time>2026-06-18T11:11:08.387Z</time></trkpt>
      <trkpt lat="38.040646" lon="114.031431"><time>2026-06-18T11:11:08.403Z</time></trkpt>
      <trkpt lat="38.040646" lon="114.031431"><time>2026-06-18T11:11:08.420Z</time></trkpt>
      <trkpt lat="38.040646" lon="114.031431"><time>2026-06-18T11:11:08.437Z</time></trkpt>
      <trkpt lat="38.040646" lon="114.031431"><time>2026-06-18T11:11:08.453Z</time></trkpt>
      <trkpt lat="38.040651" lon="114.031438"><time>2026-06-18T11:11:08.470Z</time></trkpt>
      <trkpt lat="38.040651" lon="114.031438"><time>2026-06-18T11:11:08.487Z</time></trkpt>
      <trkpt lat="38.040651" lon="114.031438"><time>2026-06-18T11:11:08.504Z</time></trkpt>
      <trkpt lat="38.040651" lon="114.031438"><time>2026-06-18T11:11:08.520Z</time></trkpt>
      <trkpt lat="38.040651" lon="114.031438"><time>2026-06-18T11:11:08.537Z</time></trkpt>
      <trkpt lat="38.040651" lon="114.031438"><time>2026-06-18T11:11:08.554Z</time></trkpt>
      <trkpt lat="38.040656" lon="114.031446"><time>2026-06-18T11:11:08.570Z</time></trkpt>
      <trkpt lat="38.040656" lon="114.031446"><time>2026-06-18T11:11:08.587Z</time></trkpt>
      <trkpt lat="38.040656" lon="114.031446"><time>2026-06-18T11:11:08.604Z</time></trkpt>
      <trkpt lat="38.040656" lon="114.031446"><time>2026-06-18T11:11:08.620Z</time></trkpt>
      <trkpt lat="38.040656" lon="114.031446"><time>2026-06-18T11:11:08.637Z</time></trkpt>
      <trkpt lat="38.040656" lon="114.031446"><time>2026-06-18T11:11:08.654Z</time></trkpt>
      <trkpt lat="38.040661" lon="114.031454"><time>2026-06-18T11:11:08.670Z</time></trkpt>
      <trkpt lat="38.040661" lon="114.031454"><time>2026-06-18T11:11:08.687Z</time></trkpt>
      <trkpt lat="38.040661" lon="114.031454"><time>2026-06-18T11:11:08.704Z</time></trkpt>
      <trkpt lat="38.040661" lon="114.031454"><time>2026-06-18T11:11:08.720Z</time></trkpt>
      <trkpt lat="38.040661" lon="114.031454"><time>2026-06-18T11:11:08.737Z</time></trkpt>
      <trkpt lat="38.040661" lon="114.031454"><time>2026-06-18T11:11:08.754Z</time></trkpt>
      <trkpt lat="38.040666" lon="114.031461"><time>2026-06-18T11:11:08.770Z</time></trkpt>
      <trkpt lat="38.040666" lon="114.031461"><time>2026-06-18T11:11:08.787Z</time></trkpt>
      <trkpt lat="38.040666" lon="114.031461"><time>2026-06-18T11:11:08.804Z</time></trkpt>
      <trkpt lat="38.040666" lon="114.031461"><time>2026-06-18T11:11:08.821Z</time></trkpt>
      <trkpt lat="38.040666" lon="114.031461"><time>2026-06-18T11:11:08.837Z</time></trkpt>
      <trkpt lat="38.040666" lon="114.031461"><time>2026-06-18T11:11:08.854Z</time></trkpt>
      <trkpt lat="38.040671" lon="114.031469"><time>2026-06-18T11:11:08.871Z</time></trkpt>
      <trkpt lat="38.040671" lon="114.031469"><time>2026-06-18T11:11:08.887Z</time></trkpt>
      <trkpt lat="38.040671" lon="114.031469"><time>2026-06-18T11:11:08.904Z</time></trkpt>
      <trkpt lat="38.040671" lon="114.031469"><time>2026-06-18T11:11:08.921Z</time></trkpt>
      <trkpt lat="38.040671" lon="114.031469"><time>2026-06-18T11:11:08.937Z</time></trkpt>
      <trkpt lat="38.040671" lon="114.031469"><time>2026-06-18T11:11:08.954Z</time></trkpt>
      <trkpt lat="38.040676" lon="114.031477"><time>2026-06-18T11:11:08.971Z</time></trkpt>
      <trkpt lat="38.040676" lon="114.031477"><time>2026-06-18T11:11:08.987Z</time></trkpt>
      <trkpt lat="38.040676" lon="114.031477"><time>2026-06-18T11:11:09.004Z</time></trkpt>
      <trkpt lat="38.040676" lon="114.031477"><time>2026-06-18T11:11:09.021Z</time></trkpt>
      <trkpt lat="38.040676" lon="114.031477"><time>2026-06-18T11:11:09.037Z</time></trkpt>
      <trkpt lat="38.040676" lon="114.031477"><time>2026-06-18T11:11:09.054Z</time></trkpt>
      <trkpt lat="38.040681" lon="114.031485"><time>2026-06-18T11:11:09.071Z</time></trkpt>
      <trkpt lat="38.040681" lon="114.031485"><time>2026-06-18T11:11:09.087Z</time></trkpt>
      <trkpt lat="38.040681" lon="114.031485"><time>2026-06-18T11:11:09.104Z</time></trkpt>
      <trkpt lat="38.040681" lon="114.031485"><time>2026-06-18T11:11:09.121Z</time></trkpt>
      <trkpt lat="38.040681" lon="114.031485"><time>2026-06-18T11:11:09.138Z</time></trkpt>
      <trkpt lat="38.040681" lon="114.031485"><time>2026-06-18T11:11:09.154Z</time></trkpt>
      <trkpt lat="38.040686" lon="114.031492"><time>2026-06-18T11:11:09.171Z</time></trkpt>
      <trkpt lat="38.040686" lon="114.031492"><time>2026-06-18T11:11:09.188Z</time></trkpt>
      <trkpt lat="38.040686" lon="114.031492"><time>2026-06-18T11:11:09.204Z</time></trkpt>
      <trkpt lat="38.040686" lon="114.031492"><time>2026-06-18T11:11:09.221Z</time></trkpt>
      <trkpt lat="38.040686" lon="114.031492"><time>2026-06-18T11:11:09.238Z</time></trkpt>
      <trkpt lat="38.040686" lon="114.031492"><time>2026-06-18T11:11:09.254Z</time></trkpt>
      <trkpt lat="38.040691" lon="114.0315"><time>2026-06-18T11:11:09.271Z</time></trkpt>
      <trkpt lat="38.040691" lon="114.0315"><time>2026-06-18T11:11:09.288Z</time></trkpt>
      <trkpt lat="38.040691" lon="114.0315"><time>2026-06-18T11:11:09.304Z</time></trkpt>
      <trkpt lat="38.040691" lon="114.0315"><time>2026-06-18T11:11:09.321Z</time></trkpt>
      <trkpt lat="38.040691" lon="114.0315"><time>2026-06-18T11:11:09.338Z</time></trkpt>
      <trkpt lat="38.040691" lon="114.0315"><time>2026-06-18T11:11:09.354Z</time></trkpt>
      <trkpt lat="38.040696" lon="114.031508"><time>2026-06-18T11:11:09.371Z</time></trkpt>
      <trkpt lat="38.040696" lon="114.031508"><time>2026-06-18T11:11:09.388Z</time></trkpt>
      <trkpt lat="38.040696" lon="114.031508"><time>2026-06-18T11:11:09.404Z</time></trkpt>
      <trkpt lat="38.040696" lon="114.031508"><time>2026-06-18T11:11:09.421Z</time></trkpt>
      <trkpt lat="38.040696" lon="114.031508"><time>2026-06-18T11:11:09.438Z</time></trkpt>
      <trkpt lat="38.040696" lon="114.031508"><time>2026-06-18T11:11:09.455Z</time></trkpt>
      <trkpt lat="38.040701" lon="114.031517"><time>2026-06-18T11:11:09.471Z</time></trkpt>
      <trkpt lat="38.040701" lon="114.031517"><time>2026-06-18T11:11:09.488Z</time></trkpt>
      <trkpt lat="38.040701" lon="114.031517"><time>2026-06-18T11:11:09.505Z</time></trkpt>
      <trkpt lat="38.040701" lon="114.031517"><time>2026-06-18T11:11:09.521Z</time></trkpt>
      <trkpt lat="38.040701" lon="114.031517"><time>2026-06-18T11:11:09.538Z</time></trkpt>
      <trkpt lat="38.040701" lon="114.031517"><time>2026-06-18T11:11:09.555Z</time></trkpt>
      <trkpt lat="38.040706" lon="114.031525"><time>2026-06-18T11:11:09.571Z</time></trkpt>
      <trkpt lat="38.040706" lon="114.031525"><time>2026-06-18T11:11:09.588Z</time></trkpt>
      <trkpt lat="38.040706" lon="114.031525"><time>2026-06-18T11:11:09.605Z</time></trkpt>
      <trkpt lat="38.040706" lon="114.031525"><time>2026-06-18T11:11:09.621Z</time></trkpt>
      <trkpt lat="38.040706" lon="114.031525"><time>2026-06-18T11:11:09.638Z</time></trkpt>
      <trkpt lat="38.040706" lon="114.031525"><time>2026-06-18T11:11:09.655Z</time></trkpt>
      <trkpt lat="38.040711" lon="114.031533"><time>2026-06-18T11:11:09.671Z</time></trkpt>
      <trkpt lat="38.040711" lon="114.031533"><time>2026-06-18T11:11:09.688Z</time></trkpt>
      <trkpt lat="38.040711" lon="114.031533"><time>2026-06-18T11:11:09.705Z</time></trkpt>
      <trkpt lat="38.040711" lon="114.031533"><time>2026-06-18T11:11:09.721Z</time></trkpt>
      <trkpt lat="38.040711" lon="114.031533"><time>2026-06-18T11:11:09.738Z</time></trkpt>
      <trkpt lat="38.040711" lon="114.031533"><time>2026-06-18T11:11:09.755Z</time></trkpt>
      <trkpt lat="38.040716" lon="114.03154"><time>2026-06-18T11:11:09.772Z</time></trkpt>
      <trkpt lat="38.040716" lon="114.03154"><time>2026-06-18T11:11:09.788Z</time></trkpt>
      <trkpt lat="38.040716" lon="114.03154"><time>2026-06-18T11:11:09.805Z</time></trkpt>
      <trkpt lat="38.040716" lon="114.03154"><time>2026-06-18T11:11:09.822Z</time></trkpt>
      <trkpt lat="38.040716" lon="114.03154"><time>2026-06-18T11:11:09.838Z</time></trkpt>
      <trkpt lat="38.040716" lon="114.03154"><time>2026-06-18T11:11:09.855Z</time></trkpt>
      <trkpt lat="38.040721" lon="114.031548"><time>2026-06-18T11:11:09.872Z</time></trkpt>
      <trkpt lat="38.040721" lon="114.031548"><time>2026-06-18T11:11:09.888Z</time></trkpt>
      <trkpt lat="38.040721" lon="114.031548"><time>2026-06-18T11:11:09.905Z</time></trkpt>
      <trkpt lat="38.040721" lon="114.031548"><time>2026-06-18T11:11:09.922Z</time></trkpt>
      <trkpt lat="38.040721" lon="114.031548"><time>2026-06-18T11:11:09.938Z</time></trkpt>
      <trkpt lat="38.040721" lon="114.031548"><time>2026-06-18T11:11:09.955Z</time></trkpt>
      <trkpt lat="38.040726" lon="114.031557"><time>2026-06-18T11:11:09.972Z</time></trkpt>
      <trkpt lat="38.040726" lon="114.031557"><time>2026-06-18T11:11:09.988Z</time></trkpt>
      <trkpt lat="38.040726" lon="114.031557"><time>2026-06-18T11:11:10.005Z</time></trkpt>
      <trkpt lat="38.040726" lon="114.031557"><time>2026-06-18T11:11:10.022Z</time></trkpt>
      <trkpt lat="38.040726" lon="114.031557"><time>2026-06-18T11:11:10.038Z</time></trkpt>
      <trkpt lat="38.040726" lon="114.031557"><time>2026-06-18T11:11:10.055Z</time></trkpt>
      <trkpt lat="38.040731" lon="114.031565"><time>2026-06-18T11:11:10.072Z</time></trkpt>
      <trkpt lat="38.040731" lon="114.031565"><time>2026-06-18T11:11:10.089Z</time></trkpt>
      <trkpt lat="38.040731" lon="114.031565"><time>2026-06-18T11:11:10.105Z</time></trkpt>
      <trkpt lat="38.040731" lon="114.031565"><time>2026-06-18T11:11:10.122Z</time></trkpt>
      <trkpt lat="38.040731" lon="114.031565"><time>2026-06-18T11:11:10.139Z</time></trkpt>
      <trkpt lat="38.040731" lon="114.031565"><time>2026-06-18T11:11:10.155Z</time></trkpt>
      <trkpt lat="38.040736" lon="114.031573"><time>2026-06-18T11:11:10.172Z</time></trkpt>
      <trkpt lat="38.040736" lon="114.031573"><time>2026-06-18T11:11:10.189Z</time></trkpt>
      <trkpt lat="38.040736" lon="114.031573"><time>2026-06-18T11:11:10.205Z</time></trkpt>
      <trkpt lat="38.040736" lon="114.031573"><time>2026-06-18T11:11:10.222Z</time></trkpt>
      <trkpt lat="38.040736" lon="114.031573"><time>2026-06-18T11:11:10.239Z</time></trkpt>
      <trkpt lat="38.040736" lon="114.031573"><time>2026-06-18T11:11:10.255Z</time></trkpt>
      <trkpt lat="38.040742" lon="114.031582"><time>2026-06-18T11:11:10.272Z</time></trkpt>
      <trkpt lat="38.040742" lon="114.031582"><time>2026-06-18T11:11:10.289Z</time></trkpt>
      <trkpt lat="38.040742" lon="114.031582"><time>2026-06-18T11:11:10.305Z</time></trkpt>
      <trkpt lat="38.040742" lon="114.031582"><time>2026-06-18T11:11:10.322Z</time></trkpt>
      <trkpt lat="38.040742" lon="114.031582"><time>2026-06-18T11:11:10.339Z</time></trkpt>
      <trkpt lat="38.040742" lon="114.031582"><time>2026-06-18T11:11:10.355Z</time></trkpt>
      <trkpt lat="38.040747" lon="114.03159"><time>2026-06-18T11:11:10.372Z</time></trkpt>
      <trkpt lat="38.040747" lon="114.03159"><time>2026-06-18T11:11:10.389Z</time></trkpt>
      <trkpt lat="38.040747" lon="114.03159"><time>2026-06-18T11:11:10.406Z</time></trkpt>
      <trkpt lat="38.040747" lon="114.03159"><time>2026-06-18T11:11:10.422Z</time></trkpt>
      <trkpt lat="38.040747" lon="114.03159"><time>2026-06-18T11:11:10.439Z</time></trkpt>
      <trkpt lat="38.040747" lon="114.03159"><time>2026-06-18T11:11:10.456Z</time></trkpt>
      <trkpt lat="38.040752" lon="114.031598"><time>2026-06-18T11:11:10.472Z</time></trkpt>
      <trkpt lat="38.040752" lon="114.031598"><time>2026-06-18T11:11:10.489Z</time></trkpt>
      <trkpt lat="38.040752" lon="114.031598"><time>2026-06-18T11:11:10.506Z</time></trkpt>
      <trkpt lat="38.040752" lon="114.031598"><time>2026-06-18T11:11:10.522Z</time></trkpt>
      <trkpt lat="38.040752" lon="114.031598"><time>2026-06-18T11:11:10.539Z</time></trkpt>
      <trkpt lat="38.040752" lon="114.031598"><time>2026-06-18T11:11:10.556Z</time></trkpt>
      <trkpt lat="38.040757" lon="114.031606"><time>2026-06-18T11:11:10.572Z</time></trkpt>
      <trkpt lat="38.040757" lon="114.031606"><time>2026-06-18T11:11:10.589Z</time></trkpt>
      <trkpt lat="38.040757" lon="114.031606"><time>2026-06-18T11:11:10.606Z</time></trkpt>
      <trkpt lat="38.040757" lon="114.031606"><time>2026-06-18T11:11:10.622Z</time></trkpt>
      <trkpt lat="38.040757" lon="114.031606"><time>2026-06-18T11:11:10.639Z</time></trkpt>
      <trkpt lat="38.040757" lon="114.031606"><time>2026-06-18T11:11:10.656Z</time></trkpt>
      <trkpt lat="38.040762" lon="114.031614"><time>2026-06-18T11:11:10.672Z</time></trkpt>
      <trkpt lat="38.040762" lon="114.031614"><time>2026-06-18T11:11:10.689Z</time></trkpt>
      <trkpt lat="38.040762" lon="114.031614"><time>2026-06-18T11:11:10.706Z</time></trkpt>
      <trkpt lat="38.040762" lon="114.031614"><time>2026-06-18T11:11:10.723Z</time></trkpt>
      <trkpt lat="38.040762" lon="114.031614"><time>2026-06-18T11:11:10.739Z</time></trkpt>
      <trkpt lat="38.040762" lon="114.031614"><time>2026-06-18T11:11:10.756Z</time></trkpt>
      <trkpt lat="38.040768" lon="114.031623"><time>2026-06-18T11:11:10.773Z</time></trkpt>
      <trkpt lat="38.040768" lon="114.031623"><time>2026-06-18T11:11:10.789Z</time></trkpt>
      <trkpt lat="38.040768" lon="114.031623"><time>2026-06-18T11:11:10.806Z</time></trkpt>
      <trkpt lat="38.040768" lon="114.031623"><time>2026-06-18T11:11:10.823Z</time></trkpt>
      <trkpt lat="38.040768" lon="114.031623"><time>2026-06-18T11:11:10.839Z</time></trkpt>
      <trkpt lat="38.040768" lon="114.031623"><time>2026-06-18T11:11:10.856Z</time></trkpt>
      <trkpt lat="38.040773" lon="114.031631"><time>2026-06-18T11:11:10.873Z</time></trkpt>
      <trkpt lat="38.040773" lon="114.031631"><time>2026-06-18T11:11:10.889Z</time></trkpt>
      <trkpt lat="38.040773" lon="114.031631"><time>2026-06-18T11:11:10.906Z</time></trkpt>
      <trkpt lat="38.040773" lon="114.031631"><time>2026-06-18T11:11:10.923Z</time></trkpt>
      <trkpt lat="38.040773" lon="114.031631"><time>2026-06-18T11:11:10.939Z</time></trkpt>
      <trkpt lat="38.040773" lon="114.031631"><time>2026-06-18T11:11:10.956Z</time></trkpt>
      <trkpt lat="38.040778" lon="114.031639"><time>2026-06-18T11:11:10.973Z</time></trkpt>
      <trkpt lat="38.040778" lon="114.031639"><time>2026-06-18T11:11:10.989Z</time></trkpt>
      <trkpt lat="38.040778" lon="114.031639"><time>2026-06-18T11:11:11.006Z</time></trkpt>
      <trkpt lat="38.040778" lon="114.031639"><time>2026-06-18T11:11:11.023Z</time></trkpt>
      <trkpt lat="38.040778" lon="114.031639"><time>2026-06-18T11:11:11.040Z</time></trkpt>
      <trkpt lat="38.040778" lon="114.031639"><time>2026-06-18T11:11:11.056Z</time></trkpt>
      <trkpt lat="38.040784" lon="114.031648"><time>2026-06-18T11:11:11.073Z</time></trkpt>
      <trkpt lat="38.040784" lon="114.031648"><time>2026-06-18T11:11:11.090Z</time></trkpt>
      <trkpt lat="38.040784" lon="114.031648"><time>2026-06-18T11:11:11.106Z</time></trkpt>
      <trkpt lat="38.040784" lon="114.031648"><time>2026-06-18T11:11:11.123Z</time></trkpt>
      <trkpt lat="38.040784" lon="114.031648"><time>2026-06-18T11:11:11.140Z</time></trkpt>
      <trkpt lat="38.040784" lon="114.031648"><time>2026-06-18T11:11:11.156Z</time></trkpt>
      <trkpt lat="38.04079" lon="114.031657"><time>2026-06-18T11:11:11.173Z</time></trkpt>
      <trkpt lat="38.04079" lon="114.031657"><time>2026-06-18T11:11:11.190Z</time></trkpt>
      <trkpt lat="38.04079" lon="114.031657"><time>2026-06-18T11:11:11.206Z</time></trkpt>
      <trkpt lat="38.04079" lon="114.031657"><time>2026-06-18T11:11:11.223Z</time></trkpt>
      <trkpt lat="38.04079" lon="114.031657"><time>2026-06-18T11:11:11.240Z</time></trkpt>
      <trkpt lat="38.04079" lon="114.031657"><time>2026-06-18T11:11:11.256Z</time></trkpt>
      <trkpt lat="38.040795" lon="114.031665"><time>2026-06-18T11:11:11.273Z</time></trkpt>
      <trkpt lat="38.040795" lon="114.031665"><time>2026-06-18T11:11:11.290Z</time></trkpt>
      <trkpt lat="38.040795" lon="114.031665"><time>2026-06-18T11:11:11.306Z</time></trkpt>
      <trkpt lat="38.040795" lon="114.031665"><time>2026-06-18T11:11:11.323Z</time></trkpt>
      <trkpt lat="38.040795" lon="114.031665"><time>2026-06-18T11:11:11.340Z</time></trkpt>
      <trkpt lat="38.040795" lon="114.031665"><time>2026-06-18T11:11:11.357Z</time></trkpt>
      <trkpt lat="38.0408" lon="114.031673"><time>2026-06-18T11:11:11.373Z</time></trkpt>
      <trkpt lat="38.0408" lon="114.031673"><time>2026-06-18T11:11:11.390Z</time></trkpt>
      <trkpt lat="38.0408" lon="114.031673"><time>2026-06-18T11:11:11.407Z</time></trkpt>
      <trkpt lat="38.0408" lon="114.031673"><time>2026-06-18T11:11:11.423Z</time></trkpt>
      <trkpt lat="38.0408" lon="114.031673"><time>2026-06-18T11:11:11.440Z</time></trkpt>
      <trkpt lat="38.0408" lon="114.031673"><time>2026-06-18T11:11:11.457Z</time></trkpt>
      <trkpt lat="38.040806" lon="114.031681"><time>2026-06-18T11:11:11.473Z</time></trkpt>
      <trkpt lat="38.040806" lon="114.031681"><time>2026-06-18T11:11:11.490Z</time></trkpt>
      <trkpt lat="38.040806" lon="114.031681"><time>2026-06-18T11:11:11.507Z</time></trkpt>
      <trkpt lat="38.040806" lon="114.031681"><time>2026-06-18T11:11:11.523Z</time></trkpt>
      <trkpt lat="38.040806" lon="114.031681"><time>2026-06-18T11:11:11.540Z</time></trkpt>
      <trkpt lat="38.040806" lon="114.031681"><time>2026-06-18T11:11:11.557Z</time></trkpt>
      <trkpt lat="38.040811" lon="114.03169"><time>2026-06-18T11:11:11.573Z</time></trkpt>
      <trkpt lat="38.040811" lon="114.03169"><time>2026-06-18T11:11:11.590Z</time></trkpt>
      <trkpt lat="38.040811" lon="114.03169"><time>2026-06-18T11:11:11.607Z</time></trkpt>
      <trkpt lat="38.040811" lon="114.03169"><time>2026-06-18T11:11:11.623Z</time></trkpt>
      <trkpt lat="38.040811" lon="114.03169"><time>2026-06-18T11:11:11.640Z</time></trkpt>
      <trkpt lat="38.040811" lon="114.03169"><time>2026-06-18T11:11:11.657Z</time></trkpt>
      <trkpt lat="38.040817" lon="114.031698"><time>2026-06-18T11:11:11.674Z</time></trkpt>
      <trkpt lat="38.040817" lon="114.031698"><time>2026-06-18T11:11:11.690Z</time></trkpt>
      <trkpt lat="38.040817" lon="114.031698"><time>2026-06-18T11:11:11.707Z</time></trkpt>
      <trkpt lat="38.040817" lon="114.031698"><time>2026-06-18T11:11:11.724Z</time></trkpt>
      <trkpt lat="38.040817" lon="114.031698"><time>2026-06-18T11:11:11.740Z</time></trkpt>
      <trkpt lat="38.040817" lon="114.031698"><time>2026-06-18T11:11:11.757Z</time></trkpt>
      <trkpt lat="38.040822" lon="114.031707"><time>2026-06-18T11:11:11.774Z</time></trkpt>
      <trkpt lat="38.040822" lon="114.031707"><time>2026-06-18T11:11:11.790Z</time></trkpt>
      <trkpt lat="38.040822" lon="114.031707"><time>2026-06-18T11:11:11.807Z</time></trkpt>
      <trkpt lat="38.040822" lon="114.031707"><time>2026-06-18T11:11:11.824Z</time></trkpt>
      <trkpt lat="38.040822" lon="114.031707"><time>2026-06-18T11:11:11.840Z</time></trkpt>
      <trkpt lat="38.040822" lon="114.031707"><time>2026-06-18T11:11:11.857Z</time></trkpt>
      <trkpt lat="38.040828" lon="114.031716"><time>2026-06-18T11:11:11.874Z</time></trkpt>
      <trkpt lat="38.040828" lon="114.031716"><time>2026-06-18T11:11:11.890Z</time></trkpt>
      <trkpt lat="38.040828" lon="114.031716"><time>2026-06-18T11:11:11.907Z</time></trkpt>
      <trkpt lat="38.040828" lon="114.031716"><time>2026-06-18T11:11:11.924Z</time></trkpt>
      <trkpt lat="38.040828" lon="114.031716"><time>2026-06-18T11:11:11.940Z</time></trkpt>
      <trkpt lat="38.040828" lon="114.031716"><time>2026-06-18T11:11:11.957Z</time></trkpt>
      <trkpt lat="38.040833" lon="114.031724"><time>2026-06-18T11:11:11.974Z</time></trkpt>
      <trkpt lat="38.040833" lon="114.031724"><time>2026-06-18T11:11:11.990Z</time></trkpt>
      <trkpt lat="38.040833" lon="114.031724"><time>2026-06-18T11:11:12.007Z</time></trkpt>
      <trkpt lat="38.040833" lon="114.031724"><time>2026-06-18T11:11:12.024Z</time></trkpt>
      <trkpt lat="38.040833" lon="114.031724"><time>2026-06-18T11:11:12.041Z</time></trkpt>
      <trkpt lat="38.040833" lon="114.031724"><time>2026-06-18T11:11:12.057Z</time></trkpt>
      <trkpt lat="38.040839" lon="114.031733"><time>2026-06-18T11:11:12.074Z</time></trkpt>
      <trkpt lat="38.040839" lon="114.031733"><time>2026-06-18T11:11:12.091Z</time></trkpt>
      <trkpt lat="38.040839" lon="114.031733"><time>2026-06-18T11:11:12.107Z</time></trkpt>
      <trkpt lat="38.040839" lon="114.031733"><time>2026-06-18T11:11:12.124Z</time></trkpt>
      <trkpt lat="38.040839" lon="114.031733"><time>2026-06-18T11:11:12.141Z</time></trkpt>
      <trkpt lat="38.040839" lon="114.031733"><time>2026-06-18T11:11:12.157Z</time></trkpt>
      <trkpt lat="38.040844" lon="114.031741"><time>2026-06-18T11:11:12.174Z</time></trkpt>
      <trkpt lat="38.040844" lon="114.031741"><time>2026-06-18T11:11:12.191Z</time></trkpt>
      <trkpt lat="38.040844" lon="114.031741"><time>2026-06-18T11:11:12.207Z</time></trkpt>
      <trkpt lat="38.040844" lon="114.031741"><time>2026-06-18T11:11:12.224Z</time></trkpt>
      <trkpt lat="38.040844" lon="114.031741"><time>2026-06-18T11:11:12.241Z</time></trkpt>
      <trkpt lat="38.040844" lon="114.031741"><time>2026-06-18T11:11:12.257Z</time></trkpt>
      <trkpt lat="38.04085" lon="114.031749"><time>2026-06-18T11:11:12.274Z</time></trkpt>
      <trkpt lat="38.04085" lon="114.031749"><time>2026-06-18T11:11:12.291Z</time></trkpt>
      <trkpt lat="38.04085" lon="114.031749"><time>2026-06-18T11:11:12.307Z</time></trkpt>
      <trkpt lat="38.04085" lon="114.031749"><time>2026-06-18T11:11:12.324Z</time></trkpt>
      <trkpt lat="38.04085" lon="114.031749"><time>2026-06-18T11:11:12.341Z</time></trkpt>
      <trkpt lat="38.04085" lon="114.031749"><time>2026-06-18T11:11:12.358Z</time></trkpt>
      <trkpt lat="38.040856" lon="114.031758"><time>2026-06-18T11:11:12.374Z</time></trkpt>
      <trkpt lat="38.040856" lon="114.031758"><time>2026-06-18T11:11:12.391Z</time></trkpt>
      <trkpt lat="38.040856" lon="114.031758"><time>2026-06-18T11:11:12.408Z</time></trkpt>
      <trkpt lat="38.040856" lon="114.031758"><time>2026-06-18T11:11:12.424Z</time></trkpt>
      <trkpt lat="38.040856" lon="114.031758"><time>2026-06-18T11:11:12.441Z</time></trkpt>
      <trkpt lat="38.040856" lon="114.031758"><time>2026-06-18T11:11:12.458Z</time></trkpt>
      <trkpt lat="38.040861" lon="114.031767"><time>2026-06-18T11:11:12.474Z</time></trkpt>
      <trkpt lat="38.040861" lon="114.031767"><time>2026-06-18T11:11:12.491Z</time></trkpt>
      <trkpt lat="38.040861" lon="114.031767"><time>2026-06-18T11:11:12.508Z</time></trkpt>
      <trkpt lat="38.040861" lon="114.031767"><time>2026-06-18T11:11:12.524Z</time></trkpt>
      <trkpt lat="38.040861" lon="114.031767"><time>2026-06-18T11:11:12.541Z</time></trkpt>
      <trkpt lat="38.040861" lon="114.031767"><time>2026-06-18T11:11:12.558Z</time></trkpt>
      <trkpt lat="38.040867" lon="114.031775"><time>2026-06-18T11:11:12.574Z</time></trkpt>
      <trkpt lat="38.040867" lon="114.031775"><time>2026-06-18T11:11:12.591Z</time></trkpt>
      <trkpt lat="38.040867" lon="114.031775"><time>2026-06-18T11:11:12.608Z</time></trkpt>
      <trkpt lat="38.040867" lon="114.031775"><time>2026-06-18T11:11:12.624Z</time></trkpt>
      <trkpt lat="38.040867" lon="114.031775"><time>2026-06-18T11:11:12.641Z</time></trkpt>
      <trkpt lat="38.040867" lon="114.031775"><time>2026-06-18T11:11:12.658Z</time></trkpt>
      <trkpt lat="38.040872" lon="114.031784"><time>2026-06-18T11:11:12.675Z</time></trkpt>
      <trkpt lat="38.040872" lon="114.031784"><time>2026-06-18T11:11:12.691Z</time></trkpt>
      <trkpt lat="38.040872" lon="114.031784"><time>2026-06-18T11:11:12.708Z</time></trkpt>
      <trkpt lat="38.040872" lon="114.031784"><time>2026-06-18T11:11:12.725Z</time></trkpt>
      <trkpt lat="38.040872" lon="114.031784"><time>2026-06-18T11:11:12.741Z</time></trkpt>
      <trkpt lat="38.040872" lon="114.031784"><time>2026-06-18T11:11:12.758Z</time></trkpt>
      <trkpt lat="38.040878" lon="114.031792"><time>2026-06-18T11:11:12.775Z</time></trkpt>
      <trkpt lat="38.040878" lon="114.031792"><time>2026-06-18T11:11:12.791Z</time></trkpt>
      <trkpt lat="38.040878" lon="114.031792"><time>2026-06-18T11:11:12.808Z</time></trkpt>
      <trkpt lat="38.040878" lon="114.031792"><time>2026-06-18T11:11:12.825Z</time></trkpt>
      <trkpt lat="38.040878" lon="114.031792"><time>2026-06-18T11:11:12.841Z</time></trkpt>
      <trkpt lat="38.040878" lon="114.031792"><time>2026-06-18T11:11:12.858Z</time></trkpt>
      <trkpt lat="38.040884" lon="114.031801"><time>2026-06-18T11:11:12.875Z</time></trkpt>
      <trkpt lat="38.040884" lon="114.031801"><time>2026-06-18T11:11:12.891Z</time></trkpt>
      <trkpt lat="38.040884" lon="114.031801"><time>2026-06-18T11:11:12.908Z</time></trkpt>
      <trkpt lat="38.040884" lon="114.031801"><time>2026-06-18T11:11:12.925Z</time></trkpt>
      <trkpt lat="38.040884" lon="114.031801"><time>2026-06-18T11:11:12.941Z</time></trkpt>
      <trkpt lat="38.040884" lon="114.031801"><time>2026-06-18T11:11:12.958Z</time></trkpt>
      <trkpt lat="38.040889" lon="114.03181"><time>2026-06-18T11:11:12.975Z</time></trkpt>
      <trkpt lat="38.040889" lon="114.03181"><time>2026-06-18T11:11:12.992Z</time></trkpt>
      <trkpt lat="38.040889" lon="114.03181"><time>2026-06-18T11:11:13.008Z</time></trkpt>
      <trkpt lat="38.040889" lon="114.03181"><time>2026-06-18T11:11:13.025Z</time></trkpt>
      <trkpt lat="38.040889" lon="114.03181"><time>2026-06-18T11:11:13.042Z</time></trkpt>
      <trkpt lat="38.040889" lon="114.03181"><time>2026-06-18T11:11:13.058Z</time></trkpt>
      <trkpt lat="38.040895" lon="114.031818"><time>2026-06-18T11:11:13.075Z</time></trkpt>
      <trkpt lat="38.040895" lon="114.031818"><time>2026-06-18T11:11:13.092Z</time></trkpt>
      <trkpt lat="38.040895" lon="114.031818"><time>2026-06-18T11:11:13.108Z</time></trkpt>
      <trkpt lat="38.040895" lon="114.031818"><time>2026-06-18T11:11:13.125Z</time></trkpt>
      <trkpt lat="38.040895" lon="114.031818"><time>2026-06-18T11:11:13.142Z</time></trkpt>
      <trkpt lat="38.040895" lon="114.031818"><time>2026-06-18T11:11:13.158Z</time></trkpt>
      <trkpt lat="38.0409" lon="114.031827"><time>2026-06-18T11:11:13.175Z</time></trkpt>
      <trkpt lat="38.0409" lon="114.031827"><time>2026-06-18T11:11:13.192Z</time></trkpt>
      <trkpt lat="38.0409" lon="114.031827"><time>2026-06-18T11:11:13.208Z</time></trkpt>
      <trkpt lat="38.0409" lon="114.031827"><time>2026-06-18T11:11:13.225Z</time></trkpt>
      <trkpt lat="38.0409" lon="114.031827"><time>2026-06-18T11:11:13.242Z</time></trkpt>
      <trkpt lat="38.0409" lon="114.031827"><time>2026-06-18T11:11:13.258Z</time></trkpt>
      <trkpt lat="38.040906" lon="114.031836"><time>2026-06-18T11:11:13.275Z</time></trkpt>
      <trkpt lat="38.040906" lon="114.031836"><time>2026-06-18T11:11:13.292Z</time></trkpt>
      <trkpt lat="38.040906" lon="114.031836"><time>2026-06-18T11:11:13.309Z</time></trkpt>
      <trkpt lat="38.040906" lon="114.031836"><time>2026-06-18T11:11:13.325Z</time></trkpt>
      <trkpt lat="38.040906" lon="114.031836"><time>2026-06-18T11:11:13.342Z</time></trkpt>
      <trkpt lat="38.040906" lon="114.031836"><time>2026-06-18T11:11:13.359Z</time></trkpt>
      <trkpt lat="38.040911" lon="114.031844"><time>2026-06-18T11:11:13.375Z</time></trkpt>
      <trkpt lat="38.040911" lon="114.031844"><time>2026-06-18T11:11:13.392Z</time></trkpt>
      <trkpt lat="38.040911" lon="114.031844"><time>2026-06-18T11:11:13.409Z</time></trkpt>
      <trkpt lat="38.040911" lon="114.031844"><time>2026-06-18T11:11:13.425Z</time></trkpt>
      <trkpt lat="38.040911" lon="114.031844"><time>2026-06-18T11:11:13.442Z</time></trkpt>
      <trkpt lat="38.040911" lon="114.031844"><time>2026-06-18T11:11:13.459Z</time></trkpt>
      <trkpt lat="38.040916" lon="114.031853"><time>2026-06-18T11:11:13.475Z</time></trkpt>
      <trkpt lat="38.040916" lon="114.031853"><time>2026-06-18T11:11:13.492Z</time></trkpt>
      <trkpt lat="38.040916" lon="114.031853"><time>2026-06-18T11:11:13.509Z</time></trkpt>
      <trkpt lat="38.040916" lon="114.031853"><time>2026-06-18T11:11:13.525Z</time></trkpt>
      <trkpt lat="38.040916" lon="114.031853"><time>2026-06-18T11:11:13.542Z</time></trkpt>
      <trkpt lat="38.040916" lon="114.031853"><time>2026-06-18T11:11:13.559Z</time></trkpt>
      <trkpt lat="38.040921" lon="114.031862"><time>2026-06-18T11:11:13.575Z</time></trkpt>
      <trkpt lat="38.040921" lon="114.031862"><time>2026-06-18T11:11:13.592Z</time></trkpt>
      <trkpt lat="38.040921" lon="114.031862"><time>2026-06-18T11:11:13.609Z</time></trkpt>
      <trkpt lat="38.040921" lon="114.031862"><time>2026-06-18T11:11:13.626Z</time></trkpt>
      <trkpt lat="38.040921" lon="114.031862"><time>2026-06-18T11:11:13.642Z</time></trkpt>
      <trkpt lat="38.040921" lon="114.031862"><time>2026-06-18T11:11:13.659Z</time></trkpt>
      <trkpt lat="38.040926" lon="114.031871"><time>2026-06-18T11:11:13.676Z</time></trkpt>
      <trkpt lat="38.040926" lon="114.031871"><time>2026-06-18T11:11:13.692Z</time></trkpt>
      <trkpt lat="38.040926" lon="114.031871"><time>2026-06-18T11:11:13.709Z</time></trkpt>
      <trkpt lat="38.040926" lon="114.031871"><time>2026-06-18T11:11:13.726Z</time></trkpt>
      <trkpt lat="38.040926" lon="114.031871"><time>2026-06-18T11:11:13.742Z</time></trkpt>
      <trkpt lat="38.040926" lon="114.031871"><time>2026-06-18T11:11:13.759Z</time></trkpt>
      <trkpt lat="38.040932" lon="114.03188"><time>2026-06-18T11:11:13.776Z</time></trkpt>
      <trkpt lat="38.040932" lon="114.03188"><time>2026-06-18T11:11:13.792Z</time></trkpt>
      <trkpt lat="38.040932" lon="114.03188"><time>2026-06-18T11:11:13.809Z</time></trkpt>
      <trkpt lat="38.040932" lon="114.03188"><time>2026-06-18T11:11:13.826Z</time></trkpt>
      <trkpt lat="38.040932" lon="114.03188"><time>2026-06-18T11:11:13.842Z</time></trkpt>
      <trkpt lat="38.040932" lon="114.03188"><time>2026-06-18T11:11:13.859Z</time></trkpt>
      <trkpt lat="38.040938" lon="114.031889"><time>2026-06-18T11:11:13.876Z</time></trkpt>
      <trkpt lat="38.040938" lon="114.031889"><time>2026-06-18T11:11:13.892Z</time></trkpt>
      <trkpt lat="38.040938" lon="114.031889"><time>2026-06-18T11:11:13.909Z</time></trkpt>
      <trkpt lat="38.040938" lon="114.031889"><time>2026-06-18T11:11:13.926Z</time></trkpt>
      <trkpt lat="38.040938" lon="114.031889"><time>2026-06-18T11:11:13.943Z</time></trkpt>
      <trkpt lat="38.040938" lon="114.031889"><time>2026-06-18T11:11:13.959Z</time></trkpt>
      <trkpt lat="38.040943" lon="114.031897"><time>2026-06-18T11:11:13.976Z</time></trkpt>
      <trkpt lat="38.040943" lon="114.031897"><time>2026-06-18T11:11:13.993Z</time></trkpt>
      <trkpt lat="38.040943" lon="114.031897"><time>2026-06-18T11:11:14.009Z</time></trkpt>
      <trkpt lat="38.040943" lon="114.031897"><time>2026-06-18T11:11:14.026Z</time></trkpt>
      <trkpt lat="38.040943" lon="114.031897"><time>2026-06-18T11:11:14.043Z</time></trkpt>
      <trkpt lat="38.040943" lon="114.031897"><time>2026-06-18T11:11:14.059Z</time></trkpt>
      <trkpt lat="38.040948" lon="114.031906"><time>2026-06-18T11:11:14.076Z</time></trkpt>
      <trkpt lat="38.040948" lon="114.031906"><time>2026-06-18T11:11:14.093Z</time></trkpt>
      <trkpt lat="38.040948" lon="114.031906"><time>2026-06-18T11:11:14.109Z</time></trkpt>
      <trkpt lat="38.040948" lon="114.031906"><time>2026-06-18T11:11:14.126Z</time></trkpt>
      <trkpt lat="38.040948" lon="114.031906"><time>2026-06-18T11:11:14.143Z</time></trkpt>
      <trkpt lat="38.040948" lon="114.031906"><time>2026-06-18T11:11:14.159Z</time></trkpt>
      <trkpt lat="38.040954" lon="114.031915"><time>2026-06-18T11:11:14.176Z</time></trkpt>
      <trkpt lat="38.040954" lon="114.031915"><time>2026-06-18T11:11:14.193Z</time></trkpt>
      <trkpt lat="38.040954" lon="114.031915"><time>2026-06-18T11:11:14.209Z</time></trkpt>
      <trkpt lat="38.040954" lon="114.031915"><time>2026-06-18T11:11:14.226Z</time></trkpt>
      <trkpt lat="38.040954" lon="114.031915"><time>2026-06-18T11:11:14.243Z</time></trkpt>
      <trkpt lat="38.040954" lon="114.031915"><time>2026-06-18T11:11:14.260Z</time></trkpt>
      <trkpt lat="38.04096" lon="114.031924"><time>2026-06-18T11:11:14.276Z</time></trkpt>
      <trkpt lat="38.04096" lon="114.031924"><time>2026-06-18T11:11:14.293Z</time></trkpt>
      <trkpt lat="38.04096" lon="114.031924"><time>2026-06-18T11:11:14.310Z</time></trkpt>
      <trkpt lat="38.04096" lon="114.031924"><time>2026-06-18T11:11:14.326Z</time></trkpt>
      <trkpt lat="38.04096" lon="114.031924"><time>2026-06-18T11:11:14.343Z</time></trkpt>
      <trkpt lat="38.04096" lon="114.031924"><time>2026-06-18T11:11:14.360Z</time></trkpt>
      <trkpt lat="38.040965" lon="114.031933"><time>2026-06-18T11:11:14.376Z</time></trkpt>
      <trkpt lat="38.040965" lon="114.031933"><time>2026-06-18T11:11:14.393Z</time></trkpt>
      <trkpt lat="38.040965" lon="114.031933"><time>2026-06-18T11:11:14.410Z</time></trkpt>
      <trkpt lat="38.040965" lon="114.031933"><time>2026-06-18T11:11:14.426Z</time></trkpt>
      <trkpt lat="38.040965" lon="114.031933"><time>2026-06-18T11:11:14.443Z</time></trkpt>
      <trkpt lat="38.040965" lon="114.031933"><time>2026-06-18T11:11:14.460Z</time></trkpt>
      <trkpt lat="38.040971" lon="114.031942"><time>2026-06-18T11:11:14.476Z</time></trkpt>
      <trkpt lat="38.040971" lon="114.031942"><time>2026-06-18T11:11:14.493Z</time></trkpt>
      <trkpt lat="38.040971" lon="114.031942"><time>2026-06-18T11:11:14.510Z</time></trkpt>
      <trkpt lat="38.040971" lon="114.031942"><time>2026-06-18T11:11:14.526Z</time></trkpt>
      <trkpt lat="38.040971" lon="114.031942"><time>2026-06-18T11:11:14.543Z</time></trkpt>
      <trkpt lat="38.040971" lon="114.031942"><time>2026-06-18T11:11:14.560Z</time></trkpt>
      <trkpt lat="38.040976" lon="114.03195"><time>2026-06-18T11:11:14.577Z</time></trkpt>
      <trkpt lat="38.040976" lon="114.03195"><time>2026-06-18T11:11:14.593Z</time></trkpt>
      <trkpt lat="38.040976" lon="114.03195"><time>2026-06-18T11:11:14.610Z</time></trkpt>
      <trkpt lat="38.040976" lon="114.03195"><time>2026-06-18T11:11:14.627Z</time></trkpt>
      <trkpt lat="38.040976" lon="114.03195"><time>2026-06-18T11:11:14.643Z</time></trkpt>
      <trkpt lat="38.040976" lon="114.03195"><time>2026-06-18T11:11:14.660Z</time></trkpt>
      <trkpt lat="38.040982" lon="114.031959"><time>2026-06-18T11:11:14.677Z</time></trkpt>
      <trkpt lat="38.040982" lon="114.031959"><time>2026-06-18T11:11:14.693Z</time></trkpt>
      <trkpt lat="38.040982" lon="114.031959"><time>2026-06-18T11:11:14.710Z</time></trkpt>
      <trkpt lat="38.040982" lon="114.031959"><time>2026-06-18T11:11:14.727Z</time></trkpt>
      <trkpt lat="38.040982" lon="114.031959"><time>2026-06-18T11:11:14.743Z</time></trkpt>
      <trkpt lat="38.040982" lon="114.031959"><time>2026-06-18T11:11:14.760Z</time></trkpt>
      <trkpt lat="38.040987" lon="114.031968"><time>2026-06-18T11:11:14.777Z</time></trkpt>
      <trkpt lat="38.040987" lon="114.031968"><time>2026-06-18T11:11:14.793Z</time></trkpt>
      <trkpt lat="38.040987" lon="114.031968"><time>2026-06-18T11:11:14.810Z</time></trkpt>
      <trkpt lat="38.040987" lon="114.031968"><time>2026-06-18T11:11:14.827Z</time></trkpt>
      <trkpt lat="38.040987" lon="114.031968"><time>2026-06-18T11:11:14.843Z</time></trkpt>
      <trkpt lat="38.040987" lon="114.031968"><time>2026-06-18T11:11:14.860Z</time></trkpt>
      <trkpt lat="38.040993" lon="114.031977"><time>2026-06-18T11:11:14.877Z</time></trkpt>
      <trkpt lat="38.040993" lon="114.031977"><time>2026-06-18T11:11:14.894Z</time></trkpt>
      <trkpt lat="38.040993" lon="114.031977"><time>2026-06-18T11:11:14.910Z</time></trkpt>
      <trkpt lat="38.040993" lon="114.031977"><time>2026-06-18T11:11:14.927Z</time></trkpt>
      <trkpt lat="38.040993" lon="114.031977"><time>2026-06-18T11:11:14.944Z</time></trkpt>
      <trkpt lat="38.040993" lon="114.031977"><time>2026-06-18T11:11:14.960Z</time></trkpt>
      <trkpt lat="38.040998" lon="114.031985"><time>2026-06-18T11:11:14.977Z</time></trkpt>
      <trkpt lat="38.040998" lon="114.031985"><time>2026-06-18T11:11:14.994Z</time></trkpt>
      <trkpt lat="38.040998" lon="114.031985"><time>2026-06-18T11:11:15.010Z</time></trkpt>
      <trkpt lat="38.040998" lon="114.031985"><time>2026-06-18T11:11:15.027Z</time></trkpt>
      <trkpt lat="38.040998" lon="114.031985"><time>2026-06-18T11:11:15.044Z</time></trkpt>
      <trkpt lat="38.040998" lon="114.031985"><time>2026-06-18T11:11:15.060Z</time></trkpt>
      <trkpt lat="38.041004" lon="114.031994"><time>2026-06-18T11:11:15.077Z</time></trkpt>
      <trkpt lat="38.041004" lon="114.031994"><time>2026-06-18T11:11:15.094Z</time></trkpt>
      <trkpt lat="38.041004" lon="114.031994"><time>2026-06-18T11:11:15.110Z</time></trkpt>
      <trkpt lat="38.041004" lon="114.031994"><time>2026-06-18T11:11:15.127Z</time></trkpt>
      <trkpt lat="38.041004" lon="114.031994"><time>2026-06-18T11:11:15.144Z</time></trkpt>
      <trkpt lat="38.041004" lon="114.031994"><time>2026-06-18T11:11:15.160Z</time></trkpt>
      <trkpt lat="38.041009" lon="114.032003"><time>2026-06-18T11:11:15.177Z</time></trkpt>
      <trkpt lat="38.041009" lon="114.032003"><time>2026-06-18T11:11:15.194Z</time></trkpt>
      <trkpt lat="38.041009" lon="114.032003"><time>2026-06-18T11:11:15.211Z</time></trkpt>
      <trkpt lat="38.041009" lon="114.032003"><time>2026-06-18T11:11:15.227Z</time></trkpt>
      <trkpt lat="38.041009" lon="114.032003"><time>2026-06-18T11:11:15.244Z</time></trkpt>
      <trkpt lat="38.041009" lon="114.032003"><time>2026-06-18T11:11:15.261Z</time></trkpt>
      <trkpt lat="38.041015" lon="114.032012"><time>2026-06-18T11:11:15.277Z</time></trkpt>
      <trkpt lat="38.041015" lon="114.032012"><time>2026-06-18T11:11:15.294Z</time></trkpt>
      <trkpt lat="38.041015" lon="114.032012"><time>2026-06-18T11:11:15.311Z</time></trkpt>
      <trkpt lat="38.041015" lon="114.032012"><time>2026-06-18T11:11:15.327Z</time></trkpt>
      <trkpt lat="38.041015" lon="114.032012"><time>2026-06-18T11:11:15.344Z</time></trkpt>
      <trkpt lat="38.041015" lon="114.032012"><time>2026-06-18T11:11:15.361Z</time></trkpt>
      <trkpt lat="38.04102" lon="114.032021"><time>2026-06-18T11:11:15.377Z</time></trkpt>
      <trkpt lat="38.04102" lon="114.032021"><time>2026-06-18T11:11:15.394Z</time></trkpt>
      <trkpt lat="38.04102" lon="114.032021"><time>2026-06-18T11:11:15.411Z</time></trkpt>
      <trkpt lat="38.04102" lon="114.032021"><time>2026-06-18T11:11:15.427Z</time></trkpt>
      <trkpt lat="38.04102" lon="114.032021"><time>2026-06-18T11:11:15.444Z</time></trkpt>
      <trkpt lat="38.04102" lon="114.032021"><time>2026-06-18T11:11:15.461Z</time></trkpt>
      <trkpt lat="38.041026" lon="114.03203"><time>2026-06-18T11:11:15.477Z</time></trkpt>
      <trkpt lat="38.041026" lon="114.03203"><time>2026-06-18T11:11:15.494Z</time></trkpt>
      <trkpt lat="38.041026" lon="114.03203"><time>2026-06-18T11:11:15.511Z</time></trkpt>
      <trkpt lat="38.041026" lon="114.03203"><time>2026-06-18T11:11:15.528Z</time></trkpt>
      <trkpt lat="38.041026" lon="114.03203"><time>2026-06-18T11:11:15.544Z</time></trkpt>
      <trkpt lat="38.041026" lon="114.03203"><time>2026-06-18T11:11:15.561Z</time></trkpt>
      <trkpt lat="38.041031" lon="114.032039"><time>2026-06-18T11:11:15.578Z</time></trkpt>
      <trkpt lat="38.041031" lon="114.032039"><time>2026-06-18T11:11:15.594Z</time></trkpt>
      <trkpt lat="38.041031" lon="114.032039"><time>2026-06-18T11:11:15.611Z</time></trkpt>
      <trkpt lat="38.041031" lon="114.032039"><time>2026-06-18T11:11:15.628Z</time></trkpt>
      <trkpt lat="38.041031" lon="114.032039"><time>2026-06-18T11:11:15.644Z</time></trkpt>
      <trkpt lat="38.041031" lon="114.032039"><time>2026-06-18T11:11:15.661Z</time></trkpt>
      <trkpt lat="38.041037" lon="114.032047"><time>2026-06-18T11:11:15.678Z</time></trkpt>
      <trkpt lat="38.041037" lon="114.032047"><time>2026-06-18T11:11:15.694Z</time></trkpt>
      <trkpt lat="38.041037" lon="114.032047"><time>2026-06-18T11:11:15.711Z</time></trkpt>
      <trkpt lat="38.041037" lon="114.032047"><time>2026-06-18T11:11:15.728Z</time></trkpt>
      <trkpt lat="38.041037" lon="114.032047"><time>2026-06-18T11:11:15.744Z</time></trkpt>
      <trkpt lat="38.041037" lon="114.032047"><time>2026-06-18T11:11:15.761Z</time></trkpt>
      <trkpt lat="38.041042" lon="114.032057"><time>2026-06-18T11:11:15.778Z</time></trkpt>
      <trkpt lat="38.041042" lon="114.032057"><time>2026-06-18T11:11:15.794Z</time></trkpt>
      <trkpt lat="38.041042" lon="114.032057"><time>2026-06-18T11:11:15.811Z</time></trkpt>
      <trkpt lat="38.041042" lon="114.032057"><time>2026-06-18T11:11:15.828Z</time></trkpt>
      <trkpt lat="38.041042" lon="114.032057"><time>2026-06-18T11:11:15.845Z</time></trkpt>
      <trkpt lat="38.041042" lon="114.032057"><time>2026-06-18T11:11:15.861Z</time></trkpt>
      <trkpt lat="38.041048" lon="114.032065"><time>2026-06-18T11:11:15.878Z</time></trkpt>
      <trkpt lat="38.041048" lon="114.032065"><time>2026-06-18T11:11:15.895Z</time></trkpt>
      <trkpt lat="38.041048" lon="114.032065"><time>2026-06-18T11:11:15.911Z</time></trkpt>
      <trkpt lat="38.041048" lon="114.032065"><time>2026-06-18T11:11:15.928Z</time></trkpt>
      <trkpt lat="38.041048" lon="114.032065"><time>2026-06-18T11:11:15.945Z</time></trkpt>
      <trkpt lat="38.041048" lon="114.032065"><time>2026-06-18T11:11:15.961Z</time></trkpt>
      <trkpt lat="38.041053" lon="114.032074"><time>2026-06-18T11:11:15.978Z</time></trkpt>
      <trkpt lat="38.041053" lon="114.032074"><time>2026-06-18T11:11:15.995Z</time></trkpt>
      <trkpt lat="38.041053" lon="114.032074"><time>2026-06-18T11:11:16.011Z</time></trkpt>
      <trkpt lat="38.041053" lon="114.032074"><time>2026-06-18T11:11:16.028Z</time></trkpt>
      <trkpt lat="38.041053" lon="114.032074"><time>2026-06-18T11:11:16.045Z</time></trkpt>
      <trkpt lat="38.041053" lon="114.032074"><time>2026-06-18T11:11:16.061Z</time></trkpt>
      <trkpt lat="38.041059" lon="114.032083"><time>2026-06-18T11:11:16.078Z</time></trkpt>
      <trkpt lat="38.041059" lon="114.032083"><time>2026-06-18T11:11:16.095Z</time></trkpt>
      <trkpt lat="38.041059" lon="114.032083"><time>2026-06-18T11:11:16.111Z</time></trkpt>
      <trkpt lat="38.041059" lon="114.032083"><time>2026-06-18T11:11:16.128Z</time></trkpt>
      <trkpt lat="38.041059" lon="114.032083"><time>2026-06-18T11:11:16.145Z</time></trkpt>
      <trkpt lat="38.041059" lon="114.032083"><time>2026-06-18T11:11:16.162Z</time></trkpt>
      <trkpt lat="38.041065" lon="114.032092"><time>2026-06-18T11:11:16.178Z</time></trkpt>
      <trkpt lat="38.041065" lon="114.032092"><time>2026-06-18T11:11:16.195Z</time></trkpt>
      <trkpt lat="38.041065" lon="114.032092"><time>2026-06-18T11:11:16.212Z</time></trkpt>
      <trkpt lat="38.041065" lon="114.032092"><time>2026-06-18T11:11:16.228Z</time></trkpt>
      <trkpt lat="38.041065" lon="114.032092"><time>2026-06-18T11:11:16.245Z</time></trkpt>
      <trkpt lat="38.041065" lon="114.032092"><time>2026-06-18T11:11:16.262Z</time></trkpt>
      <trkpt lat="38.04107" lon="114.032101"><time>2026-06-18T11:11:16.278Z</time></trkpt>
      <trkpt lat="38.04107" lon="114.032101"><time>2026-06-18T11:11:16.295Z</time></trkpt>
      <trkpt lat="38.04107" lon="114.032101"><time>2026-06-18T11:11:16.312Z</time></trkpt>
      <trkpt lat="38.04107" lon="114.032101"><time>2026-06-18T11:11:16.328Z</time></trkpt>
      <trkpt lat="38.04107" lon="114.032101"><time>2026-06-18T11:11:16.345Z</time></trkpt>
      <trkpt lat="38.04107" lon="114.032101"><time>2026-06-18T11:11:16.362Z</time></trkpt>
      <trkpt lat="38.041076" lon="114.03211"><time>2026-06-18T11:11:16.378Z</time></trkpt>
      <trkpt lat="38.041076" lon="114.03211"><time>2026-06-18T11:11:16.395Z</time></trkpt>
      <trkpt lat="38.041076" lon="114.03211"><time>2026-06-18T11:11:16.412Z</time></trkpt>
      <trkpt lat="38.041076" lon="114.03211"><time>2026-06-18T11:11:16.428Z</time></trkpt>
      <trkpt lat="38.041076" lon="114.03211"><time>2026-06-18T11:11:16.445Z</time></trkpt>
      <trkpt lat="38.041076" lon="114.03211"><time>2026-06-18T11:11:16.462Z</time></trkpt>
      <trkpt lat="38.041081" lon="114.032118"><time>2026-06-18T11:11:16.479Z</time></trkpt>
      <trkpt lat="38.041081" lon="114.032118"><time>2026-06-18T11:11:16.495Z</time></trkpt>
      <trkpt lat="38.041081" lon="114.032118"><time>2026-06-18T11:11:16.512Z</time></trkpt>
      <trkpt lat="38.041081" lon="114.032118"><time>2026-06-18T11:11:16.529Z</time></trkpt>
      <trkpt lat="38.041081" lon="114.032118"><time>2026-06-18T11:11:16.545Z</time></trkpt>
      <trkpt lat="38.041081" lon="114.032118"><time>2026-06-18T11:11:16.562Z</time></trkpt>
      <trkpt lat="38.041087" lon="114.032127"><time>2026-06-18T11:11:16.579Z</time></trkpt>
      <trkpt lat="38.041087" lon="114.032127"><time>2026-06-18T11:11:16.595Z</time></trkpt>
      <trkpt lat="38.041087" lon="114.032127"><time>2026-06-18T11:11:16.612Z</time></trkpt>
      <trkpt lat="38.041087" lon="114.032127"><time>2026-06-18T11:11:16.629Z</time></trkpt>
      <trkpt lat="38.041087" lon="114.032127"><time>2026-06-18T11:11:16.645Z</time></trkpt>
      <trkpt lat="38.041087" lon="114.032127"><time>2026-06-18T11:11:16.662Z</time></trkpt>
      <trkpt lat="38.041092" lon="114.032136"><time>2026-06-18T11:11:16.679Z</time></trkpt>
      <trkpt lat="38.041092" lon="114.032136"><time>2026-06-18T11:11:16.695Z</time></trkpt>
      <trkpt lat="38.041092" lon="114.032136"><time>2026-06-18T11:11:16.712Z</time></trkpt>
      <trkpt lat="38.041092" lon="114.032136"><time>2026-06-18T11:11:16.729Z</time></trkpt>
      <trkpt lat="38.041092" lon="114.032136"><time>2026-06-18T11:11:16.745Z</time></trkpt>
      <trkpt lat="38.041092" lon="114.032136"><time>2026-06-18T11:11:16.762Z</time></trkpt>
      <trkpt lat="38.041098" lon="114.032145"><time>2026-06-18T11:11:16.779Z</time></trkpt>
      <trkpt lat="38.041098" lon="114.032145"><time>2026-06-18T11:11:16.796Z</time></trkpt>
      <trkpt lat="38.041098" lon="114.032145"><time>2026-06-18T11:11:16.812Z</time></trkpt>
      <trkpt lat="38.041098" lon="114.032145"><time>2026-06-18T11:11:16.829Z</time></trkpt>
      <trkpt lat="38.041098" lon="114.032145"><time>2026-06-18T11:11:16.846Z</time></trkpt>
      <trkpt lat="38.041098" lon="114.032145"><time>2026-06-18T11:11:16.862Z</time></trkpt>
      <trkpt lat="38.041103" lon="114.032153"><time>2026-06-18T11:11:16.879Z</time></trkpt>
      <trkpt lat="38.041103" lon="114.032153"><time>2026-06-18T11:11:16.896Z</time></trkpt>
      <trkpt lat="38.041103" lon="114.032153"><time>2026-06-18T11:11:16.912Z</time></trkpt>
      <trkpt lat="38.041103" lon="114.032153"><time>2026-06-18T11:11:16.929Z</time></trkpt>
      <trkpt lat="38.041103" lon="114.032153"><time>2026-06-18T11:11:16.946Z</time></trkpt>
      <trkpt lat="38.041103" lon="114.032153"><time>2026-06-18T11:11:16.962Z</time></trkpt>
      <trkpt lat="38.041109" lon="114.032162"><time>2026-06-18T11:11:16.979Z</time></trkpt>
      <trkpt lat="38.041109" lon="114.032162"><time>2026-06-18T11:11:16.996Z</time></trkpt>
      <trkpt lat="38.041109" lon="114.032162"><time>2026-06-18T11:11:17.012Z</time></trkpt>
      <trkpt lat="38.041109" lon="114.032162"><time>2026-06-18T11:11:17.029Z</time></trkpt>
      <trkpt lat="38.041109" lon="114.032162"><time>2026-06-18T11:11:17.046Z</time></trkpt>
      <trkpt lat="38.041109" lon="114.032162"><time>2026-06-18T11:11:17.062Z</time></trkpt>
      <trkpt lat="38.041115" lon="114.032171"><time>2026-06-18T11:11:17.079Z</time></trkpt>
      <trkpt lat="38.041115" lon="114.032171"><time>2026-06-18T11:11:17.096Z</time></trkpt>
      <trkpt lat="38.041115" lon="114.032171"><time>2026-06-18T11:11:17.113Z</time></trkpt>
      <trkpt lat="38.041115" lon="114.032171"><time>2026-06-18T11:11:17.129Z</time></trkpt>
      <trkpt lat="38.041115" lon="114.032171"><time>2026-06-18T11:11:17.146Z</time></trkpt>
      <trkpt lat="38.041115" lon="114.032171"><time>2026-06-18T11:11:17.163Z</time></trkpt>
      <trkpt lat="38.041121" lon="114.03218"><time>2026-06-18T11:11:17.179Z</time></trkpt>
      <trkpt lat="38.041121" lon="114.03218"><time>2026-06-18T11:11:17.196Z</time></trkpt>
      <trkpt lat="38.041121" lon="114.03218"><time>2026-06-18T11:11:17.213Z</time></trkpt>
      <trkpt lat="38.041121" lon="114.03218"><time>2026-06-18T11:11:17.229Z</time></trkpt>
      <trkpt lat="38.041121" lon="114.03218"><time>2026-06-18T11:11:17.246Z</time></trkpt>
      <trkpt lat="38.041121" lon="114.03218"><time>2026-06-18T11:11:17.263Z</time></trkpt>
      <trkpt lat="38.041126" lon="114.032189"><time>2026-06-18T11:11:17.279Z</time></trkpt>
      <trkpt lat="38.041126" lon="114.032189"><time>2026-06-18T11:11:17.296Z</time></trkpt>
      <trkpt lat="38.041126" lon="114.032189"><time>2026-06-18T11:11:17.313Z</time></trkpt>
      <trkpt lat="38.041126" lon="114.032189"><time>2026-06-18T11:11:17.329Z</time></trkpt>
      <trkpt lat="38.041126" lon="114.032189"><time>2026-06-18T11:11:17.346Z</time></trkpt>
      <trkpt lat="38.041126" lon="114.032189"><time>2026-06-18T11:11:17.363Z</time></trkpt>
      <trkpt lat="38.041132" lon="114.032197"><time>2026-06-18T11:11:17.379Z</time></trkpt>
      <trkpt lat="38.041132" lon="114.032197"><time>2026-06-18T11:11:17.396Z</time></trkpt>
      <trkpt lat="38.041132" lon="114.032197"><time>2026-06-18T11:11:17.413Z</time></trkpt>
      <trkpt lat="38.041132" lon="114.032197"><time>2026-06-18T11:11:17.430Z</time></trkpt>
      <trkpt lat="38.041132" lon="114.032197"><time>2026-06-18T11:11:17.446Z</time></trkpt>
      <trkpt lat="38.041132" lon="114.032197"><time>2026-06-18T11:11:17.463Z</time></trkpt>
      <trkpt lat="38.041138" lon="114.032207"><time>2026-06-18T11:11:17.480Z</time></trkpt>
      <trkpt lat="38.041138" lon="114.032207"><time>2026-06-18T11:11:17.496Z</time></trkpt>
      <trkpt lat="38.041138" lon="114.032207"><time>2026-06-18T11:11:17.513Z</time></trkpt>
      <trkpt lat="38.041138" lon="114.032207"><time>2026-06-18T11:11:17.530Z</time></trkpt>
      <trkpt lat="38.041138" lon="114.032207"><time>2026-06-18T11:11:17.546Z</time></trkpt>
      <trkpt lat="38.041138" lon="114.032207"><time>2026-06-18T11:11:17.563Z</time></trkpt>
      <trkpt lat="38.041143" lon="114.032215"><time>2026-06-18T11:11:17.580Z</time></trkpt>
      <trkpt lat="38.041143" lon="114.032215"><time>2026-06-18T11:11:17.596Z</time></trkpt>
      <trkpt lat="38.041143" lon="114.032215"><time>2026-06-18T11:11:17.613Z</time></trkpt>
      <trkpt lat="38.041143" lon="114.032215"><time>2026-06-18T11:11:17.630Z</time></trkpt>
      <trkpt lat="38.041143" lon="114.032215"><time>2026-06-18T11:11:17.646Z</time></trkpt>
      <trkpt lat="38.041143" lon="114.032215"><time>2026-06-18T11:11:17.663Z</time></trkpt>
      <trkpt lat="38.041149" lon="114.032224"><time>2026-06-18T11:11:17.680Z</time></trkpt>
      <trkpt lat="38.041149" lon="114.032224"><time>2026-06-18T11:11:17.696Z</time></trkpt>
      <trkpt lat="38.041149" lon="114.032224"><time>2026-06-18T11:11:17.713Z</time></trkpt>
      <trkpt lat="38.041149" lon="114.032224"><time>2026-06-18T11:11:17.730Z</time></trkpt>
      <trkpt lat="38.041149" lon="114.032224"><time>2026-06-18T11:11:17.747Z</time></trkpt>
      <trkpt lat="38.041149" lon="114.032224"><time>2026-06-18T11:11:17.763Z</time></trkpt>
      <trkpt lat="38.041154" lon="114.032233"><time>2026-06-18T11:11:17.780Z</time></trkpt>
      <trkpt lat="38.041154" lon="114.032233"><time>2026-06-18T11:11:17.797Z</time></trkpt>
      <trkpt lat="38.041154" lon="114.032233"><time>2026-06-18T11:11:17.813Z</time></trkpt>
      <trkpt lat="38.041154" lon="114.032233"><time>2026-06-18T11:11:17.830Z</time></trkpt>
      <trkpt lat="38.041154" lon="114.032233"><time>2026-06-18T11:11:17.847Z</time></trkpt>
      <trkpt lat="38.041154" lon="114.032233"><time>2026-06-18T11:11:17.863Z</time></trkpt>
      <trkpt lat="38.04116" lon="114.032241"><time>2026-06-18T11:11:17.880Z</time></trkpt>
      <trkpt lat="38.04116" lon="114.032241"><time>2026-06-18T11:11:17.897Z</time></trkpt>
      <trkpt lat="38.04116" lon="114.032241"><time>2026-06-18T11:11:17.913Z</time></trkpt>
      <trkpt lat="38.04116" lon="114.032241"><time>2026-06-18T11:11:17.930Z</time></trkpt>
      <trkpt lat="38.04116" lon="114.032241"><time>2026-06-18T11:11:17.947Z</time></trkpt>
      <trkpt lat="38.04116" lon="114.032241"><time>2026-06-18T11:11:17.963Z</time></trkpt>
      <trkpt lat="38.041166" lon="114.032251"><time>2026-06-18T11:11:17.980Z</time></trkpt>
      <trkpt lat="38.041166" lon="114.032251"><time>2026-06-18T11:11:17.997Z</time></trkpt>
      <trkpt lat="38.041166" lon="114.032251"><time>2026-06-18T11:11:18.013Z</time></trkpt>
      <trkpt lat="38.041166" lon="114.032251"><time>2026-06-18T11:11:18.030Z</time></trkpt>
      <trkpt lat="38.041166" lon="114.032251"><time>2026-06-18T11:11:18.047Z</time></trkpt>
      <trkpt lat="38.041166" lon="114.032251"><time>2026-06-18T11:11:18.064Z</time></trkpt>
      <trkpt lat="38.041171" lon="114.032259"><time>2026-06-18T11:11:18.080Z</time></trkpt>
      <trkpt lat="38.041171" lon="114.032259"><time>2026-06-18T11:11:18.097Z</time></trkpt>
      <trkpt lat="38.041171" lon="114.032259"><time>2026-06-18T11:11:18.114Z</time></trkpt>
      <trkpt lat="38.041171" lon="114.032259"><time>2026-06-18T11:11:18.130Z</time></trkpt>
      <trkpt lat="38.041171" lon="114.032259"><time>2026-06-18T11:11:18.147Z</time></trkpt>
      <trkpt lat="38.041171" lon="114.032259"><time>2026-06-18T11:11:18.164Z</time></trkpt>
      <trkpt lat="38.041177" lon="114.032268"><time>2026-06-18T11:11:18.180Z</time></trkpt>
      <trkpt lat="38.041177" lon="114.032268"><time>2026-06-18T11:11:18.197Z</time></trkpt>
      <trkpt lat="38.041177" lon="114.032268"><time>2026-06-18T11:11:18.214Z</time></trkpt>
      <trkpt lat="38.041177" lon="114.032268"><time>2026-06-18T11:11:18.230Z</time></trkpt>
      <trkpt lat="38.041177" lon="114.032268"><time>2026-06-18T11:11:18.247Z</time></trkpt>
      <trkpt lat="38.041177" lon="114.032268"><time>2026-06-18T11:11:18.264Z</time></trkpt>
      <trkpt lat="38.041183" lon="114.032277"><time>2026-06-18T11:11:18.280Z</time></trkpt>
      <trkpt lat="38.041183" lon="114.032277"><time>2026-06-18T11:11:18.297Z</time></trkpt>
      <trkpt lat="38.041183" lon="114.032277"><time>2026-06-18T11:11:18.314Z</time></trkpt>
      <trkpt lat="38.041183" lon="114.032277"><time>2026-06-18T11:11:18.330Z</time></trkpt>
      <trkpt lat="38.041183" lon="114.032277"><time>2026-06-18T11:11:18.347Z</time></trkpt>
      <trkpt lat="38.041183" lon="114.032277"><time>2026-06-18T11:11:18.364Z</time></trkpt>
      <trkpt lat="38.041188" lon="114.032285"><time>2026-06-18T11:11:18.381Z</time></trkpt>
      <trkpt lat="38.041188" lon="114.032285"><time>2026-06-18T11:11:18.397Z</time></trkpt>
      <trkpt lat="38.041188" lon="114.032285"><time>2026-06-18T11:11:18.414Z</time></trkpt>
      <trkpt lat="38.041188" lon="114.032285"><time>2026-06-18T11:11:18.431Z</time></trkpt>
      <trkpt lat="38.041188" lon="114.032285"><time>2026-06-18T11:11:18.447Z</time></trkpt>
      <trkpt lat="38.041188" lon="114.032285"><time>2026-06-18T11:11:18.464Z</time></trkpt>
      <trkpt lat="38.041194" lon="114.032294"><time>2026-06-18T11:11:18.481Z</time></trkpt>
      <trkpt lat="38.041194" lon="114.032294"><time>2026-06-18T11:11:18.497Z</time></trkpt>
      <trkpt lat="38.041194" lon="114.032294"><time>2026-06-18T11:11:18.514Z</time></trkpt>
      <trkpt lat="38.041194" lon="114.032294"><time>2026-06-18T11:11:18.531Z</time></trkpt>
      <trkpt lat="38.041194" lon="114.032294"><time>2026-06-18T11:11:18.547Z</time></trkpt>
      <trkpt lat="38.041194" lon="114.032294"><time>2026-06-18T11:11:18.564Z</time></trkpt>
      <trkpt lat="38.0412" lon="114.032303"><time>2026-06-18T11:11:18.581Z</time></trkpt>
      <trkpt lat="38.0412" lon="114.032303"><time>2026-06-18T11:11:18.597Z</time></trkpt>
      <trkpt lat="38.0412" lon="114.032303"><time>2026-06-18T11:11:18.614Z</time></trkpt>
      <trkpt lat="38.0412" lon="114.032303"><time>2026-06-18T11:11:18.631Z</time></trkpt>
      <trkpt lat="38.0412" lon="114.032303"><time>2026-06-18T11:11:18.647Z</time></trkpt>
      <trkpt lat="38.0412" lon="114.032303"><time>2026-06-18T11:11:18.664Z</time></trkpt>
      <trkpt lat="38.041205" lon="114.032312"><time>2026-06-18T11:11:18.681Z</time></trkpt>
      <trkpt lat="38.041205" lon="114.032312"><time>2026-06-18T11:11:18.697Z</time></trkpt>
      <trkpt lat="38.041205" lon="114.032312"><time>2026-06-18T11:11:18.714Z</time></trkpt>
      <trkpt lat="38.041205" lon="114.032312"><time>2026-06-18T11:11:18.731Z</time></trkpt>
      <trkpt lat="38.041205" lon="114.032312"><time>2026-06-18T11:11:18.748Z</time></trkpt>
      <trkpt lat="38.041205" lon="114.032312"><time>2026-06-18T11:11:18.764Z</time></trkpt>
      <trkpt lat="38.04121" lon="114.03232"><time>2026-06-18T11:11:18.781Z</time></trkpt>
      <trkpt lat="38.04121" lon="114.03232"><time>2026-06-18T11:11:18.798Z</time></trkpt>
      <trkpt lat="38.04121" lon="114.03232"><time>2026-06-18T11:11:18.814Z</time></trkpt>
      <trkpt lat="38.04121" lon="114.03232"><time>2026-06-18T11:11:18.831Z</time></trkpt>
      <trkpt lat="38.04121" lon="114.03232"><time>2026-06-18T11:11:18.848Z</time></trkpt>
      <trkpt lat="38.04121" lon="114.03232"><time>2026-06-18T11:11:18.864Z</time></trkpt>
      <trkpt lat="38.041216" lon="114.032329"><time>2026-06-18T11:11:18.881Z</time></trkpt>
      <trkpt lat="38.041216" lon="114.032329"><time>2026-06-18T11:11:18.898Z</time></trkpt>
      <trkpt lat="38.041216" lon="114.032329"><time>2026-06-18T11:11:18.914Z</time></trkpt>
      <trkpt lat="38.041216" lon="114.032329"><time>2026-06-18T11:11:18.931Z</time></trkpt>
      <trkpt lat="38.041216" lon="114.032329"><time>2026-06-18T11:11:18.948Z</time></trkpt>
      <trkpt lat="38.041216" lon="114.032329"><time>2026-06-18T11:11:18.964Z</time></trkpt>
      <trkpt lat="38.041222" lon="114.032338"><time>2026-06-18T11:11:18.981Z</time></trkpt>
      <trkpt lat="38.041222" lon="114.032338"><time>2026-06-18T11:11:18.998Z</time></trkpt>
      <trkpt lat="38.041222" lon="114.032338"><time>2026-06-18T11:11:19.014Z</time></trkpt>
      <trkpt lat="38.041222" lon="114.032338"><time>2026-06-18T11:11:19.031Z</time></trkpt>
      <trkpt lat="38.041222" lon="114.032338"><time>2026-06-18T11:11:19.048Z</time></trkpt>
      <trkpt lat="38.041222" lon="114.032338"><time>2026-06-18T11:11:19.065Z</time></trkpt>
      <trkpt lat="38.041227" lon="114.032347"><time>2026-06-18T11:11:19.081Z</time></trkpt>
      <trkpt lat="38.041227" lon="114.032347"><time>2026-06-18T11:11:19.098Z</time></trkpt>
      <trkpt lat="38.041227" lon="114.032347"><time>2026-06-18T11:11:19.115Z</time></trkpt>
      <trkpt lat="38.041227" lon="114.032347"><time>2026-06-18T11:11:19.131Z</time></trkpt>
      <trkpt lat="38.041227" lon="114.032347"><time>2026-06-18T11:11:19.148Z</time></trkpt>
      <trkpt lat="38.041227" lon="114.032347"><time>2026-06-18T11:11:19.165Z</time></trkpt>
      <trkpt lat="38.041232" lon="114.032356"><time>2026-06-18T11:11:19.181Z</time></trkpt>
      <trkpt lat="38.041232" lon="114.032356"><time>2026-06-18T11:11:19.198Z</time></trkpt>
      <trkpt lat="38.041232" lon="114.032356"><time>2026-06-18T11:11:19.215Z</time></trkpt>
      <trkpt lat="38.041232" lon="114.032356"><time>2026-06-18T11:11:19.231Z</time></trkpt>
      <trkpt lat="38.041232" lon="114.032356"><time>2026-06-18T11:11:19.248Z</time></trkpt>
      <trkpt lat="38.041232" lon="114.032356"><time>2026-06-18T11:11:19.265Z</time></trkpt>
      <trkpt lat="38.041238" lon="114.032365"><time>2026-06-18T11:11:19.281Z</time></trkpt>
      <trkpt lat="38.041238" lon="114.032365"><time>2026-06-18T11:11:19.298Z</time></trkpt>
      <trkpt lat="38.041238" lon="114.032365"><time>2026-06-18T11:11:19.315Z</time></trkpt>
      <trkpt lat="38.041238" lon="114.032365"><time>2026-06-18T11:11:19.331Z</time></trkpt>
      <trkpt lat="38.041238" lon="114.032365"><time>2026-06-18T11:11:19.348Z</time></trkpt>
      <trkpt lat="38.041238" lon="114.032365"><time>2026-06-18T11:11:19.365Z</time></trkpt>
      <trkpt lat="38.041244" lon="114.032374"><time>2026-06-18T11:11:19.382Z</time></trkpt>
      <trkpt lat="38.041244" lon="114.032374"><time>2026-06-18T11:11:19.398Z</time></trkpt>
      <trkpt lat="38.041244" lon="114.032374"><time>2026-06-18T11:11:19.415Z</time></trkpt>
      <trkpt lat="38.041244" lon="114.032374"><time>2026-06-18T11:11:19.432Z</time></trkpt>
    </trkseg>
  </trk>
</gpx>
