<?xml version="1.0" encoding="UTF-8"?>
<gpx version="1.1" creator="Kairos" xmlns="http://www.topografix.com/GPX/1/1">
  <trk>
    <name>sidecar-srt-25d7ff0c18fdb58c</name>
    <trkseg>
      <trkpt lat="39.398103" lon="117.956361"><time>2026-06-20T05:41:48.000Z</time></trkpt>
      <trkpt lat="39.398103" lon="117.956361"><time>2026-06-20T05:41:48.016Z</time></trkpt>
      <trkpt lat="39.398103" lon="117.956361"><time>2026-06-20T05:41:48.032Z</time></trkpt>
      <trkpt lat="39.398103" lon="117.956361"><time>2026-06-20T05:41:48.049Z</time></trkpt>
      <trkpt lat="39.398103" lon="117.956361"><time>2026-06-20T05:41:48.066Z</time></trkpt>
      <trkpt lat="39.398103" lon="117.956361"><time>2026-06-20T05:41:48.082Z</time></trkpt>
      <trkpt lat="39.398103" lon="117.956361"><time>2026-06-20T05:41:48.099Z</time></trkpt>
      <trkpt lat="39.398103" lon="117.956361"><time>2026-06-20T05:41:48.116Z</time></trkpt>
      <trkpt lat="39.398103" lon="117.956361"><time>2026-06-20T05:41:48.132Z</time></trkpt>
      <trkpt lat="39.398103" lon="117.956361"><time>2026-06-20T05:41:48.149Z</time></trkpt>
      <trkpt lat="39.398103" lon="117.956361"><time>2026-06-20T05:41:48.166Z</time></trkpt>
      <trkpt lat="39.398103" lon="117.956361"><time>2026-06-20T05:41:48.182Z</time></trkpt>
      <trkpt lat="39.398103" lon="117.956361"><time>2026-06-20T05:41:48.199Z</time></trkpt>
      <trkpt lat="39.398103" lon="117.956361"><time>2026-06-20T05:41:48.216Z</time></trkpt>
      <trkpt lat="39.398103" lon="117.956361"><time>2026-06-20T05:41:48.232Z</time></trkpt>
      <trkpt lat="39.398103" lon="117.956361"><time>2026-06-20T05:41:48.249Z</time></trkpt>
      <trkpt lat="39.398103" lon="117.956361"><time>2026-06-20T05:41:48.266Z</time></trkpt>
      <trkpt lat="39.398103" lon="117.956361"><time>2026-06-20T05:41:48.282Z</time></trkpt>
      <trkpt lat="39.398103" lon="117.956361"><time>2026-06-20T05:41:48.299Z</time></trkpt>
      <trkpt lat="39.398103" lon="117.956361"><time>2026-06-20T05:41:48.316Z</time></trkpt>
      <trkpt lat="39.398103" lon="117.956361"><time>2026-06-20T05:41:48.333Z</time></trkpt>
      <trkpt lat="39.398103" lon="117.956361"><time>2026-06-20T05:41:48.349Z</time></trkpt>
      <trkpt lat="39.398103" lon="117.956361"><time>2026-06-20T05:41:48.366Z</time></trkpt>
      <trkpt lat="39.398103" lon="117.956361"><time>2026-06-20T05:41:48.383Z</time></trkpt>
      <trkpt lat="39.398103" lon="117.956361"><time>2026-06-20T05:41:48.399Z</time></trkpt>
      <trkpt lat="39.398103" lon="117.956361"><time>2026-06-20T05:41:48.416Z</time></trkpt>
      <trkpt lat="39.398103" lon="117.956361"><time>2026-06-20T05:41:48.433Z</time></trkpt>
      <trkpt lat="39.398103" lon="117.956361"><time>2026-06-20T05:41:48.449Z</time></trkpt>
      <trkpt lat="39.398103" lon="117.956362"><time>2026-06-20T05:41:48.466Z</time></trkpt>
      <trkpt lat="39.398103" lon="117.956362"><time>2026-06-20T05:41:48.483Z</time></trkpt>
      <trkpt lat="39.398103" lon="117.956362"><time>2026-06-20T05:41:48.499Z</time></trkpt>
      <trkpt lat="39.398103" lon="117.956362"><time>2026-06-20T05:41:48.516Z</time></trkpt>
      <trkpt lat="39.398103" lon="117.956362"><time>2026-06-20T05:41:48.533Z</time></trkpt>
      <trkpt lat="39.398103" lon="117.956362"><time>2026-06-20T05:41:48.549Z</time></trkpt>
      <trkpt lat="39.398103" lon="117.956362"><time>2026-06-20T05:41:48.566Z</time></trkpt>
      <trkpt lat="39.398103" lon="117.956362"><time>2026-06-20T05:41:48.583Z</time></trkpt>
      <trkpt lat="39.398103" lon="117.956362"><time>2026-06-20T05:41:48.599Z</time></trkpt>
      <trkpt lat="39.398103" lon="117.956362"><time>2026-06-20T05:41:48.616Z</time></trkpt>
      <trkpt lat="39.398103" lon="117.956362"><time>2026-06-20T05:41:48.633Z</time></trkpt>
      <trkpt lat="39.398103" lon="117.956362"><time>2026-06-20T05:41:48.650Z</time></trkpt>
      <trkpt lat="39.398103" lon="117.956362"><time>2026-06-20T05:41:48.666Z</time></trkpt>
      <trkpt lat="39.398103" lon="117.956362"><time>2026-06-20T05:41:48.683Z</time></trkpt>
      <trkpt lat="39.398103" lon="117.956362"><time>2026-06-20T05:41:48.700Z</time></trkpt>
      <trkpt lat="39.398103" lon="117.956362"><time>2026-06-20T05:41:48.716Z</time></trkpt>
      <trkpt lat="39.398103" lon="117.956362"><time>2026-06-20T05:41:48.733Z</time></trkpt>
      <trkpt lat="39.398103" lon="117.956362"><time>2026-06-20T05:41:48.750Z</time></trkpt>
      <trkpt lat="39.398103" lon="117.956363"><time>2026-06-20T05:41:48.766Z</time></trkpt>
      <trkpt lat="39.398103" lon="117.956363"><time>2026-06-20T05:41:48.783Z</time></trkpt>
      <trkpt lat="39.398103" lon="117.956363"><time>2026-06-20T05:41:48.800Z</time></trkpt>
      <trkpt lat="39.398103" lon="117.956363"><time>2026-06-20T05:41:48.816Z</time></trkpt>
      <trkpt lat="39.398103" lon="117.956363"><time>2026-06-20T05:41:48.833Z</time></trkpt>
      <trkpt lat="39.398103" lon="117.956363"><time>2026-06-20T05:41:48.850Z</time></trkpt>
      <trkpt lat="39.398103" lon="117.956365"><time>2026-06-20T05:41:48.866Z</time></trkpt>
      <trkpt lat="39.398103" lon="117.956365"><time>2026-06-20T05:41:48.883Z</time></trkpt>
      <trkpt lat="39.398103" lon="117.956365"><time>2026-06-20T05:41:48.900Z</time></trkpt>
      <trkpt lat="39.398103" lon="117.956365"><time>2026-06-20T05:41:48.916Z</time></trkpt>
      <trkpt lat="39.398103" lon="117.956365"><time>2026-06-20T05:41:48.933Z</time></trkpt>
      <trkpt lat="39.398103" lon="117.956365"><time>2026-06-20T05:41:48.950Z</time></trkpt>
      <trkpt lat="39.398103" lon="117.956367"><time>2026-06-20T05:41:48.967Z</time></trkpt>
      <trkpt lat="39.398103" lon="117.956367"><time>2026-06-20T05:41:48.983Z</time></trkpt>
      <trkpt lat="39.398103" lon="117.956367"><time>2026-06-20T05:41:49.000Z</time></trkpt>
      <trkpt lat="39.398103" lon="117.956367"><time>2026-06-20T05:41:49.017Z</time></trkpt>
      <trkpt lat="39.398103" lon="117.956367"><time>2026-06-20T05:41:49.033Z</time></trkpt>
      <trkpt lat="39.398103" lon="117.956367"><time>2026-06-20T05:41:49.050Z</time></trkpt>
      <trkpt lat="39.398102" lon="117.95637"><time>2026-06-20T05:41:49.067Z</time></trkpt>
      <trkpt lat="39.398102" lon="117.95637"><time>2026-06-20T05:41:49.083Z</time></trkpt>
      <trkpt lat="39.398102" lon="117.95637"><time>2026-06-20T05:41:49.100Z</time></trkpt>
      <trkpt lat="39.398102" lon="117.95637"><time>2026-06-20T05:41:49.117Z</time></trkpt>
      <trkpt lat="39.398102" lon="117.95637"><time>2026-06-20T05:41:49.133Z</time></trkpt>
      <trkpt lat="39.398102" lon="117.95637"><time>2026-06-20T05:41:49.150Z</time></trkpt>
      <trkpt lat="39.398101" lon="117.956373"><time>2026-06-20T05:41:49.167Z</time></trkpt>
      <trkpt lat="39.398101" lon="117.956373"><time>2026-06-20T05:41:49.183Z</time></trkpt>
      <trkpt lat="39.398101" lon="117.956373"><time>2026-06-20T05:41:49.200Z</time></trkpt>
      <trkpt lat="39.398101" lon="117.956373"><time>2026-06-20T05:41:49.217Z</time></trkpt>
      <trkpt lat="39.398101" lon="117.956373"><time>2026-06-20T05:41:49.233Z</time></trkpt>
      <trkpt lat="39.398101" lon="117.956373"><time>2026-06-20T05:41:49.250Z</time></trkpt>
      <trkpt lat="39.3981" lon="117.956377"><time>2026-06-20T05:41:49.267Z</time></trkpt>
      <trkpt lat="39.3981" lon="117.956377"><time>2026-06-20T05:41:49.284Z</time></trkpt>
      <trkpt lat="39.3981" lon="117.956377"><time>2026-06-20T05:41:49.300Z</time></trkpt>
      <trkpt lat="39.3981" lon="117.956377"><time>2026-06-20T05:41:49.317Z</time></trkpt>
      <trkpt lat="39.3981" lon="117.956377"><time>2026-06-20T05:41:49.334Z</time></trkpt>
      <trkpt lat="39.3981" lon="117.956377"><time>2026-06-20T05:41:49.350Z</time></trkpt>
      <trkpt lat="39.3981" lon="117.956382"><time>2026-06-20T05:41:49.367Z</time></trkpt>
      <trkpt lat="39.3981" lon="117.956382"><time>2026-06-20T05:41:49.384Z</time></trkpt>
      <trkpt lat="39.3981" lon="117.956382"><time>2026-06-20T05:41:49.400Z</time></trkpt>
      <trkpt lat="39.3981" lon="117.956382"><time>2026-06-20T05:41:49.417Z</time></trkpt>
      <trkpt lat="39.3981" lon="117.956382"><time>2026-06-20T05:41:49.434Z</time></trkpt>
      <trkpt lat="39.3981" lon="117.956382"><time>2026-06-20T05:41:49.450Z</time></trkpt>
      <trkpt lat="39.398098" lon="117.956388"><time>2026-06-20T05:41:49.467Z</time></trkpt>
      <trkpt lat="39.398098" lon="117.956388"><time>2026-06-20T05:41:49.484Z</time></trkpt>
      <trkpt lat="39.398098" lon="117.956388"><time>2026-06-20T05:41:49.500Z</time></trkpt>
      <trkpt lat="39.398098" lon="117.956388"><time>2026-06-20T05:41:49.517Z</time></trkpt>
      <trkpt lat="39.398098" lon="117.956388"><time>2026-06-20T05:41:49.534Z</time></trkpt>
      <trkpt lat="39.398098" lon="117.956388"><time>2026-06-20T05:41:49.550Z</time></trkpt>
      <trkpt lat="39.398097" lon="117.956394"><time>2026-06-20T05:41:49.567Z</time></trkpt>
      <trkpt lat="39.398097" lon="117.956394"><time>2026-06-20T05:41:49.584Z</time></trkpt>
      <trkpt lat="39.398097" lon="117.956394"><time>2026-06-20T05:41:49.600Z</time></trkpt>
      <trkpt lat="39.398097" lon="117.956394"><time>2026-06-20T05:41:49.617Z</time></trkpt>
      <trkpt lat="39.398097" lon="117.956394"><time>2026-06-20T05:41:49.634Z</time></trkpt>
      <trkpt lat="39.398097" lon="117.956394"><time>2026-06-20T05:41:49.651Z</time></trkpt>
      <trkpt lat="39.398096" lon="117.956401"><time>2026-06-20T05:41:49.667Z</time></trkpt>
      <trkpt lat="39.398096" lon="117.956401"><time>2026-06-20T05:41:49.684Z</time></trkpt>
      <trkpt lat="39.398096" lon="117.956401"><time>2026-06-20T05:41:49.701Z</time></trkpt>
      <trkpt lat="39.398096" lon="117.956401"><time>2026-06-20T05:41:49.717Z</time></trkpt>
      <trkpt lat="39.398096" lon="117.956401"><time>2026-06-20T05:41:49.734Z</time></trkpt>
      <trkpt lat="39.398096" lon="117.956401"><time>2026-06-20T05:41:49.751Z</time></trkpt>
      <trkpt lat="39.398094" lon="117.956409"><time>2026-06-20T05:41:49.767Z</time></trkpt>
      <trkpt lat="39.398094" lon="117.956409"><time>2026-06-20T05:41:49.784Z</time></trkpt>
      <trkpt lat="39.398094" lon="117.956409"><time>2026-06-20T05:41:49.801Z</time></trkpt>
      <trkpt lat="39.398094" lon="117.956409"><time>2026-06-20T05:41:49.817Z</time></trkpt>
      <trkpt lat="39.398094" lon="117.956409"><time>2026-06-20T05:41:49.834Z</time></trkpt>
      <trkpt lat="39.398094" lon="117.956409"><time>2026-06-20T05:41:49.851Z</time></trkpt>
      <trkpt lat="39.398092" lon="117.956417"><time>2026-06-20T05:41:49.867Z</time></trkpt>
      <trkpt lat="39.398092" lon="117.956417"><time>2026-06-20T05:41:49.884Z</time></trkpt>
      <trkpt lat="39.398092" lon="117.956417"><time>2026-06-20T05:41:49.901Z</time></trkpt>
      <trkpt lat="39.398092" lon="117.956417"><time>2026-06-20T05:41:49.917Z</time></trkpt>
      <trkpt lat="39.398092" lon="117.956417"><time>2026-06-20T05:41:49.934Z</time></trkpt>
      <trkpt lat="39.398092" lon="117.956417"><time>2026-06-20T05:41:49.951Z</time></trkpt>
      <trkpt lat="39.39809" lon="117.956426"><time>2026-06-20T05:41:49.968Z</time></trkpt>
      <trkpt lat="39.39809" lon="117.956426"><time>2026-06-20T05:41:49.984Z</time></trkpt>
      <trkpt lat="39.39809" lon="117.956426"><time>2026-06-20T05:41:50.001Z</time></trkpt>
      <trkpt lat="39.39809" lon="117.956426"><time>2026-06-20T05:41:50.018Z</time></trkpt>
      <trkpt lat="39.39809" lon="117.956426"><time>2026-06-20T05:41:50.034Z</time></trkpt>
      <trkpt lat="39.39809" lon="117.956426"><time>2026-06-20T05:41:50.051Z</time></trkpt>
      <trkpt lat="39.398088" lon="117.956436"><time>2026-06-20T05:41:50.068Z</time></trkpt>
      <trkpt lat="39.398088" lon="117.956436"><time>2026-06-20T05:41:50.084Z</time></trkpt>
      <trkpt lat="39.398088" lon="117.956436"><time>2026-06-20T05:41:50.101Z</time></trkpt>
      <trkpt lat="39.398088" lon="117.956436"><time>2026-06-20T05:41:50.118Z</time></trkpt>
      <trkpt lat="39.398088" lon="117.956436"><time>2026-06-20T05:41:50.134Z</time></trkpt>
      <trkpt lat="39.398088" lon="117.956436"><time>2026-06-20T05:41:50.151Z</time></trkpt>
      <trkpt lat="39.398086" lon="117.956446"><time>2026-06-20T05:41:50.168Z</time></trkpt>
      <trkpt lat="39.398086" lon="117.956446"><time>2026-06-20T05:41:50.184Z</time></trkpt>
      <trkpt lat="39.398086" lon="117.956446"><time>2026-06-20T05:41:50.201Z</time></trkpt>
      <trkpt lat="39.398086" lon="117.956446"><time>2026-06-20T05:41:50.218Z</time></trkpt>
      <trkpt lat="39.398086" lon="117.956446"><time>2026-06-20T05:41:50.234Z</time></trkpt>
      <trkpt lat="39.398086" lon="117.956446"><time>2026-06-20T05:41:50.251Z</time></trkpt>
      <trkpt lat="39.398083" lon="117.956457"><time>2026-06-20T05:41:50.268Z</time></trkpt>
      <trkpt lat="39.398083" lon="117.956457"><time>2026-06-20T05:41:50.285Z</time></trkpt>
      <trkpt lat="39.398083" lon="117.956457"><time>2026-06-20T05:41:50.301Z</time></trkpt>
      <trkpt lat="39.398083" lon="117.956457"><time>2026-06-20T05:41:50.318Z</time></trkpt>
      <trkpt lat="39.398083" lon="117.956457"><time>2026-06-20T05:41:50.335Z</time></trkpt>
      <trkpt lat="39.398083" lon="117.956457"><time>2026-06-20T05:41:50.351Z</time></trkpt>
      <trkpt lat="39.398081" lon="117.956468"><time>2026-06-20T05:41:50.368Z</time></trkpt>
      <trkpt lat="39.398081" lon="117.956468"><time>2026-06-20T05:41:50.385Z</time></trkpt>
      <trkpt lat="39.398081" lon="117.956468"><time>2026-06-20T05:41:50.401Z</time></trkpt>
      <trkpt lat="39.398081" lon="117.956468"><time>2026-06-20T05:41:50.418Z</time></trkpt>
      <trkpt lat="39.398081" lon="117.956468"><time>2026-06-20T05:41:50.435Z</time></trkpt>
      <trkpt lat="39.398081" lon="117.956468"><time>2026-06-20T05:41:50.451Z</time></trkpt>
      <trkpt lat="39.398078" lon="117.95648"><time>2026-06-20T05:41:50.468Z</time></trkpt>
      <trkpt lat="39.398078" lon="117.95648"><time>2026-06-20T05:41:50.485Z</time></trkpt>
      <trkpt lat="39.398078" lon="117.95648"><time>2026-06-20T05:41:50.501Z</time></trkpt>
      <trkpt lat="39.398078" lon="117.95648"><time>2026-06-20T05:41:50.518Z</time></trkpt>
      <trkpt lat="39.398078" lon="117.95648"><time>2026-06-20T05:41:50.535Z</time></trkpt>
      <trkpt lat="39.398078" lon="117.95648"><time>2026-06-20T05:41:50.551Z</time></trkpt>
      <trkpt lat="39.398076" lon="117.956493"><time>2026-06-20T05:41:50.568Z</time></trkpt>
      <trkpt lat="39.398076" lon="117.956493"><time>2026-06-20T05:41:50.585Z</time></trkpt>
      <trkpt lat="39.398076" lon="117.956493"><time>2026-06-20T05:41:50.602Z</time></trkpt>
      <trkpt lat="39.398076" lon="117.956493"><time>2026-06-20T05:41:50.618Z</time></trkpt>
      <trkpt lat="39.398076" lon="117.956493"><time>2026-06-20T05:41:50.635Z</time></trkpt>
      <trkpt lat="39.398076" lon="117.956493"><time>2026-06-20T05:41:50.652Z</time></trkpt>
      <trkpt lat="39.398073" lon="117.956506"><time>2026-06-20T05:41:50.668Z</time></trkpt>
      <trkpt lat="39.398073" lon="117.956506"><time>2026-06-20T05:41:50.685Z</time></trkpt>
      <trkpt lat="39.398073" lon="117.956506"><time>2026-06-20T05:41:50.702Z</time></trkpt>
      <trkpt lat="39.398073" lon="117.956506"><time>2026-06-20T05:41:50.718Z</time></trkpt>
      <trkpt lat="39.398073" lon="117.956506"><time>2026-06-20T05:41:50.735Z</time></trkpt>
      <trkpt lat="39.398073" lon="117.956506"><time>2026-06-20T05:41:50.752Z</time></trkpt>
      <trkpt lat="39.39807" lon="117.956519"><time>2026-06-20T05:41:50.768Z</time></trkpt>
      <trkpt lat="39.39807" lon="117.956519"><time>2026-06-20T05:41:50.785Z</time></trkpt>
      <trkpt lat="39.39807" lon="117.956519"><time>2026-06-20T05:41:50.802Z</time></trkpt>
      <trkpt lat="39.39807" lon="117.956519"><time>2026-06-20T05:41:50.818Z</time></trkpt>
      <trkpt lat="39.39807" lon="117.956519"><time>2026-06-20T05:41:50.835Z</time></trkpt>
      <trkpt lat="39.39807" lon="117.956519"><time>2026-06-20T05:41:50.852Z</time></trkpt>
      <trkpt lat="39.398067" lon="117.956533"><time>2026-06-20T05:41:50.868Z</time></trkpt>
      <trkpt lat="39.398067" lon="117.956533"><time>2026-06-20T05:41:50.885Z</time></trkpt>
      <trkpt lat="39.398067" lon="117.956533"><time>2026-06-20T05:41:50.902Z</time></trkpt>
      <trkpt lat="39.398067" lon="117.956533"><time>2026-06-20T05:41:50.919Z</time></trkpt>
      <trkpt lat="39.398067" lon="117.956533"><time>2026-06-20T05:41:50.935Z</time></trkpt>
      <trkpt lat="39.398067" lon="117.956533"><time>2026-06-20T05:41:50.952Z</time></trkpt>
      <trkpt lat="39.398064" lon="117.956548"><time>2026-06-20T05:41:50.969Z</time></trkpt>
      <trkpt lat="39.398064" lon="117.956548"><time>2026-06-20T05:41:50.985Z</time></trkpt>
      <trkpt lat="39.398064" lon="117.956548"><time>2026-06-20T05:41:51.002Z</time></trkpt>
      <trkpt lat="39.398064" lon="117.956548"><time>2026-06-20T05:41:51.019Z</time></trkpt>
      <trkpt lat="39.398064" lon="117.956548"><time>2026-06-20T05:41:51.035Z</time></trkpt>
      <trkpt lat="39.398064" lon="117.956548"><time>2026-06-20T05:41:51.052Z</time></trkpt>
      <trkpt lat="39.398061" lon="117.956563"><time>2026-06-20T05:41:51.069Z</time></trkpt>
      <trkpt lat="39.398061" lon="117.956563"><time>2026-06-20T05:41:51.085Z</time></trkpt>
      <trkpt lat="39.398061" lon="117.956563"><time>2026-06-20T05:41:51.102Z</time></trkpt>
      <trkpt lat="39.398061" lon="117.956563"><time>2026-06-20T05:41:51.119Z</time></trkpt>
      <trkpt lat="39.398061" lon="117.956563"><time>2026-06-20T05:41:51.135Z</time></trkpt>
      <trkpt lat="39.398061" lon="117.956563"><time>2026-06-20T05:41:51.152Z</time></trkpt>
      <trkpt lat="39.398057" lon="117.956579"><time>2026-06-20T05:41:51.169Z</time></trkpt>
      <trkpt lat="39.398057" lon="117.956579"><time>2026-06-20T05:41:51.185Z</time></trkpt>
      <trkpt lat="39.398057" lon="117.956579"><time>2026-06-20T05:41:51.202Z</time></trkpt>
      <trkpt lat="39.398057" lon="117.956579"><time>2026-06-20T05:41:51.219Z</time></trkpt>
      <trkpt lat="39.398057" lon="117.956579"><time>2026-06-20T05:41:51.236Z</time></trkpt>
      <trkpt lat="39.398057" lon="117.956579"><time>2026-06-20T05:41:51.252Z</time></trkpt>
      <trkpt lat="39.398054" lon="117.956595"><time>2026-06-20T05:41:51.269Z</time></trkpt>
      <trkpt lat="39.398054" lon="117.956595"><time>2026-06-20T05:41:51.286Z</time></trkpt>
      <trkpt lat="39.398054" lon="117.956595"><time>2026-06-20T05:41:51.302Z</time></trkpt>
      <trkpt lat="39.398054" lon="117.956595"><time>2026-06-20T05:41:51.319Z</time></trkpt>
      <trkpt lat="39.398054" lon="117.956595"><time>2026-06-20T05:41:51.336Z</time></trkpt>
      <trkpt lat="39.398054" lon="117.956595"><time>2026-06-20T05:41:51.352Z</time></trkpt>
      <trkpt lat="39.39805" lon="117.956612"><time>2026-06-20T05:41:51.369Z</time></trkpt>
      <trkpt lat="39.39805" lon="117.956612"><time>2026-06-20T05:41:51.386Z</time></trkpt>
      <trkpt lat="39.39805" lon="117.956612"><time>2026-06-20T05:41:51.402Z</time></trkpt>
      <trkpt lat="39.39805" lon="117.956612"><time>2026-06-20T05:41:51.419Z</time></trkpt>
      <trkpt lat="39.39805" lon="117.956612"><time>2026-06-20T05:41:51.436Z</time></trkpt>
      <trkpt lat="39.39805" lon="117.956612"><time>2026-06-20T05:41:51.452Z</time></trkpt>
      <trkpt lat="39.398046" lon="117.956629"><time>2026-06-20T05:41:51.469Z</time></trkpt>
      <trkpt lat="39.398046" lon="117.956629"><time>2026-06-20T05:41:51.486Z</time></trkpt>
      <trkpt lat="39.398046" lon="117.956629"><time>2026-06-20T05:41:51.502Z</time></trkpt>
      <trkpt lat="39.398046" lon="117.956629"><time>2026-06-20T05:41:51.519Z</time></trkpt>
      <trkpt lat="39.398046" lon="117.956629"><time>2026-06-20T05:41:51.536Z</time></trkpt>
      <trkpt lat="39.398046" lon="117.956629"><time>2026-06-20T05:41:51.553Z</time></trkpt>
      <trkpt lat="39.398042" lon="117.956647"><time>2026-06-20T05:41:51.569Z</time></trkpt>
      <trkpt lat="39.398042" lon="117.956647"><time>2026-06-20T05:41:51.586Z</time></trkpt>
      <trkpt lat="39.398042" lon="117.956647"><time>2026-06-20T05:41:51.603Z</time></trkpt>
      <trkpt lat="39.398042" lon="117.956647"><time>2026-06-20T05:41:51.619Z</time></trkpt>
      <trkpt lat="39.398042" lon="117.956647"><time>2026-06-20T05:41:51.636Z</time></trkpt>
      <trkpt lat="39.398042" lon="117.956647"><time>2026-06-20T05:41:51.653Z</time></trkpt>
      <trkpt lat="39.398038" lon="117.956665"><time>2026-06-20T05:41:51.669Z</time></trkpt>
      <trkpt lat="39.398038" lon="117.956665"><time>2026-06-20T05:41:51.686Z</time></trkpt>
      <trkpt lat="39.398038" lon="117.956665"><time>2026-06-20T05:41:51.703Z</time></trkpt>
      <trkpt lat="39.398038" lon="117.956665"><time>2026-06-20T05:41:51.719Z</time></trkpt>
      <trkpt lat="39.398038" lon="117.956665"><time>2026-06-20T05:41:51.736Z</time></trkpt>
      <trkpt lat="39.398038" lon="117.956665"><time>2026-06-20T05:41:51.753Z</time></trkpt>
      <trkpt lat="39.398033" lon="117.956684"><time>2026-06-20T05:41:51.769Z</time></trkpt>
      <trkpt lat="39.398033" lon="117.956684"><time>2026-06-20T05:41:51.786Z</time></trkpt>
      <trkpt lat="39.398033" lon="117.956684"><time>2026-06-20T05:41:51.803Z</time></trkpt>
      <trkpt lat="39.398033" lon="117.956684"><time>2026-06-20T05:41:51.819Z</time></trkpt>
      <trkpt lat="39.398033" lon="117.956684"><time>2026-06-20T05:41:51.836Z</time></trkpt>
      <trkpt lat="39.398033" lon="117.956684"><time>2026-06-20T05:41:51.853Z</time></trkpt>
      <trkpt lat="39.398029" lon="117.956703"><time>2026-06-20T05:41:51.870Z</time></trkpt>
      <trkpt lat="39.398029" lon="117.956703"><time>2026-06-20T05:41:51.886Z</time></trkpt>
      <trkpt lat="39.398029" lon="117.956703"><time>2026-06-20T05:41:51.903Z</time></trkpt>
      <trkpt lat="39.398029" lon="117.956703"><time>2026-06-20T05:41:51.920Z</time></trkpt>
      <trkpt lat="39.398029" lon="117.956703"><time>2026-06-20T05:41:51.936Z</time></trkpt>
      <trkpt lat="39.398029" lon="117.956703"><time>2026-06-20T05:41:51.953Z</time></trkpt>
      <trkpt lat="39.398035" lon="117.956731"><time>2026-06-20T05:41:51.970Z</time></trkpt>
      <trkpt lat="39.398035" lon="117.956731"><time>2026-06-20T05:41:51.986Z</time></trkpt>
      <trkpt lat="39.398035" lon="117.956731"><time>2026-06-20T05:41:52.003Z</time></trkpt>
      <trkpt lat="39.398035" lon="117.956731"><time>2026-06-20T05:41:52.020Z</time></trkpt>
      <trkpt lat="39.398035" lon="117.956731"><time>2026-06-20T05:41:52.036Z</time></trkpt>
      <trkpt lat="39.398035" lon="117.956731"><time>2026-06-20T05:41:52.053Z</time></trkpt>
      <trkpt lat="39.398031" lon="117.95675"><time>2026-06-20T05:41:52.070Z</time></trkpt>
      <trkpt lat="39.398031" lon="117.95675"><time>2026-06-20T05:41:52.086Z</time></trkpt>
      <trkpt lat="39.398031" lon="117.95675"><time>2026-06-20T05:41:52.103Z</time></trkpt>
      <trkpt lat="39.398031" lon="117.95675"><time>2026-06-20T05:41:52.120Z</time></trkpt>
      <trkpt lat="39.398031" lon="117.95675"><time>2026-06-20T05:41:52.136Z</time></trkpt>
      <trkpt lat="39.398031" lon="117.95675"><time>2026-06-20T05:41:52.153Z</time></trkpt>
      <trkpt lat="39.398026" lon="117.95677"><time>2026-06-20T05:41:52.170Z</time></trkpt>
      <trkpt lat="39.398026" lon="117.95677"><time>2026-06-20T05:41:52.187Z</time></trkpt>
      <trkpt lat="39.398026" lon="117.95677"><time>2026-06-20T05:41:52.203Z</time></trkpt>
      <trkpt lat="39.398026" lon="117.95677"><time>2026-06-20T05:41:52.220Z</time></trkpt>
      <trkpt lat="39.398026" lon="117.95677"><time>2026-06-20T05:41:52.237Z</time></trkpt>
      <trkpt lat="39.398026" lon="117.95677"><time>2026-06-20T05:41:52.253Z</time></trkpt>
      <trkpt lat="39.398022" lon="117.956791"><time>2026-06-20T05:41:52.270Z</time></trkpt>
      <trkpt lat="39.398022" lon="117.956791"><time>2026-06-20T05:41:52.287Z</time></trkpt>
      <trkpt lat="39.398022" lon="117.956791"><time>2026-06-20T05:41:52.303Z</time></trkpt>
      <trkpt lat="39.398022" lon="117.956791"><time>2026-06-20T05:41:52.320Z</time></trkpt>
      <trkpt lat="39.398022" lon="117.956791"><time>2026-06-20T05:41:52.337Z</time></trkpt>
      <trkpt lat="39.398022" lon="117.956791"><time>2026-06-20T05:41:52.353Z</time></trkpt>
      <trkpt lat="39.398018" lon="117.95681"><time>2026-06-20T05:41:52.370Z</time></trkpt>
      <trkpt lat="39.398018" lon="117.95681"><time>2026-06-20T05:41:52.387Z</time></trkpt>
      <trkpt lat="39.398018" lon="117.95681"><time>2026-06-20T05:41:52.403Z</time></trkpt>
      <trkpt lat="39.398018" lon="117.95681"><time>2026-06-20T05:41:52.420Z</time></trkpt>
      <trkpt lat="39.398018" lon="117.95681"><time>2026-06-20T05:41:52.437Z</time></trkpt>
      <trkpt lat="39.398018" lon="117.95681"><time>2026-06-20T05:41:52.453Z</time></trkpt>
      <trkpt lat="39.398013" lon="117.956832"><time>2026-06-20T05:41:52.470Z</time></trkpt>
      <trkpt lat="39.398013" lon="117.956832"><time>2026-06-20T05:41:52.487Z</time></trkpt>
      <trkpt lat="39.398013" lon="117.956832"><time>2026-06-20T05:41:52.504Z</time></trkpt>
      <trkpt lat="39.398013" lon="117.956832"><time>2026-06-20T05:41:52.520Z</time></trkpt>
      <trkpt lat="39.398013" lon="117.956832"><time>2026-06-20T05:41:52.537Z</time></trkpt>
      <trkpt lat="39.398013" lon="117.956832"><time>2026-06-20T05:41:52.554Z</time></trkpt>
      <trkpt lat="39.398009" lon="117.956852"><time>2026-06-20T05:41:52.570Z</time></trkpt>
      <trkpt lat="39.398009" lon="117.956852"><time>2026-06-20T05:41:52.587Z</time></trkpt>
      <trkpt lat="39.398009" lon="117.956852"><time>2026-06-20T05:41:52.604Z</time></trkpt>
      <trkpt lat="39.398009" lon="117.956852"><time>2026-06-20T05:41:52.620Z</time></trkpt>
      <trkpt lat="39.398009" lon="117.956852"><time>2026-06-20T05:41:52.637Z</time></trkpt>
      <trkpt lat="39.398009" lon="117.956852"><time>2026-06-20T05:41:52.654Z</time></trkpt>
      <trkpt lat="39.398004" lon="117.956873"><time>2026-06-20T05:41:52.670Z</time></trkpt>
      <trkpt lat="39.398004" lon="117.956873"><time>2026-06-20T05:41:52.687Z</time></trkpt>
      <trkpt lat="39.398004" lon="117.956873"><time>2026-06-20T05:41:52.704Z</time></trkpt>
      <trkpt lat="39.398004" lon="117.956873"><time>2026-06-20T05:41:52.720Z</time></trkpt>
      <trkpt lat="39.398004" lon="117.956873"><time>2026-06-20T05:41:52.737Z</time></trkpt>
      <trkpt lat="39.398004" lon="117.956873"><time>2026-06-20T05:41:52.754Z</time></trkpt>
      <trkpt lat="39.398" lon="117.956895"><time>2026-06-20T05:41:52.770Z</time></trkpt>
      <trkpt lat="39.398" lon="117.956895"><time>2026-06-20T05:41:52.787Z</time></trkpt>
      <trkpt lat="39.398" lon="117.956895"><time>2026-06-20T05:41:52.804Z</time></trkpt>
      <trkpt lat="39.398" lon="117.956895"><time>2026-06-20T05:41:52.821Z</time></trkpt>
      <trkpt lat="39.398" lon="117.956895"><time>2026-06-20T05:41:52.837Z</time></trkpt>
      <trkpt lat="39.398" lon="117.956895"><time>2026-06-20T05:41:52.854Z</time></trkpt>
      <trkpt lat="39.397995" lon="117.956916"><time>2026-06-20T05:41:52.871Z</time></trkpt>
      <trkpt lat="39.397995" lon="117.956916"><time>2026-06-20T05:41:52.887Z</time></trkpt>
      <trkpt lat="39.397995" lon="117.956916"><time>2026-06-20T05:41:52.904Z</time></trkpt>
      <trkpt lat="39.397995" lon="117.956916"><time>2026-06-20T05:41:52.921Z</time></trkpt>
      <trkpt lat="39.397995" lon="117.956916"><time>2026-06-20T05:41:52.937Z</time></trkpt>
      <trkpt lat="39.397995" lon="117.956916"><time>2026-06-20T05:41:52.954Z</time></trkpt>
      <trkpt lat="39.39799" lon="117.956938"><time>2026-06-20T05:41:52.971Z</time></trkpt>
      <trkpt lat="39.39799" lon="117.956938"><time>2026-06-20T05:41:52.987Z</time></trkpt>
      <trkpt lat="39.39799" lon="117.956938"><time>2026-06-20T05:41:53.004Z</time></trkpt>
      <trkpt lat="39.39799" lon="117.956938"><time>2026-06-20T05:41:53.021Z</time></trkpt>
      <trkpt lat="39.39799" lon="117.956938"><time>2026-06-20T05:41:53.037Z</time></trkpt>
      <trkpt lat="39.39799" lon="117.956938"><time>2026-06-20T05:41:53.054Z</time></trkpt>
      <trkpt lat="39.397986" lon="117.95696"><time>2026-06-20T05:41:53.071Z</time></trkpt>
      <trkpt lat="39.397986" lon="117.95696"><time>2026-06-20T05:41:53.087Z</time></trkpt>
      <trkpt lat="39.397986" lon="117.95696"><time>2026-06-20T05:41:53.104Z</time></trkpt>
      <trkpt lat="39.397986" lon="117.95696"><time>2026-06-20T05:41:53.121Z</time></trkpt>
      <trkpt lat="39.397986" lon="117.95696"><time>2026-06-20T05:41:53.138Z</time></trkpt>
      <trkpt lat="39.397986" lon="117.95696"><time>2026-06-20T05:41:53.154Z</time></trkpt>
      <trkpt lat="39.397981" lon="117.956982"><time>2026-06-20T05:41:53.171Z</time></trkpt>
      <trkpt lat="39.397981" lon="117.956982"><time>2026-06-20T05:41:53.188Z</time></trkpt>
      <trkpt lat="39.397981" lon="117.956982"><time>2026-06-20T05:41:53.204Z</time></trkpt>
      <trkpt lat="39.397981" lon="117.956982"><time>2026-06-20T05:41:53.221Z</time></trkpt>
      <trkpt lat="39.397981" lon="117.956982"><time>2026-06-20T05:41:53.238Z</time></trkpt>
      <trkpt lat="39.397981" lon="117.956982"><time>2026-06-20T05:41:53.254Z</time></trkpt>
      <trkpt lat="39.397976" lon="117.957004"><time>2026-06-20T05:41:53.271Z</time></trkpt>
      <trkpt lat="39.397976" lon="117.957004"><time>2026-06-20T05:41:53.288Z</time></trkpt>
      <trkpt lat="39.397976" lon="117.957004"><time>2026-06-20T05:41:53.304Z</time></trkpt>
      <trkpt lat="39.397976" lon="117.957004"><time>2026-06-20T05:41:53.321Z</time></trkpt>
      <trkpt lat="39.397976" lon="117.957004"><time>2026-06-20T05:41:53.338Z</time></trkpt>
      <trkpt lat="39.397976" lon="117.957004"><time>2026-06-20T05:41:53.354Z</time></trkpt>
      <trkpt lat="39.397971" lon="117.957026"><time>2026-06-20T05:41:53.371Z</time></trkpt>
      <trkpt lat="39.397971" lon="117.957026"><time>2026-06-20T05:41:53.388Z</time></trkpt>
      <trkpt lat="39.397971" lon="117.957026"><time>2026-06-20T05:41:53.404Z</time></trkpt>
      <trkpt lat="39.397971" lon="117.957026"><time>2026-06-20T05:41:53.421Z</time></trkpt>
      <trkpt lat="39.397971" lon="117.957026"><time>2026-06-20T05:41:53.438Z</time></trkpt>
      <trkpt lat="39.397971" lon="117.957026"><time>2026-06-20T05:41:53.455Z</time></trkpt>
      <trkpt lat="39.397966" lon="117.957048"><time>2026-06-20T05:41:53.471Z</time></trkpt>
      <trkpt lat="39.397966" lon="117.957048"><time>2026-06-20T05:41:53.488Z</time></trkpt>
      <trkpt lat="39.397966" lon="117.957048"><time>2026-06-20T05:41:53.505Z</time></trkpt>
      <trkpt lat="39.397966" lon="117.957048"><time>2026-06-20T05:41:53.521Z</time></trkpt>
      <trkpt lat="39.397966" lon="117.957048"><time>2026-06-20T05:41:53.538Z</time></trkpt>
      <trkpt lat="39.397966" lon="117.957048"><time>2026-06-20T05:41:53.555Z</time></trkpt>
      <trkpt lat="39.397961" lon="117.957071"><time>2026-06-20T05:41:53.571Z</time></trkpt>
      <trkpt lat="39.397961" lon="117.957071"><time>2026-06-20T05:41:53.588Z</time></trkpt>
      <trkpt lat="39.397961" lon="117.957071"><time>2026-06-20T05:41:53.605Z</time></trkpt>
      <trkpt lat="39.397961" lon="117.957071"><time>2026-06-20T05:41:53.621Z</time></trkpt>
      <trkpt lat="39.397961" lon="117.957071"><time>2026-06-20T05:41:53.638Z</time></trkpt>
      <trkpt lat="39.397961" lon="117.957071"><time>2026-06-20T05:41:53.655Z</time></trkpt>
      <trkpt lat="39.397956" lon="117.957094"><time>2026-06-20T05:41:53.671Z</time></trkpt>
      <trkpt lat="39.397956" lon="117.957094"><time>2026-06-20T05:41:53.688Z</time></trkpt>
      <trkpt lat="39.397956" lon="117.957094"><time>2026-06-20T05:41:53.705Z</time></trkpt>
      <trkpt lat="39.397956" lon="117.957094"><time>2026-06-20T05:41:53.721Z</time></trkpt>
      <trkpt lat="39.397956" lon="117.957094"><time>2026-06-20T05:41:53.738Z</time></trkpt>
      <trkpt lat="39.397956" lon="117.957094"><time>2026-06-20T05:41:53.755Z</time></trkpt>
      <trkpt lat="39.397951" lon="117.957117"><time>2026-06-20T05:41:53.772Z</time></trkpt>
      <trkpt lat="39.397951" lon="117.957117"><time>2026-06-20T05:41:53.788Z</time></trkpt>
      <trkpt lat="39.397951" lon="117.957117"><time>2026-06-20T05:41:53.805Z</time></trkpt>
      <trkpt lat="39.397951" lon="117.957117"><time>2026-06-20T05:41:53.822Z</time></trkpt>
      <trkpt lat="39.397951" lon="117.957117"><time>2026-06-20T05:41:53.838Z</time></trkpt>
      <trkpt lat="39.397951" lon="117.957117"><time>2026-06-20T05:41:53.855Z</time></trkpt>
      <trkpt lat="39.397946" lon="117.95714"><time>2026-06-20T05:41:53.872Z</time></trkpt>
      <trkpt lat="39.397946" lon="117.95714"><time>2026-06-20T05:41:53.888Z</time></trkpt>
      <trkpt lat="39.397946" lon="117.95714"><time>2026-06-20T05:41:53.905Z</time></trkpt>
      <trkpt lat="39.397946" lon="117.95714"><time>2026-06-20T05:41:53.922Z</time></trkpt>
      <trkpt lat="39.397946" lon="117.95714"><time>2026-06-20T05:41:53.938Z</time></trkpt>
      <trkpt lat="39.397946" lon="117.95714"><time>2026-06-20T05:41:53.955Z</time></trkpt>
      <trkpt lat="39.397941" lon="117.957163"><time>2026-06-20T05:41:53.972Z</time></trkpt>
      <trkpt lat="39.397941" lon="117.957163"><time>2026-06-20T05:41:53.988Z</time></trkpt>
      <trkpt lat="39.397941" lon="117.957163"><time>2026-06-20T05:41:54.005Z</time></trkpt>
      <trkpt lat="39.397941" lon="117.957163"><time>2026-06-20T05:41:54.022Z</time></trkpt>
      <trkpt lat="39.397941" lon="117.957163"><time>2026-06-20T05:41:54.038Z</time></trkpt>
      <trkpt lat="39.397941" lon="117.957163"><time>2026-06-20T05:41:54.055Z</time></trkpt>
      <trkpt lat="39.397935" lon="117.957189"><time>2026-06-20T05:41:54.072Z</time></trkpt>
      <trkpt lat="39.397935" lon="117.957189"><time>2026-06-20T05:41:54.089Z</time></trkpt>
      <trkpt lat="39.397935" lon="117.957189"><time>2026-06-20T05:41:54.105Z</time></trkpt>
      <trkpt lat="39.397935" lon="117.957189"><time>2026-06-20T05:41:54.122Z</time></trkpt>
      <trkpt lat="39.397935" lon="117.957189"><time>2026-06-20T05:41:54.139Z</time></trkpt>
      <trkpt lat="39.397935" lon="117.957189"><time>2026-06-20T05:41:54.155Z</time></trkpt>
      <trkpt lat="39.39793" lon="117.957212"><time>2026-06-20T05:41:54.172Z</time></trkpt>
      <trkpt lat="39.39793" lon="117.957212"><time>2026-06-20T05:41:54.189Z</time></trkpt>
      <trkpt lat="39.39793" lon="117.957212"><time>2026-06-20T05:41:54.205Z</time></trkpt>
      <trkpt lat="39.39793" lon="117.957212"><time>2026-06-20T05:41:54.222Z</time></trkpt>
      <trkpt lat="39.39793" lon="117.957212"><time>2026-06-20T05:41:54.239Z</time></trkpt>
      <trkpt lat="39.39793" lon="117.957212"><time>2026-06-20T05:41:54.255Z</time></trkpt>
      <trkpt lat="39.397925" lon="117.957236"><time>2026-06-20T05:41:54.272Z</time></trkpt>
      <trkpt lat="39.397925" lon="117.957236"><time>2026-06-20T05:41:54.289Z</time></trkpt>
      <trkpt lat="39.397925" lon="117.957236"><time>2026-06-20T05:41:54.305Z</time></trkpt>
      <trkpt lat="39.397925" lon="117.957236"><time>2026-06-20T05:41:54.322Z</time></trkpt>
      <trkpt lat="39.397925" lon="117.957236"><time>2026-06-20T05:41:54.339Z</time></trkpt>
      <trkpt lat="39.397925" lon="117.957236"><time>2026-06-20T05:41:54.355Z</time></trkpt>
      <trkpt lat="39.397919" lon="117.957259"><time>2026-06-20T05:41:54.372Z</time></trkpt>
      <trkpt lat="39.397919" lon="117.957259"><time>2026-06-20T05:41:54.389Z</time></trkpt>
      <trkpt lat="39.397919" lon="117.957259"><time>2026-06-20T05:41:54.406Z</time></trkpt>
      <trkpt lat="39.397919" lon="117.957259"><time>2026-06-20T05:41:54.422Z</time></trkpt>
      <trkpt lat="39.397919" lon="117.957259"><time>2026-06-20T05:41:54.439Z</time></trkpt>
      <trkpt lat="39.397919" lon="117.957259"><time>2026-06-20T05:41:54.456Z</time></trkpt>
      <trkpt lat="39.397914" lon="117.957283"><time>2026-06-20T05:41:54.472Z</time></trkpt>
      <trkpt lat="39.397914" lon="117.957283"><time>2026-06-20T05:41:54.489Z</time></trkpt>
      <trkpt lat="39.397914" lon="117.957283"><time>2026-06-20T05:41:54.506Z</time></trkpt>
      <trkpt lat="39.397914" lon="117.957283"><time>2026-06-20T05:41:54.522Z</time></trkpt>
      <trkpt lat="39.397914" lon="117.957283"><time>2026-06-20T05:41:54.539Z</time></trkpt>
      <trkpt lat="39.397914" lon="117.957283"><time>2026-06-20T05:41:54.556Z</time></trkpt>
      <trkpt lat="39.397909" lon="117.957307"><time>2026-06-20T05:41:54.572Z</time></trkpt>
      <trkpt lat="39.397909" lon="117.957307"><time>2026-06-20T05:41:54.589Z</time></trkpt>
      <trkpt lat="39.397909" lon="117.957307"><time>2026-06-20T05:41:54.606Z</time></trkpt>
      <trkpt lat="39.397909" lon="117.957307"><time>2026-06-20T05:41:54.622Z</time></trkpt>
      <trkpt lat="39.397909" lon="117.957307"><time>2026-06-20T05:41:54.639Z</time></trkpt>
      <trkpt lat="39.397904" lon="117.957331"><time>2026-06-20T05:41:54.656Z</time></trkpt>
      <trkpt lat="39.397904" lon="117.957331"><time>2026-06-20T05:41:54.672Z</time></trkpt>
      <trkpt lat="39.397904" lon="117.957331"><time>2026-06-20T05:41:54.689Z</time></trkpt>
      <trkpt lat="39.397904" lon="117.957331"><time>2026-06-20T05:41:54.706Z</time></trkpt>
      <trkpt lat="39.397904" lon="117.957331"><time>2026-06-20T05:41:54.723Z</time></trkpt>
      <trkpt lat="39.397904" lon="117.957331"><time>2026-06-20T05:41:54.739Z</time></trkpt>
      <trkpt lat="39.397899" lon="117.957356"><time>2026-06-20T05:41:54.756Z</time></trkpt>
      <trkpt lat="39.397899" lon="117.957356"><time>2026-06-20T05:41:54.773Z</time></trkpt>
      <trkpt lat="39.397899" lon="117.957356"><time>2026-06-20T05:41:54.789Z</time></trkpt>
      <trkpt lat="39.397899" lon="117.957356"><time>2026-06-20T05:41:54.806Z</time></trkpt>
      <trkpt lat="39.397899" lon="117.957356"><time>2026-06-20T05:41:54.823Z</time></trkpt>
      <trkpt lat="39.397899" lon="117.957356"><time>2026-06-20T05:41:54.839Z</time></trkpt>
      <trkpt lat="39.397894" lon="117.95738"><time>2026-06-20T05:41:54.856Z</time></trkpt>
      <trkpt lat="39.397894" lon="117.95738"><time>2026-06-20T05:41:54.873Z</time></trkpt>
      <trkpt lat="39.397894" lon="117.95738"><time>2026-06-20T05:41:54.889Z</time></trkpt>
      <trkpt lat="39.397894" lon="117.95738"><time>2026-06-20T05:41:54.906Z</time></trkpt>
      <trkpt lat="39.397894" lon="117.95738"><time>2026-06-20T05:41:54.923Z</time></trkpt>
      <trkpt lat="39.397894" lon="117.95738"><time>2026-06-20T05:41:54.939Z</time></trkpt>
      <trkpt lat="39.397889" lon="117.957404"><time>2026-06-20T05:41:54.956Z</time></trkpt>
      <trkpt lat="39.397889" lon="117.957404"><time>2026-06-20T05:41:54.973Z</time></trkpt>
      <trkpt lat="39.397889" lon="117.957404"><time>2026-06-20T05:41:54.989Z</time></trkpt>
      <trkpt lat="39.397889" lon="117.957404"><time>2026-06-20T05:41:55.006Z</time></trkpt>
      <trkpt lat="39.397889" lon="117.957404"><time>2026-06-20T05:41:55.023Z</time></trkpt>
      <trkpt lat="39.397889" lon="117.957404"><time>2026-06-20T05:41:55.040Z</time></trkpt>
      <trkpt lat="39.397883" lon="117.957429"><time>2026-06-20T05:41:55.056Z</time></trkpt>
      <trkpt lat="39.397883" lon="117.957429"><time>2026-06-20T05:41:55.073Z</time></trkpt>
      <trkpt lat="39.397883" lon="117.957429"><time>2026-06-20T05:41:55.090Z</time></trkpt>
      <trkpt lat="39.397883" lon="117.957429"><time>2026-06-20T05:41:55.106Z</time></trkpt>
      <trkpt lat="39.397883" lon="117.957429"><time>2026-06-20T05:41:55.123Z</time></trkpt>
      <trkpt lat="39.397883" lon="117.957429"><time>2026-06-20T05:41:55.140Z</time></trkpt>
      <trkpt lat="39.397878" lon="117.957454"><time>2026-06-20T05:41:55.156Z</time></trkpt>
      <trkpt lat="39.397878" lon="117.957454"><time>2026-06-20T05:41:55.173Z</time></trkpt>
      <trkpt lat="39.397878" lon="117.957454"><time>2026-06-20T05:41:55.190Z</time></trkpt>
      <trkpt lat="39.397878" lon="117.957454"><time>2026-06-20T05:41:55.206Z</time></trkpt>
      <trkpt lat="39.397878" lon="117.957454"><time>2026-06-20T05:41:55.223Z</time></trkpt>
      <trkpt lat="39.397878" lon="117.957454"><time>2026-06-20T05:41:55.240Z</time></trkpt>
      <trkpt lat="39.397873" lon="117.957477"><time>2026-06-20T05:41:55.256Z</time></trkpt>
      <trkpt lat="39.397873" lon="117.957477"><time>2026-06-20T05:41:55.273Z</time></trkpt>
      <trkpt lat="39.397873" lon="117.957477"><time>2026-06-20T05:41:55.290Z</time></trkpt>
      <trkpt lat="39.397873" lon="117.957477"><time>2026-06-20T05:41:55.306Z</time></trkpt>
      <trkpt lat="39.397873" lon="117.957477"><time>2026-06-20T05:41:55.323Z</time></trkpt>
      <trkpt lat="39.397873" lon="117.957477"><time>2026-06-20T05:41:55.340Z</time></trkpt>
      <trkpt lat="39.397868" lon="117.957503"><time>2026-06-20T05:41:55.357Z</time></trkpt>
      <trkpt lat="39.397868" lon="117.957503"><time>2026-06-20T05:41:55.373Z</time></trkpt>
      <trkpt lat="39.397868" lon="117.957503"><time>2026-06-20T05:41:55.390Z</time></trkpt>
      <trkpt lat="39.397868" lon="117.957503"><time>2026-06-20T05:41:55.407Z</time></trkpt>
      <trkpt lat="39.397868" lon="117.957503"><time>2026-06-20T05:41:55.423Z</time></trkpt>
      <trkpt lat="39.397868" lon="117.957503"><time>2026-06-20T05:41:55.440Z</time></trkpt>
      <trkpt lat="39.397862" lon="117.957528"><time>2026-06-20T05:41:55.457Z</time></trkpt>
      <trkpt lat="39.397862" lon="117.957528"><time>2026-06-20T05:41:55.473Z</time></trkpt>
      <trkpt lat="39.397862" lon="117.957528"><time>2026-06-20T05:41:55.490Z</time></trkpt>
      <trkpt lat="39.397862" lon="117.957528"><time>2026-06-20T05:41:55.507Z</time></trkpt>
      <trkpt lat="39.397862" lon="117.957528"><time>2026-06-20T05:41:55.523Z</time></trkpt>
      <trkpt lat="39.397862" lon="117.957528"><time>2026-06-20T05:41:55.540Z</time></trkpt>
      <trkpt lat="39.397857" lon="117.957553"><time>2026-06-20T05:41:55.557Z</time></trkpt>
      <trkpt lat="39.397857" lon="117.957553"><time>2026-06-20T05:41:55.573Z</time></trkpt>
      <trkpt lat="39.397857" lon="117.957553"><time>2026-06-20T05:41:55.590Z</time></trkpt>
      <trkpt lat="39.397857" lon="117.957553"><time>2026-06-20T05:41:55.607Z</time></trkpt>
      <trkpt lat="39.397857" lon="117.957553"><time>2026-06-20T05:41:55.623Z</time></trkpt>
      <trkpt lat="39.397857" lon="117.957553"><time>2026-06-20T05:41:55.640Z</time></trkpt>
      <trkpt lat="39.397851" lon="117.957578"><time>2026-06-20T05:41:55.657Z</time></trkpt>
      <trkpt lat="39.397851" lon="117.957578"><time>2026-06-20T05:41:55.674Z</time></trkpt>
      <trkpt lat="39.397851" lon="117.957578"><time>2026-06-20T05:41:55.690Z</time></trkpt>
      <trkpt lat="39.397851" lon="117.957578"><time>2026-06-20T05:41:55.707Z</time></trkpt>
      <trkpt lat="39.397851" lon="117.957578"><time>2026-06-20T05:41:55.724Z</time></trkpt>
      <trkpt lat="39.397851" lon="117.957578"><time>2026-06-20T05:41:55.740Z</time></trkpt>
      <trkpt lat="39.397846" lon="117.957603"><time>2026-06-20T05:41:55.757Z</time></trkpt>
      <trkpt lat="39.397846" lon="117.957603"><time>2026-06-20T05:41:55.774Z</time></trkpt>
      <trkpt lat="39.397846" lon="117.957603"><time>2026-06-20T05:41:55.790Z</time></trkpt>
      <trkpt lat="39.397846" lon="117.957603"><time>2026-06-20T05:41:55.807Z</time></trkpt>
      <trkpt lat="39.397846" lon="117.957603"><time>2026-06-20T05:41:55.824Z</time></trkpt>
      <trkpt lat="39.397846" lon="117.957603"><time>2026-06-20T05:41:55.840Z</time></trkpt>
      <trkpt lat="39.39784" lon="117.957628"><time>2026-06-20T05:41:55.857Z</time></trkpt>
      <trkpt lat="39.39784" lon="117.957628"><time>2026-06-20T05:41:55.874Z</time></trkpt>
      <trkpt lat="39.39784" lon="117.957628"><time>2026-06-20T05:41:55.890Z</time></trkpt>
      <trkpt lat="39.39784" lon="117.957628"><time>2026-06-20T05:41:55.907Z</time></trkpt>
      <trkpt lat="39.39784" lon="117.957628"><time>2026-06-20T05:41:55.924Z</time></trkpt>
      <trkpt lat="39.39784" lon="117.957628"><time>2026-06-20T05:41:55.940Z</time></trkpt>
      <trkpt lat="39.397834" lon="117.957654"><time>2026-06-20T05:41:55.957Z</time></trkpt>
      <trkpt lat="39.397834" lon="117.957654"><time>2026-06-20T05:41:55.974Z</time></trkpt>
      <trkpt lat="39.397834" lon="117.957654"><time>2026-06-20T05:41:55.990Z</time></trkpt>
      <trkpt lat="39.397834" lon="117.957654"><time>2026-06-20T05:41:56.007Z</time></trkpt>
      <trkpt lat="39.397834" lon="117.957654"><time>2026-06-20T05:41:56.024Z</time></trkpt>
      <trkpt lat="39.397834" lon="117.957654"><time>2026-06-20T05:41:56.041Z</time></trkpt>
      <trkpt lat="39.397829" lon="117.957679"><time>2026-06-20T05:41:56.057Z</time></trkpt>
      <trkpt lat="39.397829" lon="117.957679"><time>2026-06-20T05:41:56.074Z</time></trkpt>
      <trkpt lat="39.397829" lon="117.957679"><time>2026-06-20T05:41:56.091Z</time></trkpt>
      <trkpt lat="39.397829" lon="117.957679"><time>2026-06-20T05:41:56.107Z</time></trkpt>
      <trkpt lat="39.397829" lon="117.957679"><time>2026-06-20T05:41:56.124Z</time></trkpt>
      <trkpt lat="39.397829" lon="117.957679"><time>2026-06-20T05:41:56.141Z</time></trkpt>
      <trkpt lat="39.397823" lon="117.957704"><time>2026-06-20T05:41:56.157Z</time></trkpt>
      <trkpt lat="39.397823" lon="117.957704"><time>2026-06-20T05:41:56.174Z</time></trkpt>
      <trkpt lat="39.397823" lon="117.957704"><time>2026-06-20T05:41:56.191Z</time></trkpt>
      <trkpt lat="39.397823" lon="117.957704"><time>2026-06-20T05:41:56.207Z</time></trkpt>
      <trkpt lat="39.397823" lon="117.957704"><time>2026-06-20T05:41:56.224Z</time></trkpt>
      <trkpt lat="39.397823" lon="117.957704"><time>2026-06-20T05:41:56.241Z</time></trkpt>
      <trkpt lat="39.397833" lon="117.957734"><time>2026-06-20T05:41:56.257Z</time></trkpt>
      <trkpt lat="39.397833" lon="117.957734"><time>2026-06-20T05:41:56.274Z</time></trkpt>
      <trkpt lat="39.397833" lon="117.957734"><time>2026-06-20T05:41:56.291Z</time></trkpt>
      <trkpt lat="39.397833" lon="117.957734"><time>2026-06-20T05:41:56.307Z</time></trkpt>
      <trkpt lat="39.397833" lon="117.957734"><time>2026-06-20T05:41:56.324Z</time></trkpt>
      <trkpt lat="39.397833" lon="117.957734"><time>2026-06-20T05:41:56.341Z</time></trkpt>
      <trkpt lat="39.397827" lon="117.957759"><time>2026-06-20T05:41:56.358Z</time></trkpt>
      <trkpt lat="39.397827" lon="117.957759"><time>2026-06-20T05:41:56.374Z</time></trkpt>
      <trkpt lat="39.397827" lon="117.957759"><time>2026-06-20T05:41:56.391Z</time></trkpt>
      <trkpt lat="39.397827" lon="117.957759"><time>2026-06-20T05:41:56.408Z</time></trkpt>
      <trkpt lat="39.397827" lon="117.957759"><time>2026-06-20T05:41:56.424Z</time></trkpt>
      <trkpt lat="39.397827" lon="117.957759"><time>2026-06-20T05:41:56.441Z</time></trkpt>
      <trkpt lat="39.397822" lon="117.957784"><time>2026-06-20T05:41:56.458Z</time></trkpt>
      <trkpt lat="39.397822" lon="117.957784"><time>2026-06-20T05:41:56.474Z</time></trkpt>
      <trkpt lat="39.397822" lon="117.957784"><time>2026-06-20T05:41:56.491Z</time></trkpt>
      <trkpt lat="39.397822" lon="117.957784"><time>2026-06-20T05:41:56.508Z</time></trkpt>
      <trkpt lat="39.397822" lon="117.957784"><time>2026-06-20T05:41:56.524Z</time></trkpt>
      <trkpt lat="39.397822" lon="117.957784"><time>2026-06-20T05:41:56.541Z</time></trkpt>
      <trkpt lat="39.397816" lon="117.95781"><time>2026-06-20T05:41:56.558Z</time></trkpt>
      <trkpt lat="39.397816" lon="117.95781"><time>2026-06-20T05:41:56.574Z</time></trkpt>
      <trkpt lat="39.397816" lon="117.95781"><time>2026-06-20T05:41:56.591Z</time></trkpt>
      <trkpt lat="39.397816" lon="117.95781"><time>2026-06-20T05:41:56.608Z</time></trkpt>
      <trkpt lat="39.397816" lon="117.95781"><time>2026-06-20T05:41:56.624Z</time></trkpt>
      <trkpt lat="39.397816" lon="117.95781"><time>2026-06-20T05:41:56.641Z</time></trkpt>
      <trkpt lat="39.397811" lon="117.957836"><time>2026-06-20T05:41:56.658Z</time></trkpt>
      <trkpt lat="39.397811" lon="117.957836"><time>2026-06-20T05:41:56.675Z</time></trkpt>
      <trkpt lat="39.397811" lon="117.957836"><time>2026-06-20T05:41:56.691Z</time></trkpt>
      <trkpt lat="39.397811" lon="117.957836"><time>2026-06-20T05:41:56.708Z</time></trkpt>
      <trkpt lat="39.397811" lon="117.957836"><time>2026-06-20T05:41:56.725Z</time></trkpt>
      <trkpt lat="39.397811" lon="117.957836"><time>2026-06-20T05:41:56.741Z</time></trkpt>
      <trkpt lat="39.397806" lon="117.957862"><time>2026-06-20T05:41:56.758Z</time></trkpt>
      <trkpt lat="39.397806" lon="117.957862"><time>2026-06-20T05:41:56.775Z</time></trkpt>
      <trkpt lat="39.397806" lon="117.957862"><time>2026-06-20T05:41:56.791Z</time></trkpt>
      <trkpt lat="39.397806" lon="117.957862"><time>2026-06-20T05:41:56.808Z</time></trkpt>
      <trkpt lat="39.397806" lon="117.957862"><time>2026-06-20T05:41:56.825Z</time></trkpt>
      <trkpt lat="39.397806" lon="117.957862"><time>2026-06-20T05:41:56.841Z</time></trkpt>
      <trkpt lat="39.397801" lon="117.957887"><time>2026-06-20T05:41:56.858Z</time></trkpt>
      <trkpt lat="39.397801" lon="117.957887"><time>2026-06-20T05:41:56.875Z</time></trkpt>
      <trkpt lat="39.397801" lon="117.957887"><time>2026-06-20T05:41:56.891Z</time></trkpt>
      <trkpt lat="39.397801" lon="117.957887"><time>2026-06-20T05:41:56.908Z</time></trkpt>
      <trkpt lat="39.397801" lon="117.957887"><time>2026-06-20T05:41:56.925Z</time></trkpt>
      <trkpt lat="39.397801" lon="117.957887"><time>2026-06-20T05:41:56.941Z</time></trkpt>
      <trkpt lat="39.397795" lon="117.957914"><time>2026-06-20T05:41:56.958Z</time></trkpt>
      <trkpt lat="39.397795" lon="117.957914"><time>2026-06-20T05:41:56.975Z</time></trkpt>
      <trkpt lat="39.397795" lon="117.957914"><time>2026-06-20T05:41:56.992Z</time></trkpt>
      <trkpt lat="39.397795" lon="117.957914"><time>2026-06-20T05:41:57.008Z</time></trkpt>
      <trkpt lat="39.397795" lon="117.957914"><time>2026-06-20T05:41:57.025Z</time></trkpt>
      <trkpt lat="39.397795" lon="117.957914"><time>2026-06-20T05:41:57.042Z</time></trkpt>
      <trkpt lat="39.39779" lon="117.957939"><time>2026-06-20T05:41:57.058Z</time></trkpt>
      <trkpt lat="39.39779" lon="117.957939"><time>2026-06-20T05:41:57.075Z</time></trkpt>
      <trkpt lat="39.39779" lon="117.957939"><time>2026-06-20T05:41:57.092Z</time></trkpt>
      <trkpt lat="39.39779" lon="117.957939"><time>2026-06-20T05:41:57.108Z</time></trkpt>
      <trkpt lat="39.39779" lon="117.957939"><time>2026-06-20T05:41:57.125Z</time></trkpt>
      <trkpt lat="39.39779" lon="117.957939"><time>2026-06-20T05:41:57.142Z</time></trkpt>
      <trkpt lat="39.397784" lon="117.957966"><time>2026-06-20T05:41:57.158Z</time></trkpt>
      <trkpt lat="39.397784" lon="117.957966"><time>2026-06-20T05:41:57.175Z</time></trkpt>
      <trkpt lat="39.397784" lon="117.957966"><time>2026-06-20T05:41:57.192Z</time></trkpt>
      <trkpt lat="39.397784" lon="117.957966"><time>2026-06-20T05:41:57.208Z</time></trkpt>
      <trkpt lat="39.397784" lon="117.957966"><time>2026-06-20T05:41:57.225Z</time></trkpt>
      <trkpt lat="39.397784" lon="117.957966"><time>2026-06-20T05:41:57.242Z</time></trkpt>
      <trkpt lat="39.397779" lon="117.957992"><time>2026-06-20T05:41:57.258Z</time></trkpt>
      <trkpt lat="39.397779" lon="117.957992"><time>2026-06-20T05:41:57.275Z</time></trkpt>
      <trkpt lat="39.397779" lon="117.957992"><time>2026-06-20T05:41:57.292Z</time></trkpt>
      <trkpt lat="39.397779" lon="117.957992"><time>2026-06-20T05:41:57.309Z</time></trkpt>
      <trkpt lat="39.397779" lon="117.957992"><time>2026-06-20T05:41:57.325Z</time></trkpt>
      <trkpt lat="39.397779" lon="117.957992"><time>2026-06-20T05:41:57.342Z</time></trkpt>
      <trkpt lat="39.397773" lon="117.958018"><time>2026-06-20T05:41:57.359Z</time></trkpt>
      <trkpt lat="39.397773" lon="117.958018"><time>2026-06-20T05:41:57.375Z</time></trkpt>
      <trkpt lat="39.397773" lon="117.958018"><time>2026-06-20T05:41:57.392Z</time></trkpt>
      <trkpt lat="39.397773" lon="117.958018"><time>2026-06-20T05:41:57.409Z</time></trkpt>
      <trkpt lat="39.397773" lon="117.958018"><time>2026-06-20T05:41:57.425Z</time></trkpt>
      <trkpt lat="39.397773" lon="117.958018"><time>2026-06-20T05:41:57.442Z</time></trkpt>
      <trkpt lat="39.397768" lon="117.958044"><time>2026-06-20T05:41:57.459Z</time></trkpt>
      <trkpt lat="39.397768" lon="117.958044"><time>2026-06-20T05:41:57.475Z</time></trkpt>
      <trkpt lat="39.397768" lon="117.958044"><time>2026-06-20T05:41:57.492Z</time></trkpt>
      <trkpt lat="39.397768" lon="117.958044"><time>2026-06-20T05:41:57.509Z</time></trkpt>
      <trkpt lat="39.397768" lon="117.958044"><time>2026-06-20T05:41:57.525Z</time></trkpt>
      <trkpt lat="39.397768" lon="117.958044"><time>2026-06-20T05:41:57.542Z</time></trkpt>
      <trkpt lat="39.397762" lon="117.95807"><time>2026-06-20T05:41:57.559Z</time></trkpt>
      <trkpt lat="39.397762" lon="117.95807"><time>2026-06-20T05:41:57.575Z</time></trkpt>
      <trkpt lat="39.397762" lon="117.95807"><time>2026-06-20T05:41:57.592Z</time></trkpt>
      <trkpt lat="39.397762" lon="117.95807"><time>2026-06-20T05:41:57.609Z</time></trkpt>
      <trkpt lat="39.397762" lon="117.95807"><time>2026-06-20T05:41:57.626Z</time></trkpt>
      <trkpt lat="39.397762" lon="117.95807"><time>2026-06-20T05:41:57.642Z</time></trkpt>
      <trkpt lat="39.397757" lon="117.958096"><time>2026-06-20T05:41:57.659Z</time></trkpt>
      <trkpt lat="39.397757" lon="117.958096"><time>2026-06-20T05:41:57.676Z</time></trkpt>
      <trkpt lat="39.397757" lon="117.958096"><time>2026-06-20T05:41:57.692Z</time></trkpt>
      <trkpt lat="39.397757" lon="117.958096"><time>2026-06-20T05:41:57.709Z</time></trkpt>
      <trkpt lat="39.397757" lon="117.958096"><time>2026-06-20T05:41:57.726Z</time></trkpt>
      <trkpt lat="39.397757" lon="117.958096"><time>2026-06-20T05:41:57.742Z</time></trkpt>
      <trkpt lat="39.397751" lon="117.958122"><time>2026-06-20T05:41:57.759Z</time></trkpt>
      <trkpt lat="39.397751" lon="117.958122"><time>2026-06-20T05:41:57.776Z</time></trkpt>
      <trkpt lat="39.397751" lon="117.958122"><time>2026-06-20T05:41:57.792Z</time></trkpt>
      <trkpt lat="39.397751" lon="117.958122"><time>2026-06-20T05:41:57.809Z</time></trkpt>
      <trkpt lat="39.397751" lon="117.958122"><time>2026-06-20T05:41:57.826Z</time></trkpt>
      <trkpt lat="39.397751" lon="117.958122"><time>2026-06-20T05:41:57.842Z</time></trkpt>
      <trkpt lat="39.397745" lon="117.958148"><time>2026-06-20T05:41:57.859Z</time></trkpt>
      <trkpt lat="39.397745" lon="117.958148"><time>2026-06-20T05:41:57.876Z</time></trkpt>
      <trkpt lat="39.397745" lon="117.958148"><time>2026-06-20T05:41:57.892Z</time></trkpt>
      <trkpt lat="39.397745" lon="117.958148"><time>2026-06-20T05:41:57.909Z</time></trkpt>
      <trkpt lat="39.397745" lon="117.958148"><time>2026-06-20T05:41:57.926Z</time></trkpt>
      <trkpt lat="39.397745" lon="117.958148"><time>2026-06-20T05:41:57.943Z</time></trkpt>
      <trkpt lat="39.39774" lon="117.958174"><time>2026-06-20T05:41:57.959Z</time></trkpt>
      <trkpt lat="39.39774" lon="117.958174"><time>2026-06-20T05:41:57.976Z</time></trkpt>
      <trkpt lat="39.39774" lon="117.958174"><time>2026-06-20T05:41:57.993Z</time></trkpt>
      <trkpt lat="39.39774" lon="117.958174"><time>2026-06-20T05:41:58.009Z</time></trkpt>
      <trkpt lat="39.39774" lon="117.958174"><time>2026-06-20T05:41:58.026Z</time></trkpt>
      <trkpt lat="39.39774" lon="117.958174"><time>2026-06-20T05:41:58.043Z</time></trkpt>
      <trkpt lat="39.397734" lon="117.9582"><time>2026-06-20T05:41:58.059Z</time></trkpt>
      <trkpt lat="39.397734" lon="117.9582"><time>2026-06-20T05:41:58.076Z</time></trkpt>
      <trkpt lat="39.397734" lon="117.9582"><time>2026-06-20T05:41:58.093Z</time></trkpt>
      <trkpt lat="39.397734" lon="117.9582"><time>2026-06-20T05:41:58.109Z</time></trkpt>
      <trkpt lat="39.397734" lon="117.9582"><time>2026-06-20T05:41:58.126Z</time></trkpt>
      <trkpt lat="39.397734" lon="117.9582"><time>2026-06-20T05:41:58.143Z</time></trkpt>
      <trkpt lat="39.397729" lon="117.958225"><time>2026-06-20T05:41:58.159Z</time></trkpt>
      <trkpt lat="39.397729" lon="117.958225"><time>2026-06-20T05:41:58.176Z</time></trkpt>
      <trkpt lat="39.397729" lon="117.958225"><time>2026-06-20T05:41:58.193Z</time></trkpt>
      <trkpt lat="39.397729" lon="117.958225"><time>2026-06-20T05:41:58.209Z</time></trkpt>
      <trkpt lat="39.397729" lon="117.958225"><time>2026-06-20T05:41:58.226Z</time></trkpt>
      <trkpt lat="39.397729" lon="117.958225"><time>2026-06-20T05:41:58.243Z</time></trkpt>
      <trkpt lat="39.397723" lon="117.958253"><time>2026-06-20T05:41:58.260Z</time></trkpt>
      <trkpt lat="39.397723" lon="117.958253"><time>2026-06-20T05:41:58.276Z</time></trkpt>
      <trkpt lat="39.397723" lon="117.958253"><time>2026-06-20T05:41:58.293Z</time></trkpt>
      <trkpt lat="39.397723" lon="117.958253"><time>2026-06-20T05:41:58.310Z</time></trkpt>
      <trkpt lat="39.397723" lon="117.958253"><time>2026-06-20T05:41:58.326Z</time></trkpt>
      <trkpt lat="39.397723" lon="117.958253"><time>2026-06-20T05:41:58.343Z</time></trkpt>
      <trkpt lat="39.397724" lon="117.958279"><time>2026-06-20T05:41:58.360Z</time></trkpt>
      <trkpt lat="39.397724" lon="117.958279"><time>2026-06-20T05:41:58.376Z</time></trkpt>
      <trkpt lat="39.397724" lon="117.958279"><time>2026-06-20T05:41:58.393Z</time></trkpt>
      <trkpt lat="39.397724" lon="117.958279"><time>2026-06-20T05:41:58.410Z</time></trkpt>
      <trkpt lat="39.397724" lon="117.958279"><time>2026-06-20T05:41:58.426Z</time></trkpt>
      <trkpt lat="39.397724" lon="117.958279"><time>2026-06-20T05:41:58.443Z</time></trkpt>
      <trkpt lat="39.397719" lon="117.958306"><time>2026-06-20T05:41:58.460Z</time></trkpt>
      <trkpt lat="39.397719" lon="117.958306"><time>2026-06-20T05:41:58.476Z</time></trkpt>
      <trkpt lat="39.397719" lon="117.958306"><time>2026-06-20T05:41:58.493Z</time></trkpt>
      <trkpt lat="39.397719" lon="117.958306"><time>2026-06-20T05:41:58.510Z</time></trkpt>
      <trkpt lat="39.397719" lon="117.958306"><time>2026-06-20T05:41:58.526Z</time></trkpt>
      <trkpt lat="39.397719" lon="117.958306"><time>2026-06-20T05:41:58.543Z</time></trkpt>
      <trkpt lat="39.397713" lon="117.958332"><time>2026-06-20T05:41:58.560Z</time></trkpt>
      <trkpt lat="39.397713" lon="117.958332"><time>2026-06-20T05:41:58.577Z</time></trkpt>
      <trkpt lat="39.397713" lon="117.958332"><time>2026-06-20T05:41:58.593Z</time></trkpt>
      <trkpt lat="39.397713" lon="117.958332"><time>2026-06-20T05:41:58.610Z</time></trkpt>
      <trkpt lat="39.397713" lon="117.958332"><time>2026-06-20T05:41:58.627Z</time></trkpt>
      <trkpt lat="39.397713" lon="117.958332"><time>2026-06-20T05:41:58.643Z</time></trkpt>
      <trkpt lat="39.397708" lon="117.958359"><time>2026-06-20T05:41:58.660Z</time></trkpt>
      <trkpt lat="39.397708" lon="117.958359"><time>2026-06-20T05:41:58.677Z</time></trkpt>
      <trkpt lat="39.397708" lon="117.958359"><time>2026-06-20T05:41:58.693Z</time></trkpt>
      <trkpt lat="39.397708" lon="117.958359"><time>2026-06-20T05:41:58.710Z</time></trkpt>
      <trkpt lat="39.397708" lon="117.958359"><time>2026-06-20T05:41:58.727Z</time></trkpt>
      <trkpt lat="39.397708" lon="117.958359"><time>2026-06-20T05:41:58.743Z</time></trkpt>
      <trkpt lat="39.397702" lon="117.958385"><time>2026-06-20T05:41:58.760Z</time></trkpt>
      <trkpt lat="39.397702" lon="117.958385"><time>2026-06-20T05:41:58.777Z</time></trkpt>
      <trkpt lat="39.397702" lon="117.958385"><time>2026-06-20T05:41:58.793Z</time></trkpt>
      <trkpt lat="39.397702" lon="117.958385"><time>2026-06-20T05:41:58.810Z</time></trkpt>
      <trkpt lat="39.397702" lon="117.958385"><time>2026-06-20T05:41:58.827Z</time></trkpt>
      <trkpt lat="39.397702" lon="117.958385"><time>2026-06-20T05:41:58.843Z</time></trkpt>
      <trkpt lat="39.397697" lon="117.958412"><time>2026-06-20T05:41:58.860Z</time></trkpt>
      <trkpt lat="39.397697" lon="117.958412"><time>2026-06-20T05:41:58.877Z</time></trkpt>
      <trkpt lat="39.397697" lon="117.958412"><time>2026-06-20T05:41:58.894Z</time></trkpt>
      <trkpt lat="39.397697" lon="117.958412"><time>2026-06-20T05:41:58.910Z</time></trkpt>
      <trkpt lat="39.397697" lon="117.958412"><time>2026-06-20T05:41:58.927Z</time></trkpt>
      <trkpt lat="39.397697" lon="117.958412"><time>2026-06-20T05:41:58.944Z</time></trkpt>
      <trkpt lat="39.397691" lon="117.958438"><time>2026-06-20T05:41:58.960Z</time></trkpt>
      <trkpt lat="39.397691" lon="117.958438"><time>2026-06-20T05:41:58.977Z</time></trkpt>
      <trkpt lat="39.397691" lon="117.958438"><time>2026-06-20T05:41:58.994Z</time></trkpt>
      <trkpt lat="39.397691" lon="117.958438"><time>2026-06-20T05:41:59.010Z</time></trkpt>
      <trkpt lat="39.397691" lon="117.958438"><time>2026-06-20T05:41:59.027Z</time></trkpt>
      <trkpt lat="39.397691" lon="117.958438"><time>2026-06-20T05:41:59.044Z</time></trkpt>
      <trkpt lat="39.397686" lon="117.958465"><time>2026-06-20T05:41:59.060Z</time></trkpt>
      <trkpt lat="39.397686" lon="117.958465"><time>2026-06-20T05:41:59.077Z</time></trkpt>
      <trkpt lat="39.397686" lon="117.958465"><time>2026-06-20T05:41:59.094Z</time></trkpt>
      <trkpt lat="39.397686" lon="117.958465"><time>2026-06-20T05:41:59.110Z</time></trkpt>
      <trkpt lat="39.397686" lon="117.958465"><time>2026-06-20T05:41:59.127Z</time></trkpt>
      <trkpt lat="39.397686" lon="117.958465"><time>2026-06-20T05:41:59.144Z</time></trkpt>
      <trkpt lat="39.397681" lon="117.958491"><time>2026-06-20T05:41:59.160Z</time></trkpt>
      <trkpt lat="39.397681" lon="117.958491"><time>2026-06-20T05:41:59.177Z</time></trkpt>
      <trkpt lat="39.397681" lon="117.958491"><time>2026-06-20T05:41:59.194Z</time></trkpt>
      <trkpt lat="39.397681" lon="117.958491"><time>2026-06-20T05:41:59.211Z</time></trkpt>
      <trkpt lat="39.397681" lon="117.958491"><time>2026-06-20T05:41:59.227Z</time></trkpt>
      <trkpt lat="39.397681" lon="117.958491"><time>2026-06-20T05:41:59.244Z</time></trkpt>
      <trkpt lat="39.397675" lon="117.958518"><time>2026-06-20T05:41:59.261Z</time></trkpt>
      <trkpt lat="39.397675" lon="117.958518"><time>2026-06-20T05:41:59.277Z</time></trkpt>
      <trkpt lat="39.397675" lon="117.958518"><time>2026-06-20T05:41:59.294Z</time></trkpt>
      <trkpt lat="39.397675" lon="117.958518"><time>2026-06-20T05:41:59.311Z</time></trkpt>
      <trkpt lat="39.397675" lon="117.958518"><time>2026-06-20T05:41:59.327Z</time></trkpt>
      <trkpt lat="39.397675" lon="117.958518"><time>2026-06-20T05:41:59.344Z</time></trkpt>
      <trkpt lat="39.39767" lon="117.958543"><time>2026-06-20T05:41:59.361Z</time></trkpt>
      <trkpt lat="39.39767" lon="117.958543"><time>2026-06-20T05:41:59.377Z</time></trkpt>
      <trkpt lat="39.39767" lon="117.958543"><time>2026-06-20T05:41:59.394Z</time></trkpt>
      <trkpt lat="39.39767" lon="117.958543"><time>2026-06-20T05:41:59.411Z</time></trkpt>
      <trkpt lat="39.39767" lon="117.958543"><time>2026-06-20T05:41:59.427Z</time></trkpt>
      <trkpt lat="39.39767" lon="117.958543"><time>2026-06-20T05:41:59.444Z</time></trkpt>
      <trkpt lat="39.397664" lon="117.958571"><time>2026-06-20T05:41:59.461Z</time></trkpt>
      <trkpt lat="39.397664" lon="117.958571"><time>2026-06-20T05:41:59.477Z</time></trkpt>
      <trkpt lat="39.397664" lon="117.958571"><time>2026-06-20T05:41:59.494Z</time></trkpt>
      <trkpt lat="39.397664" lon="117.958571"><time>2026-06-20T05:41:59.511Z</time></trkpt>
      <trkpt lat="39.397664" lon="117.958571"><time>2026-06-20T05:41:59.528Z</time></trkpt>
      <trkpt lat="39.397664" lon="117.958571"><time>2026-06-20T05:41:59.544Z</time></trkpt>
      <trkpt lat="39.397659" lon="117.958598"><time>2026-06-20T05:41:59.561Z</time></trkpt>
      <trkpt lat="39.397659" lon="117.958598"><time>2026-06-20T05:41:59.578Z</time></trkpt>
      <trkpt lat="39.397659" lon="117.958598"><time>2026-06-20T05:41:59.594Z</time></trkpt>
      <trkpt lat="39.397659" lon="117.958598"><time>2026-06-20T05:41:59.611Z</time></trkpt>
      <trkpt lat="39.397659" lon="117.958598"><time>2026-06-20T05:41:59.628Z</time></trkpt>
      <trkpt lat="39.397659" lon="117.958598"><time>2026-06-20T05:41:59.644Z</time></trkpt>
      <trkpt lat="39.397653" lon="117.958624"><time>2026-06-20T05:41:59.661Z</time></trkpt>
      <trkpt lat="39.397653" lon="117.958624"><time>2026-06-20T05:41:59.678Z</time></trkpt>
      <trkpt lat="39.397653" lon="117.958624"><time>2026-06-20T05:41:59.694Z</time></trkpt>
      <trkpt lat="39.397653" lon="117.958624"><time>2026-06-20T05:41:59.711Z</time></trkpt>
      <trkpt lat="39.397653" lon="117.958624"><time>2026-06-20T05:41:59.728Z</time></trkpt>
      <trkpt lat="39.397653" lon="117.958624"><time>2026-06-20T05:41:59.744Z</time></trkpt>
      <trkpt lat="39.397648" lon="117.958651"><time>2026-06-20T05:41:59.761Z</time></trkpt>
      <trkpt lat="39.397648" lon="117.958651"><time>2026-06-20T05:41:59.778Z</time></trkpt>
      <trkpt lat="39.397648" lon="117.958651"><time>2026-06-20T05:41:59.794Z</time></trkpt>
      <trkpt lat="39.397648" lon="117.958651"><time>2026-06-20T05:41:59.811Z</time></trkpt>
      <trkpt lat="39.397648" lon="117.958651"><time>2026-06-20T05:41:59.828Z</time></trkpt>
      <trkpt lat="39.397648" lon="117.958651"><time>2026-06-20T05:41:59.845Z</time></trkpt>
      <trkpt lat="39.397642" lon="117.958678"><time>2026-06-20T05:41:59.861Z</time></trkpt>
      <trkpt lat="39.397642" lon="117.958678"><time>2026-06-20T05:41:59.878Z</time></trkpt>
      <trkpt lat="39.397642" lon="117.958678"><time>2026-06-20T05:41:59.895Z</time></trkpt>
      <trkpt lat="39.397642" lon="117.958678"><time>2026-06-20T05:41:59.911Z</time></trkpt>
      <trkpt lat="39.397642" lon="117.958678"><time>2026-06-20T05:41:59.928Z</time></trkpt>
      <trkpt lat="39.397642" lon="117.958678"><time>2026-06-20T05:41:59.945Z</time></trkpt>
      <trkpt lat="39.397637" lon="117.958703"><time>2026-06-20T05:41:59.961Z</time></trkpt>
      <trkpt lat="39.397637" lon="117.958703"><time>2026-06-20T05:41:59.978Z</time></trkpt>
      <trkpt lat="39.397637" lon="117.958703"><time>2026-06-20T05:41:59.995Z</time></trkpt>
      <trkpt lat="39.397637" lon="117.958703"><time>2026-06-20T05:42:00.011Z</time></trkpt>
      <trkpt lat="39.397637" lon="117.958703"><time>2026-06-20T05:42:00.028Z</time></trkpt>
      <trkpt lat="39.397637" lon="117.958703"><time>2026-06-20T05:42:00.045Z</time></trkpt>
      <trkpt lat="39.397631" lon="117.958731"><time>2026-06-20T05:42:00.061Z</time></trkpt>
      <trkpt lat="39.397631" lon="117.958731"><time>2026-06-20T05:42:00.078Z</time></trkpt>
      <trkpt lat="39.397631" lon="117.958731"><time>2026-06-20T05:42:00.095Z</time></trkpt>
      <trkpt lat="39.397631" lon="117.958731"><time>2026-06-20T05:42:00.111Z</time></trkpt>
      <trkpt lat="39.397631" lon="117.958731"><time>2026-06-20T05:42:00.128Z</time></trkpt>
      <trkpt lat="39.397631" lon="117.958731"><time>2026-06-20T05:42:00.145Z</time></trkpt>
      <trkpt lat="39.397625" lon="117.958758"><time>2026-06-20T05:42:00.162Z</time></trkpt>
      <trkpt lat="39.397625" lon="117.958758"><time>2026-06-20T05:42:00.178Z</time></trkpt>
      <trkpt lat="39.397625" lon="117.958758"><time>2026-06-20T05:42:00.195Z</time></trkpt>
      <trkpt lat="39.397625" lon="117.958758"><time>2026-06-20T05:42:00.212Z</time></trkpt>
      <trkpt lat="39.397625" lon="117.958758"><time>2026-06-20T05:42:00.228Z</time></trkpt>
      <trkpt lat="39.397625" lon="117.958758"><time>2026-06-20T05:42:00.245Z</time></trkpt>
      <trkpt lat="39.39762" lon="117.958784"><time>2026-06-20T05:42:00.262Z</time></trkpt>
      <trkpt lat="39.39762" lon="117.958784"><time>2026-06-20T05:42:00.278Z</time></trkpt>
      <trkpt lat="39.39762" lon="117.958784"><time>2026-06-20T05:42:00.295Z</time></trkpt>
      <trkpt lat="39.39762" lon="117.958784"><time>2026-06-20T05:42:00.312Z</time></trkpt>
      <trkpt lat="39.39762" lon="117.958784"><time>2026-06-20T05:42:00.328Z</time></trkpt>
      <trkpt lat="39.39762" lon="117.958784"><time>2026-06-20T05:42:00.345Z</time></trkpt>
      <trkpt lat="39.397614" lon="117.958811"><time>2026-06-20T05:42:00.362Z</time></trkpt>
      <trkpt lat="39.397614" lon="117.958811"><time>2026-06-20T05:42:00.378Z</time></trkpt>
      <trkpt lat="39.397614" lon="117.958811"><time>2026-06-20T05:42:00.395Z</time></trkpt>
      <trkpt lat="39.397614" lon="117.958811"><time>2026-06-20T05:42:00.412Z</time></trkpt>
      <trkpt lat="39.397614" lon="117.958811"><time>2026-06-20T05:42:00.428Z</time></trkpt>
      <trkpt lat="39.397614" lon="117.958811"><time>2026-06-20T05:42:00.445Z</time></trkpt>
      <trkpt lat="39.397609" lon="117.958838"><time>2026-06-20T05:42:00.462Z</time></trkpt>
      <trkpt lat="39.397609" lon="117.958838"><time>2026-06-20T05:42:00.479Z</time></trkpt>
      <trkpt lat="39.397609" lon="117.958838"><time>2026-06-20T05:42:00.495Z</time></trkpt>
      <trkpt lat="39.397609" lon="117.958838"><time>2026-06-20T05:42:00.512Z</time></trkpt>
      <trkpt lat="39.397609" lon="117.958838"><time>2026-06-20T05:42:00.529Z</time></trkpt>
      <trkpt lat="39.397609" lon="117.958838"><time>2026-06-20T05:42:00.545Z</time></trkpt>
      <trkpt lat="39.397603" lon="117.958865"><time>2026-06-20T05:42:00.562Z</time></trkpt>
      <trkpt lat="39.397603" lon="117.958865"><time>2026-06-20T05:42:00.579Z</time></trkpt>
      <trkpt lat="39.397603" lon="117.958865"><time>2026-06-20T05:42:00.595Z</time></trkpt>
      <trkpt lat="39.397603" lon="117.958865"><time>2026-06-20T05:42:00.612Z</time></trkpt>
      <trkpt lat="39.397603" lon="117.958865"><time>2026-06-20T05:42:00.629Z</time></trkpt>
      <trkpt lat="39.397603" lon="117.958865"><time>2026-06-20T05:42:00.645Z</time></trkpt>
      <trkpt lat="39.397598" lon="117.958892"><time>2026-06-20T05:42:00.662Z</time></trkpt>
      <trkpt lat="39.397598" lon="117.958892"><time>2026-06-20T05:42:00.679Z</time></trkpt>
      <trkpt lat="39.397598" lon="117.958892"><time>2026-06-20T05:42:00.695Z</time></trkpt>
      <trkpt lat="39.397598" lon="117.958892"><time>2026-06-20T05:42:00.712Z</time></trkpt>
      <trkpt lat="39.397598" lon="117.958892"><time>2026-06-20T05:42:00.729Z</time></trkpt>
      <trkpt lat="39.397598" lon="117.958892"><time>2026-06-20T05:42:00.745Z</time></trkpt>
      <trkpt lat="39.397592" lon="117.958918"><time>2026-06-20T05:42:00.762Z</time></trkpt>
      <trkpt lat="39.397592" lon="117.958918"><time>2026-06-20T05:42:00.779Z</time></trkpt>
      <trkpt lat="39.397592" lon="117.958918"><time>2026-06-20T05:42:00.796Z</time></trkpt>
      <trkpt lat="39.397592" lon="117.958918"><time>2026-06-20T05:42:00.812Z</time></trkpt>
      <trkpt lat="39.397592" lon="117.958918"><time>2026-06-20T05:42:00.829Z</time></trkpt>
      <trkpt lat="39.397592" lon="117.958918"><time>2026-06-20T05:42:00.846Z</time></trkpt>
      <trkpt lat="39.397586" lon="117.958945"><time>2026-06-20T05:42:00.862Z</time></trkpt>
      <trkpt lat="39.397586" lon="117.958945"><time>2026-06-20T05:42:00.879Z</time></trkpt>
      <trkpt lat="39.397586" lon="117.958945"><time>2026-06-20T05:42:00.896Z</time></trkpt>
      <trkpt lat="39.397586" lon="117.958945"><time>2026-06-20T05:42:00.912Z</time></trkpt>
      <trkpt lat="39.397586" lon="117.958945"><time>2026-06-20T05:42:00.929Z</time></trkpt>
      <trkpt lat="39.397586" lon="117.958945"><time>2026-06-20T05:42:00.946Z</time></trkpt>
      <trkpt lat="39.397582" lon="117.958971"><time>2026-06-20T05:42:00.962Z</time></trkpt>
      <trkpt lat="39.397582" lon="117.958971"><time>2026-06-20T05:42:00.979Z</time></trkpt>
    </trkseg>
  </trk>
</gpx>
