<?xml version="1.0" encoding="UTF-8"?>
<gpx version="1.1" creator="Kairos" xmlns="http://www.topografix.com/GPX/1/1">
  <trk>
    <name>sidecar-srt-da7fb8d53e8bcb08</name>
    <trkseg>
      <trkpt lat="39.401086" lon="117.954866"><time>2026-06-20T05:28:37.000Z</time></trkpt>
      <trkpt lat="39.401086" lon="117.954866"><time>2026-06-20T05:28:37.016Z</time></trkpt>
      <trkpt lat="39.401086" lon="117.954866"><time>2026-06-20T05:28:37.032Z</time></trkpt>
      <trkpt lat="39.401086" lon="117.954866"><time>2026-06-20T05:28:37.049Z</time></trkpt>
      <trkpt lat="39.401086" lon="117.954866"><time>2026-06-20T05:28:37.066Z</time></trkpt>
      <trkpt lat="39.401086" lon="117.954866"><time>2026-06-20T05:28:37.082Z</time></trkpt>
      <trkpt lat="39.401086" lon="117.954866"><time>2026-06-20T05:28:37.099Z</time></trkpt>
      <trkpt lat="39.401086" lon="117.954866"><time>2026-06-20T05:28:37.116Z</time></trkpt>
      <trkpt lat="39.401086" lon="117.954866"><time>2026-06-20T05:28:37.132Z</time></trkpt>
      <trkpt lat="39.401086" lon="117.954866"><time>2026-06-20T05:28:37.149Z</time></trkpt>
      <trkpt lat="39.401086" lon="117.954866"><time>2026-06-20T05:28:37.166Z</time></trkpt>
      <trkpt lat="39.401086" lon="117.954866"><time>2026-06-20T05:28:37.182Z</time></trkpt>
      <trkpt lat="39.401086" lon="117.954866"><time>2026-06-20T05:28:37.199Z</time></trkpt>
      <trkpt lat="39.401086" lon="117.954866"><time>2026-06-20T05:28:37.216Z</time></trkpt>
      <trkpt lat="39.401086" lon="117.954866"><time>2026-06-20T05:28:37.232Z</time></trkpt>
      <trkpt lat="39.401086" lon="117.954866"><time>2026-06-20T05:28:37.249Z</time></trkpt>
      <trkpt lat="39.401086" lon="117.954866"><time>2026-06-20T05:28:37.266Z</time></trkpt>
      <trkpt lat="39.401086" lon="117.954866"><time>2026-06-20T05:28:37.282Z</time></trkpt>
      <trkpt lat="39.401086" lon="117.954866"><time>2026-06-20T05:28:37.299Z</time></trkpt>
      <trkpt lat="39.401086" lon="117.954866"><time>2026-06-20T05:28:37.316Z</time></trkpt>
      <trkpt lat="39.401086" lon="117.954866"><time>2026-06-20T05:28:37.333Z</time></trkpt>
      <trkpt lat="39.401086" lon="117.954866"><time>2026-06-20T05:28:37.349Z</time></trkpt>
      <trkpt lat="39.401086" lon="117.954866"><time>2026-06-20T05:28:37.366Z</time></trkpt>
      <trkpt lat="39.401086" lon="117.954866"><time>2026-06-20T05:28:37.383Z</time></trkpt>
      <trkpt lat="39.401086" lon="117.954866"><time>2026-06-20T05:28:37.399Z</time></trkpt>
      <trkpt lat="39.401086" lon="117.954867"><time>2026-06-20T05:28:37.416Z</time></trkpt>
      <trkpt lat="39.401086" lon="117.954867"><time>2026-06-20T05:28:37.433Z</time></trkpt>
      <trkpt lat="39.401086" lon="117.954867"><time>2026-06-20T05:28:37.449Z</time></trkpt>
      <trkpt lat="39.401086" lon="117.954867"><time>2026-06-20T05:28:37.466Z</time></trkpt>
      <trkpt lat="39.401086" lon="117.954867"><time>2026-06-20T05:28:37.483Z</time></trkpt>
      <trkpt lat="39.401086" lon="117.954867"><time>2026-06-20T05:28:37.499Z</time></trkpt>
      <trkpt lat="39.401086" lon="117.954867"><time>2026-06-20T05:28:37.516Z</time></trkpt>
      <trkpt lat="39.401086" lon="117.954867"><time>2026-06-20T05:28:37.533Z</time></trkpt>
      <trkpt lat="39.401086" lon="117.954867"><time>2026-06-20T05:28:37.549Z</time></trkpt>
      <trkpt lat="39.401086" lon="117.954867"><time>2026-06-20T05:28:37.566Z</time></trkpt>
      <trkpt lat="39.401086" lon="117.954867"><time>2026-06-20T05:28:37.583Z</time></trkpt>
      <trkpt lat="39.401086" lon="117.954867"><time>2026-06-20T05:28:37.599Z</time></trkpt>
      <trkpt lat="39.401086" lon="117.954867"><time>2026-06-20T05:28:37.616Z</time></trkpt>
      <trkpt lat="39.401086" lon="117.954867"><time>2026-06-20T05:28:37.633Z</time></trkpt>
      <trkpt lat="39.401086" lon="117.954867"><time>2026-06-20T05:28:37.650Z</time></trkpt>
      <trkpt lat="39.401086" lon="117.954867"><time>2026-06-20T05:28:37.666Z</time></trkpt>
      <trkpt lat="39.401086" lon="117.954867"><time>2026-06-20T05:28:37.683Z</time></trkpt>
      <trkpt lat="39.401086" lon="117.954867"><time>2026-06-20T05:28:37.700Z</time></trkpt>
      <trkpt lat="39.401086" lon="117.954867"><time>2026-06-20T05:28:37.716Z</time></trkpt>
      <trkpt lat="39.401086" lon="117.954867"><time>2026-06-20T05:28:37.733Z</time></trkpt>
      <trkpt lat="39.401086" lon="117.954867"><time>2026-06-20T05:28:37.750Z</time></trkpt>
      <trkpt lat="39.401086" lon="117.954867"><time>2026-06-20T05:28:37.766Z</time></trkpt>
      <trkpt lat="39.401086" lon="117.954867"><time>2026-06-20T05:28:37.783Z</time></trkpt>
      <trkpt lat="39.401086" lon="117.954867"><time>2026-06-20T05:28:37.800Z</time></trkpt>
      <trkpt lat="39.401086" lon="117.954867"><time>2026-06-20T05:28:37.816Z</time></trkpt>
      <trkpt lat="39.401086" lon="117.954867"><time>2026-06-20T05:28:37.833Z</time></trkpt>
      <trkpt lat="39.401086" lon="117.954867"><time>2026-06-20T05:28:37.850Z</time></trkpt>
      <trkpt lat="39.401086" lon="117.954867"><time>2026-06-20T05:28:37.866Z</time></trkpt>
      <trkpt lat="39.401086" lon="117.954867"><time>2026-06-20T05:28:37.883Z</time></trkpt>
      <trkpt lat="39.401086" lon="117.954867"><time>2026-06-20T05:28:37.900Z</time></trkpt>
      <trkpt lat="39.401086" lon="117.954867"><time>2026-06-20T05:28:37.916Z</time></trkpt>
      <trkpt lat="39.401086" lon="117.954867"><time>2026-06-20T05:28:37.933Z</time></trkpt>
      <trkpt lat="39.401086" lon="117.954867"><time>2026-06-20T05:28:37.950Z</time></trkpt>
      <trkpt lat="39.401086" lon="117.954867"><time>2026-06-20T05:28:37.966Z</time></trkpt>
      <trkpt lat="39.401086" lon="117.954867"><time>2026-06-20T05:28:37.983Z</time></trkpt>
      <trkpt lat="39.401086" lon="117.954867"><time>2026-06-20T05:28:38.000Z</time></trkpt>
      <trkpt lat="39.401086" lon="117.954867"><time>2026-06-20T05:28:38.017Z</time></trkpt>
      <trkpt lat="39.401086" lon="117.954867"><time>2026-06-20T05:28:38.033Z</time></trkpt>
      <trkpt lat="39.401086" lon="117.954867"><time>2026-06-20T05:28:38.050Z</time></trkpt>
      <trkpt lat="39.401086" lon="117.954867"><time>2026-06-20T05:28:38.067Z</time></trkpt>
      <trkpt lat="39.401086" lon="117.954867"><time>2026-06-20T05:28:38.083Z</time></trkpt>
      <trkpt lat="39.401086" lon="117.954867"><time>2026-06-20T05:28:38.100Z</time></trkpt>
      <trkpt lat="39.401086" lon="117.954867"><time>2026-06-20T05:28:38.117Z</time></trkpt>
      <trkpt lat="39.401086" lon="117.954867"><time>2026-06-20T05:28:38.133Z</time></trkpt>
      <trkpt lat="39.401086" lon="117.954867"><time>2026-06-20T05:28:38.150Z</time></trkpt>
      <trkpt lat="39.401086" lon="117.954867"><time>2026-06-20T05:28:38.167Z</time></trkpt>
      <trkpt lat="39.401086" lon="117.954867"><time>2026-06-20T05:28:38.183Z</time></trkpt>
      <trkpt lat="39.401086" lon="117.954867"><time>2026-06-20T05:28:38.200Z</time></trkpt>
      <trkpt lat="39.401086" lon="117.954867"><time>2026-06-20T05:28:38.217Z</time></trkpt>
      <trkpt lat="39.401086" lon="117.954867"><time>2026-06-20T05:28:38.233Z</time></trkpt>
      <trkpt lat="39.401086" lon="117.954867"><time>2026-06-20T05:28:38.250Z</time></trkpt>
      <trkpt lat="39.401086" lon="117.954867"><time>2026-06-20T05:28:38.267Z</time></trkpt>
      <trkpt lat="39.401086" lon="117.954867"><time>2026-06-20T05:28:38.283Z</time></trkpt>
      <trkpt lat="39.401086" lon="117.954867"><time>2026-06-20T05:28:38.300Z</time></trkpt>
      <trkpt lat="39.401086" lon="117.954867"><time>2026-06-20T05:28:38.317Z</time></trkpt>
      <trkpt lat="39.401086" lon="117.954867"><time>2026-06-20T05:28:38.334Z</time></trkpt>
      <trkpt lat="39.401086" lon="117.954867"><time>2026-06-20T05:28:38.350Z</time></trkpt>
      <trkpt lat="39.401086" lon="117.954867"><time>2026-06-20T05:28:38.367Z</time></trkpt>
      <trkpt lat="39.401086" lon="117.954867"><time>2026-06-20T05:28:38.384Z</time></trkpt>
      <trkpt lat="39.401086" lon="117.954867"><time>2026-06-20T05:28:38.400Z</time></trkpt>
      <trkpt lat="39.401086" lon="117.954867"><time>2026-06-20T05:28:38.417Z</time></trkpt>
      <trkpt lat="39.401086" lon="117.954867"><time>2026-06-20T05:28:38.434Z</time></trkpt>
      <trkpt lat="39.401086" lon="117.954867"><time>2026-06-20T05:28:38.450Z</time></trkpt>
      <trkpt lat="39.401086" lon="117.954867"><time>2026-06-20T05:28:38.467Z</time></trkpt>
      <trkpt lat="39.401086" lon="117.954867"><time>2026-06-20T05:28:38.484Z</time></trkpt>
      <trkpt lat="39.401086" lon="117.954867"><time>2026-06-20T05:28:38.500Z</time></trkpt>
      <trkpt lat="39.401086" lon="117.954867"><time>2026-06-20T05:28:38.517Z</time></trkpt>
      <trkpt lat="39.401086" lon="117.954867"><time>2026-06-20T05:28:38.534Z</time></trkpt>
      <trkpt lat="39.401086" lon="117.954867"><time>2026-06-20T05:28:38.550Z</time></trkpt>
      <trkpt lat="39.401086" lon="117.954867"><time>2026-06-20T05:28:38.567Z</time></trkpt>
      <trkpt lat="39.401086" lon="117.954867"><time>2026-06-20T05:28:38.584Z</time></trkpt>
      <trkpt lat="39.401086" lon="117.954867"><time>2026-06-20T05:28:38.600Z</time></trkpt>
      <trkpt lat="39.401086" lon="117.954868"><time>2026-06-20T05:28:38.617Z</time></trkpt>
      <trkpt lat="39.401086" lon="117.954868"><time>2026-06-20T05:28:38.634Z</time></trkpt>
      <trkpt lat="39.401086" lon="117.954868"><time>2026-06-20T05:28:38.651Z</time></trkpt>
      <trkpt lat="39.401086" lon="117.954868"><time>2026-06-20T05:28:38.667Z</time></trkpt>
      <trkpt lat="39.401086" lon="117.954868"><time>2026-06-20T05:28:38.684Z</time></trkpt>
      <trkpt lat="39.401086" lon="117.954868"><time>2026-06-20T05:28:38.701Z</time></trkpt>
      <trkpt lat="39.401085" lon="117.954869"><time>2026-06-20T05:28:38.717Z</time></trkpt>
      <trkpt lat="39.401085" lon="117.954869"><time>2026-06-20T05:28:38.734Z</time></trkpt>
      <trkpt lat="39.401085" lon="117.954869"><time>2026-06-20T05:28:38.751Z</time></trkpt>
      <trkpt lat="39.401085" lon="117.954869"><time>2026-06-20T05:28:38.767Z</time></trkpt>
      <trkpt lat="39.401085" lon="117.954869"><time>2026-06-20T05:28:38.784Z</time></trkpt>
      <trkpt lat="39.401085" lon="117.954869"><time>2026-06-20T05:28:38.801Z</time></trkpt>
      <trkpt lat="39.401085" lon="117.954871"><time>2026-06-20T05:28:38.817Z</time></trkpt>
      <trkpt lat="39.401085" lon="117.954871"><time>2026-06-20T05:28:38.834Z</time></trkpt>
      <trkpt lat="39.401085" lon="117.954871"><time>2026-06-20T05:28:38.851Z</time></trkpt>
      <trkpt lat="39.401085" lon="117.954871"><time>2026-06-20T05:28:38.867Z</time></trkpt>
      <trkpt lat="39.401085" lon="117.954871"><time>2026-06-20T05:28:38.884Z</time></trkpt>
      <trkpt lat="39.401085" lon="117.954871"><time>2026-06-20T05:28:38.901Z</time></trkpt>
      <trkpt lat="39.401084" lon="117.954874"><time>2026-06-20T05:28:38.917Z</time></trkpt>
      <trkpt lat="39.401084" lon="117.954874"><time>2026-06-20T05:28:38.934Z</time></trkpt>
      <trkpt lat="39.401084" lon="117.954874"><time>2026-06-20T05:28:38.951Z</time></trkpt>
      <trkpt lat="39.401084" lon="117.954874"><time>2026-06-20T05:28:38.968Z</time></trkpt>
      <trkpt lat="39.401084" lon="117.954874"><time>2026-06-20T05:28:38.984Z</time></trkpt>
      <trkpt lat="39.401084" lon="117.954874"><time>2026-06-20T05:28:39.001Z</time></trkpt>
      <trkpt lat="39.401083" lon="117.954877"><time>2026-06-20T05:28:39.018Z</time></trkpt>
      <trkpt lat="39.401083" lon="117.954877"><time>2026-06-20T05:28:39.034Z</time></trkpt>
      <trkpt lat="39.401083" lon="117.954877"><time>2026-06-20T05:28:39.051Z</time></trkpt>
      <trkpt lat="39.401083" lon="117.954877"><time>2026-06-20T05:28:39.068Z</time></trkpt>
      <trkpt lat="39.401083" lon="117.954877"><time>2026-06-20T05:28:39.084Z</time></trkpt>
      <trkpt lat="39.401083" lon="117.954877"><time>2026-06-20T05:28:39.101Z</time></trkpt>
      <trkpt lat="39.401081" lon="117.954881"><time>2026-06-20T05:28:39.118Z</time></trkpt>
      <trkpt lat="39.401081" lon="117.954881"><time>2026-06-20T05:28:39.134Z</time></trkpt>
      <trkpt lat="39.401081" lon="117.954881"><time>2026-06-20T05:28:39.151Z</time></trkpt>
      <trkpt lat="39.401081" lon="117.954881"><time>2026-06-20T05:28:39.168Z</time></trkpt>
      <trkpt lat="39.401081" lon="117.954881"><time>2026-06-20T05:28:39.184Z</time></trkpt>
      <trkpt lat="39.401081" lon="117.954881"><time>2026-06-20T05:28:39.201Z</time></trkpt>
      <trkpt lat="39.401081" lon="117.954887"><time>2026-06-20T05:28:39.218Z</time></trkpt>
      <trkpt lat="39.401081" lon="117.954887"><time>2026-06-20T05:28:39.234Z</time></trkpt>
      <trkpt lat="39.401081" lon="117.954887"><time>2026-06-20T05:28:39.251Z</time></trkpt>
      <trkpt lat="39.401081" lon="117.954887"><time>2026-06-20T05:28:39.268Z</time></trkpt>
      <trkpt lat="39.401081" lon="117.954887"><time>2026-06-20T05:28:39.285Z</time></trkpt>
      <trkpt lat="39.401081" lon="117.954887"><time>2026-06-20T05:28:39.301Z</time></trkpt>
      <trkpt lat="39.401079" lon="117.954892"><time>2026-06-20T05:28:39.318Z</time></trkpt>
      <trkpt lat="39.401079" lon="117.954892"><time>2026-06-20T05:28:39.335Z</time></trkpt>
      <trkpt lat="39.401079" lon="117.954892"><time>2026-06-20T05:28:39.351Z</time></trkpt>
      <trkpt lat="39.401079" lon="117.954892"><time>2026-06-20T05:28:39.368Z</time></trkpt>
      <trkpt lat="39.401079" lon="117.954892"><time>2026-06-20T05:28:39.385Z</time></trkpt>
      <trkpt lat="39.401079" lon="117.954892"><time>2026-06-20T05:28:39.401Z</time></trkpt>
      <trkpt lat="39.401078" lon="117.954899"><time>2026-06-20T05:28:39.418Z</time></trkpt>
      <trkpt lat="39.401078" lon="117.954899"><time>2026-06-20T05:28:39.435Z</time></trkpt>
      <trkpt lat="39.401078" lon="117.954899"><time>2026-06-20T05:28:39.451Z</time></trkpt>
      <trkpt lat="39.401078" lon="117.954899"><time>2026-06-20T05:28:39.468Z</time></trkpt>
      <trkpt lat="39.401078" lon="117.954899"><time>2026-06-20T05:28:39.485Z</time></trkpt>
      <trkpt lat="39.401078" lon="117.954899"><time>2026-06-20T05:28:39.501Z</time></trkpt>
      <trkpt lat="39.401076" lon="117.954906"><time>2026-06-20T05:28:39.518Z</time></trkpt>
      <trkpt lat="39.401076" lon="117.954906"><time>2026-06-20T05:28:39.535Z</time></trkpt>
      <trkpt lat="39.401076" lon="117.954906"><time>2026-06-20T05:28:39.551Z</time></trkpt>
      <trkpt lat="39.401076" lon="117.954906"><time>2026-06-20T05:28:39.568Z</time></trkpt>
      <trkpt lat="39.401076" lon="117.954906"><time>2026-06-20T05:28:39.585Z</time></trkpt>
      <trkpt lat="39.401076" lon="117.954906"><time>2026-06-20T05:28:39.602Z</time></trkpt>
      <trkpt lat="39.401074" lon="117.954913"><time>2026-06-20T05:28:39.618Z</time></trkpt>
      <trkpt lat="39.401074" lon="117.954913"><time>2026-06-20T05:28:39.635Z</time></trkpt>
      <trkpt lat="39.401074" lon="117.954913"><time>2026-06-20T05:28:39.652Z</time></trkpt>
      <trkpt lat="39.401074" lon="117.954913"><time>2026-06-20T05:28:39.668Z</time></trkpt>
      <trkpt lat="39.401074" lon="117.954913"><time>2026-06-20T05:28:39.685Z</time></trkpt>
      <trkpt lat="39.401074" lon="117.954913"><time>2026-06-20T05:28:39.702Z</time></trkpt>
      <trkpt lat="39.401072" lon="117.954922"><time>2026-06-20T05:28:39.718Z</time></trkpt>
      <trkpt lat="39.401072" lon="117.954922"><time>2026-06-20T05:28:39.735Z</time></trkpt>
      <trkpt lat="39.401072" lon="117.954922"><time>2026-06-20T05:28:39.752Z</time></trkpt>
      <trkpt lat="39.401072" lon="117.954922"><time>2026-06-20T05:28:39.768Z</time></trkpt>
      <trkpt lat="39.401072" lon="117.954922"><time>2026-06-20T05:28:39.785Z</time></trkpt>
      <trkpt lat="39.401072" lon="117.954922"><time>2026-06-20T05:28:39.802Z</time></trkpt>
      <trkpt lat="39.40107" lon="117.954931"><time>2026-06-20T05:28:39.818Z</time></trkpt>
      <trkpt lat="39.40107" lon="117.954931"><time>2026-06-20T05:28:39.835Z</time></trkpt>
      <trkpt lat="39.40107" lon="117.954931"><time>2026-06-20T05:28:39.852Z</time></trkpt>
      <trkpt lat="39.40107" lon="117.954931"><time>2026-06-20T05:28:39.868Z</time></trkpt>
      <trkpt lat="39.40107" lon="117.954931"><time>2026-06-20T05:28:39.885Z</time></trkpt>
      <trkpt lat="39.40107" lon="117.954931"><time>2026-06-20T05:28:39.902Z</time></trkpt>
      <trkpt lat="39.401068" lon="117.95494"><time>2026-06-20T05:28:39.919Z</time></trkpt>
      <trkpt lat="39.401068" lon="117.95494"><time>2026-06-20T05:28:39.935Z</time></trkpt>
      <trkpt lat="39.401068" lon="117.95494"><time>2026-06-20T05:28:39.952Z</time></trkpt>
      <trkpt lat="39.401068" lon="117.95494"><time>2026-06-20T05:28:39.969Z</time></trkpt>
      <trkpt lat="39.401068" lon="117.95494"><time>2026-06-20T05:28:39.985Z</time></trkpt>
      <trkpt lat="39.401068" lon="117.95494"><time>2026-06-20T05:28:40.002Z</time></trkpt>
      <trkpt lat="39.401066" lon="117.95495"><time>2026-06-20T05:28:40.019Z</time></trkpt>
      <trkpt lat="39.401066" lon="117.95495"><time>2026-06-20T05:28:40.035Z</time></trkpt>
      <trkpt lat="39.401066" lon="117.95495"><time>2026-06-20T05:28:40.052Z</time></trkpt>
      <trkpt lat="39.401066" lon="117.95495"><time>2026-06-20T05:28:40.069Z</time></trkpt>
      <trkpt lat="39.401066" lon="117.95495"><time>2026-06-20T05:28:40.085Z</time></trkpt>
      <trkpt lat="39.401066" lon="117.95495"><time>2026-06-20T05:28:40.102Z</time></trkpt>
      <trkpt lat="39.401063" lon="117.954961"><time>2026-06-20T05:28:40.119Z</time></trkpt>
      <trkpt lat="39.401063" lon="117.954961"><time>2026-06-20T05:28:40.135Z</time></trkpt>
      <trkpt lat="39.401063" lon="117.954961"><time>2026-06-20T05:28:40.152Z</time></trkpt>
      <trkpt lat="39.401063" lon="117.954961"><time>2026-06-20T05:28:40.169Z</time></trkpt>
      <trkpt lat="39.401063" lon="117.954961"><time>2026-06-20T05:28:40.185Z</time></trkpt>
      <trkpt lat="39.401063" lon="117.954961"><time>2026-06-20T05:28:40.202Z</time></trkpt>
      <trkpt lat="39.401061" lon="117.954972"><time>2026-06-20T05:28:40.219Z</time></trkpt>
      <trkpt lat="39.401061" lon="117.954972"><time>2026-06-20T05:28:40.236Z</time></trkpt>
      <trkpt lat="39.401061" lon="117.954972"><time>2026-06-20T05:28:40.252Z</time></trkpt>
      <trkpt lat="39.401061" lon="117.954972"><time>2026-06-20T05:28:40.269Z</time></trkpt>
      <trkpt lat="39.401061" lon="117.954972"><time>2026-06-20T05:28:40.286Z</time></trkpt>
      <trkpt lat="39.401061" lon="117.954972"><time>2026-06-20T05:28:40.302Z</time></trkpt>
      <trkpt lat="39.401058" lon="117.954984"><time>2026-06-20T05:28:40.319Z</time></trkpt>
      <trkpt lat="39.401058" lon="117.954984"><time>2026-06-20T05:28:40.336Z</time></trkpt>
      <trkpt lat="39.401058" lon="117.954984"><time>2026-06-20T05:28:40.352Z</time></trkpt>
      <trkpt lat="39.401058" lon="117.954984"><time>2026-06-20T05:28:40.369Z</time></trkpt>
      <trkpt lat="39.401058" lon="117.954984"><time>2026-06-20T05:28:40.386Z</time></trkpt>
      <trkpt lat="39.401058" lon="117.954984"><time>2026-06-20T05:28:40.402Z</time></trkpt>
      <trkpt lat="39.401055" lon="117.954996"><time>2026-06-20T05:28:40.419Z</time></trkpt>
      <trkpt lat="39.401055" lon="117.954996"><time>2026-06-20T05:28:40.436Z</time></trkpt>
      <trkpt lat="39.401055" lon="117.954996"><time>2026-06-20T05:28:40.452Z</time></trkpt>
      <trkpt lat="39.401055" lon="117.954996"><time>2026-06-20T05:28:40.469Z</time></trkpt>
      <trkpt lat="39.401055" lon="117.954996"><time>2026-06-20T05:28:40.486Z</time></trkpt>
      <trkpt lat="39.401055" lon="117.954996"><time>2026-06-20T05:28:40.502Z</time></trkpt>
      <trkpt lat="39.401052" lon="117.955009"><time>2026-06-20T05:28:40.519Z</time></trkpt>
      <trkpt lat="39.401052" lon="117.955009"><time>2026-06-20T05:28:40.536Z</time></trkpt>
      <trkpt lat="39.401052" lon="117.955009"><time>2026-06-20T05:28:40.553Z</time></trkpt>
      <trkpt lat="39.401052" lon="117.955009"><time>2026-06-20T05:28:40.569Z</time></trkpt>
      <trkpt lat="39.401052" lon="117.955009"><time>2026-06-20T05:28:40.586Z</time></trkpt>
      <trkpt lat="39.401052" lon="117.955009"><time>2026-06-20T05:28:40.603Z</time></trkpt>
      <trkpt lat="39.401049" lon="117.955022"><time>2026-06-20T05:28:40.619Z</time></trkpt>
      <trkpt lat="39.401049" lon="117.955022"><time>2026-06-20T05:28:40.636Z</time></trkpt>
      <trkpt lat="39.401049" lon="117.955022"><time>2026-06-20T05:28:40.653Z</time></trkpt>
      <trkpt lat="39.401049" lon="117.955022"><time>2026-06-20T05:28:40.669Z</time></trkpt>
      <trkpt lat="39.401049" lon="117.955022"><time>2026-06-20T05:28:40.686Z</time></trkpt>
      <trkpt lat="39.401049" lon="117.955022"><time>2026-06-20T05:28:40.703Z</time></trkpt>
      <trkpt lat="39.401046" lon="117.955036"><time>2026-06-20T05:28:40.719Z</time></trkpt>
      <trkpt lat="39.401046" lon="117.955036"><time>2026-06-20T05:28:40.736Z</time></trkpt>
      <trkpt lat="39.401046" lon="117.955036"><time>2026-06-20T05:28:40.753Z</time></trkpt>
      <trkpt lat="39.401046" lon="117.955036"><time>2026-06-20T05:28:40.769Z</time></trkpt>
      <trkpt lat="39.401046" lon="117.955036"><time>2026-06-20T05:28:40.786Z</time></trkpt>
      <trkpt lat="39.401046" lon="117.955036"><time>2026-06-20T05:28:40.803Z</time></trkpt>
      <trkpt lat="39.401043" lon="117.955051"><time>2026-06-20T05:28:40.819Z</time></trkpt>
      <trkpt lat="39.401043" lon="117.955051"><time>2026-06-20T05:28:40.836Z</time></trkpt>
      <trkpt lat="39.401043" lon="117.955051"><time>2026-06-20T05:28:40.853Z</time></trkpt>
      <trkpt lat="39.401043" lon="117.955051"><time>2026-06-20T05:28:40.870Z</time></trkpt>
      <trkpt lat="39.401043" lon="117.955051"><time>2026-06-20T05:28:40.886Z</time></trkpt>
      <trkpt lat="39.401043" lon="117.955051"><time>2026-06-20T05:28:40.903Z</time></trkpt>
      <trkpt lat="39.401039" lon="117.955065"><time>2026-06-20T05:28:40.920Z</time></trkpt>
      <trkpt lat="39.401039" lon="117.955065"><time>2026-06-20T05:28:40.936Z</time></trkpt>
      <trkpt lat="39.401039" lon="117.955065"><time>2026-06-20T05:28:40.953Z</time></trkpt>
      <trkpt lat="39.401039" lon="117.955065"><time>2026-06-20T05:28:40.970Z</time></trkpt>
      <trkpt lat="39.401039" lon="117.955065"><time>2026-06-20T05:28:40.986Z</time></trkpt>
      <trkpt lat="39.401039" lon="117.955065"><time>2026-06-20T05:28:41.003Z</time></trkpt>
      <trkpt lat="39.401036" lon="117.955081"><time>2026-06-20T05:28:41.020Z</time></trkpt>
      <trkpt lat="39.401036" lon="117.955081"><time>2026-06-20T05:28:41.036Z</time></trkpt>
      <trkpt lat="39.401036" lon="117.955081"><time>2026-06-20T05:28:41.053Z</time></trkpt>
      <trkpt lat="39.401036" lon="117.955081"><time>2026-06-20T05:28:41.070Z</time></trkpt>
      <trkpt lat="39.401036" lon="117.955081"><time>2026-06-20T05:28:41.086Z</time></trkpt>
      <trkpt lat="39.401036" lon="117.955081"><time>2026-06-20T05:28:41.103Z</time></trkpt>
      <trkpt lat="39.401032" lon="117.955097"><time>2026-06-20T05:28:41.120Z</time></trkpt>
      <trkpt lat="39.401032" lon="117.955097"><time>2026-06-20T05:28:41.136Z</time></trkpt>
      <trkpt lat="39.401032" lon="117.955097"><time>2026-06-20T05:28:41.153Z</time></trkpt>
      <trkpt lat="39.401032" lon="117.955097"><time>2026-06-20T05:28:41.170Z</time></trkpt>
      <trkpt lat="39.401032" lon="117.955097"><time>2026-06-20T05:28:41.187Z</time></trkpt>
      <trkpt lat="39.401032" lon="117.955097"><time>2026-06-20T05:28:41.203Z</time></trkpt>
      <trkpt lat="39.401028" lon="117.955113"><time>2026-06-20T05:28:41.220Z</time></trkpt>
      <trkpt lat="39.401028" lon="117.955113"><time>2026-06-20T05:28:41.237Z</time></trkpt>
      <trkpt lat="39.401028" lon="117.955113"><time>2026-06-20T05:28:41.253Z</time></trkpt>
      <trkpt lat="39.401028" lon="117.955113"><time>2026-06-20T05:28:41.270Z</time></trkpt>
      <trkpt lat="39.401028" lon="117.955113"><time>2026-06-20T05:28:41.287Z</time></trkpt>
      <trkpt lat="39.401028" lon="117.955113"><time>2026-06-20T05:28:41.303Z</time></trkpt>
      <trkpt lat="39.401025" lon="117.955129"><time>2026-06-20T05:28:41.320Z</time></trkpt>
      <trkpt lat="39.401025" lon="117.955129"><time>2026-06-20T05:28:41.337Z</time></trkpt>
      <trkpt lat="39.401025" lon="117.955129"><time>2026-06-20T05:28:41.353Z</time></trkpt>
      <trkpt lat="39.401025" lon="117.955129"><time>2026-06-20T05:28:41.370Z</time></trkpt>
      <trkpt lat="39.401025" lon="117.955129"><time>2026-06-20T05:28:41.387Z</time></trkpt>
      <trkpt lat="39.401025" lon="117.955129"><time>2026-06-20T05:28:41.403Z</time></trkpt>
      <trkpt lat="39.401021" lon="117.955147"><time>2026-06-20T05:28:41.420Z</time></trkpt>
      <trkpt lat="39.401021" lon="117.955147"><time>2026-06-20T05:28:41.437Z</time></trkpt>
      <trkpt lat="39.401021" lon="117.955147"><time>2026-06-20T05:28:41.453Z</time></trkpt>
      <trkpt lat="39.401021" lon="117.955147"><time>2026-06-20T05:28:41.470Z</time></trkpt>
      <trkpt lat="39.401021" lon="117.955147"><time>2026-06-20T05:28:41.487Z</time></trkpt>
      <trkpt lat="39.401021" lon="117.955147"><time>2026-06-20T05:28:41.504Z</time></trkpt>
      <trkpt lat="39.401018" lon="117.955164"><time>2026-06-20T05:28:41.520Z</time></trkpt>
      <trkpt lat="39.401018" lon="117.955164"><time>2026-06-20T05:28:41.537Z</time></trkpt>
      <trkpt lat="39.401018" lon="117.955164"><time>2026-06-20T05:28:41.554Z</time></trkpt>
      <trkpt lat="39.401018" lon="117.955164"><time>2026-06-20T05:28:41.570Z</time></trkpt>
      <trkpt lat="39.401018" lon="117.955164"><time>2026-06-20T05:28:41.587Z</time></trkpt>
      <trkpt lat="39.401018" lon="117.955164"><time>2026-06-20T05:28:41.604Z</time></trkpt>
      <trkpt lat="39.401013" lon="117.955181"><time>2026-06-20T05:28:41.620Z</time></trkpt>
      <trkpt lat="39.401013" lon="117.955181"><time>2026-06-20T05:28:41.637Z</time></trkpt>
      <trkpt lat="39.401013" lon="117.955181"><time>2026-06-20T05:28:41.654Z</time></trkpt>
      <trkpt lat="39.401013" lon="117.955181"><time>2026-06-20T05:28:41.670Z</time></trkpt>
      <trkpt lat="39.401013" lon="117.955181"><time>2026-06-20T05:28:41.687Z</time></trkpt>
      <trkpt lat="39.401013" lon="117.955181"><time>2026-06-20T05:28:41.704Z</time></trkpt>
      <trkpt lat="39.401009" lon="117.955199"><time>2026-06-20T05:28:41.720Z</time></trkpt>
      <trkpt lat="39.401009" lon="117.955199"><time>2026-06-20T05:28:41.737Z</time></trkpt>
      <trkpt lat="39.401009" lon="117.955199"><time>2026-06-20T05:28:41.754Z</time></trkpt>
      <trkpt lat="39.401009" lon="117.955199"><time>2026-06-20T05:28:41.770Z</time></trkpt>
      <trkpt lat="39.401009" lon="117.955199"><time>2026-06-20T05:28:41.787Z</time></trkpt>
      <trkpt lat="39.401009" lon="117.955199"><time>2026-06-20T05:28:41.804Z</time></trkpt>
      <trkpt lat="39.401005" lon="117.955217"><time>2026-06-20T05:28:41.821Z</time></trkpt>
      <trkpt lat="39.401005" lon="117.955217"><time>2026-06-20T05:28:41.837Z</time></trkpt>
      <trkpt lat="39.401005" lon="117.955217"><time>2026-06-20T05:28:41.854Z</time></trkpt>
      <trkpt lat="39.401005" lon="117.955217"><time>2026-06-20T05:28:41.871Z</time></trkpt>
      <trkpt lat="39.401005" lon="117.955217"><time>2026-06-20T05:28:41.887Z</time></trkpt>
      <trkpt lat="39.401005" lon="117.955217"><time>2026-06-20T05:28:41.904Z</time></trkpt>
      <trkpt lat="39.401" lon="117.955235"><time>2026-06-20T05:28:41.921Z</time></trkpt>
      <trkpt lat="39.401" lon="117.955235"><time>2026-06-20T05:28:41.937Z</time></trkpt>
      <trkpt lat="39.401" lon="117.955235"><time>2026-06-20T05:28:41.954Z</time></trkpt>
      <trkpt lat="39.401" lon="117.955235"><time>2026-06-20T05:28:41.971Z</time></trkpt>
      <trkpt lat="39.401" lon="117.955235"><time>2026-06-20T05:28:41.987Z</time></trkpt>
      <trkpt lat="39.401" lon="117.955235"><time>2026-06-20T05:28:42.004Z</time></trkpt>
      <trkpt lat="39.400996" lon="117.955254"><time>2026-06-20T05:28:42.021Z</time></trkpt>
      <trkpt lat="39.400996" lon="117.955254"><time>2026-06-20T05:28:42.037Z</time></trkpt>
      <trkpt lat="39.400996" lon="117.955254"><time>2026-06-20T05:28:42.054Z</time></trkpt>
      <trkpt lat="39.400996" lon="117.955254"><time>2026-06-20T05:28:42.071Z</time></trkpt>
      <trkpt lat="39.400996" lon="117.955254"><time>2026-06-20T05:28:42.087Z</time></trkpt>
      <trkpt lat="39.400996" lon="117.955254"><time>2026-06-20T05:28:42.104Z</time></trkpt>
      <trkpt lat="39.400991" lon="117.955272"><time>2026-06-20T05:28:42.121Z</time></trkpt>
      <trkpt lat="39.400991" lon="117.955272"><time>2026-06-20T05:28:42.138Z</time></trkpt>
      <trkpt lat="39.400991" lon="117.955272"><time>2026-06-20T05:28:42.154Z</time></trkpt>
      <trkpt lat="39.400991" lon="117.955272"><time>2026-06-20T05:28:42.171Z</time></trkpt>
      <trkpt lat="39.400991" lon="117.955272"><time>2026-06-20T05:28:42.188Z</time></trkpt>
      <trkpt lat="39.400991" lon="117.955272"><time>2026-06-20T05:28:42.204Z</time></trkpt>
      <trkpt lat="39.400986" lon="117.955291"><time>2026-06-20T05:28:42.221Z</time></trkpt>
      <trkpt lat="39.400986" lon="117.955291"><time>2026-06-20T05:28:42.238Z</time></trkpt>
      <trkpt lat="39.400986" lon="117.955291"><time>2026-06-20T05:28:42.254Z</time></trkpt>
      <trkpt lat="39.400986" lon="117.955291"><time>2026-06-20T05:28:42.271Z</time></trkpt>
      <trkpt lat="39.400986" lon="117.955291"><time>2026-06-20T05:28:42.288Z</time></trkpt>
      <trkpt lat="39.400986" lon="117.955291"><time>2026-06-20T05:28:42.304Z</time></trkpt>
      <trkpt lat="39.400982" lon="117.95531"><time>2026-06-20T05:28:42.321Z</time></trkpt>
      <trkpt lat="39.400982" lon="117.95531"><time>2026-06-20T05:28:42.338Z</time></trkpt>
      <trkpt lat="39.400982" lon="117.95531"><time>2026-06-20T05:28:42.354Z</time></trkpt>
      <trkpt lat="39.400982" lon="117.95531"><time>2026-06-20T05:28:42.371Z</time></trkpt>
      <trkpt lat="39.400982" lon="117.95531"><time>2026-06-20T05:28:42.388Z</time></trkpt>
      <trkpt lat="39.400982" lon="117.95531"><time>2026-06-20T05:28:42.404Z</time></trkpt>
      <trkpt lat="39.400977" lon="117.955329"><time>2026-06-20T05:28:42.421Z</time></trkpt>
      <trkpt lat="39.400977" lon="117.955329"><time>2026-06-20T05:28:42.438Z</time></trkpt>
      <trkpt lat="39.400977" lon="117.955329"><time>2026-06-20T05:28:42.455Z</time></trkpt>
      <trkpt lat="39.400977" lon="117.955329"><time>2026-06-20T05:28:42.471Z</time></trkpt>
      <trkpt lat="39.400977" lon="117.955329"><time>2026-06-20T05:28:42.488Z</time></trkpt>
      <trkpt lat="39.400977" lon="117.955329"><time>2026-06-20T05:28:42.505Z</time></trkpt>
      <trkpt lat="39.400973" lon="117.955348"><time>2026-06-20T05:28:42.521Z</time></trkpt>
      <trkpt lat="39.400973" lon="117.955348"><time>2026-06-20T05:28:42.538Z</time></trkpt>
      <trkpt lat="39.400973" lon="117.955348"><time>2026-06-20T05:28:42.555Z</time></trkpt>
      <trkpt lat="39.400973" lon="117.955348"><time>2026-06-20T05:28:42.571Z</time></trkpt>
      <trkpt lat="39.400973" lon="117.955348"><time>2026-06-20T05:28:42.588Z</time></trkpt>
      <trkpt lat="39.400973" lon="117.955348"><time>2026-06-20T05:28:42.605Z</time></trkpt>
      <trkpt lat="39.400968" lon="117.955368"><time>2026-06-20T05:28:42.621Z</time></trkpt>
      <trkpt lat="39.400968" lon="117.955368"><time>2026-06-20T05:28:42.638Z</time></trkpt>
      <trkpt lat="39.400968" lon="117.955368"><time>2026-06-20T05:28:42.655Z</time></trkpt>
      <trkpt lat="39.400968" lon="117.955368"><time>2026-06-20T05:28:42.671Z</time></trkpt>
      <trkpt lat="39.400968" lon="117.955368"><time>2026-06-20T05:28:42.688Z</time></trkpt>
      <trkpt lat="39.400968" lon="117.955368"><time>2026-06-20T05:28:42.705Z</time></trkpt>
      <trkpt lat="39.400963" lon="117.955388"><time>2026-06-20T05:28:42.721Z</time></trkpt>
      <trkpt lat="39.400963" lon="117.955388"><time>2026-06-20T05:28:42.738Z</time></trkpt>
      <trkpt lat="39.400963" lon="117.955388"><time>2026-06-20T05:28:42.755Z</time></trkpt>
      <trkpt lat="39.400963" lon="117.955388"><time>2026-06-20T05:28:42.772Z</time></trkpt>
      <trkpt lat="39.400963" lon="117.955388"><time>2026-06-20T05:28:42.788Z</time></trkpt>
      <trkpt lat="39.400963" lon="117.955388"><time>2026-06-20T05:28:42.805Z</time></trkpt>
      <trkpt lat="39.400958" lon="117.955408"><time>2026-06-20T05:28:42.822Z</time></trkpt>
      <trkpt lat="39.400958" lon="117.955408"><time>2026-06-20T05:28:42.838Z</time></trkpt>
      <trkpt lat="39.400958" lon="117.955408"><time>2026-06-20T05:28:42.855Z</time></trkpt>
      <trkpt lat="39.400958" lon="117.955408"><time>2026-06-20T05:28:42.872Z</time></trkpt>
      <trkpt lat="39.400958" lon="117.955408"><time>2026-06-20T05:28:42.888Z</time></trkpt>
      <trkpt lat="39.400958" lon="117.955408"><time>2026-06-20T05:28:42.905Z</time></trkpt>
      <trkpt lat="39.400953" lon="117.955428"><time>2026-06-20T05:28:42.922Z</time></trkpt>
      <trkpt lat="39.400953" lon="117.955428"><time>2026-06-20T05:28:42.938Z</time></trkpt>
      <trkpt lat="39.400953" lon="117.955428"><time>2026-06-20T05:28:42.955Z</time></trkpt>
      <trkpt lat="39.400953" lon="117.955428"><time>2026-06-20T05:28:42.972Z</time></trkpt>
      <trkpt lat="39.400953" lon="117.955428"><time>2026-06-20T05:28:42.988Z</time></trkpt>
      <trkpt lat="39.400953" lon="117.955428"><time>2026-06-20T05:28:43.005Z</time></trkpt>
      <trkpt lat="39.400948" lon="117.955447"><time>2026-06-20T05:28:43.022Z</time></trkpt>
      <trkpt lat="39.400948" lon="117.955447"><time>2026-06-20T05:28:43.038Z</time></trkpt>
      <trkpt lat="39.400948" lon="117.955447"><time>2026-06-20T05:28:43.055Z</time></trkpt>
      <trkpt lat="39.400948" lon="117.955447"><time>2026-06-20T05:28:43.072Z</time></trkpt>
      <trkpt lat="39.400948" lon="117.955447"><time>2026-06-20T05:28:43.089Z</time></trkpt>
      <trkpt lat="39.400948" lon="117.955447"><time>2026-06-20T05:28:43.105Z</time></trkpt>
      <trkpt lat="39.400943" lon="117.955469"><time>2026-06-20T05:28:43.122Z</time></trkpt>
      <trkpt lat="39.400943" lon="117.955469"><time>2026-06-20T05:28:43.139Z</time></trkpt>
      <trkpt lat="39.400943" lon="117.955469"><time>2026-06-20T05:28:43.155Z</time></trkpt>
      <trkpt lat="39.400943" lon="117.955469"><time>2026-06-20T05:28:43.172Z</time></trkpt>
      <trkpt lat="39.400943" lon="117.955469"><time>2026-06-20T05:28:43.189Z</time></trkpt>
      <trkpt lat="39.400943" lon="117.955469"><time>2026-06-20T05:28:43.205Z</time></trkpt>
      <trkpt lat="39.400938" lon="117.955489"><time>2026-06-20T05:28:43.222Z</time></trkpt>
      <trkpt lat="39.400938" lon="117.955489"><time>2026-06-20T05:28:43.239Z</time></trkpt>
      <trkpt lat="39.400938" lon="117.955489"><time>2026-06-20T05:28:43.255Z</time></trkpt>
      <trkpt lat="39.400938" lon="117.955489"><time>2026-06-20T05:28:43.272Z</time></trkpt>
      <trkpt lat="39.400938" lon="117.955489"><time>2026-06-20T05:28:43.289Z</time></trkpt>
      <trkpt lat="39.400938" lon="117.955489"><time>2026-06-20T05:28:43.305Z</time></trkpt>
      <trkpt lat="39.400932" lon="117.955511"><time>2026-06-20T05:28:43.322Z</time></trkpt>
      <trkpt lat="39.400932" lon="117.955511"><time>2026-06-20T05:28:43.339Z</time></trkpt>
      <trkpt lat="39.400932" lon="117.955511"><time>2026-06-20T05:28:43.355Z</time></trkpt>
      <trkpt lat="39.400932" lon="117.955511"><time>2026-06-20T05:28:43.372Z</time></trkpt>
      <trkpt lat="39.400932" lon="117.955511"><time>2026-06-20T05:28:43.389Z</time></trkpt>
      <trkpt lat="39.400932" lon="117.955511"><time>2026-06-20T05:28:43.406Z</time></trkpt>
      <trkpt lat="39.400927" lon="117.955532"><time>2026-06-20T05:28:43.422Z</time></trkpt>
      <trkpt lat="39.400927" lon="117.955532"><time>2026-06-20T05:28:43.439Z</time></trkpt>
      <trkpt lat="39.400927" lon="117.955532"><time>2026-06-20T05:28:43.456Z</time></trkpt>
      <trkpt lat="39.400927" lon="117.955532"><time>2026-06-20T05:28:43.472Z</time></trkpt>
      <trkpt lat="39.400927" lon="117.955532"><time>2026-06-20T05:28:43.489Z</time></trkpt>
      <trkpt lat="39.400927" lon="117.955532"><time>2026-06-20T05:28:43.506Z</time></trkpt>
      <trkpt lat="39.400922" lon="117.955554"><time>2026-06-20T05:28:43.522Z</time></trkpt>
      <trkpt lat="39.400922" lon="117.955554"><time>2026-06-20T05:28:43.539Z</time></trkpt>
      <trkpt lat="39.400922" lon="117.955554"><time>2026-06-20T05:28:43.556Z</time></trkpt>
      <trkpt lat="39.400922" lon="117.955554"><time>2026-06-20T05:28:43.572Z</time></trkpt>
      <trkpt lat="39.400922" lon="117.955554"><time>2026-06-20T05:28:43.589Z</time></trkpt>
      <trkpt lat="39.400922" lon="117.955554"><time>2026-06-20T05:28:43.606Z</time></trkpt>
      <trkpt lat="39.400917" lon="117.955575"><time>2026-06-20T05:28:43.622Z</time></trkpt>
      <trkpt lat="39.400917" lon="117.955575"><time>2026-06-20T05:28:43.639Z</time></trkpt>
      <trkpt lat="39.400917" lon="117.955575"><time>2026-06-20T05:28:43.656Z</time></trkpt>
      <trkpt lat="39.400917" lon="117.955575"><time>2026-06-20T05:28:43.672Z</time></trkpt>
      <trkpt lat="39.400917" lon="117.955575"><time>2026-06-20T05:28:43.689Z</time></trkpt>
      <trkpt lat="39.400917" lon="117.955575"><time>2026-06-20T05:28:43.706Z</time></trkpt>
      <trkpt lat="39.400912" lon="117.955597"><time>2026-06-20T05:28:43.723Z</time></trkpt>
      <trkpt lat="39.400912" lon="117.955597"><time>2026-06-20T05:28:43.739Z</time></trkpt>
      <trkpt lat="39.400912" lon="117.955597"><time>2026-06-20T05:28:43.756Z</time></trkpt>
      <trkpt lat="39.400912" lon="117.955597"><time>2026-06-20T05:28:43.773Z</time></trkpt>
      <trkpt lat="39.400912" lon="117.955597"><time>2026-06-20T05:28:43.789Z</time></trkpt>
      <trkpt lat="39.400912" lon="117.955597"><time>2026-06-20T05:28:43.806Z</time></trkpt>
      <trkpt lat="39.400906" lon="117.955619"><time>2026-06-20T05:28:43.823Z</time></trkpt>
      <trkpt lat="39.400906" lon="117.955619"><time>2026-06-20T05:28:43.839Z</time></trkpt>
      <trkpt lat="39.400906" lon="117.955619"><time>2026-06-20T05:28:43.856Z</time></trkpt>
      <trkpt lat="39.400906" lon="117.955619"><time>2026-06-20T05:28:43.873Z</time></trkpt>
      <trkpt lat="39.400906" lon="117.955619"><time>2026-06-20T05:28:43.889Z</time></trkpt>
      <trkpt lat="39.400906" lon="117.955619"><time>2026-06-20T05:28:43.906Z</time></trkpt>
      <trkpt lat="39.400901" lon="117.955641"><time>2026-06-20T05:28:43.923Z</time></trkpt>
      <trkpt lat="39.400901" lon="117.955641"><time>2026-06-20T05:28:43.939Z</time></trkpt>
      <trkpt lat="39.400901" lon="117.955641"><time>2026-06-20T05:28:43.956Z</time></trkpt>
      <trkpt lat="39.400901" lon="117.955641"><time>2026-06-20T05:28:43.973Z</time></trkpt>
      <trkpt lat="39.400901" lon="117.955641"><time>2026-06-20T05:28:43.989Z</time></trkpt>
      <trkpt lat="39.400901" lon="117.955641"><time>2026-06-20T05:28:44.006Z</time></trkpt>
      <trkpt lat="39.400895" lon="117.955663"><time>2026-06-20T05:28:44.023Z</time></trkpt>
      <trkpt lat="39.400895" lon="117.955663"><time>2026-06-20T05:28:44.040Z</time></trkpt>
      <trkpt lat="39.400895" lon="117.955663"><time>2026-06-20T05:28:44.056Z</time></trkpt>
      <trkpt lat="39.400895" lon="117.955663"><time>2026-06-20T05:28:44.073Z</time></trkpt>
      <trkpt lat="39.400895" lon="117.955663"><time>2026-06-20T05:28:44.090Z</time></trkpt>
      <trkpt lat="39.400895" lon="117.955663"><time>2026-06-20T05:28:44.106Z</time></trkpt>
      <trkpt lat="39.40089" lon="117.955686"><time>2026-06-20T05:28:44.123Z</time></trkpt>
      <trkpt lat="39.40089" lon="117.955686"><time>2026-06-20T05:28:44.140Z</time></trkpt>
      <trkpt lat="39.40089" lon="117.955686"><time>2026-06-20T05:28:44.156Z</time></trkpt>
      <trkpt lat="39.40089" lon="117.955686"><time>2026-06-20T05:28:44.173Z</time></trkpt>
      <trkpt lat="39.40089" lon="117.955686"><time>2026-06-20T05:28:44.190Z</time></trkpt>
      <trkpt lat="39.40089" lon="117.955686"><time>2026-06-20T05:28:44.206Z</time></trkpt>
      <trkpt lat="39.400884" lon="117.955708"><time>2026-06-20T05:28:44.223Z</time></trkpt>
      <trkpt lat="39.400884" lon="117.955708"><time>2026-06-20T05:28:44.240Z</time></trkpt>
      <trkpt lat="39.400884" lon="117.955708"><time>2026-06-20T05:28:44.256Z</time></trkpt>
      <trkpt lat="39.400884" lon="117.955708"><time>2026-06-20T05:28:44.273Z</time></trkpt>
      <trkpt lat="39.400884" lon="117.955708"><time>2026-06-20T05:28:44.290Z</time></trkpt>
      <trkpt lat="39.400884" lon="117.955708"><time>2026-06-20T05:28:44.306Z</time></trkpt>
      <trkpt lat="39.400879" lon="117.955731"><time>2026-06-20T05:28:44.323Z</time></trkpt>
      <trkpt lat="39.400879" lon="117.955731"><time>2026-06-20T05:28:44.340Z</time></trkpt>
      <trkpt lat="39.400879" lon="117.955731"><time>2026-06-20T05:28:44.357Z</time></trkpt>
      <trkpt lat="39.400879" lon="117.955731"><time>2026-06-20T05:28:44.373Z</time></trkpt>
      <trkpt lat="39.400879" lon="117.955731"><time>2026-06-20T05:28:44.390Z</time></trkpt>
      <trkpt lat="39.400879" lon="117.955731"><time>2026-06-20T05:28:44.407Z</time></trkpt>
      <trkpt lat="39.400873" lon="117.955754"><time>2026-06-20T05:28:44.423Z</time></trkpt>
      <trkpt lat="39.400873" lon="117.955754"><time>2026-06-20T05:28:44.440Z</time></trkpt>
      <trkpt lat="39.400873" lon="117.955754"><time>2026-06-20T05:28:44.457Z</time></trkpt>
      <trkpt lat="39.400873" lon="117.955754"><time>2026-06-20T05:28:44.473Z</time></trkpt>
      <trkpt lat="39.400873" lon="117.955754"><time>2026-06-20T05:28:44.490Z</time></trkpt>
      <trkpt lat="39.400873" lon="117.955754"><time>2026-06-20T05:28:44.507Z</time></trkpt>
      <trkpt lat="39.400868" lon="117.955777"><time>2026-06-20T05:28:44.523Z</time></trkpt>
      <trkpt lat="39.400868" lon="117.955777"><time>2026-06-20T05:28:44.540Z</time></trkpt>
      <trkpt lat="39.400868" lon="117.955777"><time>2026-06-20T05:28:44.557Z</time></trkpt>
      <trkpt lat="39.400868" lon="117.955777"><time>2026-06-20T05:28:44.573Z</time></trkpt>
      <trkpt lat="39.400868" lon="117.955777"><time>2026-06-20T05:28:44.590Z</time></trkpt>
      <trkpt lat="39.400868" lon="117.955777"><time>2026-06-20T05:28:44.607Z</time></trkpt>
      <trkpt lat="39.400862" lon="117.9558"><time>2026-06-20T05:28:44.623Z</time></trkpt>
      <trkpt lat="39.400862" lon="117.9558"><time>2026-06-20T05:28:44.640Z</time></trkpt>
      <trkpt lat="39.400862" lon="117.9558"><time>2026-06-20T05:28:44.657Z</time></trkpt>
      <trkpt lat="39.400862" lon="117.9558"><time>2026-06-20T05:28:44.673Z</time></trkpt>
      <trkpt lat="39.400862" lon="117.9558"><time>2026-06-20T05:28:44.690Z</time></trkpt>
      <trkpt lat="39.400862" lon="117.9558"><time>2026-06-20T05:28:44.707Z</time></trkpt>
      <trkpt lat="39.400856" lon="117.955824"><time>2026-06-20T05:28:44.724Z</time></trkpt>
      <trkpt lat="39.400856" lon="117.955824"><time>2026-06-20T05:28:44.740Z</time></trkpt>
      <trkpt lat="39.400856" lon="117.955824"><time>2026-06-20T05:28:44.757Z</time></trkpt>
      <trkpt lat="39.400856" lon="117.955824"><time>2026-06-20T05:28:44.774Z</time></trkpt>
      <trkpt lat="39.400856" lon="117.955824"><time>2026-06-20T05:28:44.790Z</time></trkpt>
      <trkpt lat="39.400856" lon="117.955824"><time>2026-06-20T05:28:44.807Z</time></trkpt>
      <trkpt lat="39.400851" lon="117.955846"><time>2026-06-20T05:28:44.824Z</time></trkpt>
      <trkpt lat="39.400851" lon="117.955846"><time>2026-06-20T05:28:44.840Z</time></trkpt>
      <trkpt lat="39.400851" lon="117.955846"><time>2026-06-20T05:28:44.857Z</time></trkpt>
      <trkpt lat="39.400851" lon="117.955846"><time>2026-06-20T05:28:44.874Z</time></trkpt>
      <trkpt lat="39.400851" lon="117.955846"><time>2026-06-20T05:28:44.890Z</time></trkpt>
      <trkpt lat="39.400851" lon="117.955846"><time>2026-06-20T05:28:44.907Z</time></trkpt>
      <trkpt lat="39.400845" lon="117.955871"><time>2026-06-20T05:28:44.924Z</time></trkpt>
      <trkpt lat="39.400845" lon="117.955871"><time>2026-06-20T05:28:44.940Z</time></trkpt>
      <trkpt lat="39.400845" lon="117.955871"><time>2026-06-20T05:28:44.957Z</time></trkpt>
      <trkpt lat="39.400845" lon="117.955871"><time>2026-06-20T05:28:44.974Z</time></trkpt>
      <trkpt lat="39.400845" lon="117.955871"><time>2026-06-20T05:28:44.990Z</time></trkpt>
      <trkpt lat="39.400845" lon="117.955871"><time>2026-06-20T05:28:45.007Z</time></trkpt>
      <trkpt lat="39.400839" lon="117.955895"><time>2026-06-20T05:28:45.024Z</time></trkpt>
      <trkpt lat="39.400839" lon="117.955895"><time>2026-06-20T05:28:45.041Z</time></trkpt>
      <trkpt lat="39.400839" lon="117.955895"><time>2026-06-20T05:28:45.057Z</time></trkpt>
      <trkpt lat="39.400839" lon="117.955895"><time>2026-06-20T05:28:45.074Z</time></trkpt>
      <trkpt lat="39.400839" lon="117.955895"><time>2026-06-20T05:28:45.091Z</time></trkpt>
      <trkpt lat="39.400839" lon="117.955895"><time>2026-06-20T05:28:45.107Z</time></trkpt>
      <trkpt lat="39.400833" lon="117.955919"><time>2026-06-20T05:28:45.124Z</time></trkpt>
      <trkpt lat="39.400833" lon="117.955919"><time>2026-06-20T05:28:45.141Z</time></trkpt>
      <trkpt lat="39.400833" lon="117.955919"><time>2026-06-20T05:28:45.157Z</time></trkpt>
      <trkpt lat="39.400833" lon="117.955919"><time>2026-06-20T05:28:45.174Z</time></trkpt>
      <trkpt lat="39.400833" lon="117.955919"><time>2026-06-20T05:28:45.191Z</time></trkpt>
      <trkpt lat="39.400833" lon="117.955919"><time>2026-06-20T05:28:45.207Z</time></trkpt>
      <trkpt lat="39.400828" lon="117.955943"><time>2026-06-20T05:28:45.224Z</time></trkpt>
      <trkpt lat="39.400828" lon="117.955943"><time>2026-06-20T05:28:45.241Z</time></trkpt>
      <trkpt lat="39.400828" lon="117.955943"><time>2026-06-20T05:28:45.257Z</time></trkpt>
      <trkpt lat="39.400828" lon="117.955943"><time>2026-06-20T05:28:45.274Z</time></trkpt>
      <trkpt lat="39.400828" lon="117.955943"><time>2026-06-20T05:28:45.291Z</time></trkpt>
      <trkpt lat="39.400828" lon="117.955943"><time>2026-06-20T05:28:45.307Z</time></trkpt>
      <trkpt lat="39.400822" lon="117.955966"><time>2026-06-20T05:28:45.324Z</time></trkpt>
      <trkpt lat="39.400822" lon="117.955966"><time>2026-06-20T05:28:45.341Z</time></trkpt>
      <trkpt lat="39.400822" lon="117.955966"><time>2026-06-20T05:28:45.358Z</time></trkpt>
      <trkpt lat="39.400822" lon="117.955966"><time>2026-06-20T05:28:45.374Z</time></trkpt>
      <trkpt lat="39.400822" lon="117.955966"><time>2026-06-20T05:28:45.391Z</time></trkpt>
      <trkpt lat="39.400822" lon="117.955966"><time>2026-06-20T05:28:45.408Z</time></trkpt>
      <trkpt lat="39.400816" lon="117.955992"><time>2026-06-20T05:28:45.424Z</time></trkpt>
      <trkpt lat="39.400816" lon="117.955992"><time>2026-06-20T05:28:45.441Z</time></trkpt>
      <trkpt lat="39.400816" lon="117.955992"><time>2026-06-20T05:28:45.458Z</time></trkpt>
      <trkpt lat="39.400816" lon="117.955992"><time>2026-06-20T05:28:45.474Z</time></trkpt>
      <trkpt lat="39.400816" lon="117.955992"><time>2026-06-20T05:28:45.491Z</time></trkpt>
      <trkpt lat="39.400816" lon="117.955992"><time>2026-06-20T05:28:45.508Z</time></trkpt>
      <trkpt lat="39.40081" lon="117.956016"><time>2026-06-20T05:28:45.524Z</time></trkpt>
      <trkpt lat="39.40081" lon="117.956016"><time>2026-06-20T05:28:45.541Z</time></trkpt>
      <trkpt lat="39.40081" lon="117.956016"><time>2026-06-20T05:28:45.558Z</time></trkpt>
      <trkpt lat="39.40081" lon="117.956016"><time>2026-06-20T05:28:45.574Z</time></trkpt>
      <trkpt lat="39.40081" lon="117.956016"><time>2026-06-20T05:28:45.591Z</time></trkpt>
      <trkpt lat="39.40081" lon="117.956016"><time>2026-06-20T05:28:45.608Z</time></trkpt>
      <trkpt lat="39.400804" lon="117.956041"><time>2026-06-20T05:28:45.624Z</time></trkpt>
      <trkpt lat="39.400804" lon="117.956041"><time>2026-06-20T05:28:45.641Z</time></trkpt>
      <trkpt lat="39.400804" lon="117.956041"><time>2026-06-20T05:28:45.658Z</time></trkpt>
      <trkpt lat="39.400804" lon="117.956041"><time>2026-06-20T05:28:45.675Z</time></trkpt>
      <trkpt lat="39.400804" lon="117.956041"><time>2026-06-20T05:28:45.691Z</time></trkpt>
      <trkpt lat="39.400804" lon="117.956041"><time>2026-06-20T05:28:45.708Z</time></trkpt>
      <trkpt lat="39.400798" lon="117.956065"><time>2026-06-20T05:28:45.725Z</time></trkpt>
      <trkpt lat="39.400798" lon="117.956065"><time>2026-06-20T05:28:45.741Z</time></trkpt>
      <trkpt lat="39.400798" lon="117.956065"><time>2026-06-20T05:28:45.758Z</time></trkpt>
      <trkpt lat="39.400798" lon="117.956065"><time>2026-06-20T05:28:45.775Z</time></trkpt>
      <trkpt lat="39.400798" lon="117.956065"><time>2026-06-20T05:28:45.791Z</time></trkpt>
      <trkpt lat="39.400798" lon="117.956065"><time>2026-06-20T05:28:45.808Z</time></trkpt>
      <trkpt lat="39.400792" lon="117.95609"><time>2026-06-20T05:28:45.825Z</time></trkpt>
      <trkpt lat="39.400792" lon="117.95609"><time>2026-06-20T05:28:45.841Z</time></trkpt>
      <trkpt lat="39.400792" lon="117.95609"><time>2026-06-20T05:28:45.858Z</time></trkpt>
      <trkpt lat="39.400792" lon="117.95609"><time>2026-06-20T05:28:45.875Z</time></trkpt>
      <trkpt lat="39.400792" lon="117.95609"><time>2026-06-20T05:28:45.891Z</time></trkpt>
      <trkpt lat="39.400792" lon="117.95609"><time>2026-06-20T05:28:45.908Z</time></trkpt>
      <trkpt lat="39.400786" lon="117.956114"><time>2026-06-20T05:28:45.925Z</time></trkpt>
      <trkpt lat="39.400786" lon="117.956114"><time>2026-06-20T05:28:45.941Z</time></trkpt>
      <trkpt lat="39.400786" lon="117.956114"><time>2026-06-20T05:28:45.958Z</time></trkpt>
      <trkpt lat="39.400786" lon="117.956114"><time>2026-06-20T05:28:45.975Z</time></trkpt>
      <trkpt lat="39.400786" lon="117.956114"><time>2026-06-20T05:28:45.992Z</time></trkpt>
      <trkpt lat="39.400786" lon="117.956114"><time>2026-06-20T05:28:46.008Z</time></trkpt>
      <trkpt lat="39.40078" lon="117.956139"><time>2026-06-20T05:28:46.025Z</time></trkpt>
      <trkpt lat="39.40078" lon="117.956139"><time>2026-06-20T05:28:46.042Z</time></trkpt>
      <trkpt lat="39.40078" lon="117.956139"><time>2026-06-20T05:28:46.058Z</time></trkpt>
      <trkpt lat="39.40078" lon="117.956139"><time>2026-06-20T05:28:46.075Z</time></trkpt>
      <trkpt lat="39.40078" lon="117.956139"><time>2026-06-20T05:28:46.092Z</time></trkpt>
      <trkpt lat="39.40078" lon="117.956139"><time>2026-06-20T05:28:46.108Z</time></trkpt>
      <trkpt lat="39.400774" lon="117.956164"><time>2026-06-20T05:28:46.125Z</time></trkpt>
      <trkpt lat="39.400774" lon="117.956164"><time>2026-06-20T05:28:46.142Z</time></trkpt>
      <trkpt lat="39.400774" lon="117.956164"><time>2026-06-20T05:28:46.158Z</time></trkpt>
      <trkpt lat="39.400774" lon="117.956164"><time>2026-06-20T05:28:46.175Z</time></trkpt>
      <trkpt lat="39.400774" lon="117.956164"><time>2026-06-20T05:28:46.192Z</time></trkpt>
      <trkpt lat="39.400774" lon="117.956164"><time>2026-06-20T05:28:46.208Z</time></trkpt>
      <trkpt lat="39.400768" lon="117.956188"><time>2026-06-20T05:28:46.225Z</time></trkpt>
      <trkpt lat="39.400768" lon="117.956188"><time>2026-06-20T05:28:46.242Z</time></trkpt>
      <trkpt lat="39.400768" lon="117.956188"><time>2026-06-20T05:28:46.258Z</time></trkpt>
      <trkpt lat="39.400768" lon="117.956188"><time>2026-06-20T05:28:46.275Z</time></trkpt>
      <trkpt lat="39.400768" lon="117.956188"><time>2026-06-20T05:28:46.292Z</time></trkpt>
      <trkpt lat="39.400768" lon="117.956188"><time>2026-06-20T05:28:46.309Z</time></trkpt>
      <trkpt lat="39.400762" lon="117.956214"><time>2026-06-20T05:28:46.325Z</time></trkpt>
      <trkpt lat="39.400762" lon="117.956214"><time>2026-06-20T05:28:46.342Z</time></trkpt>
      <trkpt lat="39.400762" lon="117.956214"><time>2026-06-20T05:28:46.359Z</time></trkpt>
      <trkpt lat="39.400762" lon="117.956214"><time>2026-06-20T05:28:46.375Z</time></trkpt>
      <trkpt lat="39.400762" lon="117.956214"><time>2026-06-20T05:28:46.392Z</time></trkpt>
      <trkpt lat="39.400762" lon="117.956214"><time>2026-06-20T05:28:46.409Z</time></trkpt>
      <trkpt lat="39.400756" lon="117.956239"><time>2026-06-20T05:28:46.425Z</time></trkpt>
      <trkpt lat="39.400756" lon="117.956239"><time>2026-06-20T05:28:46.442Z</time></trkpt>
      <trkpt lat="39.400756" lon="117.956239"><time>2026-06-20T05:28:46.459Z</time></trkpt>
      <trkpt lat="39.400756" lon="117.956239"><time>2026-06-20T05:28:46.475Z</time></trkpt>
      <trkpt lat="39.400756" lon="117.956239"><time>2026-06-20T05:28:46.492Z</time></trkpt>
      <trkpt lat="39.400756" lon="117.956239"><time>2026-06-20T05:28:46.509Z</time></trkpt>
      <trkpt lat="39.40075" lon="117.956264"><time>2026-06-20T05:28:46.525Z</time></trkpt>
      <trkpt lat="39.40075" lon="117.956264"><time>2026-06-20T05:28:46.542Z</time></trkpt>
      <trkpt lat="39.40075" lon="117.956264"><time>2026-06-20T05:28:46.559Z</time></trkpt>
      <trkpt lat="39.40075" lon="117.956264"><time>2026-06-20T05:28:46.575Z</time></trkpt>
      <trkpt lat="39.40075" lon="117.956264"><time>2026-06-20T05:28:46.592Z</time></trkpt>
      <trkpt lat="39.40075" lon="117.956264"><time>2026-06-20T05:28:46.609Z</time></trkpt>
      <trkpt lat="39.400744" lon="117.95629"><time>2026-06-20T05:28:46.626Z</time></trkpt>
      <trkpt lat="39.400744" lon="117.95629"><time>2026-06-20T05:28:46.642Z</time></trkpt>
      <trkpt lat="39.400744" lon="117.95629"><time>2026-06-20T05:28:46.659Z</time></trkpt>
      <trkpt lat="39.400744" lon="117.95629"><time>2026-06-20T05:28:46.676Z</time></trkpt>
      <trkpt lat="39.400744" lon="117.95629"><time>2026-06-20T05:28:46.692Z</time></trkpt>
      <trkpt lat="39.400744" lon="117.95629"><time>2026-06-20T05:28:46.709Z</time></trkpt>
      <trkpt lat="39.400738" lon="117.956314"><time>2026-06-20T05:28:46.726Z</time></trkpt>
      <trkpt lat="39.400738" lon="117.956314"><time>2026-06-20T05:28:46.742Z</time></trkpt>
      <trkpt lat="39.400738" lon="117.956314"><time>2026-06-20T05:28:46.759Z</time></trkpt>
      <trkpt lat="39.400738" lon="117.956314"><time>2026-06-20T05:28:46.776Z</time></trkpt>
      <trkpt lat="39.400738" lon="117.956314"><time>2026-06-20T05:28:46.792Z</time></trkpt>
      <trkpt lat="39.400738" lon="117.956314"><time>2026-06-20T05:28:46.809Z</time></trkpt>
      <trkpt lat="39.400731" lon="117.95634"><time>2026-06-20T05:28:46.826Z</time></trkpt>
      <trkpt lat="39.400731" lon="117.95634"><time>2026-06-20T05:28:46.842Z</time></trkpt>
      <trkpt lat="39.400731" lon="117.95634"><time>2026-06-20T05:28:46.859Z</time></trkpt>
      <trkpt lat="39.400731" lon="117.95634"><time>2026-06-20T05:28:46.876Z</time></trkpt>
      <trkpt lat="39.400731" lon="117.95634"><time>2026-06-20T05:28:46.892Z</time></trkpt>
      <trkpt lat="39.400731" lon="117.95634"><time>2026-06-20T05:28:46.909Z</time></trkpt>
      <trkpt lat="39.400725" lon="117.956366"><time>2026-06-20T05:28:46.926Z</time></trkpt>
      <trkpt lat="39.400725" lon="117.956366"><time>2026-06-20T05:28:46.943Z</time></trkpt>
      <trkpt lat="39.400725" lon="117.956366"><time>2026-06-20T05:28:46.959Z</time></trkpt>
      <trkpt lat="39.400725" lon="117.956366"><time>2026-06-20T05:28:46.976Z</time></trkpt>
      <trkpt lat="39.400725" lon="117.956366"><time>2026-06-20T05:28:46.993Z</time></trkpt>
      <trkpt lat="39.400725" lon="117.956366"><time>2026-06-20T05:28:47.009Z</time></trkpt>
      <trkpt lat="39.400719" lon="117.956391"><time>2026-06-20T05:28:47.026Z</time></trkpt>
      <trkpt lat="39.400719" lon="117.956391"><time>2026-06-20T05:28:47.043Z</time></trkpt>
      <trkpt lat="39.400719" lon="117.956391"><time>2026-06-20T05:28:47.059Z</time></trkpt>
      <trkpt lat="39.400719" lon="117.956391"><time>2026-06-20T05:28:47.076Z</time></trkpt>
      <trkpt lat="39.400719" lon="117.956391"><time>2026-06-20T05:28:47.093Z</time></trkpt>
      <trkpt lat="39.400719" lon="117.956391"><time>2026-06-20T05:28:47.109Z</time></trkpt>
      <trkpt lat="39.400713" lon="117.956417"><time>2026-06-20T05:28:47.126Z</time></trkpt>
      <trkpt lat="39.400713" lon="117.956417"><time>2026-06-20T05:28:47.143Z</time></trkpt>
      <trkpt lat="39.400713" lon="117.956417"><time>2026-06-20T05:28:47.159Z</time></trkpt>
      <trkpt lat="39.400713" lon="117.956417"><time>2026-06-20T05:28:47.176Z</time></trkpt>
      <trkpt lat="39.400713" lon="117.956417"><time>2026-06-20T05:28:47.193Z</time></trkpt>
      <trkpt lat="39.400713" lon="117.956417"><time>2026-06-20T05:28:47.209Z</time></trkpt>
      <trkpt lat="39.400706" lon="117.956443"><time>2026-06-20T05:28:47.226Z</time></trkpt>
      <trkpt lat="39.400706" lon="117.956443"><time>2026-06-20T05:28:47.243Z</time></trkpt>
      <trkpt lat="39.400706" lon="117.956443"><time>2026-06-20T05:28:47.260Z</time></trkpt>
      <trkpt lat="39.400706" lon="117.956443"><time>2026-06-20T05:28:47.276Z</time></trkpt>
      <trkpt lat="39.400706" lon="117.956443"><time>2026-06-20T05:28:47.293Z</time></trkpt>
      <trkpt lat="39.400706" lon="117.956443"><time>2026-06-20T05:28:47.310Z</time></trkpt>
      <trkpt lat="39.400701" lon="117.956467"><time>2026-06-20T05:28:47.326Z</time></trkpt>
      <trkpt lat="39.400701" lon="117.956467"><time>2026-06-20T05:28:47.343Z</time></trkpt>
      <trkpt lat="39.400701" lon="117.956467"><time>2026-06-20T05:28:47.360Z</time></trkpt>
      <trkpt lat="39.400701" lon="117.956467"><time>2026-06-20T05:28:47.376Z</time></trkpt>
      <trkpt lat="39.400701" lon="117.956467"><time>2026-06-20T05:28:47.393Z</time></trkpt>
      <trkpt lat="39.400701" lon="117.956467"><time>2026-06-20T05:28:47.410Z</time></trkpt>
      <trkpt lat="39.400694" lon="117.956494"><time>2026-06-20T05:28:47.426Z</time></trkpt>
      <trkpt lat="39.400694" lon="117.956494"><time>2026-06-20T05:28:47.443Z</time></trkpt>
      <trkpt lat="39.400694" lon="117.956494"><time>2026-06-20T05:28:47.460Z</time></trkpt>
      <trkpt lat="39.400694" lon="117.956494"><time>2026-06-20T05:28:47.476Z</time></trkpt>
      <trkpt lat="39.400694" lon="117.956494"><time>2026-06-20T05:28:47.493Z</time></trkpt>
      <trkpt lat="39.400694" lon="117.956494"><time>2026-06-20T05:28:47.510Z</time></trkpt>
      <trkpt lat="39.400688" lon="117.95652"><time>2026-06-20T05:28:47.526Z</time></trkpt>
      <trkpt lat="39.400688" lon="117.95652"><time>2026-06-20T05:28:47.543Z</time></trkpt>
      <trkpt lat="39.400688" lon="117.95652"><time>2026-06-20T05:28:47.560Z</time></trkpt>
      <trkpt lat="39.400688" lon="117.95652"><time>2026-06-20T05:28:47.577Z</time></trkpt>
      <trkpt lat="39.400688" lon="117.95652"><time>2026-06-20T05:28:47.593Z</time></trkpt>
      <trkpt lat="39.400688" lon="117.95652"><time>2026-06-20T05:28:47.610Z</time></trkpt>
      <trkpt lat="39.400681" lon="117.956546"><time>2026-06-20T05:28:47.627Z</time></trkpt>
      <trkpt lat="39.400681" lon="117.956546"><time>2026-06-20T05:28:47.643Z</time></trkpt>
      <trkpt lat="39.400681" lon="117.956546"><time>2026-06-20T05:28:47.660Z</time></trkpt>
      <trkpt lat="39.400681" lon="117.956546"><time>2026-06-20T05:28:47.677Z</time></trkpt>
      <trkpt lat="39.400681" lon="117.956546"><time>2026-06-20T05:28:47.693Z</time></trkpt>
      <trkpt lat="39.400681" lon="117.956546"><time>2026-06-20T05:28:47.710Z</time></trkpt>
      <trkpt lat="39.400675" lon="117.956572"><time>2026-06-20T05:28:47.727Z</time></trkpt>
      <trkpt lat="39.400675" lon="117.956572"><time>2026-06-20T05:28:47.743Z</time></trkpt>
      <trkpt lat="39.400675" lon="117.956572"><time>2026-06-20T05:28:47.760Z</time></trkpt>
      <trkpt lat="39.400675" lon="117.956572"><time>2026-06-20T05:28:47.777Z</time></trkpt>
      <trkpt lat="39.400675" lon="117.956572"><time>2026-06-20T05:28:47.793Z</time></trkpt>
      <trkpt lat="39.400675" lon="117.956572"><time>2026-06-20T05:28:47.810Z</time></trkpt>
      <trkpt lat="39.400669" lon="117.956597"><time>2026-06-20T05:28:47.827Z</time></trkpt>
      <trkpt lat="39.400669" lon="117.956597"><time>2026-06-20T05:28:47.843Z</time></trkpt>
      <trkpt lat="39.400669" lon="117.956597"><time>2026-06-20T05:28:47.860Z</time></trkpt>
      <trkpt lat="39.400669" lon="117.956597"><time>2026-06-20T05:28:47.877Z</time></trkpt>
      <trkpt lat="39.400669" lon="117.956597"><time>2026-06-20T05:28:47.894Z</time></trkpt>
      <trkpt lat="39.400669" lon="117.956597"><time>2026-06-20T05:28:47.910Z</time></trkpt>
      <trkpt lat="39.400662" lon="117.956623"><time>2026-06-20T05:28:47.927Z</time></trkpt>
      <trkpt lat="39.400662" lon="117.956623"><time>2026-06-20T05:28:47.944Z</time></trkpt>
      <trkpt lat="39.400662" lon="117.956623"><time>2026-06-20T05:28:47.960Z</time></trkpt>
      <trkpt lat="39.400662" lon="117.956623"><time>2026-06-20T05:28:47.977Z</time></trkpt>
      <trkpt lat="39.400662" lon="117.956623"><time>2026-06-20T05:28:47.994Z</time></trkpt>
      <trkpt lat="39.400656" lon="117.956649"><time>2026-06-20T05:28:48.010Z</time></trkpt>
      <trkpt lat="39.400656" lon="117.956649"><time>2026-06-20T05:28:48.027Z</time></trkpt>
      <trkpt lat="39.400656" lon="117.956649"><time>2026-06-20T05:28:48.044Z</time></trkpt>
      <trkpt lat="39.400656" lon="117.956649"><time>2026-06-20T05:28:48.060Z</time></trkpt>
      <trkpt lat="39.400656" lon="117.956649"><time>2026-06-20T05:28:48.077Z</time></trkpt>
      <trkpt lat="39.400656" lon="117.956649"><time>2026-06-20T05:28:48.094Z</time></trkpt>
      <trkpt lat="39.400656" lon="117.956649"><time>2026-06-20T05:28:48.110Z</time></trkpt>
      <trkpt lat="39.40065" lon="117.956673"><time>2026-06-20T05:28:48.127Z</time></trkpt>
      <trkpt lat="39.40065" lon="117.956673"><time>2026-06-20T05:28:48.144Z</time></trkpt>
      <trkpt lat="39.40065" lon="117.956673"><time>2026-06-20T05:28:48.160Z</time></trkpt>
      <trkpt lat="39.40065" lon="117.956673"><time>2026-06-20T05:28:48.177Z</time></trkpt>
      <trkpt lat="39.40065" lon="117.956673"><time>2026-06-20T05:28:48.194Z</time></trkpt>
      <trkpt lat="39.40065" lon="117.956673"><time>2026-06-20T05:28:48.211Z</time></trkpt>
      <trkpt lat="39.400644" lon="117.956701"><time>2026-06-20T05:28:48.227Z</time></trkpt>
      <trkpt lat="39.400644" lon="117.956701"><time>2026-06-20T05:28:48.244Z</time></trkpt>
      <trkpt lat="39.400644" lon="117.956701"><time>2026-06-20T05:28:48.261Z</time></trkpt>
      <trkpt lat="39.400644" lon="117.956701"><time>2026-06-20T05:28:48.277Z</time></trkpt>
      <trkpt lat="39.400644" lon="117.956701"><time>2026-06-20T05:28:48.294Z</time></trkpt>
      <trkpt lat="39.400638" lon="117.956725"><time>2026-06-20T05:28:48.311Z</time></trkpt>
      <trkpt lat="39.400638" lon="117.956725"><time>2026-06-20T05:28:48.327Z</time></trkpt>
      <trkpt lat="39.400638" lon="117.956725"><time>2026-06-20T05:28:48.344Z</time></trkpt>
      <trkpt lat="39.400638" lon="117.956725"><time>2026-06-20T05:28:48.361Z</time></trkpt>
      <trkpt lat="39.400638" lon="117.956725"><time>2026-06-20T05:28:48.377Z</time></trkpt>
      <trkpt lat="39.400638" lon="117.956725"><time>2026-06-20T05:28:48.394Z</time></trkpt>
      <trkpt lat="39.400631" lon="117.956752"><time>2026-06-20T05:28:48.411Z</time></trkpt>
      <trkpt lat="39.400631" lon="117.956752"><time>2026-06-20T05:28:48.427Z</time></trkpt>
      <trkpt lat="39.400631" lon="117.956752"><time>2026-06-20T05:28:48.444Z</time></trkpt>
      <trkpt lat="39.400631" lon="117.956752"><time>2026-06-20T05:28:48.461Z</time></trkpt>
      <trkpt lat="39.400631" lon="117.956752"><time>2026-06-20T05:28:48.477Z</time></trkpt>
      <trkpt lat="39.400631" lon="117.956752"><time>2026-06-20T05:28:48.494Z</time></trkpt>
      <trkpt lat="39.400631" lon="117.956752"><time>2026-06-20T05:28:48.511Z</time></trkpt>
      <trkpt lat="39.400625" lon="117.956778"><time>2026-06-20T05:28:48.528Z</time></trkpt>
      <trkpt lat="39.400625" lon="117.956778"><time>2026-06-20T05:28:48.544Z</time></trkpt>
      <trkpt lat="39.400625" lon="117.956778"><time>2026-06-20T05:28:48.561Z</time></trkpt>
      <trkpt lat="39.400625" lon="117.956778"><time>2026-06-20T05:28:48.578Z</time></trkpt>
      <trkpt lat="39.400625" lon="117.956778"><time>2026-06-20T05:28:48.594Z</time></trkpt>
      <trkpt lat="39.400619" lon="117.956804"><time>2026-06-20T05:28:48.611Z</time></trkpt>
      <trkpt lat="39.400619" lon="117.956804"><time>2026-06-20T05:28:48.628Z</time></trkpt>
      <trkpt lat="39.400619" lon="117.956804"><time>2026-06-20T05:28:48.644Z</time></trkpt>
      <trkpt lat="39.400619" lon="117.956804"><time>2026-06-20T05:28:48.661Z</time></trkpt>
      <trkpt lat="39.400619" lon="117.956804"><time>2026-06-20T05:28:48.678Z</time></trkpt>
      <trkpt lat="39.400619" lon="117.956804"><time>2026-06-20T05:28:48.694Z</time></trkpt>
      <trkpt lat="39.400612" lon="117.95683"><time>2026-06-20T05:28:48.711Z</time></trkpt>
      <trkpt lat="39.400612" lon="117.95683"><time>2026-06-20T05:28:48.728Z</time></trkpt>
      <trkpt lat="39.400612" lon="117.95683"><time>2026-06-20T05:28:48.744Z</time></trkpt>
      <trkpt lat="39.400612" lon="117.95683"><time>2026-06-20T05:28:48.761Z</time></trkpt>
      <trkpt lat="39.400612" lon="117.95683"><time>2026-06-20T05:28:48.778Z</time></trkpt>
      <trkpt lat="39.400612" lon="117.95683"><time>2026-06-20T05:28:48.794Z</time></trkpt>
      <trkpt lat="39.400606" lon="117.956856"><time>2026-06-20T05:28:48.811Z</time></trkpt>
      <trkpt lat="39.400606" lon="117.956856"><time>2026-06-20T05:28:48.828Z</time></trkpt>
      <trkpt lat="39.400606" lon="117.956856"><time>2026-06-20T05:28:48.845Z</time></trkpt>
      <trkpt lat="39.400606" lon="117.956856"><time>2026-06-20T05:28:48.861Z</time></trkpt>
      <trkpt lat="39.400606" lon="117.956856"><time>2026-06-20T05:28:48.878Z</time></trkpt>
      <trkpt lat="39.400606" lon="117.956856"><time>2026-06-20T05:28:48.895Z</time></trkpt>
      <trkpt lat="39.4006" lon="117.956882"><time>2026-06-20T05:28:48.911Z</time></trkpt>
      <trkpt lat="39.4006" lon="117.956882"><time>2026-06-20T05:28:48.928Z</time></trkpt>
      <trkpt lat="39.4006" lon="117.956882"><time>2026-06-20T05:28:48.945Z</time></trkpt>
      <trkpt lat="39.4006" lon="117.956882"><time>2026-06-20T05:28:48.961Z</time></trkpt>
      <trkpt lat="39.4006" lon="117.956882"><time>2026-06-20T05:28:48.978Z</time></trkpt>
      <trkpt lat="39.4006" lon="117.956882"><time>2026-06-20T05:28:48.995Z</time></trkpt>
      <trkpt lat="39.4006" lon="117.956882"><time>2026-06-20T05:28:49.011Z</time></trkpt>
      <trkpt lat="39.400594" lon="117.956908"><time>2026-06-20T05:28:49.028Z</time></trkpt>
      <trkpt lat="39.400594" lon="117.956908"><time>2026-06-20T05:28:49.045Z</time></trkpt>
      <trkpt lat="39.400594" lon="117.956908"><time>2026-06-20T05:28:49.061Z</time></trkpt>
      <trkpt lat="39.400594" lon="117.956908"><time>2026-06-20T05:28:49.078Z</time></trkpt>
      <trkpt lat="39.400594" lon="117.956908"><time>2026-06-20T05:28:49.095Z</time></trkpt>
      <trkpt lat="39.400619" lon="117.956932"><time>2026-06-20T05:28:49.111Z</time></trkpt>
      <trkpt lat="39.400619" lon="117.956932"><time>2026-06-20T05:28:49.128Z</time></trkpt>
      <trkpt lat="39.400619" lon="117.956932"><time>2026-06-20T05:28:49.145Z</time></trkpt>
      <trkpt lat="39.400619" lon="117.956932"><time>2026-06-20T05:28:49.162Z</time></trkpt>
      <trkpt lat="39.400619" lon="117.956932"><time>2026-06-20T05:28:49.178Z</time></trkpt>
      <trkpt lat="39.400619" lon="117.956932"><time>2026-06-20T05:28:49.195Z</time></trkpt>
      <trkpt lat="39.400614" lon="117.956958"><time>2026-06-20T05:28:49.212Z</time></trkpt>
      <trkpt lat="39.400614" lon="117.956958"><time>2026-06-20T05:28:49.228Z</time></trkpt>
      <trkpt lat="39.400614" lon="117.956958"><time>2026-06-20T05:28:49.245Z</time></trkpt>
      <trkpt lat="39.400614" lon="117.956958"><time>2026-06-20T05:28:49.262Z</time></trkpt>
      <trkpt lat="39.400614" lon="117.956958"><time>2026-06-20T05:28:49.278Z</time></trkpt>
      <trkpt lat="39.400614" lon="117.956958"><time>2026-06-20T05:28:49.295Z</time></trkpt>
      <trkpt lat="39.400608" lon="117.956984"><time>2026-06-20T05:28:49.312Z</time></trkpt>
      <trkpt lat="39.400608" lon="117.956984"><time>2026-06-20T05:28:49.328Z</time></trkpt>
      <trkpt lat="39.400608" lon="117.956984"><time>2026-06-20T05:28:49.345Z</time></trkpt>
      <trkpt lat="39.400608" lon="117.956984"><time>2026-06-20T05:28:49.362Z</time></trkpt>
      <trkpt lat="39.400608" lon="117.956984"><time>2026-06-20T05:28:49.378Z</time></trkpt>
      <trkpt lat="39.400608" lon="117.956984"><time>2026-06-20T05:28:49.395Z</time></trkpt>
      <trkpt lat="39.400603" lon="117.957009"><time>2026-06-20T05:28:49.412Z</time></trkpt>
      <trkpt lat="39.400603" lon="117.957009"><time>2026-06-20T05:28:49.428Z</time></trkpt>
      <trkpt lat="39.400603" lon="117.957009"><time>2026-06-20T05:28:49.445Z</time></trkpt>
      <trkpt lat="39.400603" lon="117.957009"><time>2026-06-20T05:28:49.462Z</time></trkpt>
      <trkpt lat="39.400603" lon="117.957009"><time>2026-06-20T05:28:49.479Z</time></trkpt>
      <trkpt lat="39.400603" lon="117.957009"><time>2026-06-20T05:28:49.495Z</time></trkpt>
      <trkpt lat="39.400597" lon="117.957036"><time>2026-06-20T05:28:49.512Z</time></trkpt>
      <trkpt lat="39.400597" lon="117.957036"><time>2026-06-20T05:28:49.529Z</time></trkpt>
      <trkpt lat="39.400597" lon="117.957036"><time>2026-06-20T05:28:49.545Z</time></trkpt>
      <trkpt lat="39.400597" lon="117.957036"><time>2026-06-20T05:28:49.562Z</time></trkpt>
      <trkpt lat="39.400597" lon="117.957036"><time>2026-06-20T05:28:49.579Z</time></trkpt>
      <trkpt lat="39.400597" lon="117.957036"><time>2026-06-20T05:28:49.595Z</time></trkpt>
      <trkpt lat="39.400591" lon="117.957062"><time>2026-06-20T05:28:49.612Z</time></trkpt>
      <trkpt lat="39.400591" lon="117.957062"><time>2026-06-20T05:28:49.629Z</time></trkpt>
      <trkpt lat="39.400591" lon="117.957062"><time>2026-06-20T05:28:49.645Z</time></trkpt>
      <trkpt lat="39.400591" lon="117.957062"><time>2026-06-20T05:28:49.662Z</time></trkpt>
      <trkpt lat="39.400591" lon="117.957062"><time>2026-06-20T05:28:49.679Z</time></trkpt>
      <trkpt lat="39.400591" lon="117.957062"><time>2026-06-20T05:28:49.695Z</time></trkpt>
      <trkpt lat="39.400586" lon="117.957088"><time>2026-06-20T05:28:49.712Z</time></trkpt>
      <trkpt lat="39.400586" lon="117.957088"><time>2026-06-20T05:28:49.729Z</time></trkpt>
      <trkpt lat="39.400586" lon="117.957088"><time>2026-06-20T05:28:49.745Z</time></trkpt>
      <trkpt lat="39.400586" lon="117.957088"><time>2026-06-20T05:28:49.762Z</time></trkpt>
      <trkpt lat="39.400586" lon="117.957088"><time>2026-06-20T05:28:49.779Z</time></trkpt>
      <trkpt lat="39.400586" lon="117.957088"><time>2026-06-20T05:28:49.796Z</time></trkpt>
      <trkpt lat="39.40058" lon="117.957114"><time>2026-06-20T05:28:49.812Z</time></trkpt>
      <trkpt lat="39.40058" lon="117.957114"><time>2026-06-20T05:28:49.829Z</time></trkpt>
      <trkpt lat="39.40058" lon="117.957114"><time>2026-06-20T05:28:49.846Z</time></trkpt>
      <trkpt lat="39.40058" lon="117.957114"><time>2026-06-20T05:28:49.862Z</time></trkpt>
      <trkpt lat="39.40058" lon="117.957114"><time>2026-06-20T05:28:49.879Z</time></trkpt>
      <trkpt lat="39.40058" lon="117.957114"><time>2026-06-20T05:28:49.896Z</time></trkpt>
      <trkpt lat="39.400575" lon="117.957139"><time>2026-06-20T05:28:49.912Z</time></trkpt>
      <trkpt lat="39.400575" lon="117.957139"><time>2026-06-20T05:28:49.929Z</time></trkpt>
      <trkpt lat="39.400575" lon="117.957139"><time>2026-06-20T05:28:49.946Z</time></trkpt>
      <trkpt lat="39.400575" lon="117.957139"><time>2026-06-20T05:28:49.962Z</time></trkpt>
      <trkpt lat="39.400575" lon="117.957139"><time>2026-06-20T05:28:49.979Z</time></trkpt>
      <trkpt lat="39.400575" lon="117.957139"><time>2026-06-20T05:28:49.996Z</time></trkpt>
      <trkpt lat="39.400569" lon="117.957165"><time>2026-06-20T05:28:50.012Z</time></trkpt>
      <trkpt lat="39.400569" lon="117.957165"><time>2026-06-20T05:28:50.029Z</time></trkpt>
      <trkpt lat="39.400569" lon="117.957165"><time>2026-06-20T05:28:50.046Z</time></trkpt>
      <trkpt lat="39.400569" lon="117.957165"><time>2026-06-20T05:28:50.062Z</time></trkpt>
      <trkpt lat="39.400569" lon="117.957165"><time>2026-06-20T05:28:50.079Z</time></trkpt>
      <trkpt lat="39.400569" lon="117.957165"><time>2026-06-20T05:28:50.096Z</time></trkpt>
      <trkpt lat="39.400563" lon="117.957191"><time>2026-06-20T05:28:50.113Z</time></trkpt>
      <trkpt lat="39.400563" lon="117.957191"><time>2026-06-20T05:28:50.129Z</time></trkpt>
      <trkpt lat="39.400563" lon="117.957191"><time>2026-06-20T05:28:50.146Z</time></trkpt>
      <trkpt lat="39.400563" lon="117.957191"><time>2026-06-20T05:28:50.163Z</time></trkpt>
      <trkpt lat="39.400563" lon="117.957191"><time>2026-06-20T05:28:50.179Z</time></trkpt>
      <trkpt lat="39.400563" lon="117.957191"><time>2026-06-20T05:28:50.196Z</time></trkpt>
      <trkpt lat="39.400557" lon="117.957219"><time>2026-06-20T05:28:50.213Z</time></trkpt>
      <trkpt lat="39.400557" lon="117.957219"><time>2026-06-20T05:28:50.229Z</time></trkpt>
      <trkpt lat="39.400557" lon="117.957219"><time>2026-06-20T05:28:50.246Z</time></trkpt>
      <trkpt lat="39.400557" lon="117.957219"><time>2026-06-20T05:28:50.263Z</time></trkpt>
      <trkpt lat="39.400557" lon="117.957219"><time>2026-06-20T05:28:50.279Z</time></trkpt>
      <trkpt lat="39.400557" lon="117.957219"><time>2026-06-20T05:28:50.296Z</time></trkpt>
      <trkpt lat="39.400552" lon="117.957245"><time>2026-06-20T05:28:50.313Z</time></trkpt>
      <trkpt lat="39.400552" lon="117.957245"><time>2026-06-20T05:28:50.329Z</time></trkpt>
      <trkpt lat="39.400552" lon="117.957245"><time>2026-06-20T05:28:50.346Z</time></trkpt>
      <trkpt lat="39.400552" lon="117.957245"><time>2026-06-20T05:28:50.363Z</time></trkpt>
      <trkpt lat="39.400552" lon="117.957245"><time>2026-06-20T05:28:50.379Z</time></trkpt>
      <trkpt lat="39.400552" lon="117.957245"><time>2026-06-20T05:28:50.396Z</time></trkpt>
      <trkpt lat="39.400546" lon="117.957271"><time>2026-06-20T05:28:50.413Z</time></trkpt>
      <trkpt lat="39.400546" lon="117.957271"><time>2026-06-20T05:28:50.430Z</time></trkpt>
      <trkpt lat="39.400546" lon="117.957271"><time>2026-06-20T05:28:50.446Z</time></trkpt>
      <trkpt lat="39.400546" lon="117.957271"><time>2026-06-20T05:28:50.463Z</time></trkpt>
      <trkpt lat="39.400546" lon="117.957271"><time>2026-06-20T05:28:50.480Z</time></trkpt>
      <trkpt lat="39.400546" lon="117.957271"><time>2026-06-20T05:28:50.496Z</time></trkpt>
      <trkpt lat="39.40054" lon="117.957297"><time>2026-06-20T05:28:50.513Z</time></trkpt>
      <trkpt lat="39.40054" lon="117.957297"><time>2026-06-20T05:28:50.530Z</time></trkpt>
      <trkpt lat="39.40054" lon="117.957297"><time>2026-06-20T05:28:50.546Z</time></trkpt>
      <trkpt lat="39.40054" lon="117.957297"><time>2026-06-20T05:28:50.563Z</time></trkpt>
      <trkpt lat="39.40054" lon="117.957297"><time>2026-06-20T05:28:50.580Z</time></trkpt>
      <trkpt lat="39.40054" lon="117.957297"><time>2026-06-20T05:28:50.596Z</time></trkpt>
      <trkpt lat="39.400535" lon="117.957323"><time>2026-06-20T05:28:50.613Z</time></trkpt>
      <trkpt lat="39.400535" lon="117.957323"><time>2026-06-20T05:28:50.630Z</time></trkpt>
      <trkpt lat="39.400535" lon="117.957323"><time>2026-06-20T05:28:50.646Z</time></trkpt>
      <trkpt lat="39.400535" lon="117.957323"><time>2026-06-20T05:28:50.663Z</time></trkpt>
      <trkpt lat="39.400535" lon="117.957323"><time>2026-06-20T05:28:50.680Z</time></trkpt>
      <trkpt lat="39.400535" lon="117.957323"><time>2026-06-20T05:28:50.696Z</time></trkpt>
      <trkpt lat="39.400529" lon="117.957349"><time>2026-06-20T05:28:50.713Z</time></trkpt>
      <trkpt lat="39.400529" lon="117.957349"><time>2026-06-20T05:28:50.730Z</time></trkpt>
      <trkpt lat="39.400529" lon="117.957349"><time>2026-06-20T05:28:50.747Z</time></trkpt>
      <trkpt lat="39.400529" lon="117.957349"><time>2026-06-20T05:28:50.763Z</time></trkpt>
      <trkpt lat="39.400529" lon="117.957349"><time>2026-06-20T05:28:50.780Z</time></trkpt>
      <trkpt lat="39.400529" lon="117.957349"><time>2026-06-20T05:28:50.797Z</time></trkpt>
      <trkpt lat="39.400523" lon="117.957375"><time>2026-06-20T05:28:50.813Z</time></trkpt>
      <trkpt lat="39.400523" lon="117.957375"><time>2026-06-20T05:28:50.830Z</time></trkpt>
      <trkpt lat="39.400523" lon="117.957375"><time>2026-06-20T05:28:50.847Z</time></trkpt>
      <trkpt lat="39.400523" lon="117.957375"><time>2026-06-20T05:28:50.863Z</time></trkpt>
      <trkpt lat="39.400523" lon="117.957375"><time>2026-06-20T05:28:50.880Z</time></trkpt>
      <trkpt lat="39.400523" lon="117.957375"><time>2026-06-20T05:28:50.897Z</time></trkpt>
      <trkpt lat="39.400517" lon="117.957401"><time>2026-06-20T05:28:50.913Z</time></trkpt>
      <trkpt lat="39.400517" lon="117.957401"><time>2026-06-20T05:28:50.930Z</time></trkpt>
      <trkpt lat="39.400517" lon="117.957401"><time>2026-06-20T05:28:50.947Z</time></trkpt>
      <trkpt lat="39.400517" lon="117.957401"><time>2026-06-20T05:28:50.963Z</time></trkpt>
      <trkpt lat="39.400517" lon="117.957401"><time>2026-06-20T05:28:50.980Z</time></trkpt>
      <trkpt lat="39.400517" lon="117.957401"><time>2026-06-20T05:28:50.997Z</time></trkpt>
      <trkpt lat="39.400512" lon="117.957427"><time>2026-06-20T05:28:51.013Z</time></trkpt>
      <trkpt lat="39.400512" lon="117.957427"><time>2026-06-20T05:28:51.030Z</time></trkpt>
      <trkpt lat="39.400512" lon="117.957427"><time>2026-06-20T05:28:51.047Z</time></trkpt>
      <trkpt lat="39.400512" lon="117.957427"><time>2026-06-20T05:28:51.063Z</time></trkpt>
      <trkpt lat="39.400512" lon="117.957427"><time>2026-06-20T05:28:51.080Z</time></trkpt>
      <trkpt lat="39.400512" lon="117.957427"><time>2026-06-20T05:28:51.097Z</time></trkpt>
      <trkpt lat="39.400506" lon="117.957453"><time>2026-06-20T05:28:51.114Z</time></trkpt>
      <trkpt lat="39.400506" lon="117.957453"><time>2026-06-20T05:28:51.130Z</time></trkpt>
      <trkpt lat="39.400506" lon="117.957453"><time>2026-06-20T05:28:51.147Z</time></trkpt>
      <trkpt lat="39.400506" lon="117.957453"><time>2026-06-20T05:28:51.164Z</time></trkpt>
      <trkpt lat="39.400506" lon="117.957453"><time>2026-06-20T05:28:51.180Z</time></trkpt>
      <trkpt lat="39.400506" lon="117.957453"><time>2026-06-20T05:28:51.197Z</time></trkpt>
      <trkpt lat="39.400501" lon="117.957479"><time>2026-06-20T05:28:51.214Z</time></trkpt>
      <trkpt lat="39.400501" lon="117.957479"><time>2026-06-20T05:28:51.230Z</time></trkpt>
      <trkpt lat="39.400501" lon="117.957479"><time>2026-06-20T05:28:51.247Z</time></trkpt>
      <trkpt lat="39.400501" lon="117.957479"><time>2026-06-20T05:28:51.264Z</time></trkpt>
      <trkpt lat="39.400501" lon="117.957479"><time>2026-06-20T05:28:51.280Z</time></trkpt>
      <trkpt lat="39.400501" lon="117.957479"><time>2026-06-20T05:28:51.297Z</time></trkpt>
      <trkpt lat="39.400495" lon="117.957506"><time>2026-06-20T05:28:51.314Z</time></trkpt>
      <trkpt lat="39.400495" lon="117.957506"><time>2026-06-20T05:28:51.330Z</time></trkpt>
      <trkpt lat="39.400495" lon="117.957506"><time>2026-06-20T05:28:51.347Z</time></trkpt>
      <trkpt lat="39.400495" lon="117.957506"><time>2026-06-20T05:28:51.364Z</time></trkpt>
      <trkpt lat="39.400495" lon="117.957506"><time>2026-06-20T05:28:51.380Z</time></trkpt>
      <trkpt lat="39.400495" lon="117.957506"><time>2026-06-20T05:28:51.397Z</time></trkpt>
      <trkpt lat="39.400463" lon="117.957522"><time>2026-06-20T05:28:51.414Z</time></trkpt>
      <trkpt lat="39.400463" lon="117.957522"><time>2026-06-20T05:28:51.431Z</time></trkpt>
      <trkpt lat="39.400463" lon="117.957522"><time>2026-06-20T05:28:51.447Z</time></trkpt>
      <trkpt lat="39.400463" lon="117.957522"><time>2026-06-20T05:28:51.464Z</time></trkpt>
      <trkpt lat="39.400463" lon="117.957522"><time>2026-06-20T05:28:51.481Z</time></trkpt>
      <trkpt lat="39.400463" lon="117.957522"><time>2026-06-20T05:28:51.497Z</time></trkpt>
    </trkseg>
  </trk>
</gpx>
