<?xml version="1.0" encoding="UTF-8"?>
<gpx version="1.1" creator="Pyxis" xmlns="http://www.topografix.com/GPX/1/1">
  <trk>
    <name>trip-20260617-5d1117ea-3853-4266-a739-94955c3be85d_2026-06-17_0800-1200</name>
    <trkseg>
      <trkpt lat="22.56986" lon="113.8522686">
        <ele>83.16791112942201</ele>
        <time>2026-06-17T00:05:14.430Z</time>
        <speed>0.1644761</speed>
      </trkpt>
      <trkpt lat="22.5698314" lon="113.8522561">
        <ele>83.85380765096784</ele>
        <time>2026-06-17T00:11:59.896Z</time>
        <speed>0.21328022</speed>
      </trkpt>
      <trkpt lat="22.5698551" lon="113.8522722">
        <ele>84.02242777590456</ele>
        <time>2026-06-17T00:14:31.898Z</time>
        <speed>0.15352024</speed>
      </trkpt>
      <trkpt lat="22.5698291" lon="113.852253">
        <ele>78.0</ele>
        <time>2026-06-17T00:34:13.895Z</time>
        <speed>0.25033146</speed>
      </trkpt>
      <trkpt lat="22.5698486" lon="113.852277">
        <ele>83.6910759592746</ele>
        <time>2026-06-17T00:34:44.894Z</time>
        <speed>0.23918937</speed>
      </trkpt>
      <trkpt lat="22.5698559" lon="113.8523065">
        <ele>83.07441323843686</ele>
        <time>2026-06-17T00:41:36.895Z</time>
        <speed>0.17950618</speed>
      </trkpt>
      <trkpt lat="22.569888" lon="113.852307">
        <ele>83.12603681664713</ele>
        <time>2026-06-17T00:45:28.894Z</time>
        <speed>0.17782168</speed>
      </trkpt>
      <trkpt lat="22.5698635" lon="113.8522933">
        <ele>77.20911699960963</ele>
        <time>2026-06-17T00:46:08.895Z</time>
        <speed>0.17723335</speed>
      </trkpt>
      <trkpt lat="22.5698413" lon="113.8522705">
        <ele>83.5576851663836</ele>
        <time>2026-06-17T01:06:17.888Z</time>
        <speed>0.18834536</speed>
      </trkpt>
      <trkpt lat="22.5698627" lon="113.8522884">
        <ele>83.05475391747422</ele>
        <time>2026-06-17T01:07:45.888Z</time>
        <speed>0.21983989</speed>
      </trkpt>
      <trkpt lat="22.569839" lon="113.852274">
        <ele>82.49764392136962</ele>
        <time>2026-06-17T01:12:49.888Z</time>
        <speed>0.25253698</speed>
      </trkpt>
      <trkpt lat="22.569827" lon="113.8522438">
        <ele>82.45397000535476</ele>
        <time>2026-06-17T01:13:49.441Z</time>
        <speed>0.20858698</speed>
      </trkpt>
      <trkpt lat="22.5698427" lon="113.8522697">
        <ele>82.45172519775278</ele>
        <time>2026-06-17T01:14:34.889Z</time>
        <speed>0.35338753</speed>
      </trkpt>
      <trkpt lat="22.5698495" lon="113.8522999">
        <ele>82.00766841490464</ele>
        <time>2026-06-17T01:17:22.888Z</time>
        <speed>0.3815906</speed>
      </trkpt>
      <trkpt lat="22.5698285" lon="113.8522579">
        <ele>82.34041967254977</ele>
        <time>2026-06-17T01:18:50.888Z</time>
        <speed>0.36713606</speed>
      </trkpt>
      <trkpt lat="22.5698485" lon="113.8522813">
        <ele>82.31120288489457</ele>
        <time>2026-06-17T01:19:38.888Z</time>
        <speed>0.39222622</speed>
      </trkpt>
      <trkpt lat="22.5698436" lon="113.8522477">
        <ele>84.08399568821623</ele>
        <time>2026-06-17T01:45:59.738Z</time>
        <speed>0.33272475</speed>
      </trkpt>
      <trkpt lat="22.5698255" lon="113.8522256">
        <ele>84.4070524768046</ele>
        <time>2026-06-17T01:46:14.445Z</time>
        <speed>0.036139704</speed>
      </trkpt>
      <trkpt lat="22.5697959" lon="113.8522106">
        <ele>83.99604154092272</ele>
        <time>2026-06-17T01:46:39.541Z</time>
        <speed>0.0832589</speed>
      </trkpt>
      <trkpt lat="22.5698144" lon="113.8522402">
        <ele>78.30000305175781</ele>
        <time>2026-06-17T01:51:48.395Z</time>
        <speed>0.023186361</speed>
      </trkpt>
      <trkpt lat="22.5698434" lon="113.8522536">
        <ele>78.30000305175781</ele>
        <time>2026-06-17T01:51:52.299Z</time>
        <speed>0.14754277</speed>
      </trkpt>
      <trkpt lat="22.5698598" lon="113.8522806">
        <ele>78.30000305175781</ele>
        <time>2026-06-17T01:52:01.886Z</time>
        <speed>0.10686186</speed>
      </trkpt>
      <trkpt lat="22.569871" lon="113.8523083">
        <ele>78.0</ele>
        <time>2026-06-17T01:52:08.429Z</time>
        <speed>0.10656343</speed>
      </trkpt>
      <trkpt lat="22.5698393" lon="113.8523106">
        <ele>78.30000305175781</ele>
        <time>2026-06-17T01:52:30.886Z</time>
        <speed>0.47066364</speed>
      </trkpt>
      <trkpt lat="22.5698691" lon="113.8523416">
        <ele>78.30000305175781</ele>
        <time>2026-06-17T01:52:41.886Z</time>
        <speed>0.512634</speed>
      </trkpt>
      <trkpt lat="22.5699364" lon="113.8523529">
        <ele>78.44062931499366</ele>
        <time>2026-06-17T01:53:29.887Z</time>
        <speed>0.5617349</speed>
      </trkpt>
      <trkpt lat="22.569907" lon="113.8523464">
        <ele>78.30000305175781</ele>
        <time>2026-06-17T01:54:29.494Z</time>
        <speed>0.98711467</speed>
      </trkpt>
      <trkpt lat="22.5698898" lon="113.8523056">
        <ele>78.30000305175781</ele>
        <time>2026-06-17T01:54:33.317Z</time>
        <speed>1.3583226</speed>
      </trkpt>
      <trkpt lat="22.5698458" lon="113.8522755">
        <ele>78.30000305175781</ele>
        <time>2026-06-17T01:54:35.575Z</time>
        <speed>1.1404382</speed>
      </trkpt>
      <trkpt lat="22.5698482" lon="113.8522401">
        <ele>78.30000305175781</ele>
        <time>2026-06-17T01:54:39.956Z</time>
        <speed>0.77502906</speed>
      </trkpt>
      <trkpt lat="22.5698433" lon="113.8522696">
        <ele>78.30000305175781</ele>
        <time>2026-06-17T01:54:59.385Z</time>
        <speed>0.14037885</speed>
      </trkpt>
      <trkpt lat="22.5698234" lon="113.8522496">
        <ele>78.30000305175781</ele>
        <time>2026-06-17T01:55:25.958Z</time>
        <speed>0.10004689</speed>
      </trkpt>
      <trkpt lat="22.5697995" lon="113.8522312">
        <ele>78.30000305175781</ele>
        <time>2026-06-17T01:56:18.293Z</time>
        <speed>0.055255108</speed>
      </trkpt>
      <trkpt lat="22.5698188" lon="113.8522559">
        <ele>78.30000305175781</ele>
        <time>2026-06-17T01:57:10.888Z</time>
        <speed>0.9552809</speed>
      </trkpt>
      <trkpt lat="22.5698389" lon="113.8522826">
        <ele>78.30000305175781</ele>
        <time>2026-06-17T01:57:15.103Z</time>
        <speed>1.248969</speed>
      </trkpt>
      <trkpt lat="22.5698049" lon="113.852233">
        <ele>78.30000305175781</ele>
        <time>2026-06-17T01:57:35.666Z</time>
        <speed>0.12948246</speed>
      </trkpt>
      <trkpt lat="22.5698507" lon="113.8522579">
        <ele>78.30000305175781</ele>
        <time>2026-06-17T01:58:06.884Z</time>
        <speed>1.5728357</speed>
      </trkpt>
      <trkpt lat="22.5698852" lon="113.8522943">
        <ele>78.30000305175781</ele>
        <time>2026-06-17T01:58:17.015Z</time>
        <speed>0.90319985</speed>
      </trkpt>
      <trkpt lat="22.569841" lon="113.8522506">
        <ele>78.30000305175781</ele>
        <time>2026-06-17T01:58:21.761Z</time>
        <speed>0.37589407</speed>
      </trkpt>
      <trkpt lat="22.5698099" lon="113.8522311">
        <ele>78.30000305175781</ele>
        <time>2026-06-17T01:58:26.718Z</time>
        <speed>0.23523495</speed>
      </trkpt>
      <trkpt lat="22.5698188" lon="113.8521838">
        <ele>78.30000305175781</ele>
        <time>2026-06-17T01:59:51.953Z</time>
        <speed>1.1091269</speed>
      </trkpt>
      <trkpt lat="22.5698466" lon="113.8521188">
        <ele>78.30000305175781</ele>
        <time>2026-06-17T01:59:55.875Z</time>
        <speed>1.3421009</speed>
      </trkpt>
      <trkpt lat="22.5699099" lon="113.8520269">
        <ele>78.30000305175781</ele>
        <time>2026-06-17T02:00:05.435Z</time>
        <speed>1.4341207</speed>
      </trkpt>
      <trkpt lat="22.5698759" lon="113.8520229">
        <ele>78.30000305175781</ele>
        <time>2026-06-17T02:00:07.772Z</time>
        <speed>1.5725454</speed>
      </trkpt>
      <trkpt lat="22.5698994" lon="113.8519654">
        <ele>78.5999984741211</ele>
        <time>2026-06-17T02:00:20.686Z</time>
        <speed>0.08399016</speed>
      </trkpt>
      <trkpt lat="22.5698958" lon="113.8519949">
        <ele>78.5999984741211</ele>
        <time>2026-06-17T02:01:01.878Z</time>
        <speed>1.5247065</speed>
      </trkpt>
      <trkpt lat="22.5698867" lon="113.852023">
        <ele>72.68088870273463</ele>
        <time>2026-06-17T02:02:01.101Z</time>
        <speed>0.089540385</speed>
      </trkpt>
      <trkpt lat="22.5698792" lon="113.8519743">
        <ele>2.299999952316284</ele>
        <time>2026-06-17T02:02:58.224Z</time>
      </trkpt>
      <trkpt lat="22.5698446" lon="113.8519776">
        <ele>2.299999952316284</ele>
        <time>2026-06-17T02:03:09.365Z</time>
        <speed>1.3731174</speed>
      </trkpt>
      <trkpt lat="22.5698711" lon="113.8519426">
        <ele>2.299999952316284</ele>
        <time>2026-06-17T02:03:11.298Z</time>
        <speed>1.2316427</speed>
      </trkpt>
      <trkpt lat="22.5699041" lon="113.8519062">
        <ele>2.0999999046325684</ele>
        <time>2026-06-17T02:03:17.898Z</time>
        <speed>0.27800682</speed>
      </trkpt>
      <trkpt lat="22.5699295" lon="113.8518662">
        <ele>2.0</ele>
        <time>2026-06-17T02:03:21.862Z</time>
        <speed>0.9248478</speed>
      </trkpt>
      <trkpt lat="22.5699563" lon="113.8518391">
        <ele>2.0</ele>
        <time>2026-06-17T02:03:23.795Z</time>
        <speed>1.3700088</speed>
      </trkpt>
      <trkpt lat="22.5699776" lon="113.8518196">
        <ele>2.0</ele>
        <time>2026-06-17T02:03:25.798Z</time>
        <speed>1.3342446</speed>
      </trkpt>
      <trkpt lat="22.5699902" lon="113.851791">
        <ele>2.0</ele>
        <time>2026-06-17T02:03:27.794Z</time>
        <speed>1.1835583</speed>
      </trkpt>
      <trkpt lat="22.5700289" lon="113.8517493">
        <ele>2.0</ele>
        <time>2026-06-17T02:03:31.802Z</time>
        <speed>1.379272</speed>
      </trkpt>
      <trkpt lat="22.5700599" lon="113.8517124">
        <ele>2.0</ele>
        <time>2026-06-17T02:03:33.796Z</time>
        <speed>1.354904</speed>
      </trkpt>
      <trkpt lat="22.5701034" lon="113.8517087">
        <ele>2.0</ele>
        <time>2026-06-17T02:03:37.795Z</time>
        <speed>1.3659288</speed>
      </trkpt>
      <trkpt lat="22.57012" lon="113.8516846">
        <ele>2.4000000953674316</ele>
        <time>2026-06-17T02:03:39.781Z</time>
        <speed>1.3977104</speed>
      </trkpt>
      <trkpt lat="22.5701395" lon="113.851644">
        <ele>2.4000000953674316</ele>
        <time>2026-06-17T02:03:43.836Z</time>
        <speed>1.3539411</speed>
      </trkpt>
      <trkpt lat="22.5701527" lon="113.8516094">
        <ele>2.0999999046325684</ele>
        <time>2026-06-17T02:03:45.833Z</time>
        <speed>1.3660038</speed>
      </trkpt>
      <trkpt lat="22.5701705" lon="113.8515616">
        <ele>2.0999999046325684</ele>
        <time>2026-06-17T02:03:49.831Z</time>
        <speed>1.3967447</speed>
      </trkpt>
      <trkpt lat="22.5701875" lon="113.8515356">
        <ele>2.0</ele>
        <time>2026-06-17T02:03:51.817Z</time>
        <speed>1.4176886</speed>
      </trkpt>
      <trkpt lat="22.5702182" lon="113.851492">
        <ele>2.0</ele>
        <time>2026-06-17T02:03:55.736Z</time>
        <speed>1.4499502</speed>
      </trkpt>
      <trkpt lat="22.5702297" lon="113.8514651">
        <ele>1.899999976158142</ele>
        <time>2026-06-17T02:03:57.713Z</time>
        <speed>1.3851153</speed>
      </trkpt>
      <trkpt lat="22.5702463" lon="113.8514152">
        <ele>1.899999976158142</ele>
        <time>2026-06-17T02:04:01.694Z</time>
        <speed>1.3903993</speed>
      </trkpt>
      <trkpt lat="22.5702468" lon="113.8513855">
        <ele>2.0</ele>
        <time>2026-06-17T02:04:03.637Z</time>
        <speed>1.3904567</speed>
      </trkpt>
      <trkpt lat="22.5703037" lon="113.8513453">
        <ele>1.899999976158142</ele>
        <time>2026-06-17T02:04:09.717Z</time>
        <speed>1.3526857</speed>
      </trkpt>
      <trkpt lat="22.5703323" lon="113.8513493">
        <ele>1.899999976158142</ele>
        <time>2026-06-17T02:04:11.729Z</time>
        <speed>1.3488411</speed>
      </trkpt>
      <trkpt lat="22.5703978" lon="113.8513878">
        <ele>1.899999976158142</ele>
        <time>2026-06-17T02:04:15.773Z</time>
        <speed>1.3257397</speed>
      </trkpt>
      <trkpt lat="22.5704253" lon="113.8514092">
        <ele>1.899999976158142</ele>
        <time>2026-06-17T02:04:17.716Z</time>
        <speed>1.3954982</speed>
      </trkpt>
      <trkpt lat="22.5704427" lon="113.8514344">
        <ele>1.899999976158142</ele>
        <time>2026-06-17T02:04:19.709Z</time>
        <speed>1.3953304</speed>
      </trkpt>
      <trkpt lat="22.5704607" lon="113.8514597">
        <ele>1.7999999523162842</ele>
        <time>2026-06-17T02:04:21.696Z</time>
        <speed>1.3933167</speed>
      </trkpt>
      <trkpt lat="22.5704929" lon="113.851489">
        <ele>1.7999999523162842</ele>
        <time>2026-06-17T02:04:25.573Z</time>
        <speed>1.4461402</speed>
      </trkpt>
      <trkpt lat="22.5705187" lon="113.8515212">
        <ele>1.899999976158142</ele>
        <time>2026-06-17T02:04:27.611Z</time>
        <speed>1.4184572</speed>
      </trkpt>
      <trkpt lat="22.5705376" lon="113.8515494">
        <ele>1.899999976158142</ele>
        <time>2026-06-17T02:04:29.790Z</time>
        <speed>1.2886186</speed>
      </trkpt>
      <trkpt lat="22.5705208" lon="113.8515181">
        <ele>1.899999976158142</ele>
        <time>2026-06-17T02:04:36.676Z</time>
        <speed>0.19894454</speed>
      </trkpt>
      <trkpt lat="22.5705621" lon="113.8515229">
        <ele>1.899999976158142</ele>
        <time>2026-06-17T02:04:42.738Z</time>
        <speed>0.73157156</speed>
      </trkpt>
      <trkpt lat="22.5705827" lon="113.8515816">
        <ele>1.7999999523162842</ele>
        <time>2026-06-17T02:04:49.760Z</time>
        <speed>1.2322484</speed>
      </trkpt>
      <trkpt lat="22.5705971" lon="113.8516088">
        <ele>1.7000000476837158</ele>
        <time>2026-06-17T02:04:53.884Z</time>
        <speed>1.0149744</speed>
      </trkpt>
      <trkpt lat="22.5706277" lon="113.8516209">
        <ele>1.899999976158142</ele>
        <time>2026-06-17T02:04:57.552Z</time>
        <speed>0.9624208</speed>
      </trkpt>
      <trkpt lat="22.5706581" lon="113.851649">
        <ele>1.7999999523162842</ele>
        <time>2026-06-17T02:05:13.888Z</time>
        <speed>0.72496825</speed>
      </trkpt>
      <trkpt lat="22.5706688" lon="113.8516849">
        <ele>1.7000000476837158</ele>
        <time>2026-06-17T02:05:23.690Z</time>
        <speed>0.6194668</speed>
      </trkpt>
      <trkpt lat="22.5706538" lon="113.8517329">
        <ele>1.7000000476837158</ele>
        <time>2026-06-17T02:05:29.887Z</time>
        <speed>0.1319373</speed>
      </trkpt>
      <trkpt lat="22.5706693" lon="113.8517057">
        <ele>1.7000000476837158</ele>
        <time>2026-06-17T02:06:01.878Z</time>
        <speed>0.1346556</speed>
      </trkpt>
      <trkpt lat="22.5706975" lon="113.8516865">
        <ele>1.7000000476837158</ele>
        <time>2026-06-17T02:06:14.713Z</time>
        <speed>0.11135476</speed>
      </trkpt>
      <trkpt lat="22.5707254" lon="113.8516896">
        <ele>1.7000000476837158</ele>
        <time>2026-06-17T02:06:57.889Z</time>
        <speed>0.1039429</speed>
      </trkpt>
      <trkpt lat="22.5707314" lon="113.8516605">
        <ele>1.899999976158142</ele>
        <time>2026-06-17T02:07:49.888Z</time>
        <speed>0.05929627</speed>
      </trkpt>
      <trkpt lat="22.5707334" lon="113.8516911">
        <ele>1.7000000476837158</ele>
        <time>2026-06-17T02:10:43.886Z</time>
        <speed>0.080696255</speed>
      </trkpt>
      <trkpt lat="22.5707715" lon="113.8516907">
        <ele>1.899999976158142</ele>
        <time>2026-06-17T02:11:03.713Z</time>
        <speed>0.96782804</speed>
      </trkpt>
      <trkpt lat="22.5708157" lon="113.8515973">
        <ele>1.7999999523162842</ele>
        <time>2026-06-17T02:11:09.733Z</time>
        <speed>1.3087368</speed>
      </trkpt>
      <trkpt lat="22.5708616" lon="113.8515786">
        <ele>1.7000000476837158</ele>
        <time>2026-06-17T02:11:13.888Z</time>
        <speed>1.2207086</speed>
      </trkpt>
      <trkpt lat="22.5709375" lon="113.8515544">
        <ele>1.7999999523162842</ele>
        <time>2026-06-17T02:11:20.233Z</time>
        <speed>1.1362456</speed>
      </trkpt>
      <trkpt lat="22.5709175" lon="113.8515323">
        <ele>1.7000000476837158</ele>
        <time>2026-06-17T02:11:36.903Z</time>
        <speed>0.15257794</speed>
      </trkpt>
      <trkpt lat="22.5709145" lon="113.851503">
        <ele>1.899999976158142</ele>
        <time>2026-06-17T02:11:52.711Z</time>
        <speed>0.18786766</speed>
      </trkpt>
      <trkpt lat="22.5709383" lon="113.8514823">
        <ele>1.7999999523162842</ele>
        <time>2026-06-17T02:12:06.795Z</time>
        <speed>0.14107803</speed>
      </trkpt>
      <trkpt lat="22.5709327" lon="113.8515486">
        <ele>0.3999999463558197</ele>
        <time>2026-06-17T02:12:22.886Z</time>
        <speed>0.11900293</speed>
      </trkpt>
      <trkpt lat="22.570907" lon="113.8515695">
        <ele>1.600000023841858</ele>
        <time>2026-06-17T02:12:28.814Z</time>
        <speed>0.12819791</speed>
      </trkpt>
      <trkpt lat="22.5708915" lon="113.8515242">
        <ele>-2.3841858265427618E-8</ele>
        <time>2026-06-17T02:12:50.885Z</time>
        <speed>0.16022377</speed>
      </trkpt>
      <trkpt lat="22.5708871" lon="113.8514889">
        <ele>0.699999988079071</ele>
        <time>2026-06-17T02:12:58.261Z</time>
        <speed>0.0724285</speed>
      </trkpt>
      <trkpt lat="22.5708891" lon="113.8514573">
        <ele>-2.3841858265427618E-8</ele>
        <time>2026-06-17T02:13:10.886Z</time>
        <speed>0.5696969</speed>
      </trkpt>
      <trkpt lat="22.5708848" lon="113.8514891">
        <ele>-0.1000000461935997</ele>
        <time>2026-06-17T02:13:14.912Z</time>
        <speed>1.4908733</speed>
      </trkpt>
      <trkpt lat="22.5708287" lon="113.851585">
        <ele>-0.1000000461935997</ele>
        <time>2026-06-17T02:13:17.885Z</time>
        <speed>2.0257444</speed>
      </trkpt>
      <trkpt lat="22.5706647" lon="113.8518255">
        <ele>-0.1000000461935997</ele>
        <time>2026-06-17T02:13:21.885Z</time>
        <speed>5.1059637</speed>
      </trkpt>
      <trkpt lat="22.5703793" lon="113.8520642">
        <ele>1.600000023841858</ele>
        <time>2026-06-17T02:13:26.886Z</time>
        <speed>6.5655084</speed>
      </trkpt>
      <trkpt lat="22.5700608" lon="113.8525082">
        <ele>1.600000023841858</ele>
        <time>2026-06-17T02:13:33.886Z</time>
        <speed>5.076528</speed>
      </trkpt>
      <trkpt lat="22.5700182" lon="113.8526273">
        <ele>1.600000023841858</ele>
        <time>2026-06-17T02:13:37.886Z</time>
        <speed>1.2505058</speed>
      </trkpt>
      <trkpt lat="22.5700197" lon="113.8526732">
        <ele>1.600000023841858</ele>
        <time>2026-06-17T02:13:41.886Z</time>
        <speed>1.2259324</speed>
      </trkpt>
      <trkpt lat="22.5700662" lon="113.8526763">
        <ele>0.6000000238418579</ele>
        <time>2026-06-17T02:13:49.886Z</time>
        <speed>2.469163</speed>
      </trkpt>
      <trkpt lat="22.5698644" lon="113.852734">
        <ele>0.6000000238418579</ele>
        <time>2026-06-17T02:13:54.886Z</time>
        <speed>4.9547386</speed>
      </trkpt>
      <trkpt lat="22.569721" lon="113.8526877">
        <ele>-2.3841858265427618E-8</ele>
        <time>2026-06-17T02:13:56.882Z</time>
        <speed>6.3558397</speed>
      </trkpt>
      <trkpt lat="22.5695858" lon="113.8525928">
        <ele>-2.3841858265427618E-8</ele>
        <time>2026-06-17T02:13:58.880Z</time>
        <speed>8.22224</speed>
      </trkpt>
      <trkpt lat="22.5694403" lon="113.8524711">
        <ele>-2.3841858265427618E-8</ele>
        <time>2026-06-17T02:14:00.881Z</time>
        <speed>10.849783</speed>
      </trkpt>
      <trkpt lat="22.569089" lon="113.8521915">
        <ele>-2.3841858265427618E-8</ele>
        <time>2026-06-17T02:14:04.881Z</time>
        <speed>11.199835</speed>
      </trkpt>
      <trkpt lat="22.5687814" lon="113.8519585">
        <ele>-2.3841858265427618E-8</ele>
        <time>2026-06-17T02:14:08.881Z</time>
        <speed>10.89025</speed>
      </trkpt>
      <trkpt lat="22.5686949" lon="113.8518969">
        <ele>-2.3841858265427618E-8</ele>
        <time>2026-06-17T02:14:10.882Z</time>
        <speed>10.8768635</speed>
      </trkpt>
      <trkpt lat="22.568372" lon="113.8515687">
        <ele>-2.3841858265427618E-8</ele>
        <time>2026-06-17T02:14:15.882Z</time>
        <speed>6.518373</speed>
      </trkpt>
      <trkpt lat="22.5681455" lon="113.8513166">
        <ele>-2.3841858265427618E-8</ele>
        <time>2026-06-17T02:14:19.883Z</time>
        <speed>9.044599</speed>
      </trkpt>
      <trkpt lat="22.5679665" lon="113.8511379">
        <ele>-2.3841858265427618E-8</ele>
        <time>2026-06-17T02:14:22.889Z</time>
        <speed>7.4241314</speed>
      </trkpt>
      <trkpt lat="22.5678036" lon="113.8509834">
        <ele>-2.3841858265427618E-8</ele>
        <time>2026-06-17T02:14:27.888Z</time>
        <speed>7.115809</speed>
      </trkpt>
      <trkpt lat="22.5677764" lon="113.8509457">
        <ele>-2.3841858265427618E-8</ele>
        <time>2026-06-17T02:14:31.889Z</time>
        <speed>4.9759665</speed>
      </trkpt>
      <trkpt lat="22.5678095" lon="113.8509406">
        <ele>-2.3841858265427618E-8</ele>
        <time>2026-06-17T02:14:50.887Z</time>
        <speed>0.12415281</speed>
      </trkpt>
      <trkpt lat="22.5677955" lon="113.8509124">
        <ele>0.20000001788139343</ele>
        <time>2026-06-17T02:15:02.887Z</time>
        <speed>2.4592454</speed>
      </trkpt>
      <trkpt lat="22.5677042" lon="113.8508681">
        <ele>-2.3841858265427618E-8</ele>
        <time>2026-06-17T02:15:06.886Z</time>
        <speed>2.9991903</speed>
      </trkpt>
      <trkpt lat="22.5676282" lon="113.8508338">
        <ele>-2.3841858265427618E-8</ele>
        <time>2026-06-17T02:15:09.886Z</time>
        <speed>2.9949327</speed>
      </trkpt>
      <trkpt lat="22.5675442" lon="113.8507401">
        <ele>-2.3841858265427618E-8</ele>
        <time>2026-06-17T02:15:13.887Z</time>
        <speed>2.7910676</speed>
      </trkpt>
      <trkpt lat="22.5674383" lon="113.8505674">
        <ele>-2.3841858265427618E-8</ele>
        <time>2026-06-17T02:15:21.888Z</time>
        <speed>1.7623624</speed>
      </trkpt>
      <trkpt lat="22.5673559" lon="113.8504996">
        <ele>0.20000001788139343</ele>
        <time>2026-06-17T02:15:26.888Z</time>
        <speed>2.6513855</speed>
      </trkpt>
      <trkpt lat="22.567311" lon="113.8504657">
        <ele>0.20000001788139343</ele>
        <time>2026-06-17T02:15:29.025Z</time>
        <speed>2.8508732</speed>
      </trkpt>
      <trkpt lat="22.5673059" lon="113.8504094">
        <ele>0.20000001788139343</ele>
        <time>2026-06-17T02:15:30.889Z</time>
        <speed>0.038565736</speed>
      </trkpt>
      <trkpt lat="22.5672502" lon="113.8503842">
        <ele>1.100000023841858</ele>
        <time>2026-06-17T02:15:38.889Z</time>
        <speed>1.1452489</speed>
      </trkpt>
      <trkpt lat="22.5671996" lon="113.8503701">
        <ele>-0.15280303255946137</ele>
        <time>2026-06-17T02:15:46.888Z</time>
        <speed>7.2773716E-8</speed>
      </trkpt>
      <trkpt lat="22.567157" lon="113.8503204">
        <ele>-0.22247937046446253</ele>
        <time>2026-06-17T02:16:21.906Z</time>
        <speed>2.415186</speed>
      </trkpt>
      <trkpt lat="22.5671071" lon="113.8502636">
        <ele>0.20000001788139343</ele>
        <time>2026-06-17T02:16:23.730Z</time>
        <speed>0.40852383</speed>
      </trkpt>
      <trkpt lat="22.5670471" lon="113.8501806">
        <ele>-0.05049237969399201</ele>
        <time>2026-06-17T02:16:28.887Z</time>
        <speed>3.2311306</speed>
      </trkpt>
      <trkpt lat="22.5669284" lon="113.8500611">
        <ele>0.07280716551311883</ele>
        <time>2026-06-17T02:16:32.889Z</time>
        <speed>4.4301033</speed>
      </trkpt>
      <trkpt lat="22.5668795" lon="113.8499931">
        <ele>0.06504102366830011</ele>
        <time>2026-06-17T02:16:37.887Z</time>
        <speed>0.21585645</speed>
      </trkpt>
      <trkpt lat="22.5667045" lon="113.8498071">
        <ele>-0.09503112280789594</ele>
        <time>2026-06-17T02:16:44.888Z</time>
        <speed>3.6548474</speed>
      </trkpt>
      <trkpt lat="22.5663856" lon="113.849606">
        <ele>0.20286706976204272</ele>
        <time>2026-06-17T02:16:52.889Z</time>
        <speed>6.2221856</speed>
      </trkpt>
      <trkpt lat="22.5661852" lon="113.8493837">
        <ele>0.2917868937427528</ele>
        <time>2026-06-17T02:16:56.889Z</time>
        <speed>6.909669</speed>
      </trkpt>
      <trkpt lat="22.5656696" lon="113.8488226">
        <ele>0.20000001788139343</ele>
        <time>2026-06-17T02:17:04.888Z</time>
        <speed>10.588162</speed>
      </trkpt>
      <trkpt lat="22.565272" lon="113.8484343">
        <ele>1.8514040185038994</ele>
        <time>2026-06-17T02:17:08.889Z</time>
        <speed>13.774254</speed>
      </trkpt>
      <trkpt lat="22.5649034" lon="113.8480484">
        <ele>3.700000047683716</ele>
        <time>2026-06-17T02:17:12.889Z</time>
        <speed>13.272601</speed>
      </trkpt>
      <trkpt lat="22.5646967" lon="113.847831">
        <ele>1.899999976158142</ele>
        <time>2026-06-17T02:17:20.889Z</time>
        <speed>6.007068</speed>
      </trkpt>
      <trkpt lat="22.5646443" lon="113.8478045">
        <ele>0.0956872008074896</ele>
        <time>2026-06-17T02:17:28.889Z</time>
        <speed>0.05887077</speed>
      </trkpt>
      <trkpt lat="22.5646429" lon="113.8478361">
        <ele>-0.010390333103437399</ele>
        <time>2026-06-17T02:18:28.720Z</time>
        <speed>2.4218175</speed>
      </trkpt>
      <trkpt lat="22.5639783" lon="113.8471874">
        <ele>1.1799344904312647</ele>
        <time>2026-06-17T02:18:45.888Z</time>
        <speed>8.38</speed>
      </trkpt>
      <trkpt lat="22.5635688" lon="113.8475204">
        <ele>1.4038407822611632</ele>
        <time>2026-06-17T02:18:51.888Z</time>
        <speed>7.3383055</speed>
      </trkpt>
      <trkpt lat="22.5634421" lon="113.8476407">
        <ele>1.4038407822611632</ele>
        <time>2026-06-17T02:18:54.888Z</time>
        <speed>6.267035</speed>
      </trkpt>
      <trkpt lat="22.5633245" lon="113.8478636">
        <ele>1.2709400082804336</ele>
        <time>2026-06-17T02:18:58.886Z</time>
        <speed>6.3267417</speed>
      </trkpt>
      <trkpt lat="22.5632233" lon="113.8479706">
        <ele>1.1965717781663372</ele>
        <time>2026-06-17T02:19:00.886Z</time>
        <speed>6.011833</speed>
      </trkpt>
      <trkpt lat="22.5631357" lon="113.8480733">
        <ele>1.305264023699067</ele>
        <time>2026-06-17T02:19:05.889Z</time>
        <speed>5.130054</speed>
      </trkpt>
      <trkpt lat="22.5630863" lon="113.8480702">
        <ele>1.4998355912914292</ele>
        <time>2026-06-17T02:19:17.889Z</time>
        <speed>1.6364355</speed>
      </trkpt>
      <trkpt lat="22.5630496" lon="113.8481002">
        <ele>1.6933055592799064</ele>
        <time>2026-06-17T02:19:20.297Z</time>
        <speed>1.8941242</speed>
      </trkpt>
      <trkpt lat="22.5623437" lon="113.8487242">
        <ele>3.700000047683716</ele>
        <time>2026-06-17T02:19:25.889Z</time>
        <speed>12.499473</speed>
      </trkpt>
      <trkpt lat="22.5619398" lon="113.8490788">
        <ele>3.209349538620984</ele>
        <time>2026-06-17T02:19:29.889Z</time>
        <speed>14.699911</speed>
      </trkpt>
      <trkpt lat="22.5615003" lon="113.8495261">
        <ele>4.273694401523869</ele>
        <time>2026-06-17T02:19:33.888Z</time>
        <speed>15.695298</speed>
      </trkpt>
      <trkpt lat="22.5611068" lon="113.8498576">
        <ele>4.213418441440673</ele>
        <time>2026-06-17T02:19:37.889Z</time>
        <speed>13.718798</speed>
      </trkpt>
      <trkpt lat="22.5608254" lon="113.8501686">
        <ele>3.436739509569165</ele>
        <time>2026-06-17T02:19:41.887Z</time>
        <speed>10.662978</speed>
      </trkpt>
      <trkpt lat="22.5606833" lon="113.8503017">
        <ele>3.10699638460423</ele>
        <time>2026-06-17T02:19:43.889Z</time>
        <speed>9.320842</speed>
      </trkpt>
      <trkpt lat="22.5604086" lon="113.8505558">
        <ele>2.5420600981643986</ele>
        <time>2026-06-17T02:19:47.889Z</time>
        <speed>8.853929</speed>
      </trkpt>
      <trkpt lat="22.5603052" lon="113.8506521">
        <ele>2.5188148020373617</ele>
        <time>2026-06-17T02:19:49.889Z</time>
        <speed>7.603654</speed>
      </trkpt>
      <trkpt lat="22.5601828" lon="113.850768">
        <ele>3.700000047683716</ele>
        <time>2026-06-17T02:19:51.887Z</time>
        <speed>8.407427</speed>
      </trkpt>
      <trkpt lat="22.5597475" lon="113.8511797">
        <ele>2.887956434187835</ele>
        <time>2026-06-17T02:19:56.889Z</time>
        <speed>15.532817</speed>
      </trkpt>
      <trkpt lat="22.5593271" lon="113.8515527">
        <ele>4.2290833132389665</ele>
        <time>2026-06-17T02:20:00.889Z</time>
        <speed>15.288108</speed>
      </trkpt>
      <trkpt lat="22.5589503" lon="113.8519187">
        <ele>4.705637398901395</ele>
        <time>2026-06-17T02:20:04.887Z</time>
        <speed>14.481293</speed>
      </trkpt>
      <trkpt lat="22.5585593" lon="113.8523097">
        <ele>4.429608618731692</ele>
        <time>2026-06-17T02:20:08.888Z</time>
        <speed>14.209242</speed>
      </trkpt>
      <trkpt lat="22.5582223" lon="113.8527036">
        <ele>4.2909922314637825</ele>
        <time>2026-06-17T02:20:12.888Z</time>
        <speed>13.516511</speed>
      </trkpt>
      <trkpt lat="22.5579497" lon="113.8530645">
        <ele>4.237638135018841</ele>
        <time>2026-06-17T02:20:16.889Z</time>
        <speed>11.794832</speed>
      </trkpt>
      <trkpt lat="22.5577315" lon="113.8532822">
        <ele>3.8500685101989944</ele>
        <time>2026-06-17T02:20:20.888Z</time>
        <speed>8.182121</speed>
      </trkpt>
      <trkpt lat="22.5574286" lon="113.8534663">
        <ele>2.80785404632131</ele>
        <time>2026-06-17T02:20:24.888Z</time>
        <speed>10.122825</speed>
      </trkpt>
      <trkpt lat="22.5571294" lon="113.8536287">
        <ele>2.4999291307002096</ele>
        <time>2026-06-17T02:20:28.889Z</time>
        <speed>9.319863</speed>
      </trkpt>
      <trkpt lat="22.5567846" lon="113.8537423">
        <ele>2.622162801857023</ele>
        <time>2026-06-17T02:20:32.888Z</time>
        <speed>9.102742</speed>
      </trkpt>
      <trkpt lat="22.5565739" lon="113.8538113">
        <ele>3.700000047683716</ele>
        <time>2026-06-17T02:20:35.884Z</time>
        <speed>9.016944</speed>
      </trkpt>
      <trkpt lat="22.5556541" lon="113.8540922">
        <ele>2.570828626813231</ele>
        <time>2026-06-17T02:20:48.885Z</time>
        <speed>9.173793</speed>
      </trkpt>
      <trkpt lat="22.5553648" lon="113.8542207">
        <ele>2.2701930652639035</ele>
        <time>2026-06-17T02:20:52.884Z</time>
        <speed>8.980216</speed>
      </trkpt>
      <trkpt lat="22.5550069" lon="113.8543457">
        <ele>2.5785381864133967</ele>
        <time>2026-06-17T02:20:56.885Z</time>
        <speed>11.922601</speed>
      </trkpt>
      <trkpt lat="22.554314" lon="113.8545617">
        <ele>3.212899536201462</ele>
        <time>2026-06-17T02:21:01.885Z</time>
        <speed>16.541409</speed>
      </trkpt>
      <trkpt lat="22.5538133" lon="113.8547169">
        <ele>4.047393045372502</ele>
        <time>2026-06-17T02:21:05.885Z</time>
        <speed>14.771813</speed>
      </trkpt>
      <trkpt lat="22.553461" lon="113.8548246">
        <ele>3.9624493645516736</ele>
        <time>2026-06-17T02:21:09.885Z</time>
        <speed>8.96177</speed>
      </trkpt>
      <trkpt lat="22.5532708" lon="113.8548878">
        <ele>3.205033432976272</ele>
        <time>2026-06-17T02:21:13.884Z</time>
        <speed>6.32</speed>
      </trkpt>
      <trkpt lat="22.5530064" lon="113.8549742">
        <ele>2.0640674475013085</ele>
        <time>2026-06-17T02:21:17.885Z</time>
        <speed>7.91</speed>
      </trkpt>
      <trkpt lat="22.5526513" lon="113.8550419">
        <ele>2.130641282595576</ele>
        <time>2026-06-17T02:21:21.884Z</time>
        <speed>10.61</speed>
      </trkpt>
      <trkpt lat="22.5519003" lon="113.8552974">
        <ele>3.700000047683716</ele>
        <time>2026-06-17T02:21:29.885Z</time>
        <speed>11.15</speed>
      </trkpt>
      <trkpt lat="22.5515136" lon="113.8554133">
        <ele>3.0882701675038504</ele>
        <time>2026-06-17T02:21:33.884Z</time>
        <speed>12.61</speed>
      </trkpt>
      <trkpt lat="22.5510571" lon="113.8555244">
        <ele>3.2736885393595188</ele>
        <time>2026-06-17T02:21:37.884Z</time>
        <speed>14.53</speed>
      </trkpt>
      <trkpt lat="22.55003" lon="113.8558847">
        <ele>3.9837650516939505</ele>
        <time>2026-06-17T02:21:45.885Z</time>
        <speed>12.6</speed>
      </trkpt>
      <trkpt lat="22.5497005" lon="113.8560169">
        <ele>3.330623449183463</ele>
        <time>2026-06-17T02:21:49.884Z</time>
        <speed>9.39</speed>
      </trkpt>
      <trkpt lat="22.549327" lon="113.8561818">
        <ele>2.736593414727608</ele>
        <time>2026-06-17T02:21:53.884Z</time>
        <speed>11.02</speed>
      </trkpt>
      <trkpt lat="22.5489176" lon="113.856324">
        <ele>2.7495971355723015</ele>
        <time>2026-06-17T02:21:57.885Z</time>
        <speed>13.01</speed>
      </trkpt>
      <trkpt lat="22.5484325" lon="113.8565418">
        <ele>3.2551992096409066</ele>
        <time>2026-06-17T02:22:01.884Z</time>
      </trkpt>
      <trkpt lat="22.5481778" lon="113.8566303">
        <ele>3.7082883878943917</ele>
        <time>2026-06-17T02:22:03.885Z</time>
        <speed>13.15</speed>
      </trkpt>
      <trkpt lat="22.546947" lon="113.8571023">
        <ele>3.700000047683716</ele>
        <time>2026-06-17T02:22:15.884Z</time>
        <speed>14.99</speed>
      </trkpt>
      <trkpt lat="22.5464466" lon="113.8573332">
        <ele>4.419956041067316</ele>
        <time>2026-06-17T02:22:19.884Z</time>
        <speed>15.23</speed>
      </trkpt>
      <trkpt lat="22.5461199" lon="113.8574794">
        <ele>4.593200966927334</ele>
        <time>2026-06-17T02:22:23.884Z</time>
        <speed>6.01</speed>
      </trkpt>
      <trkpt lat="22.546067" lon="113.8574937">
        <ele>3.1074659728236043</ele>
        <time>2026-06-17T02:22:27.885Z</time>
        <speed>0.16</speed>
      </trkpt>
      <trkpt lat="22.5460253" lon="113.8574744">
        <ele>1.8778710517874089</ele>
        <time>2026-06-17T02:22:31.884Z</time>
        <speed>0.0</speed>
      </trkpt>
      <trkpt lat="22.5460047" lon="113.8574959">
        <ele>1.821700863579295</ele>
        <time>2026-06-17T02:22:35.885Z</time>
        <speed>0.0</speed>
      </trkpt>
      <trkpt lat="22.5460718" lon="113.8575551">
        <ele>1.8217008194189006</ele>
        <time>2026-06-17T02:22:39.884Z</time>
        <speed>0.0</speed>
      </trkpt>
      <trkpt lat="22.5460466" lon="113.8575375">
        <ele>1.7759328057749713</ele>
        <time>2026-06-17T02:22:43.884Z</time>
        <speed>0.0</speed>
      </trkpt>
      <trkpt lat="22.5459906" lon="113.8575576">
        <ele>1.7598100408012414</ele>
        <time>2026-06-17T02:22:47.885Z</time>
        <speed>2.06</speed>
      </trkpt>
      <trkpt lat="22.5458476" lon="113.8577021">
        <ele>1.7322883283529222</ele>
        <time>2026-06-17T02:22:51.884Z</time>
        <speed>2.35</speed>
      </trkpt>
      <trkpt lat="22.5454566" lon="113.8576728">
        <ele>1.987656368956543</ele>
        <time>2026-06-17T02:22:58.885Z</time>
        <speed>6.7</speed>
      </trkpt>
      <trkpt lat="22.5450274" lon="113.8579568">
        <ele>2.0531455216111567</ele>
        <time>2026-06-17T02:23:05.884Z</time>
        <speed>8.85</speed>
      </trkpt>
      <trkpt lat="22.5448974" lon="113.8579696">
        <ele>2.0931938619910184</ele>
        <time>2026-06-17T02:23:07.885Z</time>
        <speed>9.42</speed>
      </trkpt>
      <trkpt lat="22.5440676" lon="113.8582584">
        <ele>3.5199726443975905</ele>
        <time>2026-06-17T02:23:15.885Z</time>
        <speed>11.15</speed>
      </trkpt>
      <trkpt lat="22.5435978" lon="113.8584446">
        <ele>3.508010663859615</ele>
        <time>2026-06-17T02:23:23.884Z</time>
        <speed>4.88</speed>
      </trkpt>
      <trkpt lat="22.543246" lon="113.8585069">
        <ele>2.609679397084072</ele>
        <time>2026-06-17T02:23:31.885Z</time>
        <speed>4.9</speed>
      </trkpt>
      <trkpt lat="22.5430524" lon="113.8585706">
        <ele>2.5483009709724342</ele>
        <time>2026-06-17T02:23:35.885Z</time>
        <speed>4.56</speed>
      </trkpt>
      <trkpt lat="22.5429261" lon="113.8586032">
        <ele>2.0531899197510057</ele>
        <time>2026-06-17T02:23:43.885Z</time>
        <speed>2.74</speed>
      </trkpt>
      <trkpt lat="22.5428625" lon="113.8585959">
        <ele>2.043263969746185</ele>
        <time>2026-06-17T02:23:47.884Z</time>
        <speed>1.72</speed>
      </trkpt>
      <trkpt lat="22.5427384" lon="113.8587054">
        <ele>2.1098379530490803</ele>
        <time>2026-06-17T02:23:51.885Z</time>
        <speed>3.47</speed>
      </trkpt>
      <trkpt lat="22.5426005" lon="113.8587171">
        <ele>2.22738268860774</ele>
        <time>2026-06-17T02:23:55.885Z</time>
        <speed>4.03</speed>
      </trkpt>
      <trkpt lat="22.5424503" lon="113.8587416">
        <ele>2.356372714450856</ele>
        <time>2026-06-17T02:23:59.885Z</time>
        <speed>3.7</speed>
      </trkpt>
      <trkpt lat="22.542226" lon="113.8588348">
        <ele>2.2996790617069465</ele>
        <time>2026-06-17T02:24:07.885Z</time>
        <speed>3.3</speed>
      </trkpt>
      <trkpt lat="22.542166" lon="113.8588621">
        <ele>2.017257803283151</ele>
        <time>2026-06-17T02:24:11.885Z</time>
        <speed>0.44</speed>
      </trkpt>
      <trkpt lat="22.5421288" lon="113.8589133">
        <ele>1.7250070697484503</ele>
        <time>2026-06-17T02:24:23.885Z</time>
        <speed>2.0</speed>
      </trkpt>
      <trkpt lat="22.5420521" lon="113.8589056">
        <ele>1.7166428077446128</ele>
        <time>2026-06-17T02:24:31.885Z</time>
        <speed>0.0</speed>
      </trkpt>
      <trkpt lat="22.542041" lon="113.8589429">
        <ele>1.564258738552141</ele>
        <time>2026-06-17T02:24:35.885Z</time>
        <speed>0.9</speed>
      </trkpt>
      <trkpt lat="22.5419216" lon="113.8588976">
        <ele>1.5715398271910601</ele>
        <time>2026-06-17T02:24:40.885Z</time>
        <speed>1.96</speed>
      </trkpt>
      <trkpt lat="22.5418825" lon="113.8589237">
        <ele>1.6391501457273208</ele>
        <time>2026-06-17T02:24:43.885Z</time>
      </trkpt>
      <trkpt lat="22.5417794" lon="113.859007">
        <ele>1.6141862079368607</ele>
        <time>2026-06-17T02:24:48.884Z</time>
        <speed>1.95</speed>
      </trkpt>
      <trkpt lat="22.5418099" lon="113.8590667">
        <ele>0.4999999701976776</ele>
        <time>2026-06-17T02:24:51.885Z</time>
        <speed>3.13</speed>
      </trkpt>
      <trkpt lat="22.5419868" lon="113.8589996">
        <ele>0.4999999701976776</ele>
        <time>2026-06-17T02:24:56.884Z</time>
        <speed>4.72</speed>
      </trkpt>
      <trkpt lat="22.5421994" lon="113.8589376">
        <ele>1.6339491356332303</ele>
        <time>2026-06-17T02:24:59.884Z</time>
      </trkpt>
      <trkpt lat="22.5426613" lon="113.8588156">
        <ele>1.7070445168324682</ele>
        <time>2026-06-17T02:25:04.885Z</time>
        <speed>11.54</speed>
      </trkpt>
      <trkpt lat="22.5429194" lon="113.858775">
        <ele>2.270032402414941</ele>
        <time>2026-06-17T02:25:07.884Z</time>
      </trkpt>
      <trkpt lat="22.5435947" lon="113.8585008">
        <ele>3.396165390800988</ele>
        <time>2026-06-17T02:25:13.885Z</time>
        <speed>12.92</speed>
      </trkpt>
      <trkpt lat="22.5438787" lon="113.8584329">
        <ele>3.396165390800988</ele>
        <time>2026-06-17T02:25:15.884Z</time>
        <speed>14.22</speed>
      </trkpt>
      <trkpt lat="22.5446028" lon="113.8582555">
        <ele>1.981514746961949</ele>
        <time>2026-06-17T02:25:27.885Z</time>
        <speed>6.89</speed>
      </trkpt>
      <trkpt lat="22.5447117" lon="113.8582532">
        <ele>2.0194825094152478</ele>
        <time>2026-06-17T02:25:29.885Z</time>
        <speed>6.09</speed>
      </trkpt>
      <trkpt lat="22.5448788" lon="113.8581705">
        <ele>0.4999999701976776</ele>
        <time>2026-06-17T02:25:35.884Z</time>
        <speed>1.23</speed>
      </trkpt>
      <trkpt lat="22.5446851" lon="113.8581739">
        <ele>1.9449639240682046</ele>
        <time>2026-06-17T02:25:50.885Z</time>
      </trkpt>
      <trkpt lat="22.5447387" lon="113.8581639">
        <ele>1.867469289320475</ele>
        <time>2026-06-17T02:25:55.001Z</time>
      </trkpt>
      <trkpt lat="22.5449831" lon="113.8581253">
        <ele>1.8253849638255488</ele>
        <time>2026-06-17T02:25:57.884Z</time>
        <speed>4.04</speed>
      </trkpt>
      <trkpt lat="22.5450934" lon="113.858102">
        <ele>1.8035409700404017</ele>
        <time>2026-06-17T02:25:59.885Z</time>
        <speed>4.02</speed>
      </trkpt>
      <trkpt lat="22.5451869" lon="113.8579904">
        <ele>1.8555073087824994</ele>
        <time>2026-06-17T02:26:01.885Z</time>
        <speed>2.25</speed>
      </trkpt>
      <trkpt lat="22.5452915" lon="113.8579656">
        <ele>1.8555073087824994</ele>
        <time>2026-06-17T02:26:03.884Z</time>
      </trkpt>
      <trkpt lat="22.5453476" lon="113.8579769">
        <ele>1.8529070979620315</ele>
        <time>2026-06-17T02:26:05.884Z</time>
        <speed>0.54</speed>
      </trkpt>
      <trkpt lat="22.5453784" lon="113.8579804">
        <ele>2.059906590153396</ele>
        <time>2026-06-17T02:26:09.884Z</time>
        <speed>0.9</speed>
      </trkpt>
      <trkpt lat="22.5454385" lon="113.8580101">
        <ele>1.8383437938617746</ele>
        <time>2026-06-17T02:26:17.885Z</time>
        <speed>0.3</speed>
      </trkpt>
      <trkpt lat="22.545438" lon="113.8579797">
        <ele>2.9000000953674316</ele>
        <time>2026-06-17T02:26:25.885Z</time>
        <speed>0.0</speed>
      </trkpt>
      <trkpt lat="22.5454546" lon="113.8580174">
        <ele>1.972009574226682</ele>
        <time>2026-06-17T02:26:33.884Z</time>
        <speed>0.34</speed>
      </trkpt>
      <trkpt lat="22.5455032" lon="113.8580179">
        <ele>1.9532853073385752</ele>
        <time>2026-06-17T02:26:41.885Z</time>
        <speed>0.21</speed>
      </trkpt>
      <trkpt lat="22.5454442" lon="113.8580204">
        <ele>1.9075165015084465</ele>
        <time>2026-06-17T02:26:49.884Z</time>
        <speed>0.0</speed>
      </trkpt>
      <trkpt lat="22.5454963" lon="113.8579869">
        <ele>1.8885578274328054</ele>
        <time>2026-06-17T02:26:53.885Z</time>
        <speed>0.0</speed>
      </trkpt>
      <trkpt lat="22.5454661" lon="113.857984">
        <ele>1.9046808595703553</ele>
        <time>2026-06-17T02:26:57.884Z</time>
        <speed>0.19</speed>
      </trkpt>
      <trkpt lat="22.5455472" lon="113.8579992">
        <ele>2.9000000953674316</ele>
        <time>2026-06-17T02:27:01.885Z</time>
        <speed>0.0</speed>
      </trkpt>
      <trkpt lat="22.545493" lon="113.858007">
        <ele>1.9111577476224326</ele>
        <time>2026-06-17T02:27:09.885Z</time>
        <speed>0.58</speed>
      </trkpt>
      <trkpt lat="22.5454459" lon="113.8579892">
        <ele>1.8846323028842065</ele>
        <time>2026-06-17T02:27:13.885Z</time>
        <speed>0.23</speed>
      </trkpt>
      <trkpt lat="22.5455008" lon="113.8580485">
        <ele>1.9532853073385752</ele>
        <time>2026-06-17T02:27:17.885Z</time>
        <speed>2.31</speed>
      </trkpt>
      <trkpt lat="22.5456047" lon="113.8583558">
        <ele>2.110877231385622</ele>
        <time>2026-06-17T02:27:21.884Z</time>
        <speed>6.46</speed>
      </trkpt>
      <trkpt lat="22.5456587" lon="113.8585477">
        <ele>2.552747756859141</ele>
        <time>2026-06-17T02:27:25.885Z</time>
        <speed>5.67</speed>
      </trkpt>
      <trkpt lat="22.5457069" lon="113.8587791">
        <ele>4.200000286102295</ele>
        <time>2026-06-17T02:27:29.885Z</time>
        <speed>7.2</speed>
      </trkpt>
      <trkpt lat="22.5456573" lon="113.8590528">
        <ele>4.200000286102295</ele>
        <time>2026-06-17T02:27:34.885Z</time>
        <speed>3.29</speed>
      </trkpt>
      <trkpt lat="22.5457249" lon="113.8591017">
        <ele>4.200000286102295</ele>
        <time>2026-06-17T02:27:37.885Z</time>
        <speed>2.72</speed>
      </trkpt>
      <trkpt lat="22.545676" lon="113.8591776">
        <ele>4.200000286102295</ele>
        <time>2026-06-17T02:27:41.885Z</time>
        <speed>0.72</speed>
      </trkpt>
      <trkpt lat="22.5456122" lon="113.8592295">
        <ele>2.9000000953674316</ele>
        <time>2026-06-17T02:27:46.885Z</time>
        <speed>0.46</speed>
      </trkpt>
      <trkpt lat="22.5455367" lon="113.859302">
        <ele>2.498368728461294</ele>
        <time>2026-06-17T02:27:49.884Z</time>
        <speed>0.0</speed>
      </trkpt>
      <trkpt lat="22.5455852" lon="113.8593181">
        <ele>2.573789709298886</ele>
        <time>2026-06-17T02:27:54.885Z</time>
        <speed>0.0</speed>
      </trkpt>
      <trkpt lat="22.5456372" lon="113.8593577">
        <ele>2.638807369741116</ele>
        <time>2026-06-17T02:27:57.885Z</time>
        <speed>0.0</speed>
      </trkpt>
      <trkpt lat="22.5454653" lon="113.8594959">
        <ele>4.200000286102295</ele>
        <time>2026-06-17T02:28:05.885Z</time>
        <speed>2.55</speed>
      </trkpt>
      <trkpt lat="22.5454582" lon="113.8595915">
        <ele>4.200000286102295</ele>
        <time>2026-06-17T02:28:11.885Z</time>
        <speed>0.15</speed>
      </trkpt>
      <trkpt lat="22.5455158" lon="113.8597632">
        <ele>4.200000286102295</ele>
        <time>2026-06-17T02:28:13.884Z</time>
        <speed>0.0</speed>
      </trkpt>
      <trkpt lat="22.5456925" lon="113.8598736">
        <ele>4.300000190734863</ele>
        <time>2026-06-17T02:28:18.885Z</time>
        <speed>0.0</speed>
      </trkpt>
      <trkpt lat="22.5456687" lon="113.8600476">
        <ele>4.300000190734863</ele>
        <time>2026-06-17T02:28:21.885Z</time>
        <speed>0.38</speed>
      </trkpt>
      <trkpt lat="22.5456717" lon="113.8601138">
        <ele>4.300000190734863</ele>
        <time>2026-06-17T02:28:29.423Z</time>
        <speed>2.9189124</speed>
      </trkpt>
      <trkpt lat="22.5456714" lon="113.8601803">
        <ele>3.4190615889974865</ele>
        <time>2026-06-17T02:28:32.925Z</time>
        <speed>2.847965</speed>
      </trkpt>
      <trkpt lat="22.5455497" lon="113.8601019">
        <ele>3.5543124785387192</ele>
        <time>2026-06-17T02:28:37.885Z</time>
        <speed>2.144379</speed>
      </trkpt>
      <trkpt lat="22.5455195" lon="113.860138">
        <ele>4.200000286102295</ele>
        <time>2026-06-17T02:28:40.864Z</time>
        <speed>2.1276345</speed>
      </trkpt>
      <trkpt lat="22.5455534" lon="113.8601325">
        <ele>3.267157493653386</ele>
        <time>2026-06-17T02:28:50.544Z</time>
        <speed>0.08599254</speed>
      </trkpt>
      <trkpt lat="22.5455483" lon="113.8600709">
        <ele>3.421151100004913</ele>
        <time>2026-06-17T02:29:04.499Z</time>
        <speed>0.11267598</speed>
      </trkpt>
      <trkpt lat="22.5455914" lon="113.8600012">
        <ele>3.8248314343311662</ele>
        <time>2026-06-17T02:29:08.261Z</time>
        <speed>0.07738211</speed>
      </trkpt>
      <trkpt lat="22.5456167" lon="113.8599748">
        <ele>3.6822741937781416</ele>
        <time>2026-06-17T02:29:10.518Z</time>
        <speed>0.09567701</speed>
      </trkpt>
      <trkpt lat="22.5456464" lon="113.8599719">
        <ele>3.644307635794064</ele>
        <time>2026-06-17T02:29:25.885Z</time>
        <speed>0.111053415</speed>
      </trkpt>
      <trkpt lat="22.5456382" lon="113.860001">
        <ele>3.709863842310206</ele>
        <time>2026-06-17T02:29:43.340Z</time>
        <speed>0.07346556</speed>
      </trkpt>
      <trkpt lat="22.5455929" lon="113.8599967">
        <ele>4.28119612135032</ele>
        <time>2026-06-17T02:29:52.879Z</time>
        <speed>0.11434627</speed>
      </trkpt>
      <trkpt lat="22.5456217" lon="113.8599899">
        <ele>3.7505566127722574</ele>
        <time>2026-06-17T02:30:21.807Z</time>
        <speed>0.32969302</speed>
      </trkpt>
      <trkpt lat="22.5456817" lon="113.8599478">
        <ele>3.618809374322346</ele>
        <time>2026-06-17T02:30:25.599Z</time>
        <speed>1.4357533</speed>
      </trkpt>
      <trkpt lat="22.5457088" lon="113.8598947">
        <ele>3.416981653457988</ele>
        <time>2026-06-17T02:30:29.380Z</time>
        <speed>1.4126987</speed>
      </trkpt>
      <trkpt lat="22.5456862" lon="113.8598688">
        <ele>3.6000911038672925</ele>
        <time>2026-06-17T02:30:32.201Z</time>
        <speed>1.0577753</speed>
      </trkpt>
      <trkpt lat="22.5456549" lon="113.8598333">
        <ele>3.7899672366662003</ele>
        <time>2026-06-17T02:30:34.459Z</time>
        <speed>1.0799074</speed>
      </trkpt>
      <trkpt lat="22.5456543" lon="113.8598035">
        <ele>4.068791162167955</ele>
        <time>2026-06-17T02:30:36.859Z</time>
        <speed>1.0620307</speed>
      </trkpt>
      <trkpt lat="22.5456092" lon="113.8597899">
        <ele>3.938873765849884</ele>
        <time>2026-06-17T02:30:38.978Z</time>
        <speed>1.149874</speed>
      </trkpt>
      <trkpt lat="22.5456334" lon="113.8597681">
        <ele>3.781645825938689</ele>
        <time>2026-06-17T02:30:40.879Z</time>
        <speed>1.2623543</speed>
      </trkpt>
      <trkpt lat="22.545612" lon="113.8597412">
        <ele>3.922102690519523</ele>
        <time>2026-06-17T02:30:43.079Z</time>
        <speed>1.3552687</speed>
      </trkpt>
      <trkpt lat="22.5455954" lon="113.8597136">
        <ele>3.873199697077986</ele>
        <time>2026-06-17T02:30:45.102Z</time>
        <speed>1.3854634</speed>
      </trkpt>
      <trkpt lat="22.5456269" lon="113.8596797">
        <ele>3.9475913109086775</ele>
        <time>2026-06-17T02:30:47.158Z</time>
        <speed>1.33921</speed>
      </trkpt>
      <trkpt lat="22.545614" lon="113.8596283">
        <ele>3.9309441805970593</ele>
        <time>2026-06-17T02:30:49.197Z</time>
        <speed>1.3423399</speed>
      </trkpt>
      <trkpt lat="22.5455937" lon="113.8595748">
        <ele>3.989210662261854</ele>
        <time>2026-06-17T02:30:53.037Z</time>
        <speed>1.3834382</speed>
      </trkpt>
      <trkpt lat="22.5455598" lon="113.8595408">
        <ele>3.9803590983890302</ele>
        <time>2026-06-17T02:30:54.963Z</time>
        <speed>1.442387</speed>
      </trkpt>
      <trkpt lat="22.5455474" lon="113.8595123">
        <ele>4.036543458875741</ele>
        <time>2026-06-17T02:30:56.897Z</time>
        <speed>1.4358451</speed>
      </trkpt>
      <trkpt lat="22.5455007" lon="113.8595048">
        <ele>4.09806219983011</ele>
        <time>2026-06-17T02:30:58.858Z</time>
        <speed>1.371884</speed>
      </trkpt>
      <trkpt lat="22.5454784" lon="113.859487">
        <ele>4.118351133517784</ele>
        <time>2026-06-17T02:31:00.842Z</time>
        <speed>1.3850261</speed>
      </trkpt>
      <trkpt lat="22.5454483" lon="113.8594756">
        <ele>4.031872556933735</ele>
        <time>2026-06-17T02:31:02.819Z</time>
        <speed>1.3883921</speed>
      </trkpt>
      <trkpt lat="22.5453942" lon="113.859456">
        <ele>3.7884184672750862</ele>
        <time>2026-06-17T02:31:06.756Z</time>
        <speed>1.3380822</speed>
      </trkpt>
      <trkpt lat="22.5453565" lon="113.859463">
        <ele>3.643268047998788</ele>
        <time>2026-06-17T02:31:10.821Z</time>
        <speed>1.2204955</speed>
      </trkpt>
      <trkpt lat="22.5453666" lon="113.859492">
        <ele>5.9329970329563295</ele>
        <time>2026-06-17T02:31:32.682Z</time>
        <speed>0.12823603</speed>
      </trkpt>
      <trkpt lat="22.5453648" lon="113.8595341">
        <ele>10.236794460969882</ele>
        <time>2026-06-17T02:31:57.867Z</time>
        <speed>1.3785183</speed>
      </trkpt>
      <trkpt lat="22.5453238" lon="113.8595451">
        <ele>9.960243329881152</ele>
        <time>2026-06-17T02:31:59.747Z</time>
        <speed>1.4702108</speed>
      </trkpt>
      <trkpt lat="22.5452615" lon="113.859489">
        <ele>9.98379605923116</ele>
        <time>2026-06-17T02:32:05.381Z</time>
        <speed>1.5344764</speed>
      </trkpt>
      <trkpt lat="22.5452181" lon="113.8594479">
        <ele>9.834908713947641</ele>
        <time>2026-06-17T02:32:09.282Z</time>
        <speed>1.4748986</speed>
      </trkpt>
      <trkpt lat="22.545191" lon="113.8594281">
        <ele>9.9874401874118</ele>
        <time>2026-06-17T02:32:11.726Z</time>
        <speed>1.3651624</speed>
      </trkpt>
      <trkpt lat="22.5451773" lon="113.8593838">
        <ele>9.943182183991759</ele>
        <time>2026-06-17T02:32:13.847Z</time>
        <speed>1.3488591</speed>
      </trkpt>
      <trkpt lat="22.545164" lon="113.8593569">
        <ele>10.244615418722809</ele>
        <time>2026-06-17T02:32:15.761Z</time>
        <speed>1.3795223</speed>
      </trkpt>
      <trkpt lat="22.5451678" lon="113.8592922">
        <ele>10.188267108959153</ele>
        <time>2026-06-17T02:32:17.826Z</time>
        <speed>1.3918461</speed>
      </trkpt>
      <trkpt lat="22.5451413" lon="113.8592564">
        <ele>10.116014620669958</ele>
        <time>2026-06-17T02:32:21.728Z</time>
        <speed>1.4628261</speed>
      </trkpt>
      <trkpt lat="22.5450885" lon="113.859224">
        <ele>9.507979434877257</ele>
        <time>2026-06-17T02:32:25.648Z</time>
        <speed>1.4517925</speed>
      </trkpt>
      <trkpt lat="22.5450563" lon="113.8592328">
        <ele>9.457883505593863</ele>
        <time>2026-06-17T02:32:27.643Z</time>
        <speed>1.45048</speed>
      </trkpt>
      <trkpt lat="22.5448165" lon="113.8591943">
        <ele>9.734621692193421</ele>
        <time>2026-06-17T02:32:46.503Z</time>
        <speed>1.1023917</speed>
      </trkpt>
      <trkpt lat="22.5448291" lon="113.85915">
        <ele>10.097805943848101</ele>
        <time>2026-06-17T02:32:51.162Z</time>
        <speed>0.814098</speed>
      </trkpt>
      <trkpt lat="22.5448566" lon="113.8591418">
        <ele>9.920157582611125</ele>
        <time>2026-06-17T02:32:53.062Z</time>
        <speed>0.87893194</speed>
      </trkpt>
      <trkpt lat="22.5448795" lon="113.8591189">
        <ele>9.97409776366652</ele>
        <time>2026-06-17T02:32:57.456Z</time>
        <speed>1.0346073</speed>
      </trkpt>
      <trkpt lat="22.5449687" lon="113.8590875">
        <ele>9.053400410498426</ele>
        <time>2026-06-17T02:33:14.279Z</time>
        <speed>0.5961742</speed>
      </trkpt>
      <trkpt lat="22.5449489" lon="113.8590393">
        <ele>9.58125611023707</ele>
        <time>2026-06-17T02:33:18.356Z</time>
        <speed>1.3572302</speed>
      </trkpt>
      <trkpt lat="22.5449416" lon="113.8590111">
        <ele>7.340623234687072</ele>
        <time>2026-06-17T02:33:20.263Z</time>
        <speed>1.3178197</speed>
      </trkpt>
      <trkpt lat="22.5449387" lon="113.859054">
        <ele>8.417822112144435</ele>
        <time>2026-06-17T02:33:29.504Z</time>
        <speed>0.17109124</speed>
      </trkpt>
      <trkpt lat="22.5449676" lon="113.8590998">
        <ele>98.5999984741211</ele>
        <time>2026-06-17T02:34:49.200Z</time>
      </trkpt>
      <trkpt lat="22.544999" lon="113.860314">
        <ele>109.69564471601771</ele>
        <time>2026-06-17T02:35:35.236Z</time>
      </trkpt>
      <trkpt lat="22.5493066" lon="113.8587767">
        <ele>109.32579432519262</ele>
        <time>2026-06-17T02:40:55.045Z</time>
      </trkpt>
      <trkpt lat="22.5449974" lon="113.8603145">
        <ele>109.33046695491174</ele>
        <time>2026-06-17T02:47:27.848Z</time>
      </trkpt>
      <trkpt lat="22.5449709" lon="113.8591008">
        <ele>-9.36263201885879</ele>
        <time>2026-06-17T03:34:13.478Z</time>
      </trkpt>
      <trkpt lat="22.5448255" lon="113.8597419">
        <ele>-66.72452882802881</ele>
        <time>2026-06-17T03:34:47.205Z</time>
      </trkpt>
      <trkpt lat="22.5448537" lon="113.8597057">
        <ele>-68.28969714691465</ele>
        <time>2026-06-17T03:34:53.158Z</time>
        <speed>0.15692863</speed>
      </trkpt>
      <trkpt lat="22.5450211" lon="113.8591727">
        <ele>-105.78709667752219</ele>
        <time>2026-06-17T03:35:22.222Z</time>
      </trkpt>
    </trkseg>
  </trk>
</gpx>
