<?xml version="1.0" encoding="UTF-8"?>
<gpx version="1.1" creator="Pyxis" xmlns="http://www.topografix.com/GPX/1/1">
  <trk>
    <name>trip-20260617-5d1117ea-3853-4266-a739-94955c3be85d_2026-06-17_1200-1600</name>
    <trkseg>
      <trkpt lat="22.5445325" lon="113.8602968">
        <ele>-7.099999904632568</ele>
        <time>2026-06-17T04:04:28.085Z</time>
        <speed>1.1961989</speed>
      </trkpt>
      <trkpt lat="22.5445188" lon="113.8602636">
        <ele>-7.099999904632568</ele>
        <time>2026-06-17T04:04:31.991Z</time>
        <speed>1.3238152</speed>
      </trkpt>
      <trkpt lat="22.5445286" lon="113.8602161">
        <ele>-7.000000476837158</ele>
        <time>2026-06-17T04:04:33.986Z</time>
        <speed>1.3571707</speed>
      </trkpt>
      <trkpt lat="22.5445178" lon="113.8601695">
        <ele>-7.000000476837158</ele>
        <time>2026-06-17T04:04:38.011Z</time>
        <speed>1.245663</speed>
      </trkpt>
      <trkpt lat="22.5445529" lon="113.8601634">
        <ele>-7.000000476837158</ele>
        <time>2026-06-17T04:04:46.704Z</time>
        <speed>0.08882575</speed>
      </trkpt>
      <trkpt lat="22.5445932" lon="113.8601681">
        <ele>-7.000000476837158</ele>
        <time>2026-06-17T04:04:58.624Z</time>
        <speed>0.6133972</speed>
      </trkpt>
      <trkpt lat="22.5446212" lon="113.8601562">
        <ele>-7.000000476837158</ele>
        <time>2026-06-17T04:05:01.207Z</time>
        <speed>0.9755148</speed>
      </trkpt>
      <trkpt lat="22.5446529" lon="113.8601399">
        <ele>-7.000000476837158</ele>
        <time>2026-06-17T04:05:05.285Z</time>
        <speed>1.0397516</speed>
      </trkpt>
      <trkpt lat="22.5446858" lon="113.8601224">
        <ele>-7.000000476837158</ele>
        <time>2026-06-17T04:05:24.166Z</time>
        <speed>0.6156373</speed>
      </trkpt>
      <trkpt lat="22.5447122" lon="113.8600979">
        <ele>-7.000000476837158</ele>
        <time>2026-06-17T04:05:29.806Z</time>
        <speed>0.95954555</speed>
      </trkpt>
      <trkpt lat="22.5447339" lon="113.8600555">
        <ele>-7.000000476837158</ele>
        <time>2026-06-17T04:05:35.977Z</time>
        <speed>1.0623709</speed>
      </trkpt>
      <trkpt lat="22.5448142" lon="113.8600063">
        <ele>-7.000000476837158</ele>
        <time>2026-06-17T04:05:41.784Z</time>
        <speed>1.1168634</speed>
      </trkpt>
      <trkpt lat="22.5448936" lon="113.8600297">
        <ele>-6.900000095367432</ele>
        <time>2026-06-17T04:05:47.241Z</time>
        <speed>1.0842173</speed>
      </trkpt>
      <trkpt lat="22.5449311" lon="113.8600269">
        <ele>-7.000000476837158</ele>
        <time>2026-06-17T04:05:55.395Z</time>
        <speed>0.9477565</speed>
      </trkpt>
      <trkpt lat="22.544963" lon="113.8600428">
        <ele>-7.000000476837158</ele>
        <time>2026-06-17T04:05:58.785Z</time>
        <speed>1.063546</speed>
      </trkpt>
      <trkpt lat="22.5450386" lon="113.8600234">
        <ele>-7.000000476837158</ele>
        <time>2026-06-17T04:06:05.286Z</time>
        <speed>1.0674905</speed>
      </trkpt>
      <trkpt lat="22.5450818" lon="113.859989">
        <ele>-7.000000476837158</ele>
        <time>2026-06-17T04:06:09.961Z</time>
        <speed>1.0363389</speed>
      </trkpt>
      <trkpt lat="22.5451158" lon="113.8599619">
        <ele>-7.000000476837158</ele>
        <time>2026-06-17T04:06:13.932Z</time>
        <speed>1.1671354</speed>
      </trkpt>
      <trkpt lat="22.5451488" lon="113.8599556">
        <ele>-7.000000476837158</ele>
        <time>2026-06-17T04:06:16.391Z</time>
        <speed>1.12597</speed>
      </trkpt>
      <trkpt lat="22.5452072" lon="113.8600506">
        <ele>-7.000000476837158</ele>
        <time>2026-06-17T04:06:24.771Z</time>
        <speed>1.1040419</speed>
      </trkpt>
      <trkpt lat="22.545235" lon="113.8600904">
        <ele>-7.000000476837158</ele>
        <time>2026-06-17T04:06:29.226Z</time>
        <speed>1.0445492</speed>
      </trkpt>
      <trkpt lat="22.5452516" lon="113.8601705">
        <ele>-7.000000476837158</ele>
        <time>2026-06-17T04:06:33.876Z</time>
        <speed>0.2940312</speed>
      </trkpt>
      <trkpt lat="22.5452203" lon="113.8604291">
        <ele>-6.900000095367432</ele>
        <time>2026-06-17T04:06:38.123Z</time>
        <speed>1.164327</speed>
      </trkpt>
      <trkpt lat="22.5452066" lon="113.8604778">
        <ele>-6.900000095367432</ele>
        <time>2026-06-17T04:06:40.223Z</time>
        <speed>1.1844296</speed>
      </trkpt>
      <trkpt lat="22.5451893" lon="113.8604346">
        <ele>-7.000000476837158</ele>
        <time>2026-06-17T04:06:46.876Z</time>
        <speed>1.1465755</speed>
      </trkpt>
      <trkpt lat="22.5451858" lon="113.860478">
        <ele>-7.000000476837158</ele>
        <time>2026-06-17T04:06:51.803Z</time>
        <speed>1.0091697</speed>
      </trkpt>
      <trkpt lat="22.5450798" lon="113.8604503">
        <ele>-4.542336002112563</ele>
        <time>2026-06-17T04:07:00.753Z</time>
        <speed>1.0381999</speed>
      </trkpt>
      <trkpt lat="22.5450583" lon="113.8604319">
        <ele>-3.4542099964009623</ele>
        <time>2026-06-17T04:07:02.877Z</time>
        <speed>1.0192652</speed>
      </trkpt>
      <trkpt lat="22.5450275" lon="113.860312">
        <ele>-1.5000001192092896</ele>
        <time>2026-06-17T04:07:06.876Z</time>
        <speed>0.99855715</speed>
      </trkpt>
      <trkpt lat="22.5449897" lon="113.860285">
        <ele>-2.875675974582151</ele>
        <time>2026-06-17T04:07:10.650Z</time>
        <speed>1.1509408</speed>
      </trkpt>
      <trkpt lat="22.5449446" lon="113.8603151">
        <ele>-1.5000001192092896</ele>
        <time>2026-06-17T04:07:15.606Z</time>
        <speed>1.1802045</speed>
      </trkpt>
      <trkpt lat="22.5449034" lon="113.8603221">
        <ele>-1.3798840876416136</ele>
        <time>2026-06-17T04:07:19.876Z</time>
        <speed>1.0753849</speed>
      </trkpt>
      <trkpt lat="22.544913" lon="113.8602928">
        <ele>0.37061607890612436</ele>
        <time>2026-06-17T04:07:27.306Z</time>
        <speed>0.839489</speed>
      </trkpt>
      <trkpt lat="22.5449294" lon="113.8602405">
        <ele>1.4480339413813539</ele>
        <time>2026-06-17T04:07:37.404Z</time>
        <speed>1.0296956</speed>
      </trkpt>
      <trkpt lat="22.544937" lon="113.8602119">
        <ele>3.5999999046325684</ele>
        <time>2026-06-17T04:07:41.525Z</time>
        <speed>0.9463333</speed>
      </trkpt>
      <trkpt lat="22.5449044" lon="113.8601996">
        <ele>3.5999999046325684</ele>
        <time>2026-06-17T04:07:47.703Z</time>
        <speed>1.3422848</speed>
      </trkpt>
      <trkpt lat="22.5448852" lon="113.8601038">
        <ele>4.300000190734863</ele>
        <time>2026-06-17T04:07:54.411Z</time>
        <speed>1.1741232</speed>
      </trkpt>
      <trkpt lat="22.5449191" lon="113.8600448">
        <ele>4.300000190734863</ele>
        <time>2026-06-17T04:07:58.876Z</time>
        <speed>1.1166667</speed>
      </trkpt>
      <trkpt lat="22.5449213" lon="113.8600047">
        <ele>4.300000190734863</ele>
        <time>2026-06-17T04:08:00.902Z</time>
        <speed>1.1685828</speed>
      </trkpt>
      <trkpt lat="22.5449002" lon="113.8599855">
        <ele>4.300000190734863</ele>
        <time>2026-06-17T04:08:03.030Z</time>
        <speed>1.1890639</speed>
      </trkpt>
      <trkpt lat="22.5449309" lon="113.8599481">
        <ele>4.300000190734863</ele>
        <time>2026-06-17T04:08:05.570Z</time>
        <speed>1.2079128</speed>
      </trkpt>
      <trkpt lat="22.544881" lon="113.8599244">
        <ele>4.300000190734863</ele>
        <time>2026-06-17T04:08:09.866Z</time>
        <speed>1.1834842</speed>
      </trkpt>
      <trkpt lat="22.5447772" lon="113.8599484">
        <ele>4.200000286102295</ele>
        <time>2026-06-17T04:08:16.387Z</time>
        <speed>1.2241243</speed>
      </trkpt>
      <trkpt lat="22.54475" lon="113.8599602">
        <ele>4.200000286102295</ele>
        <time>2026-06-17T04:08:18.524Z</time>
        <speed>1.2221637</speed>
      </trkpt>
      <trkpt lat="22.5447047" lon="113.8599692">
        <ele>4.300000190734863</ele>
        <time>2026-06-17T04:08:22.791Z</time>
        <speed>1.1839492</speed>
      </trkpt>
      <trkpt lat="22.5446502" lon="113.859962">
        <ele>4.300000190734863</ele>
        <time>2026-06-17T04:08:27.191Z</time>
        <speed>1.1762125</speed>
      </trkpt>
      <trkpt lat="22.5446079" lon="113.8598408">
        <ele>4.300000190734863</ele>
        <time>2026-06-17T04:08:38.876Z</time>
        <speed>0.96593267</speed>
      </trkpt>
      <trkpt lat="22.5445806" lon="113.8598587">
        <ele>4.300000190734863</ele>
        <time>2026-06-17T04:08:41.386Z</time>
        <speed>1.0188193</speed>
      </trkpt>
      <trkpt lat="22.544551" lon="113.8598841">
        <ele>4.300000190734863</ele>
        <time>2026-06-17T04:08:43.628Z</time>
        <speed>1.169233</speed>
      </trkpt>
      <trkpt lat="22.5445198" lon="113.85987">
        <ele>4.300000190734863</ele>
        <time>2026-06-17T04:08:46.877Z</time>
        <speed>1.090533</speed>
      </trkpt>
      <trkpt lat="22.5444718" lon="113.8598574">
        <ele>4.400000095367432</ele>
        <time>2026-06-17T04:08:53.084Z</time>
        <speed>1.0275781</speed>
      </trkpt>
      <trkpt lat="22.5444301" lon="113.859827">
        <ele>3.5999999046325684</ele>
        <time>2026-06-17T04:08:58.003Z</time>
        <speed>1.0293573</speed>
      </trkpt>
      <trkpt lat="22.5443674" lon="113.8597553">
        <ele>4.400000095367432</ele>
        <time>2026-06-17T04:09:06.370Z</time>
        <speed>1.0428749</speed>
      </trkpt>
      <trkpt lat="22.5443395" lon="113.8597391">
        <ele>3.5999999046325684</ele>
        <time>2026-06-17T04:09:08.646Z</time>
        <speed>1.0477301</speed>
      </trkpt>
      <trkpt lat="22.5443126" lon="113.8597029">
        <ele>3.5999999046325684</ele>
        <time>2026-06-17T04:09:13.110Z</time>
        <speed>1.0330068</speed>
      </trkpt>
      <trkpt lat="22.544268" lon="113.8596421">
        <ele>4.400000095367432</ele>
        <time>2026-06-17T04:09:18.603Z</time>
        <speed>1.0326113</speed>
      </trkpt>
      <trkpt lat="22.5442437" lon="113.8596156">
        <ele>4.400000095367432</ele>
        <time>2026-06-17T04:09:21.142Z</time>
        <speed>0.8896959</speed>
      </trkpt>
      <trkpt lat="22.5442159" lon="113.8595959">
        <ele>3.5999999046325684</ele>
        <time>2026-06-17T04:09:23.786Z</time>
        <speed>0.79312176</speed>
      </trkpt>
      <trkpt lat="22.5441494" lon="113.8595623">
        <ele>3.979084904905342</ele>
        <time>2026-06-17T04:09:28.631Z</time>
        <speed>1.2451723</speed>
      </trkpt>
      <trkpt lat="22.5440979" lon="113.8595527">
        <ele>3.7515994848115355</ele>
        <time>2026-06-17T04:09:33.330Z</time>
        <speed>1.2503182</speed>
      </trkpt>
      <trkpt lat="22.5440794" lon="113.8595975">
        <ele>3.7058003657743797</ele>
        <time>2026-06-17T04:09:37.365Z</time>
        <speed>1.1526655</speed>
      </trkpt>
      <trkpt lat="22.543698" lon="113.8593927">
        <ele>3.67826244793239</ele>
        <time>2026-06-17T04:09:46.876Z</time>
        <speed>1.49</speed>
      </trkpt>
      <trkpt lat="22.5438492" lon="113.8597227">
        <ele>3.6932387831393143</ele>
        <time>2026-06-17T04:09:51.877Z</time>
        <speed>1.23</speed>
      </trkpt>
      <trkpt lat="22.5438937" lon="113.8598053">
        <ele>3.5245556430494958</ele>
        <time>2026-06-17T04:09:54.876Z</time>
        <speed>1.02</speed>
      </trkpt>
      <trkpt lat="22.5438693" lon="113.8598378">
        <ele>3.48388118343253</ele>
        <time>2026-06-17T04:09:58.876Z</time>
        <speed>0.95</speed>
      </trkpt>
      <trkpt lat="22.54379" lon="113.8598787">
        <ele>3.2205705324321414</ele>
        <time>2026-06-17T04:10:07.372Z</time>
        <speed>1.2376035</speed>
      </trkpt>
      <trkpt lat="22.5437758" lon="113.8599164">
        <ele>3.1190529521294863</ele>
        <time>2026-06-17T04:10:09.487Z</time>
        <speed>1.2459378</speed>
      </trkpt>
      <trkpt lat="22.543763" lon="113.8599629">
        <ele>2.8420982631925966</ele>
        <time>2026-06-17T04:10:13.687Z</time>
        <speed>1.1754243</speed>
      </trkpt>
      <trkpt lat="22.543735" lon="113.8600411">
        <ele>2.850376747862768</ele>
        <time>2026-06-17T04:10:22.330Z</time>
        <speed>1.1598102</speed>
      </trkpt>
      <trkpt lat="22.5436868" lon="113.8600748">
        <ele>2.8472969512387394</ele>
        <time>2026-06-17T04:10:28.508Z</time>
        <speed>1.2239934</speed>
      </trkpt>
      <trkpt lat="22.5436457" lon="113.8600939">
        <ele>2.82648921688952</ele>
        <time>2026-06-17T04:10:32.788Z</time>
        <speed>1.2907227</speed>
      </trkpt>
      <trkpt lat="22.5435865" lon="113.8600892">
        <ele>2.7723629964769287</ele>
        <time>2026-06-17T04:10:37.330Z</time>
        <speed>1.2171254</speed>
      </trkpt>
      <trkpt lat="22.5434831" lon="113.8601206">
        <ele>2.7025831138537058</ele>
        <time>2026-06-17T04:10:45.586Z</time>
        <speed>1.2796447</speed>
      </trkpt>
      <trkpt lat="22.5434505" lon="113.8601149">
        <ele>2.667704680158849</ele>
        <time>2026-06-17T04:10:47.827Z</time>
        <speed>1.2092395</speed>
      </trkpt>
      <trkpt lat="22.5434227" lon="113.8601173">
        <ele>2.8670862901229626</ele>
        <time>2026-06-17T04:10:50.332Z</time>
        <speed>1.1702001</speed>
      </trkpt>
      <trkpt lat="22.5433776" lon="113.8601199">
        <ele>2.9603341247241275</ele>
        <time>2026-06-17T04:10:54.646Z</time>
        <speed>1.0842443</speed>
      </trkpt>
      <trkpt lat="22.5433382" lon="113.8601822">
        <ele>3.19075624339235</ele>
        <time>2026-06-17T04:10:58.876Z</time>
        <speed>1.0901356</speed>
      </trkpt>
      <trkpt lat="22.5433223" lon="113.8602168">
        <ele>3.145464302680942</ele>
        <time>2026-06-17T04:11:01.364Z</time>
        <speed>1.1229686</speed>
      </trkpt>
      <trkpt lat="22.5432835" lon="113.8602276">
        <ele>3.453345650163584</ele>
        <time>2026-06-17T04:11:05.925Z</time>
        <speed>1.0483484</speed>
      </trkpt>
      <trkpt lat="22.5432351" lon="113.8602294">
        <ele>3.5064185513160595</ele>
        <time>2026-06-17T04:11:10.675Z</time>
        <speed>1.1107079</speed>
      </trkpt>
      <trkpt lat="22.5431981" lon="113.8602549">
        <ele>3.5141973563999755</ele>
        <time>2026-06-17T04:11:15.288Z</time>
        <speed>1.0545877</speed>
      </trkpt>
      <trkpt lat="22.5431681" lon="113.8602742">
        <ele>3.6958969903609855</ele>
        <time>2026-06-17T04:11:19.466Z</time>
        <speed>1.1282023</speed>
      </trkpt>
      <trkpt lat="22.5431429" lon="113.8602938">
        <ele>3.724531953331592</ele>
        <time>2026-06-17T04:11:21.926Z</time>
        <speed>1.149629</speed>
      </trkpt>
      <trkpt lat="22.5430482" lon="113.860332">
        <ele>3.9937741992517033</ele>
        <time>2026-06-17T04:11:32.793Z</time>
        <speed>1.1898859</speed>
      </trkpt>
      <trkpt lat="22.5430147" lon="113.8603223">
        <ele>3.9172381070811753</ele>
        <time>2026-06-17T04:11:34.990Z</time>
        <speed>1.2002784</speed>
      </trkpt>
      <trkpt lat="22.5429839" lon="113.8603024">
        <ele>3.8773008772930595</ele>
        <time>2026-06-17T04:11:37.214Z</time>
        <speed>1.0963726</speed>
      </trkpt>
      <trkpt lat="22.5429324" lon="113.8603062">
        <ele>4.031777330130652</ele>
        <time>2026-06-17T04:11:41.571Z</time>
        <speed>1.1130333</speed>
      </trkpt>
      <trkpt lat="22.5428833" lon="113.8603108">
        <ele>4.288399829614185</ele>
        <time>2026-06-17T04:11:45.913Z</time>
        <speed>1.1619518</speed>
      </trkpt>
      <trkpt lat="22.5428449" lon="113.8603309">
        <ele>4.255156652728154</ele>
        <time>2026-06-17T04:11:50.222Z</time>
        <speed>1.1513327</speed>
      </trkpt>
      <trkpt lat="22.5428032" lon="113.8603534">
        <ele>4.368641374451705</ele>
        <time>2026-06-17T04:11:54.326Z</time>
        <speed>1.0907784</speed>
      </trkpt>
      <trkpt lat="22.5427732" lon="113.860374">
        <ele>4.375944198334324</ele>
        <time>2026-06-17T04:12:05.751Z</time>
        <speed>1.1043129</speed>
      </trkpt>
      <trkpt lat="22.542727" lon="113.8604328">
        <ele>4.086415506286869</ele>
        <time>2026-06-17T04:12:11.876Z</time>
        <speed>1.1538582</speed>
      </trkpt>
      <trkpt lat="22.5427177" lon="113.8604666">
        <ele>3.932301188837684</ele>
        <time>2026-06-17T04:12:14.265Z</time>
        <speed>1.149237</speed>
      </trkpt>
      <trkpt lat="22.5426808" lon="113.8604879">
        <ele>4.210885576616036</ele>
        <time>2026-06-17T04:12:18.747Z</time>
        <speed>1.1326699</speed>
      </trkpt>
      <trkpt lat="22.5426549" lon="113.8605015">
        <ele>4.169232163162441</ele>
        <time>2026-06-17T04:12:20.876Z</time>
        <speed>1.1764505</speed>
      </trkpt>
      <trkpt lat="22.5426273" lon="113.8605151">
        <ele>4.389989250968085</ele>
        <time>2026-06-17T04:12:25.284Z</time>
        <speed>1.0540909</speed>
      </trkpt>
      <trkpt lat="22.5426384" lon="113.8605432">
        <ele>4.303998721140282</ele>
        <time>2026-06-17T04:12:29.753Z</time>
        <speed>0.78463453</speed>
      </trkpt>
      <trkpt lat="22.5426021" lon="113.860554">
        <ele>3.897085828244208</ele>
        <time>2026-06-17T04:12:36.762Z</time>
        <speed>1.1786155</speed>
      </trkpt>
      <trkpt lat="22.5425439" lon="113.8605428">
        <ele>3.9536954578200323</ele>
        <time>2026-06-17T04:12:41.291Z</time>
        <speed>1.1624268</speed>
      </trkpt>
      <trkpt lat="22.5424887" lon="113.8605097">
        <ele>4.233243202013945</ele>
        <time>2026-06-17T04:12:45.681Z</time>
        <speed>1.1743693</speed>
      </trkpt>
      <trkpt lat="22.5424462" lon="113.860511">
        <ele>4.218834801002522</ele>
        <time>2026-06-17T04:12:49.786Z</time>
        <speed>1.2241806</speed>
      </trkpt>
      <trkpt lat="22.5424006" lon="113.8605414">
        <ele>4.584733993313542</ele>
        <time>2026-06-17T04:12:54.365Z</time>
        <speed>1.2333827</speed>
      </trkpt>
      <trkpt lat="22.5423603" lon="113.8605548">
        <ele>4.741395264019857</ele>
        <time>2026-06-17T04:12:58.662Z</time>
        <speed>1.1652393</speed>
      </trkpt>
      <trkpt lat="22.5423304" lon="113.8605781">
        <ele>4.738378875777954</ele>
        <time>2026-06-17T04:13:00.868Z</time>
        <speed>1.1955476</speed>
      </trkpt>
      <trkpt lat="22.5423033" lon="113.8605372">
        <ele>4.8456437908625745</ele>
        <time>2026-06-17T04:13:05.147Z</time>
        <speed>1.2321543</speed>
      </trkpt>
      <trkpt lat="22.5422718" lon="113.8605892">
        <ele>4.730652904800259</ele>
        <time>2026-06-17T04:13:09.269Z</time>
        <speed>1.1614926</speed>
      </trkpt>
      <trkpt lat="22.5422462" lon="113.8606032">
        <ele>4.599956762492738</ele>
        <time>2026-06-17T04:13:11.747Z</time>
        <speed>1.1291137</speed>
      </trkpt>
      <trkpt lat="22.542226" lon="113.8606728">
        <ele>4.349353403043722</ele>
        <time>2026-06-17T04:13:15.877Z</time>
        <speed>1.0852993</speed>
      </trkpt>
      <trkpt lat="22.5422325" lon="113.8607086">
        <ele>4.421727819212535</ele>
        <time>2026-06-17T04:13:18.150Z</time>
        <speed>1.064157</speed>
      </trkpt>
      <trkpt lat="22.5422406" lon="113.8607365">
        <ele>4.099432044713808</ele>
        <time>2026-06-17T04:13:20.404Z</time>
        <speed>0.90463287</speed>
      </trkpt>
      <trkpt lat="22.5422253" lon="113.8607643">
        <ele>3.915647678133844</ele>
        <time>2026-06-17T04:13:22.947Z</time>
        <speed>1.1309774</speed>
      </trkpt>
      <trkpt lat="22.5421911" lon="113.8607826">
        <ele>3.957459599916284</ele>
        <time>2026-06-17T04:13:27.258Z</time>
        <speed>1.2070057</speed>
      </trkpt>
      <trkpt lat="22.5421773" lon="113.8608084">
        <ele>4.299920424370377</ele>
        <time>2026-06-17T04:13:29.352Z</time>
        <speed>1.0355799</speed>
      </trkpt>
      <trkpt lat="22.5421459" lon="113.8608311">
        <ele>4.724280464477857</ele>
        <time>2026-06-17T04:13:33.882Z</time>
        <speed>1.0725427</speed>
      </trkpt>
      <trkpt lat="22.542092" lon="113.8608399">
        <ele>4.1927608522231665</ele>
        <time>2026-06-17T04:13:38.564Z</time>
        <speed>1.1463934</speed>
      </trkpt>
      <trkpt lat="22.5421269" lon="113.8608436">
        <ele>4.134960842891829</ele>
        <time>2026-06-17T04:13:42.850Z</time>
        <speed>1.0921646</speed>
      </trkpt>
      <trkpt lat="22.54211" lon="113.8608019">
        <ele>4.2875184508465765</ele>
        <time>2026-06-17T04:13:47.305Z</time>
        <speed>0.8181071</speed>
      </trkpt>
      <trkpt lat="22.5420803" lon="113.8608157">
        <ele>4.542159500288662</ele>
        <time>2026-06-17T04:13:51.877Z</time>
        <speed>0.7874314</speed>
      </trkpt>
      <trkpt lat="22.5420607" lon="113.8608411">
        <ele>4.659337676796149</ele>
        <time>2026-06-17T04:13:55.876Z</time>
        <speed>0.50014716</speed>
      </trkpt>
      <trkpt lat="22.5420336" lon="113.8608654">
        <ele>4.700320464568492</ele>
        <time>2026-06-17T04:14:01.905Z</time>
        <speed>0.6587654</speed>
      </trkpt>
      <trkpt lat="22.5419755" lon="113.8608475">
        <ele>3.456613889330555</ele>
        <time>2026-06-17T04:14:11.876Z</time>
        <speed>0.078366965</speed>
      </trkpt>
      <trkpt lat="22.541968" lon="113.8608765">
        <ele>3.325382989052848</ele>
        <time>2026-06-17T04:14:31.877Z</time>
        <speed>0.104459085</speed>
      </trkpt>
      <trkpt lat="22.5420299" lon="113.860913">
        <ele>3.7257691013902985</ele>
        <time>2026-06-17T04:14:38.323Z</time>
        <speed>0.7118845</speed>
      </trkpt>
      <trkpt lat="22.5420667" lon="113.8609423">
        <ele>3.8804207189773052</ele>
        <time>2026-06-17T04:14:43.044Z</time>
        <speed>1.0017562</speed>
      </trkpt>
      <trkpt lat="22.542089" lon="113.8609117">
        <ele>4.2595689325638375</ele>
        <time>2026-06-17T04:14:49.765Z</time>
        <speed>1.1528653</speed>
      </trkpt>
      <trkpt lat="22.5421353" lon="113.8609027">
        <ele>4.5192237485814815</ele>
        <time>2026-06-17T04:14:54.572Z</time>
        <speed>1.104623</speed>
      </trkpt>
      <trkpt lat="22.5421455" lon="113.8608707">
        <ele>4.455699427841353</ele>
        <time>2026-06-17T04:14:56.791Z</time>
        <speed>1.0882704</speed>
      </trkpt>
      <trkpt lat="22.542186" lon="113.8608472">
        <ele>4.531269683843448</ele>
        <time>2026-06-17T04:15:01.273Z</time>
        <speed>1.0259591</speed>
      </trkpt>
      <trkpt lat="22.5422285" lon="113.8608274">
        <ele>4.70726659707762</ele>
        <time>2026-06-17T04:15:05.727Z</time>
        <speed>1.0380638</speed>
      </trkpt>
      <trkpt lat="22.5422637" lon="113.8608093">
        <ele>4.875968908086918</ele>
        <time>2026-06-17T04:15:09.911Z</time>
        <speed>1.047413</speed>
      </trkpt>
      <trkpt lat="22.5422781" lon="113.8607734">
        <ele>5.001966624520158</ele>
        <time>2026-06-17T04:15:14.726Z</time>
        <speed>1.0596452</speed>
      </trkpt>
      <trkpt lat="22.5423072" lon="113.8607569">
        <ele>4.988948557887156</ele>
        <time>2026-06-17T04:15:18.836Z</time>
        <speed>1.0707115</speed>
      </trkpt>
      <trkpt lat="22.5423367" lon="113.8607495">
        <ele>5.204868367347551</ele>
        <time>2026-06-17T04:15:21.451Z</time>
        <speed>1.0221184</speed>
      </trkpt>
      <trkpt lat="22.5423676" lon="113.8607283">
        <ele>5.340779673977572</ele>
        <time>2026-06-17T04:15:25.480Z</time>
        <speed>1.0577726</speed>
      </trkpt>
      <trkpt lat="22.5423928" lon="113.8607079">
        <ele>5.454430947725697</ele>
        <time>2026-06-17T04:15:27.877Z</time>
        <speed>1.1148018</speed>
      </trkpt>
      <trkpt lat="22.5424169" lon="113.8606929">
        <ele>5.733558805666071</ele>
        <time>2026-06-17T04:15:30.223Z</time>
        <speed>1.2253635</speed>
      </trkpt>
      <trkpt lat="22.5424524" lon="113.8606712">
        <ele>5.793974871893212</ele>
        <time>2026-06-17T04:15:32.431Z</time>
        <speed>1.1938784</speed>
      </trkpt>
      <trkpt lat="22.5424952" lon="113.8606519">
        <ele>5.684620000643051</ele>
        <time>2026-06-17T04:15:36.823Z</time>
        <speed>1.1629171</speed>
      </trkpt>
      <trkpt lat="22.5425363" lon="113.8606309">
        <ele>5.190146243402339</ele>
        <time>2026-06-17T04:15:41.303Z</time>
        <speed>1.1138246</speed>
      </trkpt>
      <trkpt lat="22.5425659" lon="113.8606208">
        <ele>5.112555949471165</ele>
        <time>2026-06-17T04:15:45.350Z</time>
        <speed>1.0890263</speed>
      </trkpt>
      <trkpt lat="22.5426104" lon="113.8606085">
        <ele>4.545324140052557</ele>
        <time>2026-06-17T04:15:50.151Z</time>
        <speed>1.045188</speed>
      </trkpt>
      <trkpt lat="22.5426577" lon="113.8605923">
        <ele>4.13917179650965</ele>
        <time>2026-06-17T04:15:54.949Z</time>
        <speed>1.0190455</speed>
      </trkpt>
      <trkpt lat="22.5427013" lon="113.8605686">
        <ele>4.160519326644383</ele>
        <time>2026-06-17T04:15:59.150Z</time>
        <speed>1.0706372</speed>
      </trkpt>
      <trkpt lat="22.5427454" lon="113.860555">
        <ele>4.298327202335564</ele>
        <time>2026-06-17T04:16:03.788Z</time>
        <speed>1.1214129</speed>
      </trkpt>
      <trkpt lat="22.5428098" lon="113.860537">
        <ele>4.1855880289832825</ele>
        <time>2026-06-17T04:16:10.246Z</time>
        <speed>1.1053735</speed>
      </trkpt>
      <trkpt lat="22.5428387" lon="113.8605152">
        <ele>4.214230936667768</ele>
        <time>2026-06-17T04:16:12.746Z</time>
        <speed>1.0855166</speed>
      </trkpt>
      <trkpt lat="22.5428765" lon="113.8605008">
        <ele>4.274025183688096</ele>
        <time>2026-06-17T04:16:17.291Z</time>
        <speed>1.056364</speed>
      </trkpt>
      <trkpt lat="22.5428967" lon="113.86048">
        <ele>4.366667580591297</ele>
        <time>2026-06-17T04:16:19.563Z</time>
        <speed>1.0119691</speed>
      </trkpt>
      <trkpt lat="22.5429279" lon="113.8604657">
        <ele>4.368229633008745</ele>
        <time>2026-06-17T04:16:23.827Z</time>
        <speed>1.0762503</speed>
      </trkpt>
      <trkpt lat="22.5429529" lon="113.8604462">
        <ele>4.3047063968516</ele>
        <time>2026-06-17T04:16:26.086Z</time>
        <speed>1.0886723</speed>
      </trkpt>
      <trkpt lat="22.5429851" lon="113.8604342">
        <ele>4.2059990861929535</ele>
        <time>2026-06-17T04:16:30.648Z</time>
        <speed>1.038223</speed>
      </trkpt>
      <trkpt lat="22.5430083" lon="113.8603994">
        <ele>4.280457075891057</ele>
        <time>2026-06-17T04:16:32.875Z</time>
        <speed>1.1454543</speed>
      </trkpt>
      <trkpt lat="22.5430428" lon="113.8603686">
        <ele>4.263260997874113</ele>
        <time>2026-06-17T04:16:37.107Z</time>
        <speed>1.1124492</speed>
      </trkpt>
      <trkpt lat="22.5430604" lon="113.8603345">
        <ele>4.253167225869831</ele>
        <time>2026-06-17T04:16:39.302Z</time>
        <speed>1.0812484</speed>
      </trkpt>
      <trkpt lat="22.5430944" lon="113.8603026">
        <ele>4.282357464112671</ele>
        <time>2026-06-17T04:16:43.751Z</time>
        <speed>1.0841241</speed>
      </trkpt>
      <trkpt lat="22.5431549" lon="113.8603013">
        <ele>4.350644241584355</ele>
        <time>2026-06-17T04:16:48.247Z</time>
        <speed>1.0403752</speed>
      </trkpt>
      <trkpt lat="22.5432044" lon="113.8602959">
        <ele>4.484461855915086</ele>
        <time>2026-06-17T04:16:52.746Z</time>
        <speed>1.0899965</speed>
      </trkpt>
      <trkpt lat="22.5432564" lon="113.8603056">
        <ele>4.564048233504501</ele>
        <time>2026-06-17T04:16:56.430Z</time>
        <speed>1.1132814</speed>
      </trkpt>
      <trkpt lat="22.5433273" lon="113.8602898">
        <ele>4.521306521141646</ele>
        <time>2026-06-17T04:17:03.203Z</time>
        <speed>1.0793409</speed>
      </trkpt>
      <trkpt lat="22.5433684" lon="113.8602754">
        <ele>4.434994526094776</ele>
        <time>2026-06-17T04:17:07.688Z</time>
        <speed>1.0789145</speed>
      </trkpt>
      <trkpt lat="22.5434125" lon="113.8602682">
        <ele>4.411563413541259</ele>
        <time>2026-06-17T04:17:12.203Z</time>
        <speed>1.1347318</speed>
      </trkpt>
      <trkpt lat="22.5434532" lon="113.8602139">
        <ele>4.106028533429502</ele>
        <time>2026-06-17T04:17:19.047Z</time>
        <speed>1.0634276</speed>
      </trkpt>
      <trkpt lat="22.5434914" lon="113.8602191">
        <ele>4.223641844412789</ele>
        <time>2026-06-17T04:17:23.533Z</time>
        <speed>1.069138</speed>
      </trkpt>
      <trkpt lat="22.5435316" lon="113.8602243">
        <ele>4.2042558953409355</ele>
        <time>2026-06-17T04:17:27.911Z</time>
        <speed>1.0991381</speed>
      </trkpt>
      <trkpt lat="22.5435578" lon="113.8602346">
        <ele>4.145940519840288</ele>
        <time>2026-06-17T04:17:31.877Z</time>
        <speed>1.1274724</speed>
      </trkpt>
      <trkpt lat="22.5435966" lon="113.8602238">
        <ele>3.8117554504613125</ele>
        <time>2026-06-17T04:17:36.543Z</time>
        <speed>1.1243827</speed>
      </trkpt>
      <trkpt lat="22.5436291" lon="113.8601972">
        <ele>3.7763239575468788</ele>
        <time>2026-06-17T04:17:40.790Z</time>
        <speed>1.1105256</speed>
      </trkpt>
      <trkpt lat="22.543667" lon="113.860139">
        <ele>3.443609953151487</ele>
        <time>2026-06-17T04:17:47.202Z</time>
        <speed>1.1835233</speed>
      </trkpt>
      <trkpt lat="22.5436894" lon="113.8601221">
        <ele>3.2426491328193308</ele>
        <time>2026-06-17T04:17:49.303Z</time>
        <speed>1.1985289</speed>
      </trkpt>
      <trkpt lat="22.543681" lon="113.8600679">
        <ele>3.2005221628762186</ele>
        <time>2026-06-17T04:17:53.530Z</time>
        <speed>1.2389319</speed>
      </trkpt>
      <trkpt lat="22.5436875" lon="113.8600286">
        <ele>3.1640790246936064</ele>
        <time>2026-06-17T04:17:55.603Z</time>
        <speed>1.2712142</speed>
      </trkpt>
      <trkpt lat="22.5437051" lon="113.85999">
        <ele>3.005908534911029</ele>
        <time>2026-06-17T04:17:59.865Z</time>
        <speed>1.2438923</speed>
      </trkpt>
      <trkpt lat="22.5437367" lon="113.8599509">
        <ele>2.8335882405426247</ele>
        <time>2026-06-17T04:18:03.987Z</time>
        <speed>1.1174527</speed>
      </trkpt>
      <trkpt lat="22.5437701" lon="113.8599235">
        <ele>2.914748541987734</ele>
        <time>2026-06-17T04:18:08.727Z</time>
        <speed>1.1528884</speed>
      </trkpt>
      <trkpt lat="22.5438066" lon="113.8599057">
        <ele>2.835057778107057</ele>
        <time>2026-06-17T04:18:15.353Z</time>
        <speed>1.1621748</speed>
      </trkpt>
      <trkpt lat="22.5438489" lon="113.8598894">
        <ele>2.67594179151277</ele>
        <time>2026-06-17T04:18:19.870Z</time>
        <speed>1.109932</speed>
      </trkpt>
      <trkpt lat="22.5438913" lon="113.8598665">
        <ele>2.831601167293023</ele>
        <time>2026-06-17T04:18:24.475Z</time>
        <speed>1.0330034</speed>
      </trkpt>
      <trkpt lat="22.5439401" lon="113.8598466">
        <ele>3.1775721535327506</ele>
        <time>2026-06-17T04:18:29.071Z</time>
        <speed>1.0469598</speed>
      </trkpt>
      <trkpt lat="22.5440308" lon="113.8598338">
        <ele>3.4479115046668625</ele>
        <time>2026-06-17T04:18:33.614Z</time>
        <speed>1.0791571</speed>
      </trkpt>
      <trkpt lat="22.5440586" lon="113.8598238">
        <ele>3.4427051384646603</ele>
        <time>2026-06-17T04:18:35.854Z</time>
        <speed>1.1123775</speed>
      </trkpt>
      <trkpt lat="22.5441228" lon="113.859808">
        <ele>3.680997702273473</ele>
        <time>2026-06-17T04:18:40.431Z</time>
        <speed>1.0298504</speed>
      </trkpt>
      <trkpt lat="22.544154" lon="113.8597955">
        <ele>3.76320603149329</ele>
        <time>2026-06-17T04:18:44.725Z</time>
        <speed>1.001804</speed>
      </trkpt>
      <trkpt lat="22.5441854" lon="113.859784">
        <ele>3.861608893467384</ele>
        <time>2026-06-17T04:18:47.063Z</time>
        <speed>0.9871753</speed>
      </trkpt>
      <trkpt lat="22.5442156" lon="113.8597697">
        <ele>3.9123080952633202</ele>
        <time>2026-06-17T04:18:50.763Z</time>
        <speed>1.0178388</speed>
      </trkpt>
      <trkpt lat="22.5442466" lon="113.8597552">
        <ele>3.6920875801457953</ele>
        <time>2026-06-17T04:18:53.004Z</time>
        <speed>1.1091454</speed>
      </trkpt>
      <trkpt lat="22.5443061" lon="113.8597174">
        <ele>3.9086559232724625</ele>
        <time>2026-06-17T04:18:59.743Z</time>
        <speed>1.086968</speed>
      </trkpt>
      <trkpt lat="22.5443374" lon="113.8596884">
        <ele>-1.0000001192092896</ele>
        <time>2026-06-17T04:19:03.926Z</time>
        <speed>1.0488806</speed>
      </trkpt>
      <trkpt lat="22.5443516" lon="113.8596633">
        <ele>4.200000286102295</ele>
        <time>2026-06-17T04:19:06.483Z</time>
        <speed>1.0459715</speed>
      </trkpt>
      <trkpt lat="22.54438" lon="113.8596334">
        <ele>4.200000286102295</ele>
        <time>2026-06-17T04:19:10.685Z</time>
        <speed>1.0586379</speed>
      </trkpt>
      <trkpt lat="22.5444407" lon="113.8595979">
        <ele>4.200000286102295</ele>
        <time>2026-06-17T04:19:21.924Z</time>
        <speed>1.0484542</speed>
      </trkpt>
      <trkpt lat="22.5444834" lon="113.8595875">
        <ele>4.200000286102295</ele>
        <time>2026-06-17T04:19:26.184Z</time>
        <speed>1.1353731</speed>
      </trkpt>
      <trkpt lat="22.5445177" lon="113.8595766">
        <ele>4.200000286102295</ele>
        <time>2026-06-17T04:19:30.667Z</time>
        <speed>1.1331019</speed>
      </trkpt>
      <trkpt lat="22.5445597" lon="113.8595575">
        <ele>-0.8999999761581421</ele>
        <time>2026-06-17T04:19:34.851Z</time>
        <speed>1.061569</speed>
      </trkpt>
      <trkpt lat="22.5446071" lon="113.8595323">
        <ele>-1.0000001192092896</ele>
        <time>2026-06-17T04:19:41.731Z</time>
        <speed>1.1469706</speed>
      </trkpt>
      <trkpt lat="22.5446744" lon="113.859493">
        <ele>4.300000190734863</ele>
        <time>2026-06-17T04:19:48.428Z</time>
        <speed>1.1162074</speed>
      </trkpt>
      <trkpt lat="22.5447178" lon="113.8594753">
        <ele>4.900000095367432</ele>
        <time>2026-06-17T04:19:52.881Z</time>
        <speed>1.1130537</speed>
      </trkpt>
      <trkpt lat="22.5447481" lon="113.8594638">
        <ele>4.900000095367432</ele>
        <time>2026-06-17T04:19:56.877Z</time>
        <speed>1.0761782</speed>
      </trkpt>
      <trkpt lat="22.5448101" lon="113.8594427">
        <ele>4.300000190734863</ele>
        <time>2026-06-17T04:20:03.631Z</time>
        <speed>1.1242632</speed>
      </trkpt>
      <trkpt lat="22.5448454" lon="113.8594321">
        <ele>-1.0000001192092896</ele>
        <time>2026-06-17T04:20:08.411Z</time>
        <speed>1.0871239</speed>
      </trkpt>
      <trkpt lat="22.5449259" lon="113.8593918">
        <ele>-0.8999999761581421</ele>
        <time>2026-06-17T04:20:17.048Z</time>
        <speed>1.122158</speed>
      </trkpt>
      <trkpt lat="22.5449515" lon="113.8593754">
        <ele>-0.8999999761581421</ele>
        <time>2026-06-17T04:20:19.507Z</time>
        <speed>1.1441408</speed>
      </trkpt>
      <trkpt lat="22.5450037" lon="113.8593903">
        <ele>4.400000095367432</ele>
        <time>2026-06-17T04:20:25.966Z</time>
        <speed>1.1986941</speed>
      </trkpt>
      <trkpt lat="22.5450401" lon="113.8593574">
        <ele>2.6508322531804396</ele>
        <time>2026-06-17T04:20:30.295Z</time>
        <speed>1.2259539</speed>
      </trkpt>
      <trkpt lat="22.5450716" lon="113.8593238">
        <ele>2.580048353034819</ele>
        <time>2026-06-17T04:20:34.715Z</time>
        <speed>1.226922</speed>
      </trkpt>
      <trkpt lat="22.5450973" lon="113.859303">
        <ele>4.300000190734863</ele>
        <time>2026-06-17T04:20:36.832Z</time>
        <speed>1.2170504</speed>
      </trkpt>
      <trkpt lat="22.5451113" lon="113.8592725">
        <ele>4.300000190734863</ele>
        <time>2026-06-17T04:20:41.051Z</time>
        <speed>1.1921575</speed>
      </trkpt>
      <trkpt lat="22.5450787" lon="113.8592168">
        <ele>4.5</ele>
        <time>2026-06-17T04:20:45.470Z</time>
        <speed>1.1627597</speed>
      </trkpt>
      <trkpt lat="22.5450947" lon="113.8591743">
        <ele>0.4998549881740786</ele>
        <time>2026-06-17T04:20:49.843Z</time>
        <speed>1.2134079</speed>
      </trkpt>
      <trkpt lat="22.54511" lon="113.85913">
        <ele>0.349607498501598</ele>
        <time>2026-06-17T04:20:55.593Z</time>
        <speed>1.0978942</speed>
      </trkpt>
      <trkpt lat="22.5451219" lon="113.8590802">
        <ele>0.20224850722981813</ele>
        <time>2026-06-17T04:20:59.830Z</time>
        <speed>1.1885356</speed>
      </trkpt>
      <trkpt lat="22.5450882" lon="113.8590361">
        <ele>4.5</ele>
        <time>2026-06-17T04:21:08.164Z</time>
        <speed>1.1740018</speed>
      </trkpt>
      <trkpt lat="22.5450032" lon="113.8591256">
        <ele>4.5</ele>
        <time>2026-06-17T04:21:10.263Z</time>
        <speed>0.80069584</speed>
      </trkpt>
      <trkpt lat="22.5449687" lon="113.8591174">
        <ele>86.11373760788547</ele>
        <time>2026-06-17T04:22:38.609Z</time>
      </trkpt>
      <trkpt lat="22.5450005" lon="113.8603217">
        <ele>-2.200000047683716</ele>
        <time>2026-06-17T05:57:02.609Z</time>
      </trkpt>
      <trkpt lat="22.5449992" lon="113.8603123">
        <ele>-2.200000047683716</ele>
        <time>2026-06-17T06:27:02.901Z</time>
        <speed>0.0033372887</speed>
      </trkpt>
      <trkpt lat="22.5449636" lon="113.8591115">
        <ele>-6.887594767783867</ele>
        <time>2026-06-17T06:49:12.547Z</time>
        <speed>0.05561724</speed>
      </trkpt>
      <trkpt lat="22.5449931" lon="113.8591388">
        <ele>-103.1347830686205</ele>
        <time>2026-06-17T06:50:07.392Z</time>
      </trkpt>
      <trkpt lat="22.5449858" lon="113.8591694">
        <ele>-106.21835125320663</ele>
        <time>2026-06-17T06:50:18.259Z</time>
        <speed>1.2816975</speed>
      </trkpt>
      <trkpt lat="22.5449876" lon="113.859209">
        <ele>-106.30629060542952</ele>
        <time>2026-06-17T06:50:20.315Z</time>
        <speed>1.282841</speed>
      </trkpt>
      <trkpt lat="22.5450052" lon="113.8592465">
        <ele>-106.35531075503647</ele>
        <time>2026-06-17T06:50:24.056Z</time>
        <speed>1.0700675</speed>
      </trkpt>
      <trkpt lat="22.5449965" lon="113.8592845">
        <ele>-106.38607857855033</ele>
        <time>2026-06-17T06:50:29.675Z</time>
        <speed>0.49293017</speed>
      </trkpt>
      <trkpt lat="22.5449744" lon="113.8593143">
        <ele>-106.43666272711015</ele>
        <time>2026-06-17T06:50:32.031Z</time>
        <speed>1.3885255</speed>
      </trkpt>
      <trkpt lat="22.544948" lon="113.8593334">
        <ele>-106.47838138863828</ele>
        <time>2026-06-17T06:50:34.097Z</time>
        <speed>1.5172014</speed>
      </trkpt>
      <trkpt lat="22.5449214" lon="113.8593434">
        <ele>-106.72191003655001</ele>
        <time>2026-06-17T06:50:36.117Z</time>
        <speed>1.5295752</speed>
      </trkpt>
      <trkpt lat="22.5449128" lon="113.8592876">
        <ele>-106.47525249604391</ele>
        <time>2026-06-17T06:50:40.478Z</time>
        <speed>1.3399428</speed>
      </trkpt>
      <trkpt lat="22.5449195" lon="113.859259">
        <ele>-106.54565230408195</ele>
        <time>2026-06-17T06:50:42.863Z</time>
        <speed>1.0938433</speed>
      </trkpt>
      <trkpt lat="22.5449207" lon="113.859229">
        <ele>-106.4449110939911</ele>
        <time>2026-06-17T06:50:44.853Z</time>
        <speed>1.220221</speed>
      </trkpt>
      <trkpt lat="22.5449365" lon="113.8592025">
        <ele>-106.43187386403584</ele>
        <time>2026-06-17T06:50:46.919Z</time>
        <speed>1.3162693</speed>
      </trkpt>
      <trkpt lat="22.5449774" lon="113.8591765">
        <ele>-106.51896218519343</ele>
        <time>2026-06-17T06:50:50.953Z</time>
        <speed>1.3387196</speed>
      </trkpt>
      <trkpt lat="22.5449578" lon="113.8591309">
        <ele>-106.69730797083636</ele>
        <time>2026-06-17T06:50:54.652Z</time>
        <speed>1.2967358</speed>
      </trkpt>
      <trkpt lat="22.5450156" lon="113.8593243">
        <ele>-112.40749802407933</ele>
        <time>2026-06-17T06:51:20.428Z</time>
      </trkpt>
      <trkpt lat="22.5449579" lon="113.859323">
        <ele>-1.399999976158142</ele>
        <time>2026-06-17T06:51:23.695Z</time>
        <speed>0.05237628</speed>
      </trkpt>
      <trkpt lat="22.5449441" lon="113.8593532">
        <ele>-1.399999976158142</ele>
        <time>2026-06-17T06:51:29.271Z</time>
        <speed>1.3405713</speed>
      </trkpt>
      <trkpt lat="22.5449152" lon="113.8593417">
        <ele>-112.67948839138893</ele>
        <time>2026-06-17T06:51:31.416Z</time>
        <speed>1.5201948</speed>
      </trkpt>
      <trkpt lat="22.5448854" lon="113.8593333">
        <ele>-112.70259208977401</ele>
        <time>2026-06-17T06:51:33.516Z</time>
        <speed>1.5266047</speed>
      </trkpt>
      <trkpt lat="22.5448051" lon="113.859241">
        <ele>-1.8000000715255737</ele>
        <time>2026-06-17T06:51:37.653Z</time>
        <speed>1.5212973</speed>
      </trkpt>
      <trkpt lat="22.5447799" lon="113.8592223">
        <ele>-1.8000000715255737</ele>
        <time>2026-06-17T06:51:39.754Z</time>
        <speed>1.5843372</speed>
      </trkpt>
      <trkpt lat="22.5447202" lon="113.8592247">
        <ele>-1.8000000715255737</ele>
        <time>2026-06-17T06:51:43.938Z</time>
        <speed>1.5581561</speed>
      </trkpt>
      <trkpt lat="22.5447159" lon="113.859195">
        <ele>-1.8000000715255737</ele>
        <time>2026-06-17T06:51:45.977Z</time>
        <speed>1.5267404</speed>
      </trkpt>
      <trkpt lat="22.5446826" lon="113.8591538">
        <ele>-1.8000000715255737</ele>
        <time>2026-06-17T06:51:50.133Z</time>
        <speed>1.513396</speed>
      </trkpt>
      <trkpt lat="22.5446803" lon="113.8591237">
        <ele>-1.8000000715255737</ele>
        <time>2026-06-17T06:51:52.234Z</time>
        <speed>1.5185637</speed>
      </trkpt>
      <trkpt lat="22.5446349" lon="113.8590951">
        <ele>-1.8000000715255737</ele>
        <time>2026-06-17T06:51:56.391Z</time>
        <speed>1.5254147</speed>
      </trkpt>
      <trkpt lat="22.5445492" lon="113.8591136">
        <ele>-1.899999976158142</ele>
        <time>2026-06-17T06:52:02.407Z</time>
        <speed>1.4385777</speed>
      </trkpt>
      <trkpt lat="22.5445198" lon="113.8591967">
        <ele>-1.899999976158142</ele>
        <time>2026-06-17T06:52:08.598Z</time>
        <speed>1.3282509</speed>
      </trkpt>
      <trkpt lat="22.5444166" lon="113.8594633">
        <ele>-1.6999999284744263</ele>
        <time>2026-06-17T06:52:16.793Z</time>
        <speed>2.0943718</speed>
      </trkpt>
      <trkpt lat="22.5443915" lon="113.8595736">
        <ele>-1.6999999284744263</ele>
        <time>2026-06-17T06:52:18.813Z</time>
        <speed>1.1844134</speed>
      </trkpt>
      <trkpt lat="22.5443878" lon="113.8596036">
        <ele>-1.6999999284744263</ele>
        <time>2026-06-17T06:52:20.807Z</time>
        <speed>1.2413832</speed>
      </trkpt>
      <trkpt lat="22.5444065" lon="113.8596518">
        <ele>-1.6999999284744263</ele>
        <time>2026-06-17T06:52:24.930Z</time>
        <speed>1.2579324</speed>
      </trkpt>
      <trkpt lat="22.544576" lon="113.8596729">
        <ele>-1.6999999284744263</ele>
        <time>2026-06-17T06:52:26.952Z</time>
        <speed>1.4188539</speed>
      </trkpt>
      <trkpt lat="22.5446832" lon="113.8596828">
        <ele>-1.6999999284744263</ele>
        <time>2026-06-17T06:52:29.026Z</time>
        <speed>1.3315598</speed>
      </trkpt>
      <trkpt lat="22.5447293" lon="113.8596961">
        <ele>-1.6999999284744263</ele>
        <time>2026-06-17T06:52:31.029Z</time>
        <speed>1.3010641</speed>
      </trkpt>
      <trkpt lat="22.5447684" lon="113.8597125">
        <ele>-1.6999999284744263</ele>
        <time>2026-06-17T06:52:33.113Z</time>
        <speed>1.2811909</speed>
      </trkpt>
      <trkpt lat="22.5447416" lon="113.8596839">
        <ele>-1.6999999284744263</ele>
        <time>2026-06-17T06:52:35.359Z</time>
        <speed>1.3261319</speed>
      </trkpt>
      <trkpt lat="22.5447794" lon="113.8597108">
        <ele>-1.6999999284744263</ele>
        <time>2026-06-17T06:52:39.767Z</time>
        <speed>1.3672495</speed>
      </trkpt>
      <trkpt lat="22.5448629" lon="113.8596871">
        <ele>-1.6999999284744263</ele>
        <time>2026-06-17T06:52:42.022Z</time>
        <speed>1.3906066</speed>
      </trkpt>
      <trkpt lat="22.544924" lon="113.8596765">
        <ele>-1.6999999284744263</ele>
        <time>2026-06-17T06:52:46.351Z</time>
        <speed>1.3923723</speed>
      </trkpt>
      <trkpt lat="22.5449931" lon="113.8596768">
        <ele>-1.6999999284744263</ele>
        <time>2026-06-17T06:52:54.818Z</time>
        <speed>1.2758511</speed>
      </trkpt>
      <trkpt lat="22.5450158" lon="113.8596932">
        <ele>-1.6999999284744263</ele>
        <time>2026-06-17T06:52:56.955Z</time>
        <speed>1.2630363</speed>
      </trkpt>
      <trkpt lat="22.5450333" lon="113.8597208">
        <ele>-1.6999999284744263</ele>
        <time>2026-06-17T06:53:01.814Z</time>
        <speed>1.2035168</speed>
      </trkpt>
      <trkpt lat="22.5450449" lon="113.859765">
        <ele>-1.6999999284744263</ele>
        <time>2026-06-17T06:53:06.592Z</time>
        <speed>1.1820136</speed>
      </trkpt>
      <trkpt lat="22.5450441" lon="113.8595998">
        <ele>-1.6999999284744263</ele>
        <time>2026-06-17T06:53:08.691Z</time>
        <speed>1.2292507</speed>
      </trkpt>
      <trkpt lat="22.5450455" lon="113.8592019">
        <ele>-1.8000000715255737</ele>
        <time>2026-06-17T06:53:10.997Z</time>
        <speed>1.3240122</speed>
      </trkpt>
      <trkpt lat="22.5450714" lon="113.8592891">
        <ele>-1.8000000715255737</ele>
        <time>2026-06-17T06:53:15.031Z</time>
        <speed>1.3048735</speed>
      </trkpt>
      <trkpt lat="22.5450831" lon="113.8593498">
        <ele>-1.8000000715255737</ele>
        <time>2026-06-17T06:53:16.973Z</time>
        <speed>1.3121899</speed>
      </trkpt>
      <trkpt lat="22.5450821" lon="113.8593922">
        <ele>-1.8000000715255737</ele>
        <time>2026-06-17T06:53:19.031Z</time>
        <speed>1.3598326</speed>
      </trkpt>
      <trkpt lat="22.5450751" lon="113.8594322">
        <ele>-1.8000000715255737</ele>
        <time>2026-06-17T06:53:21.077Z</time>
        <speed>1.3614613</speed>
      </trkpt>
      <trkpt lat="22.545189" lon="113.8599236">
        <ele>-1.8000000715255737</ele>
        <time>2026-06-17T06:53:23.178Z</time>
        <speed>1.139371</speed>
      </trkpt>
      <trkpt lat="22.5451716" lon="113.8599656">
        <ele>-1.8000000715255737</ele>
        <time>2026-06-17T06:53:25.252Z</time>
        <speed>1.3961645</speed>
      </trkpt>
      <trkpt lat="22.5449972" lon="113.8600132">
        <ele>-1.8000000715255737</ele>
        <time>2026-06-17T06:53:27.274Z</time>
        <speed>1.4373608</speed>
      </trkpt>
      <trkpt lat="22.5449603" lon="113.8600397">
        <ele>-1.8000000715255737</ele>
        <time>2026-06-17T06:53:29.357Z</time>
        <speed>1.4037812</speed>
      </trkpt>
      <trkpt lat="22.5449345" lon="113.860064">
        <ele>-1.8000000715255737</ele>
        <time>2026-06-17T06:53:31.553Z</time>
        <speed>1.3517053</speed>
      </trkpt>
      <trkpt lat="22.544912" lon="113.860082">
        <ele>-1.8000000715255737</ele>
        <time>2026-06-17T06:53:33.496Z</time>
        <speed>1.3582776</speed>
      </trkpt>
      <trkpt lat="22.5448591" lon="113.8600736">
        <ele>-1.8000000715255737</ele>
        <time>2026-06-17T06:53:35.627Z</time>
        <speed>1.4011229</speed>
      </trkpt>
      <trkpt lat="22.5448286" lon="113.8600716">
        <ele>-1.8000000715255737</ele>
        <time>2026-06-17T06:53:37.986Z</time>
        <speed>1.2804397</speed>
      </trkpt>
      <trkpt lat="22.5448242" lon="113.8600357">
        <ele>-2.000000238418579</ele>
        <time>2026-06-17T06:53:42.393Z</time>
        <speed>0.98689544</speed>
      </trkpt>
      <trkpt lat="22.5448334" lon="113.8600062">
        <ele>-1.899999976158142</ele>
        <time>2026-06-17T06:53:50.217Z</time>
        <speed>0.1302002</speed>
      </trkpt>
      <trkpt lat="22.5448516" lon="113.8600306">
        <ele>-1.899999976158142</ele>
        <time>2026-06-17T06:54:01.079Z</time>
        <speed>0.0185733</speed>
      </trkpt>
      <trkpt lat="22.544856" lon="113.8600617">
        <ele>-1.899999976158142</ele>
        <time>2026-06-17T06:54:32.092Z</time>
        <speed>1.2967316</speed>
      </trkpt>
      <trkpt lat="22.5448653" lon="113.8600963">
        <ele>-1.8000000715255737</ele>
        <time>2026-06-17T06:54:36.091Z</time>
        <speed>1.4359354</speed>
      </trkpt>
      <trkpt lat="22.5449485" lon="113.8599419">
        <ele>-1.8000000715255737</ele>
        <time>2026-06-17T06:54:38.049Z</time>
        <speed>1.4941398</speed>
      </trkpt>
      <trkpt lat="22.5450095" lon="113.8599647">
        <ele>-1.8000000715255737</ele>
        <time>2026-06-17T06:54:44.429Z</time>
        <speed>1.4460863</speed>
      </trkpt>
      <trkpt lat="22.5450632" lon="113.8599791">
        <ele>-1.8000000715255737</ele>
        <time>2026-06-17T06:54:48.427Z</time>
        <speed>1.3882648</speed>
      </trkpt>
      <trkpt lat="22.5450911" lon="113.8599795">
        <ele>-1.8000000715255737</ele>
        <time>2026-06-17T06:54:50.449Z</time>
        <speed>1.3652759</speed>
      </trkpt>
      <trkpt lat="22.5451395" lon="113.8599454">
        <ele>-1.8000000715255737</ele>
        <time>2026-06-17T06:54:54.395Z</time>
        <speed>1.3413008</speed>
      </trkpt>
      <trkpt lat="22.5451355" lon="113.8598879">
        <ele>-1.8000000715255737</ele>
        <time>2026-06-17T06:54:56.372Z</time>
        <speed>1.3879263</speed>
      </trkpt>
      <trkpt lat="22.545139" lon="113.8598427">
        <ele>-1.8000000715255737</ele>
        <time>2026-06-17T06:54:58.314Z</time>
        <speed>1.3763503</speed>
      </trkpt>
      <trkpt lat="22.5451465" lon="113.8598083">
        <ele>-1.8000000715255737</ele>
        <time>2026-06-17T06:55:00.291Z</time>
        <speed>1.3804885</speed>
      </trkpt>
      <trkpt lat="22.5451497" lon="113.8597265">
        <ele>-1.8000000715255737</ele>
        <time>2026-06-17T06:55:04.193Z</time>
        <speed>1.4435859</speed>
      </trkpt>
      <trkpt lat="22.5451476" lon="113.8596841">
        <ele>-1.8000000715255737</ele>
        <time>2026-06-17T06:55:06.125Z</time>
        <speed>1.4559089</speed>
      </trkpt>
      <trkpt lat="22.5451491" lon="113.8596515">
        <ele>-1.8000000715255737</ele>
        <time>2026-06-17T06:55:08.085Z</time>
        <speed>1.4403497</speed>
      </trkpt>
      <trkpt lat="22.5450134" lon="113.8595904">
        <ele>-1.6999999284744263</ele>
        <time>2026-06-17T06:55:10.055Z</time>
        <speed>1.456546</speed>
      </trkpt>
      <trkpt lat="22.5449955" lon="113.8595662">
        <ele>-1.6999999284744263</ele>
        <time>2026-06-17T06:55:12.032Z</time>
        <speed>1.4408791</speed>
      </trkpt>
      <trkpt lat="22.5449244" lon="113.8595703">
        <ele>-1.6999999284744263</ele>
        <time>2026-06-17T06:55:15.968Z</time>
        <speed>1.3953161</speed>
      </trkpt>
      <trkpt lat="22.5449036" lon="113.8595978">
        <ele>-1.6999999284744263</ele>
        <time>2026-06-17T06:55:21.918Z</time>
        <speed>1.3439109</speed>
      </trkpt>
      <trkpt lat="22.5447937" lon="113.8596304">
        <ele>-1.6999999284744263</ele>
        <time>2026-06-17T06:55:30.628Z</time>
        <speed>1.740194</speed>
      </trkpt>
      <trkpt lat="22.5444736" lon="113.8594941">
        <ele>-1.6999999284744263</ele>
        <time>2026-06-17T06:55:32.618Z</time>
        <speed>1.5340002</speed>
      </trkpt>
      <trkpt lat="22.5443934" lon="113.8594272">
        <ele>-1.600000023841858</ele>
        <time>2026-06-17T06:55:34.658Z</time>
        <speed>1.3412282</speed>
      </trkpt>
      <trkpt lat="22.5444071" lon="113.8594808">
        <ele>-1.600000023841858</ele>
        <time>2026-06-17T06:55:36.651Z</time>
        <speed>1.109632</speed>
      </trkpt>
      <trkpt lat="22.544362" lon="113.8594845">
        <ele>-1.600000023841858</ele>
        <time>2026-06-17T06:55:38.654Z</time>
        <speed>1.3886298</speed>
      </trkpt>
      <trkpt lat="22.5443292" lon="113.8594834">
        <ele>-1.600000023841858</ele>
        <time>2026-06-17T06:55:40.633Z</time>
        <speed>1.1779761</speed>
      </trkpt>
      <trkpt lat="22.5442751" lon="113.8594177">
        <ele>-1.899999976158142</ele>
        <time>2026-06-17T06:55:42.759Z</time>
        <speed>1.3574431</speed>
      </trkpt>
      <trkpt lat="22.5442529" lon="113.8593675">
        <ele>-1.899999976158142</ele>
        <time>2026-06-17T06:55:45.194Z</time>
        <speed>1.4211859</speed>
      </trkpt>
      <trkpt lat="22.5442549" lon="113.8593366">
        <ele>-1.899999976158142</ele>
        <time>2026-06-17T06:55:47.311Z</time>
        <speed>1.3507513</speed>
      </trkpt>
      <trkpt lat="22.5442774" lon="113.8593202">
        <ele>-1.899999976158142</ele>
        <time>2026-06-17T06:55:51.201Z</time>
        <speed>1.4707566</speed>
      </trkpt>
      <trkpt lat="22.5443127" lon="113.8593102">
        <ele>-1.899999976158142</ele>
        <time>2026-06-17T06:55:55.408Z</time>
        <speed>1.4983234</speed>
      </trkpt>
      <trkpt lat="22.5443865" lon="113.8592381">
        <ele>-1.899999976158142</ele>
        <time>2026-06-17T06:55:59.574Z</time>
        <speed>1.4047387</speed>
      </trkpt>
      <trkpt lat="22.5444635" lon="113.8591916">
        <ele>-1.899999976158142</ele>
        <time>2026-06-17T06:56:01.533Z</time>
        <speed>1.43366</speed>
      </trkpt>
      <trkpt lat="22.5444895" lon="113.8592265">
        <ele>-1.899999976158142</ele>
        <time>2026-06-17T06:56:06.934Z</time>
        <speed>1.1082397</speed>
      </trkpt>
      <trkpt lat="22.5446076" lon="113.8592078">
        <ele>-1.8000000715255737</ele>
        <time>2026-06-17T06:56:13.886Z</time>
        <speed>1.1438358</speed>
      </trkpt>
      <trkpt lat="22.5446816" lon="113.8591879">
        <ele>-1.8000000715255737</ele>
        <time>2026-06-17T06:56:18.008Z</time>
        <speed>1.2822356</speed>
      </trkpt>
      <trkpt lat="22.5447189" lon="113.8591616">
        <ele>-1.8000000715255737</ele>
        <time>2026-06-17T06:56:22.034Z</time>
        <speed>1.3814249</speed>
      </trkpt>
      <trkpt lat="22.5447799" lon="113.8592043">
        <ele>-1.8000000715255737</ele>
        <time>2026-06-17T06:56:24.054Z</time>
        <speed>1.381113</speed>
      </trkpt>
      <trkpt lat="22.544807" lon="113.859206">
        <ele>-1.8000000715255737</ele>
        <time>2026-06-17T06:56:26.066Z</time>
        <speed>1.3851255</speed>
      </trkpt>
      <trkpt lat="22.5448341" lon="113.8591977">
        <ele>-1.8000000715255737</ele>
        <time>2026-06-17T06:56:28.088Z</time>
        <speed>1.3852813</speed>
      </trkpt>
      <trkpt lat="22.5448582" lon="113.859181">
        <ele>-1.8000000715255737</ele>
        <time>2026-06-17T06:56:30.092Z</time>
        <speed>1.3769602</speed>
      </trkpt>
      <trkpt lat="22.5448955" lon="113.8591965">
        <ele>-1.399999976158142</ele>
        <time>2026-06-17T06:56:32.227Z</time>
        <speed>1.2708997</speed>
      </trkpt>
      <trkpt lat="22.5449328" lon="113.8591779">
        <ele>-1.399999976158142</ele>
        <time>2026-06-17T06:56:36.086Z</time>
        <speed>1.3320959</speed>
      </trkpt>
      <trkpt lat="22.5449565" lon="113.8591629">
        <ele>-1.399999976158142</ele>
        <time>2026-06-17T06:56:38.152Z</time>
        <speed>1.2524147</speed>
      </trkpt>
      <trkpt lat="22.5449674" lon="113.8592035">
        <ele>4.5</ele>
        <time>2026-06-17T06:57:13.152Z</time>
      </trkpt>
      <trkpt lat="22.5450127" lon="113.8592317">
        <ele>4.400000095367432</ele>
        <time>2026-06-17T06:57:21.956Z</time>
        <speed>1.31627</speed>
      </trkpt>
      <trkpt lat="22.5450478" lon="113.8592153">
        <ele>4.400000095367432</ele>
        <time>2026-06-17T06:57:25.874Z</time>
        <speed>1.4192386</speed>
      </trkpt>
      <trkpt lat="22.5450604" lon="113.8591647">
        <ele>4.400000095367432</ele>
        <time>2026-06-17T06:57:29.971Z</time>
        <speed>1.3253688</speed>
      </trkpt>
      <trkpt lat="22.5450201" lon="113.8591185">
        <ele>4.5</ele>
        <time>2026-06-17T06:57:34.572Z</time>
        <speed>1.2926552</speed>
      </trkpt>
      <trkpt lat="22.5450169" lon="113.8592018">
        <ele>4.5</ele>
        <time>2026-06-17T06:57:45.907Z</time>
        <speed>3.3869674</speed>
      </trkpt>
      <trkpt lat="22.544972" lon="113.8591664">
        <ele>4.5</ele>
        <time>2026-06-17T06:57:48.112Z</time>
        <speed>1.3622677</speed>
      </trkpt>
      <trkpt lat="22.5449926" lon="113.8592047">
        <ele>4.5</ele>
        <time>2026-06-17T06:57:52.709Z</time>
        <speed>1.1880157</speed>
      </trkpt>
      <trkpt lat="22.5450039" lon="113.8592385">
        <ele>4.5</ele>
        <time>2026-06-17T06:57:57.315Z</time>
        <speed>0.7204707</speed>
      </trkpt>
      <trkpt lat="22.545087" lon="113.8592688">
        <ele>94.9000015258789</ele>
        <time>2026-06-17T06:59:01.182Z</time>
      </trkpt>
      <trkpt lat="22.5450008" lon="113.8603219">
        <ele>107.85366837539206</ele>
        <time>2026-06-17T06:59:40.165Z</time>
      </trkpt>
    </trkseg>
  </trk>
</gpx>
