<?xml version="1.0" encoding="UTF-8"?>
<gpx version="1.1" creator="Pyxis" xmlns="http://www.topografix.com/GPX/1/1">
  <trk>
    <name>trip-20260617-5d1117ea-3853-4266-a739-94955c3be85d_2026-06-20_0000-0400</name>
    <trkseg>
      <trkpt lat="38.8939065" lon="115.4674947">
        <ele>88.48241875687262</ele>
        <time>2026-06-19T16:07:00.792Z</time>
        <speed>0.0</speed>
      </trkpt>
      <trkpt lat="38.8938694" lon="115.4674846">
        <ele>91.61585231020538</ele>
        <time>2026-06-19T16:22:37.784Z</time>
        <speed>0.3307318</speed>
      </trkpt>
      <trkpt lat="38.8938436" lon="115.4675066">
        <ele>91.661169640991</ele>
        <time>2026-06-19T16:22:45.786Z</time>
        <speed>0.13318047</speed>
      </trkpt>
      <trkpt lat="38.8938371" lon="115.4675404">
        <ele>114.4185936521495</ele>
        <time>2026-06-19T16:41:45.782Z</time>
        <speed>0.08702863</speed>
      </trkpt>
      <trkpt lat="38.8938395" lon="115.4675058">
        <ele>110.53454900669428</ele>
        <time>2026-06-19T17:13:50.780Z</time>
        <speed>0.11662926</speed>
      </trkpt>
      <trkpt lat="38.8938351" lon="115.4674714">
        <ele>105.9311798532431</ele>
        <time>2026-06-19T17:29:22.776Z</time>
        <speed>0.17443573</speed>
      </trkpt>
      <trkpt lat="38.8937875" lon="115.4674214">
        <ele>105.58969919228406</ele>
        <time>2026-06-19T17:30:22.778Z</time>
        <speed>0.21501917</speed>
      </trkpt>
      <trkpt lat="38.8937673" lon="115.4673941">
        <ele>105.51852195398246</ele>
        <time>2026-06-19T17:30:30.776Z</time>
        <speed>0.23316264</speed>
      </trkpt>
      <trkpt lat="38.8937676" lon="115.467356">
        <ele>105.36043458669488</ele>
        <time>2026-06-19T17:30:55.774Z</time>
        <speed>0.26521417</speed>
      </trkpt>
      <trkpt lat="38.8938035" lon="115.4673455">
        <ele>105.12942304472264</ele>
        <time>2026-06-19T17:31:38.778Z</time>
        <speed>0.13853689</speed>
      </trkpt>
      <trkpt lat="38.8938362" lon="115.4673374">
        <ele>105.0463452496044</ele>
        <time>2026-06-19T17:31:50.779Z</time>
        <speed>0.17302594</speed>
      </trkpt>
      <trkpt lat="38.8938646" lon="115.4673322">
        <ele>105.03196950643701</ele>
        <time>2026-06-19T17:31:58.776Z</time>
        <speed>0.21318917</speed>
      </trkpt>
      <trkpt lat="38.893889" lon="115.4673172">
        <ele>105.00499630506567</ele>
        <time>2026-06-19T17:32:38.778Z</time>
        <speed>0.12687095</speed>
      </trkpt>
      <trkpt lat="38.893855" lon="115.4673086">
        <ele>105.73702318450313</ele>
        <time>2026-06-19T17:36:47.775Z</time>
        <speed>0.561791</speed>
      </trkpt>
      <trkpt lat="38.8938111" lon="115.4673111">
        <ele>105.73521936991094</ele>
        <time>2026-06-19T17:36:54.777Z</time>
        <speed>0.30972415</speed>
      </trkpt>
      <trkpt lat="38.8937767" lon="115.4673198">
        <ele>105.7235147368961</ele>
        <time>2026-06-19T17:37:02.777Z</time>
        <speed>0.32799312</speed>
      </trkpt>
      <trkpt lat="38.8937461" lon="115.467329">
        <ele>105.67107933872583</ele>
        <time>2026-06-19T17:37:13.774Z</time>
        <speed>0.43513507</speed>
      </trkpt>
      <trkpt lat="38.8936997" lon="115.4673323">
        <ele>105.75599008297334</ele>
        <time>2026-06-19T17:37:18.780Z</time>
        <speed>0.41402364</speed>
      </trkpt>
      <trkpt lat="38.8936568" lon="115.4673297">
        <ele>105.63759152781742</ele>
        <time>2026-06-19T17:37:22.777Z</time>
        <speed>1.1053644</speed>
      </trkpt>
      <trkpt lat="38.8935885" lon="115.4673319">
        <ele>105.64749922481292</ele>
        <time>2026-06-19T17:37:27.774Z</time>
        <speed>0.9542756</speed>
      </trkpt>
      <trkpt lat="38.8935323" lon="115.4673409">
        <ele>105.61721895279595</ele>
        <time>2026-06-19T17:37:30.776Z</time>
        <speed>0.68136716</speed>
      </trkpt>
      <trkpt lat="38.8934862" lon="115.4673455">
        <ele>105.62256234909279</ele>
        <time>2026-06-19T17:37:34.774Z</time>
        <speed>0.7661915</speed>
      </trkpt>
      <trkpt lat="38.8934482" lon="115.4673526">
        <ele>105.7522395119702</ele>
        <time>2026-06-19T17:37:39.775Z</time>
        <speed>0.7864145</speed>
      </trkpt>
      <trkpt lat="38.8934034" lon="115.467361">
        <ele>105.75969438425153</ele>
        <time>2026-06-19T17:37:46.778Z</time>
        <speed>0.69475776</speed>
      </trkpt>
      <trkpt lat="38.8933637" lon="115.4673678">
        <ele>105.87156843918285</ele>
        <time>2026-06-19T17:39:06.777Z</time>
        <speed>0.30640233</speed>
      </trkpt>
      <trkpt lat="38.8933299" lon="115.4673666">
        <ele>105.83503448088305</ele>
        <time>2026-06-19T17:39:14.777Z</time>
        <speed>0.38057452</speed>
      </trkpt>
      <trkpt lat="38.8933009" lon="115.4673664">
        <ele>105.76821551699564</ele>
        <time>2026-06-19T17:39:22.777Z</time>
        <speed>0.33268234</speed>
      </trkpt>
      <trkpt lat="38.893263" lon="115.4673671">
        <ele>105.76325351341521</ele>
        <time>2026-06-19T17:39:42.780Z</time>
        <speed>0.21960951</speed>
      </trkpt>
      <trkpt lat="38.8932324" lon="115.4673604">
        <ele>105.76589097409123</ele>
        <time>2026-06-19T17:39:58.773Z</time>
        <speed>0.23617175</speed>
      </trkpt>
      <trkpt lat="38.8932029" lon="115.4673638">
        <ele>105.75696792049851</ele>
        <time>2026-06-19T17:40:18.775Z</time>
        <speed>0.21060692</speed>
      </trkpt>
      <trkpt lat="38.8932301" lon="115.4673614">
        <ele>97.86724319806251</ele>
        <time>2026-06-19T17:46:15.774Z</time>
        <speed>0.1689872</speed>
      </trkpt>
      <trkpt lat="38.8932577" lon="115.4673663">
        <ele>97.41127002393495</ele>
        <time>2026-06-19T17:47:19.773Z</time>
        <speed>0.13544466</speed>
      </trkpt>
      <trkpt lat="38.8932851" lon="115.4673632">
        <ele>78.43237365355591</ele>
        <time>2026-06-19T17:50:58.775Z</time>
        <speed>0.09940264</speed>
      </trkpt>
      <trkpt lat="38.8933128" lon="115.4673629">
        <ele>79.70022270910422</ele>
        <time>2026-06-19T17:54:54.774Z</time>
        <speed>0.1222805</speed>
      </trkpt>
      <trkpt lat="38.8933398" lon="115.4673598">
        <ele>79.32249655327118</ele>
        <time>2026-06-19T17:58:38.777Z</time>
        <speed>0.09156961</speed>
      </trkpt>
      <trkpt lat="38.8933687" lon="115.4673586">
        <ele>78.82853791362547</ele>
        <time>2026-06-19T18:02:22.771Z</time>
        <speed>0.75035346</speed>
      </trkpt>
      <trkpt lat="38.8934049" lon="115.4673651">
        <ele>78.89508597371861</ele>
        <time>2026-06-19T18:02:30.774Z</time>
        <speed>0.20223941</speed>
      </trkpt>
      <trkpt lat="38.8934468" lon="115.4673816">
        <ele>78.8867346267345</ele>
        <time>2026-06-19T18:02:46.776Z</time>
        <speed>0.15893994</speed>
      </trkpt>
      <trkpt lat="38.8934761" lon="115.4673861">
        <ele>78.90834182729205</ele>
        <time>2026-06-19T18:03:14.771Z</time>
        <speed>0.23730558</speed>
      </trkpt>
      <trkpt lat="38.8935134" lon="115.4673903">
        <ele>78.9473403266908</ele>
        <time>2026-06-19T18:03:42.775Z</time>
        <speed>0.5228661</speed>
      </trkpt>
      <trkpt lat="38.893552" lon="115.4674015">
        <ele>79.0167230675575</ele>
        <time>2026-06-19T18:03:50.773Z</time>
        <speed>0.18603626</speed>
      </trkpt>
      <trkpt lat="38.8935824" lon="115.4674081">
        <ele>79.0563094915158</ele>
        <time>2026-06-19T18:04:06.772Z</time>
        <speed>0.26482615</speed>
      </trkpt>
      <trkpt lat="38.8936281" lon="115.4674108">
        <ele>79.08456309393029</ele>
        <time>2026-06-19T18:04:30.775Z</time>
        <speed>0.21400765</speed>
      </trkpt>
      <trkpt lat="38.8936845" lon="115.4674115">
        <ele>79.04660730875864</ele>
        <time>2026-06-19T18:04:42.775Z</time>
        <speed>0.24293245</speed>
      </trkpt>
      <trkpt lat="38.893712" lon="115.4674133">
        <ele>79.09993437306548</ele>
        <time>2026-06-19T18:04:50.771Z</time>
        <speed>0.2456178</speed>
      </trkpt>
      <trkpt lat="38.8934989" lon="115.4673288">
        <ele>79.65233874789135</ele>
        <time>2026-06-19T18:07:43.773Z</time>
        <speed>1.2182175</speed>
      </trkpt>
      <trkpt lat="38.8934244" lon="115.4673045">
        <ele>79.65760909538932</ele>
        <time>2026-06-19T18:07:46.776Z</time>
        <speed>1.4630561</speed>
      </trkpt>
      <trkpt lat="38.8933855" lon="115.4672949">
        <ele>79.67130821470462</ele>
        <time>2026-06-19T18:07:50.775Z</time>
        <speed>1.387484</speed>
      </trkpt>
      <trkpt lat="38.89335" lon="115.4672991">
        <ele>79.62231598343655</ele>
        <time>2026-06-19T18:08:02.772Z</time>
        <speed>0.9350948</speed>
      </trkpt>
      <trkpt lat="38.8933753" lon="115.4672869">
        <ele>79.80421293068324</ele>
        <time>2026-06-19T18:08:34.775Z</time>
        <speed>0.37490973</speed>
      </trkpt>
      <trkpt lat="38.8933999" lon="115.4673045">
        <ele>80.44277735761597</ele>
        <time>2026-06-19T18:09:35.770Z</time>
        <speed>0.24422306</speed>
      </trkpt>
      <trkpt lat="38.8934296" lon="115.4673009">
        <ele>80.84738638504149</ele>
        <time>2026-06-19T18:10:34.777Z</time>
        <speed>0.20013465</speed>
      </trkpt>
      <trkpt lat="38.893458" lon="115.4672987">
        <ele>81.43951352085497</ele>
        <time>2026-06-19T18:11:54.774Z</time>
        <speed>0.17248477</speed>
      </trkpt>
      <trkpt lat="38.8934867" lon="115.4672953">
        <ele>88.28422224009077</ele>
        <time>2026-06-19T18:15:30.772Z</time>
        <speed>0.2090127</speed>
      </trkpt>
      <trkpt lat="38.8935138" lon="115.467297">
        <ele>88.71833573486953</ele>
        <time>2026-06-19T18:17:49.769Z</time>
        <speed>0.1595047</speed>
      </trkpt>
      <trkpt lat="38.8935417" lon="115.4672972">
        <ele>89.07535433336528</ele>
        <time>2026-06-19T18:20:24.770Z</time>
        <speed>0.14260495</speed>
      </trkpt>
      <trkpt lat="38.8935702" lon="115.4672962">
        <ele>89.7740295963147</ele>
        <time>2026-06-19T18:21:20.774Z</time>
        <speed>0.3041594</speed>
      </trkpt>
      <trkpt lat="38.8935419" lon="115.4672279">
        <ele>89.64095293273476</ele>
        <time>2026-06-19T18:21:44.773Z</time>
        <speed>0.1628895</speed>
      </trkpt>
      <trkpt lat="38.8935108" lon="115.467227">
        <ele>89.8424868476757</ele>
        <time>2026-06-19T18:21:57.768Z</time>
        <speed>0.68402815</speed>
      </trkpt>
      <trkpt lat="38.8934749" lon="115.4672535">
        <ele>89.95098820156912</ele>
        <time>2026-06-19T18:22:04.774Z</time>
        <speed>0.30140254</speed>
      </trkpt>
      <trkpt lat="38.8934708" lon="115.4672927">
        <ele>89.8520906803596</ele>
        <time>2026-06-19T18:22:16.771Z</time>
        <speed>0.3213949</speed>
      </trkpt>
      <trkpt lat="38.8934425" lon="115.4673078">
        <ele>90.17885540814868</ele>
        <time>2026-06-19T18:22:48.772Z</time>
        <speed>0.33775187</speed>
      </trkpt>
      <trkpt lat="38.8934144" lon="115.4673104">
        <ele>90.23210645021098</ele>
        <time>2026-06-19T18:22:56.773Z</time>
        <speed>0.35540324</speed>
      </trkpt>
      <trkpt lat="38.8933707" lon="115.4673133">
        <ele>90.25002293498747</ele>
        <time>2026-06-19T18:23:04.769Z</time>
        <speed>0.7338976</speed>
      </trkpt>
      <trkpt lat="38.8933" lon="115.4673181">
        <ele>90.43598979644742</ele>
        <time>2026-06-19T18:23:20.773Z</time>
        <speed>1.1378217</speed>
      </trkpt>
      <trkpt lat="38.8932737" lon="115.4673295">
        <ele>90.47670834551042</ele>
        <time>2026-06-19T18:23:56.770Z</time>
        <speed>0.2802581</speed>
      </trkpt>
      <trkpt lat="38.8932573" lon="115.4673651">
        <ele>90.61258971180999</ele>
        <time>2026-06-19T18:24:20.773Z</time>
        <speed>0.23629318</speed>
      </trkpt>
      <trkpt lat="38.893229" lon="115.4673594">
        <ele>90.49674218984902</ele>
        <time>2026-06-19T18:24:40.771Z</time>
        <speed>0.28615245</speed>
      </trkpt>
      <trkpt lat="38.8931696" lon="115.4673512">
        <ele>90.16484752074862</ele>
        <time>2026-06-19T18:25:05.770Z</time>
        <speed>1.180953</speed>
      </trkpt>
      <trkpt lat="38.8931298" lon="115.4673644">
        <ele>90.68360486572965</ele>
        <time>2026-06-19T18:25:13.772Z</time>
        <speed>0.5647709</speed>
      </trkpt>
      <trkpt lat="38.8930848" lon="115.4673816">
        <ele>90.40290531663945</ele>
        <time>2026-06-19T18:25:24.773Z</time>
        <speed>0.5100822</speed>
      </trkpt>
      <trkpt lat="38.893048" lon="115.4673927">
        <ele>90.14692403898837</ele>
        <time>2026-06-19T18:25:32.773Z</time>
        <speed>0.54434395</speed>
      </trkpt>
      <trkpt lat="38.8930124" lon="115.4673931">
        <ele>90.49616486083531</ele>
        <time>2026-06-19T18:25:37.771Z</time>
        <speed>0.56975406</speed>
      </trkpt>
      <trkpt lat="38.8929773" lon="115.4673889">
        <ele>90.34596353540576</ele>
        <time>2026-06-19T18:25:44.772Z</time>
        <speed>0.6707002</speed>
      </trkpt>
      <trkpt lat="38.892947" lon="115.4673784">
        <ele>90.31788238599916</ele>
        <time>2026-06-19T18:25:57.770Z</time>
        <speed>0.28771788</speed>
      </trkpt>
      <trkpt lat="38.892972" lon="115.4673631">
        <ele>90.07953491733807</ele>
        <time>2026-06-19T18:27:34.770Z</time>
        <speed>0.24910381</speed>
      </trkpt>
      <trkpt lat="38.8929993" lon="115.467359">
        <ele>89.90266247501026</ele>
        <time>2026-06-19T18:28:25.773Z</time>
        <speed>0.1795772</speed>
      </trkpt>
      <trkpt lat="38.8930279" lon="115.4673475">
        <ele>89.72530804587629</ele>
        <time>2026-06-19T18:29:10.769Z</time>
        <speed>0.16279353</speed>
      </trkpt>
      <trkpt lat="38.893063" lon="115.4673498">
        <ele>89.49615456291244</ele>
        <time>2026-06-19T18:30:09.775Z</time>
        <speed>0.19957715</speed>
      </trkpt>
      <trkpt lat="38.8930903" lon="115.4673631">
        <ele>89.47273156978119</ele>
        <time>2026-06-19T18:30:21.772Z</time>
        <speed>0.1667025</speed>
      </trkpt>
      <trkpt lat="38.8931187" lon="115.4673776">
        <ele>89.61418077155449</ele>
        <time>2026-06-19T18:30:53.772Z</time>
        <speed>0.22429605</speed>
      </trkpt>
      <trkpt lat="38.8931404" lon="115.4673557">
        <ele>89.42565945690438</ele>
        <time>2026-06-19T18:32:29.774Z</time>
        <speed>0.24111183</speed>
      </trkpt>
      <trkpt lat="38.8931936" lon="115.4673677">
        <ele>64.83227060337856</ele>
        <time>2026-06-19T18:33:17.775Z</time>
        <speed>0.13673371</speed>
      </trkpt>
      <trkpt lat="38.8932229" lon="115.4673681">
        <ele>64.40380270569469</ele>
        <time>2026-06-19T18:34:05.770Z</time>
        <speed>0.30295947</speed>
      </trkpt>
      <trkpt lat="38.8932583" lon="115.4673825">
        <ele>70.06792130973531</ele>
        <time>2026-06-19T18:34:53.775Z</time>
        <speed>0.103467144</speed>
      </trkpt>
      <trkpt lat="38.8932866" lon="115.4674032">
        <ele>67.55185128700708</ele>
        <time>2026-06-19T18:35:13.774Z</time>
        <speed>0.19124477</speed>
      </trkpt>
      <trkpt lat="38.8933089" lon="115.4673826">
        <ele>71.33807945250078</ele>
        <time>2026-06-19T18:36:05.774Z</time>
        <speed>0.12711465</speed>
      </trkpt>
      <trkpt lat="38.8933371" lon="115.4673892">
        <ele>73.93879470754882</ele>
        <time>2026-06-19T18:36:49.769Z</time>
        <speed>0.13950007</speed>
      </trkpt>
      <trkpt lat="38.893364" lon="115.4673827">
        <ele>72.2884885362702</ele>
        <time>2026-06-19T18:37:33.770Z</time>
        <speed>0.11797226</speed>
      </trkpt>
      <trkpt lat="38.8933906" lon="115.4673757">
        <ele>73.31687500390649</ele>
        <time>2026-06-19T18:38:25.772Z</time>
        <speed>0.100427054</speed>
      </trkpt>
      <trkpt lat="38.8934181" lon="115.4673734">
        <ele>73.7845631812165</ele>
        <time>2026-06-19T18:39:53.776Z</time>
        <speed>0.123034894</speed>
      </trkpt>
      <trkpt lat="38.8934489" lon="115.467373">
        <ele>76.83902422640557</ele>
        <time>2026-06-19T18:40:45.771Z</time>
        <speed>0.11793378</speed>
      </trkpt>
      <trkpt lat="38.8934786" lon="115.4673769">
        <ele>76.45519450192006</ele>
        <time>2026-06-19T18:41:09.773Z</time>
        <speed>0.14593181</speed>
      </trkpt>
      <trkpt lat="38.8935114" lon="115.4673757">
        <ele>76.7230931337048</ele>
        <time>2026-06-19T18:41:37.772Z</time>
        <speed>0.32638574</speed>
      </trkpt>
      <trkpt lat="38.8935397" lon="115.4673807">
        <ele>76.94800062214503</ele>
        <time>2026-06-19T18:41:57.768Z</time>
        <speed>0.14191265</speed>
      </trkpt>
      <trkpt lat="38.8935706" lon="115.4673766">
        <ele>76.57070719784886</ele>
        <time>2026-06-19T18:42:37.772Z</time>
        <speed>0.14851832</speed>
      </trkpt>
      <trkpt lat="38.8935961" lon="115.4673618">
        <ele>76.46788776326738</ele>
        <time>2026-06-19T18:43:05.772Z</time>
        <speed>0.14085434</speed>
      </trkpt>
      <trkpt lat="38.8936246" lon="115.467366">
        <ele>76.96528257009473</ele>
        <time>2026-06-19T18:43:17.774Z</time>
        <speed>0.14352806</speed>
      </trkpt>
      <trkpt lat="38.8936556" lon="115.4673628">
        <ele>77.5434715327124</ele>
        <time>2026-06-19T18:43:33.773Z</time>
        <speed>0.13406475</speed>
      </trkpt>
      <trkpt lat="38.8937108" lon="115.4673728">
        <ele>77.05587764008999</ele>
        <time>2026-06-19T18:43:57.769Z</time>
        <speed>0.13984185</speed>
      </trkpt>
      <trkpt lat="38.8937384" lon="115.4673727">
        <ele>77.08769472520208</ele>
        <time>2026-06-19T18:44:37.771Z</time>
        <speed>0.13956697</speed>
      </trkpt>
      <trkpt lat="38.8937655" lon="115.4673744">
        <ele>79.74870445335472</ele>
        <time>2026-06-19T18:48:40.771Z</time>
        <speed>0.12615696</speed>
      </trkpt>
      <trkpt lat="38.8937927" lon="115.4673728">
        <ele>98.9229119658938</ele>
        <time>2026-06-19T18:54:48.772Z</time>
        <speed>0.14045773</speed>
      </trkpt>
      <trkpt lat="38.8938197" lon="115.4673707">
        <ele>101.38174572192489</ele>
        <time>2026-06-19T19:07:04.770Z</time>
        <speed>0.08769452</speed>
      </trkpt>
      <trkpt lat="38.8938409" lon="115.4673488">
        <ele>101.38845429026685</ele>
        <time>2026-06-19T19:22:21.767Z</time>
        <speed>0.102729365</speed>
      </trkpt>
      <trkpt lat="38.8938557" lon="115.4673165">
        <ele>99.93108487423001</ele>
        <time>2026-06-19T19:58:08.768Z</time>
        <speed>0.52517706</speed>
      </trkpt>
      <trkpt lat="38.8938269" lon="115.4672964">
        <ele>99.95699713421496</ele>
        <time>2026-06-19T19:58:24.766Z</time>
        <speed>0.2709696</speed>
      </trkpt>
      <trkpt lat="38.8937917" lon="115.4672879">
        <ele>99.88213693254443</ele>
        <time>2026-06-19T19:58:34.764Z</time>
        <speed>0.34006593</speed>
      </trkpt>
      <trkpt lat="38.8937395" lon="115.4672837">
        <ele>99.86335114208615</ele>
        <time>2026-06-19T19:58:42.764Z</time>
        <speed>0.47265753</speed>
      </trkpt>
      <trkpt lat="38.8937088" lon="115.4672836">
        <ele>99.85713475121887</ele>
        <time>2026-06-19T19:58:45.766Z</time>
        <speed>0.5320797</speed>
      </trkpt>
      <trkpt lat="38.8936757" lon="115.4672695">
        <ele>99.71255213702935</ele>
        <time>2026-06-19T19:59:22.763Z</time>
        <speed>0.27737248</speed>
      </trkpt>
    </trkseg>
  </trk>
</gpx>
