<?xml version="1.0" encoding="UTF-8"?>
<gpx version="1.1" creator="Pyxis" xmlns="http://www.topografix.com/GPX/1/1">
  <trk>
    <name>trip-20260617-5d1117ea-3853-4266-a739-94955c3be85d_2026-06-20_0400-0800</name>
    <trkseg>
      <trkpt lat="38.8936469" lon="115.4672694">
        <ele>99.59341904579054</ele>
        <time>2026-06-19T20:00:02.762Z</time>
        <speed>0.4641136</speed>
      </trkpt>
      <trkpt lat="38.8936068" lon="115.4672699">
        <ele>99.66088550690495</ele>
        <time>2026-06-19T20:00:13.763Z</time>
        <speed>0.43361196</speed>
      </trkpt>
      <trkpt lat="38.8935657" lon="115.4672789">
        <ele>99.64157633277205</ele>
        <time>2026-06-19T20:00:21.762Z</time>
        <speed>0.41798082</speed>
      </trkpt>
      <trkpt lat="38.8935379" lon="115.4672881">
        <ele>99.65035714226468</ele>
        <time>2026-06-19T20:00:34.764Z</time>
        <speed>0.34916547</speed>
      </trkpt>
      <trkpt lat="38.8935122" lon="115.4673046">
        <ele>99.43360686759422</ele>
        <time>2026-06-19T20:01:25.763Z</time>
        <speed>0.24482504</speed>
      </trkpt>
      <trkpt lat="38.89354" lon="115.4673259">
        <ele>98.76545913483864</ele>
        <time>2026-06-19T20:04:21.762Z</time>
        <speed>0.22312859</speed>
      </trkpt>
      <trkpt lat="38.893568" lon="115.4673263">
        <ele>98.65283993169285</ele>
        <time>2026-06-19T20:04:54.763Z</time>
        <speed>0.19685693</speed>
      </trkpt>
      <trkpt lat="38.8935952" lon="115.4673245">
        <ele>98.37668077814061</ele>
        <time>2026-06-19T20:06:53.767Z</time>
        <speed>0.111818</speed>
      </trkpt>
      <trkpt lat="38.8936292" lon="115.4673322">
        <ele>98.26085324914007</ele>
        <time>2026-06-19T20:10:53.765Z</time>
        <speed>0.23662278</speed>
      </trkpt>
      <trkpt lat="38.8936535" lon="115.4673499">
        <ele>98.33531199503773</ele>
        <time>2026-06-19T20:11:05.765Z</time>
        <speed>0.13836792</speed>
      </trkpt>
      <trkpt lat="38.8936787" lon="115.467366">
        <ele>86.74381587296443</ele>
        <time>2026-06-19T20:12:10.763Z</time>
        <speed>0.24171232</speed>
      </trkpt>
      <trkpt lat="38.8936424" lon="115.4673725">
        <ele>76.94759569853812</ele>
        <time>2026-06-19T20:12:53.767Z</time>
        <speed>0.28886297</speed>
      </trkpt>
      <trkpt lat="38.893615" lon="115.4673758">
        <ele>77.02607096382383</ele>
        <time>2026-06-19T20:12:57.765Z</time>
        <speed>0.28931794</speed>
      </trkpt>
      <trkpt lat="38.893572" lon="115.4673779">
        <ele>77.10927281493636</ele>
        <time>2026-06-19T20:13:01.762Z</time>
        <speed>0.39734095</speed>
      </trkpt>
      <trkpt lat="38.8935389" lon="115.4673802">
        <ele>77.06916859068741</ele>
        <time>2026-06-19T20:13:05.764Z</time>
        <speed>0.43756026</speed>
      </trkpt>
      <trkpt lat="38.8935119" lon="115.4673844">
        <ele>76.91117460623147</ele>
        <time>2026-06-19T20:13:33.762Z</time>
        <speed>0.17955713</speed>
      </trkpt>
      <trkpt lat="38.8934788" lon="115.4673855">
        <ele>76.49204705476421</ele>
        <time>2026-06-19T20:14:41.765Z</time>
        <speed>0.22078608</speed>
      </trkpt>
      <trkpt lat="38.8934497" lon="115.4674015">
        <ele>76.31125300773459</ele>
        <time>2026-06-19T20:14:53.767Z</time>
        <speed>0.25264278</speed>
      </trkpt>
      <trkpt lat="38.8934756" lon="115.4674194">
        <ele>76.26279214509134</ele>
        <time>2026-06-19T20:16:00.762Z</time>
        <speed>0.20526803</speed>
      </trkpt>
      <trkpt lat="38.893511" lon="115.4674186">
        <ele>76.18670450023106</ele>
        <time>2026-06-19T20:16:17.766Z</time>
        <speed>0.2068593</speed>
      </trkpt>
      <trkpt lat="38.8935467" lon="115.467418">
        <ele>76.27444375363746</ele>
        <time>2026-06-19T20:16:41.765Z</time>
        <speed>0.1761751</speed>
      </trkpt>
      <trkpt lat="38.8935738" lon="115.467414">
        <ele>70.36632428200465</ele>
        <time>2026-06-19T20:26:17.765Z</time>
        <speed>0.13166691</speed>
      </trkpt>
      <trkpt lat="38.8936033" lon="115.4674079">
        <ele>70.24884210321994</ele>
        <time>2026-06-19T20:27:33.763Z</time>
        <speed>0.18822038</speed>
      </trkpt>
      <trkpt lat="38.8936461" lon="115.4674112">
        <ele>70.27348567159268</ele>
        <time>2026-06-19T20:27:41.766Z</time>
        <speed>0.6158157</speed>
      </trkpt>
      <trkpt lat="38.8936742" lon="115.467416">
        <ele>70.23202904667582</ele>
        <time>2026-06-19T20:27:49.761Z</time>
        <speed>0.23336217</speed>
      </trkpt>
      <trkpt lat="38.8937029" lon="115.467411">
        <ele>70.25204419430969</ele>
        <time>2026-06-19T20:28:26.762Z</time>
        <speed>0.37976813</speed>
      </trkpt>
      <trkpt lat="38.8937333" lon="115.4674105">
        <ele>70.01777989242959</ele>
        <time>2026-06-19T20:28:57.762Z</time>
        <speed>0.49100238</speed>
      </trkpt>
      <trkpt lat="38.8937615" lon="115.4674131">
        <ele>70.20470850082276</ele>
        <time>2026-06-19T20:29:09.764Z</time>
        <speed>0.24968077</speed>
      </trkpt>
      <trkpt lat="38.893732" lon="115.4674219">
        <ele>70.24976592950887</ele>
        <time>2026-06-19T20:31:05.764Z</time>
        <speed>0.18651369</speed>
      </trkpt>
      <trkpt lat="38.8937591" lon="115.4674158">
        <ele>70.6431809322905</ele>
        <time>2026-06-19T20:33:37.761Z</time>
        <speed>0.18168838</speed>
      </trkpt>
      <trkpt lat="38.8937877" lon="115.467415">
        <ele>71.33497443731125</ele>
        <time>2026-06-19T20:39:18.760Z</time>
        <speed>0.13438952</speed>
      </trkpt>
      <trkpt lat="38.8938159" lon="115.4674109">
        <ele>71.29153708055128</ele>
        <time>2026-06-19T20:40:33.764Z</time>
        <speed>0.15477933</speed>
      </trkpt>
      <trkpt lat="38.8938435" lon="115.4674052">
        <ele>76.99615951127367</ele>
        <time>2026-06-19T20:43:01.763Z</time>
        <speed>0.09047458</speed>
      </trkpt>
      <trkpt lat="38.8938707" lon="115.4674095">
        <ele>79.23911606680636</ele>
        <time>2026-06-19T20:53:48.760Z</time>
        <speed>0.07484459</speed>
      </trkpt>
      <trkpt lat="38.8938979" lon="115.4674073">
        <ele>80.85841340356322</ele>
        <time>2026-06-19T21:04:23.764Z</time>
        <speed>0.075864635</speed>
      </trkpt>
      <trkpt lat="38.8939242" lon="115.4673984">
        <ele>79.64239898196277</ele>
        <time>2026-06-19T21:09:35.764Z</time>
        <speed>0.122226775</speed>
      </trkpt>
      <trkpt lat="38.8939504" lon="115.4673896">
        <ele>76.8300183584901</ele>
        <time>2026-06-19T21:23:11.992Z</time>
        <speed>0.09453149</speed>
      </trkpt>
      <trkpt lat="38.8939267" lon="115.4674067">
        <ele>88.88655468470006</ele>
        <time>2026-06-19T21:57:02.986Z</time>
        <speed>0.14505948</speed>
      </trkpt>
      <trkpt lat="38.8939261" lon="115.4674639">
        <ele>93.93513992482738</ele>
        <time>2026-06-19T22:13:06.985Z</time>
        <speed>0.20325613</speed>
      </trkpt>
      <trkpt lat="38.8939419" lon="115.4675509">
        <ele>93.62359507079302</ele>
        <time>2026-06-19T22:13:14.984Z</time>
        <speed>0.3654865</speed>
      </trkpt>
      <trkpt lat="38.893951" lon="115.4675979">
        <ele>93.6420072478362</ele>
        <time>2026-06-19T22:13:18.984Z</time>
        <speed>0.44326207</speed>
      </trkpt>
      <trkpt lat="38.8939624" lon="115.4676633">
        <ele>94.3487907453947</ele>
        <time>2026-06-19T22:13:26.986Z</time>
        <speed>0.43625176</speed>
      </trkpt>
      <trkpt lat="38.8939748" lon="115.4677017">
        <ele>94.13219196288102</ele>
        <time>2026-06-19T22:13:34.985Z</time>
        <speed>0.30707085</speed>
      </trkpt>
      <trkpt lat="38.8939914" lon="115.4677309">
        <ele>94.00639453260808</ele>
        <time>2026-06-19T22:14:30.986Z</time>
        <speed>0.1216216</speed>
      </trkpt>
      <trkpt lat="38.8939647" lon="115.4677198">
        <ele>94.39823204234924</ele>
        <time>2026-06-19T22:15:42.986Z</time>
        <speed>0.13390964</speed>
      </trkpt>
      <trkpt lat="38.8939382" lon="115.4676958">
        <ele>94.69927356989123</ele>
        <time>2026-06-19T22:15:58.988Z</time>
        <speed>0.11986446</speed>
      </trkpt>
      <trkpt lat="38.893941" lon="115.4676557">
        <ele>94.925935900165</ele>
        <time>2026-06-19T22:16:22.982Z</time>
        <speed>0.11894981</speed>
      </trkpt>
      <trkpt lat="38.893913" lon="115.4676231">
        <ele>95.07684728942158</ele>
        <time>2026-06-19T22:16:46.987Z</time>
        <speed>0.30828783</speed>
      </trkpt>
      <trkpt lat="38.8938996" lon="115.4675902">
        <ele>95.06503378082456</ele>
        <time>2026-06-19T22:17:06.987Z</time>
        <speed>0.14563154</speed>
      </trkpt>
      <trkpt lat="38.8938963" lon="115.4675444">
        <ele>95.70079488002793</ele>
        <time>2026-06-19T22:17:30.985Z</time>
        <speed>0.62955874</speed>
      </trkpt>
      <trkpt lat="38.8938742" lon="115.4675169">
        <ele>95.01336053298752</ele>
        <time>2026-06-19T22:17:38.988Z</time>
        <speed>0.1743464</speed>
      </trkpt>
      <trkpt lat="38.8938606" lon="115.4674868">
        <ele>96.15203160835546</ele>
        <time>2026-06-19T22:18:50.985Z</time>
        <speed>0.12250782</speed>
      </trkpt>
      <trkpt lat="38.8938778" lon="115.4675155">
        <ele>95.91944449835515</ele>
        <time>2026-06-19T22:20:57.983Z</time>
        <speed>0.10819136</speed>
      </trkpt>
      <trkpt lat="38.8938858" lon="115.4675508">
        <ele>95.71802900953642</ele>
        <time>2026-06-19T22:21:33.983Z</time>
        <speed>0.113492504</speed>
      </trkpt>
      <trkpt lat="38.8938965" lon="115.4675881">
        <ele>95.52459247951063</ele>
        <time>2026-06-19T22:22:05.981Z</time>
        <speed>0.1146004</speed>
      </trkpt>
      <trkpt lat="38.8938987" lon="115.4675536">
        <ele>107.36259373811967</ele>
        <time>2026-06-19T22:34:52.983Z</time>
        <speed>0.13203108</speed>
      </trkpt>
      <trkpt lat="38.8939355" lon="115.4675318">
        <ele>105.4607753202597</ele>
        <time>2026-06-19T23:06:26.981Z</time>
        <speed>0.118863896</speed>
      </trkpt>
      <trkpt lat="38.8939945" lon="115.4674636">
        <ele>105.43868774832987</ele>
        <time>2026-06-19T23:06:45.970Z</time>
        <speed>0.12190527</speed>
      </trkpt>
      <trkpt lat="38.8940048" lon="115.4674301">
        <ele>105.4123417749667</ele>
        <time>2026-06-19T23:07:41.974Z</time>
        <speed>0.10398076</speed>
      </trkpt>
      <trkpt lat="38.8940327" lon="115.4673809">
        <ele>84.61264195442575</ele>
        <time>2026-06-19T23:18:31.938Z</time>
        <speed>0.25536978</speed>
      </trkpt>
      <trkpt lat="38.8928572" lon="115.4665412">
        <ele>50.31138196952317</ele>
        <time>2026-06-19T23:20:40.975Z</time>
        <speed>0.35</speed>
      </trkpt>
      <trkpt lat="38.8928058" lon="115.4667978">
        <ele>50.7359545315806</ele>
        <time>2026-06-19T23:20:49.975Z</time>
        <speed>0.22268613</speed>
      </trkpt>
      <trkpt lat="38.892772" lon="115.4667966">
        <ele>50.02327039843311</ele>
        <time>2026-06-19T23:20:53.975Z</time>
        <speed>0.11108432</speed>
      </trkpt>
      <trkpt lat="38.8927452" lon="115.4667859">
        <ele>49.70202076753276</ele>
        <time>2026-06-19T23:20:57.974Z</time>
        <speed>0.06351872</speed>
      </trkpt>
      <trkpt lat="38.8927219" lon="115.46682">
        <ele>49.53890335881832</ele>
        <time>2026-06-19T23:21:13.350Z</time>
        <speed>0.61420524</speed>
      </trkpt>
      <trkpt lat="38.8927304" lon="115.4668664">
        <ele>49.546245219915804</ele>
        <time>2026-06-19T23:21:17.726Z</time>
        <speed>1.346185</speed>
      </trkpt>
      <trkpt lat="38.8941578" lon="115.4670737">
        <ele>80.55536072973769</ele>
        <time>2026-06-19T23:23:13.974Z</time>
      </trkpt>
      <trkpt lat="38.8942325" lon="115.4670216">
        <ele>80.1429093605777</ele>
        <time>2026-06-19T23:23:36.975Z</time>
        <speed>0.3800202</speed>
      </trkpt>
      <trkpt lat="38.8941984" lon="115.4671498">
        <ele>79.9146988618138</ele>
        <time>2026-06-19T23:23:58.867Z</time>
        <speed>0.22472021</speed>
      </trkpt>
      <trkpt lat="38.8941246" lon="115.4673534">
        <ele>79.56464096527432</ele>
        <time>2026-06-19T23:24:29.975Z</time>
      </trkpt>
      <trkpt lat="38.8941023" lon="115.4674318">
        <ele>79.48720865688387</ele>
        <time>2026-06-19T23:24:42.966Z</time>
        <speed>0.8766507</speed>
      </trkpt>
      <trkpt lat="38.8940735" lon="115.4674025">
        <ele>79.35978631719007</ele>
        <time>2026-06-19T23:24:44.807Z</time>
        <speed>0.78300047</speed>
      </trkpt>
      <trkpt lat="38.894033" lon="115.4673902">
        <ele>79.26568806135555</ele>
        <time>2026-06-19T23:24:52.944Z</time>
        <speed>0.06971172</speed>
      </trkpt>
      <trkpt lat="38.8941111" lon="115.4672935">
        <ele>79.43101983498644</ele>
        <time>2026-06-19T23:25:33.161Z</time>
        <speed>0.7478104</speed>
      </trkpt>
      <trkpt lat="38.8940389" lon="115.467469">
        <ele>79.16853212316406</ele>
        <time>2026-06-19T23:25:41.967Z</time>
        <speed>2.3222299</speed>
      </trkpt>
      <trkpt lat="38.8938677" lon="115.4677082">
        <ele>79.11205649161599</ele>
        <time>2026-06-19T23:25:50.967Z</time>
        <speed>2.6177952</speed>
      </trkpt>
      <trkpt lat="38.8938518" lon="115.4676299">
        <ele>79.12167093625922</ele>
        <time>2026-06-19T23:26:01.967Z</time>
        <speed>1.0809014</speed>
      </trkpt>
      <trkpt lat="38.8939159" lon="115.4674774">
        <ele>79.10922007380219</ele>
        <time>2026-06-19T23:26:08.967Z</time>
        <speed>0.7329889</speed>
      </trkpt>
      <trkpt lat="38.8939512" lon="115.4674159">
        <ele>79.0504859225968</ele>
        <time>2026-06-19T23:26:13.913Z</time>
        <speed>0.57241607</speed>
      </trkpt>
      <trkpt lat="38.8940088" lon="115.4674583">
        <ele>79.19914610178748</ele>
        <time>2026-06-19T23:26:16.967Z</time>
        <speed>0.7163564</speed>
      </trkpt>
      <trkpt lat="38.8940418" lon="115.4674676">
        <ele>79.21626267096681</ele>
        <time>2026-06-19T23:26:19.967Z</time>
        <speed>0.5736971</speed>
      </trkpt>
      <trkpt lat="38.8939722" lon="115.4674707">
        <ele>79.21478037135114</ele>
        <time>2026-06-19T23:26:27.966Z</time>
        <speed>0.11104919</speed>
      </trkpt>
      <trkpt lat="38.893994" lon="115.4674396">
        <ele>79.28660881238585</ele>
        <time>2026-06-19T23:26:45.974Z</time>
        <speed>0.20196368</speed>
      </trkpt>
      <trkpt lat="38.8940091" lon="115.4674066">
        <ele>79.17704163085114</ele>
        <time>2026-06-19T23:26:57.962Z</time>
        <speed>0.1596101</speed>
      </trkpt>
      <trkpt lat="38.8940143" lon="115.4673718">
        <ele>80.18250523993433</ele>
        <time>2026-06-19T23:29:30.969Z</time>
        <speed>0.09609659</speed>
      </trkpt>
    </trkseg>
  </trk>
</gpx>
