<?xml version="1.0" encoding="UTF-8"?>
<gpx version="1.1" creator="Pyxis" xmlns="http://www.topografix.com/GPX/1/1">
  <trk>
    <name>trip-20260617-5d1117ea-3853-4266-a739-94955c3be85d_2026-06-20_0400-0800_part-2</name>
    <trkseg>
      <trkpt lat="38.8939922" lon="115.4673927">
        <ele>85.81244303269477</ele>
        <time>2026-06-19T23:40:11.973Z</time>
        <speed>0.17823257</speed>
      </trkpt>
      <trkpt lat="38.8939713" lon="115.4674165">
        <ele>85.04040480737234</ele>
        <time>2026-06-19T23:42:47.972Z</time>
        <speed>0.1293474</speed>
      </trkpt>
      <trkpt lat="38.8939747" lon="115.4673816">
        <ele>86.24448744359165</ele>
        <time>2026-06-19T23:52:07.970Z</time>
        <speed>0.16240022</speed>
      </trkpt>
    </trkseg>
  </trk>
</gpx>
