<?xml version="1.0" encoding="UTF-8"?>
<gpx version="1.1" creator="Pyxis" xmlns="http://www.topografix.com/GPX/1/1">
  <trk>
    <name>trip-20260819-2f12b67f-e6f5-4bef-812f-573f97a1767f_2026-08-19_1200-1600</name>
    <trkseg>
      <trkpt lat="22.5450605" lon="113.8589702">
        <ele>111.0999984741211</ele>
        <time>2026-08-19T06:44:29.058Z</time>
      </trkpt>
      <trkpt lat="22.545062" lon="113.8589995">
        <ele>111.19999694824219</ele>
        <time>2026-08-19T06:45:10.033Z</time>
        <speed>0.08022463</speed>
      </trkpt>
      <trkpt lat="22.5450652" lon="113.8589703">
        <ele>111.19999694824219</ele>
        <time>2026-08-19T06:52:34.558Z</time>
        <speed>0.049186543</speed>
      </trkpt>
      <trkpt lat="22.5450759" lon="113.8589972">
        <ele>111.19999694824219</ele>
        <time>2026-08-19T06:54:22.481Z</time>
        <speed>0.053149153</speed>
      </trkpt>
      <trkpt lat="22.5450467" lon="113.8590037">
        <ele>111.0999984741211</ele>
        <time>2026-08-19T07:18:06.943Z</time>
        <speed>1.0374606</speed>
      </trkpt>
      <trkpt lat="22.5450104" lon="113.8590124">
        <ele>111.0999984741211</ele>
        <time>2026-08-19T07:18:10.899Z</time>
        <speed>1.0544814</speed>
      </trkpt>
      <trkpt lat="22.5449937" lon="113.8590403">
        <ele>111.0999984741211</ele>
        <time>2026-08-19T07:18:12.964Z</time>
        <speed>1.034628</speed>
      </trkpt>
      <trkpt lat="22.544993" lon="113.8590884">
        <ele>111.0999984741211</ele>
        <time>2026-08-19T07:18:14.941Z</time>
        <speed>0.9990403</speed>
      </trkpt>
      <trkpt lat="22.544978" lon="113.8591339">
        <ele>111.4000015258789</ele>
        <time>2026-08-19T07:18:19.021Z</time>
        <speed>1.0797567</speed>
      </trkpt>
      <trkpt lat="22.5449835" lon="113.8591926">
        <ele>111.19999694824219</ele>
        <time>2026-08-19T07:18:24.900Z</time>
        <speed>1.3306432</speed>
      </trkpt>
      <trkpt lat="22.5450082" lon="113.8592195">
        <ele>111.19999694824219</ele>
        <time>2026-08-19T07:18:28.943Z</time>
        <speed>1.3226001</speed>
      </trkpt>
      <trkpt lat="22.5450303" lon="113.859246">
        <ele>111.19999694824219</ele>
        <time>2026-08-19T07:18:32.850Z</time>
        <speed>1.1032281</speed>
      </trkpt>
      <trkpt lat="22.5450103" lon="113.8592672">
        <ele>111.19999694824219</ele>
        <time>2026-08-19T07:18:37.529Z</time>
        <speed>1.278692</speed>
      </trkpt>
      <trkpt lat="22.5449903" lon="113.8592875">
        <ele>111.19999694824219</ele>
        <time>2026-08-19T07:18:39.408Z</time>
        <speed>1.4273925</speed>
      </trkpt>
      <trkpt lat="22.5449639" lon="113.8593089">
        <ele>111.19999694824219</ele>
        <time>2026-08-19T07:18:41.270Z</time>
        <speed>1.5831007</speed>
      </trkpt>
      <trkpt lat="22.5450335" lon="113.8590902">
        <ele>111.4000015258789</ele>
        <time>2026-08-19T07:25:44.081Z</time>
      </trkpt>
      <trkpt lat="22.5450363" lon="113.8590409">
        <ele>111.4000015258789</ele>
        <time>2026-08-19T07:25:55.925Z</time>
        <speed>1.5882348</speed>
      </trkpt>
      <trkpt lat="22.5450385" lon="113.8590075">
        <ele>111.4000015258789</ele>
        <time>2026-08-19T07:25:57.807Z</time>
        <speed>1.5835783</speed>
      </trkpt>
      <trkpt lat="22.5450619" lon="113.8589796">
        <ele>111.19999694824219</ele>
        <time>2026-08-19T07:26:01.557Z</time>
        <speed>1.5289012</speed>
      </trkpt>
      <trkpt lat="22.545108" lon="113.8589712">
        <ele>111.19999694824219</ele>
        <time>2026-08-19T07:26:05.364Z</time>
        <speed>1.5250053</speed>
      </trkpt>
      <trkpt lat="22.5451539" lon="113.85895">
        <ele>111.19999694824219</ele>
        <time>2026-08-19T07:26:09.046Z</time>
        <speed>1.5654074</speed>
      </trkpt>
      <trkpt lat="22.545178" lon="113.8589347">
        <ele>111.19999694824219</ele>
        <time>2026-08-19T07:26:17.638Z</time>
        <speed>0.6839442</speed>
      </trkpt>
      <trkpt lat="22.5450924" lon="113.8589615">
        <ele>111.19999694824219</ele>
        <time>2026-08-19T07:26:24.282Z</time>
        <speed>0.005341777</speed>
      </trkpt>
      <trkpt lat="22.5450638" lon="113.8589396">
        <ele>111.19999694824219</ele>
        <time>2026-08-19T07:26:37.780Z</time>
        <speed>0.06510981</speed>
      </trkpt>
      <trkpt lat="22.5450689" lon="113.858969">
        <ele>111.0999984741211</ele>
        <time>2026-08-19T07:29:42.870Z</time>
        <speed>0.04448787</speed>
      </trkpt>
      <trkpt lat="22.5450396" lon="113.8589809">
        <ele>111.0999984741211</ele>
        <time>2026-08-19T07:35:23.816Z</time>
        <speed>0.8417519</speed>
      </trkpt>
      <trkpt lat="22.5449908" lon="113.8589869">
        <ele>111.0999984741211</ele>
        <time>2026-08-19T07:35:28.897Z</time>
        <speed>1.1084194</speed>
      </trkpt>
      <trkpt lat="22.5449755" lon="113.8590272">
        <ele>111.0999984741211</ele>
        <time>2026-08-19T07:35:30.934Z</time>
        <speed>1.059382</speed>
      </trkpt>
      <trkpt lat="22.5449604" lon="113.8590766">
        <ele>111.30000305175781</ele>
        <time>2026-08-19T07:35:35.796Z</time>
        <speed>1.0419315</speed>
      </trkpt>
      <trkpt lat="22.5449581" lon="113.8591141">
        <ele>111.30000305175781</ele>
        <time>2026-08-19T07:35:39.138Z</time>
        <speed>1.0448958</speed>
      </trkpt>
      <trkpt lat="22.5449952" lon="113.8591339">
        <ele>111.4000015258789</ele>
        <time>2026-08-19T07:35:45.369Z</time>
        <speed>0.2653307</speed>
      </trkpt>
      <trkpt lat="22.5450153" lon="113.8591095">
        <ele>111.4000015258789</ele>
        <time>2026-08-19T07:36:05.923Z</time>
        <speed>0.0765275</speed>
      </trkpt>
      <trkpt lat="22.5451321" lon="113.8591318">
        <ele>104.15634229509587</ele>
        <time>2026-08-19T07:36:27.588Z</time>
      </trkpt>
      <trkpt lat="22.54501" lon="113.8590659">
        <ele>10.15476483238966</ele>
        <time>2026-08-19T07:36:46.491Z</time>
      </trkpt>
      <trkpt lat="22.5450258" lon="113.8592465">
        <ele>10.30395648769499</ele>
        <time>2026-08-19T07:36:50.370Z</time>
        <speed>0.07906211</speed>
      </trkpt>
      <trkpt lat="22.5450119" lon="113.85928">
        <ele>10.548396274477028</ele>
        <time>2026-08-19T07:36:58.975Z</time>
        <speed>1.2698466</speed>
      </trkpt>
      <trkpt lat="22.545004" lon="113.8592351">
        <ele>10.529289913441374</ele>
        <time>2026-08-19T07:37:03.559Z</time>
        <speed>1.4484138</speed>
      </trkpt>
      <trkpt lat="22.5449621" lon="113.8591841">
        <ele>10.411747868987206</ele>
        <time>2026-08-19T07:37:11.007Z</time>
        <speed>1.1583843</speed>
      </trkpt>
      <trkpt lat="22.5448991" lon="113.8592643">
        <ele>4.599999904632568</ele>
        <time>2026-08-19T07:37:57.175Z</time>
      </trkpt>
      <trkpt lat="22.5448755" lon="113.8592796">
        <ele>4.599999904632568</ele>
        <time>2026-08-19T07:38:05.210Z</time>
        <speed>1.3175933</speed>
      </trkpt>
      <trkpt lat="22.5448032" lon="113.8592572">
        <ele>4.800000190734863</ele>
        <time>2026-08-19T07:38:09.314Z</time>
        <speed>1.3361205</speed>
      </trkpt>
      <trkpt lat="22.5447569" lon="113.8592657">
        <ele>4.800000190734863</ele>
        <time>2026-08-19T07:38:13.137Z</time>
        <speed>1.3252269</speed>
      </trkpt>
      <trkpt lat="22.5446591" lon="113.8591954">
        <ele>4.599999904632568</ele>
        <time>2026-08-19T07:38:21.838Z</time>
        <speed>1.2332166</speed>
      </trkpt>
      <trkpt lat="22.5446218" lon="113.8591699">
        <ele>4.599999904632568</ele>
        <time>2026-08-19T07:38:26.014Z</time>
        <speed>1.193358</speed>
      </trkpt>
      <trkpt lat="22.5445348" lon="113.8592372">
        <ele>4.800000190734863</ele>
        <time>2026-08-19T07:38:30.262Z</time>
        <speed>1.2785982</speed>
      </trkpt>
      <trkpt lat="22.5444992" lon="113.8592381">
        <ele>4.983605042848836</ele>
        <time>2026-08-19T07:38:32.161Z</time>
        <speed>1.3047107</speed>
      </trkpt>
      <trkpt lat="22.5444582" lon="113.8592445">
        <ele>5.3264498200998105</ele>
        <time>2026-08-19T07:38:33.971Z</time>
        <speed>1.2325</speed>
      </trkpt>
      <trkpt lat="22.5444263" lon="113.8592963">
        <ele>5.132737686303045</ele>
        <time>2026-08-19T07:38:38.172Z</time>
        <speed>1.2053635</speed>
      </trkpt>
      <trkpt lat="22.5443598" lon="113.8593317">
        <ele>3.7386201888846813</ele>
        <time>2026-08-19T07:38:42.061Z</time>
        <speed>1.2598025</speed>
      </trkpt>
      <trkpt lat="22.5443337" lon="113.8593453">
        <ele>3.6128368976783065</ele>
        <time>2026-08-19T07:38:44.319Z</time>
        <speed>1.3059014</speed>
      </trkpt>
      <trkpt lat="22.5443235" lon="113.8594434">
        <ele>4.697046001395606</ele>
        <time>2026-08-19T07:38:48.135Z</time>
        <speed>1.4443675</speed>
      </trkpt>
      <trkpt lat="22.5443355" lon="113.8595092">
        <ele>4.623035463713251</ele>
        <time>2026-08-19T07:38:50.710Z</time>
        <speed>1.2842182</speed>
      </trkpt>
      <trkpt lat="22.5443566" lon="113.8595501">
        <ele>4.50862064986822</ele>
        <time>2026-08-19T07:38:52.889Z</time>
        <speed>1.2756464</speed>
      </trkpt>
      <trkpt lat="22.5443723" lon="113.8595884">
        <ele>3.429905533394219</ele>
        <time>2026-08-19T07:38:57.391Z</time>
        <speed>1.2263594</speed>
      </trkpt>
      <trkpt lat="22.5444559" lon="113.8596171">
        <ele>3.230345249468087</ele>
        <time>2026-08-19T07:39:01.436Z</time>
        <speed>1.2163162</speed>
      </trkpt>
      <trkpt lat="22.5445184" lon="113.8596343">
        <ele>3.31523439958049</ele>
        <time>2026-08-19T07:39:08.134Z</time>
        <speed>1.3646939</speed>
      </trkpt>
      <trkpt lat="22.5445708" lon="113.8596424">
        <ele>3.352083672422239</ele>
        <time>2026-08-19T07:39:12.801Z</time>
        <speed>1.3440679</speed>
      </trkpt>
      <trkpt lat="22.5446957" lon="113.8596467">
        <ele>3.3777659247830343</ele>
        <time>2026-08-19T07:39:16.580Z</time>
        <speed>1.5801611</speed>
      </trkpt>
      <trkpt lat="22.5447196" lon="113.8596612">
        <ele>3.3777659247830343</ele>
        <time>2026-08-19T07:39:18.698Z</time>
        <speed>1.5094837</speed>
      </trkpt>
      <trkpt lat="22.544741" lon="113.8596891">
        <ele>2.8105382057292303</ele>
        <time>2026-08-19T07:39:20.922Z</time>
        <speed>1.5720674</speed>
      </trkpt>
      <trkpt lat="22.5447956" lon="113.8596789">
        <ele>2.719346875522163</ele>
        <time>2026-08-19T07:39:22.996Z</time>
        <speed>1.5354728</speed>
      </trkpt>
      <trkpt lat="22.5448137" lon="113.8597325">
        <ele>2.2572524448213187</ele>
        <time>2026-08-19T07:39:29.813Z</time>
        <speed>0.15484227</speed>
      </trkpt>
      <trkpt lat="22.5448235" lon="113.8596656">
        <ele>2.2863334039312804</ele>
        <time>2026-08-19T07:39:38.357Z</time>
        <speed>0.7895949</speed>
      </trkpt>
      <trkpt lat="22.5447978" lon="113.8596514">
        <ele>2.617150844158445</ele>
        <time>2026-08-19T07:39:40.917Z</time>
        <speed>0.97135276</speed>
      </trkpt>
      <trkpt lat="22.544768" lon="113.8596377">
        <ele>2.755123947465819</ele>
        <time>2026-08-19T07:39:49.341Z</time>
        <speed>0.562525</speed>
      </trkpt>
      <trkpt lat="22.5447279" lon="113.8596518">
        <ele>2.8299287012459473</ele>
        <time>2026-08-19T07:39:54.137Z</time>
        <speed>1.0940729</speed>
      </trkpt>
      <trkpt lat="22.5447078" lon="113.8596827">
        <ele>2.930429854144819</ele>
        <time>2026-08-19T07:39:58.172Z</time>
        <speed>1.165823</speed>
      </trkpt>
      <trkpt lat="22.5446663" lon="113.859705">
        <ele>3.1008894563996847</ele>
        <time>2026-08-19T07:40:02.293Z</time>
        <speed>1.1037327</speed>
      </trkpt>
      <trkpt lat="22.5446892" lon="113.8596879">
        <ele>2.927027328578248</ele>
        <time>2026-08-19T07:40:07.679Z</time>
        <speed>1.0598528</speed>
      </trkpt>
      <trkpt lat="22.5448039" lon="113.8596208">
        <ele>2.9123525155570036</ele>
        <time>2026-08-19T07:40:24.396Z</time>
        <speed>0.07206369</speed>
      </trkpt>
      <trkpt lat="22.5446729" lon="113.8595929">
        <ele>3.050576886294621</ele>
        <time>2026-08-19T07:40:36.093Z</time>
        <speed>1.2255601</speed>
      </trkpt>
      <trkpt lat="22.5446345" lon="113.8595545">
        <ele>3.0561831065274703</ele>
        <time>2026-08-19T07:40:40.214Z</time>
        <speed>1.1643702</speed>
      </trkpt>
      <trkpt lat="22.5446163" lon="113.8595233">
        <ele>3.062605161260251</ele>
        <time>2026-08-19T07:40:42.254Z</time>
        <speed>1.194358</speed>
      </trkpt>
      <trkpt lat="22.5446045" lon="113.8594962">
        <ele>3.3225951481181966</ele>
        <time>2026-08-19T07:40:44.354Z</time>
        <speed>1.222591</speed>
      </trkpt>
      <trkpt lat="22.5445931" lon="113.859469">
        <ele>3.444717898397343</ele>
        <time>2026-08-19T07:40:46.437Z</time>
        <speed>1.2340262</speed>
      </trkpt>
      <trkpt lat="22.5445435" lon="113.8594686">
        <ele>3.5925254350894846</ele>
        <time>2026-08-19T07:40:48.459Z</time>
        <speed>1.2923642</speed>
      </trkpt>
      <trkpt lat="22.5445152" lon="113.8594226">
        <ele>3.7001570858413118</ele>
        <time>2026-08-19T07:40:52.571Z</time>
        <speed>1.3387903</speed>
      </trkpt>
      <trkpt lat="22.544423" lon="113.8594013">
        <ele>3.925340143199037</ele>
        <time>2026-08-19T07:40:56.613Z</time>
        <speed>1.2535759</speed>
      </trkpt>
      <trkpt lat="22.5443993" lon="113.8593799">
        <ele>4.108276239417407</ele>
        <time>2026-08-19T07:40:58.635Z</time>
        <speed>1.2705312</speed>
      </trkpt>
      <trkpt lat="22.5443843" lon="113.8593284">
        <ele>4.58057337929543</ele>
        <time>2026-08-19T07:41:02.697Z</time>
        <speed>1.1518934</speed>
      </trkpt>
      <trkpt lat="22.5444014" lon="113.8592763">
        <ele>4.176966639817977</ele>
        <time>2026-08-19T07:41:06.773Z</time>
        <speed>1.1731256</speed>
      </trkpt>
      <trkpt lat="22.54445" lon="113.8592128">
        <ele>3.8613920532502704</ele>
        <time>2026-08-19T07:41:11.210Z</time>
        <speed>0.95850044</speed>
      </trkpt>
      <trkpt lat="22.5444876" lon="113.8591901">
        <ele>3.9693702520326326</ele>
        <time>2026-08-19T07:41:15.314Z</time>
        <speed>1.064374</speed>
      </trkpt>
      <trkpt lat="22.5445383" lon="113.8591906">
        <ele>3.689992550885023</ele>
        <time>2026-08-19T07:41:19.295Z</time>
        <speed>1.1886022</speed>
      </trkpt>
      <trkpt lat="22.5446285" lon="113.8592454">
        <ele>3.8178866572919787</ele>
        <time>2026-08-19T07:41:23.829Z</time>
        <speed>0.92410624</speed>
      </trkpt>
      <trkpt lat="22.5445982" lon="113.8592144">
        <ele>4.104606995806165</ele>
        <time>2026-08-19T07:41:27.714Z</time>
        <speed>1.2137225</speed>
      </trkpt>
      <trkpt lat="22.5445855" lon="113.8591665">
        <ele>3.9693702520326326</ele>
        <time>2026-08-19T07:41:31.633Z</time>
        <speed>1.2847499</speed>
      </trkpt>
      <trkpt lat="22.5446292" lon="113.8591231">
        <ele>3.906669017429678</ele>
        <time>2026-08-19T07:41:35.614Z</time>
        <speed>1.1454239</speed>
      </trkpt>
      <trkpt lat="22.5446683" lon="113.8591336">
        <ele>3.9161041419626343</ele>
        <time>2026-08-19T07:41:39.578Z</time>
        <speed>1.1945179</speed>
      </trkpt>
      <trkpt lat="22.5446815" lon="113.8591852">
        <ele>4.412511125931687</ele>
        <time>2026-08-19T07:41:43.453Z</time>
        <speed>1.2568209</speed>
      </trkpt>
      <trkpt lat="22.5447689" lon="113.8592059">
        <ele>4.220975198508867</ele>
        <time>2026-08-19T07:41:52.655Z</time>
        <speed>0.124195255</speed>
      </trkpt>
      <trkpt lat="22.5456928" lon="113.8597129">
        <ele>-2.6685892111939467</ele>
        <time>2026-08-19T07:53:42.603Z</time>
      </trkpt>
    </trkseg>
  </trk>
</gpx>
