<?xml version="1.0" encoding="UTF-8"?>
<gpx version="1.1" creator="Pyxis" xmlns="http://www.topografix.com/GPX/1/1">
  <trk>
    <name>trip-20260819-2f12b67f-e6f5-4bef-812f-573f97a1767f_2026-08-21_0000-0400</name>
    <trkseg>
      <trkpt lat="25.5394332" lon="113.6806063">
        <ele>647.6702461191502</ele>
        <time>2026-08-20T16:00:06.736Z</time>
      </trkpt>
      <trkpt lat="25.5394456" lon="113.680643">
        <ele>647.6140930769126</ele>
        <time>2026-08-20T16:00:57.998Z</time>
        <speed>0.0</speed>
      </trkpt>
      <trkpt lat="25.5394775" lon="113.6805791">
        <ele>645.5708798882393</ele>
        <time>2026-08-20T16:05:16.921Z</time>
        <speed>0.18739875</speed>
      </trkpt>
      <trkpt lat="25.5394457" lon="113.6806433">
        <ele>645.2175436119568</ele>
        <time>2026-08-20T16:06:16.998Z</time>
        <speed>0.0</speed>
      </trkpt>
      <trkpt lat="25.5394321" lon="113.6806058">
        <ele>645.0869398179173</ele>
        <time>2026-08-20T16:06:24.905Z</time>
        <speed>0.20040138</speed>
      </trkpt>
      <trkpt lat="25.5395094" lon="113.6806124">
        <ele>645.0540446438687</ele>
        <time>2026-08-20T16:06:31.971Z</time>
        <speed>0.06013819</speed>
      </trkpt>
      <trkpt lat="25.5394871" lon="113.6805335">
        <ele>645.0481580178583</ele>
        <time>2026-08-20T16:06:33.975Z</time>
        <speed>0.061888717</speed>
      </trkpt>
      <trkpt lat="25.5394477" lon="113.6806494">
        <ele>645.0767311244524</ele>
        <time>2026-08-20T16:06:39.998Z</time>
        <speed>0.0</speed>
      </trkpt>
      <trkpt lat="25.5394505" lon="113.6806818">
        <ele>645.2586445698156</ele>
        <time>2026-08-20T16:08:37.891Z</time>
        <speed>0.09625874</speed>
      </trkpt>
      <trkpt lat="25.5394511" lon="113.6807227">
        <ele>605.0999755859375</ele>
        <time>2026-08-20T16:09:13.998Z</time>
        <speed>0.06367091</speed>
      </trkpt>
      <trkpt lat="25.5394548" lon="113.680754">
        <ele>605.0999755859375</ele>
        <time>2026-08-20T16:09:36.522Z</time>
        <speed>0.8659571</speed>
      </trkpt>
      <trkpt lat="25.5394637" lon="113.6807876">
        <ele>605.0999755859375</ele>
        <time>2026-08-20T16:11:50.998Z</time>
        <speed>0.27373812</speed>
      </trkpt>
      <trkpt lat="25.5394852" lon="113.6808085">
        <ele>605.0999755859375</ele>
        <time>2026-08-20T16:12:26.104Z</time>
        <speed>0.29217428</speed>
      </trkpt>
      <trkpt lat="25.5394951" lon="113.6808542">
        <ele>605.0999755859375</ele>
        <time>2026-08-20T16:13:02.998Z</time>
        <speed>0.2750803</speed>
      </trkpt>
      <trkpt lat="25.5395279" lon="113.6808764">
        <ele>605.0999755859375</ele>
        <time>2026-08-20T16:13:23.998Z</time>
        <speed>0.47081342</speed>
      </trkpt>
      <trkpt lat="25.5394927" lon="113.6808607">
        <ele>605.0999755859375</ele>
        <time>2026-08-20T16:13:38.997Z</time>
        <speed>0.25181124</speed>
      </trkpt>
      <trkpt lat="25.5394636" lon="113.6808373">
        <ele>605.0999755859375</ele>
        <time>2026-08-20T16:13:58.997Z</time>
        <speed>0.27684793</speed>
      </trkpt>
      <trkpt lat="25.5394882" lon="113.6808649">
        <ele>605.0999755859375</ele>
        <time>2026-08-20T16:14:26.998Z</time>
        <speed>0.22142088</speed>
      </trkpt>
      <trkpt lat="25.5394622" lon="113.6808322">
        <ele>605.0999755859375</ele>
        <time>2026-08-20T16:14:44.997Z</time>
        <speed>0.28528184</speed>
      </trkpt>
      <trkpt lat="25.5394853" lon="113.680856">
        <ele>605.0999755859375</ele>
        <time>2026-08-20T16:15:06.998Z</time>
        <speed>0.1510104</speed>
      </trkpt>
      <trkpt lat="25.5395166" lon="113.6808744">
        <ele>605.0999755859375</ele>
        <time>2026-08-20T16:15:18.997Z</time>
        <speed>0.21777919</speed>
      </trkpt>
      <trkpt lat="25.5394903" lon="113.6808552">
        <ele>605.0999755859375</ele>
        <time>2026-08-20T16:15:30.997Z</time>
        <speed>0.2548787</speed>
      </trkpt>
      <trkpt lat="25.5394758" lon="113.6808267">
        <ele>605.0999755859375</ele>
        <time>2026-08-20T16:17:01.998Z</time>
        <speed>0.25348842</speed>
      </trkpt>
      <trkpt lat="25.5394516" lon="113.6808033">
        <ele>605.0999755859375</ele>
        <time>2026-08-20T16:17:26.997Z</time>
        <speed>0.1973514</speed>
      </trkpt>
      <trkpt lat="25.5394724" lon="113.6808234">
        <ele>605.0999755859375</ele>
        <time>2026-08-20T16:18:16.997Z</time>
        <speed>0.20816566</speed>
      </trkpt>
      <trkpt lat="25.5395068" lon="113.680819">
        <ele>605.0999755859375</ele>
        <time>2026-08-20T16:19:08.997Z</time>
        <speed>0.2787627</speed>
      </trkpt>
      <trkpt lat="25.5394829" lon="113.6808412">
        <ele>605.0999755859375</ele>
        <time>2026-08-20T16:19:44.998Z</time>
        <speed>0.1849606</speed>
      </trkpt>
      <trkpt lat="25.5394608" lon="113.6808227">
        <ele>605.0999755859375</ele>
        <time>2026-08-20T16:20:28.178Z</time>
        <speed>0.2672094</speed>
      </trkpt>
      <trkpt lat="25.5394847" lon="113.6808511">
        <ele>605.0999755859375</ele>
        <time>2026-08-20T16:20:52.998Z</time>
        <speed>0.27758074</speed>
      </trkpt>
      <trkpt lat="25.5395103" lon="113.680868">
        <ele>605.0999755859375</ele>
        <time>2026-08-20T16:22:16.998Z</time>
        <speed>0.23791821</speed>
      </trkpt>
      <trkpt lat="25.5394751" lon="113.680837">
        <ele>605.0999755859375</ele>
        <time>2026-08-20T16:22:57.998Z</time>
        <speed>0.21201694</speed>
      </trkpt>
      <trkpt lat="25.5394959" lon="113.6808586">
        <ele>605.0999755859375</ele>
        <time>2026-08-20T16:24:40.997Z</time>
        <speed>0.24270971</speed>
      </trkpt>
      <trkpt lat="25.5394737" lon="113.6808403">
        <ele>605.0999755859375</ele>
        <time>2026-08-20T16:25:17.997Z</time>
        <speed>0.16571148</speed>
      </trkpt>
      <trkpt lat="25.5394574" lon="113.6808134">
        <ele>605.0999755859375</ele>
        <time>2026-08-20T16:28:32.998Z</time>
        <speed>0.20915231</speed>
      </trkpt>
      <trkpt lat="25.5394764" lon="113.6808386">
        <ele>605.0999755859375</ele>
        <time>2026-08-20T16:30:24.998Z</time>
        <speed>0.21004434</speed>
      </trkpt>
      <trkpt lat="25.5395035" lon="113.6808651">
        <ele>605.0999755859375</ele>
        <time>2026-08-20T16:31:08.998Z</time>
        <speed>0.24189022</speed>
      </trkpt>
      <trkpt lat="25.5394787" lon="113.6808348">
        <ele>605.0999755859375</ele>
        <time>2026-08-20T16:31:48.998Z</time>
        <speed>0.30845827</speed>
      </trkpt>
      <trkpt lat="25.5394532" lon="113.6808086">
        <ele>605.0999755859375</ele>
        <time>2026-08-20T16:32:02.998Z</time>
        <speed>0.24418762</speed>
      </trkpt>
      <trkpt lat="25.5394738" lon="113.6808317">
        <ele>605.0999755859375</ele>
        <time>2026-08-20T16:32:49.997Z</time>
        <speed>0.2577126</speed>
      </trkpt>
      <trkpt lat="25.5394583" lon="113.6808055">
        <ele>605.0999755859375</ele>
        <time>2026-08-20T16:33:56.997Z</time>
        <speed>0.2476251</speed>
      </trkpt>
      <trkpt lat="25.5394785" lon="113.6808269">
        <ele>605.0999755859375</ele>
        <time>2026-08-20T16:35:44.998Z</time>
        <speed>0.14957258</speed>
      </trkpt>
      <trkpt lat="25.539499" lon="113.6808507">
        <ele>605.0999755859375</ele>
        <time>2026-08-20T16:36:16.997Z</time>
        <speed>0.16027328</speed>
      </trkpt>
      <trkpt lat="25.5395248" lon="113.6808661">
        <ele>605.0999755859375</ele>
        <time>2026-08-20T16:36:36.997Z</time>
        <speed>0.18230061</speed>
      </trkpt>
      <trkpt lat="25.5394925" lon="113.68085">
        <ele>605.0999755859375</ele>
        <time>2026-08-20T16:37:24.998Z</time>
        <speed>0.13796216</speed>
      </trkpt>
      <trkpt lat="25.5395125" lon="113.6808733">
        <ele>605.0999755859375</ele>
        <time>2026-08-20T16:37:48.997Z</time>
        <speed>0.22950633</speed>
      </trkpt>
      <trkpt lat="25.5394913" lon="113.6808485">
        <ele>605.0999755859375</ele>
        <time>2026-08-20T16:38:08.251Z</time>
        <speed>0.2590877</speed>
      </trkpt>
      <trkpt lat="25.5394719" lon="113.6808253">
        <ele>605.0999755859375</ele>
        <time>2026-08-20T16:38:28.997Z</time>
        <speed>0.19382624</speed>
      </trkpt>
      <trkpt lat="25.5394928" lon="113.6808566">
        <ele>605.0999755859375</ele>
        <time>2026-08-20T16:38:52.998Z</time>
        <speed>0.23322731</speed>
      </trkpt>
      <trkpt lat="25.539466" lon="113.6808283">
        <ele>605.0999755859375</ele>
        <time>2026-08-20T16:39:53.998Z</time>
        <speed>0.19917302</speed>
      </trkpt>
      <trkpt lat="25.539447" lon="113.6808057">
        <ele>605.0999755859375</ele>
        <time>2026-08-20T16:40:49.997Z</time>
        <speed>0.2789882</speed>
      </trkpt>
      <trkpt lat="25.5394714" lon="113.6808224">
        <ele>605.0999755859375</ele>
        <time>2026-08-20T16:46:05.997Z</time>
        <speed>0.23406444</speed>
      </trkpt>
      <trkpt lat="25.5394458" lon="113.6808063">
        <ele>605.0999755859375</ele>
        <time>2026-08-20T16:49:39.998Z</time>
        <speed>0.26402858</speed>
      </trkpt>
      <trkpt lat="25.5394708" lon="113.6808266">
        <ele>605.0999755859375</ele>
        <time>2026-08-20T16:50:45.998Z</time>
        <speed>0.23522255</speed>
      </trkpt>
      <trkpt lat="25.5394933" lon="113.680847">
        <ele>605.0999755859375</ele>
        <time>2026-08-20T16:50:49.998Z</time>
        <speed>0.27453205</speed>
      </trkpt>
      <trkpt lat="25.5395161" lon="113.6808673">
        <ele>605.0999755859375</ele>
        <time>2026-08-20T16:51:03.926Z</time>
        <speed>0.32704955</speed>
      </trkpt>
      <trkpt lat="25.5395592" lon="113.6808723">
        <ele>605.0999755859375</ele>
        <time>2026-08-20T16:51:45.997Z</time>
        <speed>0.3428047</speed>
      </trkpt>
      <trkpt lat="25.5395424" lon="113.680845">
        <ele>605.0999755859375</ele>
        <time>2026-08-20T16:52:09.998Z</time>
        <speed>0.25781932</speed>
      </trkpt>
      <trkpt lat="25.5395016" lon="113.6808211">
        <ele>605.0999755859375</ele>
        <time>2026-08-20T16:53:01.998Z</time>
        <speed>0.30356976</speed>
      </trkpt>
      <trkpt lat="25.5395374" lon="113.6808325">
        <ele>605.0999755859375</ele>
        <time>2026-08-20T16:53:57.998Z</time>
        <speed>0.33273393</speed>
      </trkpt>
      <trkpt lat="25.5395066" lon="113.6808169">
        <ele>605.0999755859375</ele>
        <time>2026-08-20T16:54:25.998Z</time>
        <speed>0.15613961</speed>
      </trkpt>
      <trkpt lat="25.5395316" lon="113.6808292">
        <ele>605.0999755859375</ele>
        <time>2026-08-20T16:56:12.159Z</time>
        <speed>0.25799397</speed>
      </trkpt>
      <trkpt lat="25.539508" lon="113.6808104">
        <ele>605.0999755859375</ele>
        <time>2026-08-20T16:56:58.998Z</time>
        <speed>0.2650197</speed>
      </trkpt>
      <trkpt lat="25.5395364" lon="113.6808304">
        <ele>605.0999755859375</ele>
        <time>2026-08-20T16:58:33.997Z</time>
        <speed>0.24340099</speed>
      </trkpt>
      <trkpt lat="25.539506" lon="113.6808176">
        <ele>605.0999755859375</ele>
        <time>2026-08-20T16:58:55.998Z</time>
        <speed>0.1978903</speed>
      </trkpt>
      <trkpt lat="25.5394813" lon="113.6808036">
        <ele>605.0999755859375</ele>
        <time>2026-08-20T17:00:25.992Z</time>
        <speed>0.23361497</speed>
      </trkpt>
      <trkpt lat="25.5394543" lon="113.6807954">
        <ele>605.0999755859375</ele>
        <time>2026-08-20T17:02:39.990Z</time>
        <speed>0.3759102</speed>
      </trkpt>
      <trkpt lat="25.5394902" lon="113.6808011">
        <ele>605.0999755859375</ele>
        <time>2026-08-20T17:04:37.878Z</time>
        <speed>0.22209817</speed>
      </trkpt>
      <trkpt lat="25.5394621" lon="113.6807985">
        <ele>605.0999755859375</ele>
        <time>2026-08-20T17:05:54.326Z</time>
        <speed>0.22059013</speed>
      </trkpt>
      <trkpt lat="25.5394887" lon="113.6808043">
        <ele>605.0999755859375</ele>
        <time>2026-08-20T17:06:27.436Z</time>
        <speed>0.23504227</speed>
      </trkpt>
      <trkpt lat="25.5394603" lon="113.6807963">
        <ele>605.0999755859375</ele>
        <time>2026-08-20T17:09:11.991Z</time>
        <speed>0.1576182</speed>
      </trkpt>
      <trkpt lat="25.539486" lon="113.6808078">
        <ele>605.0999755859375</ele>
        <time>2026-08-20T17:10:43.991Z</time>
        <speed>0.14554909</speed>
      </trkpt>
      <trkpt lat="25.5395209" lon="113.6808253">
        <ele>605.0999755859375</ele>
        <time>2026-08-20T17:10:53.469Z</time>
        <speed>0.18858321</speed>
      </trkpt>
      <trkpt lat="25.5394813" lon="113.6808066">
        <ele>605.0999755859375</ele>
        <time>2026-08-20T17:12:07.989Z</time>
        <speed>0.28380296</speed>
      </trkpt>
      <trkpt lat="25.5394636" lon="113.6807792">
        <ele>605.0999755859375</ele>
        <time>2026-08-20T17:13:30.988Z</time>
        <speed>0.223209</speed>
      </trkpt>
      <trkpt lat="25.5394362" lon="113.680778">
        <ele>605.0999755859375</ele>
        <time>2026-08-20T17:18:55.989Z</time>
        <speed>0.16406909</speed>
      </trkpt>
      <trkpt lat="25.5394644" lon="113.6807655">
        <ele>605.0999755859375</ele>
        <time>2026-08-20T17:21:34.989Z</time>
        <speed>0.2089287</speed>
      </trkpt>
      <trkpt lat="25.5394514" lon="113.6807924">
        <ele>605.0999755859375</ele>
        <time>2026-08-20T17:30:33.570Z</time>
        <speed>0.24285147</speed>
      </trkpt>
      <trkpt lat="25.5394823" lon="113.680806">
        <ele>605.0999755859375</ele>
        <time>2026-08-20T17:31:50.990Z</time>
        <speed>0.22568938</speed>
      </trkpt>
      <trkpt lat="25.5395063" lon="113.6807865">
        <ele>605.0999755859375</ele>
        <time>2026-08-20T17:34:31.989Z</time>
        <speed>0.21402687</speed>
      </trkpt>
      <trkpt lat="25.5394785" lon="113.6807981">
        <ele>605.0999755859375</ele>
        <time>2026-08-20T17:35:07.988Z</time>
        <speed>0.22362213</speed>
      </trkpt>
      <trkpt lat="25.539503" lon="113.680818">
        <ele>605.0999755859375</ele>
        <time>2026-08-20T17:35:30.989Z</time>
        <speed>0.2529563</speed>
      </trkpt>
      <trkpt lat="25.5395351" lon="113.6808369">
        <ele>605.0999755859375</ele>
        <time>2026-08-20T17:35:42.989Z</time>
        <speed>0.19866534</speed>
      </trkpt>
      <trkpt lat="25.5394979" lon="113.6808302">
        <ele>605.0999755859375</ele>
        <time>2026-08-20T17:36:39.987Z</time>
        <speed>0.26542825</speed>
      </trkpt>
      <trkpt lat="25.5395308" lon="113.6808425">
        <ele>605.0999755859375</ele>
        <time>2026-08-20T17:40:54.989Z</time>
        <speed>0.1435548</speed>
      </trkpt>
      <trkpt lat="25.539565" lon="113.680865">
        <ele>605.0999755859375</ele>
        <time>2026-08-20T17:41:14.989Z</time>
        <speed>0.19228314</speed>
      </trkpt>
      <trkpt lat="25.5395916" lon="113.680888">
        <ele>605.0999755859375</ele>
        <time>2026-08-20T17:41:26.988Z</time>
        <speed>0.2084599</speed>
      </trkpt>
      <trkpt lat="25.5395726" lon="113.6808654">
        <ele>605.0999755859375</ele>
        <time>2026-08-20T17:41:46.988Z</time>
        <speed>0.1181726</speed>
      </trkpt>
      <trkpt lat="25.5395414" lon="113.6808467">
        <ele>605.0999755859375</ele>
        <time>2026-08-20T17:42:10.989Z</time>
        <speed>0.119490854</speed>
      </trkpt>
      <trkpt lat="25.5395161" lon="113.6808323">
        <ele>605.0999755859375</ele>
        <time>2026-08-20T17:43:11.988Z</time>
        <speed>0.14694819</speed>
      </trkpt>
      <trkpt lat="25.5395532" lon="113.6808434">
        <ele>605.0999755859375</ele>
        <time>2026-08-20T17:43:42.987Z</time>
        <speed>0.23309268</speed>
      </trkpt>
      <trkpt lat="25.5395176" lon="113.6808368">
        <ele>605.0999755859375</ele>
        <time>2026-08-20T17:44:10.198Z</time>
        <speed>0.18585019</speed>
      </trkpt>
      <trkpt lat="25.5394939" lon="113.6808221">
        <ele>605.0999755859375</ele>
        <time>2026-08-20T17:44:47.987Z</time>
        <speed>0.19045527</speed>
      </trkpt>
      <trkpt lat="25.539521" lon="113.6808276">
        <ele>605.0999755859375</ele>
        <time>2026-08-20T17:46:02.988Z</time>
        <speed>0.23717342</speed>
      </trkpt>
      <trkpt lat="25.5395459" lon="113.6808435">
        <ele>605.0999755859375</ele>
        <time>2026-08-20T17:46:30.989Z</time>
        <speed>0.27822015</speed>
      </trkpt>
      <trkpt lat="25.5395105" lon="113.6808096">
        <ele>605.0999755859375</ele>
        <time>2026-08-20T17:47:15.987Z</time>
        <speed>0.29275593</speed>
      </trkpt>
      <trkpt lat="25.5394831" lon="113.6808085">
        <ele>605.0999755859375</ele>
        <time>2026-08-20T17:50:07.985Z</time>
        <speed>0.17317687</speed>
      </trkpt>
      <trkpt lat="25.5394595" lon="113.6807915">
        <ele>605.0999755859375</ele>
        <time>2026-08-20T17:51:43.986Z</time>
        <speed>0.16597876</speed>
      </trkpt>
      <trkpt lat="25.5394849" lon="113.680802">
        <ele>605.0999755859375</ele>
        <time>2026-08-20T17:53:22.987Z</time>
        <speed>0.1467424</speed>
      </trkpt>
      <trkpt lat="25.5395155" lon="113.680811">
        <ele>605.0999755859375</ele>
        <time>2026-08-20T17:53:42.986Z</time>
        <speed>0.16139989</speed>
      </trkpt>
      <trkpt lat="25.5394884" lon="113.6807989">
        <ele>605.0999755859375</ele>
        <time>2026-08-20T17:57:47.987Z</time>
        <speed>0.18732813</speed>
      </trkpt>
      <trkpt lat="25.5395338" lon="113.6807749">
        <ele>605.0999755859375</ele>
        <time>2026-08-20T17:58:42.986Z</time>
        <speed>0.2559864</speed>
      </trkpt>
      <trkpt lat="25.5395058" lon="113.6807918">
        <ele>605.0999755859375</ele>
        <time>2026-08-20T17:58:58.987Z</time>
        <speed>0.2806377</speed>
      </trkpt>
      <trkpt lat="25.5394783" lon="113.6807982">
        <ele>605.0999755859375</ele>
        <time>2026-08-20T17:59:30.985Z</time>
        <speed>0.23965304</speed>
      </trkpt>
      <trkpt lat="25.5395015" lon="113.680782">
        <ele>605.0999755859375</ele>
        <time>2026-08-20T18:01:42.894Z</time>
        <speed>0.20100765</speed>
      </trkpt>
      <trkpt lat="25.5395278" lon="113.6808165">
        <ele>605.0999755859375</ele>
        <time>2026-08-20T18:02:21.484Z</time>
        <speed>0.17706333</speed>
      </trkpt>
      <trkpt lat="25.5395011" lon="113.6808074">
        <ele>605.0999755859375</ele>
        <time>2026-08-20T18:03:54.987Z</time>
        <speed>0.18031994</speed>
      </trkpt>
      <trkpt lat="25.5394749" lon="113.6807981">
        <ele>605.0999755859375</ele>
        <time>2026-08-20T18:05:14.986Z</time>
        <speed>0.118724294</speed>
      </trkpt>
      <trkpt lat="25.5395122" lon="113.6808091">
        <ele>605.0999755859375</ele>
        <time>2026-08-20T18:05:46.987Z</time>
        <speed>0.21982507</speed>
      </trkpt>
      <trkpt lat="25.5395387" lon="113.6808183">
        <ele>605.0999755859375</ele>
        <time>2026-08-20T18:06:38.988Z</time>
        <speed>0.16364148</speed>
      </trkpt>
      <trkpt lat="25.5395058" lon="113.6808052">
        <ele>605.0999755859375</ele>
        <time>2026-08-20T18:07:34.987Z</time>
        <speed>0.18859418</speed>
      </trkpt>
      <trkpt lat="25.5394804" lon="113.6807935">
        <ele>605.0999755859375</ele>
        <time>2026-08-20T18:07:54.986Z</time>
        <speed>0.19993459</speed>
      </trkpt>
      <trkpt lat="25.5394551" lon="113.6807746">
        <ele>605.0999755859375</ele>
        <time>2026-08-20T18:08:26.987Z</time>
        <speed>0.22814453</speed>
      </trkpt>
      <trkpt lat="25.5394908" lon="113.6807872">
        <ele>605.0999755859375</ele>
        <time>2026-08-20T18:35:06.986Z</time>
        <speed>0.17147231</speed>
      </trkpt>
      <trkpt lat="25.5394629" lon="113.6807901">
        <ele>605.0999755859375</ele>
        <time>2026-08-20T18:36:14.985Z</time>
        <speed>0.1218858</speed>
      </trkpt>
      <trkpt lat="25.5394927" lon="113.6808175">
        <ele>605.0999755859375</ele>
        <time>2026-08-20T18:40:18.984Z</time>
        <speed>0.30024987</speed>
      </trkpt>
      <trkpt lat="25.5394981" lon="113.6808474">
        <ele>605.0999755859375</ele>
        <time>2026-08-20T18:41:04.922Z</time>
        <speed>0.20841186</speed>
      </trkpt>
      <trkpt lat="25.5395161" lon="113.6808711">
        <ele>605.0999755859375</ele>
        <time>2026-08-20T18:43:14.984Z</time>
        <speed>0.18444</speed>
      </trkpt>
      <trkpt lat="25.539493" lon="113.6808507">
        <ele>605.0999755859375</ele>
        <time>2026-08-20T18:43:50.985Z</time>
        <speed>0.16146556</speed>
      </trkpt>
      <trkpt lat="25.5394746" lon="113.680826">
        <ele>605.0999755859375</ele>
        <time>2026-08-20T18:44:54.984Z</time>
        <speed>0.14639495</speed>
      </trkpt>
      <trkpt lat="25.5394943" lon="113.6808523">
        <ele>605.0999755859375</ele>
        <time>2026-08-20T18:47:26.984Z</time>
        <speed>0.10776915</speed>
      </trkpt>
      <trkpt lat="25.5394746" lon="113.6808315">
        <ele>605.0999755859375</ele>
        <time>2026-08-20T18:52:14.982Z</time>
        <speed>0.10423689</speed>
      </trkpt>
      <trkpt lat="25.539508" lon="113.6808534">
        <ele>605.0999755859375</ele>
        <time>2026-08-20T19:08:54.983Z</time>
        <speed>0.1699323</speed>
      </trkpt>
      <trkpt lat="25.5394863" lon="113.6808322">
        <ele>605.0999755859375</ele>
        <time>2026-08-20T19:09:31.981Z</time>
        <speed>0.1509786</speed>
      </trkpt>
    </trkseg>
  </trk>
</gpx>
