<?xml version="1.0" encoding="UTF-8"?>
<gpx version="1.1" creator="Pyxis" xmlns="http://www.topografix.com/GPX/1/1">
  <trk>
    <name>trip-20260819-2f12b67f-e6f5-4bef-812f-573f97a1767f_2026-08-22_2000-2400</name>
    <trkseg>
      <trkpt lat="24.5332756" lon="111.2970899">
        <ele>120.94631414632318</ele>
        <time>2026-08-22T12:00:02.908Z</time>
        <speed>6.24</speed>
      </trkpt>
      <trkpt lat="24.5331551" lon="111.2971265">
        <ele>120.70845471695432</ele>
        <time>2026-08-22T12:00:07.907Z</time>
        <speed>0.74</speed>
      </trkpt>
      <trkpt lat="24.5329004" lon="111.297185">
        <ele>121.39592311079349</ele>
        <time>2026-08-22T12:01:15.907Z</time>
        <speed>7.51</speed>
      </trkpt>
      <trkpt lat="24.5326586" lon="111.2972444">
        <ele>121.69399486356707</ele>
        <time>2026-08-22T12:01:18.907Z</time>
        <speed>9.79</speed>
      </trkpt>
      <trkpt lat="24.5321801" lon="111.2973646">
        <ele>122.0305483694917</ele>
        <time>2026-08-22T12:01:23.908Z</time>
        <speed>10.79</speed>
      </trkpt>
      <trkpt lat="24.5319042" lon="111.2974333">
        <ele>122.8260303577004</ele>
        <time>2026-08-22T12:01:26.908Z</time>
        <speed>10.23</speed>
      </trkpt>
      <trkpt lat="24.5315211" lon="111.2975232">
        <ele>123.02399412673279</ele>
        <time>2026-08-22T12:01:31.907Z</time>
        <speed>7.34</speed>
      </trkpt>
      <trkpt lat="24.5313986" lon="111.2975552">
        <ele>122.90294524566102</ele>
        <time>2026-08-22T12:01:34.907Z</time>
        <speed>2.96</speed>
      </trkpt>
      <trkpt lat="24.5312946" lon="111.2976443">
        <ele>122.77289167211907</ele>
        <time>2026-08-22T12:01:39.907Z</time>
        <speed>3.05</speed>
      </trkpt>
      <trkpt lat="24.531288" lon="111.297747">
        <ele>122.56360802057586</ele>
        <time>2026-08-22T12:01:42.907Z</time>
        <speed>3.69</speed>
      </trkpt>
      <trkpt lat="24.5313202" lon="111.297902">
        <ele>122.67278368594947</ele>
        <time>2026-08-22T12:01:47.908Z</time>
        <speed>2.96</speed>
      </trkpt>
      <trkpt lat="24.5313373" lon="111.2979932">
        <ele>122.90608231687276</ele>
        <time>2026-08-22T12:01:50.908Z</time>
        <speed>3.31</speed>
      </trkpt>
      <trkpt lat="24.5313731" lon="111.2981207">
        <ele>122.79924825778733</ele>
        <time>2026-08-22T12:01:55.908Z</time>
        <speed>1.24</speed>
      </trkpt>
      <trkpt lat="24.5314223" lon="111.2981402">
        <ele>123.01305566587658</ele>
        <time>2026-08-22T12:02:02.908Z</time>
        <speed>3.86</speed>
      </trkpt>
      <trkpt lat="24.5314938" lon="111.2980821">
        <ele>122.62099156135068</ele>
        <time>2026-08-22T12:02:04.908Z</time>
        <speed>2.64</speed>
      </trkpt>
      <trkpt lat="24.5316677" lon="111.2980305">
        <ele>122.85108168119316</ele>
        <time>2026-08-22T12:02:09.908Z</time>
        <speed>1.25</speed>
      </trkpt>
      <trkpt lat="24.5317536" lon="111.2980049">
        <ele>123.07799865936232</ele>
        <time>2026-08-22T12:02:17.907Z</time>
        <speed>1.17</speed>
      </trkpt>
      <trkpt lat="24.5318159" lon="111.2979814">
        <ele>122.64914198328555</ele>
        <time>2026-08-22T12:02:21.908Z</time>
        <speed>0.65</speed>
      </trkpt>
      <trkpt lat="24.5318492" lon="111.2979777">
        <ele>121.35180971567968</ele>
        <time>2026-08-22T12:02:25.908Z</time>
        <speed>0.65</speed>
      </trkpt>
      <trkpt lat="24.5317408" lon="111.2990139">
        <ele>211.96551513671875</ele>
        <time>2026-08-22T12:12:09.902Z</time>
        <speed>0.57</speed>
      </trkpt>
      <trkpt lat="24.5317599" lon="111.2989284">
        <ele>138.28021240234375</ele>
        <time>2026-08-22T12:12:14.904Z</time>
        <speed>0.45140576</speed>
      </trkpt>
      <trkpt lat="24.5317343" lon="111.2989168">
        <ele>139.1962890625</ele>
        <time>2026-08-22T12:12:16.903Z</time>
        <speed>0.43637526</speed>
      </trkpt>
      <trkpt lat="24.5316978" lon="111.298896">
        <ele>143.72935237230917</ele>
        <time>2026-08-22T12:12:20.903Z</time>
        <speed>0.08841538</speed>
      </trkpt>
      <trkpt lat="24.5316627" lon="111.2989067">
        <ele>137.24297701583592</ele>
        <time>2026-08-22T12:12:51.903Z</time>
        <speed>0.15556146</speed>
      </trkpt>
      <trkpt lat="24.5316366" lon="111.2989264">
        <ele>137.79380270978706</ele>
        <time>2026-08-22T12:12:55.906Z</time>
        <speed>0.08061746</speed>
      </trkpt>
      <trkpt lat="24.5316014" lon="111.2989284">
        <ele>137.88329308769565</ele>
        <time>2026-08-22T12:13:01.765Z</time>
        <speed>0.12280478</speed>
      </trkpt>
      <trkpt lat="24.5315643" lon="111.2989155">
        <ele>139.72910256011812</ele>
        <time>2026-08-22T12:13:03.906Z</time>
        <speed>0.91081</speed>
      </trkpt>
      <trkpt lat="24.5315307" lon="111.298917">
        <ele>143.35273752379794</ele>
        <time>2026-08-22T12:13:05.897Z</time>
        <speed>0.6901782</speed>
      </trkpt>
      <trkpt lat="24.5314817" lon="111.298933">
        <ele>144.73520002880088</ele>
        <time>2026-08-22T12:13:10.019Z</time>
        <speed>0.56167436</speed>
      </trkpt>
      <trkpt lat="24.5315239" lon="111.2989204">
        <ele>141.09757008902412</ele>
        <time>2026-08-22T12:13:25.907Z</time>
        <speed>0.8363448</speed>
      </trkpt>
      <trkpt lat="24.5313804" lon="111.2987425">
        <ele>139.75932436090562</ele>
        <time>2026-08-22T12:13:27.770Z</time>
        <speed>0.69464177</speed>
      </trkpt>
      <trkpt lat="24.531208" lon="111.2985393">
        <ele>138.7794371490498</ele>
        <time>2026-08-22T12:13:29.904Z</time>
        <speed>0.8624096</speed>
      </trkpt>
      <trkpt lat="24.5311958" lon="111.2985125">
        <ele>138.7794371490498</ele>
        <time>2026-08-22T12:13:31.899Z</time>
        <speed>0.90353775</speed>
      </trkpt>
      <trkpt lat="24.5311783" lon="111.2984706">
        <ele>138.76239109248965</ele>
        <time>2026-08-22T12:13:35.901Z</time>
        <speed>0.848547</speed>
      </trkpt>
      <trkpt lat="24.5311642" lon="111.2984247">
        <ele>139.83137779718788</ele>
        <time>2026-08-22T12:13:39.707Z</time>
        <speed>0.84150445</speed>
      </trkpt>
      <trkpt lat="24.5311751" lon="111.2983905">
        <ele>139.47138015545224</ele>
        <time>2026-08-22T12:13:43.864Z</time>
        <speed>0.78222084</speed>
      </trkpt>
      <trkpt lat="24.5311974" lon="111.2983707">
        <ele>139.6144338942747</ele>
        <time>2026-08-22T12:13:47.903Z</time>
        <speed>0.66206145</speed>
      </trkpt>
      <trkpt lat="24.5312321" lon="111.2983705">
        <ele>139.7099762661526</ele>
        <time>2026-08-22T12:13:53.901Z</time>
        <speed>0.60272443</speed>
      </trkpt>
      <trkpt lat="24.5312781" lon="111.2983545">
        <ele>139.61982327493521</ele>
        <time>2026-08-22T12:13:57.907Z</time>
        <speed>0.74638754</speed>
      </trkpt>
      <trkpt lat="24.5313161" lon="111.298351">
        <ele>138.84204818721994</ele>
        <time>2026-08-22T12:14:01.939Z</time>
        <speed>0.70857954</speed>
      </trkpt>
      <trkpt lat="24.5313506" lon="111.2983422">
        <ele>138.38542916364443</ele>
        <time>2026-08-22T12:14:07.899Z</time>
        <speed>0.37922037</speed>
      </trkpt>
      <trkpt lat="24.5314025" lon="111.2983492">
        <ele>139.13411918135364</ele>
        <time>2026-08-22T12:14:11.784Z</time>
        <speed>0.8322463</speed>
      </trkpt>
      <trkpt lat="24.5314382" lon="111.2983585">
        <ele>137.96090914634473</ele>
        <time>2026-08-22T12:14:15.519Z</time>
        <speed>0.77760816</speed>
      </trkpt>
      <trkpt lat="24.5314713" lon="111.2983351">
        <ele>137.65715767003698</ele>
        <time>2026-08-22T12:14:19.906Z</time>
        <speed>1.0074205</speed>
      </trkpt>
      <trkpt lat="24.5314922" lon="111.2983079">
        <ele>136.89540111934502</ele>
        <time>2026-08-22T12:14:23.899Z</time>
        <speed>0.87721074</speed>
      </trkpt>
      <trkpt lat="24.5314736" lon="111.2982672">
        <ele>137.58631856029396</ele>
        <time>2026-08-22T12:14:27.900Z</time>
        <speed>0.96307534</speed>
      </trkpt>
      <trkpt lat="24.5314623" lon="111.2982282">
        <ele>136.79855418608224</ele>
        <time>2026-08-22T12:14:31.909Z</time>
        <speed>0.956927</speed>
      </trkpt>
      <trkpt lat="24.5314327" lon="111.2982053">
        <ele>136.9889510963721</ele>
        <time>2026-08-22T12:14:33.903Z</time>
        <speed>1.0085577</speed>
      </trkpt>
      <trkpt lat="24.5313987" lon="111.2981856">
        <ele>136.72771583971993</ele>
        <time>2026-08-22T12:14:35.904Z</time>
        <speed>1.0561792</speed>
      </trkpt>
      <trkpt lat="24.5313636" lon="111.2981625">
        <ele>136.45928189142967</ele>
        <time>2026-08-22T12:14:39.899Z</time>
        <speed>0.9864857</speed>
      </trkpt>
      <trkpt lat="24.5313547" lon="111.2981243">
        <ele>136.77431735305032</ele>
        <time>2026-08-22T12:14:43.925Z</time>
        <speed>0.82453924</speed>
      </trkpt>
      <trkpt lat="24.5313295" lon="111.2980923">
        <ele>136.9778271823435</ele>
        <time>2026-08-22T12:14:47.906Z</time>
        <speed>0.87095714</speed>
      </trkpt>
      <trkpt lat="24.5313098" lon="111.29805">
        <ele>136.39179814047836</ele>
        <time>2026-08-22T12:14:51.895Z</time>
        <speed>1.0056536</speed>
      </trkpt>
      <trkpt lat="24.5312859" lon="111.2980096">
        <ele>136.37512090194156</ele>
        <time>2026-08-22T12:14:55.903Z</time>
        <speed>1.077083</speed>
      </trkpt>
      <trkpt lat="24.5312806" lon="111.2979625">
        <ele>136.2740478515625</ele>
        <time>2026-08-22T12:14:59.896Z</time>
        <speed>1.0459946</speed>
      </trkpt>
      <trkpt lat="24.531267" lon="111.2979162">
        <ele>136.1791208724978</ele>
        <time>2026-08-22T12:15:03.857Z</time>
        <speed>1.089776</speed>
      </trkpt>
      <trkpt lat="24.5312553" lon="111.2978694">
        <ele>135.94829117482632</ele>
        <time>2026-08-22T12:15:07.897Z</time>
        <speed>1.193223</speed>
      </trkpt>
      <trkpt lat="24.5312671" lon="111.2978234">
        <ele>136.1286847958415</ele>
        <time>2026-08-22T12:15:11.864Z</time>
        <speed>1.0665754</speed>
      </trkpt>
      <trkpt lat="24.5313035" lon="111.2977902">
        <ele>135.81070591944393</ele>
        <time>2026-08-22T12:15:15.895Z</time>
        <speed>0.7789305</speed>
      </trkpt>
      <trkpt lat="24.531327" lon="111.2977665">
        <ele>135.79366247253063</ele>
        <time>2026-08-22T12:15:19.906Z</time>
        <speed>0.6352759</speed>
      </trkpt>
      <trkpt lat="24.5313753" lon="111.2977436">
        <ele>135.90270192540558</ele>
        <time>2026-08-22T12:15:23.897Z</time>
        <speed>1.1040698</speed>
      </trkpt>
      <trkpt lat="24.5314066" lon="111.2977154">
        <ele>135.9287997851119</ele>
        <time>2026-08-22T12:15:27.920Z</time>
        <speed>0.9515118</speed>
      </trkpt>
      <trkpt lat="24.5314426" lon="111.2977057">
        <ele>135.809477524544</ele>
        <time>2026-08-22T12:15:31.905Z</time>
        <speed>1.0733064</speed>
      </trkpt>
      <trkpt lat="24.5314891" lon="111.2976892">
        <ele>135.79243387919215</ele>
        <time>2026-08-22T12:15:37.905Z</time>
        <speed>1.0529227</speed>
      </trkpt>
      <trkpt lat="24.5315208" lon="111.2976827">
        <ele>135.68757794436297</ele>
        <time>2026-08-22T12:15:41.897Z</time>
        <speed>0.90605783</speed>
      </trkpt>
      <trkpt lat="24.5315577" lon="111.2976926">
        <ele>135.5132411663903</ele>
        <time>2026-08-22T12:15:46.002Z</time>
        <speed>0.8016643</speed>
      </trkpt>
      <trkpt lat="24.5316155" lon="111.2976874">
        <ele>135.5210912779189</ele>
        <time>2026-08-22T12:15:56.988Z</time>
        <speed>0.7796151</speed>
      </trkpt>
      <trkpt lat="24.5316478" lon="111.2976984">
        <ele>135.48434251418544</ele>
        <time>2026-08-22T12:16:01.304Z</time>
        <speed>0.6861544</speed>
      </trkpt>
      <trkpt lat="24.5316798" lon="111.2977142">
        <ele>135.4523046565994</ele>
        <time>2026-08-22T12:16:12.900Z</time>
        <speed>0.12868403</speed>
      </trkpt>
      <trkpt lat="24.5317051" lon="111.297695">
        <ele>135.19941448199828</ele>
        <time>2026-08-22T12:16:25.506Z</time>
        <speed>0.23421855</speed>
      </trkpt>
      <trkpt lat="24.5317138" lon="111.297666">
        <ele>135.3252816199071</ele>
        <time>2026-08-22T12:16:52.900Z</time>
        <speed>0.10373151</speed>
      </trkpt>
      <trkpt lat="24.5317204" lon="111.2976251">
        <ele>135.23953507803066</ele>
        <time>2026-08-22T12:17:05.901Z</time>
        <speed>0.06671345</speed>
      </trkpt>
      <trkpt lat="24.531725" lon="111.2976547">
        <ele>135.1851714755393</ele>
        <time>2026-08-22T12:17:29.900Z</time>
        <speed>0.19553956</speed>
      </trkpt>
      <trkpt lat="24.5317167" lon="111.2977234">
        <ele>135.27997119285905</ele>
        <time>2026-08-22T12:17:40.901Z</time>
        <speed>0.36670038</speed>
      </trkpt>
      <trkpt lat="24.5317594" lon="111.2978172">
        <ele>135.22511879813194</ele>
        <time>2026-08-22T12:17:56.900Z</time>
        <speed>0.47458026</speed>
      </trkpt>
      <trkpt lat="24.5317259" lon="111.2977711">
        <ele>134.91852724885248</ele>
        <time>2026-08-22T12:18:09.901Z</time>
        <speed>0.3401889</speed>
      </trkpt>
      <trkpt lat="24.5317436" lon="111.2976332">
        <ele>135.50295332567077</ele>
        <time>2026-08-22T12:18:17.901Z</time>
        <speed>0.74504644</speed>
      </trkpt>
      <trkpt lat="24.5317357" lon="111.2975802">
        <ele>135.36934223378623</ele>
        <time>2026-08-22T12:18:20.901Z</time>
        <speed>0.8836664</speed>
      </trkpt>
      <trkpt lat="24.5317419" lon="111.2975235">
        <ele>135.4031023043348</ele>
        <time>2026-08-22T12:18:25.901Z</time>
        <speed>0.9137526</speed>
      </trkpt>
      <trkpt lat="24.5317534" lon="111.2974924">
        <ele>135.0760928899773</ele>
        <time>2026-08-22T12:18:28.901Z</time>
        <speed>0.94319844</speed>
      </trkpt>
      <trkpt lat="24.5317668" lon="111.2974474">
        <ele>135.0835491320199</ele>
        <time>2026-08-22T12:18:33.900Z</time>
        <speed>0.94897604</speed>
      </trkpt>
      <trkpt lat="24.5317959" lon="111.2973987">
        <ele>135.17956241171572</ele>
        <time>2026-08-22T12:18:41.061Z</time>
        <speed>0.96190447</speed>
      </trkpt>
      <trkpt lat="24.5318289" lon="111.2974131">
        <ele>135.42313382582114</ele>
        <time>2026-08-22T12:18:44.901Z</time>
        <speed>0.8765689</speed>
      </trkpt>
      <trkpt lat="24.5318292" lon="111.2974879">
        <ele>135.62143378002193</ele>
        <time>2026-08-22T12:18:48.901Z</time>
        <speed>0.5413364</speed>
      </trkpt>
      <trkpt lat="24.5318277" lon="111.2975815">
        <ele>135.40129759442618</ele>
        <time>2026-08-22T12:18:53.900Z</time>
        <speed>0.6901432</speed>
      </trkpt>
      <trkpt lat="24.5318197" lon="111.2976144">
        <ele>135.4201451781195</ele>
        <time>2026-08-22T12:18:56.901Z</time>
        <speed>0.5985532</speed>
      </trkpt>
      <trkpt lat="24.5317862" lon="111.2975989">
        <ele>135.10276958432914</ele>
        <time>2026-08-22T12:19:04.901Z</time>
        <speed>0.25961837</speed>
      </trkpt>
      <trkpt lat="24.5317694" lon="111.2976275">
        <ele>135.407429183149</ele>
        <time>2026-08-22T12:19:17.900Z</time>
        <speed>0.30130666</speed>
      </trkpt>
      <trkpt lat="24.5317739" lon="111.2976632">
        <ele>135.3039287256477</ele>
        <time>2026-08-22T12:19:37.900Z</time>
        <speed>0.38967133</speed>
      </trkpt>
      <trkpt lat="24.5317677" lon="111.297701">
        <ele>135.18740460401116</ele>
        <time>2026-08-22T12:19:45.900Z</time>
        <speed>0.39695427</speed>
      </trkpt>
      <trkpt lat="24.5317489" lon="111.2977254">
        <ele>135.48518819048152</ele>
        <time>2026-08-22T12:19:53.901Z</time>
        <speed>0.42215848</speed>
      </trkpt>
      <trkpt lat="24.5317483" lon="111.2977658">
        <ele>135.4391121606206</ele>
        <time>2026-08-22T12:20:04.901Z</time>
        <speed>0.3872342</speed>
      </trkpt>
      <trkpt lat="24.531736" lon="111.2977258">
        <ele>135.40778540681328</ele>
        <time>2026-08-22T12:20:12.901Z</time>
        <speed>0.39797387</speed>
      </trkpt>
      <trkpt lat="24.5317233" lon="111.2976819">
        <ele>135.29498954368876</ele>
        <time>2026-08-22T12:20:20.900Z</time>
        <speed>0.26683584</speed>
      </trkpt>
      <trkpt lat="24.5317318" lon="111.2976534">
        <ele>135.77475572542696</ele>
        <time>2026-08-22T12:20:24.901Z</time>
        <speed>0.22930287</speed>
      </trkpt>
      <trkpt lat="24.5317026" lon="111.2976317">
        <ele>135.68451746463188</ele>
        <time>2026-08-22T12:20:31.849Z</time>
        <speed>0.30222544</speed>
      </trkpt>
      <trkpt lat="24.531709" lon="111.2976811">
        <ele>135.63165398352032</ele>
        <time>2026-08-22T12:20:41.822Z</time>
        <speed>0.10611513</speed>
      </trkpt>
      <trkpt lat="24.5317239" lon="111.297714">
        <ele>135.41535844769135</ele>
        <time>2026-08-22T12:21:08.901Z</time>
        <speed>0.18590777</speed>
      </trkpt>
      <trkpt lat="24.5317245" lon="111.2977533">
        <ele>135.22524129866983</ele>
        <time>2026-08-22T12:21:23.900Z</time>
        <speed>0.30857164</speed>
      </trkpt>
      <trkpt lat="24.5317571" lon="111.2976351">
        <ele>135.69316477461436</ele>
        <time>2026-08-22T12:21:30.900Z</time>
        <speed>0.32738894</speed>
      </trkpt>
      <trkpt lat="24.5317672" lon="111.2975898">
        <ele>135.68570819685866</ele>
        <time>2026-08-22T12:21:33.901Z</time>
        <speed>0.7501963</speed>
      </trkpt>
      <trkpt lat="24.5317714" lon="111.2975567">
        <ele>135.37488192481877</ele>
        <time>2026-08-22T12:21:38.900Z</time>
        <speed>0.39225778</speed>
      </trkpt>
      <trkpt lat="24.5317553" lon="111.2975869">
        <ele>135.71193903090776</ele>
        <time>2026-08-22T12:21:41.901Z</time>
        <speed>0.24431323</speed>
      </trkpt>
      <trkpt lat="24.5317513" lon="111.297667">
        <ele>135.6946019091892</ele>
        <time>2026-08-22T12:21:46.901Z</time>
        <speed>0.2673108</speed>
      </trkpt>
      <trkpt lat="24.5317446" lon="111.2976972">
        <ele>135.5133591535592</ele>
        <time>2026-08-22T12:21:49.901Z</time>
        <speed>0.28841394</speed>
      </trkpt>
      <trkpt lat="24.5317827" lon="111.2977447">
        <ele>135.34141198752945</ele>
        <time>2026-08-22T12:22:09.901Z</time>
        <speed>0.3171727</speed>
      </trkpt>
      <trkpt lat="24.5317972" lon="111.2977825">
        <ele>135.74390744774166</ele>
        <time>2026-08-22T12:22:17.901Z</time>
        <speed>0.38372666</speed>
      </trkpt>
      <trkpt lat="24.5318026" lon="111.2978178">
        <ele>135.83335293021804</ele>
        <time>2026-08-22T12:22:25.900Z</time>
        <speed>0.41260862</speed>
      </trkpt>
      <trkpt lat="24.5317807" lon="111.2978435">
        <ele>135.86700007698593</ele>
        <time>2026-08-22T12:22:33.901Z</time>
        <speed>0.40586397</speed>
      </trkpt>
      <trkpt lat="24.531753" lon="111.2978151">
        <ele>135.8835112510686</ele>
        <time>2026-08-22T12:22:38.901Z</time>
        <speed>0.41832402</speed>
      </trkpt>
      <trkpt lat="24.5317416" lon="111.2976532">
        <ele>135.7620942201621</ele>
        <time>2026-08-22T12:22:46.900Z</time>
        <speed>1.0475557</speed>
      </trkpt>
      <trkpt lat="24.5317228" lon="111.2975742">
        <ele>135.38660142488524</ele>
        <time>2026-08-22T12:22:49.900Z</time>
        <speed>1.3756222</speed>
      </trkpt>
      <trkpt lat="24.5316919" lon="111.297449">
        <ele>135.28306907888665</ele>
        <time>2026-08-22T12:22:56.901Z</time>
        <speed>1.3246667</speed>
      </trkpt>
      <trkpt lat="24.5316905" lon="111.2974104">
        <ele>135.40908941668096</ele>
        <time>2026-08-22T12:22:59.702Z</time>
        <speed>1.5526545</speed>
      </trkpt>
      <trkpt lat="24.5317029" lon="111.2976253">
        <ele>135.22161012361545</ele>
        <time>2026-08-22T12:23:04.166Z</time>
        <speed>0.7737022</speed>
      </trkpt>
      <trkpt lat="24.5317421" lon="111.2976493">
        <ele>135.74886898575036</ele>
        <time>2026-08-22T12:23:09.901Z</time>
        <speed>0.07199511</speed>
      </trkpt>
      <trkpt lat="24.5317285" lon="111.297681">
        <ele>135.61944073986982</ele>
        <time>2026-08-22T12:23:32.900Z</time>
        <speed>0.28145605</speed>
      </trkpt>
      <trkpt lat="24.5316744" lon="111.2975971">
        <ele>135.37872836333597</ele>
        <time>2026-08-22T12:23:49.900Z</time>
        <speed>0.4494235</speed>
      </trkpt>
      <trkpt lat="24.5316914" lon="111.2974333">
        <ele>135.49046477631055</ele>
        <time>2026-08-22T12:23:55.901Z</time>
        <speed>2.5383065</speed>
      </trkpt>
      <trkpt lat="24.5316257" lon="111.2974284">
        <ele>136.1128677170862</ele>
        <time>2026-08-22T12:24:03.900Z</time>
        <speed>0.099106476</speed>
      </trkpt>
      <trkpt lat="24.5316802" lon="111.2974892">
        <ele>135.77541766189955</ele>
        <time>2026-08-22T12:24:11.900Z</time>
        <speed>0.06725621</speed>
      </trkpt>
      <trkpt lat="24.5317024" lon="111.2975253">
        <ele>136.10342038254376</ele>
        <time>2026-08-22T12:24:19.901Z</time>
        <speed>0.06416479</speed>
      </trkpt>
      <trkpt lat="24.5317468" lon="111.2972162">
        <ele>136.17784935966188</ele>
        <time>2026-08-22T12:24:22.900Z</time>
        <speed>0.32419327</speed>
      </trkpt>
      <trkpt lat="24.5317389" lon="111.2971671">
        <ele>136.00671318341256</ele>
        <time>2026-08-22T12:24:26.901Z</time>
        <speed>0.19459718</speed>
      </trkpt>
      <trkpt lat="24.5316153" lon="111.2975833">
        <ele>136.33018529893383</ele>
        <time>2026-08-22T12:24:35.785Z</time>
        <speed>0.25261056</speed>
      </trkpt>
      <trkpt lat="24.5316218" lon="111.2977916">
        <ele>136.01012965061523</ele>
        <time>2026-08-22T12:24:37.903Z</time>
        <speed>0.552464</speed>
      </trkpt>
      <trkpt lat="24.5316679" lon="111.2978481">
        <ele>135.68642146253234</ele>
        <time>2026-08-22T12:24:43.425Z</time>
        <speed>0.6879395</speed>
      </trkpt>
      <trkpt lat="24.5317089" lon="111.297847">
        <ele>136.1685706911134</ele>
        <time>2026-08-22T12:24:51.895Z</time>
        <speed>0.4168741</speed>
      </trkpt>
      <trkpt lat="24.5316877" lon="111.2977947">
        <ele>136.04860930000237</ele>
        <time>2026-08-22T12:24:57.022Z</time>
        <speed>0.13298483</speed>
      </trkpt>
      <trkpt lat="24.5316944" lon="111.2977441">
        <ele>136.0171809592923</ele>
        <time>2026-08-22T12:24:58.895Z</time>
        <speed>0.08540052</speed>
      </trkpt>
      <trkpt lat="24.5316925" lon="111.2977113">
        <ele>136.65032346847596</ele>
        <time>2026-08-22T12:25:06.894Z</time>
        <speed>0.093373105</speed>
      </trkpt>
      <trkpt lat="24.5317327" lon="111.2977304">
        <ele>136.19949262149746</ele>
        <time>2026-08-22T12:25:40.818Z</time>
        <speed>1.3286498</speed>
      </trkpt>
      <trkpt lat="24.5317611" lon="111.297681">
        <ele>136.1329096283814</ele>
        <time>2026-08-22T12:25:46.917Z</time>
        <speed>0.86282676</speed>
      </trkpt>
      <trkpt lat="24.5317767" lon="111.2976519">
        <ele>136.03005798715955</ele>
        <time>2026-08-22T12:25:49.018Z</time>
        <speed>0.6602423</speed>
      </trkpt>
      <trkpt lat="24.5317197" lon="111.2976335">
        <ele>135.90543011431632</ele>
        <time>2026-08-22T12:25:56.444Z</time>
        <speed>0.16739579</speed>
      </trkpt>
      <trkpt lat="24.5317342" lon="111.2976718">
        <ele>136.06997246770283</ele>
        <time>2026-08-22T12:26:02.895Z</time>
        <speed>0.13528576</speed>
      </trkpt>
      <trkpt lat="24.5317361" lon="111.2977356">
        <ele>135.94373345843658</ele>
        <time>2026-08-22T12:26:34.894Z</time>
        <speed>0.0</speed>
      </trkpt>
      <trkpt lat="24.5317038" lon="111.2977354">
        <ele>136.11799510859097</ele>
        <time>2026-08-22T12:27:19.708Z</time>
        <speed>0.07611586</speed>
      </trkpt>
      <trkpt lat="24.5317266" lon="111.2977136">
        <ele>136.3665216908828</ele>
        <time>2026-08-22T12:28:17.895Z</time>
        <speed>0.66353154</speed>
      </trkpt>
      <trkpt lat="24.5317359" lon="111.2976781">
        <ele>136.35533581801414</ele>
        <time>2026-08-22T12:28:27.894Z</time>
        <speed>2.795923</speed>
      </trkpt>
      <trkpt lat="24.5318209" lon="111.2976056">
        <ele>136.37025031840577</ele>
        <time>2026-08-22T12:28:32.895Z</time>
        <speed>0.87299603</speed>
      </trkpt>
      <trkpt lat="24.5317686" lon="111.2975395">
        <ele>135.67414009878703</ele>
        <time>2026-08-22T12:28:39.895Z</time>
        <speed>0.14577271</speed>
      </trkpt>
      <trkpt lat="24.5317373" lon="111.2975228">
        <ele>135.80324893278916</ele>
        <time>2026-08-22T12:28:43.895Z</time>
        <speed>0.18178414</speed>
      </trkpt>
      <trkpt lat="24.5317283" lon="111.297492">
        <ele>135.90626009128377</ele>
        <time>2026-08-22T12:28:51.894Z</time>
        <speed>0.18369414</speed>
      </trkpt>
      <trkpt lat="24.5317244" lon="111.297462">
        <ele>135.62064941210542</ele>
        <time>2026-08-22T12:28:59.894Z</time>
        <speed>0.15511104</speed>
      </trkpt>
      <trkpt lat="24.5316641" lon="111.2972848">
        <ele>136.85194415284812</ele>
        <time>2026-08-22T12:29:30.895Z</time>
        <speed>0.23845866</speed>
      </trkpt>
      <trkpt lat="24.531714" lon="111.2972611">
        <ele>136.8491365873414</ele>
        <time>2026-08-22T12:29:36.894Z</time>
        <speed>0.38814446</speed>
      </trkpt>
      <trkpt lat="24.5316943" lon="111.297333">
        <ele>136.1340427780236</ele>
        <time>2026-08-22T12:29:43.895Z</time>
        <speed>0.31547222</speed>
      </trkpt>
      <trkpt lat="24.5316671" lon="111.297325">
        <ele>135.3049400770944</ele>
        <time>2026-08-22T12:34:43.970Z</time>
        <speed>0.24120569</speed>
      </trkpt>
      <trkpt lat="24.5316867" lon="111.297298">
        <ele>133.4548884713329</ele>
        <time>2026-08-22T12:35:44.894Z</time>
        <speed>0.3579402</speed>
      </trkpt>
      <trkpt lat="24.5316833" lon="111.2973285">
        <ele>132.54907624712803</ele>
        <time>2026-08-22T12:36:46.894Z</time>
        <speed>0.37359992</speed>
      </trkpt>
      <trkpt lat="24.5316711" lon="111.2972989">
        <ele>133.84058135999686</ele>
        <time>2026-08-22T12:56:48.892Z</time>
        <speed>0.15122722</speed>
      </trkpt>
      <trkpt lat="24.5316946" lon="111.2972797">
        <ele>133.3686108960978</ele>
        <time>2026-08-22T12:58:12.892Z</time>
        <speed>0.46844357</speed>
      </trkpt>
      <trkpt lat="24.5316774" lon="111.2973075">
        <ele>133.37415558883572</ele>
        <time>2026-08-22T12:58:18.891Z</time>
        <speed>0.36460295</speed>
      </trkpt>
      <trkpt lat="24.5316511" lon="111.2972992">
        <ele>132.44027228600777</ele>
        <time>2026-08-22T13:03:48.726Z</time>
        <speed>0.87819165</speed>
      </trkpt>
      <trkpt lat="24.5315361" lon="111.2975281">
        <ele>131.6954183088001</ele>
        <time>2026-08-22T13:04:19.748Z</time>
        <speed>0.901868</speed>
      </trkpt>
      <trkpt lat="24.5315096" lon="111.2975574">
        <ele>131.71565520748825</ele>
        <time>2026-08-22T13:04:21.602Z</time>
        <speed>1.0353413</speed>
      </trkpt>
      <trkpt lat="24.531472" lon="111.2976695">
        <ele>131.76944298549427</ele>
        <time>2026-08-22T13:04:23.782Z</time>
        <speed>1.0852191</speed>
      </trkpt>
      <trkpt lat="24.5314505" lon="111.2976894">
        <ele>131.70074380383832</ele>
        <time>2026-08-22T13:04:25.961Z</time>
        <speed>1.1456736</speed>
      </trkpt>
      <trkpt lat="24.531461" lon="111.2977445">
        <ele>131.74920596023597</ele>
        <time>2026-08-22T13:04:30.082Z</time>
        <speed>1.1457397</speed>
      </trkpt>
      <trkpt lat="24.5314714" lon="111.2977814">
        <ele>131.64163099376913</ele>
        <time>2026-08-22T13:04:32.367Z</time>
        <speed>1.1114694</speed>
      </trkpt>
      <trkpt lat="24.531498" lon="111.2978332">
        <ele>131.729826434918</ele>
        <time>2026-08-22T13:04:34.892Z</time>
        <speed>1.0420312</speed>
      </trkpt>
      <trkpt lat="24.5314991" lon="111.2978713">
        <ele>131.80862552545736</ele>
        <time>2026-08-22T13:04:37.341Z</time>
        <speed>1.1061175</speed>
      </trkpt>
      <trkpt lat="24.5315218" lon="111.2978967">
        <ele>131.5437414475372</ele>
        <time>2026-08-22T13:04:39.626Z</time>
        <speed>1.1072836</speed>
      </trkpt>
      <trkpt lat="24.5315739" lon="111.2979395">
        <ele>131.8838269607085</ele>
        <time>2026-08-22T13:04:44.090Z</time>
        <speed>1.1471621</speed>
      </trkpt>
      <trkpt lat="24.5315766" lon="111.2979962">
        <ele>132.14371803884305</ele>
        <time>2026-08-22T13:04:48.637Z</time>
        <speed>1.1217165</speed>
      </trkpt>
      <trkpt lat="24.5313396" lon="111.2978254">
        <ele>131.8577119372889</ele>
        <time>2026-08-22T13:04:55.457Z</time>
        <speed>1.0541835</speed>
      </trkpt>
      <trkpt lat="24.5313074" lon="111.2978108">
        <ele>132.1596750509896</ele>
        <time>2026-08-22T13:04:57.478Z</time>
        <speed>0.98503584</speed>
      </trkpt>
      <trkpt lat="24.5313377" lon="111.2977472">
        <ele>131.55676417668852</ele>
        <time>2026-08-22T13:04:59.386Z</time>
        <speed>0.8558418</speed>
      </trkpt>
      <trkpt lat="24.5313167" lon="111.2977739">
        <ele>131.9078370123414</ele>
        <time>2026-08-22T13:05:05.891Z</time>
        <speed>1.1482868</speed>
      </trkpt>
      <trkpt lat="24.5312891" lon="111.2977711">
        <ele>131.87844309750497</ele>
        <time>2026-08-22T13:05:09.658Z</time>
        <speed>1.1531899</speed>
      </trkpt>
      <trkpt lat="24.5312614" lon="111.2977763">
        <ele>131.49074823503673</ele>
        <time>2026-08-22T13:05:12.055Z</time>
        <speed>1.1071764</speed>
      </trkpt>
      <trkpt lat="24.5312602" lon="111.2978171">
        <ele>130.9901790720465</ele>
        <time>2026-08-22T13:05:14.578Z</time>
        <speed>1.063219</speed>
      </trkpt>
      <trkpt lat="24.5313064" lon="111.2979287">
        <ele>130.77362480625533</ele>
        <time>2026-08-22T13:05:19.578Z</time>
        <speed>1.080535</speed>
      </trkpt>
      <trkpt lat="24.531302" lon="111.2980025">
        <ele>131.60285312286774</ele>
        <time>2026-08-22T13:05:24.341Z</time>
        <speed>1.0561342</speed>
      </trkpt>
      <trkpt lat="24.5312855" lon="111.2980544">
        <ele>131.92930599907552</ele>
        <time>2026-08-22T13:05:26.283Z</time>
        <speed>1.1200591</speed>
      </trkpt>
      <trkpt lat="24.5312702" lon="111.2980973">
        <ele>132.22594684633566</ele>
        <time>2026-08-22T13:05:29.103Z</time>
        <speed>1.0872221</speed>
      </trkpt>
      <trkpt lat="24.5313078" lon="111.2981078">
        <ele>131.70074380383832</ele>
        <time>2026-08-22T13:05:31.002Z</time>
        <speed>1.0635823</speed>
      </trkpt>
      <trkpt lat="24.5313166" lon="111.2981418">
        <ele>132.49640981502273</ele>
        <time>2026-08-22T13:05:33.886Z</time>
        <speed>1.0970207</speed>
      </trkpt>
      <trkpt lat="24.5313039" lon="111.2981859">
        <ele>132.85526330759137</ele>
        <time>2026-08-22T13:05:35.816Z</time>
        <speed>1.0930821</speed>
      </trkpt>
      <trkpt lat="24.5313386" lon="111.2981926">
        <ele>132.25449367249934</ele>
        <time>2026-08-22T13:05:37.892Z</time>
        <speed>1.0059447</speed>
      </trkpt>
      <trkpt lat="24.5313642" lon="111.2982025">
        <ele>132.09152616749918</ele>
        <time>2026-08-22T13:05:39.841Z</time>
        <speed>1.1113112</speed>
      </trkpt>
      <trkpt lat="24.5314095" lon="111.2982308">
        <ele>131.8927633011602</ele>
        <time>2026-08-22T13:05:44.465Z</time>
        <speed>1.0865998</speed>
      </trkpt>
      <trkpt lat="24.5314278" lon="111.298253">
        <ele>131.55885380073153</ele>
        <time>2026-08-22T13:05:46.835Z</time>
        <speed>1.1060964</speed>
      </trkpt>
      <trkpt lat="24.5314658" lon="111.2982562">
        <ele>131.35014131940193</ele>
        <time>2026-08-22T13:05:49.263Z</time>
        <speed>1.0942549</speed>
      </trkpt>
      <trkpt lat="24.5314931" lon="111.2983441">
        <ele>131.13096362712812</ele>
        <time>2026-08-22T13:05:58.699Z</time>
        <speed>1.105682</speed>
      </trkpt>
      <trkpt lat="24.531492" lon="111.2983888">
        <ele>131.5258956752246</ele>
        <time>2026-08-22T13:06:02.943Z</time>
        <speed>1.0950329</speed>
      </trkpt>
      <trkpt lat="24.5314976" lon="111.2984183">
        <ele>131.6670194192245</ele>
        <time>2026-08-22T13:06:05.158Z</time>
        <speed>1.1633962</speed>
      </trkpt>
      <trkpt lat="24.5315069" lon="111.2984683">
        <ele>132.0169468963495</ele>
        <time>2026-08-22T13:06:09.577Z</time>
        <speed>0.82590467</speed>
      </trkpt>
      <trkpt lat="24.5312492" lon="111.2983594">
        <ele>131.95783257078924</ele>
        <time>2026-08-22T13:06:11.881Z</time>
        <speed>0.65677446</speed>
      </trkpt>
      <trkpt lat="24.5312799" lon="111.2984322">
        <ele>132.0818246678137</ele>
        <time>2026-08-22T13:06:21.891Z</time>
        <speed>0.13245018</speed>
      </trkpt>
      <trkpt lat="24.5312771" lon="111.2984733">
        <ele>131.95986629633947</ele>
        <time>2026-08-22T13:06:23.891Z</time>
        <speed>0.12046275</speed>
      </trkpt>
      <trkpt lat="24.5312751" lon="111.2985065">
        <ele>130.854331314575</ele>
        <time>2026-08-22T13:06:36.098Z</time>
        <speed>0.07072517</speed>
      </trkpt>
      <trkpt lat="24.5313092" lon="111.2985777">
        <ele>129.62754555988843</ele>
        <time>2026-08-22T13:06:44.891Z</time>
        <speed>0.82318556</speed>
      </trkpt>
      <trkpt lat="24.5313329" lon="111.2986097">
        <ele>129.30863122273894</ele>
        <time>2026-08-22T13:06:47.891Z</time>
        <speed>0.5776735</speed>
      </trkpt>
      <trkpt lat="24.5313618" lon="111.2986399">
        <ele>129.05254997370795</ele>
        <time>2026-08-22T13:06:51.892Z</time>
        <speed>0.8891342</speed>
      </trkpt>
      <trkpt lat="24.5313864" lon="111.2986965">
        <ele>128.21740121102175</ele>
        <time>2026-08-22T13:06:59.892Z</time>
        <speed>1.280985</speed>
      </trkpt>
      <trkpt lat="24.5313988" lon="111.2987401">
        <ele>127.92252547681903</ele>
        <time>2026-08-22T13:07:04.091Z</time>
        <speed>1.3996918</speed>
      </trkpt>
      <trkpt lat="24.5313794" lon="111.2987107">
        <ele>127.73513876278341</ele>
        <time>2026-08-22T13:07:08.040Z</time>
        <speed>0.3549846</speed>
      </trkpt>
      <trkpt lat="24.5311183" lon="111.298489">
        <ele>123.590467566439</ele>
        <time>2026-08-22T13:26:25.892Z</time>
        <speed>0.98</speed>
      </trkpt>
      <trkpt lat="24.5314807" lon="111.2985668">
        <ele>118.30060227007266</ele>
        <time>2026-08-22T13:26:31.892Z</time>
        <speed>1.1529909</speed>
      </trkpt>
      <trkpt lat="24.531431" lon="111.2986124">
        <ele>110.73072433692153</ele>
        <time>2026-08-22T13:26:42.891Z</time>
        <speed>0.015405201</speed>
      </trkpt>
      <trkpt lat="24.5313798" lon="111.298583">
        <ele>111.8870759305095</ele>
        <time>2026-08-22T13:26:50.892Z</time>
        <speed>0.100861125</speed>
      </trkpt>
      <trkpt lat="24.5313544" lon="111.2985396">
        <ele>110.0676818456997</ele>
        <time>2026-08-22T13:26:54.892Z</time>
        <speed>0.13371445</speed>
      </trkpt>
      <trkpt lat="24.5313364" lon="111.2985118">
        <ele>108.3361595054474</ele>
        <time>2026-08-22T13:27:07.621Z</time>
        <speed>0.24647121</speed>
      </trkpt>
      <trkpt lat="24.5313126" lon="111.2984247">
        <ele>108.74943182532093</ele>
        <time>2026-08-22T13:27:11.958Z</time>
        <speed>0.8281664</speed>
      </trkpt>
      <trkpt lat="24.5312859" lon="111.2984081">
        <ele>108.73824862472702</ele>
        <time>2026-08-22T13:27:14.307Z</time>
        <speed>1.2187709</speed>
      </trkpt>
      <trkpt lat="24.5312521" lon="111.2983685">
        <ele>108.72333771321985</ele>
        <time>2026-08-22T13:27:16.441Z</time>
        <speed>1.2384712</speed>
      </trkpt>
      <trkpt lat="24.5311934" lon="111.2983601">
        <ele>109.0423303523896</ele>
        <time>2026-08-22T13:27:20.596Z</time>
        <speed>1.2543296</speed>
      </trkpt>
      <trkpt lat="24.5311585" lon="111.2983438">
        <ele>114.20020237275384</ele>
        <time>2026-08-22T13:27:22.892Z</time>
        <speed>1.2680463</speed>
      </trkpt>
      <trkpt lat="24.5311259" lon="111.2983415">
        <ele>113.87056350741287</ele>
        <time>2026-08-22T13:27:25.578Z</time>
        <speed>1.1569561</speed>
      </trkpt>
      <trkpt lat="24.5311038" lon="111.2983144">
        <ele>111.20192730314298</ele>
        <time>2026-08-22T13:27:27.477Z</time>
        <speed>1.1629119</speed>
      </trkpt>
      <trkpt lat="24.5310761" lon="111.2983013">
        <ele>117.52658193285171</ele>
        <time>2026-08-22T13:27:29.683Z</time>
        <speed>1.225679</speed>
      </trkpt>
      <trkpt lat="24.5310461" lon="111.2982898">
        <ele>113.6458411846886</ele>
        <time>2026-08-22T13:27:31.892Z</time>
        <speed>1.2208064</speed>
      </trkpt>
      <trkpt lat="24.5310149" lon="111.298278">
        <ele>113.78695759714174</ele>
        <time>2026-08-22T13:27:34.400Z</time>
        <speed>1.207758</speed>
      </trkpt>
      <trkpt lat="24.5309903" lon="111.2982564">
        <ele>113.41314432643657</ele>
        <time>2026-08-22T13:27:36.266Z</time>
        <speed>1.2401646</speed>
      </trkpt>
      <trkpt lat="24.5309639" lon="111.2982432">
        <ele>113.41314432643657</ele>
        <time>2026-08-22T13:27:38.522Z</time>
        <speed>1.1989073</speed>
      </trkpt>
      <trkpt lat="24.530865" lon="111.298232">
        <ele>115.85946290130715</ele>
        <time>2026-08-22T13:27:47.804Z</time>
        <speed>1.1615572</speed>
      </trkpt>
      <trkpt lat="24.530851" lon="111.2982646">
        <ele>117.65971404081338</ele>
        <time>2026-08-22T13:27:49.827Z</time>
        <speed>1.1074615</speed>
      </trkpt>
      <trkpt lat="24.5308212" lon="111.2982757">
        <ele>117.66184417129327</ele>
        <time>2026-08-22T13:27:53.727Z</time>
        <speed>1.063018</speed>
      </trkpt>
      <trkpt lat="24.5307917" lon="111.2982621">
        <ele>117.83065868952082</ele>
        <time>2026-08-22T13:27:58.261Z</time>
        <speed>1.0980219</speed>
      </trkpt>
      <trkpt lat="24.530748" lon="111.2982449">
        <ele>117.47279714573196</ele>
        <time>2026-08-22T13:28:02.621Z</time>
        <speed>1.1133345</speed>
      </trkpt>
      <trkpt lat="24.5309785" lon="111.2983756">
        <ele>117.49835819073601</ele>
        <time>2026-08-22T13:28:04.801Z</time>
        <speed>1.2854663</speed>
      </trkpt>
      <trkpt lat="24.5311873" lon="111.2984951">
        <ele>116.03413019359635</ele>
        <time>2026-08-22T13:28:06.892Z</time>
        <speed>1.1934643</speed>
      </trkpt>
      <trkpt lat="24.5313852" lon="111.298598">
        <ele>116.07300479921028</ele>
        <time>2026-08-22T13:28:09.027Z</time>
        <speed>1.2260412</speed>
      </trkpt>
      <trkpt lat="24.5314706" lon="111.2986404">
        <ele>116.6939572517762</ele>
        <time>2026-08-22T13:28:13.106Z</time>
        <speed>1.0272447</speed>
      </trkpt>
      <trkpt lat="24.5314531" lon="111.2986025">
        <ele>116.74934455410482</ele>
        <time>2026-08-22T13:28:18.885Z</time>
        <speed>1.1376764</speed>
      </trkpt>
      <trkpt lat="24.5313016" lon="111.2985127">
        <ele>118.27001800222462</ele>
        <time>2026-08-22T13:28:29.892Z</time>
        <speed>1.18432</speed>
      </trkpt>
      <trkpt lat="24.5309416" lon="111.2983937">
        <ele>114.14006555430703</ele>
        <time>2026-08-22T13:28:41.892Z</time>
        <speed>2.3788555</speed>
      </trkpt>
      <trkpt lat="24.5308292" lon="111.2983704">
        <ele>114.48405339396137</ele>
        <time>2026-08-22T13:28:48.892Z</time>
        <speed>0.7047841</speed>
      </trkpt>
      <trkpt lat="24.5307459" lon="111.2981701">
        <ele>128.95577911333766</ele>
        <time>2026-08-22T13:30:08.892Z</time>
        <speed>0.0</speed>
      </trkpt>
      <trkpt lat="24.5306806" lon="111.2982411">
        <ele>134.59686543995673</ele>
        <time>2026-08-22T13:30:15.892Z</time>
        <speed>0.25406793</speed>
      </trkpt>
      <trkpt lat="24.5312625" lon="111.2982984">
        <ele>184.97558717481925</ele>
        <time>2026-08-22T13:43:32.886Z</time>
        <speed>0.0</speed>
      </trkpt>
      <trkpt lat="24.5312596" lon="111.298363">
        <ele>184.1376820167122</ele>
        <time>2026-08-22T13:43:38.907Z</time>
        <speed>0.1473311</speed>
      </trkpt>
      <trkpt lat="24.5312415" lon="111.2984036">
        <ele>184.1376820167122</ele>
        <time>2026-08-22T13:43:40.885Z</time>
        <speed>0.99218637</speed>
      </trkpt>
      <trkpt lat="24.5311688" lon="111.2984328">
        <ele>178.8905623235853</ele>
        <time>2026-08-22T13:43:45.549Z</time>
        <speed>0.29512975</speed>
      </trkpt>
      <trkpt lat="24.5308734" lon="111.2986057">
        <ele>175.68787974494037</ele>
        <time>2026-08-22T13:44:03.668Z</time>
        <speed>0.12262749</speed>
      </trkpt>
      <trkpt lat="24.5308809" lon="111.2985647">
        <ele>171.63860843633012</ele>
        <time>2026-08-22T13:44:24.885Z</time>
        <speed>0.7033902</speed>
      </trkpt>
      <trkpt lat="24.5308957" lon="111.2985074">
        <ele>164.0982025518127</ele>
        <time>2026-08-22T13:44:32.886Z</time>
        <speed>0.9869302</speed>
      </trkpt>
      <trkpt lat="24.5309288" lon="111.2984757">
        <ele>167.69561307510176</ele>
        <time>2026-08-22T13:44:40.885Z</time>
        <speed>0.7011026</speed>
      </trkpt>
      <trkpt lat="24.5308918" lon="111.2984617">
        <ele>157.69836123910136</ele>
        <time>2026-08-22T13:44:48.886Z</time>
        <speed>1.3955953</speed>
      </trkpt>
      <trkpt lat="24.5310281" lon="111.298315">
        <ele>164.6574326311422</ele>
        <time>2026-08-22T13:44:57.886Z</time>
        <speed>0.51783645</speed>
      </trkpt>
      <trkpt lat="24.5308483" lon="111.2984791">
        <ele>158.1093391169324</ele>
        <time>2026-08-22T13:45:06.886Z</time>
        <speed>2.980745</speed>
      </trkpt>
      <trkpt lat="24.5308202" lon="111.298504">
        <ele>164.25086232697421</ele>
        <time>2026-08-22T13:45:12.886Z</time>
        <speed>1.6466962</speed>
      </trkpt>
      <trkpt lat="24.5308274" lon="111.2984743">
        <ele>162.4766845703125</ele>
        <time>2026-08-22T13:45:15.885Z</time>
        <speed>0.3989441</speed>
      </trkpt>
      <trkpt lat="24.5307886" lon="111.2984849">
        <ele>164.20640323558027</ele>
        <time>2026-08-22T13:45:21.786Z</time>
        <speed>0.08649025</speed>
      </trkpt>
      <trkpt lat="24.5307615" lon="111.2984957">
        <ele>161.60315685909956</ele>
        <time>2026-08-22T13:45:23.886Z</time>
        <speed>0.10958565</speed>
      </trkpt>
      <trkpt lat="24.5307334" lon="111.2985072">
        <ele>169.137483977724</ele>
        <time>2026-08-22T13:45:27.885Z</time>
        <speed>0.121414945</speed>
      </trkpt>
      <trkpt lat="24.5307074" lon="111.2985156">
        <ele>175.89573795423394</ele>
        <time>2026-08-22T13:45:49.967Z</time>
        <speed>0.1540397</speed>
      </trkpt>
      <trkpt lat="24.5307079" lon="111.2985576">
        <ele>183.06627071376965</ele>
        <time>2026-08-22T13:53:53.885Z</time>
        <speed>0.11309953</speed>
      </trkpt>
      <trkpt lat="24.5307344" lon="111.2985671">
        <ele>183.08546031262523</ele>
        <time>2026-08-22T13:54:17.886Z</time>
        <speed>0.12778804</speed>
      </trkpt>
      <trkpt lat="24.5307604" lon="111.2985492">
        <ele>183.00948359459676</ele>
        <time>2026-08-22T13:54:33.885Z</time>
        <speed>0.12407989</speed>
      </trkpt>
      <trkpt lat="24.5307368" lon="111.2985345">
        <ele>180.31110923754875</ele>
        <time>2026-08-22T14:02:04.885Z</time>
        <speed>0.0</speed>
      </trkpt>
      <trkpt lat="24.5307095" lon="111.2985382">
        <ele>180.5199583640602</ele>
        <time>2026-08-22T14:07:24.885Z</time>
        <speed>0.066304475</speed>
      </trkpt>
      <trkpt lat="24.530683" lon="111.2985464">
        <ele>180.2363799257019</ele>
        <time>2026-08-22T14:11:06.024Z</time>
        <speed>0.09748129</speed>
      </trkpt>
      <trkpt lat="24.5306568" lon="111.2985703">
        <ele>180.2685237313051</ele>
        <time>2026-08-22T14:15:35.886Z</time>
        <speed>0.14606842</speed>
      </trkpt>
      <trkpt lat="24.5306318" lon="111.2985861">
        <ele>180.17930794650346</ele>
        <time>2026-08-22T14:15:51.885Z</time>
        <speed>0.13441908</speed>
      </trkpt>
      <trkpt lat="24.5306357" lon="111.2985565">
        <ele>183.1232980052181</ele>
        <time>2026-08-22T14:40:35.886Z</time>
        <speed>0.050848458</speed>
      </trkpt>
      <trkpt lat="24.5306622" lon="111.2985436">
        <ele>182.59378656493726</ele>
        <time>2026-08-22T14:43:30.886Z</time>
        <speed>0.0</speed>
      </trkpt>
      <trkpt lat="24.5306912" lon="111.2985618">
        <ele>181.49505889354333</ele>
        <time>2026-08-22T14:48:42.886Z</time>
        <speed>0.0</speed>
      </trkpt>
      <trkpt lat="24.5306457" lon="111.2985455">
        <ele>181.60300785562657</ele>
        <time>2026-08-22T14:50:41.885Z</time>
        <speed>0.0</speed>
      </trkpt>
      <trkpt lat="24.530671" lon="111.2985289">
        <ele>181.49475234761223</ele>
        <time>2026-08-22T14:51:09.886Z</time>
        <speed>0.0</speed>
      </trkpt>
      <trkpt lat="24.5308712" lon="111.2986047">
        <ele>181.41828038921676</ele>
        <time>2026-08-22T14:51:13.885Z</time>
        <speed>0.0</speed>
      </trkpt>
      <trkpt lat="24.5306466" lon="111.298512">
        <ele>181.22376503103123</ele>
        <time>2026-08-22T14:51:20.885Z</time>
        <speed>0.44</speed>
      </trkpt>
      <trkpt lat="24.5307072" lon="111.2985007">
        <ele>181.3029672701839</ele>
        <time>2026-08-22T14:51:26.886Z</time>
        <speed>0.43</speed>
      </trkpt>
      <trkpt lat="24.5306854" lon="111.2985203">
        <ele>181.28583348093662</ele>
        <time>2026-08-22T14:51:29.886Z</time>
        <speed>0.0</speed>
      </trkpt>
      <trkpt lat="24.5306552" lon="111.2984999">
        <ele>181.40886650530842</ele>
        <time>2026-08-22T14:51:32.886Z</time>
        <speed>0.0</speed>
      </trkpt>
      <trkpt lat="24.5308707" lon="111.2985203">
        <ele>181.27137737280475</ele>
        <time>2026-08-22T14:51:43.886Z</time>
        <speed>0.0</speed>
      </trkpt>
      <trkpt lat="24.5307908" lon="111.2985405">
        <ele>181.41917630800788</ele>
        <time>2026-08-22T14:51:47.886Z</time>
        <speed>0.0</speed>
      </trkpt>
      <trkpt lat="24.5306224" lon="111.2984894">
        <ele>181.40898335020398</ele>
        <time>2026-08-22T14:51:56.885Z</time>
        <speed>0.0</speed>
      </trkpt>
      <trkpt lat="24.5306596" lon="111.2984486">
        <ele>181.14061524162213</ele>
        <time>2026-08-22T14:51:59.886Z</time>
        <speed>0.0</speed>
      </trkpt>
      <trkpt lat="24.5306894" lon="111.2984507">
        <ele>181.13923778960043</ele>
        <time>2026-08-22T14:52:03.886Z</time>
        <speed>0.0</speed>
      </trkpt>
      <trkpt lat="24.5308405" lon="111.2984936">
        <ele>181.09170063013522</ele>
        <time>2026-08-22T14:52:11.885Z</time>
        <speed>0.0</speed>
      </trkpt>
      <trkpt lat="24.5310241" lon="111.2985367">
        <ele>181.24694251808273</ele>
        <time>2026-08-22T14:52:17.886Z</time>
        <speed>0.38</speed>
      </trkpt>
      <trkpt lat="24.5309876" lon="111.2985435">
        <ele>181.45826333295724</ele>
        <time>2026-08-22T14:52:21.885Z</time>
        <speed>0.0</speed>
      </trkpt>
      <trkpt lat="24.5310192" lon="111.2984946">
        <ele>181.4517018131661</ele>
        <time>2026-08-22T14:52:33.885Z</time>
        <speed>3.63</speed>
      </trkpt>
      <trkpt lat="24.5306002" lon="111.2986161">
        <ele>181.40129513641023</ele>
        <time>2026-08-22T14:52:41.885Z</time>
        <speed>0.0</speed>
      </trkpt>
      <trkpt lat="24.5306526" lon="111.2986006">
        <ele>181.45600106525183</ele>
        <time>2026-08-22T14:52:44.885Z</time>
        <speed>0.0</speed>
      </trkpt>
      <trkpt lat="24.5306272" lon="111.2985844">
        <ele>181.5678793748192</ele>
        <time>2026-08-22T14:52:48.886Z</time>
        <speed>0.0</speed>
      </trkpt>
      <trkpt lat="24.5307219" lon="111.2986338">
        <ele>181.519643022094</ele>
        <time>2026-08-22T14:52:56.886Z</time>
        <speed>0.0</speed>
      </trkpt>
      <trkpt lat="24.5307252" lon="111.2987021">
        <ele>181.39101063347107</ele>
        <time>2026-08-22T14:53:04.886Z</time>
        <speed>0.0</speed>
      </trkpt>
      <trkpt lat="24.5306735" lon="111.2986396">
        <ele>181.44599774613755</ele>
        <time>2026-08-22T14:53:09.886Z</time>
        <speed>0.0</speed>
      </trkpt>
      <trkpt lat="24.5311508" lon="111.2990018">
        <ele>181.45225296076268</ele>
        <time>2026-08-22T14:53:12.886Z</time>
        <speed>0.2</speed>
      </trkpt>
      <trkpt lat="24.5310611" lon="111.2988805">
        <ele>181.47296734275847</ele>
        <time>2026-08-22T14:53:17.886Z</time>
        <speed>0.0</speed>
      </trkpt>
      <trkpt lat="24.5308278" lon="111.2987878">
        <ele>181.46556253176033</ele>
        <time>2026-08-22T14:53:28.885Z</time>
        <speed>0.0</speed>
      </trkpt>
      <trkpt lat="24.530679" lon="111.2987241">
        <ele>181.4032925901011</ele>
        <time>2026-08-22T14:53:33.886Z</time>
        <speed>0.0</speed>
      </trkpt>
      <trkpt lat="24.530571" lon="111.2986201">
        <ele>181.39690053689048</ele>
        <time>2026-08-22T14:53:36.886Z</time>
        <speed>0.0</speed>
      </trkpt>
      <trkpt lat="24.5304941" lon="111.2985976">
        <ele>181.42350910450136</ele>
        <time>2026-08-22T14:53:41.886Z</time>
        <speed>0.0</speed>
      </trkpt>
      <trkpt lat="24.5305436" lon="111.2985065">
        <ele>181.250187628099</ele>
        <time>2026-08-22T14:53:49.886Z</time>
        <speed>0.7</speed>
      </trkpt>
      <trkpt lat="24.530621" lon="111.298541">
        <ele>181.1809304379055</ele>
        <time>2026-08-22T14:53:57.885Z</time>
        <speed>1.23</speed>
      </trkpt>
      <trkpt lat="24.5307078" lon="111.2988981">
        <ele>181.171070780322</ele>
        <time>2026-08-22T14:54:00.885Z</time>
        <speed>0.0</speed>
      </trkpt>
      <trkpt lat="24.5306638" lon="111.2986179">
        <ele>181.1516366292429</ele>
        <time>2026-08-22T14:54:05.885Z</time>
        <speed>0.0</speed>
      </trkpt>
      <trkpt lat="24.5307579" lon="111.2986712">
        <ele>181.0538633859357</ele>
        <time>2026-08-22T14:54:13.885Z</time>
        <speed>0.0</speed>
      </trkpt>
      <trkpt lat="24.5306677" lon="111.2986844">
        <ele>181.11430282640936</ele>
        <time>2026-08-22T14:54:16.886Z</time>
        <speed>0.0</speed>
      </trkpt>
      <trkpt lat="24.5309905" lon="111.2986173">
        <ele>181.14314083191437</ele>
        <time>2026-08-22T14:54:21.886Z</time>
        <speed>0.0</speed>
      </trkpt>
      <trkpt lat="24.5311596" lon="111.2985731">
        <ele>180.9747510287952</ele>
        <time>2026-08-22T14:54:24.885Z</time>
        <speed>0.0</speed>
      </trkpt>
      <trkpt lat="24.5306794" lon="111.2985502">
        <ele>180.95315337638283</ele>
        <time>2026-08-22T14:54:33.886Z</time>
        <speed>0.29</speed>
      </trkpt>
      <trkpt lat="24.5307758" lon="111.2985043">
        <ele>180.91712132010684</ele>
        <time>2026-08-22T14:54:36.885Z</time>
        <speed>0.0</speed>
      </trkpt>
      <trkpt lat="24.5307182" lon="111.2985012">
        <ele>180.71875697540702</ele>
        <time>2026-08-22T14:54:40.886Z</time>
        <speed>0.0</speed>
      </trkpt>
      <trkpt lat="24.5306929" lon="111.2985532">
        <ele>181.01524986800086</ele>
        <time>2026-08-22T14:54:53.885Z</time>
        <speed>0.0</speed>
      </trkpt>
      <trkpt lat="24.5308974" lon="111.2984721">
        <ele>180.91171723469188</ele>
        <time>2026-08-22T14:55:09.885Z</time>
        <speed>0.0</speed>
      </trkpt>
      <trkpt lat="24.5308882" lon="111.298425">
        <ele>180.7465986219661</ele>
        <time>2026-08-22T14:55:12.886Z</time>
        <speed>1.54</speed>
      </trkpt>
      <trkpt lat="24.5309197" lon="111.2984485">
        <ele>180.76265225180657</ele>
        <time>2026-08-22T14:55:17.886Z</time>
        <speed>0.0</speed>
      </trkpt>
      <trkpt lat="24.5308885" lon="111.2984585">
        <ele>181.0056752037127</ele>
        <time>2026-08-22T14:55:20.885Z</time>
        <speed>0.0</speed>
      </trkpt>
      <trkpt lat="24.530797" lon="111.2983816">
        <ele>181.03987914568359</ele>
        <time>2026-08-22T14:55:25.886Z</time>
        <speed>0.0</speed>
      </trkpt>
      <trkpt lat="24.5305519" lon="111.2982902">
        <ele>180.96908938217564</ele>
        <time>2026-08-22T14:55:28.885Z</time>
        <speed>0.0</speed>
      </trkpt>
      <trkpt lat="24.5307406" lon="111.2983293">
        <ele>180.99299618206942</ele>
        <time>2026-08-22T14:55:34.885Z</time>
        <speed>0.0</speed>
      </trkpt>
      <trkpt lat="24.5307711" lon="111.2983699">
        <ele>180.94102382207092</ele>
        <time>2026-08-22T14:55:37.885Z</time>
        <speed>0.0</speed>
      </trkpt>
      <trkpt lat="24.5307166" lon="111.2984334">
        <ele>180.95080278495163</ele>
        <time>2026-08-22T14:55:42.886Z</time>
        <speed>0.0</speed>
      </trkpt>
      <trkpt lat="24.5311133" lon="111.2986098">
        <ele>180.71131781765</ele>
        <time>2026-08-22T14:55:50.886Z</time>
        <speed>0.0</speed>
      </trkpt>
      <trkpt lat="24.5308667" lon="111.2983731">
        <ele>181.18337286172442</ele>
        <time>2026-08-22T14:55:59.886Z</time>
        <speed>0.0</speed>
      </trkpt>
      <trkpt lat="24.5307599" lon="111.2983455">
        <ele>180.99636656338885</ele>
        <time>2026-08-22T14:56:06.886Z</time>
        <speed>0.0</speed>
      </trkpt>
      <trkpt lat="24.5304908" lon="111.2984457">
        <ele>180.98672885494153</ele>
        <time>2026-08-22T14:56:09.885Z</time>
        <speed>0.58</speed>
      </trkpt>
      <trkpt lat="24.530854" lon="111.2982556">
        <ele>180.91988470657213</ele>
        <time>2026-08-22T14:56:14.885Z</time>
        <speed>0.0</speed>
      </trkpt>
      <trkpt lat="24.5309099" lon="111.2982097">
        <ele>180.9177429991842</ele>
        <time>2026-08-22T14:56:17.885Z</time>
        <speed>0.0</speed>
      </trkpt>
      <trkpt lat="24.5310139" lon="111.2981828">
        <ele>180.83517507622258</ele>
        <time>2026-08-22T14:56:30.886Z</time>
        <speed>0.0</speed>
      </trkpt>
      <trkpt lat="24.5309403" lon="111.2979641">
        <ele>180.98469785385964</ele>
        <time>2026-08-22T14:56:33.885Z</time>
        <speed>0.0</speed>
      </trkpt>
      <trkpt lat="24.5311382" lon="111.2984174">
        <ele>180.84828002544316</ele>
        <time>2026-08-22T14:56:47.885Z</time>
        <speed>0.51</speed>
      </trkpt>
      <trkpt lat="24.5305844" lon="111.298442">
        <ele>180.83328823800127</ele>
        <time>2026-08-22T14:56:49.886Z</time>
        <speed>0.0</speed>
      </trkpt>
      <trkpt lat="24.5307313" lon="111.2983186">
        <ele>180.70727654729683</ele>
        <time>2026-08-22T14:56:54.885Z</time>
        <speed>0.0</speed>
      </trkpt>
      <trkpt lat="24.5311802" lon="111.2982308">
        <ele>180.7169141429407</ele>
        <time>2026-08-22T14:56:57.886Z</time>
        <speed>0.0</speed>
      </trkpt>
      <trkpt lat="24.5310568" lon="111.2982642">
        <ele>180.66770911987675</ele>
        <time>2026-08-22T14:57:02.885Z</time>
        <speed>0.0</speed>
      </trkpt>
      <trkpt lat="24.5307113" lon="111.2985428">
        <ele>180.80144374998144</ele>
        <time>2026-08-22T14:57:05.886Z</time>
        <speed>0.0</speed>
      </trkpt>
      <trkpt lat="24.5305552" lon="111.2986127">
        <ele>180.75402574414312</ele>
        <time>2026-08-22T14:57:11.886Z</time>
        <speed>0.0</speed>
      </trkpt>
      <trkpt lat="24.5306448" lon="111.2984786">
        <ele>180.63108863753223</ele>
        <time>2026-08-22T14:57:25.885Z</time>
        <speed>0.0</speed>
      </trkpt>
      <trkpt lat="24.5307389" lon="111.2985733">
        <ele>180.75183616549685</ele>
        <time>2026-08-22T14:57:49.886Z</time>
        <speed>0.0</speed>
      </trkpt>
      <trkpt lat="24.5306474" lon="111.2985625">
        <ele>180.74330781587497</ele>
        <time>2026-08-22T14:57:53.886Z</time>
        <speed>0.0</speed>
      </trkpt>
      <trkpt lat="24.5309849" lon="111.2986903">
        <ele>180.58500076579946</ele>
        <time>2026-08-22T14:58:03.885Z</time>
        <speed>0.0</speed>
      </trkpt>
      <trkpt lat="24.5310617" lon="111.2987191">
        <ele>180.46639304979243</ele>
        <time>2026-08-22T14:58:12.886Z</time>
        <speed>0.0</speed>
      </trkpt>
      <trkpt lat="24.5312562" lon="111.2987812">
        <ele>180.62441181125666</ele>
        <time>2026-08-22T14:58:22.885Z</time>
        <speed>0.0</speed>
      </trkpt>
      <trkpt lat="24.5308845" lon="111.2983532">
        <ele>180.97703839092645</ele>
        <time>2026-08-22T14:58:30.886Z</time>
        <speed>0.99</speed>
      </trkpt>
      <trkpt lat="24.5306921" lon="111.2983331">
        <ele>180.57701495950784</ele>
        <time>2026-08-22T14:58:37.886Z</time>
        <speed>1.47</speed>
      </trkpt>
      <trkpt lat="24.5306735" lon="111.2985655">
        <ele>180.6810795172438</ele>
        <time>2026-08-22T14:58:45.886Z</time>
        <speed>0.0</speed>
      </trkpt>
      <trkpt lat="24.5312746" lon="111.2989514">
        <ele>181.08422622759463</ele>
        <time>2026-08-22T14:58:55.885Z</time>
        <speed>1.05</speed>
      </trkpt>
      <trkpt lat="24.531109" lon="111.2986492">
        <ele>180.9394175651808</ele>
        <time>2026-08-22T14:59:04.885Z</time>
        <speed>0.0</speed>
      </trkpt>
      <trkpt lat="24.530675" lon="111.2985676">
        <ele>180.57911115720242</ele>
        <time>2026-08-22T14:59:10.886Z</time>
        <speed>0.0</speed>
      </trkpt>
      <trkpt lat="24.5303737" lon="111.2983827">
        <ele>180.2978094694883</ele>
        <time>2026-08-22T14:59:13.885Z</time>
        <speed>0.0</speed>
      </trkpt>
      <trkpt lat="24.5304594" lon="111.2984533">
        <ele>180.58202664517262</ele>
        <time>2026-08-22T14:59:18.886Z</time>
        <speed>0.0</speed>
      </trkpt>
      <trkpt lat="24.531403" lon="111.2984349">
        <ele>180.60665590138825</ele>
        <time>2026-08-22T14:59:21.885Z</time>
        <speed>0.0</speed>
      </trkpt>
      <trkpt lat="24.5311337" lon="111.2985049">
        <ele>181.04236398389645</ele>
        <time>2026-08-22T14:59:27.885Z</time>
        <speed>0.0</speed>
      </trkpt>
      <trkpt lat="24.5308827" lon="111.2984288">
        <ele>180.99417644969492</ele>
        <time>2026-08-22T14:59:29.885Z</time>
        <speed>0.0</speed>
      </trkpt>
      <trkpt lat="24.5307077" lon="111.2985209">
        <ele>180.93648087484667</ele>
        <time>2026-08-22T14:59:33.885Z</time>
        <speed>0.0</speed>
      </trkpt>
      <trkpt lat="24.5308767" lon="111.2985676">
        <ele>180.8244291248186</ele>
        <time>2026-08-22T14:59:38.885Z</time>
        <speed>0.0</speed>
      </trkpt>
      <trkpt lat="24.5307157" lon="111.298579">
        <ele>180.6101835957885</ele>
        <time>2026-08-22T14:59:41.885Z</time>
        <speed>0.26</speed>
      </trkpt>
      <trkpt lat="24.5305776" lon="111.2985635">
        <ele>180.43776176088312</ele>
        <time>2026-08-22T14:59:45.885Z</time>
        <speed>0.0</speed>
      </trkpt>
      <trkpt lat="24.5310901" lon="111.2982481">
        <ele>180.47762079882523</ele>
        <time>2026-08-22T14:59:51.886Z</time>
        <speed>0.83</speed>
      </trkpt>
      <trkpt lat="24.531051" lon="111.298806">
        <ele>180.88632138226097</ele>
        <time>2026-08-22T14:59:53.885Z</time>
        <speed>1.18</speed>
      </trkpt>
      <trkpt lat="24.5307952" lon="111.2985133">
        <ele>180.93260388224718</ele>
        <time>2026-08-22T15:00:01.886Z</time>
        <speed>0.0</speed>
      </trkpt>
      <trkpt lat="24.5306717" lon="111.2985441">
        <ele>180.9888848458661</ele>
        <time>2026-08-22T15:00:05.885Z</time>
        <speed>0.0</speed>
      </trkpt>
      <trkpt lat="24.5307156" lon="111.298535">
        <ele>180.9951962222704</ele>
        <time>2026-08-22T15:00:11.885Z</time>
        <speed>0.08572523</speed>
      </trkpt>
      <trkpt lat="24.5307447" lon="111.2985262">
        <ele>180.8126656083113</ele>
        <time>2026-08-22T15:00:17.885Z</time>
        <speed>0.10485912</speed>
      </trkpt>
      <trkpt lat="24.5307167" lon="111.2985205">
        <ele>180.85578971817966</ele>
        <time>2026-08-22T15:00:33.885Z</time>
        <speed>0.19081573</speed>
      </trkpt>
      <trkpt lat="24.5307639" lon="111.298514">
        <ele>180.7237725749731</ele>
        <time>2026-08-22T15:00:49.885Z</time>
        <speed>0.20042147</speed>
      </trkpt>
      <trkpt lat="24.5307428" lon="111.2985346">
        <ele>180.81189946222617</ele>
        <time>2026-08-22T15:01:01.886Z</time>
        <speed>0.19029033</speed>
      </trkpt>
      <trkpt lat="24.5307625" lon="111.298555">
        <ele>180.8266558895728</ele>
        <time>2026-08-22T15:01:13.885Z</time>
        <speed>0.21630964</speed>
      </trkpt>
      <trkpt lat="24.5307351" lon="111.2985592">
        <ele>181.11012246906614</ele>
        <time>2026-08-22T15:01:18.886Z</time>
        <speed>0.20991373</speed>
      </trkpt>
      <trkpt lat="24.5307768" lon="111.2985549">
        <ele>180.7659061159983</ele>
        <time>2026-08-22T15:01:33.886Z</time>
        <speed>0.18637936</speed>
      </trkpt>
      <trkpt lat="24.5308405" lon="111.2985116">
        <ele>180.8179758885015</ele>
        <time>2026-08-22T15:01:57.886Z</time>
        <speed>0.35122493</speed>
      </trkpt>
      <trkpt lat="24.5309438" lon="111.2984814">
        <ele>180.75032785693332</ele>
        <time>2026-08-22T15:02:06.885Z</time>
        <speed>0.6851094</speed>
      </trkpt>
      <trkpt lat="24.5308588" lon="111.2984905">
        <ele>180.74872164704288</ele>
        <time>2026-08-22T15:02:09.885Z</time>
        <speed>0.21583864</speed>
      </trkpt>
      <trkpt lat="24.5308299" lon="111.2985013">
        <ele>180.95992882121703</ele>
        <time>2026-08-22T15:02:13.886Z</time>
        <speed>0.120147355</speed>
      </trkpt>
      <trkpt lat="24.5308716" lon="111.2985012">
        <ele>180.81005838013857</ele>
        <time>2026-08-22T15:02:21.886Z</time>
        <speed>0.14823991</speed>
      </trkpt>
      <trkpt lat="24.5309188" lon="111.2984951">
        <ele>180.69047158647714</ele>
        <time>2026-08-22T15:02:34.886Z</time>
        <speed>0.25132743</speed>
      </trkpt>
      <trkpt lat="24.5308884" lon="111.2984979">
        <ele>180.81363029676555</ele>
        <time>2026-08-22T15:02:37.885Z</time>
        <speed>0.18005213</speed>
      </trkpt>
      <trkpt lat="24.5308576" lon="111.2985024">
        <ele>180.8003517894074</ele>
        <time>2026-08-22T15:02:41.886Z</time>
        <speed>0.19557315</speed>
      </trkpt>
      <trkpt lat="24.5308897" lon="111.2985136">
        <ele>181.2871215464084</ele>
        <time>2026-08-22T15:03:09.886Z</time>
        <speed>0.15585682</speed>
      </trkpt>
      <trkpt lat="24.5309265" lon="111.2985353">
        <ele>181.29291942327933</ele>
        <time>2026-08-22T15:03:14.885Z</time>
        <speed>0.26019993</speed>
      </trkpt>
      <trkpt lat="24.5309691" lon="111.2985314">
        <ele>181.13509485688496</ele>
        <time>2026-08-22T15:03:21.886Z</time>
        <speed>0.32527322</speed>
      </trkpt>
      <trkpt lat="24.5309253" lon="111.2985413">
        <ele>181.2870534740543</ele>
        <time>2026-08-22T15:03:41.885Z</time>
        <speed>0.31953672</speed>
      </trkpt>
      <trkpt lat="24.5309422" lon="111.2985649">
        <ele>181.31497575727548</ele>
        <time>2026-08-22T15:03:53.885Z</time>
        <speed>0.23410104</speed>
      </trkpt>
      <trkpt lat="24.5309693" lon="111.298604">
        <ele>181.20580653676797</ele>
        <time>2026-08-22T15:03:57.886Z</time>
        <speed>0.3579402</speed>
      </trkpt>
      <trkpt lat="24.5309345" lon="111.2985941">
        <ele>181.31549862607017</ele>
        <time>2026-08-22T15:04:05.885Z</time>
        <speed>0.21830064</speed>
      </trkpt>
      <trkpt lat="24.5308968" lon="111.2985888">
        <ele>181.28872775489958</ele>
        <time>2026-08-22T15:04:15.886Z</time>
        <speed>0.39383757</speed>
      </trkpt>
      <trkpt lat="24.5308785" lon="111.2985627">
        <ele>181.51620319801174</ele>
        <time>2026-08-22T15:04:27.787Z</time>
        <speed>0.9785296</speed>
      </trkpt>
      <trkpt lat="24.5308144" lon="111.2986939">
        <ele>181.61105884951382</ele>
        <time>2026-08-22T15:04:31.885Z</time>
        <speed>0.0</speed>
      </trkpt>
      <trkpt lat="24.5306816" lon="111.2986674">
        <ele>181.6891034542801</ele>
        <time>2026-08-22T15:04:39.886Z</time>
        <speed>0.0</speed>
      </trkpt>
      <trkpt lat="24.5306905" lon="111.2986199">
        <ele>181.78070277600324</ele>
        <time>2026-08-22T15:04:56.885Z</time>
        <speed>0.11314993</speed>
      </trkpt>
      <trkpt lat="24.530707" lon="111.2985734">
        <ele>181.76297575197913</ele>
        <time>2026-08-22T15:05:04.885Z</time>
        <speed>0.10184791</speed>
      </trkpt>
      <trkpt lat="24.5307355" lon="111.2985567">
        <ele>181.81043810840566</ele>
        <time>2026-08-22T15:05:24.885Z</time>
        <speed>0.12233482</speed>
      </trkpt>
      <trkpt lat="24.5307716" lon="111.2985396">
        <ele>181.70090619691086</ele>
        <time>2026-08-22T15:05:52.886Z</time>
        <speed>0.14940085</speed>
      </trkpt>
      <trkpt lat="24.5307967" lon="111.2985278">
        <ele>181.58966971348917</ele>
        <time>2026-08-22T15:07:37.024Z</time>
        <speed>0.1109064</speed>
      </trkpt>
      <trkpt lat="24.5307826" lon="111.2985563">
        <ele>173.1426535964597</ele>
        <time>2026-08-22T15:18:59.885Z</time>
        <speed>0.1073836</speed>
      </trkpt>
      <trkpt lat="24.5307988" lon="111.29853">
        <ele>182.21655759651753</ele>
        <time>2026-08-22T15:28:07.886Z</time>
        <speed>0.0828585</speed>
      </trkpt>
      <trkpt lat="24.5307715" lon="111.2985313">
        <ele>189.67031252582075</ele>
        <time>2026-08-22T15:41:37.885Z</time>
        <speed>0.0648108</speed>
      </trkpt>
    </trkseg>
  </trk>
</gpx>
